{"type":"FeatureCollection","features":[{"type":"Feature","geometry":{"type":"Polygon","coordinates":[[[-63.804,-14.22906],[-63.80281,-14.22808],[-63.80222,-14.22872],[-63.80338,-14.22974],[-63.804,-14.22906]]]},"properties":{"n":"EL CARMEN","p":83,"personas_x_ha":51,"masculinidad":159,"pct_menor20":41,"pct_60mas":4,"pct_migrante":13,"dependencia_econ":315,"pct_empleados":20,"pct_cuentapropia":50,"pct_agricultura":55,"pct_comercio":0,"pct_manufactura":15,"pct_construccion":0,"pct_transporte":5,"pct_alojamiento":5,"pct_sin_educacion":4,"pct_educ_superior":6,"brecha_educ":-10,"pct_sin_seguro":1,"pct_sus":93,"pct_seguro_privado":0,"brecha_seguro":2,"pct_salud_publica":49,"pct_med_tradicional":0,"pct_automedicacion":3,"pct_remedios_caseros":45,"pct_viv_desocupada":20,"pct_alquiler":8,"pct_electricidad":100,"pct_sin_electricidad":0,"pct_agua_red":17,"pct_alcantarillado":0,"pct_camara_septica":0,"pct_pozo_ciego":83,"pct_sin_desague":0,"pct_gas_red":0,"pct_gas_garrafa":50,"pct_lena_guano":50,"pct_basura_formal":0,"pct_basura_quema":83,"pct_basura_informal":8,"pct_internet":75,"pct_celular":83,"pct_televisor":33}},{"type":"Feature","geometry":{"type":"Polygon","coordinates":[[[-63.8016,-14.22837],[-63.80101,-14.22788],[-63.80043,-14.22841],[-63.80106,-14.22896],[-63.8016,-14.22837]]]},"properties":{"n":"EL CARMEN","p":58,"personas_x_ha":74,"masculinidad":152,"pct_menor20":31,"pct_60mas":9,"pct_migrante":16,"dependencia_econ":132,"pct_empleados":56,"pct_cuentapropia":40,"pct_agricultura":28,"pct_comercio":24,"pct_manufactura":12,"pct_construccion":12,"pct_transporte":0,"pct_alojamiento":4,"pct_sin_educacion":2,"pct_educ_superior":16,"brecha_educ":-5,"pct_sin_seguro":0,"pct_sus":84,"pct_seguro_privado":0,"brecha_seguro":0,"pct_salud_publica":33,"pct_med_tradicional":0,"pct_automedicacion":30,"pct_remedios_caseros":30,"pct_viv_desocupada":0,"pct_alquiler":0,"pct_electricidad":100,"pct_sin_electricidad":0,"pct_agua_red":0,"pct_alcantarillado":0,"pct_camara_septica":22,"pct_pozo_ciego":44,"pct_sin_desague":0,"pct_gas_red":0,"pct_gas_garrafa":89,"pct_lena_guano":11,"pct_basura_formal":11,"pct_basura_quema":89,"pct_basura_informal":0,"pct_internet":78,"pct_celular":100,"pct_televisor":78}},{"type":"Feature","geometry":{"type":"Polygon","coordinates":[[[-63.79775,-14.23261],[-63.79704,-14.23203],[-63.797,-14.23208],[-63.7977,-14.23266],[-63.79707,-14.23338],[-63.79621,-14.23263],[-63.79816,-14.23061],[-63.79892,-14.23129],[-63.79775,-14.23261]]]},"properties":{"n":"EL CARMEN","p":73,"personas_x_ha":21,"masculinidad":121,"pct_menor20":53,"pct_60mas":7,"pct_migrante":15,"dependencia_econ":279,"pct_empleados":32,"pct_cuentapropia":63,"pct_agricultura":53,"pct_comercio":16,"pct_manufactura":5,"pct_construccion":5,"pct_transporte":0,"pct_alojamiento":0,"pct_sin_educacion":3,"pct_educ_superior":3,"brecha_educ":11,"pct_sin_seguro":0,"pct_sus":89,"pct_seguro_privado":0,"brecha_seguro":0,"pct_salud_publica":57,"pct_med_tradicional":11,"pct_automedicacion":9,"pct_remedios_caseros":12,"pct_viv_desocupada":0,"pct_alquiler":6,"pct_electricidad":100,"pct_sin_electricidad":0,"pct_agua_red":22,"pct_alcantarillado":0,"pct_camara_septica":11,"pct_pozo_ciego":39,"pct_sin_desague":6,"pct_gas_red":0,"pct_gas_garrafa":67,"pct_lena_guano":33,"pct_basura_formal":6,"pct_basura_quema":89,"pct_basura_informal":6,"pct_internet":83,"pct_celular":94,"pct_televisor":61}},{"type":"Feature","geometry":{"type":"Polygon","coordinates":[[[-63.80105,-14.23103],[-63.80146,-14.23059],[-63.80051,-14.22975],[-63.79988,-14.23048],[-63.80044,-14.23097],[-63.80068,-14.23072],[-63.80105,-14.23103]]]},"properties":{"n":"EL CARMEN","p":61,"personas_x_ha":50,"masculinidad":97,"pct_menor20":33,"pct_60mas":18,"pct_migrante":15,"dependencia_econ":300,"pct_empleados":40,"pct_cuentapropia":27,"pct_agricultura":20,"pct_comercio":7,"pct_manufactura":7,"pct_construccion":13,"pct_transporte":7,"pct_alojamiento":7,"pct_sin_educacion":5,"pct_educ_superior":9,"brecha_educ":-7,"pct_sin_seguro":18,"pct_sus":82,"pct_seguro_privado":0,"brecha_seguro":6,"pct_salud_publica":52,"pct_med_tradicional":7,"pct_automedicacion":4,"pct_remedios_caseros":25,"pct_viv_desocupada":0,"pct_alquiler":13,"pct_electricidad":100,"pct_sin_electricidad":0,"pct_agua_red":7,"pct_alcantarillado":0,"pct_camara_septica":53,"pct_pozo_ciego":33,"pct_sin_desague":13,"pct_gas_red":0,"pct_gas_garrafa":67,"pct_lena_guano":33,"pct_basura_formal":20,"pct_basura_quema":73,"pct_basura_informal":0,"pct_internet":87,"pct_celular":100,"pct_televisor":67}},{"type":"Feature","geometry":{"type":"Polygon","coordinates":[[[-63.79874,-14.2297],[-63.79806,-14.2291],[-63.79745,-14.22967],[-63.79819,-14.23028],[-63.79874,-14.2297]]]},"properties":{"n":"EL CARMEN","p":41,"personas_x_ha":44,"masculinidad":128,"pct_menor20":56,"pct_60mas":15,"pct_migrante":37,"dependencia_econ":215,"pct_empleados":46,"pct_cuentapropia":31,"pct_agricultura":54,"pct_comercio":15,"pct_manufactura":0,"pct_construccion":8,"pct_transporte":0,"pct_alojamiento":15,"pct_sin_educacion":0,"pct_educ_superior":0,"brecha_educ":-32,"pct_sin_seguro":0,"pct_sus":100,"pct_seguro_privado":0,"brecha_seguro":0,"pct_salud_publica":53,"pct_med_tradicional":6,"pct_automedicacion":4,"pct_remedios_caseros":35,"pct_viv_desocupada":0,"pct_alquiler":0,"pct_electricidad":86,"pct_sin_electricidad":0,"pct_agua_red":71,"pct_alcantarillado":0,"pct_camara_septica":14,"pct_pozo_ciego":71,"pct_sin_desague":0,"pct_gas_red":0,"pct_gas_garrafa":43,"pct_lena_guano":57,"pct_basura_formal":14,"pct_basura_quema":86,"pct_basura_informal":0,"pct_internet":86,"pct_celular":86,"pct_televisor":71}},{"type":"Feature","geometry":{"type":"Polygon","coordinates":[[[-63.80168,-14.23158],[-63.80208,-14.23115],[-63.80158,-14.23069],[-63.80118,-14.23114],[-63.80168,-14.23158]]]},"properties":{"n":"EL CARMEN","p":38,"personas_x_ha":79,"masculinidad":138,"pct_menor20":42,"pct_60mas":8,"pct_migrante":26,"dependencia_econ":217,"pct_empleados":25,"pct_cuentapropia":8,"pct_agricultura":58,"pct_comercio":0,"pct_manufactura":0,"pct_construccion":0,"pct_transporte":0,"pct_alojamiento":8,"pct_sin_educacion":9,"pct_educ_superior":9,"brecha_educ":20,"pct_sin_seguro":8,"pct_sus":89,"pct_seguro_privado":3,"brecha_seguro":3,"pct_salud_publica":42,"pct_med_tradicional":16,"pct_automedicacion":8,"pct_remedios_caseros":21,"pct_viv_desocupada":0,"pct_alquiler":14,"pct_electricidad":100,"pct_sin_electricidad":0,"pct_agua_red":14,"pct_alcantarillado":0,"pct_camara_septica":0,"pct_pozo_ciego":100,"pct_sin_desague":0,"pct_gas_red":0,"pct_gas_garrafa":86,"pct_lena_guano":14,"pct_basura_formal":0,"pct_basura_quema":86,"pct_basura_informal":0,"pct_internet":86,"pct_celular":86,"pct_televisor":71}},{"type":"Feature","geometry":{"type":"Polygon","coordinates":[[[-63.79913,-14.23277],[-63.79864,-14.23334],[-63.79794,-14.23271],[-63.7991,-14.23138],[-63.80069,-14.23275],[-63.80003,-14.23346],[-63.79883,-14.23241],[-63.79879,-14.23246],[-63.79913,-14.23277]]]},"properties":{"n":"EL CARMEN","p":36,"personas_x_ha":11,"masculinidad":100,"pct_menor20":50,"pct_60mas":6,"pct_migrante":25,"dependencia_econ":55,"pct_empleados":9,"pct_cuentapropia":32,"pct_agricultura":64,"pct_comercio":9,"pct_manufactura":0,"pct_construccion":5,"pct_transporte":5,"pct_alojamiento":0,"pct_sin_educacion":0,"pct_educ_superior":5,"brecha_educ":-12,"pct_sin_seguro":6,"pct_sus":82,"pct_seguro_privado":0,"brecha_seguro":-12,"pct_salud_publica":87,"pct_med_tradicional":0,"pct_automedicacion":0,"pct_remedios_caseros":8,"pct_viv_desocupada":0,"pct_alquiler":25,"pct_electricidad":100,"pct_sin_electricidad":0,"pct_agua_red":88,"pct_alcantarillado":38,"pct_camara_septica":0,"pct_pozo_ciego":38,"pct_sin_desague":0,"pct_gas_red":0,"pct_gas_garrafa":75,"pct_lena_guano":25,"pct_basura_formal":0,"pct_basura_quema":100,"pct_basura_informal":0,"pct_internet":12,"pct_celular":88,"pct_televisor":75}},{"type":"Feature","geometry":{"type":"Polygon","coordinates":[[[-63.80089,-14.2291],[-63.80031,-14.22854],[-63.79984,-14.22894],[-63.80048,-14.22955],[-63.80089,-14.2291]]]},"properties":{"n":"EL CARMEN","p":51,"personas_x_ha":78,"masculinidad":132,"pct_menor20":31,"pct_60mas":16,"pct_migrante":31,"dependencia_econ":122,"pct_empleados":30,"pct_cuentapropia":52,"pct_agricultura":22,"pct_comercio":13,"pct_manufactura":17,"pct_construccion":9,"pct_transporte":17,"pct_alojamiento":4,"pct_sin_educacion":3,"pct_educ_superior":9,"brecha_educ":-5,"pct_sin_seguro":12,"pct_sus":86,"pct_seguro_privado":0,"brecha_seguro":5,"pct_salud_publica":50,"pct_med_tradicional":6,"pct_automedicacion":11,"pct_remedios_caseros":32,"pct_viv_desocupada":0,"pct_alquiler":0,"pct_electricidad":100,"pct_sin_electricidad":0,"pct_agua_red":15,"pct_alcantarillado":8,"pct_camara_septica":62,"pct_pozo_ciego":23,"pct_sin_desague":0,"pct_gas_red":0,"pct_gas_garrafa":85,"pct_lena_guano":15,"pct_basura_formal":23,"pct_basura_quema":69,"pct_basura_informal":0,"pct_internet":85,"pct_celular":85,"pct_televisor":69}},{"type":"Feature","geometry":{"type":"Polygon","coordinates":[[[-63.8037,-14.23103],[-63.80295,-14.23037],[-63.80226,-14.23115],[-63.80296,-14.23177],[-63.8037,-14.23103]]]},"properties":{"n":"EL CARMEN","p":77,"personas_x_ha":63,"masculinidad":103,"pct_menor20":35,"pct_60mas":16,"pct_migrante":34,"dependencia_econ":141,"pct_empleados":31,"pct_cuentapropia":47,"pct_agricultura":19,"pct_comercio":34,"pct_manufactura":0,"pct_construccion":12,"pct_transporte":9,"pct_alojamiento":3,"pct_sin_educacion":4,"pct_educ_superior":24,"brecha_educ":19,"pct_sin_seguro":1,"pct_sus":83,"pct_seguro_privado":1,"brecha_seguro":3,"pct_salud_publica":43,"pct_med_tradicional":2,"pct_automedicacion":14,"pct_remedios_caseros":24,"pct_viv_desocupada":0,"pct_alquiler":14,"pct_electricidad":100,"pct_sin_electricidad":0,"pct_agua_red":14,"pct_alcantarillado":0,"pct_camara_septica":21,"pct_pozo_ciego":50,"pct_sin_desague":7,"pct_gas_red":0,"pct_gas_garrafa":57,"pct_lena_guano":43,"pct_basura_formal":29,"pct_basura_quema":50,"pct_basura_informal":21,"pct_internet":86,"pct_celular":93,"pct_televisor":64}},{"type":"Feature","geometry":{"type":"Polygon","coordinates":[[[-63.8004,-14.22965],[-63.79972,-14.22905],[-63.79901,-14.22972],[-63.79972,-14.23034],[-63.8004,-14.22965]]]},"properties":{"n":"EL CARMEN","p":85,"personas_x_ha":78,"masculinidad":89,"pct_menor20":35,"pct_60mas":12,"pct_migrante":25,"dependencia_econ":140,"pct_empleados":29,"pct_cuentapropia":46,"pct_agricultura":46,"pct_comercio":17,"pct_manufactura":3,"pct_construccion":9,"pct_transporte":0,"pct_alojamiento":6,"pct_sin_educacion":4,"pct_educ_superior":18,"brecha_educ":-10,"pct_sin_seguro":1,"pct_sus":85,"pct_seguro_privado":2,"brecha_seguro":-2,"pct_salud_publica":39,"pct_med_tradicional":11,"pct_automedicacion":15,"pct_remedios_caseros":17,"pct_viv_desocupada":0,"pct_alquiler":5,"pct_electricidad":100,"pct_sin_electricidad":0,"pct_agua_red":55,"pct_alcantarillado":10,"pct_camara_septica":30,"pct_pozo_ciego":60,"pct_sin_desague":0,"pct_gas_red":0,"pct_gas_garrafa":75,"pct_lena_guano":25,"pct_basura_formal":0,"pct_basura_quema":100,"pct_basura_informal":0,"pct_internet":80,"pct_celular":85,"pct_televisor":75}},{"type":"Feature","geometry":{"type":"Polygon","coordinates":[[[-63.80195,-14.23004],[-63.80103,-14.22921],[-63.80062,-14.22965],[-63.80156,-14.23049],[-63.80195,-14.23004]]]},"properties":{"n":"EL CARMEN","p":68,"personas_x_ha":75,"masculinidad":94,"pct_menor20":34,"pct_60mas":21,"pct_migrante":32,"dependencia_econ":131,"pct_empleados":28,"pct_cuentapropia":41,"pct_agricultura":17,"pct_comercio":21,"pct_manufactura":7,"pct_construccion":3,"pct_transporte":0,"pct_alojamiento":24,"pct_sin_educacion":9,"pct_educ_superior":29,"brecha_educ":19,"pct_sin_seguro":8,"pct_sus":88,"pct_seguro_privado":0,"brecha_seguro":3,"pct_salud_publica":42,"pct_med_tradicional":6,"pct_automedicacion":18,"pct_remedios_caseros":22,"pct_viv_desocupada":0,"pct_alquiler":0,"pct_electricidad":100,"pct_sin_electricidad":0,"pct_agua_red":5,"pct_alcantarillado":9,"pct_camara_septica":27,"pct_pozo_ciego":45,"pct_sin_desague":0,"pct_gas_red":0,"pct_gas_garrafa":68,"pct_lena_guano":32,"pct_basura_formal":9,"pct_basura_quema":82,"pct_basura_informal":5,"pct_internet":68,"pct_celular":77,"pct_televisor":59}},{"type":"Feature","geometry":{"type":"Polygon","coordinates":[[[-63.80295,-14.23192],[-63.80376,-14.23267],[-63.80311,-14.23336],[-63.8023,-14.23261],[-63.80295,-14.23192]]]},"properties":{"n":"EL CARMEN","p":36,"personas_x_ha":29,"masculinidad":100,"pct_menor20":47,"pct_60mas":6,"pct_migrante":42,"dependencia_econ":260,"pct_empleados":20,"pct_cuentapropia":50,"pct_agricultura":40,"pct_comercio":20,"pct_manufactura":10,"pct_construccion":0,"pct_transporte":0,"pct_alojamiento":10,"pct_sin_educacion":0,"pct_educ_superior":20,"brecha_educ":-4,"pct_sin_seguro":14,"pct_sus":83,"pct_seguro_privado":3,"brecha_seguro":28,"pct_salud_publica":42,"pct_med_tradicional":5,"pct_automedicacion":4,"pct_remedios_caseros":36,"pct_viv_desocupada":0,"pct_alquiler":0,"pct_electricidad":86,"pct_sin_electricidad":14,"pct_agua_red":71,"pct_alcantarillado":14,"pct_camara_septica":43,"pct_pozo_ciego":43,"pct_sin_desague":0,"pct_gas_red":0,"pct_gas_garrafa":86,"pct_lena_guano":14,"pct_basura_formal":0,"pct_basura_quema":86,"pct_basura_informal":14,"pct_internet":86,"pct_celular":86,"pct_televisor":71}},{"type":"Feature","geometry":{"type":"Polygon","coordinates":[[[-63.8009,-14.2278],[-63.79947,-14.22652],[-63.79929,-14.22677],[-63.79934,-14.22735],[-63.80032,-14.2283],[-63.8009,-14.2278]]]},"properties":{"n":"EL CARMEN","p":99,"personas_x_ha":66,"masculinidad":87,"pct_menor20":28,"pct_60mas":14,"pct_migrante":79,"dependencia_econ":80,"pct_empleados":15,"pct_cuentapropia":56,"pct_agricultura":38,"pct_comercio":18,"pct_manufactura":7,"pct_construccion":9,"pct_transporte":2,"pct_alojamiento":2,"pct_sin_educacion":4,"pct_educ_superior":20,"brecha_educ":30,"pct_sin_seguro":5,"pct_sus":95,"pct_seguro_privado":0,"brecha_seguro":-1,"pct_salud_publica":49,"pct_med_tradicional":7,"pct_automedicacion":4,"pct_remedios_caseros":31,"pct_viv_desocupada":8,"pct_alquiler":0,"pct_electricidad":100,"pct_sin_electricidad":0,"pct_agua_red":42,"pct_alcantarillado":8,"pct_camara_septica":33,"pct_pozo_ciego":33,"pct_sin_desague":0,"pct_gas_red":0,"pct_gas_garrafa":42,"pct_lena_guano":58,"pct_basura_formal":25,"pct_basura_quema":58,"pct_basura_informal":0,"pct_internet":83,"pct_celular":83,"pct_televisor":50}},{"type":"Feature","geometry":{"type":"Polygon","coordinates":[[[-63.79761,-14.22843],[-63.79888,-14.22964],[-63.79962,-14.22895],[-63.79878,-14.22821],[-63.79761,-14.22843]]]},"properties":{"n":"EL CARMEN","p":63,"personas_x_ha":37,"masculinidad":142,"pct_menor20":38,"pct_60mas":6,"pct_migrante":37,"dependencia_econ":158,"pct_empleados":42,"pct_cuentapropia":33,"pct_agricultura":46,"pct_comercio":12,"pct_manufactura":0,"pct_construccion":12,"pct_transporte":8,"pct_alojamiento":0,"pct_sin_educacion":8,"pct_educ_superior":10,"brecha_educ":-2,"pct_sin_seguro":6,"pct_sus":94,"pct_seguro_privado":0,"brecha_seguro":4,"pct_salud_publica":56,"pct_med_tradicional":1,"pct_automedicacion":6,"pct_remedios_caseros":32,"pct_viv_desocupada":0,"pct_alquiler":10,"pct_electricidad":100,"pct_sin_electricidad":0,"pct_agua_red":10,"pct_alcantarillado":0,"pct_camara_septica":10,"pct_pozo_ciego":70,"pct_sin_desague":0,"pct_gas_red":0,"pct_gas_garrafa":70,"pct_lena_guano":20,"pct_basura_formal":20,"pct_basura_quema":80,"pct_basura_informal":0,"pct_internet":100,"pct_celular":100,"pct_televisor":50}},{"type":"Feature","geometry":{"type":"Polygon","coordinates":[[[-63.7989,-14.22983],[-63.79832,-14.23041],[-63.79904,-14.23111],[-63.79964,-14.23046],[-63.7989,-14.22983]]]},"properties":{"n":"EL CARMEN","p":66,"personas_x_ha":63,"masculinidad":83,"pct_menor20":32,"pct_60mas":12,"pct_migrante":39,"dependencia_econ":400,"pct_empleados":62,"pct_cuentapropia":38,"pct_agricultura":23,"pct_comercio":31,"pct_manufactura":0,"pct_construccion":38,"pct_transporte":0,"pct_alojamiento":0,"pct_sin_educacion":7,"pct_educ_superior":13,"brecha_educ":-8,"pct_sin_seguro":0,"pct_sus":97,"pct_seguro_privado":0,"brecha_seguro":0,"pct_salud_publica":33,"pct_med_tradicional":11,"pct_automedicacion":24,"pct_remedios_caseros":30,"pct_viv_desocupada":0,"pct_alquiler":0,"pct_electricidad":100,"pct_sin_electricidad":0,"pct_agua_red":83,"pct_alcantarillado":0,"pct_camara_septica":17,"pct_pozo_ciego":8,"pct_sin_desague":0,"pct_gas_red":0,"pct_gas_garrafa":75,"pct_lena_guano":25,"pct_basura_formal":8,"pct_basura_quema":67,"pct_basura_informal":8,"pct_internet":83,"pct_celular":100,"pct_televisor":50}},{"type":"Feature","geometry":{"type":"Polygon","coordinates":[[[-63.80922,-14.23717],[-63.80987,-14.23627],[-63.8047,-14.23189],[-63.80396,-14.23264],[-63.80922,-14.23717]]]},"properties":{"n":"EL CARMEN","p":87,"personas_x_ha":10,"masculinidad":98,"pct_menor20":22,"pct_60mas":14,"pct_migrante":74,"dependencia_econ":85,"pct_empleados":17,"pct_cuentapropia":51,"pct_agricultura":57,"pct_comercio":17,"pct_manufactura":2,"pct_construccion":4,"pct_transporte":6,"pct_alojamiento":9,"pct_sin_educacion":6,"pct_educ_superior":19,"brecha_educ":-16,"pct_sin_seguro":2,"pct_sus":98,"pct_seguro_privado":0,"brecha_seguro":-5,"pct_salud_publica":82,"pct_med_tradicional":0,"pct_automedicacion":0,"pct_remedios_caseros":14,"pct_viv_desocupada":0,"pct_alquiler":0,"pct_electricidad":100,"pct_sin_electricidad":0,"pct_agua_red":0,"pct_alcantarillado":0,"pct_camara_septica":21,"pct_pozo_ciego":71,"pct_sin_desague":7,"pct_gas_red":0,"pct_gas_garrafa":71,"pct_lena_guano":29,"pct_basura_formal":0,"pct_basura_quema":100,"pct_basura_informal":0,"pct_internet":71,"pct_celular":86,"pct_televisor":64}},{"type":"Feature","geometry":{"type":"Polygon","coordinates":[[[-63.87885,-13.59591],[-63.87814,-13.597],[-63.87931,-13.59754],[-63.87951,-13.59621],[-63.87885,-13.59591]]]},"properties":{"n":"HUACARAJE","p":55,"personas_x_ha":35,"masculinidad":62,"pct_menor20":47,"pct_60mas":11,"pct_migrante":40,"dependencia_econ":135,"pct_empleados":35,"pct_cuentapropia":30,"pct_agricultura":26,"pct_comercio":26,"pct_manufactura":0,"pct_construccion":13,"pct_transporte":0,"pct_alojamiento":30,"pct_sin_educacion":0,"pct_educ_superior":7,"brecha_educ":-7,"pct_sin_seguro":9,"pct_sus":91,"pct_seguro_privado":0,"brecha_seguro":0,"pct_salud_publica":48,"pct_med_tradicional":4,"pct_automedicacion":10,"pct_remedios_caseros":26,"pct_viv_desocupada":0,"pct_alquiler":18,"pct_electricidad":100,"pct_sin_electricidad":0,"pct_agua_red":55,"pct_alcantarillado":0,"pct_camara_septica":55,"pct_pozo_ciego":45,"pct_sin_desague":0,"pct_gas_red":0,"pct_gas_garrafa":91,"pct_lena_guano":9,"pct_basura_formal":82,"pct_basura_quema":9,"pct_basura_informal":9,"pct_internet":73,"pct_celular":100,"pct_televisor":55}},{"type":"Feature","geometry":{"type":"Polygon","coordinates":[[[-63.88035,-13.58905],[-63.87916,-13.58913],[-63.87909,-13.5904],[-63.88018,-13.5905],[-63.88035,-13.58905]]]},"properties":{"n":"HUACARAJE","p":48,"personas_x_ha":26,"masculinidad":140,"pct_menor20":40,"pct_60mas":10,"pct_migrante":46,"dependencia_econ":119,"pct_empleados":24,"pct_cuentapropia":43,"pct_agricultura":24,"pct_comercio":10,"pct_manufactura":14,"pct_construccion":10,"pct_transporte":5,"pct_alojamiento":14,"pct_sin_educacion":0,"pct_educ_superior":22,"brecha_educ":-3,"pct_sin_seguro":5,"pct_sus":84,"pct_seguro_privado":0,"brecha_seguro":8,"pct_salud_publica":50,"pct_med_tradicional":6,"pct_automedicacion":7,"pct_remedios_caseros":26,"pct_viv_desocupada":0,"pct_alquiler":0,"pct_electricidad":94,"pct_sin_electricidad":6,"pct_agua_red":69,"pct_alcantarillado":12,"pct_camara_septica":12,"pct_pozo_ciego":69,"pct_sin_desague":6,"pct_gas_red":0,"pct_gas_garrafa":69,"pct_lena_guano":31,"pct_basura_formal":44,"pct_basura_quema":50,"pct_basura_informal":6,"pct_internet":81,"pct_celular":81,"pct_televisor":62}},{"type":"Feature","geometry":{"type":"Polygon","coordinates":[[[-63.87928,-13.59764],[-63.87808,-13.5971],[-63.87748,-13.59794],[-63.87921,-13.59865],[-63.87928,-13.59764]]]},"properties":{"n":"HUACARAJE","p":79,"personas_x_ha":42,"masculinidad":103,"pct_menor20":44,"pct_60mas":10,"pct_migrante":37,"dependencia_econ":163,"pct_empleados":33,"pct_cuentapropia":57,"pct_agricultura":33,"pct_comercio":10,"pct_manufactura":0,"pct_construccion":27,"pct_transporte":3,"pct_alojamiento":7,"pct_sin_educacion":5,"pct_educ_superior":7,"brecha_educ":0,"pct_sin_seguro":0,"pct_sus":100,"pct_seguro_privado":0,"brecha_seguro":0,"pct_salud_publica":43,"pct_med_tradicional":3,"pct_automedicacion":13,"pct_remedios_caseros":30,"pct_viv_desocupada":0,"pct_alquiler":21,"pct_electricidad":100,"pct_sin_electricidad":0,"pct_agua_red":74,"pct_alcantarillado":11,"pct_camara_septica":21,"pct_pozo_ciego":68,"pct_sin_desague":0,"pct_gas_red":0,"pct_gas_garrafa":63,"pct_lena_guano":37,"pct_basura_formal":58,"pct_basura_quema":37,"pct_basura_informal":0,"pct_internet":74,"pct_celular":89,"pct_televisor":84}},{"type":"Feature","geometry":{"type":"Polygon","coordinates":[[[-63.88082,-13.59641],[-63.881,-13.59501],[-63.8798,-13.59479],[-63.87963,-13.59613],[-63.88082,-13.59641]]]},"properties":{"n":"HUACARAJE","p":87,"personas_x_ha":43,"masculinidad":135,"pct_menor20":43,"pct_60mas":8,"pct_migrante":33,"dependencia_econ":135,"pct_empleados":32,"pct_cuentapropia":54,"pct_agricultura":59,"pct_comercio":14,"pct_manufactura":0,"pct_construccion":11,"pct_transporte":5,"pct_alojamiento":8,"pct_sin_educacion":6,"pct_educ_superior":4,"brecha_educ":-7,"pct_sin_seguro":30,"pct_sus":70,"pct_seguro_privado":0,"brecha_seguro":0,"pct_salud_publica":44,"pct_med_tradicional":3,"pct_automedicacion":5,"pct_remedios_caseros":32,"pct_viv_desocupada":11,"pct_alquiler":5,"pct_electricidad":100,"pct_sin_electricidad":0,"pct_agua_red":38,"pct_alcantarillado":10,"pct_camara_septica":19,"pct_pozo_ciego":52,"pct_sin_desague":5,"pct_gas_red":0,"pct_gas_garrafa":67,"pct_lena_guano":29,"pct_basura_formal":48,"pct_basura_quema":48,"pct_basura_informal":0,"pct_internet":76,"pct_celular":86,"pct_televisor":67}},{"type":"Feature","geometry":{"type":"Polygon","coordinates":[[[-63.87808,-13.59974],[-63.87904,-13.60004],[-63.87916,-13.5988],[-63.87743,-13.59803],[-63.87657,-13.59927],[-63.87801,-13.59972],[-63.87815,-13.59904],[-63.87821,-13.59905],[-63.87808,-13.59974]]]},"properties":{"n":"HUACARAJE","p":19,"personas_x_ha":5,"masculinidad":111,"pct_menor20":26,"pct_60mas":32,"pct_migrante":53,"dependencia_econ":46,"pct_empleados":15,"pct_cuentapropia":38,"pct_agricultura":77,"pct_comercio":0,"pct_manufactura":15,"pct_construccion":8,"pct_transporte":0,"pct_alojamiento":0,"pct_sin_educacion":50,"pct_educ_superior":0,"brecha_educ":-8,"pct_sin_seguro":6,"pct_sus":88,"pct_seguro_privado":0,"brecha_seguro":-12,"pct_salud_publica":47,"pct_med_tradicional":0,"pct_automedicacion":0,"pct_remedios_caseros":50,"pct_viv_desocupada":27,"pct_alquiler":0,"pct_electricidad":100,"pct_sin_electricidad":0,"pct_agua_red":50,"pct_alcantarillado":0,"pct_camara_septica":38,"pct_pozo_ciego":62,"pct_sin_desague":0,"pct_gas_red":0,"pct_gas_garrafa":38,"pct_lena_guano":62,"pct_basura_formal":12,"pct_basura_quema":88,"pct_basura_informal":0,"pct_internet":75,"pct_celular":88,"pct_televisor":75}},{"type":"Feature","geometry":{"type":"Polygon","coordinates":[[[-63.88031,-13.59073],[-63.88017,-13.59186],[-63.8813,-13.59198],[-63.88139,-13.59082],[-63.88031,-13.59073]]]},"properties":{"n":"HUACARAJE","p":72,"personas_x_ha":47,"masculinidad":95,"pct_menor20":29,"pct_60mas":18,"pct_migrante":31,"dependencia_econ":233,"pct_empleados":22,"pct_cuentapropia":50,"pct_agricultura":44,"pct_comercio":11,"pct_manufactura":0,"pct_construccion":11,"pct_transporte":0,"pct_alojamiento":11,"pct_sin_educacion":7,"pct_educ_superior":9,"brecha_educ":-26,"pct_sin_seguro":20,"pct_sus":72,"pct_seguro_privado":0,"brecha_seguro":8,"pct_salud_publica":42,"pct_med_tradicional":8,"pct_automedicacion":13,"pct_remedios_caseros":26,"pct_viv_desocupada":0,"pct_alquiler":6,"pct_electricidad":100,"pct_sin_electricidad":0,"pct_agua_red":71,"pct_alcantarillado":12,"pct_camara_septica":53,"pct_pozo_ciego":35,"pct_sin_desague":0,"pct_gas_red":0,"pct_gas_garrafa":65,"pct_lena_guano":29,"pct_basura_formal":65,"pct_basura_quema":29,"pct_basura_informal":0,"pct_internet":76,"pct_celular":76,"pct_televisor":76}},{"type":"Feature","geometry":{"type":"Polygon","coordinates":[[[-63.87946,-13.59761],[-63.88058,-13.59777],[-63.88086,-13.59651],[-63.87962,-13.59627],[-63.87946,-13.59761]]]},"properties":{"n":"HUACARAJE","p":66,"personas_x_ha":35,"masculinidad":83,"pct_menor20":50,"pct_60mas":9,"pct_migrante":24,"dependencia_econ":232,"pct_empleados":53,"pct_cuentapropia":37,"pct_agricultura":16,"pct_comercio":5,"pct_manufactura":42,"pct_construccion":11,"pct_transporte":0,"pct_alojamiento":0,"pct_sin_educacion":0,"pct_educ_superior":16,"brecha_educ":-13,"pct_sin_seguro":19,"pct_sus":78,"pct_seguro_privado":0,"brecha_seguro":9,"pct_salud_publica":78,"pct_med_tradicional":1,"pct_automedicacion":0,"pct_remedios_caseros":17,"pct_viv_desocupada":0,"pct_alquiler":11,"pct_electricidad":100,"pct_sin_electricidad":0,"pct_agua_red":50,"pct_alcantarillado":0,"pct_camara_septica":44,"pct_pozo_ciego":50,"pct_sin_desague":6,"pct_gas_red":6,"pct_gas_garrafa":78,"pct_lena_guano":17,"pct_basura_formal":28,"pct_basura_quema":72,"pct_basura_informal":0,"pct_internet":39,"pct_celular":61,"pct_televisor":50}},{"type":"Feature","geometry":{"type":"Polygon","coordinates":[[[-63.87878,-13.59169],[-63.87891,-13.59059],[-63.8778,-13.59047],[-63.87768,-13.59155],[-63.87878,-13.59169]]]},"properties":{"n":"HUACARAJE","p":98,"personas_x_ha":67,"masculinidad":128,"pct_menor20":32,"pct_60mas":17,"pct_migrante":26,"dependencia_econ":56,"pct_empleados":23,"pct_cuentapropia":52,"pct_agricultura":42,"pct_comercio":11,"pct_manufactura":0,"pct_construccion":8,"pct_transporte":3,"pct_alojamiento":10,"pct_sin_educacion":1,"pct_educ_superior":10,"brecha_educ":-14,"pct_sin_seguro":11,"pct_sus":77,"pct_seguro_privado":0,"brecha_seguro":4,"pct_salud_publica":32,"pct_med_tradicional":10,"pct_automedicacion":16,"pct_remedios_caseros":30,"pct_viv_desocupada":0,"pct_alquiler":13,"pct_electricidad":100,"pct_sin_electricidad":0,"pct_agua_red":74,"pct_alcantarillado":0,"pct_camara_septica":13,"pct_pozo_ciego":87,"pct_sin_desague":0,"pct_gas_red":0,"pct_gas_garrafa":78,"pct_lena_guano":17,"pct_basura_formal":78,"pct_basura_quema":13,"pct_basura_informal":0,"pct_internet":96,"pct_celular":96,"pct_televisor":65}},{"type":"Feature","geometry":{"type":"Polygon","coordinates":[[[-63.87738,-13.59282],[-63.87614,-13.59267],[-63.87579,-13.59379],[-63.87723,-13.59412],[-63.87738,-13.59282]]]},"properties":{"n":"HUACARAJE","p":48,"personas_x_ha":24,"masculinidad":182,"pct_menor20":42,"pct_60mas":10,"pct_migrante":33,"dependencia_econ":213,"pct_empleados":27,"pct_cuentapropia":73,"pct_agricultura":7,"pct_comercio":7,"pct_manufactura":7,"pct_construccion":27,"pct_transporte":13,"pct_alojamiento":7,"pct_sin_educacion":0,"pct_educ_superior":22,"brecha_educ":1,"pct_sin_seguro":0,"pct_sus":100,"pct_seguro_privado":0,"brecha_seguro":0,"pct_salud_publica":40,"pct_med_tradicional":12,"pct_automedicacion":16,"pct_remedios_caseros":28,"pct_viv_desocupada":0,"pct_alquiler":18,"pct_electricidad":100,"pct_sin_electricidad":0,"pct_agua_red":73,"pct_alcantarillado":0,"pct_camara_septica":0,"pct_pozo_ciego":91,"pct_sin_desague":0,"pct_gas_red":0,"pct_gas_garrafa":73,"pct_lena_guano":27,"pct_basura_formal":64,"pct_basura_quema":18,"pct_basura_informal":0,"pct_internet":73,"pct_celular":82,"pct_televisor":100}},{"type":"Feature","geometry":{"type":"Polygon","coordinates":[[[-63.87895,-13.59171],[-63.88003,-13.59183],[-63.88016,-13.59073],[-63.87906,-13.59061],[-63.87895,-13.59171]]]},"properties":{"n":"HUACARAJE","p":55,"personas_x_ha":38,"masculinidad":90,"pct_menor20":16,"pct_60mas":27,"pct_migrante":36,"dependencia_econ":77,"pct_empleados":47,"pct_cuentapropia":43,"pct_agricultura":37,"pct_comercio":3,"pct_manufactura":10,"pct_construccion":3,"pct_transporte":0,"pct_alojamiento":13,"pct_sin_educacion":0,"pct_educ_superior":39,"brecha_educ":0,"pct_sin_seguro":17,"pct_sus":57,"pct_seguro_privado":2,"brecha_seguro":6,"pct_salud_publica":44,"pct_med_tradicional":2,"pct_automedicacion":12,"pct_remedios_caseros":22,"pct_viv_desocupada":0,"pct_alquiler":11,"pct_electricidad":100,"pct_sin_electricidad":0,"pct_agua_red":72,"pct_alcantarillado":6,"pct_camara_septica":50,"pct_pozo_ciego":39,"pct_sin_desague":0,"pct_gas_red":0,"pct_gas_garrafa":83,"pct_lena_guano":17,"pct_basura_formal":72,"pct_basura_quema":28,"pct_basura_informal":0,"pct_internet":67,"pct_celular":83,"pct_televisor":78}},{"type":"Feature","geometry":{"type":"Polygon","coordinates":[[[-63.87877,-13.59182],[-63.87766,-13.59171],[-63.87754,-13.5927],[-63.87865,-13.59286],[-63.87877,-13.59182]]]},"properties":{"n":"HUACARAJE","p":95,"personas_x_ha":69,"masculinidad":121,"pct_menor20":35,"pct_60mas":9,"pct_migrante":61,"dependencia_econ":107,"pct_empleados":33,"pct_cuentapropia":52,"pct_agricultura":37,"pct_comercio":28,"pct_manufactura":4,"pct_construccion":2,"pct_transporte":2,"pct_alojamiento":4,"pct_sin_educacion":0,"pct_educ_superior":31,"brecha_educ":0,"pct_sin_seguro":9,"pct_sus":84,"pct_seguro_privado":0,"brecha_seguro":-6,"pct_salud_publica":42,"pct_med_tradicional":10,"pct_automedicacion":10,"pct_remedios_caseros":31,"pct_viv_desocupada":0,"pct_alquiler":17,"pct_electricidad":100,"pct_sin_electricidad":0,"pct_agua_red":50,"pct_alcantarillado":6,"pct_camara_septica":28,"pct_pozo_ciego":61,"pct_sin_desague":0,"pct_gas_red":0,"pct_gas_garrafa":89,"pct_lena_guano":0,"pct_basura_formal":94,"pct_basura_quema":0,"pct_basura_informal":0,"pct_internet":94,"pct_celular":94,"pct_televisor":89}},{"type":"Feature","geometry":{"type":"Polygon","coordinates":[[[-63.8789,-13.5904],[-63.87899,-13.58978],[-63.87881,-13.58927],[-63.87779,-13.58927],[-63.87788,-13.58966],[-63.87785,-13.59028],[-63.8789,-13.5904]]]},"properties":{"n":"HUACARAJE","p":26,"personas_x_ha":19,"masculinidad":86,"pct_menor20":42,"pct_60mas":15,"pct_migrante":54,"dependencia_econ":86,"pct_empleados":36,"pct_cuentapropia":50,"pct_agricultura":29,"pct_comercio":0,"pct_manufactura":7,"pct_construccion":7,"pct_transporte":0,"pct_alojamiento":0,"pct_sin_educacion":0,"pct_educ_superior":44,"brecha_educ":-8,"pct_sin_seguro":23,"pct_sus":38,"pct_seguro_privado":0,"brecha_seguro":4,"pct_salud_publica":27,"pct_med_tradicional":2,"pct_automedicacion":12,"pct_remedios_caseros":26,"pct_viv_desocupada":0,"pct_alquiler":0,"pct_electricidad":100,"pct_sin_electricidad":0,"pct_agua_red":33,"pct_alcantarillado":17,"pct_camara_septica":17,"pct_pozo_ciego":67,"pct_sin_desague":0,"pct_gas_red":0,"pct_gas_garrafa":100,"pct_lena_guano":0,"pct_basura_formal":67,"pct_basura_quema":33,"pct_basura_informal":0,"pct_internet":100,"pct_celular":100,"pct_televisor":83}},{"type":"Feature","geometry":{"type":"Polygon","coordinates":[[[-63.87708,-13.59524],[-63.87545,-13.59476],[-63.87516,-13.59561],[-63.87685,-13.59635],[-63.87708,-13.59524]]]},"properties":{"n":"HUACARAJE","p":45,"personas_x_ha":21,"masculinidad":137,"pct_menor20":31,"pct_60mas":7,"pct_migrante":36,"dependencia_econ":80,"pct_empleados":20,"pct_cuentapropia":36,"pct_agricultura":60,"pct_comercio":4,"pct_manufactura":0,"pct_construccion":8,"pct_transporte":4,"pct_alojamiento":0,"pct_sin_educacion":0,"pct_educ_superior":19,"brecha_educ":-6,"pct_sin_seguro":2,"pct_sus":79,"pct_seguro_privado":0,"brecha_seguro":4,"pct_salud_publica":37,"pct_med_tradicional":12,"pct_automedicacion":16,"pct_remedios_caseros":22,"pct_viv_desocupada":7,"pct_alquiler":0,"pct_electricidad":100,"pct_sin_electricidad":0,"pct_agua_red":100,"pct_alcantarillado":8,"pct_camara_septica":15,"pct_pozo_ciego":62,"pct_sin_desague":0,"pct_gas_red":0,"pct_gas_garrafa":85,"pct_lena_guano":15,"pct_basura_formal":38,"pct_basura_quema":62,"pct_basura_informal":0,"pct_internet":85,"pct_celular":92,"pct_televisor":69}},{"type":"Feature","geometry":{"type":"Polygon","coordinates":[[[-63.87863,-13.59452],[-63.87835,-13.59556],[-63.87875,-13.5957],[-63.87944,-13.59473],[-63.87863,-13.59452]]]},"properties":{"n":"HUACARAJE","p":52,"personas_x_ha":62,"masculinidad":174,"pct_menor20":38,"pct_60mas":6,"pct_migrante":37,"dependencia_econ":148,"pct_empleados":43,"pct_cuentapropia":38,"pct_agricultura":38,"pct_comercio":14,"pct_manufactura":0,"pct_construccion":10,"pct_transporte":0,"pct_alojamiento":5,"pct_sin_educacion":6,"pct_educ_superior":25,"brecha_educ":-19,"pct_sin_seguro":12,"pct_sus":76,"pct_seguro_privado":0,"brecha_seguro":-25,"pct_salud_publica":29,"pct_med_tradicional":7,"pct_automedicacion":11,"pct_remedios_caseros":31,"pct_viv_desocupada":0,"pct_alquiler":13,"pct_electricidad":100,"pct_sin_electricidad":0,"pct_agua_red":73,"pct_alcantarillado":7,"pct_camara_septica":47,"pct_pozo_ciego":40,"pct_sin_desague":0,"pct_gas_red":0,"pct_gas_garrafa":93,"pct_lena_guano":7,"pct_basura_formal":60,"pct_basura_quema":27,"pct_basura_informal":7,"pct_internet":67,"pct_celular":93,"pct_televisor":87}},{"type":"Feature","geometry":{"type":"Polygon","coordinates":[[[-63.88128,-13.59215],[-63.88015,-13.59198],[-63.88002,-13.59305],[-63.88115,-13.5932],[-63.88128,-13.59215]]]},"properties":{"n":"HUACARAJE","p":155,"personas_x_ha":106,"masculinidad":109,"pct_menor20":28,"pct_60mas":15,"pct_migrante":34,"dependencia_econ":140,"pct_empleados":26,"pct_cuentapropia":48,"pct_agricultura":37,"pct_comercio":8,"pct_manufactura":8,"pct_construccion":11,"pct_transporte":0,"pct_alojamiento":6,"pct_sin_educacion":2,"pct_educ_superior":19,"brecha_educ":-7,"pct_sin_seguro":17,"pct_sus":72,"pct_seguro_privado":0,"brecha_seguro":3,"pct_salud_publica":37,"pct_med_tradicional":5,"pct_automedicacion":13,"pct_remedios_caseros":29,"pct_viv_desocupada":3,"pct_alquiler":0,"pct_electricidad":100,"pct_sin_electricidad":0,"pct_agua_red":96,"pct_alcantarillado":11,"pct_camara_septica":52,"pct_pozo_ciego":37,"pct_sin_desague":0,"pct_gas_red":0,"pct_gas_garrafa":78,"pct_lena_guano":15,"pct_basura_formal":89,"pct_basura_quema":4,"pct_basura_informal":7,"pct_internet":85,"pct_celular":93,"pct_televisor":78}},{"type":"Feature","geometry":{"type":"Polygon","coordinates":[[[-63.87866,-13.59301],[-63.87753,-13.59285],[-63.87733,-13.59414],[-63.87849,-13.59436],[-63.87866,-13.59301]]]},"properties":{"n":"HUACARAJE","p":52,"personas_x_ha":28,"masculinidad":117,"pct_menor20":23,"pct_60mas":12,"pct_migrante":44,"dependencia_econ":82,"pct_empleados":25,"pct_cuentapropia":46,"pct_agricultura":21,"pct_comercio":14,"pct_manufactura":21,"pct_construccion":7,"pct_transporte":11,"pct_alojamiento":4,"pct_sin_educacion":0,"pct_educ_superior":10,"brecha_educ":12,"pct_sin_seguro":8,"pct_sus":84,"pct_seguro_privado":0,"brecha_seguro":7,"pct_salud_publica":36,"pct_med_tradicional":7,"pct_automedicacion":12,"pct_remedios_caseros":30,"pct_viv_desocupada":7,"pct_alquiler":15,"pct_electricidad":100,"pct_sin_electricidad":0,"pct_agua_red":62,"pct_alcantarillado":8,"pct_camara_septica":46,"pct_pozo_ciego":46,"pct_sin_desague":0,"pct_gas_red":0,"pct_gas_garrafa":85,"pct_lena_guano":8,"pct_basura_formal":77,"pct_basura_quema":15,"pct_basura_informal":8,"pct_internet":77,"pct_celular":77,"pct_televisor":69}},{"type":"Feature","geometry":{"type":"Polygon","coordinates":[[[-63.87636,-13.59743],[-63.87473,-13.59681],[-63.87511,-13.59577],[-63.87685,-13.59647],[-63.87671,-13.59715],[-63.87636,-13.59743]]]},"properties":{"n":"HUACARAJE","p":40,"personas_x_ha":16,"masculinidad":122,"pct_menor20":32,"pct_60mas":8,"pct_migrante":32,"dependencia_econ":60,"pct_empleados":40,"pct_cuentapropia":32,"pct_agricultura":44,"pct_comercio":0,"pct_manufactura":8,"pct_construccion":28,"pct_transporte":0,"pct_alojamiento":0,"pct_sin_educacion":0,"pct_educ_superior":11,"brecha_educ":-13,"pct_sin_seguro":0,"pct_sus":88,"pct_seguro_privado":0,"brecha_seguro":0,"pct_salud_publica":39,"pct_med_tradicional":2,"pct_automedicacion":17,"pct_remedios_caseros":35,"pct_viv_desocupada":0,"pct_alquiler":0,"pct_electricidad":91,"pct_sin_electricidad":9,"pct_agua_red":73,"pct_alcantarillado":9,"pct_camara_septica":45,"pct_pozo_ciego":36,"pct_sin_desague":0,"pct_gas_red":0,"pct_gas_garrafa":73,"pct_lena_guano":18,"pct_basura_formal":36,"pct_basura_quema":64,"pct_basura_informal":0,"pct_internet":91,"pct_celular":91,"pct_televisor":64}},{"type":"Feature","geometry":{"type":"Polygon","coordinates":[[[-63.87826,-13.59551],[-63.87849,-13.59448],[-63.87739,-13.59426],[-63.87718,-13.59518],[-63.87826,-13.59551]]]},"properties":{"n":"HUACARAJE","p":43,"personas_x_ha":32,"masculinidad":139,"pct_menor20":33,"pct_60mas":19,"pct_migrante":37,"dependencia_econ":258,"pct_empleados":25,"pct_cuentapropia":58,"pct_agricultura":42,"pct_comercio":8,"pct_manufactura":8,"pct_construccion":8,"pct_transporte":0,"pct_alojamiento":8,"pct_sin_educacion":3,"pct_educ_superior":23,"brecha_educ":-13,"pct_sin_seguro":12,"pct_sus":83,"pct_seguro_privado":0,"brecha_seguro":11,"pct_salud_publica":39,"pct_med_tradicional":2,"pct_automedicacion":17,"pct_remedios_caseros":30,"pct_viv_desocupada":0,"pct_alquiler":0,"pct_electricidad":92,"pct_sin_electricidad":0,"pct_agua_red":92,"pct_alcantarillado":8,"pct_camara_septica":31,"pct_pozo_ciego":54,"pct_sin_desague":8,"pct_gas_red":8,"pct_gas_garrafa":54,"pct_lena_guano":38,"pct_basura_formal":62,"pct_basura_quema":38,"pct_basura_informal":0,"pct_internet":69,"pct_celular":77,"pct_televisor":77}},{"type":"Feature","geometry":{"type":"Polygon","coordinates":[[[-63.88053,-13.59786],[-63.87944,-13.59771],[-63.87935,-13.59872],[-63.88025,-13.5991],[-63.88053,-13.59786]]]},"properties":{"n":"HUACARAJE","p":16,"personas_x_ha":11,"masculinidad":167,"pct_menor20":44,"pct_60mas":12,"pct_migrante":38,"dependencia_econ":167,"pct_empleados":17,"pct_cuentapropia":50,"pct_agricultura":67,"pct_comercio":0,"pct_manufactura":0,"pct_construccion":0,"pct_transporte":0,"pct_alojamiento":17,"pct_sin_educacion":0,"pct_educ_superior":0,"brecha_educ":0,"pct_sin_seguro":12,"pct_sus":75,"pct_seguro_privado":0,"brecha_seguro":20,"pct_salud_publica":68,"pct_med_tradicional":0,"pct_automedicacion":0,"pct_remedios_caseros":21,"pct_viv_desocupada":0,"pct_alquiler":20,"pct_electricidad":100,"pct_sin_electricidad":0,"pct_agua_red":20,"pct_alcantarillado":20,"pct_camara_septica":20,"pct_pozo_ciego":40,"pct_sin_desague":0,"pct_gas_red":0,"pct_gas_garrafa":80,"pct_lena_guano":20,"pct_basura_formal":40,"pct_basura_quema":60,"pct_basura_informal":0,"pct_internet":40,"pct_celular":80,"pct_televisor":40}},{"type":"Feature","geometry":{"type":"Polygon","coordinates":[[[-63.87718,-13.59529],[-63.87697,-13.59642],[-63.87748,-13.59666],[-63.87816,-13.59561],[-63.87718,-13.59529]]]},"properties":{"n":"HUACARAJE","p":48,"personas_x_ha":42,"masculinidad":118,"pct_menor20":42,"pct_60mas":12,"pct_migrante":38,"dependencia_econ":71,"pct_empleados":29,"pct_cuentapropia":46,"pct_agricultura":36,"pct_comercio":29,"pct_manufactura":7,"pct_construccion":4,"pct_transporte":4,"pct_alojamiento":0,"pct_sin_educacion":0,"pct_educ_superior":25,"brecha_educ":11,"pct_sin_seguro":0,"pct_sus":87,"pct_seguro_privado":0,"brecha_seguro":0,"pct_salud_publica":36,"pct_med_tradicional":1,"pct_automedicacion":15,"pct_remedios_caseros":32,"pct_viv_desocupada":7,"pct_alquiler":9,"pct_electricidad":100,"pct_sin_electricidad":0,"pct_agua_red":73,"pct_alcantarillado":27,"pct_camara_septica":27,"pct_pozo_ciego":36,"pct_sin_desague":0,"pct_gas_red":0,"pct_gas_garrafa":64,"pct_lena_guano":36,"pct_basura_formal":45,"pct_basura_quema":55,"pct_basura_informal":0,"pct_internet":82,"pct_celular":91,"pct_televisor":73}},{"type":"Feature","geometry":{"type":"Polygon","coordinates":[[[-63.87576,-13.59392],[-63.87549,-13.59465],[-63.87706,-13.59514],[-63.87723,-13.59422],[-63.87576,-13.59392]]]},"properties":{"n":"HUACARAJE","p":63,"personas_x_ha":39,"masculinidad":117,"pct_menor20":30,"pct_60mas":13,"pct_migrante":14,"dependencia_econ":125,"pct_empleados":21,"pct_cuentapropia":57,"pct_agricultura":29,"pct_comercio":21,"pct_manufactura":7,"pct_construccion":25,"pct_transporte":0,"pct_alojamiento":4,"pct_sin_educacion":2,"pct_educ_superior":9,"brecha_educ":-13,"pct_sin_seguro":6,"pct_sus":94,"pct_seguro_privado":0,"brecha_seguro":-1,"pct_salud_publica":43,"pct_med_tradicional":3,"pct_automedicacion":12,"pct_remedios_caseros":32,"pct_viv_desocupada":0,"pct_alquiler":9,"pct_electricidad":100,"pct_sin_electricidad":0,"pct_agua_red":73,"pct_alcantarillado":0,"pct_camara_septica":36,"pct_pozo_ciego":45,"pct_sin_desague":9,"pct_gas_red":0,"pct_gas_garrafa":91,"pct_lena_guano":9,"pct_basura_formal":64,"pct_basura_quema":36,"pct_basura_informal":0,"pct_internet":73,"pct_celular":100,"pct_televisor":82}},{"type":"Feature","geometry":{"type":"Polygon","coordinates":[[[-63.88134,-13.59324],[-63.8824,-13.59338],[-63.88251,-13.59227],[-63.88145,-13.59215],[-63.88134,-13.59324]]]},"properties":{"n":"HUACARAJE","p":54,"personas_x_ha":38,"masculinidad":157,"pct_menor20":31,"pct_60mas":15,"pct_migrante":35,"dependencia_econ":85,"pct_empleados":33,"pct_cuentapropia":41,"pct_agricultura":41,"pct_comercio":11,"pct_manufactura":4,"pct_construccion":4,"pct_transporte":4,"pct_alojamiento":0,"pct_sin_educacion":0,"pct_educ_superior":27,"brecha_educ":-6,"pct_sin_seguro":8,"pct_sus":82,"pct_seguro_privado":0,"brecha_seguro":5,"pct_salud_publica":52,"pct_med_tradicional":4,"pct_automedicacion":9,"pct_remedios_caseros":26,"pct_viv_desocupada":12,"pct_alquiler":0,"pct_electricidad":100,"pct_sin_electricidad":0,"pct_agua_red":67,"pct_alcantarillado":0,"pct_camara_septica":13,"pct_pozo_ciego":73,"pct_sin_desague":7,"pct_gas_red":0,"pct_gas_garrafa":80,"pct_lena_guano":7,"pct_basura_formal":53,"pct_basura_quema":47,"pct_basura_informal":0,"pct_internet":100,"pct_celular":100,"pct_televisor":73}},{"type":"Feature","geometry":{"type":"Polygon","coordinates":[[[-63.87987,-13.59318],[-63.87878,-13.59305],[-63.87867,-13.5944],[-63.87968,-13.59461],[-63.87987,-13.59318]]]},"properties":{"n":"HUACARAJE","p":49,"personas_x_ha":27,"masculinidad":88,"pct_menor20":41,"pct_60mas":14,"pct_migrante":61,"dependencia_econ":123,"pct_empleados":9,"pct_cuentapropia":82,"pct_agricultura":27,"pct_comercio":45,"pct_manufactura":0,"pct_construccion":5,"pct_transporte":0,"pct_alojamiento":0,"pct_sin_educacion":7,"pct_educ_superior":14,"brecha_educ":-11,"pct_sin_seguro":28,"pct_sus":67,"pct_seguro_privado":0,"brecha_seguro":12,"pct_salud_publica":39,"pct_med_tradicional":5,"pct_automedicacion":18,"pct_remedios_caseros":29,"pct_viv_desocupada":7,"pct_alquiler":23,"pct_electricidad":92,"pct_sin_electricidad":8,"pct_agua_red":85,"pct_alcantarillado":0,"pct_camara_septica":46,"pct_pozo_ciego":54,"pct_sin_desague":0,"pct_gas_red":0,"pct_gas_garrafa":92,"pct_lena_guano":0,"pct_basura_formal":85,"pct_basura_quema":0,"pct_basura_informal":0,"pct_internet":92,"pct_celular":100,"pct_televisor":92}},{"type":"Feature","geometry":{"type":"Polygon","coordinates":[[[-63.88001,-13.5932],[-63.8798,-13.59467],[-63.881,-13.59486],[-63.88115,-13.59336],[-63.88001,-13.5932]]]},"properties":{"n":"HUACARAJE","p":123,"personas_x_ha":58,"masculinidad":120,"pct_menor20":33,"pct_60mas":15,"pct_migrante":34,"dependencia_econ":118,"pct_empleados":29,"pct_cuentapropia":48,"pct_agricultura":41,"pct_comercio":16,"pct_manufactura":5,"pct_construccion":2,"pct_transporte":5,"pct_alojamiento":4,"pct_sin_educacion":6,"pct_educ_superior":18,"brecha_educ":5,"pct_sin_seguro":13,"pct_sus":72,"pct_seguro_privado":0,"brecha_seguro":4,"pct_salud_publica":45,"pct_med_tradicional":2,"pct_automedicacion":3,"pct_remedios_caseros":30,"pct_viv_desocupada":5,"pct_alquiler":27,"pct_electricidad":100,"pct_sin_electricidad":0,"pct_agua_red":87,"pct_alcantarillado":3,"pct_camara_septica":60,"pct_pozo_ciego":37,"pct_sin_desague":0,"pct_gas_red":0,"pct_gas_garrafa":87,"pct_lena_guano":10,"pct_basura_formal":93,"pct_basura_quema":3,"pct_basura_informal":3,"pct_internet":77,"pct_celular":93,"pct_televisor":63}},{"type":"Feature","geometry":{"type":"Polygon","coordinates":[[[-63.87756,-13.5915],[-63.87766,-13.59046],[-63.87689,-13.59039],[-63.87655,-13.59141],[-63.87756,-13.5915]]]},"properties":{"n":"HUACARAJE","p":35,"personas_x_ha":30,"masculinidad":94,"pct_menor20":34,"pct_60mas":23,"pct_migrante":31,"dependencia_econ":106,"pct_empleados":24,"pct_cuentapropia":53,"pct_agricultura":29,"pct_comercio":24,"pct_manufactura":12,"pct_construccion":12,"pct_transporte":0,"pct_alojamiento":6,"pct_sin_educacion":0,"pct_educ_superior":0,"brecha_educ":-4,"pct_sin_seguro":3,"pct_sus":97,"pct_seguro_privado":0,"brecha_seguro":-6,"pct_salud_publica":58,"pct_med_tradicional":0,"pct_automedicacion":0,"pct_remedios_caseros":42,"pct_viv_desocupada":0,"pct_alquiler":14,"pct_electricidad":100,"pct_sin_electricidad":0,"pct_agua_red":29,"pct_alcantarillado":0,"pct_camara_septica":29,"pct_pozo_ciego":71,"pct_sin_desague":0,"pct_gas_red":0,"pct_gas_garrafa":43,"pct_lena_guano":57,"pct_basura_formal":71,"pct_basura_quema":0,"pct_basura_informal":29,"pct_internet":86,"pct_celular":86,"pct_televisor":71}},{"type":"Feature","geometry":{"type":"Polygon","coordinates":[[[-63.87752,-13.5917],[-63.8765,-13.59159],[-63.87622,-13.59252],[-63.87739,-13.59269],[-63.87752,-13.5917]]]},"properties":{"n":"HUACARAJE","p":56,"personas_x_ha":43,"masculinidad":124,"pct_menor20":43,"pct_60mas":9,"pct_migrante":61,"dependencia_econ":167,"pct_empleados":43,"pct_cuentapropia":33,"pct_agricultura":14,"pct_comercio":14,"pct_manufactura":5,"pct_construccion":14,"pct_transporte":0,"pct_alojamiento":5,"pct_sin_educacion":0,"pct_educ_superior":38,"brecha_educ":-12,"pct_sin_seguro":4,"pct_sus":70,"pct_seguro_privado":0,"brecha_seguro":-1,"pct_salud_publica":36,"pct_med_tradicional":15,"pct_automedicacion":5,"pct_remedios_caseros":28,"pct_viv_desocupada":0,"pct_alquiler":9,"pct_electricidad":100,"pct_sin_electricidad":0,"pct_agua_red":73,"pct_alcantarillado":9,"pct_camara_septica":64,"pct_pozo_ciego":18,"pct_sin_desague":0,"pct_gas_red":0,"pct_gas_garrafa":82,"pct_lena_guano":18,"pct_basura_formal":91,"pct_basura_quema":9,"pct_basura_informal":0,"pct_internet":82,"pct_celular":100,"pct_televisor":82}}]}