{"type":"FeatureCollection","features":[{"type":"Feature","geometry":{"type":"Polygon","coordinates":[[[-64.86675,-15.33206],[-64.86748,-15.33181],[-64.86724,-15.33113],[-64.86651,-15.33136],[-64.86675,-15.33206]]]},"properties":{"n":"CAMIACO","p":28,"personas_x_ha":42,"masculinidad":100,"pct_menor20":29,"pct_60mas":18,"pct_migrante":68,"dependencia_econ":47,"pct_empleados":68,"pct_cuentapropia":21,"pct_agricultura":42,"pct_comercio":0,"pct_manufactura":0,"pct_construccion":5,"pct_transporte":0,"pct_alojamiento":0,"pct_sin_educacion":0,"pct_educ_superior":52,"brecha_educ":-8,"pct_sin_seguro":11,"pct_sus":59,"pct_seguro_privado":0,"brecha_seguro":7,"pct_salud_publica":27,"pct_med_tradicional":15,"pct_automedicacion":12,"pct_remedios_caseros":30,"pct_viv_desocupada":22,"pct_alquiler":0,"pct_electricidad":100,"pct_sin_electricidad":0,"pct_agua_red":100,"pct_alcantarillado":14,"pct_camara_septica":29,"pct_pozo_ciego":43,"pct_sin_desague":0,"pct_gas_red":0,"pct_gas_garrafa":71,"pct_lena_guano":71,"pct_basura_formal":0,"pct_basura_quema":100,"pct_basura_informal":0,"pct_internet":86,"pct_celular":86,"pct_televisor":43}},{"type":"Feature","geometry":{"type":"Polygon","coordinates":[[[-64.86658,-15.33559],[-64.86646,-15.3348],[-64.86536,-15.33482],[-64.86529,-15.33585],[-64.86658,-15.33559]]]},"properties":{"n":"CAMIACO","p":54,"personas_x_ha":41,"masculinidad":74,"pct_menor20":52,"pct_60mas":7,"pct_migrante":35,"dependencia_econ":170,"pct_empleados":0,"pct_cuentapropia":65,"pct_agricultura":80,"pct_comercio":15,"pct_manufactura":5,"pct_construccion":0,"pct_transporte":0,"pct_alojamiento":0,"pct_sin_educacion":0,"pct_educ_superior":7,"brecha_educ":-14,"pct_sin_seguro":36,"pct_sus":54,"pct_seguro_privado":0,"brecha_seguro":-2,"pct_salud_publica":28,"pct_med_tradicional":18,"pct_automedicacion":20,"pct_remedios_caseros":22,"pct_viv_desocupada":28,"pct_alquiler":0,"pct_electricidad":58,"pct_sin_electricidad":33,"pct_agua_red":50,"pct_alcantarillado":17,"pct_camara_septica":8,"pct_pozo_ciego":50,"pct_sin_desague":0,"pct_gas_red":0,"pct_gas_garrafa":50,"pct_lena_guano":50,"pct_basura_formal":0,"pct_basura_quema":92,"pct_basura_informal":0,"pct_internet":33,"pct_celular":50,"pct_televisor":25}},{"type":"Feature","geometry":{"type":"Polygon","coordinates":[[[-64.86635,-15.32998],[-64.8668,-15.32985],[-64.86719,-15.33099],[-64.86559,-15.33151],[-64.86548,-15.33082],[-64.86635,-15.32998]]]},"properties":{"n":"CAMIACO","p":20,"personas_x_ha":10,"masculinidad":100,"pct_menor20":45,"pct_60mas":20,"pct_migrante":65,"dependencia_econ":67,"pct_empleados":17,"pct_cuentapropia":58,"pct_agricultura":42,"pct_comercio":0,"pct_manufactura":8,"pct_construccion":0,"pct_transporte":0,"pct_alojamiento":8,"pct_sin_educacion":0,"pct_educ_superior":45,"brecha_educ":30,"pct_sin_seguro":0,"pct_sus":75,"pct_seguro_privado":5,"brecha_seguro":0,"pct_salud_publica":47,"pct_med_tradicional":0,"pct_automedicacion":6,"pct_remedios_caseros":21,"pct_viv_desocupada":25,"pct_alquiler":0,"pct_electricidad":100,"pct_sin_electricidad":0,"pct_agua_red":100,"pct_alcantarillado":0,"pct_camara_septica":22,"pct_pozo_ciego":33,"pct_sin_desague":11,"pct_gas_red":0,"pct_gas_garrafa":67,"pct_lena_guano":67,"pct_basura_formal":0,"pct_basura_quema":100,"pct_basura_informal":0,"pct_internet":44,"pct_celular":89,"pct_televisor":44}},{"type":"Feature","geometry":{"type":"Polygon","coordinates":[[[-64.86864,-15.33233],[-64.86836,-15.33162],[-64.86763,-15.33187],[-64.86787,-15.33259],[-64.86864,-15.33233]]]},"properties":{"n":"CAMIACO","p":36,"personas_x_ha":50,"masculinidad":71,"pct_menor20":56,"pct_60mas":8,"pct_migrante":28,"dependencia_econ":157,"pct_empleados":43,"pct_cuentapropia":57,"pct_agricultura":71,"pct_comercio":0,"pct_manufactura":7,"pct_construccion":7,"pct_transporte":7,"pct_alojamiento":7,"pct_sin_educacion":0,"pct_educ_superior":11,"brecha_educ":10,"pct_sin_seguro":34,"pct_sus":66,"pct_seguro_privado":0,"brecha_seguro":2,"pct_salud_publica":50,"pct_med_tradicional":0,"pct_automedicacion":0,"pct_remedios_caseros":50,"pct_viv_desocupada":0,"pct_alquiler":0,"pct_electricidad":100,"pct_sin_electricidad":0,"pct_agua_red":100,"pct_alcantarillado":14,"pct_camara_septica":0,"pct_pozo_ciego":71,"pct_sin_desague":14,"pct_gas_red":0,"pct_gas_garrafa":14,"pct_lena_guano":14,"pct_basura_formal":0,"pct_basura_quema":86,"pct_basura_informal":0,"pct_internet":86,"pct_celular":86,"pct_televisor":29}},{"type":"Feature","geometry":{"type":"Polygon","coordinates":[[[-64.86585,-15.33249],[-64.86509,-15.33272],[-64.86532,-15.33344],[-64.86607,-15.33319],[-64.86585,-15.33249]]]},"properties":{"n":"CAMIACO","p":33,"personas_x_ha":46,"masculinidad":83,"pct_menor20":36,"pct_60mas":9,"pct_migrante":55,"dependencia_econ":83,"pct_empleados":22,"pct_cuentapropia":33,"pct_agricultura":28,"pct_comercio":6,"pct_manufactura":33,"pct_construccion":11,"pct_transporte":0,"pct_alojamiento":6,"pct_sin_educacion":0,"pct_educ_superior":22,"brecha_educ":26,"pct_sin_seguro":12,"pct_sus":67,"pct_seguro_privado":0,"brecha_seguro":14,"pct_salud_publica":30,"pct_med_tradicional":16,"pct_automedicacion":11,"pct_remedios_caseros":32,"pct_viv_desocupada":0,"pct_alquiler":0,"pct_electricidad":100,"pct_sin_electricidad":0,"pct_agua_red":100,"pct_alcantarillado":0,"pct_camara_septica":12,"pct_pozo_ciego":88,"pct_sin_desague":0,"pct_gas_red":0,"pct_gas_garrafa":50,"pct_lena_guano":50,"pct_basura_formal":0,"pct_basura_quema":100,"pct_basura_informal":0,"pct_internet":100,"pct_celular":100,"pct_televisor":62}},{"type":"Feature","geometry":{"type":"Polygon","coordinates":[[[-64.86549,-15.33465],[-64.86549,-15.33425],[-64.86606,-15.33425],[-64.8661,-15.33465],[-64.86549,-15.33465]]]},"properties":{"n":"CAMIACO","p":31,"personas_x_ha":111,"masculinidad":107,"pct_menor20":45,"pct_60mas":10,"pct_migrante":29,"dependencia_econ":343,"pct_empleados":14,"pct_cuentapropia":57,"pct_agricultura":86,"pct_comercio":0,"pct_manufactura":14,"pct_construccion":0,"pct_transporte":0,"pct_alojamiento":0,"pct_sin_educacion":12,"pct_educ_superior":0,"brecha_educ":-42,"pct_sin_seguro":67,"pct_sus":33,"pct_seguro_privado":0,"brecha_seguro":0,"pct_salud_publica":40,"pct_med_tradicional":2,"pct_automedicacion":6,"pct_remedios_caseros":44,"pct_viv_desocupada":0,"pct_alquiler":0,"pct_electricidad":0,"pct_sin_electricidad":14,"pct_agua_red":14,"pct_alcantarillado":14,"pct_camara_septica":0,"pct_pozo_ciego":29,"pct_sin_desague":43,"pct_gas_red":0,"pct_gas_garrafa":29,"pct_lena_guano":29,"pct_basura_formal":0,"pct_basura_quema":100,"pct_basura_informal":0,"pct_internet":57,"pct_celular":71,"pct_televisor":71}},{"type":"Feature","geometry":{"type":"Polygon","coordinates":[[[-64.8674,-15.334],[-64.86725,-15.33363],[-64.86643,-15.33393],[-64.86671,-15.33544],[-64.86761,-15.33531],[-64.8674,-15.334]]]},"properties":{"n":"CAMIACO","p":34,"personas_x_ha":19,"masculinidad":127,"pct_menor20":56,"pct_60mas":9,"pct_migrante":62,"dependencia_econ":240,"pct_empleados":0,"pct_cuentapropia":80,"pct_agricultura":60,"pct_comercio":30,"pct_manufactura":0,"pct_construccion":0,"pct_transporte":10,"pct_alojamiento":0,"pct_sin_educacion":0,"pct_educ_superior":13,"brecha_educ":-25,"pct_sin_seguro":12,"pct_sus":79,"pct_seguro_privado":0,"brecha_seguro":9,"pct_salud_publica":52,"pct_med_tradicional":0,"pct_automedicacion":2,"pct_remedios_caseros":45,"pct_viv_desocupada":10,"pct_alquiler":0,"pct_electricidad":100,"pct_sin_electricidad":0,"pct_agua_red":89,"pct_alcantarillado":0,"pct_camara_septica":33,"pct_pozo_ciego":56,"pct_sin_desague":0,"pct_gas_red":0,"pct_gas_garrafa":56,"pct_lena_guano":56,"pct_basura_formal":0,"pct_basura_quema":100,"pct_basura_informal":0,"pct_internet":67,"pct_celular":78,"pct_televisor":11}},{"type":"Feature","geometry":{"type":"Polygon","coordinates":[[[-64.761,-15.19351],[-64.76062,-15.19271],[-64.75967,-15.19313],[-64.76006,-15.19398],[-64.761,-15.19351]]]},"properties":{"n":"LORETO","p":59,"personas_x_ha":52,"masculinidad":84,"pct_menor20":31,"pct_60mas":10,"pct_migrante":56,"dependencia_econ":119,"pct_empleados":52,"pct_cuentapropia":33,"pct_agricultura":15,"pct_comercio":11,"pct_manufactura":4,"pct_construccion":4,"pct_transporte":7,"pct_alojamiento":11,"pct_sin_educacion":2,"pct_educ_superior":37,"brecha_educ":-28,"pct_sin_seguro":3,"pct_sus":84,"pct_seguro_privado":3,"brecha_seguro":1,"pct_salud_publica":35,"pct_med_tradicional":7,"pct_automedicacion":12,"pct_remedios_caseros":32,"pct_viv_desocupada":0,"pct_alquiler":7,"pct_electricidad":100,"pct_sin_electricidad":0,"pct_agua_red":93,"pct_alcantarillado":0,"pct_camara_septica":57,"pct_pozo_ciego":36,"pct_sin_desague":7,"pct_gas_red":0,"pct_gas_garrafa":86,"pct_lena_guano":86,"pct_basura_formal":0,"pct_basura_quema":93,"pct_basura_informal":14,"pct_internet":86,"pct_celular":93,"pct_televisor":64}},{"type":"Feature","geometry":{"type":"Polygon","coordinates":[[[-64.75902,-15.19208],[-64.75881,-15.19166],[-64.75847,-15.19183],[-64.75844,-15.19176],[-64.75877,-15.1916],[-64.75829,-15.19055],[-64.7581,-15.19067],[-64.75796,-15.19218],[-64.75832,-15.1924],[-64.75902,-15.19208]]]},"properties":{"n":"LORETO","p":30,"personas_x_ha":23,"masculinidad":114,"pct_menor20":37,"pct_60mas":7,"pct_migrante":60,"dependencia_econ":67,"pct_empleados":56,"pct_cuentapropia":28,"pct_agricultura":39,"pct_comercio":6,"pct_manufactura":6,"pct_construccion":6,"pct_transporte":0,"pct_alojamiento":6,"pct_sin_educacion":0,"pct_educ_superior":24,"brecha_educ":-2,"pct_sin_seguro":3,"pct_sus":86,"pct_seguro_privado":0,"brecha_seguro":6,"pct_salud_publica":35,"pct_med_tradicional":19,"pct_automedicacion":8,"pct_remedios_caseros":29,"pct_viv_desocupada":0,"pct_alquiler":0,"pct_electricidad":100,"pct_sin_electricidad":0,"pct_agua_red":100,"pct_alcantarillado":10,"pct_camara_septica":80,"pct_pozo_ciego":10,"pct_sin_desague":0,"pct_gas_red":0,"pct_gas_garrafa":100,"pct_lena_guano":100,"pct_basura_formal":0,"pct_basura_quema":90,"pct_basura_informal":20,"pct_internet":80,"pct_celular":100,"pct_televisor":50}},{"type":"Feature","geometry":{"type":"Polygon","coordinates":[[[-64.76129,-15.19418],[-64.76106,-15.19367],[-64.76009,-15.19411],[-64.76033,-15.19464],[-64.76129,-15.19418]]]},"properties":{"n":"LORETO","p":33,"personas_x_ha":46,"masculinidad":120,"pct_menor20":18,"pct_60mas":12,"pct_migrante":70,"dependencia_econ":27,"pct_empleados":31,"pct_cuentapropia":50,"pct_agricultura":19,"pct_comercio":27,"pct_manufactura":8,"pct_construccion":15,"pct_transporte":12,"pct_alojamiento":4,"pct_sin_educacion":0,"pct_educ_superior":21,"brecha_educ":-9,"pct_sin_seguro":3,"pct_sus":91,"pct_seguro_privado":0,"brecha_seguro":6,"pct_salud_publica":42,"pct_med_tradicional":0,"pct_automedicacion":7,"pct_remedios_caseros":40,"pct_viv_desocupada":0,"pct_alquiler":0,"pct_electricidad":100,"pct_sin_electricidad":0,"pct_agua_red":89,"pct_alcantarillado":11,"pct_camara_septica":89,"pct_pozo_ciego":0,"pct_sin_desague":0,"pct_gas_red":0,"pct_gas_garrafa":100,"pct_lena_guano":100,"pct_basura_formal":0,"pct_basura_quema":78,"pct_basura_informal":0,"pct_internet":100,"pct_celular":100,"pct_televisor":89}},{"type":"Feature","geometry":{"type":"Polygon","coordinates":[[[-64.75759,-15.18801],[-64.75792,-15.18811],[-64.75749,-15.19198],[-64.75654,-15.19146],[-64.75759,-15.18801]]]},"properties":{"n":"LORETO","p":27,"personas_x_ha":9,"masculinidad":108,"pct_menor20":44,"pct_60mas":7,"pct_migrante":52,"dependencia_econ":108,"pct_empleados":31,"pct_cuentapropia":54,"pct_agricultura":38,"pct_comercio":8,"pct_manufactura":0,"pct_construccion":8,"pct_transporte":0,"pct_alojamiento":8,"pct_sin_educacion":0,"pct_educ_superior":20,"brecha_educ":11,"pct_sin_seguro":0,"pct_sus":93,"pct_seguro_privado":0,"brecha_seguro":0,"pct_salud_publica":63,"pct_med_tradicional":16,"pct_automedicacion":0,"pct_remedios_caseros":16,"pct_viv_desocupada":0,"pct_alquiler":12,"pct_electricidad":100,"pct_sin_electricidad":0,"pct_agua_red":100,"pct_alcantarillado":12,"pct_camara_septica":38,"pct_pozo_ciego":12,"pct_sin_desague":0,"pct_gas_red":0,"pct_gas_garrafa":100,"pct_lena_guano":100,"pct_basura_formal":0,"pct_basura_quema":100,"pct_basura_informal":0,"pct_internet":75,"pct_celular":88,"pct_televisor":75}},{"type":"Feature","geometry":{"type":"Polygon","coordinates":[[[-64.75886,-15.19639],[-64.75847,-15.19567],[-64.75762,-15.19606],[-64.75801,-15.19681],[-64.75886,-15.19639]]]},"properties":{"n":"LORETO","p":59,"personas_x_ha":60,"masculinidad":119,"pct_menor20":47,"pct_60mas":5,"pct_migrante":47,"dependencia_econ":168,"pct_empleados":27,"pct_cuentapropia":32,"pct_agricultura":23,"pct_comercio":0,"pct_manufactura":9,"pct_construccion":9,"pct_transporte":5,"pct_alojamiento":9,"pct_sin_educacion":6,"pct_educ_superior":9,"brecha_educ":-6,"pct_sin_seguro":27,"pct_sus":73,"pct_seguro_privado":0,"brecha_seguro":23,"pct_salud_publica":45,"pct_med_tradicional":2,"pct_automedicacion":10,"pct_remedios_caseros":31,"pct_viv_desocupada":0,"pct_alquiler":0,"pct_electricidad":100,"pct_sin_electricidad":0,"pct_agua_red":67,"pct_alcantarillado":47,"pct_camara_septica":47,"pct_pozo_ciego":0,"pct_sin_desague":7,"pct_gas_red":0,"pct_gas_garrafa":100,"pct_lena_guano":100,"pct_basura_formal":0,"pct_basura_quema":93,"pct_basura_informal":13,"pct_internet":33,"pct_celular":47,"pct_televisor":20}},{"type":"Feature","geometry":{"type":"Polygon","coordinates":[[[-64.76228,-15.19476],[-64.7618,-15.19502],[-64.7623,-15.19601],[-64.76312,-15.19554],[-64.76266,-15.19494],[-64.76228,-15.19476]]]},"properties":{"n":"LORETO","p":22,"personas_x_ha":20,"masculinidad":69,"pct_menor20":23,"pct_60mas":27,"pct_migrante":18,"dependencia_econ":214,"pct_empleados":43,"pct_cuentapropia":43,"pct_agricultura":14,"pct_comercio":14,"pct_manufactura":0,"pct_construccion":14,"pct_transporte":0,"pct_alojamiento":0,"pct_sin_educacion":12,"pct_educ_superior":24,"brecha_educ":-12,"pct_sin_seguro":0,"pct_sus":100,"pct_seguro_privado":0,"brecha_seguro":0,"pct_salud_publica":36,"pct_med_tradicional":5,"pct_automedicacion":12,"pct_remedios_caseros":36,"pct_viv_desocupada":17,"pct_alquiler":0,"pct_electricidad":100,"pct_sin_electricidad":0,"pct_agua_red":100,"pct_alcantarillado":0,"pct_camara_septica":67,"pct_pozo_ciego":17,"pct_sin_desague":0,"pct_gas_red":0,"pct_gas_garrafa":83,"pct_lena_guano":83,"pct_basura_formal":0,"pct_basura_quema":83,"pct_basura_informal":0,"pct_internet":50,"pct_celular":100,"pct_televisor":17}},{"type":"Feature","geometry":{"type":"Polygon","coordinates":[[[-64.75907,-15.19442],[-64.75865,-15.19349],[-64.75814,-15.19368],[-64.75809,-15.19358],[-64.75859,-15.19335],[-64.75821,-15.19261],[-64.7564,-15.19343],[-64.75719,-15.19521],[-64.75907,-15.19442]]]},"properties":{"n":"LORETO","p":86,"personas_x_ha":18,"masculinidad":83,"pct_menor20":34,"pct_60mas":12,"pct_migrante":34,"dependencia_econ":124,"pct_empleados":24,"pct_cuentapropia":41,"pct_agricultura":32,"pct_comercio":16,"pct_manufactura":5,"pct_construccion":5,"pct_transporte":3,"pct_alojamiento":5,"pct_sin_educacion":4,"pct_educ_superior":11,"brecha_educ":-14,"pct_sin_seguro":5,"pct_sus":81,"pct_seguro_privado":0,"brecha_seguro":1,"pct_salud_publica":41,"pct_med_tradicional":4,"pct_automedicacion":7,"pct_remedios_caseros":32,"pct_viv_desocupada":5,"pct_alquiler":10,"pct_electricidad":81,"pct_sin_electricidad":19,"pct_agua_red":86,"pct_alcantarillado":5,"pct_camara_septica":52,"pct_pozo_ciego":29,"pct_sin_desague":5,"pct_gas_red":0,"pct_gas_garrafa":86,"pct_lena_guano":86,"pct_basura_formal":0,"pct_basura_quema":90,"pct_basura_informal":0,"pct_internet":71,"pct_celular":71,"pct_televisor":33}},{"type":"Feature","geometry":{"type":"Polygon","coordinates":[[[-64.76014,-15.19157],[-64.75977,-15.19088],[-64.75884,-15.19128],[-64.75917,-15.19201],[-64.76014,-15.19157]]]},"properties":{"n":"LORETO","p":20,"personas_x_ha":20,"masculinidad":100,"pct_menor20":45,"pct_60mas":20,"pct_migrante":65,"dependencia_econ":122,"pct_empleados":33,"pct_cuentapropia":67,"pct_agricultura":44,"pct_comercio":0,"pct_manufactura":0,"pct_construccion":22,"pct_transporte":0,"pct_alojamiento":11,"pct_sin_educacion":0,"pct_educ_superior":33,"brecha_educ":17,"pct_sin_seguro":5,"pct_sus":95,"pct_seguro_privado":0,"brecha_seguro":10,"pct_salud_publica":49,"pct_med_tradicional":3,"pct_automedicacion":10,"pct_remedios_caseros":33,"pct_viv_desocupada":0,"pct_alquiler":0,"pct_electricidad":100,"pct_sin_electricidad":0,"pct_agua_red":67,"pct_alcantarillado":17,"pct_camara_septica":17,"pct_pozo_ciego":17,"pct_sin_desague":0,"pct_gas_red":0,"pct_gas_garrafa":83,"pct_lena_guano":83,"pct_basura_formal":0,"pct_basura_quema":100,"pct_basura_informal":0,"pct_internet":67,"pct_celular":100,"pct_televisor":50}},{"type":"Feature","geometry":{"type":"Polygon","coordinates":[[[-64.75992,-15.19404],[-64.7595,-15.19316],[-64.75875,-15.19346],[-64.75916,-15.19438],[-64.75992,-15.19404]]]},"properties":{"n":"LORETO","p":34,"personas_x_ha":35,"masculinidad":127,"pct_menor20":26,"pct_60mas":29,"pct_migrante":56,"dependencia_econ":162,"pct_empleados":38,"pct_cuentapropia":38,"pct_agricultura":15,"pct_comercio":0,"pct_manufactura":15,"pct_construccion":8,"pct_transporte":0,"pct_alojamiento":23,"pct_sin_educacion":0,"pct_educ_superior":24,"brecha_educ":-4,"pct_sin_seguro":12,"pct_sus":79,"pct_seguro_privado":0,"brecha_seguro":9,"pct_salud_publica":38,"pct_med_tradicional":5,"pct_automedicacion":3,"pct_remedios_caseros":32,"pct_viv_desocupada":0,"pct_alquiler":0,"pct_electricidad":100,"pct_sin_electricidad":0,"pct_agua_red":100,"pct_alcantarillado":0,"pct_camara_septica":38,"pct_pozo_ciego":62,"pct_sin_desague":0,"pct_gas_red":0,"pct_gas_garrafa":100,"pct_lena_guano":100,"pct_basura_formal":25,"pct_basura_quema":62,"pct_basura_informal":25,"pct_internet":100,"pct_celular":100,"pct_televisor":62}},{"type":"Feature","geometry":{"type":"Polygon","coordinates":[[[-64.76123,-15.19274],[-64.76065,-15.19155],[-64.7603,-15.19168],[-64.76086,-15.19292],[-64.76123,-15.19274]]]},"properties":{"n":"LORETO","p":39,"personas_x_ha":59,"masculinidad":105,"pct_menor20":41,"pct_60mas":13,"pct_migrante":46,"dependencia_econ":160,"pct_empleados":33,"pct_cuentapropia":40,"pct_agricultura":20,"pct_comercio":27,"pct_manufactura":13,"pct_construccion":0,"pct_transporte":0,"pct_alojamiento":0,"pct_sin_educacion":0,"pct_educ_superior":17,"brecha_educ":19,"pct_sin_seguro":5,"pct_sus":74,"pct_seguro_privado":0,"brecha_seguro":0,"pct_salud_publica":29,"pct_med_tradicional":10,"pct_automedicacion":12,"pct_remedios_caseros":27,"pct_viv_desocupada":0,"pct_alquiler":0,"pct_electricidad":100,"pct_sin_electricidad":0,"pct_agua_red":100,"pct_alcantarillado":0,"pct_camara_septica":80,"pct_pozo_ciego":20,"pct_sin_desague":0,"pct_gas_red":0,"pct_gas_garrafa":80,"pct_lena_guano":80,"pct_basura_formal":0,"pct_basura_quema":90,"pct_basura_informal":0,"pct_internet":80,"pct_celular":90,"pct_televisor":90}},{"type":"Feature","geometry":{"type":"Polygon","coordinates":[[[-64.7532,-14.98612],[-64.75391,-14.98664],[-64.7545,-14.98593],[-64.75375,-14.98538],[-64.7532,-14.98612]]]},"properties":{"n":"SACHOJERE","p":44,"personas_x_ha":42,"masculinidad":110,"pct_menor20":45,"pct_60mas":9,"pct_migrante":61,"dependencia_econ":291,"pct_empleados":36,"pct_cuentapropia":18,"pct_agricultura":45,"pct_comercio":9,"pct_manufactura":9,"pct_construccion":0,"pct_transporte":0,"pct_alojamiento":0,"pct_sin_educacion":4,"pct_educ_superior":26,"brecha_educ":2,"pct_sin_seguro":5,"pct_sus":79,"pct_seguro_privado":2,"brecha_seguro":-1,"pct_salud_publica":41,"pct_med_tradicional":11,"pct_automedicacion":13,"pct_remedios_caseros":17,"pct_viv_desocupada":0,"pct_alquiler":11,"pct_electricidad":78,"pct_sin_electricidad":22,"pct_agua_red":67,"pct_alcantarillado":0,"pct_camara_septica":56,"pct_pozo_ciego":33,"pct_sin_desague":11,"pct_gas_red":0,"pct_gas_garrafa":67,"pct_lena_guano":67,"pct_basura_formal":0,"pct_basura_quema":100,"pct_basura_informal":0,"pct_internet":67,"pct_celular":67,"pct_televisor":56}},{"type":"Feature","geometry":{"type":"Polygon","coordinates":[[[-64.75679,-14.98637],[-64.75613,-14.98589],[-64.75605,-14.9859],[-64.75558,-14.98649],[-64.75624,-14.98703],[-64.75679,-14.98637]]]},"properties":{"n":"SACHOJERE","p":21,"personas_x_ha":23,"masculinidad":133,"pct_menor20":29,"pct_60mas":5,"pct_migrante":43,"dependencia_econ":200,"pct_empleados":57,"pct_cuentapropia":14,"pct_agricultura":86,"pct_comercio":0,"pct_manufactura":0,"pct_construccion":0,"pct_transporte":0,"pct_alojamiento":14,"pct_sin_educacion":0,"pct_educ_superior":13,"brecha_educ":0,"pct_sin_seguro":35,"pct_sus":65,"pct_seguro_privado":0,"brecha_seguro":38,"pct_salud_publica":33,"pct_med_tradicional":6,"pct_automedicacion":2,"pct_remedios_caseros":35,"pct_viv_desocupada":0,"pct_alquiler":0,"pct_electricidad":75,"pct_sin_electricidad":25,"pct_agua_red":88,"pct_alcantarillado":12,"pct_camara_septica":75,"pct_pozo_ciego":12,"pct_sin_desague":0,"pct_gas_red":0,"pct_gas_garrafa":75,"pct_lena_guano":75,"pct_basura_formal":0,"pct_basura_quema":100,"pct_basura_informal":0,"pct_internet":50,"pct_celular":75,"pct_televisor":38}},{"type":"Feature","geometry":{"type":"Polygon","coordinates":[[[-64.75244,-14.98705],[-64.7519,-14.98777],[-64.75265,-14.98827],[-64.75319,-14.98759],[-64.75244,-14.98705]]]},"properties":{"n":"SACHOJERE","p":29,"personas_x_ha":30,"masculinidad":93,"pct_menor20":48,"pct_60mas":14,"pct_migrante":93,"dependencia_econ":262,"pct_empleados":50,"pct_cuentapropia":38,"pct_agricultura":25,"pct_comercio":25,"pct_manufactura":0,"pct_construccion":0,"pct_transporte":0,"pct_alojamiento":12,"pct_sin_educacion":13,"pct_educ_superior":40,"brecha_educ":5,"pct_sin_seguro":3,"pct_sus":93,"pct_seguro_privado":0,"brecha_seguro":7,"pct_salud_publica":22,"pct_med_tradicional":21,"pct_automedicacion":23,"pct_remedios_caseros":24,"pct_viv_desocupada":0,"pct_alquiler":0,"pct_electricidad":71,"pct_sin_electricidad":29,"pct_agua_red":57,"pct_alcantarillado":0,"pct_camara_septica":86,"pct_pozo_ciego":0,"pct_sin_desague":14,"pct_gas_red":0,"pct_gas_garrafa":57,"pct_lena_guano":57,"pct_basura_formal":0,"pct_basura_quema":86,"pct_basura_informal":0,"pct_internet":71,"pct_celular":71,"pct_televisor":43}},{"type":"Feature","geometry":{"type":"Polygon","coordinates":[[[-64.75227,-14.98698],[-64.75153,-14.98647],[-64.75098,-14.98712],[-64.75171,-14.98767],[-64.75227,-14.98698]]]},"properties":{"n":"SACHOJERE","p":41,"personas_x_ha":42,"masculinidad":95,"pct_menor20":54,"pct_60mas":2,"pct_migrante":73,"dependencia_econ":215,"pct_empleados":54,"pct_cuentapropia":31,"pct_agricultura":62,"pct_comercio":0,"pct_manufactura":8,"pct_construccion":15,"pct_transporte":8,"pct_alojamiento":0,"pct_sin_educacion":5,"pct_educ_superior":21,"brecha_educ":-1,"pct_sin_seguro":0,"pct_sus":100,"pct_seguro_privado":0,"brecha_seguro":0,"pct_salud_publica":25,"pct_med_tradicional":20,"pct_automedicacion":25,"pct_remedios_caseros":20,"pct_viv_desocupada":0,"pct_alquiler":0,"pct_electricidad":71,"pct_sin_electricidad":29,"pct_agua_red":71,"pct_alcantarillado":0,"pct_camara_septica":86,"pct_pozo_ciego":0,"pct_sin_desague":14,"pct_gas_red":0,"pct_gas_garrafa":43,"pct_lena_guano":43,"pct_basura_formal":0,"pct_basura_quema":43,"pct_basura_informal":29,"pct_internet":100,"pct_celular":100,"pct_televisor":14}},{"type":"Feature","geometry":{"type":"Polygon","coordinates":[[[-64.75428,-14.98825],[-64.75495,-14.98875],[-64.75549,-14.98801],[-64.75481,-14.98754],[-64.75428,-14.98825]]]},"properties":{"n":"SACHOJERE","p":25,"personas_x_ha":26,"masculinidad":79,"pct_menor20":44,"pct_60mas":4,"pct_migrante":60,"dependencia_econ":150,"pct_empleados":40,"pct_cuentapropia":40,"pct_agricultura":60,"pct_comercio":0,"pct_manufactura":0,"pct_construccion":0,"pct_transporte":0,"pct_alojamiento":30,"pct_sin_educacion":14,"pct_educ_superior":7,"brecha_educ":-4,"pct_sin_seguro":52,"pct_sus":48,"pct_seguro_privado":0,"brecha_seguro":-12,"pct_salud_publica":30,"pct_med_tradicional":22,"pct_automedicacion":7,"pct_remedios_caseros":28,"pct_viv_desocupada":29,"pct_alquiler":0,"pct_electricidad":100,"pct_sin_electricidad":0,"pct_agua_red":100,"pct_alcantarillado":0,"pct_camara_septica":20,"pct_pozo_ciego":80,"pct_sin_desague":0,"pct_gas_red":0,"pct_gas_garrafa":20,"pct_lena_guano":20,"pct_basura_formal":0,"pct_basura_quema":100,"pct_basura_informal":0,"pct_internet":80,"pct_celular":80,"pct_televisor":40}},{"type":"Feature","geometry":{"type":"Polygon","coordinates":[[[-64.75212,-14.99059],[-64.75227,-14.99059],[-64.75308,-14.98957],[-64.7539,-14.99012],[-64.75421,-14.98964],[-64.75302,-14.98878],[-64.75186,-14.99022],[-64.75184,-14.99031],[-64.75212,-14.99059]]]},"properties":{"n":"SACHOJERE","p":34,"personas_x_ha":18,"masculinidad":100,"pct_menor20":47,"pct_60mas":6,"pct_migrante":56,"dependencia_econ":100,"pct_empleados":47,"pct_cuentapropia":47,"pct_agricultura":47,"pct_comercio":12,"pct_manufactura":12,"pct_construccion":0,"pct_transporte":0,"pct_alojamiento":0,"pct_sin_educacion":6,"pct_educ_superior":11,"brecha_educ":-5,"pct_sin_seguro":0,"pct_sus":85,"pct_seguro_privado":0,"brecha_seguro":0,"pct_salud_publica":25,"pct_med_tradicional":23,"pct_automedicacion":21,"pct_remedios_caseros":24,"pct_viv_desocupada":20,"pct_alquiler":0,"pct_electricidad":50,"pct_sin_electricidad":12,"pct_agua_red":88,"pct_alcantarillado":0,"pct_camara_septica":62,"pct_pozo_ciego":12,"pct_sin_desague":25,"pct_gas_red":0,"pct_gas_garrafa":62,"pct_lena_guano":62,"pct_basura_formal":0,"pct_basura_quema":100,"pct_basura_informal":0,"pct_internet":88,"pct_celular":88,"pct_televisor":25}},{"type":"Feature","geometry":{"type":"Polygon","coordinates":[[[-65.20431,-16.25972],[-65.20419,-16.26002],[-65.20396,-16.25993],[-65.20408,-16.25964],[-65.20341,-16.25941],[-65.20309,-16.26048],[-65.20443,-16.26092],[-65.20483,-16.2599],[-65.20431,-16.25972]]]},"properties":{"n":"SANTA ROSA DEL ISIBORO","p":26,"personas_x_ha":14,"masculinidad":62,"pct_menor20":58,"pct_60mas":0,"pct_migrante":35,"dependencia_econ":243,"pct_empleados":14,"pct_cuentapropia":57,"pct_agricultura":71,"pct_comercio":14,"pct_manufactura":0,"pct_construccion":14,"pct_transporte":0,"pct_alojamiento":0,"pct_sin_educacion":0,"pct_educ_superior":11,"brecha_educ":-30,"pct_sin_seguro":25,"pct_sus":62,"pct_seguro_privado":0,"brecha_seguro":-26,"pct_salud_publica":34,"pct_med_tradicional":12,"pct_automedicacion":16,"pct_remedios_caseros":21,"pct_viv_desocupada":38,"pct_alquiler":0,"pct_electricidad":40,"pct_sin_electricidad":0,"pct_agua_red":0,"pct_alcantarillado":0,"pct_camara_septica":60,"pct_pozo_ciego":40,"pct_sin_desague":0,"pct_gas_red":0,"pct_gas_garrafa":100,"pct_lena_guano":100,"pct_basura_formal":80,"pct_basura_quema":0,"pct_basura_informal":40,"pct_internet":40,"pct_celular":80,"pct_televisor":40}},{"type":"Feature","geometry":{"type":"Polygon","coordinates":[[[-65.20699,-16.25967],[-65.20739,-16.25854],[-65.20724,-16.25814],[-65.20705,-16.25796],[-65.20695,-16.25806],[-65.2064,-16.25947],[-65.20699,-16.25967]]]},"properties":{"n":"SANTA ROSA DEL ISIBORO","p":15,"personas_x_ha":14,"masculinidad":114,"pct_menor20":60,"pct_60mas":0,"pct_migrante":100,"dependencia_econ":150,"pct_empleados":33,"pct_cuentapropia":17,"pct_agricultura":50,"pct_comercio":33,"pct_manufactura":0,"pct_construccion":17,"pct_transporte":0,"pct_alojamiento":0,"pct_sin_educacion":14,"pct_educ_superior":29,"brecha_educ":8,"pct_sin_seguro":0,"pct_sus":100,"pct_seguro_privado":0,"brecha_seguro":0,"pct_salud_publica":54,"pct_med_tradicional":0,"pct_automedicacion":4,"pct_remedios_caseros":43,"pct_viv_desocupada":38,"pct_alquiler":0,"pct_electricidad":100,"pct_sin_electricidad":0,"pct_agua_red":0,"pct_alcantarillado":0,"pct_camara_septica":25,"pct_pozo_ciego":75,"pct_sin_desague":0,"pct_gas_red":0,"pct_gas_garrafa":100,"pct_lena_guano":100,"pct_basura_formal":100,"pct_basura_quema":0,"pct_basura_informal":0,"pct_internet":75,"pct_celular":100,"pct_televisor":50}},{"type":"Feature","geometry":{"type":"Polygon","coordinates":[[[-65.20725,-16.26051],[-65.207,-16.26071],[-65.20769,-16.26101],[-65.20792,-16.26056],[-65.20751,-16.26031],[-65.20794,-16.26053],[-65.20818,-16.26006],[-65.20776,-16.25933],[-65.20768,-16.2593],[-65.20725,-16.26051]]]},"properties":{"n":"SANTA ROSA DEL ISIBORO","p":26,"personas_x_ha":24,"masculinidad":136,"pct_menor20":19,"pct_60mas":19,"pct_migrante":65,"dependencia_econ":333,"pct_empleados":0,"pct_cuentapropia":33,"pct_agricultura":67,"pct_comercio":0,"pct_manufactura":0,"pct_construccion":33,"pct_transporte":0,"pct_alojamiento":0,"pct_sin_educacion":10,"pct_educ_superior":0,"brecha_educ":11,"pct_sin_seguro":4,"pct_sus":96,"pct_seguro_privado":0,"brecha_seguro":7,"pct_salud_publica":69,"pct_med_tradicional":6,"pct_automedicacion":6,"pct_remedios_caseros":20,"pct_viv_desocupada":10,"pct_alquiler":0,"pct_electricidad":83,"pct_sin_electricidad":0,"pct_agua_red":0,"pct_alcantarillado":0,"pct_camara_septica":50,"pct_pozo_ciego":50,"pct_sin_desague":0,"pct_gas_red":0,"pct_gas_garrafa":100,"pct_lena_guano":100,"pct_basura_formal":67,"pct_basura_quema":0,"pct_basura_informal":33,"pct_internet":50,"pct_celular":83,"pct_televisor":67}},{"type":"Feature","geometry":{"type":"Polygon","coordinates":[[[-65.20523,-16.25915],[-65.20495,-16.25984],[-65.20602,-16.26022],[-65.20632,-16.25952],[-65.20523,-16.25915]]]},"properties":{"n":"SANTA ROSA DEL ISIBORO","p":34,"personas_x_ha":33,"masculinidad":62,"pct_menor20":62,"pct_60mas":3,"pct_migrante":59,"dependencia_econ":725,"pct_empleados":0,"pct_cuentapropia":25,"pct_agricultura":50,"pct_comercio":0,"pct_manufactura":50,"pct_construccion":0,"pct_transporte":0,"pct_alojamiento":0,"pct_sin_educacion":8,"pct_educ_superior":0,"brecha_educ":17,"pct_sin_seguro":3,"pct_sus":97,"pct_seguro_privado":0,"brecha_seguro":-5,"pct_salud_publica":76,"pct_med_tradicional":2,"pct_automedicacion":0,"pct_remedios_caseros":22,"pct_viv_desocupada":0,"pct_alquiler":0,"pct_electricidad":33,"pct_sin_electricidad":17,"pct_agua_red":0,"pct_alcantarillado":0,"pct_camara_septica":33,"pct_pozo_ciego":50,"pct_sin_desague":17,"pct_gas_red":0,"pct_gas_garrafa":100,"pct_lena_guano":100,"pct_basura_formal":50,"pct_basura_quema":0,"pct_basura_informal":100,"pct_internet":50,"pct_celular":83,"pct_televisor":67}},{"type":"Feature","geometry":{"type":"Polygon","coordinates":[[[-65.20487,-16.25982],[-65.20514,-16.25913],[-65.20407,-16.25877],[-65.20382,-16.25946],[-65.20487,-16.25982]]]},"properties":{"n":"SANTA ROSA DEL ISIBORO","p":29,"personas_x_ha":30,"masculinidad":61,"pct_menor20":59,"pct_60mas":0,"pct_migrante":59,"dependencia_econ":222,"pct_empleados":0,"pct_cuentapropia":67,"pct_agricultura":67,"pct_comercio":0,"pct_manufactura":11,"pct_construccion":0,"pct_transporte":0,"pct_alojamiento":0,"pct_sin_educacion":0,"pct_educ_superior":0,"brecha_educ":-43,"pct_sin_seguro":0,"pct_sus":100,"pct_seguro_privado":0,"brecha_seguro":0,"pct_salud_publica":83,"pct_med_tradicional":0,"pct_automedicacion":0,"pct_remedios_caseros":17,"pct_viv_desocupada":12,"pct_alquiler":0,"pct_electricidad":67,"pct_sin_electricidad":0,"pct_agua_red":50,"pct_alcantarillado":33,"pct_camara_septica":33,"pct_pozo_ciego":33,"pct_sin_desague":0,"pct_gas_red":0,"pct_gas_garrafa":83,"pct_lena_guano":83,"pct_basura_formal":33,"pct_basura_quema":33,"pct_basura_informal":67,"pct_internet":50,"pct_celular":83,"pct_televisor":17}},{"type":"Feature","geometry":{"type":"Polygon","coordinates":[[[-65.20567,-16.26112],[-65.20505,-16.26256],[-65.204,-16.26212],[-65.20462,-16.26073],[-65.20567,-16.26112]]]},"properties":{"n":"SANTA ROSA DEL ISIBORO","p":22,"personas_x_ha":11,"masculinidad":144,"pct_menor20":45,"pct_60mas":5,"pct_migrante":73,"dependencia_econ":120,"pct_empleados":40,"pct_cuentapropia":40,"pct_agricultura":40,"pct_comercio":20,"pct_manufactura":10,"pct_construccion":0,"pct_transporte":0,"pct_alojamiento":0,"pct_sin_educacion":0,"pct_educ_superior":42,"brecha_educ":0,"pct_sin_seguro":5,"pct_sus":91,"pct_seguro_privado":0,"brecha_seguro":8,"pct_salud_publica":36,"pct_med_tradicional":5,"pct_automedicacion":16,"pct_remedios_caseros":29,"pct_viv_desocupada":0,"pct_alquiler":0,"pct_electricidad":50,"pct_sin_electricidad":17,"pct_agua_red":0,"pct_alcantarillado":0,"pct_camara_septica":17,"pct_pozo_ciego":67,"pct_sin_desague":17,"pct_gas_red":0,"pct_gas_garrafa":83,"pct_lena_guano":83,"pct_basura_formal":50,"pct_basura_quema":50,"pct_basura_informal":0,"pct_internet":100,"pct_celular":100,"pct_televisor":17}}]}