{"type":"FeatureCollection","features":[{"type":"Feature","geometry":{"type":"Polygon","coordinates":[[[-64.61633,-13.27148],[-64.61739,-13.27155],[-64.61745,-13.27054],[-64.61636,-13.27047],[-64.61633,-13.27148]]]},"properties":{"n":"SAN RAMON","p":95,"personas_x_ha":70,"masculinidad":144,"pct_menor20":46,"pct_60mas":8,"pct_migrante":23,"dependencia_econ":296,"pct_empleados":29,"pct_cuentapropia":38,"pct_agricultura":17,"pct_comercio":4,"pct_manufactura":0,"pct_construccion":17,"pct_transporte":0,"pct_alojamiento":21,"pct_sin_educacion":11,"pct_educ_superior":21,"brecha_educ":0,"pct_sin_seguro":7,"pct_sus":73,"pct_seguro_privado":0,"brecha_seguro":7,"pct_salud_publica":36,"pct_med_tradicional":4,"pct_automedicacion":10,"pct_remedios_caseros":18,"pct_viv_desocupada":5,"pct_alquiler":5,"pct_electricidad":95,"pct_sin_electricidad":5,"pct_agua_red":74,"pct_alcantarillado":21,"pct_camara_septica":42,"pct_pozo_ciego":21,"pct_sin_desague":5,"pct_gas_red":0,"pct_gas_garrafa":84,"pct_lena_guano":84,"pct_basura_formal":21,"pct_basura_quema":74,"pct_basura_informal":0,"pct_internet":63,"pct_celular":74,"pct_televisor":68}},{"type":"Feature","geometry":{"type":"Polygon","coordinates":[[[-64.6202,-13.26794],[-64.62027,-13.26688],[-64.61934,-13.26678],[-64.61932,-13.26792],[-64.6202,-13.26794]]]},"properties":{"n":"SAN RAMON","p":32,"personas_x_ha":26,"masculinidad":129,"pct_menor20":31,"pct_60mas":6,"pct_migrante":47,"dependencia_econ":113,"pct_empleados":47,"pct_cuentapropia":53,"pct_agricultura":27,"pct_comercio":40,"pct_manufactura":0,"pct_construccion":0,"pct_transporte":0,"pct_alojamiento":7,"pct_sin_educacion":0,"pct_educ_superior":39,"brecha_educ":3,"pct_sin_seguro":31,"pct_sus":44,"pct_seguro_privado":0,"brecha_seguro":-8,"pct_salud_publica":29,"pct_med_tradicional":10,"pct_automedicacion":10,"pct_remedios_caseros":20,"pct_viv_desocupada":0,"pct_alquiler":0,"pct_electricidad":100,"pct_sin_electricidad":0,"pct_agua_red":88,"pct_alcantarillado":25,"pct_camara_septica":38,"pct_pozo_ciego":38,"pct_sin_desague":0,"pct_gas_red":0,"pct_gas_garrafa":88,"pct_lena_guano":88,"pct_basura_formal":75,"pct_basura_quema":25,"pct_basura_informal":0,"pct_internet":75,"pct_celular":88,"pct_televisor":50}},{"type":"Feature","geometry":{"type":"Polygon","coordinates":[[[-64.60812,-13.26488],[-64.60802,-13.26601],[-64.60895,-13.26606],[-64.60903,-13.26497],[-64.60812,-13.26488]]]},"properties":{"n":"SAN RAMON","p":26,"personas_x_ha":20,"masculinidad":86,"pct_menor20":50,"pct_60mas":12,"pct_migrante":46,"dependencia_econ":136,"pct_empleados":45,"pct_cuentapropia":45,"pct_agricultura":27,"pct_comercio":9,"pct_manufactura":9,"pct_construccion":9,"pct_transporte":0,"pct_alojamiento":9,"pct_sin_educacion":0,"pct_educ_superior":15,"brecha_educ":3,"pct_sin_seguro":12,"pct_sus":88,"pct_seguro_privado":0,"brecha_seguro":-6,"pct_salud_publica":30,"pct_med_tradicional":12,"pct_automedicacion":14,"pct_remedios_caseros":16,"pct_viv_desocupada":14,"pct_alquiler":17,"pct_electricidad":100,"pct_sin_electricidad":0,"pct_agua_red":67,"pct_alcantarillado":17,"pct_camara_septica":17,"pct_pozo_ciego":50,"pct_sin_desague":0,"pct_gas_red":0,"pct_gas_garrafa":83,"pct_lena_guano":83,"pct_basura_formal":0,"pct_basura_quema":100,"pct_basura_informal":0,"pct_internet":83,"pct_celular":83,"pct_televisor":67}},{"type":"Feature","geometry":{"type":"Polygon","coordinates":[[[-64.61748,-13.27038],[-64.61754,-13.26931],[-64.61642,-13.26923],[-64.61637,-13.2703],[-64.61748,-13.27038]]]},"properties":{"n":"SAN RAMON","p":68,"personas_x_ha":46,"masculinidad":74,"pct_menor20":34,"pct_60mas":12,"pct_migrante":32,"dependencia_econ":150,"pct_empleados":50,"pct_cuentapropia":27,"pct_agricultura":35,"pct_comercio":8,"pct_manufactura":0,"pct_construccion":12,"pct_transporte":4,"pct_alojamiento":0,"pct_sin_educacion":2,"pct_educ_superior":16,"brecha_educ":-10,"pct_sin_seguro":11,"pct_sus":78,"pct_seguro_privado":0,"brecha_seguro":0,"pct_salud_publica":43,"pct_med_tradicional":5,"pct_automedicacion":8,"pct_remedios_caseros":23,"pct_viv_desocupada":0,"pct_alquiler":17,"pct_electricidad":100,"pct_sin_electricidad":0,"pct_agua_red":72,"pct_alcantarillado":11,"pct_camara_septica":56,"pct_pozo_ciego":28,"pct_sin_desague":6,"pct_gas_red":0,"pct_gas_garrafa":94,"pct_lena_guano":94,"pct_basura_formal":94,"pct_basura_quema":6,"pct_basura_informal":0,"pct_internet":50,"pct_celular":89,"pct_televisor":89}},{"type":"Feature","geometry":{"type":"Polygon","coordinates":[[[-64.61791,-13.26531],[-64.61926,-13.26537],[-64.6193,-13.26411],[-64.61799,-13.26402],[-64.61791,-13.26531]]]},"properties":{"n":"SAN RAMON","p":67,"personas_x_ha":32,"masculinidad":97,"pct_menor20":33,"pct_60mas":19,"pct_migrante":30,"dependencia_econ":78,"pct_empleados":43,"pct_cuentapropia":49,"pct_agricultura":19,"pct_comercio":27,"pct_manufactura":3,"pct_construccion":11,"pct_transporte":3,"pct_alojamiento":3,"pct_sin_educacion":16,"pct_educ_superior":27,"brecha_educ":-14,"pct_sin_seguro":28,"pct_sus":62,"pct_seguro_privado":0,"brecha_seguro":-11,"pct_salud_publica":33,"pct_med_tradicional":4,"pct_automedicacion":8,"pct_remedios_caseros":37,"pct_viv_desocupada":5,"pct_alquiler":12,"pct_electricidad":100,"pct_sin_electricidad":0,"pct_agua_red":50,"pct_alcantarillado":12,"pct_camara_septica":44,"pct_pozo_ciego":31,"pct_sin_desague":0,"pct_gas_red":0,"pct_gas_garrafa":94,"pct_lena_guano":94,"pct_basura_formal":56,"pct_basura_quema":44,"pct_basura_informal":0,"pct_internet":50,"pct_celular":81,"pct_televisor":69}},{"type":"Feature","geometry":{"type":"Polygon","coordinates":[[[-64.6167,-13.26394],[-64.61662,-13.26526],[-64.61774,-13.2653],[-64.61777,-13.26398],[-64.6167,-13.26394]]]},"properties":{"n":"SAN RAMON","p":123,"personas_x_ha":69,"masculinidad":92,"pct_menor20":45,"pct_60mas":10,"pct_migrante":38,"dependencia_econ":175,"pct_empleados":36,"pct_cuentapropia":43,"pct_agricultura":18,"pct_comercio":18,"pct_manufactura":20,"pct_construccion":18,"pct_transporte":5,"pct_alojamiento":11,"pct_sin_educacion":4,"pct_educ_superior":6,"brecha_educ":6,"pct_sin_seguro":21,"pct_sus":69,"pct_seguro_privado":0,"brecha_seguro":21,"pct_salud_publica":41,"pct_med_tradicional":6,"pct_automedicacion":9,"pct_remedios_caseros":29,"pct_viv_desocupada":4,"pct_alquiler":0,"pct_electricidad":100,"pct_sin_electricidad":0,"pct_agua_red":78,"pct_alcantarillado":9,"pct_camara_septica":35,"pct_pozo_ciego":48,"pct_sin_desague":0,"pct_gas_red":0,"pct_gas_garrafa":91,"pct_lena_guano":91,"pct_basura_formal":65,"pct_basura_quema":26,"pct_basura_informal":0,"pct_internet":65,"pct_celular":78,"pct_televisor":48}},{"type":"Feature","geometry":{"type":"Polygon","coordinates":[[[-64.61544,-13.26216],[-64.6166,-13.26227],[-64.61664,-13.26136],[-64.61548,-13.26131],[-64.61544,-13.26216]]]},"properties":{"n":"SAN RAMON","p":38,"personas_x_ha":30,"masculinidad":65,"pct_menor20":39,"pct_60mas":5,"pct_migrante":29,"dependencia_econ":138,"pct_empleados":0,"pct_cuentapropia":19,"pct_agricultura":31,"pct_comercio":0,"pct_manufactura":0,"pct_construccion":6,"pct_transporte":0,"pct_alojamiento":0,"pct_sin_educacion":0,"pct_educ_superior":8,"brecha_educ":4,"pct_sin_seguro":13,"pct_sus":87,"pct_seguro_privado":0,"brecha_seguro":-11,"pct_salud_publica":80,"pct_med_tradicional":0,"pct_automedicacion":7,"pct_remedios_caseros":2,"pct_viv_desocupada":0,"pct_alquiler":8,"pct_electricidad":100,"pct_sin_electricidad":0,"pct_agua_red":83,"pct_alcantarillado":0,"pct_camara_septica":33,"pct_pozo_ciego":58,"pct_sin_desague":8,"pct_gas_red":8,"pct_gas_garrafa":67,"pct_lena_guano":67,"pct_basura_formal":67,"pct_basura_quema":25,"pct_basura_informal":17,"pct_internet":33,"pct_celular":75,"pct_televisor":83}},{"type":"Feature","geometry":{"type":"Polygon","coordinates":[[[-64.61893,-13.26028],[-64.61885,-13.26005],[-64.61888,-13.26028],[-64.61811,-13.26021],[-64.61817,-13.25929],[-64.61837,-13.25938],[-64.61865,-13.25937],[-64.61817,-13.25926],[-64.61833,-13.25739],[-64.61898,-13.25743],[-64.61914,-13.25925],[-64.61907,-13.26029],[-64.61893,-13.26028]]]},"properties":{"n":"SAN RAMON","p":17,"personas_x_ha":6,"masculinidad":143,"pct_menor20":53,"pct_60mas":12,"pct_migrante":12,"dependencia_econ":89,"pct_empleados":56,"pct_cuentapropia":33,"pct_agricultura":22,"pct_comercio":11,"pct_manufactura":0,"pct_construccion":11,"pct_transporte":0,"pct_alojamiento":0,"pct_sin_educacion":0,"pct_educ_superior":20,"brecha_educ":-17,"pct_sin_seguro":18,"pct_sus":47,"pct_seguro_privado":29,"brecha_seguro":30,"pct_salud_publica":50,"pct_med_tradicional":8,"pct_automedicacion":0,"pct_remedios_caseros":12,"pct_viv_desocupada":0,"pct_alquiler":40,"pct_electricidad":100,"pct_sin_electricidad":0,"pct_agua_red":40,"pct_alcantarillado":20,"pct_camara_septica":80,"pct_pozo_ciego":0,"pct_sin_desague":0,"pct_gas_red":0,"pct_gas_garrafa":60,"pct_lena_guano":60,"pct_basura_formal":40,"pct_basura_quema":60,"pct_basura_informal":0,"pct_internet":40,"pct_celular":60,"pct_televisor":80}},{"type":"Feature","geometry":{"type":"Polygon","coordinates":[[[-64.62012,-13.26933],[-64.6202,-13.26823],[-64.61931,-13.26814],[-64.61928,-13.26928],[-64.62012,-13.26933]]]},"properties":{"n":"SAN RAMON","p":42,"personas_x_ha":35,"masculinidad":133,"pct_menor20":55,"pct_60mas":17,"pct_migrante":50,"dependencia_econ":162,"pct_empleados":25,"pct_cuentapropia":56,"pct_agricultura":31,"pct_comercio":19,"pct_manufactura":0,"pct_construccion":6,"pct_transporte":0,"pct_alojamiento":12,"pct_sin_educacion":5,"pct_educ_superior":11,"brecha_educ":-17,"pct_sin_seguro":10,"pct_sus":88,"pct_seguro_privado":2,"brecha_seguro":7,"pct_salud_publica":25,"pct_med_tradicional":10,"pct_automedicacion":16,"pct_remedios_caseros":22,"pct_viv_desocupada":0,"pct_alquiler":9,"pct_electricidad":100,"pct_sin_electricidad":0,"pct_agua_red":91,"pct_alcantarillado":0,"pct_camara_septica":36,"pct_pozo_ciego":64,"pct_sin_desague":0,"pct_gas_red":0,"pct_gas_garrafa":82,"pct_lena_guano":82,"pct_basura_formal":36,"pct_basura_quema":55,"pct_basura_informal":18,"pct_internet":82,"pct_celular":91,"pct_televisor":73}},{"type":"Feature","geometry":{"type":"Polygon","coordinates":[[[-64.60795,-13.26468],[-64.60805,-13.26339],[-64.60713,-13.26332],[-64.60705,-13.26461],[-64.60795,-13.26468]]]},"properties":{"n":"SAN RAMON","p":17,"personas_x_ha":11,"masculinidad":42,"pct_menor20":53,"pct_60mas":0,"pct_migrante":53,"dependencia_econ":183,"pct_empleados":67,"pct_cuentapropia":33,"pct_agricultura":33,"pct_comercio":17,"pct_manufactura":17,"pct_construccion":17,"pct_transporte":0,"pct_alojamiento":17,"pct_sin_educacion":0,"pct_educ_superior":33,"brecha_educ":0,"pct_sin_seguro":18,"pct_sus":59,"pct_seguro_privado":0,"brecha_seguro":3,"pct_salud_publica":18,"pct_med_tradicional":11,"pct_automedicacion":24,"pct_remedios_caseros":22,"pct_viv_desocupada":38,"pct_alquiler":0,"pct_electricidad":100,"pct_sin_electricidad":0,"pct_agua_red":100,"pct_alcantarillado":0,"pct_camara_septica":25,"pct_pozo_ciego":75,"pct_sin_desague":0,"pct_gas_red":0,"pct_gas_garrafa":100,"pct_lena_guano":100,"pct_basura_formal":25,"pct_basura_quema":75,"pct_basura_informal":0,"pct_internet":100,"pct_celular":100,"pct_televisor":75}},{"type":"Feature","geometry":{"type":"Polygon","coordinates":[[[-64.61207,-13.26904],[-64.61054,-13.27056],[-64.61068,-13.27109],[-64.61184,-13.27117],[-64.61207,-13.26904]]]},"properties":{"n":"SAN RAMON","p":37,"personas_x_ha":18,"masculinidad":85,"pct_menor20":49,"pct_60mas":5,"pct_migrante":70,"dependencia_econ":131,"pct_empleados":31,"pct_cuentapropia":50,"pct_agricultura":12,"pct_comercio":31,"pct_manufactura":6,"pct_construccion":12,"pct_transporte":0,"pct_alojamiento":6,"pct_sin_educacion":10,"pct_educ_superior":25,"brecha_educ":-20,"pct_sin_seguro":8,"pct_sus":89,"pct_seguro_privado":0,"brecha_seguro":18,"pct_salud_publica":34,"pct_med_tradicional":2,"pct_automedicacion":23,"pct_remedios_caseros":28,"pct_viv_desocupada":7,"pct_alquiler":0,"pct_electricidad":100,"pct_sin_electricidad":0,"pct_agua_red":100,"pct_alcantarillado":8,"pct_camara_septica":33,"pct_pozo_ciego":42,"pct_sin_desague":0,"pct_gas_red":0,"pct_gas_garrafa":92,"pct_lena_guano":92,"pct_basura_formal":8,"pct_basura_quema":83,"pct_basura_informal":0,"pct_internet":100,"pct_celular":100,"pct_televisor":67}},{"type":"Feature","geometry":{"type":"Polygon","coordinates":[[[-64.61254,-13.26517],[-64.61249,-13.26628],[-64.61384,-13.26634],[-64.61388,-13.26523],[-64.61254,-13.26517]]]},"properties":{"n":"SAN RAMON","p":75,"personas_x_ha":41,"masculinidad":88,"pct_menor20":47,"pct_60mas":5,"pct_migrante":31,"dependencia_econ":124,"pct_empleados":61,"pct_cuentapropia":36,"pct_agricultura":12,"pct_comercio":15,"pct_manufactura":18,"pct_construccion":12,"pct_transporte":0,"pct_alojamiento":12,"pct_sin_educacion":5,"pct_educ_superior":30,"brecha_educ":-12,"pct_sin_seguro":4,"pct_sus":69,"pct_seguro_privado":0,"brecha_seguro":3,"pct_salud_publica":43,"pct_med_tradicional":2,"pct_automedicacion":18,"pct_remedios_caseros":16,"pct_viv_desocupada":0,"pct_alquiler":8,"pct_electricidad":100,"pct_sin_electricidad":0,"pct_agua_red":83,"pct_alcantarillado":17,"pct_camara_septica":33,"pct_pozo_ciego":50,"pct_sin_desague":0,"pct_gas_red":0,"pct_gas_garrafa":75,"pct_lena_guano":75,"pct_basura_formal":58,"pct_basura_quema":42,"pct_basura_informal":0,"pct_internet":92,"pct_celular":92,"pct_televisor":58}},{"type":"Feature","geometry":{"type":"Polygon","coordinates":[[[-64.61524,-13.26365],[-64.61527,-13.26239],[-64.61421,-13.26232],[-64.61413,-13.26358],[-64.61524,-13.26365]]]},"properties":{"n":"SAN RAMON","p":112,"personas_x_ha":66,"masculinidad":100,"pct_menor20":53,"pct_60mas":10,"pct_migrante":26,"dependencia_econ":250,"pct_empleados":41,"pct_cuentapropia":31,"pct_agricultura":22,"pct_comercio":12,"pct_manufactura":3,"pct_construccion":9,"pct_transporte":6,"pct_alojamiento":12,"pct_sin_educacion":7,"pct_educ_superior":16,"brecha_educ":-11,"pct_sin_seguro":8,"pct_sus":83,"pct_seguro_privado":0,"brecha_seguro":-2,"pct_salud_publica":27,"pct_med_tradicional":3,"pct_automedicacion":16,"pct_remedios_caseros":32,"pct_viv_desocupada":0,"pct_alquiler":12,"pct_electricidad":100,"pct_sin_electricidad":0,"pct_agua_red":76,"pct_alcantarillado":6,"pct_camara_septica":35,"pct_pozo_ciego":53,"pct_sin_desague":0,"pct_gas_red":0,"pct_gas_garrafa":82,"pct_lena_guano":82,"pct_basura_formal":35,"pct_basura_quema":59,"pct_basura_informal":0,"pct_internet":82,"pct_celular":88,"pct_televisor":76}},{"type":"Feature","geometry":{"type":"Polygon","coordinates":[[[-64.62039,-13.26798],[-64.6219,-13.26803],[-64.62215,-13.26695],[-64.6205,-13.26686],[-64.62043,-13.26691],[-64.62039,-13.26798]]]},"properties":{"n":"SAN RAMON","p":60,"personas_x_ha":27,"masculinidad":114,"pct_menor20":58,"pct_60mas":2,"pct_migrante":40,"dependencia_econ":186,"pct_empleados":43,"pct_cuentapropia":43,"pct_agricultura":24,"pct_comercio":0,"pct_manufactura":5,"pct_construccion":19,"pct_transporte":0,"pct_alojamiento":14,"pct_sin_educacion":4,"pct_educ_superior":12,"brecha_educ":-5,"pct_sin_seguro":17,"pct_sus":79,"pct_seguro_privado":0,"brecha_seguro":5,"pct_salud_publica":63,"pct_med_tradicional":1,"pct_automedicacion":9,"pct_remedios_caseros":20,"pct_viv_desocupada":0,"pct_alquiler":0,"pct_electricidad":100,"pct_sin_electricidad":0,"pct_agua_red":90,"pct_alcantarillado":40,"pct_camara_septica":60,"pct_pozo_ciego":0,"pct_sin_desague":0,"pct_gas_red":0,"pct_gas_garrafa":70,"pct_lena_guano":70,"pct_basura_formal":50,"pct_basura_quema":40,"pct_basura_informal":20,"pct_internet":80,"pct_celular":80,"pct_televisor":40}},{"type":"Feature","geometry":{"type":"Polygon","coordinates":[[[-64.61491,-13.27032],[-64.61382,-13.27025],[-64.61374,-13.27132],[-64.61488,-13.27139],[-64.61491,-13.27032]]]},"properties":{"n":"SAN RAMON","p":22,"personas_x_ha":15,"masculinidad":83,"pct_menor20":45,"pct_60mas":5,"pct_migrante":27,"dependencia_econ":120,"pct_empleados":30,"pct_cuentapropia":70,"pct_agricultura":20,"pct_comercio":10,"pct_manufactura":10,"pct_construccion":20,"pct_transporte":0,"pct_alojamiento":10,"pct_sin_educacion":8,"pct_educ_superior":17,"brecha_educ":0,"pct_sin_seguro":14,"pct_sus":64,"pct_seguro_privado":0,"brecha_seguro":12,"pct_salud_publica":40,"pct_med_tradicional":0,"pct_automedicacion":19,"pct_remedios_caseros":34,"pct_viv_desocupada":0,"pct_alquiler":0,"pct_electricidad":88,"pct_sin_electricidad":12,"pct_agua_red":75,"pct_alcantarillado":0,"pct_camara_septica":25,"pct_pozo_ciego":62,"pct_sin_desague":12,"pct_gas_red":0,"pct_gas_garrafa":88,"pct_lena_guano":88,"pct_basura_formal":38,"pct_basura_quema":62,"pct_basura_informal":0,"pct_internet":50,"pct_celular":88,"pct_televisor":75}},{"type":"Feature","geometry":{"type":"Polygon","coordinates":[[[-64.62251,-13.26555],[-64.62276,-13.26452],[-64.62268,-13.26433],[-64.62069,-13.26418],[-64.62056,-13.26544],[-64.62251,-13.26555]]]},"properties":{"n":"SAN RAMON","p":53,"personas_x_ha":17,"masculinidad":194,"pct_menor20":45,"pct_60mas":9,"pct_migrante":43,"dependencia_econ":86,"pct_empleados":50,"pct_cuentapropia":25,"pct_agricultura":14,"pct_comercio":25,"pct_manufactura":0,"pct_construccion":29,"pct_transporte":0,"pct_alojamiento":7,"pct_sin_educacion":4,"pct_educ_superior":21,"brecha_educ":-10,"pct_sin_seguro":12,"pct_sus":57,"pct_seguro_privado":8,"brecha_seguro":9,"pct_salud_publica":30,"pct_med_tradicional":7,"pct_automedicacion":10,"pct_remedios_caseros":27,"pct_viv_desocupada":8,"pct_alquiler":27,"pct_electricidad":91,"pct_sin_electricidad":9,"pct_agua_red":45,"pct_alcantarillado":27,"pct_camara_septica":45,"pct_pozo_ciego":9,"pct_sin_desague":9,"pct_gas_red":9,"pct_gas_garrafa":91,"pct_lena_guano":91,"pct_basura_formal":18,"pct_basura_quema":64,"pct_basura_informal":36,"pct_internet":64,"pct_celular":73,"pct_televisor":55}},{"type":"Feature","geometry":{"type":"Polygon","coordinates":[[[-64.61666,-13.26118],[-64.61548,-13.26112],[-64.61558,-13.25907],[-64.61672,-13.25917],[-64.61666,-13.26118]]]},"properties":{"n":"SAN RAMON","p":41,"personas_x_ha":14,"masculinidad":95,"pct_menor20":56,"pct_60mas":10,"pct_migrante":29,"dependencia_econ":273,"pct_empleados":55,"pct_cuentapropia":36,"pct_agricultura":0,"pct_comercio":27,"pct_manufactura":9,"pct_construccion":27,"pct_transporte":9,"pct_alojamiento":9,"pct_sin_educacion":0,"pct_educ_superior":33,"brecha_educ":-44,"pct_sin_seguro":12,"pct_sus":61,"pct_seguro_privado":0,"brecha_seguro":-4,"pct_salud_publica":29,"pct_med_tradicional":10,"pct_automedicacion":6,"pct_remedios_caseros":29,"pct_viv_desocupada":22,"pct_alquiler":0,"pct_electricidad":100,"pct_sin_electricidad":0,"pct_agua_red":100,"pct_alcantarillado":0,"pct_camara_septica":57,"pct_pozo_ciego":43,"pct_sin_desague":0,"pct_gas_red":0,"pct_gas_garrafa":71,"pct_lena_guano":71,"pct_basura_formal":14,"pct_basura_quema":86,"pct_basura_informal":0,"pct_internet":86,"pct_celular":86,"pct_televisor":43}},{"type":"Feature","geometry":{"type":"Polygon","coordinates":[[[-64.61624,-13.27027],[-64.61627,-13.26918],[-64.61518,-13.2691],[-64.61509,-13.2702],[-64.61624,-13.27027]]]},"properties":{"n":"SAN RAMON","p":44,"personas_x_ha":29,"masculinidad":120,"pct_menor20":41,"pct_60mas":7,"pct_migrante":39,"dependencia_econ":83,"pct_empleados":29,"pct_cuentapropia":62,"pct_agricultura":29,"pct_comercio":33,"pct_manufactura":0,"pct_construccion":4,"pct_transporte":8,"pct_alojamiento":0,"pct_sin_educacion":0,"pct_educ_superior":30,"brecha_educ":-10,"pct_sin_seguro":20,"pct_sus":59,"pct_seguro_privado":9,"brecha_seguro":10,"pct_salud_publica":34,"pct_med_tradicional":0,"pct_automedicacion":12,"pct_remedios_caseros":32,"pct_viv_desocupada":0,"pct_alquiler":0,"pct_electricidad":100,"pct_sin_electricidad":0,"pct_agua_red":25,"pct_alcantarillado":12,"pct_camara_septica":75,"pct_pozo_ciego":12,"pct_sin_desague":0,"pct_gas_red":0,"pct_gas_garrafa":100,"pct_lena_guano":100,"pct_basura_formal":50,"pct_basura_quema":50,"pct_basura_informal":0,"pct_internet":88,"pct_celular":88,"pct_televisor":75}},{"type":"Feature","geometry":{"type":"Polygon","coordinates":[[[-64.61931,-13.26247],[-64.61934,-13.26157],[-64.61811,-13.26147],[-64.61805,-13.2624],[-64.61931,-13.26247]]]},"properties":{"n":"SAN RAMON","p":40,"personas_x_ha":29,"masculinidad":100,"pct_menor20":57,"pct_60mas":0,"pct_migrante":22,"dependencia_econ":120,"pct_empleados":27,"pct_cuentapropia":27,"pct_agricultura":13,"pct_comercio":0,"pct_manufactura":27,"pct_construccion":13,"pct_transporte":0,"pct_alojamiento":13,"pct_sin_educacion":0,"pct_educ_superior":46,"brecha_educ":0,"pct_sin_seguro":3,"pct_sus":73,"pct_seguro_privado":0,"brecha_seguro":6,"pct_salud_publica":49,"pct_med_tradicional":0,"pct_automedicacion":4,"pct_remedios_caseros":30,"pct_viv_desocupada":0,"pct_alquiler":12,"pct_electricidad":100,"pct_sin_electricidad":0,"pct_agua_red":88,"pct_alcantarillado":12,"pct_camara_septica":38,"pct_pozo_ciego":50,"pct_sin_desague":0,"pct_gas_red":0,"pct_gas_garrafa":100,"pct_lena_guano":100,"pct_basura_formal":0,"pct_basura_quema":100,"pct_basura_informal":0,"pct_internet":62,"pct_celular":88,"pct_televisor":88}},{"type":"Feature","geometry":{"type":"Polygon","coordinates":[[[-64.61257,-13.265],[-64.6139,-13.26507],[-64.61395,-13.26376],[-64.61266,-13.26368],[-64.61257,-13.265]]]},"properties":{"n":"SAN RAMON","p":74,"personas_x_ha":35,"masculinidad":80,"pct_menor20":50,"pct_60mas":15,"pct_migrante":31,"dependencia_econ":325,"pct_empleados":25,"pct_cuentapropia":31,"pct_agricultura":31,"pct_comercio":6,"pct_manufactura":6,"pct_construccion":6,"pct_transporte":0,"pct_alojamiento":0,"pct_sin_educacion":0,"pct_educ_superior":17,"brecha_educ":-1,"pct_sin_seguro":4,"pct_sus":75,"pct_seguro_privado":0,"brecha_seguro":1,"pct_salud_publica":38,"pct_med_tradicional":7,"pct_automedicacion":15,"pct_remedios_caseros":28,"pct_viv_desocupada":0,"pct_alquiler":21,"pct_electricidad":100,"pct_sin_electricidad":0,"pct_agua_red":79,"pct_alcantarillado":16,"pct_camara_septica":63,"pct_pozo_ciego":21,"pct_sin_desague":0,"pct_gas_red":0,"pct_gas_garrafa":95,"pct_lena_guano":95,"pct_basura_formal":11,"pct_basura_quema":84,"pct_basura_informal":0,"pct_internet":42,"pct_celular":58,"pct_televisor":53}},{"type":"Feature","geometry":{"type":"Polygon","coordinates":[[[-64.61534,-13.26112],[-64.61539,-13.25988],[-64.61433,-13.25983],[-64.61428,-13.26107],[-64.61534,-13.26112]]]},"properties":{"n":"SAN RAMON","p":24,"personas_x_ha":15,"masculinidad":200,"pct_menor20":46,"pct_60mas":8,"pct_migrante":21,"dependencia_econ":200,"pct_empleados":25,"pct_cuentapropia":62,"pct_agricultura":25,"pct_comercio":0,"pct_manufactura":25,"pct_construccion":0,"pct_transporte":25,"pct_alojamiento":12,"pct_sin_educacion":0,"pct_educ_superior":8,"brecha_educ":12,"pct_sin_seguro":29,"pct_sus":71,"pct_seguro_privado":0,"brecha_seguro":6,"pct_salud_publica":21,"pct_med_tradicional":18,"pct_automedicacion":19,"pct_remedios_caseros":24,"pct_viv_desocupada":11,"pct_alquiler":0,"pct_electricidad":100,"pct_sin_electricidad":0,"pct_agua_red":75,"pct_alcantarillado":12,"pct_camara_septica":25,"pct_pozo_ciego":38,"pct_sin_desague":0,"pct_gas_red":0,"pct_gas_garrafa":75,"pct_lena_guano":75,"pct_basura_formal":0,"pct_basura_quema":88,"pct_basura_informal":0,"pct_internet":75,"pct_celular":88,"pct_televisor":62}},{"type":"Feature","geometry":{"type":"Polygon","coordinates":[[[-64.62042,-13.26542],[-64.62059,-13.26417],[-64.61948,-13.2641],[-64.61941,-13.26538],[-64.62042,-13.26542]]]},"properties":{"n":"SAN RAMON","p":90,"personas_x_ha":55,"masculinidad":125,"pct_menor20":54,"pct_60mas":10,"pct_migrante":29,"dependencia_econ":230,"pct_empleados":56,"pct_cuentapropia":22,"pct_agricultura":15,"pct_comercio":0,"pct_manufactura":7,"pct_construccion":30,"pct_transporte":0,"pct_alojamiento":7,"pct_sin_educacion":2,"pct_educ_superior":5,"brecha_educ":2,"pct_sin_seguro":7,"pct_sus":93,"pct_seguro_privado":0,"brecha_seguro":3,"pct_salud_publica":35,"pct_med_tradicional":3,"pct_automedicacion":19,"pct_remedios_caseros":31,"pct_viv_desocupada":0,"pct_alquiler":0,"pct_electricidad":100,"pct_sin_electricidad":0,"pct_agua_red":94,"pct_alcantarillado":19,"pct_camara_septica":31,"pct_pozo_ciego":38,"pct_sin_desague":0,"pct_gas_red":0,"pct_gas_garrafa":62,"pct_lena_guano":62,"pct_basura_formal":50,"pct_basura_quema":50,"pct_basura_informal":0,"pct_internet":56,"pct_celular":56,"pct_televisor":44}},{"type":"Feature","geometry":{"type":"Polygon","coordinates":[[[-64.61797,-13.26122],[-64.61803,-13.26032],[-64.61686,-13.26027],[-64.61683,-13.26118],[-64.61797,-13.26122]]]},"properties":{"n":"SAN RAMON","p":64,"personas_x_ha":50,"masculinidad":121,"pct_menor20":52,"pct_60mas":8,"pct_migrante":34,"dependencia_econ":146,"pct_empleados":23,"pct_cuentapropia":65,"pct_agricultura":8,"pct_comercio":15,"pct_manufactura":15,"pct_construccion":23,"pct_transporte":8,"pct_alojamiento":8,"pct_sin_educacion":3,"pct_educ_superior":13,"brecha_educ":-8,"pct_sin_seguro":10,"pct_sus":87,"pct_seguro_privado":0,"brecha_seguro":11,"pct_salud_publica":38,"pct_med_tradicional":6,"pct_automedicacion":14,"pct_remedios_caseros":35,"pct_viv_desocupada":0,"pct_alquiler":7,"pct_electricidad":100,"pct_sin_electricidad":0,"pct_agua_red":53,"pct_alcantarillado":0,"pct_camara_septica":27,"pct_pozo_ciego":60,"pct_sin_desague":0,"pct_gas_red":0,"pct_gas_garrafa":60,"pct_lena_guano":60,"pct_basura_formal":13,"pct_basura_quema":87,"pct_basura_informal":0,"pct_internet":93,"pct_celular":93,"pct_televisor":47}},{"type":"Feature","geometry":{"type":"Polygon","coordinates":[[[-64.61482,-13.27257],[-64.6148,-13.27296],[-64.61438,-13.27304],[-64.61366,-13.27297],[-64.61366,-13.27247],[-64.61482,-13.27257]]]},"properties":{"n":"SAN RAMON","p":42,"personas_x_ha":63,"masculinidad":75,"pct_menor20":55,"pct_60mas":7,"pct_migrante":19,"dependencia_econ":367,"pct_empleados":44,"pct_cuentapropia":22,"pct_agricultura":33,"pct_comercio":0,"pct_manufactura":11,"pct_construccion":11,"pct_transporte":0,"pct_alojamiento":0,"pct_sin_educacion":25,"pct_educ_superior":10,"brecha_educ":-12,"pct_sin_seguro":2,"pct_sus":98,"pct_seguro_privado":0,"brecha_seguro":-4,"pct_salud_publica":91,"pct_med_tradicional":0,"pct_automedicacion":2,"pct_remedios_caseros":2,"pct_viv_desocupada":0,"pct_alquiler":0,"pct_electricidad":100,"pct_sin_electricidad":0,"pct_agua_red":100,"pct_alcantarillado":25,"pct_camara_septica":50,"pct_pozo_ciego":12,"pct_sin_desague":12,"pct_gas_red":0,"pct_gas_garrafa":88,"pct_lena_guano":88,"pct_basura_formal":38,"pct_basura_quema":62,"pct_basura_informal":0,"pct_internet":75,"pct_celular":75,"pct_televisor":50}},{"type":"Feature","geometry":{"type":"Polygon","coordinates":[[[-64.61231,-13.26885],[-64.6137,-13.26889],[-64.61374,-13.26776],[-64.61331,-13.26773],[-64.61231,-13.26885]]]},"properties":{"n":"SAN RAMON","p":33,"personas_x_ha":26,"masculinidad":136,"pct_menor20":45,"pct_60mas":9,"pct_migrante":15,"dependencia_econ":68,"pct_empleados":26,"pct_cuentapropia":53,"pct_agricultura":26,"pct_comercio":26,"pct_manufactura":16,"pct_construccion":0,"pct_transporte":0,"pct_alojamiento":0,"pct_sin_educacion":0,"pct_educ_superior":17,"brecha_educ":13,"pct_sin_seguro":16,"pct_sus":84,"pct_seguro_privado":0,"brecha_seguro":2,"pct_salud_publica":26,"pct_med_tradicional":4,"pct_automedicacion":15,"pct_remedios_caseros":24,"pct_viv_desocupada":12,"pct_alquiler":0,"pct_electricidad":100,"pct_sin_electricidad":0,"pct_agua_red":100,"pct_alcantarillado":14,"pct_camara_septica":29,"pct_pozo_ciego":43,"pct_sin_desague":0,"pct_gas_red":0,"pct_gas_garrafa":71,"pct_lena_guano":71,"pct_basura_formal":43,"pct_basura_quema":57,"pct_basura_informal":0,"pct_internet":71,"pct_celular":86,"pct_televisor":71}},{"type":"Feature","geometry":{"type":"Polygon","coordinates":[[[-64.61385,-13.26898],[-64.61501,-13.26898],[-64.61496,-13.27017],[-64.61378,-13.27007],[-64.61385,-13.26898]]]},"properties":{"n":"SAN RAMON","p":73,"personas_x_ha":45,"masculinidad":128,"pct_menor20":51,"pct_60mas":5,"pct_migrante":16,"dependencia_econ":192,"pct_empleados":32,"pct_cuentapropia":44,"pct_agricultura":24,"pct_comercio":16,"pct_manufactura":8,"pct_construccion":20,"pct_transporte":0,"pct_alojamiento":12,"pct_sin_educacion":0,"pct_educ_superior":19,"brecha_educ":-8,"pct_sin_seguro":18,"pct_sus":49,"pct_seguro_privado":1,"brecha_seguro":3,"pct_salud_publica":34,"pct_med_tradicional":6,"pct_automedicacion":9,"pct_remedios_caseros":27,"pct_viv_desocupada":0,"pct_alquiler":6,"pct_electricidad":100,"pct_sin_electricidad":0,"pct_agua_red":100,"pct_alcantarillado":31,"pct_camara_septica":38,"pct_pozo_ciego":31,"pct_sin_desague":0,"pct_gas_red":0,"pct_gas_garrafa":75,"pct_lena_guano":75,"pct_basura_formal":44,"pct_basura_quema":50,"pct_basura_informal":0,"pct_internet":69,"pct_celular":69,"pct_televisor":69}},{"type":"Feature","geometry":{"type":"Polygon","coordinates":[[[-64.61921,-13.26665],[-64.61923,-13.26551],[-64.61789,-13.26548],[-64.61785,-13.26659],[-64.61921,-13.26665]]]},"properties":{"n":"SAN RAMON","p":49,"personas_x_ha":26,"masculinidad":96,"pct_menor20":29,"pct_60mas":12,"pct_migrante":27,"dependencia_econ":50,"pct_empleados":44,"pct_cuentapropia":50,"pct_agricultura":25,"pct_comercio":19,"pct_manufactura":6,"pct_construccion":12,"pct_transporte":0,"pct_alojamiento":0,"pct_sin_educacion":0,"pct_educ_superior":35,"brecha_educ":0,"pct_sin_seguro":8,"pct_sus":67,"pct_seguro_privado":0,"brecha_seguro":-15,"pct_salud_publica":61,"pct_med_tradicional":2,"pct_automedicacion":6,"pct_remedios_caseros":8,"pct_viv_desocupada":21,"pct_alquiler":7,"pct_electricidad":100,"pct_sin_electricidad":0,"pct_agua_red":100,"pct_alcantarillado":29,"pct_camara_septica":29,"pct_pozo_ciego":43,"pct_sin_desague":0,"pct_gas_red":0,"pct_gas_garrafa":100,"pct_lena_guano":100,"pct_basura_formal":79,"pct_basura_quema":21,"pct_basura_informal":0,"pct_internet":71,"pct_celular":93,"pct_televisor":79}},{"type":"Feature","geometry":{"type":"Polygon","coordinates":[[[-64.61146,-13.26508],[-64.61137,-13.26621],[-64.61226,-13.26627],[-64.61232,-13.26514],[-64.61146,-13.26508]]]},"properties":{"n":"SAN RAMON","p":47,"personas_x_ha":38,"masculinidad":147,"pct_menor20":43,"pct_60mas":9,"pct_migrante":26,"dependencia_econ":176,"pct_empleados":65,"pct_cuentapropia":29,"pct_agricultura":18,"pct_comercio":6,"pct_manufactura":6,"pct_construccion":18,"pct_transporte":6,"pct_alojamiento":18,"pct_sin_educacion":4,"pct_educ_superior":11,"brecha_educ":-10,"pct_sin_seguro":13,"pct_sus":72,"pct_seguro_privado":0,"brecha_seguro":4,"pct_salud_publica":38,"pct_med_tradicional":0,"pct_automedicacion":9,"pct_remedios_caseros":47,"pct_viv_desocupada":0,"pct_alquiler":0,"pct_electricidad":100,"pct_sin_electricidad":0,"pct_agua_red":75,"pct_alcantarillado":8,"pct_camara_septica":0,"pct_pozo_ciego":83,"pct_sin_desague":0,"pct_gas_red":0,"pct_gas_garrafa":67,"pct_lena_guano":67,"pct_basura_formal":25,"pct_basura_quema":75,"pct_basura_informal":0,"pct_internet":58,"pct_celular":92,"pct_televisor":50}},{"type":"Feature","geometry":{"type":"Polygon","coordinates":[[[-64.61763,-13.26798],[-64.61755,-13.26914],[-64.61643,-13.26905],[-64.61647,-13.26792],[-64.61763,-13.26798]]]},"properties":{"n":"SAN RAMON","p":38,"personas_x_ha":24,"masculinidad":90,"pct_menor20":26,"pct_60mas":29,"pct_migrante":74,"dependencia_econ":81,"pct_empleados":19,"pct_cuentapropia":52,"pct_agricultura":24,"pct_comercio":14,"pct_manufactura":10,"pct_construccion":5,"pct_transporte":10,"pct_alojamiento":14,"pct_sin_educacion":0,"pct_educ_superior":31,"brecha_educ":-3,"pct_sin_seguro":32,"pct_sus":47,"pct_seguro_privado":0,"brecha_seguro":3,"pct_salud_publica":22,"pct_med_tradicional":0,"pct_automedicacion":18,"pct_remedios_caseros":23,"pct_viv_desocupada":0,"pct_alquiler":27,"pct_electricidad":100,"pct_sin_electricidad":0,"pct_agua_red":64,"pct_alcantarillado":18,"pct_camara_septica":55,"pct_pozo_ciego":9,"pct_sin_desague":0,"pct_gas_red":0,"pct_gas_garrafa":100,"pct_lena_guano":100,"pct_basura_formal":100,"pct_basura_quema":0,"pct_basura_informal":0,"pct_internet":91,"pct_celular":91,"pct_televisor":82}},{"type":"Feature","geometry":{"type":"Polygon","coordinates":[[[-64.61419,-13.2731],[-64.61365,-13.27306],[-64.61361,-13.27382],[-64.61415,-13.27402],[-64.61419,-13.2731]]]},"properties":{"n":"SAN RAMON","p":31,"personas_x_ha":57,"masculinidad":72,"pct_menor20":52,"pct_60mas":3,"pct_migrante":26,"dependencia_econ":210,"pct_empleados":70,"pct_cuentapropia":10,"pct_agricultura":20,"pct_comercio":0,"pct_manufactura":0,"pct_construccion":30,"pct_transporte":0,"pct_alojamiento":10,"pct_sin_educacion":7,"pct_educ_superior":7,"brecha_educ":-11,"pct_sin_seguro":19,"pct_sus":81,"pct_seguro_privado":0,"brecha_seguro":-7,"pct_salud_publica":31,"pct_med_tradicional":7,"pct_automedicacion":14,"pct_remedios_caseros":30,"pct_viv_desocupada":0,"pct_alquiler":0,"pct_electricidad":86,"pct_sin_electricidad":14,"pct_agua_red":86,"pct_alcantarillado":0,"pct_camara_septica":29,"pct_pozo_ciego":57,"pct_sin_desague":14,"pct_gas_red":0,"pct_gas_garrafa":29,"pct_lena_guano":29,"pct_basura_formal":14,"pct_basura_quema":86,"pct_basura_informal":0,"pct_internet":86,"pct_celular":86,"pct_televisor":43}},{"type":"Feature","geometry":{"type":"Polygon","coordinates":[[[-64.6174,-13.27171],[-64.61631,-13.27163],[-64.61625,-13.27254],[-64.61735,-13.27261],[-64.6174,-13.27171]]]},"properties":{"n":"SAN RAMON","p":56,"personas_x_ha":47,"masculinidad":107,"pct_menor20":55,"pct_60mas":11,"pct_migrante":29,"dependencia_econ":133,"pct_empleados":33,"pct_cuentapropia":42,"pct_agricultura":29,"pct_comercio":12,"pct_manufactura":21,"pct_construccion":8,"pct_transporte":0,"pct_alojamiento":0,"pct_sin_educacion":22,"pct_educ_superior":0,"brecha_educ":3,"pct_sin_seguro":7,"pct_sus":86,"pct_seguro_privado":0,"brecha_seguro":-8,"pct_salud_publica":50,"pct_med_tradicional":0,"pct_automedicacion":5,"pct_remedios_caseros":26,"pct_viv_desocupada":0,"pct_alquiler":0,"pct_electricidad":100,"pct_sin_electricidad":0,"pct_agua_red":83,"pct_alcantarillado":8,"pct_camara_septica":58,"pct_pozo_ciego":8,"pct_sin_desague":8,"pct_gas_red":0,"pct_gas_garrafa":92,"pct_lena_guano":92,"pct_basura_formal":33,"pct_basura_quema":50,"pct_basura_informal":17,"pct_internet":75,"pct_celular":75,"pct_televisor":67}},{"type":"Feature","geometry":{"type":"Polygon","coordinates":[[[-64.61735,-13.27279],[-64.61625,-13.27269],[-64.61621,-13.27362],[-64.61729,-13.27371],[-64.61735,-13.27279]]]},"properties":{"n":"SAN RAMON","p":32,"personas_x_ha":26,"masculinidad":113,"pct_menor20":47,"pct_60mas":3,"pct_migrante":34,"dependencia_econ":113,"pct_empleados":40,"pct_cuentapropia":27,"pct_agricultura":7,"pct_comercio":27,"pct_manufactura":7,"pct_construccion":20,"pct_transporte":7,"pct_alojamiento":7,"pct_sin_educacion":0,"pct_educ_superior":16,"brecha_educ":-34,"pct_sin_seguro":37,"pct_sus":63,"pct_seguro_privado":0,"brecha_seguro":38,"pct_salud_publica":31,"pct_med_tradicional":1,"pct_automedicacion":24,"pct_remedios_caseros":32,"pct_viv_desocupada":0,"pct_alquiler":0,"pct_electricidad":100,"pct_sin_electricidad":0,"pct_agua_red":100,"pct_alcantarillado":0,"pct_camara_septica":62,"pct_pozo_ciego":38,"pct_sin_desague":0,"pct_gas_red":0,"pct_gas_garrafa":100,"pct_lena_guano":100,"pct_basura_formal":38,"pct_basura_quema":62,"pct_basura_informal":0,"pct_internet":75,"pct_celular":75,"pct_televisor":38}},{"type":"Feature","geometry":{"type":"Polygon","coordinates":[[[-64.61634,-13.26777],[-64.61639,-13.26661],[-64.61527,-13.26658],[-64.61525,-13.26771],[-64.61634,-13.26777]]]},"properties":{"n":"SAN RAMON","p":125,"personas_x_ha":80,"masculinidad":123,"pct_menor20":30,"pct_60mas":15,"pct_migrante":55,"dependencia_econ":98,"pct_empleados":49,"pct_cuentapropia":32,"pct_agricultura":14,"pct_comercio":27,"pct_manufactura":3,"pct_construccion":13,"pct_transporte":2,"pct_alojamiento":13,"pct_sin_educacion":2,"pct_educ_superior":42,"brecha_educ":-13,"pct_sin_seguro":11,"pct_sus":68,"pct_seguro_privado":8,"brecha_seguro":3,"pct_salud_publica":43,"pct_med_tradicional":1,"pct_automedicacion":7,"pct_remedios_caseros":18,"pct_viv_desocupada":0,"pct_alquiler":15,"pct_electricidad":100,"pct_sin_electricidad":0,"pct_agua_red":88,"pct_alcantarillado":8,"pct_camara_septica":35,"pct_pozo_ciego":54,"pct_sin_desague":4,"pct_gas_red":0,"pct_gas_garrafa":100,"pct_lena_guano":100,"pct_basura_formal":96,"pct_basura_quema":0,"pct_basura_informal":8,"pct_internet":92,"pct_celular":92,"pct_televisor":81}},{"type":"Feature","geometry":{"type":"Polygon","coordinates":[[[-64.61784,-13.26671],[-64.61777,-13.26785],[-64.61917,-13.26791],[-64.6192,-13.26679],[-64.61784,-13.26671]]]},"properties":{"n":"SAN RAMON","p":100,"personas_x_ha":53,"masculinidad":75,"pct_menor20":29,"pct_60mas":21,"pct_migrante":49,"dependencia_econ":89,"pct_empleados":30,"pct_cuentapropia":45,"pct_agricultura":17,"pct_comercio":17,"pct_manufactura":2,"pct_construccion":4,"pct_transporte":8,"pct_alojamiento":13,"pct_sin_educacion":0,"pct_educ_superior":28,"brecha_educ":-3,"pct_sin_seguro":3,"pct_sus":67,"pct_seguro_privado":1,"brecha_seguro":-5,"pct_salud_publica":23,"pct_med_tradicional":12,"pct_automedicacion":13,"pct_remedios_caseros":22,"pct_viv_desocupada":12,"pct_alquiler":12,"pct_electricidad":100,"pct_sin_electricidad":0,"pct_agua_red":72,"pct_alcantarillado":20,"pct_camara_septica":76,"pct_pozo_ciego":4,"pct_sin_desague":0,"pct_gas_red":0,"pct_gas_garrafa":92,"pct_lena_guano":92,"pct_basura_formal":100,"pct_basura_quema":0,"pct_basura_informal":0,"pct_internet":76,"pct_celular":76,"pct_televisor":72}},{"type":"Feature","geometry":{"type":"Polygon","coordinates":[[[-64.61517,-13.26517],[-64.61523,-13.26385],[-64.61412,-13.26377],[-64.61405,-13.26509],[-64.61517,-13.26517]]]},"properties":{"n":"SAN RAMON","p":155,"personas_x_ha":85,"masculinidad":94,"pct_menor20":50,"pct_60mas":8,"pct_migrante":32,"dependencia_econ":210,"pct_empleados":36,"pct_cuentapropia":38,"pct_agricultura":24,"pct_comercio":14,"pct_manufactura":10,"pct_construccion":10,"pct_transporte":2,"pct_alojamiento":16,"pct_sin_educacion":2,"pct_educ_superior":28,"brecha_educ":6,"pct_sin_seguro":12,"pct_sus":76,"pct_seguro_privado":0,"brecha_seguro":-1,"pct_salud_publica":36,"pct_med_tradicional":7,"pct_automedicacion":13,"pct_remedios_caseros":19,"pct_viv_desocupada":0,"pct_alquiler":4,"pct_electricidad":100,"pct_sin_electricidad":0,"pct_agua_red":62,"pct_alcantarillado":0,"pct_camara_septica":23,"pct_pozo_ciego":54,"pct_sin_desague":0,"pct_gas_red":4,"pct_gas_garrafa":81,"pct_lena_guano":81,"pct_basura_formal":50,"pct_basura_quema":46,"pct_basura_informal":0,"pct_internet":88,"pct_celular":92,"pct_televisor":62}},{"type":"Feature","geometry":{"type":"Polygon","coordinates":[[[-64.61379,-13.26705],[-64.6138,-13.2665],[-64.61246,-13.26645],[-64.61236,-13.26754],[-64.61375,-13.26763],[-64.61379,-13.26709],[-64.6136,-13.26706],[-64.61379,-13.26705]]]},"properties":{"n":"SAN RAMON","p":80,"personas_x_ha":43,"masculinidad":116,"pct_menor20":40,"pct_60mas":15,"pct_migrante":40,"dependencia_econ":105,"pct_empleados":44,"pct_cuentapropia":46,"pct_agricultura":15,"pct_comercio":10,"pct_manufactura":5,"pct_construccion":8,"pct_transporte":8,"pct_alojamiento":0,"pct_sin_educacion":4,"pct_educ_superior":31,"brecha_educ":1,"pct_sin_seguro":22,"pct_sus":61,"pct_seguro_privado":0,"brecha_seguro":2,"pct_salud_publica":27,"pct_med_tradicional":9,"pct_automedicacion":9,"pct_remedios_caseros":26,"pct_viv_desocupada":0,"pct_alquiler":5,"pct_electricidad":100,"pct_sin_electricidad":0,"pct_agua_red":95,"pct_alcantarillado":5,"pct_camara_septica":62,"pct_pozo_ciego":33,"pct_sin_desague":0,"pct_gas_red":0,"pct_gas_garrafa":86,"pct_lena_guano":86,"pct_basura_formal":52,"pct_basura_quema":48,"pct_basura_informal":0,"pct_internet":71,"pct_celular":90,"pct_televisor":57}},{"type":"Feature","geometry":{"type":"Polygon","coordinates":[[[-64.6191,-13.27054],[-64.61913,-13.26944],[-64.61769,-13.26932],[-64.61764,-13.27041],[-64.6191,-13.27054]]]},"properties":{"n":"SAN RAMON","p":82,"personas_x_ha":43,"masculinidad":128,"pct_menor20":45,"pct_60mas":11,"pct_migrante":21,"dependencia_econ":111,"pct_empleados":18,"pct_cuentapropia":58,"pct_agricultura":21,"pct_comercio":21,"pct_manufactura":11,"pct_construccion":11,"pct_transporte":5,"pct_alojamiento":8,"pct_sin_educacion":0,"pct_educ_superior":19,"brecha_educ":2,"pct_sin_seguro":6,"pct_sus":86,"pct_seguro_privado":1,"brecha_seguro":1,"pct_salud_publica":30,"pct_med_tradicional":15,"pct_automedicacion":15,"pct_remedios_caseros":24,"pct_viv_desocupada":0,"pct_alquiler":0,"pct_electricidad":100,"pct_sin_electricidad":0,"pct_agua_red":67,"pct_alcantarillado":22,"pct_camara_septica":22,"pct_pozo_ciego":56,"pct_sin_desague":0,"pct_gas_red":0,"pct_gas_garrafa":78,"pct_lena_guano":78,"pct_basura_formal":39,"pct_basura_quema":61,"pct_basura_informal":0,"pct_internet":78,"pct_celular":83,"pct_televisor":67}},{"type":"Feature","geometry":{"type":"Polygon","coordinates":[[[-64.61657,-13.26651],[-64.61766,-13.26658],[-64.61775,-13.26548],[-64.61663,-13.2654],[-64.61657,-13.26651]]]},"properties":{"n":"SAN RAMON","p":77,"personas_x_ha":50,"masculinidad":114,"pct_menor20":42,"pct_60mas":17,"pct_migrante":57,"dependencia_econ":83,"pct_empleados":38,"pct_cuentapropia":48,"pct_agricultura":7,"pct_comercio":36,"pct_manufactura":2,"pct_construccion":2,"pct_transporte":5,"pct_alojamiento":14,"pct_sin_educacion":0,"pct_educ_superior":35,"brecha_educ":-8,"pct_sin_seguro":17,"pct_sus":70,"pct_seguro_privado":0,"brecha_seguro":0,"pct_salud_publica":32,"pct_med_tradicional":3,"pct_automedicacion":10,"pct_remedios_caseros":27,"pct_viv_desocupada":0,"pct_alquiler":13,"pct_electricidad":100,"pct_sin_electricidad":0,"pct_agua_red":87,"pct_alcantarillado":13,"pct_camara_septica":83,"pct_pozo_ciego":4,"pct_sin_desague":0,"pct_gas_red":0,"pct_gas_garrafa":96,"pct_lena_guano":96,"pct_basura_formal":91,"pct_basura_quema":4,"pct_basura_informal":0,"pct_internet":87,"pct_celular":87,"pct_televisor":70}},{"type":"Feature","geometry":{"type":"Polygon","coordinates":[[[-64.61678,-13.26247],[-64.61671,-13.26375],[-64.61783,-13.26382],[-64.6179,-13.26255],[-64.61678,-13.26247]]]},"properties":{"n":"SAN RAMON","p":65,"personas_x_ha":37,"masculinidad":110,"pct_menor20":45,"pct_60mas":6,"pct_migrante":45,"dependencia_econ":100,"pct_empleados":41,"pct_cuentapropia":44,"pct_agricultura":19,"pct_comercio":25,"pct_manufactura":9,"pct_construccion":19,"pct_transporte":3,"pct_alojamiento":12,"pct_sin_educacion":3,"pct_educ_superior":19,"brecha_educ":-5,"pct_sin_seguro":10,"pct_sus":70,"pct_seguro_privado":0,"brecha_seguro":18,"pct_salud_publica":56,"pct_med_tradicional":0,"pct_automedicacion":4,"pct_remedios_caseros":12,"pct_viv_desocupada":7,"pct_alquiler":15,"pct_electricidad":100,"pct_sin_electricidad":0,"pct_agua_red":77,"pct_alcantarillado":0,"pct_camara_septica":69,"pct_pozo_ciego":31,"pct_sin_desague":0,"pct_gas_red":0,"pct_gas_garrafa":85,"pct_lena_guano":85,"pct_basura_formal":46,"pct_basura_quema":54,"pct_basura_informal":0,"pct_internet":77,"pct_celular":85,"pct_televisor":69}},{"type":"Feature","geometry":{"type":"Polygon","coordinates":[[[-64.61916,-13.26815],[-64.61778,-13.26801],[-64.61771,-13.26915],[-64.61914,-13.26927],[-64.61916,-13.26815]]]},"properties":{"n":"SAN RAMON","p":149,"personas_x_ha":77,"masculinidad":91,"pct_menor20":40,"pct_60mas":10,"pct_migrante":29,"dependencia_econ":181,"pct_empleados":45,"pct_cuentapropia":34,"pct_agricultura":13,"pct_comercio":13,"pct_manufactura":2,"pct_construccion":6,"pct_transporte":8,"pct_alojamiento":17,"pct_sin_educacion":1,"pct_educ_superior":31,"brecha_educ":-7,"pct_sin_seguro":8,"pct_sus":81,"pct_seguro_privado":1,"brecha_seguro":7,"pct_salud_publica":36,"pct_med_tradicional":14,"pct_automedicacion":10,"pct_remedios_caseros":19,"pct_viv_desocupada":6,"pct_alquiler":10,"pct_electricidad":100,"pct_sin_electricidad":0,"pct_agua_red":90,"pct_alcantarillado":30,"pct_camara_septica":50,"pct_pozo_ciego":20,"pct_sin_desague":0,"pct_gas_red":0,"pct_gas_garrafa":100,"pct_lena_guano":100,"pct_basura_formal":90,"pct_basura_quema":7,"pct_basura_informal":7,"pct_internet":80,"pct_celular":93,"pct_televisor":83}},{"type":"Feature","geometry":{"type":"Polygon","coordinates":[[[-64.6142,-13.26209],[-64.6153,-13.26212],[-64.61533,-13.26136],[-64.61525,-13.26126],[-64.61425,-13.26125],[-64.6142,-13.26209]]]},"properties":{"n":"SAN RAMON","p":39,"personas_x_ha":33,"masculinidad":105,"pct_menor20":54,"pct_60mas":3,"pct_migrante":38,"dependencia_econ":117,"pct_empleados":17,"pct_cuentapropia":56,"pct_agricultura":33,"pct_comercio":17,"pct_manufactura":0,"pct_construccion":11,"pct_transporte":0,"pct_alojamiento":6,"pct_sin_educacion":10,"pct_educ_superior":5,"brecha_educ":-25,"pct_sin_seguro":16,"pct_sus":84,"pct_seguro_privado":0,"brecha_seguro":11,"pct_salud_publica":71,"pct_med_tradicional":12,"pct_automedicacion":6,"pct_remedios_caseros":4,"pct_viv_desocupada":0,"pct_alquiler":0,"pct_electricidad":100,"pct_sin_electricidad":0,"pct_agua_red":75,"pct_alcantarillado":12,"pct_camara_septica":12,"pct_pozo_ciego":50,"pct_sin_desague":0,"pct_gas_red":0,"pct_gas_garrafa":75,"pct_lena_guano":75,"pct_basura_formal":0,"pct_basura_quema":100,"pct_basura_informal":0,"pct_internet":12,"pct_celular":50,"pct_televisor":25}},{"type":"Feature","geometry":{"type":"Polygon","coordinates":[[[-64.61499,-13.27164],[-64.61497,-13.27245],[-64.6161,-13.27256],[-64.61614,-13.27165],[-64.61506,-13.27159],[-64.61499,-13.27164]]]},"properties":{"n":"SAN RAMON","p":41,"personas_x_ha":33,"masculinidad":116,"pct_menor20":49,"pct_60mas":5,"pct_migrante":12,"dependencia_econ":186,"pct_empleados":50,"pct_cuentapropia":43,"pct_agricultura":21,"pct_comercio":14,"pct_manufactura":14,"pct_construccion":29,"pct_transporte":0,"pct_alojamiento":7,"pct_sin_educacion":19,"pct_educ_superior":0,"brecha_educ":-11,"pct_sin_seguro":38,"pct_sus":59,"pct_seguro_privado":0,"brecha_seguro":13,"pct_salud_publica":38,"pct_med_tradicional":10,"pct_automedicacion":11,"pct_remedios_caseros":35,"pct_viv_desocupada":9,"pct_alquiler":0,"pct_electricidad":90,"pct_sin_electricidad":10,"pct_agua_red":90,"pct_alcantarillado":30,"pct_camara_septica":20,"pct_pozo_ciego":0,"pct_sin_desague":0,"pct_gas_red":0,"pct_gas_garrafa":80,"pct_lena_guano":80,"pct_basura_formal":0,"pct_basura_quema":100,"pct_basura_informal":0,"pct_internet":30,"pct_celular":40,"pct_televisor":50}},{"type":"Feature","geometry":{"type":"Polygon","coordinates":[[[-64.61538,-13.26518],[-64.61649,-13.26524],[-64.6165,-13.26391],[-64.61539,-13.26386],[-64.61538,-13.26518]]]},"properties":{"n":"SAN RAMON","p":79,"personas_x_ha":43,"masculinidad":139,"pct_menor20":38,"pct_60mas":14,"pct_migrante":46,"dependencia_econ":81,"pct_empleados":44,"pct_cuentapropia":36,"pct_agricultura":14,"pct_comercio":11,"pct_manufactura":19,"pct_construccion":14,"pct_transporte":0,"pct_alojamiento":6,"pct_sin_educacion":0,"pct_educ_superior":22,"brecha_educ":4,"pct_sin_seguro":17,"pct_sus":62,"pct_seguro_privado":0,"brecha_seguro":12,"pct_salud_publica":32,"pct_med_tradicional":7,"pct_automedicacion":14,"pct_remedios_caseros":25,"pct_viv_desocupada":3,"pct_alquiler":12,"pct_electricidad":100,"pct_sin_electricidad":0,"pct_agua_red":79,"pct_alcantarillado":8,"pct_camara_septica":46,"pct_pozo_ciego":38,"pct_sin_desague":4,"pct_gas_red":0,"pct_gas_garrafa":83,"pct_lena_guano":83,"pct_basura_formal":75,"pct_basura_quema":21,"pct_basura_informal":8,"pct_internet":75,"pct_celular":71,"pct_televisor":62}},{"type":"Feature","geometry":{"type":"Polygon","coordinates":[[[-64.61506,-13.26767],[-64.6151,-13.26658],[-64.61397,-13.26651],[-64.6139,-13.26762],[-64.61506,-13.26767]]]},"properties":{"n":"SAN RAMON","p":95,"personas_x_ha":61,"masculinidad":83,"pct_menor20":35,"pct_60mas":14,"pct_migrante":36,"dependencia_econ":124,"pct_empleados":38,"pct_cuentapropia":45,"pct_agricultura":19,"pct_comercio":19,"pct_manufactura":0,"pct_construccion":19,"pct_transporte":5,"pct_alojamiento":2,"pct_sin_educacion":2,"pct_educ_superior":26,"brecha_educ":-8,"pct_sin_seguro":15,"pct_sus":63,"pct_seguro_privado":1,"brecha_seguro":3,"pct_salud_publica":26,"pct_med_tradicional":7,"pct_automedicacion":15,"pct_remedios_caseros":22,"pct_viv_desocupada":0,"pct_alquiler":21,"pct_electricidad":96,"pct_sin_electricidad":0,"pct_agua_red":93,"pct_alcantarillado":18,"pct_camara_septica":43,"pct_pozo_ciego":36,"pct_sin_desague":4,"pct_gas_red":0,"pct_gas_garrafa":93,"pct_lena_guano":93,"pct_basura_formal":86,"pct_basura_quema":14,"pct_basura_informal":0,"pct_internet":89,"pct_celular":96,"pct_televisor":79}},{"type":"Feature","geometry":{"type":"Polygon","coordinates":[[[-64.61402,-13.26234],[-64.6128,-13.26221],[-64.61266,-13.26349],[-64.61397,-13.26357],[-64.61402,-13.26234]]]},"properties":{"n":"SAN RAMON","p":34,"personas_x_ha":17,"masculinidad":127,"pct_menor20":32,"pct_60mas":15,"pct_migrante":53,"dependencia_econ":83,"pct_empleados":11,"pct_cuentapropia":56,"pct_agricultura":17,"pct_comercio":6,"pct_manufactura":22,"pct_construccion":11,"pct_transporte":0,"pct_alojamiento":6,"pct_sin_educacion":4,"pct_educ_superior":21,"brecha_educ":20,"pct_sin_seguro":10,"pct_sus":76,"pct_seguro_privado":0,"brecha_seguro":20,"pct_salud_publica":32,"pct_med_tradicional":1,"pct_automedicacion":2,"pct_remedios_caseros":28,"pct_viv_desocupada":5,"pct_alquiler":0,"pct_electricidad":100,"pct_sin_electricidad":0,"pct_agua_red":50,"pct_alcantarillado":10,"pct_camara_septica":50,"pct_pozo_ciego":40,"pct_sin_desague":0,"pct_gas_red":0,"pct_gas_garrafa":90,"pct_lena_guano":90,"pct_basura_formal":20,"pct_basura_quema":70,"pct_basura_informal":20,"pct_internet":70,"pct_celular":80,"pct_televisor":70}},{"type":"Feature","geometry":{"type":"Polygon","coordinates":[[[-64.61797,-13.26383],[-64.61927,-13.26391],[-64.61931,-13.26268],[-64.61806,-13.26257],[-64.61797,-13.26383]]]},"properties":{"n":"SAN RAMON","p":78,"personas_x_ha":40,"masculinidad":123,"pct_menor20":45,"pct_60mas":14,"pct_migrante":36,"dependencia_econ":95,"pct_empleados":44,"pct_cuentapropia":44,"pct_agricultura":10,"pct_comercio":33,"pct_manufactura":10,"pct_construccion":13,"pct_transporte":3,"pct_alojamiento":3,"pct_sin_educacion":0,"pct_educ_superior":23,"brecha_educ":7,"pct_sin_seguro":8,"pct_sus":79,"pct_seguro_privado":0,"brecha_seguro":10,"pct_salud_publica":29,"pct_med_tradicional":5,"pct_automedicacion":16,"pct_remedios_caseros":30,"pct_viv_desocupada":0,"pct_alquiler":5,"pct_electricidad":95,"pct_sin_electricidad":0,"pct_agua_red":74,"pct_alcantarillado":5,"pct_camara_septica":47,"pct_pozo_ciego":21,"pct_sin_desague":5,"pct_gas_red":0,"pct_gas_garrafa":79,"pct_lena_guano":79,"pct_basura_formal":21,"pct_basura_quema":74,"pct_basura_informal":0,"pct_internet":63,"pct_celular":74,"pct_televisor":74}},{"type":"Feature","geometry":{"type":"Polygon","coordinates":[[[-64.61514,-13.2664],[-64.61517,-13.26534],[-64.61404,-13.26525],[-64.61398,-13.26637],[-64.61514,-13.2664]]]},"properties":{"n":"SAN RAMON","p":91,"personas_x_ha":59,"masculinidad":78,"pct_menor20":41,"pct_60mas":9,"pct_migrante":42,"dependencia_econ":94,"pct_empleados":28,"pct_cuentapropia":55,"pct_agricultura":28,"pct_comercio":26,"pct_manufactura":4,"pct_construccion":2,"pct_transporte":9,"pct_alojamiento":4,"pct_sin_educacion":4,"pct_educ_superior":21,"brecha_educ":3,"pct_sin_seguro":18,"pct_sus":68,"pct_seguro_privado":2,"brecha_seguro":9,"pct_salud_publica":36,"pct_med_tradicional":8,"pct_automedicacion":10,"pct_remedios_caseros":24,"pct_viv_desocupada":3,"pct_alquiler":29,"pct_electricidad":100,"pct_sin_electricidad":0,"pct_agua_red":62,"pct_alcantarillado":17,"pct_camara_septica":21,"pct_pozo_ciego":62,"pct_sin_desague":0,"pct_gas_red":0,"pct_gas_garrafa":100,"pct_lena_guano":100,"pct_basura_formal":79,"pct_basura_quema":17,"pct_basura_informal":0,"pct_internet":92,"pct_celular":92,"pct_televisor":83}},{"type":"Feature","geometry":{"type":"Polygon","coordinates":[[[-64.61804,-13.26019],[-64.61807,-13.25932],[-64.61694,-13.25922],[-64.61689,-13.2601],[-64.61804,-13.26019]]]},"properties":{"n":"SAN RAMON","p":55,"personas_x_ha":44,"masculinidad":96,"pct_menor20":40,"pct_60mas":5,"pct_migrante":29,"dependencia_econ":125,"pct_empleados":8,"pct_cuentapropia":29,"pct_agricultura":29,"pct_comercio":17,"pct_manufactura":4,"pct_construccion":29,"pct_transporte":0,"pct_alojamiento":4,"pct_sin_educacion":3,"pct_educ_superior":17,"brecha_educ":-18,"pct_sin_seguro":17,"pct_sus":62,"pct_seguro_privado":4,"brecha_seguro":12,"pct_salud_publica":39,"pct_med_tradicional":0,"pct_automedicacion":17,"pct_remedios_caseros":25,"pct_viv_desocupada":0,"pct_alquiler":0,"pct_electricidad":100,"pct_sin_electricidad":0,"pct_agua_red":89,"pct_alcantarillado":0,"pct_camara_septica":11,"pct_pozo_ciego":89,"pct_sin_desague":0,"pct_gas_red":0,"pct_gas_garrafa":89,"pct_lena_guano":89,"pct_basura_formal":11,"pct_basura_quema":67,"pct_basura_informal":0,"pct_internet":67,"pct_celular":89,"pct_televisor":78}},{"type":"Feature","geometry":{"type":"Polygon","coordinates":[[[-64.6163,-13.26901],[-64.61635,-13.26793],[-64.61522,-13.26786],[-64.61517,-13.26891],[-64.6163,-13.26901]]]},"properties":{"n":"SAN RAMON","p":40,"personas_x_ha":27,"masculinidad":90,"pct_menor20":30,"pct_60mas":20,"pct_migrante":30,"dependencia_econ":77,"pct_empleados":32,"pct_cuentapropia":32,"pct_agricultura":9,"pct_comercio":14,"pct_manufactura":0,"pct_construccion":5,"pct_transporte":9,"pct_alojamiento":9,"pct_sin_educacion":0,"pct_educ_superior":43,"brecha_educ":-12,"pct_sin_seguro":13,"pct_sus":74,"pct_seguro_privado":0,"brecha_seguro":7,"pct_salud_publica":49,"pct_med_tradicional":3,"pct_automedicacion":6,"pct_remedios_caseros":28,"pct_viv_desocupada":0,"pct_alquiler":24,"pct_electricidad":94,"pct_sin_electricidad":0,"pct_agua_red":94,"pct_alcantarillado":6,"pct_camara_septica":76,"pct_pozo_ciego":18,"pct_sin_desague":0,"pct_gas_red":0,"pct_gas_garrafa":82,"pct_lena_guano":82,"pct_basura_formal":76,"pct_basura_quema":18,"pct_basura_informal":12,"pct_internet":88,"pct_celular":94,"pct_televisor":65}},{"type":"Feature","geometry":{"type":"Polygon","coordinates":[[[-64.61857,-13.27181],[-64.61756,-13.27174],[-64.61745,-13.27358],[-64.61778,-13.27361],[-64.61857,-13.27181]]]},"properties":{"n":"SAN RAMON","p":41,"personas_x_ha":27,"masculinidad":71,"pct_menor20":46,"pct_60mas":7,"pct_migrante":17,"dependencia_econ":147,"pct_empleados":60,"pct_cuentapropia":33,"pct_agricultura":20,"pct_comercio":13,"pct_manufactura":0,"pct_construccion":27,"pct_transporte":0,"pct_alojamiento":7,"pct_sin_educacion":0,"pct_educ_superior":18,"brecha_educ":3,"pct_sin_seguro":51,"pct_sus":41,"pct_seguro_privado":0,"brecha_seguro":-8,"pct_salud_publica":28,"pct_med_tradicional":5,"pct_automedicacion":22,"pct_remedios_caseros":30,"pct_viv_desocupada":8,"pct_alquiler":0,"pct_electricidad":100,"pct_sin_electricidad":0,"pct_agua_red":89,"pct_alcantarillado":56,"pct_camara_septica":0,"pct_pozo_ciego":22,"pct_sin_desague":22,"pct_gas_red":0,"pct_gas_garrafa":100,"pct_lena_guano":100,"pct_basura_formal":11,"pct_basura_quema":89,"pct_basura_informal":0,"pct_internet":33,"pct_celular":56,"pct_televisor":56}},{"type":"Feature","geometry":{"type":"Polygon","coordinates":[[[-64.61155,-13.26361],[-64.61144,-13.26493],[-64.61236,-13.26499],[-64.61246,-13.26369],[-64.61155,-13.26361]]]},"properties":{"n":"SAN RAMON","p":20,"personas_x_ha":14,"masculinidad":186,"pct_menor20":55,"pct_60mas":0,"pct_migrante":25,"dependencia_econ":100,"pct_empleados":60,"pct_cuentapropia":20,"pct_agricultura":0,"pct_comercio":10,"pct_manufactura":0,"pct_construccion":10,"pct_transporte":20,"pct_alojamiento":0,"pct_sin_educacion":0,"pct_educ_superior":40,"brecha_educ":20,"pct_sin_seguro":5,"pct_sus":75,"pct_seguro_privado":0,"brecha_seguro":-14,"pct_salud_publica":34,"pct_med_tradicional":8,"pct_automedicacion":8,"pct_remedios_caseros":31,"pct_viv_desocupada":0,"pct_alquiler":0,"pct_electricidad":100,"pct_sin_electricidad":0,"pct_agua_red":100,"pct_alcantarillado":0,"pct_camara_septica":75,"pct_pozo_ciego":25,"pct_sin_desague":0,"pct_gas_red":0,"pct_gas_garrafa":100,"pct_lena_guano":100,"pct_basura_formal":25,"pct_basura_quema":75,"pct_basura_informal":0,"pct_internet":100,"pct_celular":100,"pct_televisor":100}},{"type":"Feature","geometry":{"type":"Polygon","coordinates":[[[-64.61639,-13.2665],[-64.61647,-13.2654],[-64.61535,-13.26532],[-64.61528,-13.26642],[-64.61639,-13.2665]]]},"properties":{"n":"SAN RAMON","p":108,"personas_x_ha":70,"masculinidad":89,"pct_menor20":31,"pct_60mas":18,"pct_migrante":45,"dependencia_econ":94,"pct_empleados":25,"pct_cuentapropia":49,"pct_agricultura":21,"pct_comercio":17,"pct_manufactura":2,"pct_construccion":8,"pct_transporte":8,"pct_alojamiento":9,"pct_sin_educacion":0,"pct_educ_superior":25,"brecha_educ":-8,"pct_sin_seguro":15,"pct_sus":62,"pct_seguro_privado":0,"brecha_seguro":13,"pct_salud_publica":35,"pct_med_tradicional":6,"pct_automedicacion":8,"pct_remedios_caseros":19,"pct_viv_desocupada":0,"pct_alquiler":14,"pct_electricidad":100,"pct_sin_electricidad":0,"pct_agua_red":86,"pct_alcantarillado":9,"pct_camara_septica":45,"pct_pozo_ciego":45,"pct_sin_desague":0,"pct_gas_red":0,"pct_gas_garrafa":95,"pct_lena_guano":95,"pct_basura_formal":82,"pct_basura_quema":14,"pct_basura_informal":0,"pct_internet":95,"pct_celular":95,"pct_televisor":91}}]}