{"type":"FeatureCollection","features":[{"type":"Feature","geometry":{"type":"Polygon","coordinates":[[[-65.24896,-13.32012],[-65.25005,-13.31959],[-65.2495,-13.31847],[-65.24844,-13.31897],[-65.24896,-13.32012]]]},"properties":{"n":"EXALTACION","p":258,"personas_x_ha":144,"masculinidad":126,"pct_menor20":46,"pct_60mas":6,"pct_migrante":45,"dependencia_econ":138,"pct_empleados":37,"pct_cuentapropia":56,"pct_agricultura":37,"pct_comercio":12,"pct_manufactura":7,"pct_construccion":31,"pct_transporte":4,"pct_alojamiento":7,"pct_educ_superior":11,"brecha_educ":5,"pct_sin_seguro":2,"pct_seguro_privado":0,"brecha_seguro":4,"pct_med_tradicional":0,"pct_automedicacion":10,"pct_remedios_caseros":27,"pct_viv_desocupada":0,"pct_alquiler":36,"pct_electricidad":100,"pct_agua_red":84,"pct_alcantarillado":4,"pct_gas_red":0,"pct_gas_garrafa":96,"pct_lena_guano":96,"pct_basura_formal":0,"pct_basura_quema":92,"pct_basura_informal":16,"pct_internet":68,"pct_celular":80,"pct_televisor":52}},{"type":"Feature","geometry":{"type":"Polygon","coordinates":[[[-65.25149,-13.32249],[-65.25096,-13.32142],[-65.24983,-13.32198],[-65.2503,-13.32302],[-65.25147,-13.32257],[-65.25149,-13.32249]]]},"properties":{"n":"EXALTACION","p":99,"personas_x_ha":53,"masculinidad":136,"pct_menor20":45,"pct_60mas":5,"pct_migrante":57,"dependencia_econ":267,"pct_empleados":33,"pct_cuentapropia":59,"pct_agricultura":59,"pct_comercio":7,"pct_manufactura":7,"pct_construccion":15,"pct_transporte":4,"pct_alojamiento":7,"pct_educ_superior":13,"brecha_educ":-13,"pct_sin_seguro":16,"pct_seguro_privado":0,"brecha_seguro":12,"pct_med_tradicional":0,"pct_automedicacion":14,"pct_remedios_caseros":38,"pct_viv_desocupada":0,"pct_alquiler":0,"pct_electricidad":100,"pct_agua_red":92,"pct_alcantarillado":8,"pct_gas_red":0,"pct_gas_garrafa":85,"pct_lena_guano":85,"pct_basura_formal":0,"pct_basura_quema":92,"pct_basura_informal":0,"pct_internet":77,"pct_celular":85,"pct_televisor":31}},{"type":"Feature","geometry":{"type":"Polygon","coordinates":[[[-65.25089,-13.3213],[-65.25053,-13.32058],[-65.24943,-13.32112],[-65.24978,-13.32185],[-65.25089,-13.3213]]]},"properties":{"n":"EXALTACION","p":77,"personas_x_ha":64,"masculinidad":133,"pct_menor20":52,"pct_60mas":1,"pct_migrante":64,"dependencia_econ":328,"pct_empleados":22,"pct_cuentapropia":67,"pct_agricultura":11,"pct_comercio":22,"pct_manufactura":6,"pct_construccion":22,"pct_transporte":0,"pct_alojamiento":17,"pct_educ_superior":21,"brecha_educ":-5,"pct_sin_seguro":0,"pct_seguro_privado":0,"brecha_seguro":0,"pct_med_tradicional":0,"pct_automedicacion":0,"pct_remedios_caseros":9,"pct_viv_desocupada":0,"pct_alquiler":38,"pct_electricidad":100,"pct_agua_red":100,"pct_alcantarillado":0,"pct_gas_red":0,"pct_gas_garrafa":88,"pct_lena_guano":88,"pct_basura_formal":25,"pct_basura_quema":62,"pct_basura_informal":25,"pct_internet":100,"pct_celular":100,"pct_televisor":62}},{"type":"Feature","geometry":{"type":"Polygon","coordinates":[[[-65.25229,-13.31961],[-65.25193,-13.31888],[-65.25111,-13.31926],[-65.25145,-13.32],[-65.25229,-13.31961]]]},"properties":{"n":"EXALTACION","p":93,"personas_x_ha":103,"masculinidad":116,"pct_menor20":41,"pct_60mas":13,"pct_migrante":47,"dependencia_econ":343,"pct_empleados":14,"pct_cuentapropia":81,"pct_agricultura":95,"pct_comercio":19,"pct_manufactura":19,"pct_construccion":0,"pct_transporte":0,"pct_alojamiento":10,"pct_educ_superior":14,"brecha_educ":7,"pct_sin_seguro":42,"pct_seguro_privado":0,"brecha_seguro":9,"pct_med_tradicional":4,"pct_automedicacion":18,"pct_remedios_caseros":37,"pct_viv_desocupada":0,"pct_alquiler":20,"pct_electricidad":100,"pct_agua_red":100,"pct_alcantarillado":0,"pct_gas_red":0,"pct_gas_garrafa":100,"pct_lena_guano":100,"pct_basura_formal":0,"pct_basura_quema":60,"pct_basura_informal":40,"pct_internet":60,"pct_celular":80,"pct_televisor":40}},{"type":"Feature","geometry":{"type":"Polygon","coordinates":[[[-65.24913,-13.3231],[-65.24849,-13.32338],[-65.24864,-13.32372],[-65.25021,-13.32304],[-65.24929,-13.32111],[-65.24821,-13.32092],[-65.24913,-13.3231]]]},"properties":{"n":"EXALTACION","p":143,"personas_x_ha":45,"masculinidad":147,"pct_menor20":44,"pct_60mas":6,"pct_migrante":47,"dependencia_econ":154,"pct_empleados":25,"pct_cuentapropia":68,"pct_agricultura":21,"pct_comercio":7,"pct_manufactura":21,"pct_construccion":20,"pct_transporte":4,"pct_alojamiento":7,"pct_educ_superior":15,"brecha_educ":-6,"pct_sin_seguro":7,"pct_seguro_privado":0,"brecha_seguro":8,"pct_med_tradicional":2,"pct_automedicacion":8,"pct_remedios_caseros":35,"pct_viv_desocupada":0,"pct_alquiler":44,"pct_electricidad":100,"pct_agua_red":100,"pct_alcantarillado":6,"pct_gas_red":6,"pct_gas_garrafa":83,"pct_lena_guano":83,"pct_basura_formal":0,"pct_basura_quema":94,"pct_basura_informal":0,"pct_internet":39,"pct_celular":83,"pct_televisor":39}},{"type":"Feature","geometry":{"type":"Polygon","coordinates":[[[-65.24903,-13.32026],[-65.24935,-13.32095],[-65.25047,-13.32044],[-65.25013,-13.31975],[-65.24903,-13.32026]]]},"properties":{"n":"EXALTACION","p":73,"personas_x_ha":64,"masculinidad":121,"pct_menor20":49,"pct_60mas":10,"pct_migrante":44,"dependencia_econ":248,"pct_empleados":19,"pct_cuentapropia":48,"pct_agricultura":38,"pct_comercio":14,"pct_manufactura":0,"pct_construccion":14,"pct_transporte":0,"pct_alojamiento":0,"pct_educ_superior":11,"brecha_educ":-9,"pct_sin_seguro":42,"pct_seguro_privado":0,"brecha_seguro":-6,"pct_med_tradicional":14,"pct_automedicacion":18,"pct_remedios_caseros":32,"pct_viv_desocupada":0,"pct_alquiler":33,"pct_electricidad":100,"pct_agua_red":100,"pct_alcantarillado":11,"pct_gas_red":0,"pct_gas_garrafa":78,"pct_lena_guano":78,"pct_basura_formal":11,"pct_basura_quema":89,"pct_basura_informal":0,"pct_internet":78,"pct_celular":78,"pct_televisor":44}},{"type":"Feature","geometry":{"type":"Polygon","coordinates":[[[-65.24934,-13.31593],[-65.24923,-13.31593],[-65.24914,-13.31723],[-65.24919,-13.31758],[-65.24957,-13.31828],[-65.25029,-13.31794],[-65.24934,-13.31593]]]},"properties":{"n":"EXALTACION","p":63,"personas_x_ha":38,"masculinidad":70,"pct_menor20":44,"pct_60mas":6,"pct_migrante":59,"dependencia_econ":170,"pct_empleados":22,"pct_cuentapropia":74,"pct_agricultura":17,"pct_comercio":13,"pct_manufactura":17,"pct_construccion":17,"pct_transporte":4,"pct_alojamiento":9,"pct_educ_superior":17,"brecha_educ":9,"pct_sin_seguro":10,"pct_seguro_privado":0,"brecha_seguro":10,"pct_med_tradicional":0,"pct_automedicacion":0,"pct_remedios_caseros":35,"pct_viv_desocupada":11,"pct_alquiler":0,"pct_electricidad":100,"pct_agua_red":75,"pct_alcantarillado":0,"pct_gas_red":0,"pct_gas_garrafa":62,"pct_lena_guano":62,"pct_basura_formal":0,"pct_basura_quema":100,"pct_basura_informal":0,"pct_internet":62,"pct_celular":50,"pct_televisor":50}},{"type":"Feature","geometry":{"type":"Polygon","coordinates":[[[-65.25049,-13.31605],[-65.24973,-13.31642],[-65.25045,-13.31788],[-65.25123,-13.31752],[-65.25049,-13.31605]]]},"properties":{"n":"EXALTACION","p":56,"personas_x_ha":33,"masculinidad":115,"pct_menor20":30,"pct_60mas":7,"pct_migrante":64,"dependencia_econ":155,"pct_empleados":68,"pct_cuentapropia":18,"pct_agricultura":50,"pct_comercio":9,"pct_manufactura":0,"pct_construccion":5,"pct_transporte":0,"pct_alojamiento":0,"pct_educ_superior":25,"brecha_educ":-21,"pct_sin_seguro":4,"pct_seguro_privado":0,"brecha_seguro":0,"pct_med_tradicional":0,"pct_automedicacion":2,"pct_remedios_caseros":11,"pct_viv_desocupada":0,"pct_alquiler":0,"pct_electricidad":75,"pct_agua_red":75,"pct_alcantarillado":0,"pct_gas_red":0,"pct_gas_garrafa":75,"pct_lena_guano":75,"pct_basura_formal":0,"pct_basura_quema":88,"pct_basura_informal":25,"pct_internet":50,"pct_celular":62,"pct_televisor":50}},{"type":"Feature","geometry":{"type":"Polygon","coordinates":[[[-65.25037,-13.31809],[-65.24963,-13.31842],[-65.2502,-13.31954],[-65.2509,-13.31921],[-65.25037,-13.31809]]]},"properties":{"n":"EXALTACION","p":133,"personas_x_ha":110,"masculinidad":146,"pct_menor20":39,"pct_60mas":11,"pct_migrante":64,"dependencia_econ":233,"pct_empleados":38,"pct_cuentapropia":52,"pct_agricultura":40,"pct_comercio":12,"pct_manufactura":5,"pct_construccion":8,"pct_transporte":2,"pct_alojamiento":10,"pct_educ_superior":29,"brecha_educ":7,"pct_sin_seguro":11,"pct_seguro_privado":0,"brecha_seguro":9,"pct_med_tradicional":5,"pct_automedicacion":17,"pct_remedios_caseros":19,"pct_viv_desocupada":0,"pct_alquiler":14,"pct_electricidad":100,"pct_agua_red":71,"pct_alcantarillado":21,"pct_gas_red":0,"pct_gas_garrafa":79,"pct_lena_guano":79,"pct_basura_formal":0,"pct_basura_quema":71,"pct_basura_informal":14,"pct_internet":57,"pct_celular":50,"pct_televisor":50}},{"type":"Feature","geometry":{"type":"Polygon","coordinates":[[[-65.25079,-13.32397],[-65.25194,-13.32348],[-65.25158,-13.32264],[-65.25046,-13.32312],[-65.25079,-13.32397]]]},"properties":{"n":"EXALTACION","p":76,"personas_x_ha":54,"masculinidad":90,"pct_menor20":41,"pct_60mas":8,"pct_migrante":54,"dependencia_econ":100,"pct_empleados":45,"pct_cuentapropia":45,"pct_agricultura":24,"pct_comercio":8,"pct_manufactura":5,"pct_construccion":47,"pct_transporte":0,"pct_alojamiento":11,"pct_educ_superior":15,"brecha_educ":5,"pct_sin_seguro":5,"pct_seguro_privado":0,"brecha_seguro":1,"pct_med_tradicional":16,"pct_automedicacion":7,"pct_remedios_caseros":28,"pct_viv_desocupada":0,"pct_alquiler":9,"pct_electricidad":91,"pct_agua_red":100,"pct_alcantarillado":0,"pct_gas_red":0,"pct_gas_garrafa":82,"pct_lena_guano":82,"pct_basura_formal":0,"pct_basura_quema":82,"pct_basura_informal":36,"pct_internet":73,"pct_celular":91,"pct_televisor":64}},{"type":"Feature","geometry":{"type":"Polygon","coordinates":[[[-65.25239,-13.32219],[-65.25179,-13.32099],[-65.2511,-13.32135],[-65.25162,-13.32248],[-65.25239,-13.32219]]]},"properties":{"n":"EXALTACION","p":125,"personas_x_ha":100,"masculinidad":119,"pct_menor20":42,"pct_60mas":6,"pct_migrante":42,"dependencia_econ":247,"pct_empleados":42,"pct_cuentapropia":50,"pct_agricultura":36,"pct_comercio":19,"pct_manufactura":6,"pct_construccion":50,"pct_transporte":3,"pct_alojamiento":17,"pct_educ_superior":20,"brecha_educ":-10,"pct_sin_seguro":10,"pct_seguro_privado":0,"brecha_seguro":3,"pct_med_tradicional":4,"pct_automedicacion":11,"pct_remedios_caseros":28,"pct_viv_desocupada":0,"pct_alquiler":21,"pct_electricidad":100,"pct_agua_red":86,"pct_alcantarillado":14,"pct_gas_red":0,"pct_gas_garrafa":100,"pct_lena_guano":100,"pct_basura_formal":0,"pct_basura_quema":71,"pct_basura_informal":43,"pct_internet":86,"pct_celular":86,"pct_televisor":36}},{"type":"Feature","geometry":{"type":"Polygon","coordinates":[[[-65.25334,-13.32175],[-65.25276,-13.32061],[-65.25197,-13.32094],[-65.25254,-13.3221],[-65.25334,-13.32175]]]},"properties":{"n":"EXALTACION","p":88,"personas_x_ha":65,"masculinidad":138,"pct_menor20":43,"pct_60mas":3,"pct_migrante":48,"dependencia_econ":172,"pct_empleados":28,"pct_cuentapropia":69,"pct_agricultura":41,"pct_comercio":12,"pct_manufactura":25,"pct_construccion":25,"pct_transporte":0,"pct_alojamiento":9,"pct_educ_superior":14,"brecha_educ":-2,"pct_sin_seguro":10,"pct_seguro_privado":0,"brecha_seguro":1,"pct_med_tradicional":0,"pct_automedicacion":0,"pct_remedios_caseros":26,"pct_viv_desocupada":0,"pct_alquiler":11,"pct_electricidad":100,"pct_agua_red":89,"pct_alcantarillado":11,"pct_gas_red":11,"pct_gas_garrafa":89,"pct_lena_guano":89,"pct_basura_formal":0,"pct_basura_quema":78,"pct_basura_informal":44,"pct_internet":56,"pct_celular":67,"pct_televisor":33}},{"type":"Feature","geometry":{"type":"Polygon","coordinates":[[[-65.25135,-13.31765],[-65.25054,-13.31799],[-65.25105,-13.31911],[-65.25188,-13.31873],[-65.25135,-13.31765]]]},"properties":{"n":"EXALTACION","p":133,"personas_x_ha":100,"masculinidad":138,"pct_menor20":33,"pct_60mas":8,"pct_migrante":65,"dependencia_econ":247,"pct_empleados":26,"pct_cuentapropia":55,"pct_agricultura":53,"pct_comercio":16,"pct_manufactura":8,"pct_construccion":29,"pct_transporte":3,"pct_alojamiento":3,"pct_educ_superior":20,"brecha_educ":6,"pct_sin_seguro":1,"pct_seguro_privado":0,"brecha_seguro":1,"pct_med_tradicional":0,"pct_automedicacion":2,"pct_remedios_caseros":23,"pct_viv_desocupada":6,"pct_alquiler":13,"pct_electricidad":100,"pct_agua_red":100,"pct_alcantarillado":0,"pct_gas_red":0,"pct_gas_garrafa":73,"pct_lena_guano":73,"pct_basura_formal":0,"pct_basura_quema":100,"pct_basura_informal":0,"pct_internet":80,"pct_celular":93,"pct_televisor":40}}]}