{"type":"FeatureCollection","features":[{"type":"Feature","geometry":{"type":"Polygon","coordinates":[[[-64.59904,-14.93024],[-64.598,-14.93013],[-64.59823,-14.92935],[-64.5991,-14.9294],[-64.59904,-14.93024]]]},"properties":{"n":"ELVIRA","p":26,"personas_x_ha":27,"masculinidad":136,"pct_menor20":46,"pct_60mas":4,"pct_migrante":58,"dependencia_econ":73,"pct_empleados":40,"pct_cuentapropia":40,"pct_agricultura":33,"pct_comercio":27,"pct_manufactura":7,"pct_construccion":0,"pct_transporte":7,"pct_alojamiento":27,"pct_sin_educacion":0,"pct_educ_superior":21,"brecha_educ":29,"pct_sin_seguro":0,"pct_sus":73,"pct_seguro_privado":0,"brecha_seguro":0,"pct_salud_publica":81,"pct_med_tradicional":0,"pct_automedicacion":0,"pct_remedios_caseros":3,"pct_viv_desocupada":0,"pct_alquiler":0,"pct_electricidad":78,"pct_sin_electricidad":22,"pct_agua_red":11,"pct_alcantarillado":0,"pct_camara_septica":11,"pct_pozo_ciego":78,"pct_sin_desague":11,"pct_gas_red":0,"pct_gas_garrafa":78,"pct_lena_guano":78,"pct_basura_formal":0,"pct_basura_quema":100,"pct_basura_informal":0,"pct_internet":100,"pct_celular":89,"pct_televisor":67}},{"type":"Feature","geometry":{"type":"Polygon","coordinates":[[[-64.60384,-14.92951],[-64.6033,-14.92936],[-64.60297,-14.93012],[-64.60524,-14.93083],[-64.60589,-14.92943],[-64.60353,-14.92881],[-64.60331,-14.92933],[-64.60384,-14.92951]]]},"properties":{"n":"ELVIRA","p":17,"personas_x_ha":4,"masculinidad":240,"pct_menor20":29,"pct_60mas":24,"pct_migrante":59,"dependencia_econ":55,"pct_empleados":36,"pct_cuentapropia":55,"pct_agricultura":55,"pct_comercio":27,"pct_manufactura":9,"pct_construccion":9,"pct_transporte":0,"pct_alojamiento":0,"pct_sin_educacion":0,"pct_educ_superior":0,"brecha_educ":33,"pct_sin_seguro":0,"pct_sus":93,"pct_seguro_privado":7,"brecha_seguro":0,"pct_salud_publica":88,"pct_med_tradicional":0,"pct_automedicacion":0,"pct_remedios_caseros":0,"pct_viv_desocupada":36,"pct_alquiler":0,"pct_electricidad":57,"pct_sin_electricidad":43,"pct_agua_red":14,"pct_alcantarillado":0,"pct_camara_septica":0,"pct_pozo_ciego":86,"pct_sin_desague":0,"pct_gas_red":0,"pct_gas_garrafa":100,"pct_lena_guano":100,"pct_basura_formal":0,"pct_basura_quema":86,"pct_basura_informal":0,"pct_internet":43,"pct_celular":43,"pct_televisor":29}},{"type":"Feature","geometry":{"type":"Polygon","coordinates":[[[-64.60344,-14.92872],[-64.60244,-14.92844],[-64.60222,-14.92905],[-64.60317,-14.92937],[-64.60344,-14.92872]]]},"properties":{"n":"ELVIRA","p":20,"personas_x_ha":24,"masculinidad":43,"pct_menor20":40,"pct_60mas":15,"pct_migrante":90,"dependencia_econ":150,"pct_empleados":25,"pct_cuentapropia":50,"pct_agricultura":12,"pct_comercio":25,"pct_manufactura":0,"pct_construccion":0,"pct_transporte":12,"pct_alojamiento":12,"pct_sin_educacion":0,"pct_educ_superior":25,"brecha_educ":22,"pct_sin_seguro":20,"pct_sus":80,"pct_seguro_privado":0,"brecha_seguro":19,"pct_salud_publica":46,"pct_med_tradicional":5,"pct_automedicacion":10,"pct_remedios_caseros":26,"pct_viv_desocupada":11,"pct_alquiler":0,"pct_electricidad":100,"pct_sin_electricidad":0,"pct_agua_red":83,"pct_alcantarillado":17,"pct_camara_septica":33,"pct_pozo_ciego":0,"pct_sin_desague":17,"pct_gas_red":0,"pct_gas_garrafa":67,"pct_lena_guano":67,"pct_basura_formal":17,"pct_basura_quema":83,"pct_basura_informal":0,"pct_internet":67,"pct_celular":83,"pct_televisor":50}},{"type":"Feature","geometry":{"type":"Polygon","coordinates":[[[-64.60383,-14.92789],[-64.60253,-14.92765],[-64.60241,-14.92823],[-64.60373,-14.92855],[-64.60383,-14.92789]]]},"properties":{"n":"ELVIRA","p":34,"personas_x_ha":34,"masculinidad":89,"pct_menor20":47,"pct_60mas":6,"pct_migrante":91,"dependencia_econ":62,"pct_empleados":10,"pct_cuentapropia":76,"pct_agricultura":19,"pct_comercio":14,"pct_manufactura":38,"pct_construccion":5,"pct_transporte":5,"pct_alojamiento":10,"pct_sin_educacion":0,"pct_educ_superior":56,"brecha_educ":-10,"pct_sin_seguro":28,"pct_sus":47,"pct_seguro_privado":16,"brecha_seguro":10,"pct_salud_publica":24,"pct_med_tradicional":23,"pct_automedicacion":11,"pct_remedios_caseros":26,"pct_viv_desocupada":0,"pct_alquiler":0,"pct_electricidad":89,"pct_sin_electricidad":0,"pct_agua_red":67,"pct_alcantarillado":22,"pct_camara_septica":44,"pct_pozo_ciego":33,"pct_sin_desague":0,"pct_gas_red":0,"pct_gas_garrafa":100,"pct_lena_guano":100,"pct_basura_formal":0,"pct_basura_quema":89,"pct_basura_informal":0,"pct_internet":56,"pct_celular":89,"pct_televisor":78}},{"type":"Feature","geometry":{"type":"Polygon","coordinates":[[[-64.59913,-14.92923],[-64.59827,-14.9292],[-64.5983,-14.92871],[-64.59921,-14.92879],[-64.59913,-14.92923]]]},"properties":{"n":"ELVIRA","p":25,"personas_x_ha":49,"masculinidad":79,"pct_menor20":44,"pct_60mas":4,"pct_migrante":60,"dependencia_econ":178,"pct_empleados":56,"pct_cuentapropia":0,"pct_agricultura":44,"pct_comercio":11,"pct_manufactura":0,"pct_construccion":0,"pct_transporte":0,"pct_alojamiento":0,"pct_sin_educacion":0,"pct_educ_superior":0,"brecha_educ":11,"pct_sin_seguro":4,"pct_sus":84,"pct_seguro_privado":0,"brecha_seguro":9,"pct_salud_publica":49,"pct_med_tradicional":0,"pct_automedicacion":6,"pct_remedios_caseros":38,"pct_viv_desocupada":0,"pct_alquiler":0,"pct_electricidad":50,"pct_sin_electricidad":50,"pct_agua_red":0,"pct_alcantarillado":0,"pct_camara_septica":0,"pct_pozo_ciego":62,"pct_sin_desague":12,"pct_gas_red":0,"pct_gas_garrafa":75,"pct_lena_guano":75,"pct_basura_formal":0,"pct_basura_quema":100,"pct_basura_informal":0,"pct_internet":75,"pct_celular":75,"pct_televisor":0}},{"type":"Feature","geometry":{"type":"Polygon","coordinates":[[[-64.59818,-14.92871],[-64.59745,-14.92865],[-64.59739,-14.92915],[-64.59817,-14.92919],[-64.59818,-14.92871]]]},"properties":{"n":"ELVIRA","p":41,"personas_x_ha":90,"masculinidad":116,"pct_menor20":59,"pct_60mas":5,"pct_migrante":54,"dependencia_econ":193,"pct_empleados":29,"pct_cuentapropia":71,"pct_agricultura":21,"pct_comercio":29,"pct_manufactura":0,"pct_construccion":29,"pct_transporte":0,"pct_alojamiento":21,"pct_sin_educacion":0,"pct_educ_superior":0,"brecha_educ":-30,"pct_sin_seguro":3,"pct_sus":97,"pct_seguro_privado":0,"brecha_seguro":6,"pct_salud_publica":63,"pct_med_tradicional":3,"pct_automedicacion":15,"pct_remedios_caseros":15,"pct_viv_desocupada":0,"pct_alquiler":0,"pct_electricidad":100,"pct_sin_electricidad":0,"pct_agua_red":11,"pct_alcantarillado":0,"pct_camara_septica":22,"pct_pozo_ciego":78,"pct_sin_desague":0,"pct_gas_red":0,"pct_gas_garrafa":89,"pct_lena_guano":89,"pct_basura_formal":0,"pct_basura_quema":100,"pct_basura_informal":0,"pct_internet":89,"pct_celular":100,"pct_televisor":44}},{"type":"Feature","geometry":{"type":"Polygon","coordinates":[[[-64.5995,-14.92785],[-64.5996,-14.92775],[-64.60043,-14.92796],[-64.60023,-14.92887],[-64.59934,-14.92864],[-64.5995,-14.92785]]]},"properties":{"n":"ELVIRA","p":16,"personas_x_ha":16,"masculinidad":300,"pct_menor20":25,"pct_60mas":25,"pct_migrante":44,"dependencia_econ":88,"pct_empleados":25,"pct_cuentapropia":25,"pct_agricultura":25,"pct_comercio":12,"pct_manufactura":0,"pct_construccion":12,"pct_transporte":12,"pct_alojamiento":0,"pct_sin_educacion":9,"pct_educ_superior":9,"brecha_educ":-21,"pct_sin_seguro":0,"pct_sus":85,"pct_seguro_privado":0,"brecha_seguro":0,"pct_salud_publica":88,"pct_med_tradicional":0,"pct_automedicacion":0,"pct_remedios_caseros":0,"pct_viv_desocupada":0,"pct_alquiler":0,"pct_electricidad":75,"pct_sin_electricidad":25,"pct_agua_red":0,"pct_alcantarillado":0,"pct_camara_septica":38,"pct_pozo_ciego":38,"pct_sin_desague":25,"pct_gas_red":0,"pct_gas_garrafa":62,"pct_lena_guano":62,"pct_basura_formal":0,"pct_basura_quema":100,"pct_basura_informal":0,"pct_internet":38,"pct_celular":88,"pct_televisor":50}},{"type":"Feature","geometry":{"type":"Polygon","coordinates":[[[-64.59749,-14.92734],[-64.59578,-14.92699],[-64.59496,-14.92918],[-64.5972,-14.92963],[-64.59749,-14.92734]]]},"properties":{"n":"ELVIRA","p":22,"personas_x_ha":4,"masculinidad":69,"pct_menor20":27,"pct_60mas":5,"pct_migrante":82,"dependencia_econ":31,"pct_empleados":31,"pct_cuentapropia":56,"pct_agricultura":50,"pct_comercio":6,"pct_manufactura":6,"pct_construccion":0,"pct_transporte":12,"pct_alojamiento":12,"pct_sin_educacion":0,"pct_educ_superior":13,"brecha_educ":-33,"pct_sin_seguro":16,"pct_sus":79,"pct_seguro_privado":5,"brecha_seguro":-6,"pct_salud_publica":47,"pct_med_tradicional":0,"pct_automedicacion":3,"pct_remedios_caseros":34,"pct_viv_desocupada":0,"pct_alquiler":0,"pct_electricidad":57,"pct_sin_electricidad":29,"pct_agua_red":14,"pct_alcantarillado":14,"pct_camara_septica":14,"pct_pozo_ciego":14,"pct_sin_desague":14,"pct_gas_red":0,"pct_gas_garrafa":57,"pct_lena_guano":57,"pct_basura_formal":14,"pct_basura_quema":71,"pct_basura_informal":29,"pct_internet":86,"pct_celular":86,"pct_televisor":57}},{"type":"Feature","geometry":{"type":"Polygon","coordinates":[[[-64.64032,-14.97643],[-64.63944,-14.97622],[-64.63923,-14.97697],[-64.64014,-14.97717],[-64.64032,-14.97643]]]},"properties":{"n":"PEROTO","p":32,"personas_x_ha":38,"masculinidad":88,"pct_menor20":50,"pct_60mas":6,"pct_migrante":66,"dependencia_econ":191,"pct_empleados":18,"pct_cuentapropia":55,"pct_agricultura":55,"pct_comercio":0,"pct_manufactura":9,"pct_construccion":18,"pct_transporte":0,"pct_alojamiento":9,"pct_sin_educacion":0,"pct_educ_superior":0,"brecha_educ":-19,"pct_sin_seguro":23,"pct_sus":74,"pct_seguro_privado":3,"brecha_seguro":11,"pct_salud_publica":49,"pct_med_tradicional":6,"pct_automedicacion":2,"pct_remedios_caseros":27,"pct_viv_desocupada":0,"pct_alquiler":0,"pct_electricidad":100,"pct_sin_electricidad":0,"pct_agua_red":0,"pct_alcantarillado":0,"pct_camara_septica":29,"pct_pozo_ciego":71,"pct_sin_desague":0,"pct_gas_red":0,"pct_gas_garrafa":86,"pct_lena_guano":86,"pct_basura_formal":0,"pct_basura_quema":71,"pct_basura_informal":0,"pct_internet":71,"pct_celular":71,"pct_televisor":71}},{"type":"Feature","geometry":{"type":"Polygon","coordinates":[[[-64.6366,-14.97477],[-64.63572,-14.9746],[-64.6359,-14.97376],[-64.6368,-14.9739],[-64.6366,-14.97477]]]},"properties":{"n":"PEROTO","p":18,"personas_x_ha":18,"masculinidad":157,"pct_menor20":33,"pct_60mas":22,"pct_migrante":56,"dependencia_econ":125,"pct_empleados":62,"pct_cuentapropia":12,"pct_agricultura":38,"pct_comercio":25,"pct_manufactura":0,"pct_construccion":12,"pct_transporte":0,"pct_alojamiento":0,"pct_sin_educacion":0,"pct_educ_superior":17,"brecha_educ":17,"pct_sin_seguro":0,"pct_sus":89,"pct_seguro_privado":0,"brecha_seguro":0,"pct_salud_publica":39,"pct_med_tradicional":0,"pct_automedicacion":0,"pct_remedios_caseros":34,"pct_viv_desocupada":33,"pct_alquiler":0,"pct_electricidad":100,"pct_sin_electricidad":0,"pct_agua_red":0,"pct_alcantarillado":0,"pct_camara_septica":0,"pct_pozo_ciego":67,"pct_sin_desague":0,"pct_gas_red":0,"pct_gas_garrafa":50,"pct_lena_guano":50,"pct_basura_formal":0,"pct_basura_quema":83,"pct_basura_informal":0,"pct_internet":67,"pct_celular":100,"pct_televisor":83}},{"type":"Feature","geometry":{"type":"Polygon","coordinates":[[[-64.63714,-14.97571],[-64.63655,-14.97561],[-64.63639,-14.97633],[-64.63705,-14.97646],[-64.63714,-14.97571]]]},"properties":{"n":"PEROTO","p":30,"personas_x_ha":48,"masculinidad":131,"pct_menor20":50,"pct_60mas":7,"pct_migrante":80,"dependencia_econ":88,"pct_empleados":38,"pct_cuentapropia":62,"pct_agricultura":31,"pct_comercio":12,"pct_manufactura":0,"pct_construccion":0,"pct_transporte":0,"pct_alojamiento":31,"pct_sin_educacion":0,"pct_educ_superior":38,"brecha_educ":-22,"pct_sin_seguro":13,"pct_sus":77,"pct_seguro_privado":0,"brecha_seguro":-4,"pct_salud_publica":65,"pct_med_tradicional":2,"pct_automedicacion":2,"pct_remedios_caseros":15,"pct_viv_desocupada":0,"pct_alquiler":0,"pct_electricidad":100,"pct_sin_electricidad":0,"pct_agua_red":14,"pct_alcantarillado":14,"pct_camara_septica":29,"pct_pozo_ciego":43,"pct_sin_desague":14,"pct_gas_red":0,"pct_gas_garrafa":43,"pct_lena_guano":43,"pct_basura_formal":0,"pct_basura_quema":86,"pct_basura_informal":0,"pct_internet":71,"pct_celular":71,"pct_televisor":29}},{"type":"Feature","geometry":{"type":"Polygon","coordinates":[[[-63.87069,-15.25184],[-63.87137,-15.25244],[-63.87087,-15.25274],[-63.87038,-15.25275],[-63.87009,-15.25254],[-63.87069,-15.25184]]]},"properties":{"n":"PUENTE SAN PABLO","p":32,"personas_x_ha":41,"masculinidad":68,"pct_menor20":53,"pct_60mas":12,"pct_migrante":44,"dependencia_econ":182,"pct_empleados":0,"pct_cuentapropia":91,"pct_agricultura":55,"pct_comercio":9,"pct_manufactura":0,"pct_construccion":0,"pct_transporte":9,"pct_alojamiento":0,"pct_sin_educacion":0,"pct_educ_superior":7,"brecha_educ":-20,"pct_sin_seguro":20,"pct_sus":80,"pct_seguro_privado":0,"brecha_seguro":3,"pct_salud_publica":86,"pct_med_tradicional":0,"pct_automedicacion":0,"pct_remedios_caseros":9,"pct_viv_desocupada":0,"pct_alquiler":11,"pct_electricidad":100,"pct_sin_electricidad":0,"pct_agua_red":78,"pct_alcantarillado":56,"pct_camara_septica":22,"pct_pozo_ciego":0,"pct_sin_desague":11,"pct_gas_red":0,"pct_gas_garrafa":78,"pct_lena_guano":78,"pct_basura_formal":0,"pct_basura_quema":100,"pct_basura_informal":0,"pct_internet":22,"pct_celular":44,"pct_televisor":78}},{"type":"Feature","geometry":{"type":"Polygon","coordinates":[[[-63.8694,-15.24521],[-63.87007,-15.24579],[-63.86947,-15.24645],[-63.86881,-15.2459],[-63.8694,-15.24521]]]},"properties":{"n":"PUENTE SAN PABLO","p":26,"personas_x_ha":28,"masculinidad":73,"pct_menor20":46,"pct_60mas":4,"pct_migrante":65,"dependencia_econ":73,"pct_empleados":7,"pct_cuentapropia":67,"pct_agricultura":27,"pct_comercio":33,"pct_manufactura":13,"pct_construccion":0,"pct_transporte":20,"pct_alojamiento":0,"pct_sin_educacion":7,"pct_educ_superior":7,"brecha_educ":-28,"pct_sin_seguro":19,"pct_sus":81,"pct_seguro_privado":0,"brecha_seguro":-2,"pct_salud_publica":33,"pct_med_tradicional":2,"pct_automedicacion":24,"pct_remedios_caseros":25,"pct_viv_desocupada":0,"pct_alquiler":0,"pct_electricidad":88,"pct_sin_electricidad":0,"pct_agua_red":38,"pct_alcantarillado":12,"pct_camara_septica":12,"pct_pozo_ciego":75,"pct_sin_desague":0,"pct_gas_red":0,"pct_gas_garrafa":100,"pct_lena_guano":100,"pct_basura_formal":25,"pct_basura_quema":75,"pct_basura_informal":0,"pct_internet":88,"pct_celular":100,"pct_televisor":100}},{"type":"Feature","geometry":{"type":"Polygon","coordinates":[[[-63.86858,-15.2445],[-63.86798,-15.24518],[-63.8687,-15.24579],[-63.8693,-15.24512],[-63.86858,-15.2445]]]},"properties":{"n":"PUENTE SAN PABLO","p":40,"personas_x_ha":39,"masculinidad":167,"pct_menor20":45,"pct_60mas":8,"pct_migrante":45,"dependencia_econ":90,"pct_empleados":33,"pct_cuentapropia":29,"pct_agricultura":43,"pct_comercio":19,"pct_manufactura":0,"pct_construccion":5,"pct_transporte":10,"pct_alojamiento":0,"pct_sin_educacion":5,"pct_educ_superior":14,"brecha_educ":-5,"pct_sin_seguro":8,"pct_sus":87,"pct_seguro_privado":3,"brecha_seguro":12,"pct_salud_publica":31,"pct_med_tradicional":15,"pct_automedicacion":18,"pct_remedios_caseros":21,"pct_viv_desocupada":0,"pct_alquiler":25,"pct_electricidad":100,"pct_sin_electricidad":0,"pct_agua_red":88,"pct_alcantarillado":12,"pct_camara_septica":25,"pct_pozo_ciego":38,"pct_sin_desague":12,"pct_gas_red":0,"pct_gas_garrafa":88,"pct_lena_guano":88,"pct_basura_formal":38,"pct_basura_quema":50,"pct_basura_informal":0,"pct_internet":62,"pct_celular":88,"pct_televisor":88}},{"type":"Feature","geometry":{"type":"Polygon","coordinates":[[[-63.87088,-15.24651],[-63.87019,-15.24591],[-63.86958,-15.24656],[-63.87029,-15.24717],[-63.87088,-15.24651]]]},"properties":{"n":"PUENTE SAN PABLO","p":42,"personas_x_ha":43,"masculinidad":110,"pct_menor20":57,"pct_60mas":2,"pct_migrante":31,"dependencia_econ":282,"pct_empleados":9,"pct_cuentapropia":73,"pct_agricultura":36,"pct_comercio":0,"pct_manufactura":9,"pct_construccion":0,"pct_transporte":0,"pct_alojamiento":9,"pct_sin_educacion":0,"pct_educ_superior":0,"brecha_educ":-11,"pct_sin_seguro":14,"pct_sus":86,"pct_seguro_privado":0,"brecha_seguro":18,"pct_salud_publica":62,"pct_med_tradicional":4,"pct_automedicacion":4,"pct_remedios_caseros":7,"pct_viv_desocupada":0,"pct_alquiler":9,"pct_electricidad":91,"pct_sin_electricidad":0,"pct_agua_red":91,"pct_alcantarillado":18,"pct_camara_septica":55,"pct_pozo_ciego":18,"pct_sin_desague":0,"pct_gas_red":0,"pct_gas_garrafa":100,"pct_lena_guano":100,"pct_basura_formal":0,"pct_basura_quema":100,"pct_basura_informal":0,"pct_internet":64,"pct_celular":82,"pct_televisor":55}},{"type":"Feature","geometry":{"type":"Polygon","coordinates":[[[-63.8665,-15.24416],[-63.86581,-15.24355],[-63.86519,-15.24423],[-63.86592,-15.24481],[-63.8665,-15.24416]]]},"properties":{"n":"PUENTE SAN PABLO","p":69,"personas_x_ha":69,"masculinidad":123,"pct_menor20":35,"pct_60mas":10,"pct_migrante":91,"dependencia_econ":94,"pct_empleados":32,"pct_cuentapropia":59,"pct_agricultura":15,"pct_comercio":41,"pct_manufactura":6,"pct_construccion":0,"pct_transporte":0,"pct_alojamiento":3,"pct_sin_educacion":2,"pct_educ_superior":63,"brecha_educ":1,"pct_sin_seguro":8,"pct_sus":71,"pct_seguro_privado":0,"brecha_seguro":-4,"pct_salud_publica":31,"pct_med_tradicional":4,"pct_automedicacion":13,"pct_remedios_caseros":24,"pct_viv_desocupada":0,"pct_alquiler":33,"pct_electricidad":100,"pct_sin_electricidad":0,"pct_agua_red":90,"pct_alcantarillado":14,"pct_camara_septica":33,"pct_pozo_ciego":52,"pct_sin_desague":0,"pct_gas_red":5,"pct_gas_garrafa":95,"pct_lena_guano":95,"pct_basura_formal":81,"pct_basura_quema":19,"pct_basura_informal":0,"pct_internet":67,"pct_celular":86,"pct_televisor":76}},{"type":"Feature","geometry":{"type":"Polygon","coordinates":[[[-63.86869,-15.24736],[-63.86798,-15.24677],[-63.86747,-15.24735],[-63.86808,-15.24798],[-63.86869,-15.24736]]]},"properties":{"n":"PUENTE SAN PABLO","p":50,"personas_x_ha":55,"masculinidad":117,"pct_menor20":48,"pct_60mas":4,"pct_migrante":72,"dependencia_econ":100,"pct_empleados":21,"pct_cuentapropia":54,"pct_agricultura":50,"pct_comercio":29,"pct_manufactura":4,"pct_construccion":4,"pct_transporte":4,"pct_alojamiento":0,"pct_sin_educacion":0,"pct_educ_superior":30,"brecha_educ":-3,"pct_sin_seguro":13,"pct_sus":67,"pct_seguro_privado":2,"brecha_seguro":16,"pct_salud_publica":26,"pct_med_tradicional":11,"pct_automedicacion":17,"pct_remedios_caseros":24,"pct_viv_desocupada":0,"pct_alquiler":8,"pct_electricidad":100,"pct_sin_electricidad":0,"pct_agua_red":100,"pct_alcantarillado":15,"pct_camara_septica":46,"pct_pozo_ciego":38,"pct_sin_desague":0,"pct_gas_red":0,"pct_gas_garrafa":92,"pct_lena_guano":92,"pct_basura_formal":38,"pct_basura_quema":54,"pct_basura_informal":15,"pct_internet":77,"pct_celular":92,"pct_televisor":69}},{"type":"Feature","geometry":{"type":"Polygon","coordinates":[[[-63.86877,-15.24886],[-63.86805,-15.24827],[-63.86776,-15.24858],[-63.86782,-15.2493],[-63.86808,-15.24956],[-63.86877,-15.24886]]]},"properties":{"n":"PUENTE SAN PABLO","p":21,"personas_x_ha":23,"masculinidad":133,"pct_menor20":43,"pct_60mas":0,"pct_migrante":57,"dependencia_econ":100,"pct_empleados":50,"pct_cuentapropia":40,"pct_agricultura":40,"pct_comercio":40,"pct_manufactura":10,"pct_construccion":0,"pct_transporte":0,"pct_alojamiento":0,"pct_sin_educacion":0,"pct_educ_superior":18,"brecha_educ":-11,"pct_sin_seguro":5,"pct_sus":90,"pct_seguro_privado":0,"brecha_seguro":9,"pct_salud_publica":37,"pct_med_tradicional":6,"pct_automedicacion":22,"pct_remedios_caseros":31,"pct_viv_desocupada":0,"pct_alquiler":0,"pct_electricidad":100,"pct_sin_electricidad":0,"pct_agua_red":83,"pct_alcantarillado":17,"pct_camara_septica":0,"pct_pozo_ciego":67,"pct_sin_desague":17,"pct_gas_red":0,"pct_gas_garrafa":100,"pct_lena_guano":100,"pct_basura_formal":17,"pct_basura_quema":83,"pct_basura_informal":0,"pct_internet":83,"pct_celular":83,"pct_televisor":50}},{"type":"Feature","geometry":{"type":"Polygon","coordinates":[[[-63.86571,-15.24189],[-63.865,-15.24129],[-63.86561,-15.24062],[-63.86632,-15.24121],[-63.86571,-15.24189]]]},"properties":{"n":"PUENTE SAN PABLO","p":27,"personas_x_ha":27,"masculinidad":108,"pct_menor20":22,"pct_60mas":19,"pct_migrante":59,"dependencia_econ":35,"pct_empleados":30,"pct_cuentapropia":65,"pct_agricultura":30,"pct_comercio":10,"pct_manufactura":30,"pct_construccion":0,"pct_transporte":0,"pct_alojamiento":10,"pct_sin_educacion":5,"pct_educ_superior":14,"brecha_educ":-42,"pct_sin_seguro":11,"pct_sus":85,"pct_seguro_privado":0,"brecha_seguro":21,"pct_salud_publica":35,"pct_med_tradicional":8,"pct_automedicacion":18,"pct_remedios_caseros":28,"pct_viv_desocupada":0,"pct_alquiler":20,"pct_electricidad":100,"pct_sin_electricidad":0,"pct_agua_red":70,"pct_alcantarillado":0,"pct_camara_septica":30,"pct_pozo_ciego":70,"pct_sin_desague":0,"pct_gas_red":0,"pct_gas_garrafa":100,"pct_lena_guano":100,"pct_basura_formal":20,"pct_basura_quema":80,"pct_basura_informal":0,"pct_internet":40,"pct_celular":80,"pct_televisor":90}},{"type":"Feature","geometry":{"type":"Polygon","coordinates":[[[-63.86397,-15.24062],[-63.86326,-15.24001],[-63.86261,-15.24067],[-63.86335,-15.24129],[-63.86397,-15.24062]]]},"properties":{"n":"PUENTE SAN PABLO","p":15,"personas_x_ha":14,"masculinidad":114,"pct_menor20":33,"pct_60mas":7,"pct_migrante":87,"dependencia_econ":150,"pct_empleados":33,"pct_cuentapropia":50,"pct_agricultura":33,"pct_comercio":33,"pct_manufactura":0,"pct_construccion":0,"pct_transporte":33,"pct_alojamiento":0,"pct_sin_educacion":10,"pct_educ_superior":0,"brecha_educ":-17,"pct_sin_seguro":13,"pct_sus":87,"pct_seguro_privado":0,"brecha_seguro":25,"pct_salud_publica":33,"pct_med_tradicional":7,"pct_automedicacion":16,"pct_remedios_caseros":27,"pct_viv_desocupada":33,"pct_alquiler":17,"pct_electricidad":100,"pct_sin_electricidad":0,"pct_agua_red":50,"pct_alcantarillado":50,"pct_camara_septica":33,"pct_pozo_ciego":17,"pct_sin_desague":0,"pct_gas_red":0,"pct_gas_garrafa":100,"pct_lena_guano":100,"pct_basura_formal":0,"pct_basura_quema":67,"pct_basura_informal":0,"pct_internet":67,"pct_celular":100,"pct_televisor":100}},{"type":"Feature","geometry":{"type":"Polygon","coordinates":[[[-63.87358,-15.25013],[-63.87298,-15.25081],[-63.87373,-15.25145],[-63.87433,-15.25078],[-63.87358,-15.25013]]]},"properties":{"n":"PUENTE SAN PABLO","p":21,"personas_x_ha":20,"masculinidad":75,"pct_menor20":29,"pct_60mas":0,"pct_migrante":81,"dependencia_econ":200,"pct_empleados":14,"pct_cuentapropia":86,"pct_agricultura":57,"pct_comercio":43,"pct_manufactura":0,"pct_construccion":0,"pct_transporte":0,"pct_alojamiento":0,"pct_sin_educacion":0,"pct_educ_superior":7,"brecha_educ":-2,"pct_sin_seguro":10,"pct_sus":90,"pct_seguro_privado":0,"brecha_seguro":-17,"pct_salud_publica":70,"pct_med_tradicional":0,"pct_automedicacion":7,"pct_remedios_caseros":20,"pct_viv_desocupada":0,"pct_alquiler":0,"pct_electricidad":78,"pct_sin_electricidad":11,"pct_agua_red":44,"pct_alcantarillado":0,"pct_camara_septica":0,"pct_pozo_ciego":67,"pct_sin_desague":22,"pct_gas_red":0,"pct_gas_garrafa":89,"pct_lena_guano":89,"pct_basura_formal":11,"pct_basura_quema":89,"pct_basura_informal":0,"pct_internet":33,"pct_celular":67,"pct_televisor":67}},{"type":"Feature","geometry":{"type":"Polygon","coordinates":[[[-63.86888,-15.24871],[-63.86821,-15.24811],[-63.86879,-15.24744],[-63.86949,-15.24804],[-63.86888,-15.24871]]]},"properties":{"n":"PUENTE SAN PABLO","p":15,"personas_x_ha":15,"masculinidad":114,"pct_menor20":47,"pct_60mas":20,"pct_migrante":60,"dependencia_econ":114,"pct_empleados":0,"pct_cuentapropia":71,"pct_agricultura":57,"pct_comercio":29,"pct_manufactura":0,"pct_construccion":0,"pct_transporte":0,"pct_alojamiento":0,"pct_sin_educacion":0,"pct_educ_superior":12,"brecha_educ":0,"pct_sin_seguro":13,"pct_sus":87,"pct_seguro_privado":0,"brecha_seguro":-29,"pct_salud_publica":50,"pct_med_tradicional":4,"pct_automedicacion":14,"pct_remedios_caseros":14,"pct_viv_desocupada":0,"pct_alquiler":0,"pct_electricidad":100,"pct_sin_electricidad":0,"pct_agua_red":71,"pct_alcantarillado":14,"pct_camara_septica":29,"pct_pozo_ciego":57,"pct_sin_desague":0,"pct_gas_red":0,"pct_gas_garrafa":100,"pct_lena_guano":100,"pct_basura_formal":0,"pct_basura_quema":100,"pct_basura_informal":0,"pct_internet":86,"pct_celular":86,"pct_televisor":57}},{"type":"Feature","geometry":{"type":"Polygon","coordinates":[[[-63.87127,-15.25096],[-63.87057,-15.25038],[-63.86996,-15.25108],[-63.87065,-15.25166],[-63.87127,-15.25096]]]},"properties":{"n":"PUENTE SAN PABLO","p":43,"personas_x_ha":43,"masculinidad":87,"pct_menor20":44,"pct_60mas":9,"pct_migrante":51,"dependencia_econ":231,"pct_empleados":46,"pct_cuentapropia":23,"pct_agricultura":38,"pct_comercio":8,"pct_manufactura":0,"pct_construccion":23,"pct_transporte":0,"pct_alojamiento":0,"pct_sin_educacion":4,"pct_educ_superior":4,"brecha_educ":-13,"pct_sin_seguro":26,"pct_sus":70,"pct_seguro_privado":0,"brecha_seguro":8,"pct_salud_publica":59,"pct_med_tradicional":7,"pct_automedicacion":13,"pct_remedios_caseros":11,"pct_viv_desocupada":0,"pct_alquiler":18,"pct_electricidad":100,"pct_sin_electricidad":0,"pct_agua_red":91,"pct_alcantarillado":45,"pct_camara_septica":36,"pct_pozo_ciego":9,"pct_sin_desague":0,"pct_gas_red":0,"pct_gas_garrafa":100,"pct_lena_guano":100,"pct_basura_formal":0,"pct_basura_quema":100,"pct_basura_informal":0,"pct_internet":36,"pct_celular":91,"pct_televisor":91}},{"type":"Feature","geometry":{"type":"Polygon","coordinates":[[[-63.86713,-15.24052],[-63.86651,-15.2412],[-63.8672,-15.24179],[-63.86784,-15.2411],[-63.86713,-15.24052]]]},"properties":{"n":"PUENTE SAN PABLO","p":45,"personas_x_ha":45,"masculinidad":105,"pct_menor20":47,"pct_60mas":11,"pct_migrante":64,"dependencia_econ":125,"pct_empleados":35,"pct_cuentapropia":45,"pct_agricultura":50,"pct_comercio":20,"pct_manufactura":10,"pct_construccion":5,"pct_transporte":0,"pct_alojamiento":10,"pct_sin_educacion":8,"pct_educ_superior":4,"brecha_educ":-7,"pct_sin_seguro":14,"pct_sus":82,"pct_seguro_privado":0,"brecha_seguro":17,"pct_salud_publica":50,"pct_med_tradicional":0,"pct_automedicacion":17,"pct_remedios_caseros":33,"pct_viv_desocupada":0,"pct_alquiler":18,"pct_electricidad":100,"pct_sin_electricidad":0,"pct_agua_red":55,"pct_alcantarillado":18,"pct_camara_septica":9,"pct_pozo_ciego":64,"pct_sin_desague":9,"pct_gas_red":0,"pct_gas_garrafa":100,"pct_lena_guano":100,"pct_basura_formal":9,"pct_basura_quema":91,"pct_basura_informal":0,"pct_internet":73,"pct_celular":73,"pct_televisor":64}},{"type":"Feature","geometry":{"type":"Polygon","coordinates":[[[-63.86888,-15.25033],[-63.86817,-15.24972],[-63.86757,-15.25041],[-63.86828,-15.251],[-63.86888,-15.25033]]]},"properties":{"n":"PUENTE SAN PABLO","p":15,"personas_x_ha":15,"masculinidad":88,"pct_menor20":40,"pct_60mas":7,"pct_migrante":80,"dependencia_econ":88,"pct_empleados":12,"pct_cuentapropia":75,"pct_agricultura":50,"pct_comercio":12,"pct_manufactura":0,"pct_construccion":0,"pct_transporte":12,"pct_alojamiento":0,"pct_sin_educacion":11,"pct_educ_superior":22,"brecha_educ":-17,"pct_sin_seguro":7,"pct_sus":93,"pct_seguro_privado":0,"brecha_seguro":-12,"pct_salud_publica":24,"pct_med_tradicional":21,"pct_automedicacion":16,"pct_remedios_caseros":24,"pct_viv_desocupada":0,"pct_alquiler":14,"pct_electricidad":86,"pct_sin_electricidad":14,"pct_agua_red":86,"pct_alcantarillado":14,"pct_camara_septica":29,"pct_pozo_ciego":43,"pct_sin_desague":14,"pct_gas_red":0,"pct_gas_garrafa":71,"pct_lena_guano":71,"pct_basura_formal":0,"pct_basura_quema":100,"pct_basura_informal":0,"pct_internet":43,"pct_celular":57,"pct_televisor":100}},{"type":"Feature","geometry":{"type":"Polygon","coordinates":[[[-63.86985,-15.25256],[-63.86917,-15.25197],[-63.86856,-15.25268],[-63.86925,-15.25325],[-63.86985,-15.25256]]]},"properties":{"n":"PUENTE SAN PABLO","p":32,"personas_x_ha":32,"masculinidad":100,"pct_menor20":50,"pct_60mas":3,"pct_migrante":50,"dependencia_econ":244,"pct_empleados":44,"pct_cuentapropia":33,"pct_agricultura":11,"pct_comercio":67,"pct_manufactura":0,"pct_construccion":0,"pct_transporte":0,"pct_alojamiento":11,"pct_sin_educacion":0,"pct_educ_superior":0,"brecha_educ":3,"pct_sin_seguro":6,"pct_sus":94,"pct_seguro_privado":0,"brecha_seguro":12,"pct_salud_publica":86,"pct_med_tradicional":3,"pct_automedicacion":3,"pct_remedios_caseros":3,"pct_viv_desocupada":0,"pct_alquiler":17,"pct_electricidad":100,"pct_sin_electricidad":0,"pct_agua_red":33,"pct_alcantarillado":17,"pct_camara_septica":17,"pct_pozo_ciego":67,"pct_sin_desague":0,"pct_gas_red":0,"pct_gas_garrafa":83,"pct_lena_guano":83,"pct_basura_formal":0,"pct_basura_quema":83,"pct_basura_informal":0,"pct_internet":100,"pct_celular":100,"pct_televisor":50}},{"type":"Feature","geometry":{"type":"Polygon","coordinates":[[[-63.86956,-15.24955],[-63.86886,-15.24895],[-63.86824,-15.24963],[-63.86898,-15.25022],[-63.86956,-15.24955]]]},"properties":{"n":"PUENTE SAN PABLO","p":48,"personas_x_ha":47,"masculinidad":140,"pct_menor20":44,"pct_60mas":4,"pct_migrante":58,"dependencia_econ":243,"pct_empleados":71,"pct_cuentapropia":21,"pct_agricultura":21,"pct_comercio":29,"pct_manufactura":7,"pct_construccion":14,"pct_transporte":0,"pct_alojamiento":14,"pct_sin_educacion":0,"pct_educ_superior":7,"brecha_educ":5,"pct_sin_seguro":17,"pct_sus":81,"pct_seguro_privado":0,"brecha_seguro":3,"pct_salud_publica":34,"pct_med_tradicional":8,"pct_automedicacion":11,"pct_remedios_caseros":28,"pct_viv_desocupada":0,"pct_alquiler":0,"pct_electricidad":85,"pct_sin_electricidad":8,"pct_agua_red":69,"pct_alcantarillado":0,"pct_camara_septica":23,"pct_pozo_ciego":46,"pct_sin_desague":31,"pct_gas_red":0,"pct_gas_garrafa":92,"pct_lena_guano":92,"pct_basura_formal":15,"pct_basura_quema":77,"pct_basura_informal":0,"pct_internet":85,"pct_celular":92,"pct_televisor":62}},{"type":"Feature","geometry":{"type":"Polygon","coordinates":[[[-63.86613,-15.23823],[-63.86577,-15.23791],[-63.8651,-15.23854],[-63.86552,-15.2389],[-63.86613,-15.23823]]]},"properties":{"n":"PUENTE SAN PABLO","p":22,"personas_x_ha":38,"masculinidad":83,"pct_menor20":41,"pct_60mas":14,"pct_migrante":41,"dependencia_econ":250,"pct_empleados":67,"pct_cuentapropia":17,"pct_agricultura":33,"pct_comercio":17,"pct_manufactura":0,"pct_construccion":0,"pct_transporte":17,"pct_alojamiento":0,"pct_sin_educacion":31,"pct_educ_superior":23,"brecha_educ":-22,"pct_sin_seguro":0,"pct_sus":86,"pct_seguro_privado":0,"brecha_seguro":0,"pct_salud_publica":42,"pct_med_tradicional":8,"pct_automedicacion":19,"pct_remedios_caseros":19,"pct_viv_desocupada":0,"pct_alquiler":14,"pct_electricidad":100,"pct_sin_electricidad":0,"pct_agua_red":86,"pct_alcantarillado":14,"pct_camara_septica":14,"pct_pozo_ciego":71,"pct_sin_desague":0,"pct_gas_red":0,"pct_gas_garrafa":100,"pct_lena_guano":100,"pct_basura_formal":0,"pct_basura_quema":86,"pct_basura_informal":0,"pct_internet":100,"pct_celular":100,"pct_televisor":86}},{"type":"Feature","geometry":{"type":"Polygon","coordinates":[[[-63.86761,-15.25345],[-63.86689,-15.25287],[-63.86749,-15.25221],[-63.86822,-15.2528],[-63.86761,-15.25345]]]},"properties":{"n":"PUENTE SAN PABLO","p":35,"personas_x_ha":34,"masculinidad":94,"pct_menor20":57,"pct_60mas":0,"pct_migrante":57,"dependencia_econ":289,"pct_empleados":67,"pct_cuentapropia":33,"pct_agricultura":44,"pct_comercio":11,"pct_manufactura":0,"pct_construccion":11,"pct_transporte":11,"pct_alojamiento":11,"pct_sin_educacion":0,"pct_educ_superior":20,"brecha_educ":4,"pct_sin_seguro":0,"pct_sus":100,"pct_seguro_privado":0,"brecha_seguro":0,"pct_salud_publica":95,"pct_med_tradicional":0,"pct_automedicacion":0,"pct_remedios_caseros":5,"pct_viv_desocupada":0,"pct_alquiler":0,"pct_electricidad":100,"pct_sin_electricidad":0,"pct_agua_red":100,"pct_alcantarillado":0,"pct_camara_septica":0,"pct_pozo_ciego":100,"pct_sin_desague":0,"pct_gas_red":0,"pct_gas_garrafa":100,"pct_lena_guano":100,"pct_basura_formal":0,"pct_basura_quema":89,"pct_basura_informal":22,"pct_internet":89,"pct_celular":100,"pct_televisor":89}},{"type":"Feature","geometry":{"type":"Polygon","coordinates":[[[-63.87022,-15.24404],[-63.86931,-15.24313],[-63.8702,-15.24275],[-63.87084,-15.24339],[-63.87022,-15.24404]]]},"properties":{"n":"PUENTE SAN PABLO","p":31,"personas_x_ha":26,"masculinidad":182,"pct_menor20":39,"pct_60mas":3,"pct_migrante":77,"dependencia_econ":50,"pct_empleados":5,"pct_cuentapropia":70,"pct_agricultura":15,"pct_comercio":50,"pct_manufactura":0,"pct_construccion":5,"pct_transporte":5,"pct_alojamiento":0,"pct_sin_educacion":5,"pct_educ_superior":21,"brecha_educ":-10,"pct_sin_seguro":48,"pct_sus":52,"pct_seguro_privado":0,"brecha_seguro":-29,"pct_salud_publica":39,"pct_med_tradicional":9,"pct_automedicacion":11,"pct_remedios_caseros":13,"pct_viv_desocupada":8,"pct_alquiler":0,"pct_electricidad":100,"pct_sin_electricidad":0,"pct_agua_red":90,"pct_alcantarillado":10,"pct_camara_septica":20,"pct_pozo_ciego":70,"pct_sin_desague":0,"pct_gas_red":0,"pct_gas_garrafa":100,"pct_lena_guano":100,"pct_basura_formal":30,"pct_basura_quema":60,"pct_basura_informal":20,"pct_internet":40,"pct_celular":50,"pct_televisor":50}},{"type":"Feature","geometry":{"type":"Polygon","coordinates":[[[-63.86659,-15.24404],[-63.86721,-15.24335],[-63.86651,-15.24275],[-63.8659,-15.24342],[-63.86659,-15.24404]]]},"properties":{"n":"PUENTE SAN PABLO","p":59,"personas_x_ha":58,"masculinidad":157,"pct_menor20":32,"pct_60mas":7,"pct_migrante":85,"dependencia_econ":146,"pct_empleados":33,"pct_cuentapropia":58,"pct_agricultura":12,"pct_comercio":4,"pct_manufactura":4,"pct_construccion":8,"pct_transporte":25,"pct_alojamiento":12,"pct_sin_educacion":5,"pct_educ_superior":25,"brecha_educ":16,"pct_sin_seguro":25,"pct_sus":67,"pct_seguro_privado":2,"brecha_seguro":12,"pct_salud_publica":35,"pct_med_tradicional":8,"pct_automedicacion":15,"pct_remedios_caseros":18,"pct_viv_desocupada":0,"pct_alquiler":12,"pct_electricidad":88,"pct_sin_electricidad":0,"pct_agua_red":75,"pct_alcantarillado":0,"pct_camara_septica":62,"pct_pozo_ciego":38,"pct_sin_desague":0,"pct_gas_red":12,"pct_gas_garrafa":62,"pct_lena_guano":62,"pct_basura_formal":50,"pct_basura_quema":38,"pct_basura_informal":0,"pct_internet":50,"pct_celular":88,"pct_televisor":88}},{"type":"Feature","geometry":{"type":"Polygon","coordinates":[[[-63.8642,-15.24356],[-63.86349,-15.24296],[-63.86287,-15.24367],[-63.86358,-15.24425],[-63.8642,-15.24356]]]},"properties":{"n":"PUENTE SAN PABLO","p":40,"personas_x_ha":39,"masculinidad":122,"pct_menor20":42,"pct_60mas":5,"pct_migrante":60,"dependencia_econ":106,"pct_empleados":53,"pct_cuentapropia":35,"pct_agricultura":35,"pct_comercio":12,"pct_manufactura":6,"pct_construccion":12,"pct_transporte":6,"pct_alojamiento":6,"pct_sin_educacion":5,"pct_educ_superior":16,"brecha_educ":15,"pct_sin_seguro":3,"pct_sus":94,"pct_seguro_privado":0,"brecha_seguro":6,"pct_salud_publica":44,"pct_med_tradicional":5,"pct_automedicacion":17,"pct_remedios_caseros":32,"pct_viv_desocupada":9,"pct_alquiler":0,"pct_electricidad":100,"pct_sin_electricidad":0,"pct_agua_red":100,"pct_alcantarillado":22,"pct_camara_septica":11,"pct_pozo_ciego":56,"pct_sin_desague":0,"pct_gas_red":0,"pct_gas_garrafa":100,"pct_lena_guano":100,"pct_basura_formal":0,"pct_basura_quema":89,"pct_basura_informal":0,"pct_internet":56,"pct_celular":78,"pct_televisor":33}},{"type":"Feature","geometry":{"type":"Polygon","coordinates":[[[-63.87058,-15.25174],[-63.86988,-15.25117],[-63.86927,-15.25187],[-63.86996,-15.25243],[-63.87058,-15.25174]]]},"properties":{"n":"PUENTE SAN PABLO","p":38,"personas_x_ha":38,"masculinidad":65,"pct_menor20":53,"pct_60mas":3,"pct_migrante":47,"dependencia_econ":217,"pct_empleados":25,"pct_cuentapropia":50,"pct_agricultura":42,"pct_comercio":17,"pct_manufactura":8,"pct_construccion":0,"pct_transporte":0,"pct_alojamiento":0,"pct_sin_educacion":11,"pct_educ_superior":21,"brecha_educ":4,"pct_sin_seguro":14,"pct_sus":62,"pct_seguro_privado":0,"brecha_seguro":11,"pct_salud_publica":51,"pct_med_tradicional":1,"pct_automedicacion":12,"pct_remedios_caseros":22,"pct_viv_desocupada":0,"pct_alquiler":10,"pct_electricidad":100,"pct_sin_electricidad":0,"pct_agua_red":70,"pct_alcantarillado":0,"pct_camara_septica":0,"pct_pozo_ciego":70,"pct_sin_desague":0,"pct_gas_red":0,"pct_gas_garrafa":100,"pct_lena_guano":100,"pct_basura_formal":10,"pct_basura_quema":90,"pct_basura_informal":0,"pct_internet":70,"pct_celular":80,"pct_televisor":50}},{"type":"Feature","geometry":{"type":"Polygon","coordinates":[[[-63.87088,-15.24494],[-63.87022,-15.24429],[-63.8695,-15.24509],[-63.87018,-15.2457],[-63.87088,-15.24494]]]},"properties":{"n":"PUENTE SAN PABLO","p":18,"personas_x_ha":15,"masculinidad":64,"pct_menor20":33,"pct_60mas":6,"pct_migrante":72,"dependencia_econ":88,"pct_empleados":12,"pct_cuentapropia":75,"pct_agricultura":50,"pct_comercio":25,"pct_manufactura":0,"pct_construccion":0,"pct_transporte":0,"pct_alojamiento":12,"pct_sin_educacion":0,"pct_educ_superior":27,"brecha_educ":7,"pct_sin_seguro":38,"pct_sus":62,"pct_seguro_privado":0,"brecha_seguro":-19,"pct_salud_publica":50,"pct_med_tradicional":10,"pct_automedicacion":20,"pct_remedios_caseros":13,"pct_viv_desocupada":43,"pct_alquiler":14,"pct_electricidad":100,"pct_sin_electricidad":0,"pct_agua_red":57,"pct_alcantarillado":0,"pct_camara_septica":14,"pct_pozo_ciego":86,"pct_sin_desague":0,"pct_gas_red":0,"pct_gas_garrafa":100,"pct_lena_guano":100,"pct_basura_formal":0,"pct_basura_quema":86,"pct_basura_informal":0,"pct_internet":43,"pct_celular":86,"pct_televisor":100}},{"type":"Feature","geometry":{"type":"Polygon","coordinates":[[[-63.86268,-15.24368],[-63.86196,-15.24304],[-63.86156,-15.24336],[-63.86226,-15.24415],[-63.86268,-15.24368]]]},"properties":{"n":"PUENTE SAN PABLO","p":42,"personas_x_ha":61,"masculinidad":100,"pct_menor20":36,"pct_60mas":5,"pct_migrante":40,"dependencia_econ":162,"pct_empleados":69,"pct_cuentapropia":12,"pct_agricultura":19,"pct_comercio":19,"pct_manufactura":0,"pct_construccion":50,"pct_transporte":0,"pct_alojamiento":0,"pct_sin_educacion":0,"pct_educ_superior":15,"brecha_educ":9,"pct_sin_seguro":5,"pct_sus":95,"pct_seguro_privado":0,"brecha_seguro":10,"pct_salud_publica":29,"pct_med_tradicional":14,"pct_automedicacion":16,"pct_remedios_caseros":28,"pct_viv_desocupada":0,"pct_alquiler":0,"pct_electricidad":100,"pct_sin_electricidad":0,"pct_agua_red":100,"pct_alcantarillado":11,"pct_camara_septica":44,"pct_pozo_ciego":44,"pct_sin_desague":0,"pct_gas_red":0,"pct_gas_garrafa":89,"pct_lena_guano":89,"pct_basura_formal":0,"pct_basura_quema":100,"pct_basura_informal":0,"pct_internet":89,"pct_celular":89,"pct_televisor":56}},{"type":"Feature","geometry":{"type":"Polygon","coordinates":[[[-63.86653,-15.24674],[-63.86578,-15.24613],[-63.86557,-15.24634],[-63.86633,-15.24698],[-63.86653,-15.24674]]]},"properties":{"n":"PUENTE SAN PABLO","p":27,"personas_x_ha":73,"masculinidad":170,"pct_menor20":30,"pct_60mas":7,"pct_migrante":74,"dependencia_econ":62,"pct_empleados":0,"pct_cuentapropia":62,"pct_agricultura":31,"pct_comercio":12,"pct_manufactura":0,"pct_construccion":6,"pct_transporte":19,"pct_alojamiento":25,"pct_sin_educacion":5,"pct_educ_superior":19,"brecha_educ":4,"pct_sin_seguro":19,"pct_sus":77,"pct_seguro_privado":0,"brecha_seguro":31,"pct_salud_publica":32,"pct_med_tradicional":1,"pct_automedicacion":25,"pct_remedios_caseros":23,"pct_viv_desocupada":0,"pct_alquiler":0,"pct_electricidad":100,"pct_sin_electricidad":0,"pct_agua_red":83,"pct_alcantarillado":50,"pct_camara_septica":17,"pct_pozo_ciego":33,"pct_sin_desague":0,"pct_gas_red":0,"pct_gas_garrafa":100,"pct_lena_guano":100,"pct_basura_formal":17,"pct_basura_quema":67,"pct_basura_informal":0,"pct_internet":17,"pct_celular":33,"pct_televisor":100}},{"type":"Feature","geometry":{"type":"Polygon","coordinates":[[[-63.87108,-15.24784],[-63.87168,-15.2472],[-63.87097,-15.24659],[-63.87039,-15.24726],[-63.87108,-15.24784]]]},"properties":{"n":"PUENTE SAN PABLO","p":36,"personas_x_ha":37,"masculinidad":64,"pct_menor20":47,"pct_60mas":8,"pct_migrante":64,"dependencia_econ":227,"pct_empleados":36,"pct_cuentapropia":27,"pct_agricultura":0,"pct_comercio":0,"pct_manufactura":18,"pct_construccion":36,"pct_transporte":18,"pct_alojamiento":9,"pct_sin_educacion":11,"pct_educ_superior":5,"brecha_educ":-7,"pct_sin_seguro":0,"pct_sus":97,"pct_seguro_privado":0,"brecha_seguro":0,"pct_salud_publica":51,"pct_med_tradicional":0,"pct_automedicacion":0,"pct_remedios_caseros":49,"pct_viv_desocupada":0,"pct_alquiler":0,"pct_electricidad":100,"pct_sin_electricidad":0,"pct_agua_red":100,"pct_alcantarillado":12,"pct_camara_septica":12,"pct_pozo_ciego":50,"pct_sin_desague":0,"pct_gas_red":0,"pct_gas_garrafa":88,"pct_lena_guano":88,"pct_basura_formal":0,"pct_basura_quema":100,"pct_basura_informal":0,"pct_internet":62,"pct_celular":75,"pct_televisor":50}},{"type":"Feature","geometry":{"type":"Polygon","coordinates":[[[-63.87201,-15.25014],[-63.8713,-15.24957],[-63.87069,-15.25025],[-63.87138,-15.25083],[-63.87201,-15.25014]]]},"properties":{"n":"PUENTE SAN PABLO","p":45,"personas_x_ha":45,"masculinidad":80,"pct_menor20":49,"pct_60mas":0,"pct_migrante":51,"dependencia_econ":159,"pct_empleados":0,"pct_cuentapropia":82,"pct_agricultura":71,"pct_comercio":18,"pct_manufactura":0,"pct_construccion":0,"pct_transporte":0,"pct_alojamiento":6,"pct_sin_educacion":0,"pct_educ_superior":8,"brecha_educ":-13,"pct_sin_seguro":2,"pct_sus":98,"pct_seguro_privado":0,"brecha_seguro":-4,"pct_salud_publica":86,"pct_med_tradicional":2,"pct_automedicacion":2,"pct_remedios_caseros":8,"pct_viv_desocupada":0,"pct_alquiler":0,"pct_electricidad":100,"pct_sin_electricidad":0,"pct_agua_red":92,"pct_alcantarillado":0,"pct_camara_septica":33,"pct_pozo_ciego":58,"pct_sin_desague":8,"pct_gas_red":0,"pct_gas_garrafa":100,"pct_lena_guano":100,"pct_basura_formal":8,"pct_basura_quema":83,"pct_basura_informal":0,"pct_internet":67,"pct_celular":83,"pct_televisor":58}},{"type":"Feature","geometry":{"type":"Polygon","coordinates":[[[-63.86987,-15.25099],[-63.87045,-15.25027],[-63.86976,-15.2497],[-63.86914,-15.25038],[-63.86987,-15.25099]]]},"properties":{"n":"PUENTE SAN PABLO","p":25,"personas_x_ha":24,"masculinidad":79,"pct_menor20":52,"pct_60mas":4,"pct_migrante":84,"dependencia_econ":79,"pct_empleados":7,"pct_cuentapropia":57,"pct_agricultura":29,"pct_comercio":14,"pct_manufactura":0,"pct_construccion":21,"pct_transporte":0,"pct_alojamiento":21,"pct_sin_educacion":0,"pct_educ_superior":25,"brecha_educ":31,"pct_sin_seguro":4,"pct_sus":96,"pct_seguro_privado":0,"brecha_seguro":9,"pct_salud_publica":32,"pct_med_tradicional":17,"pct_automedicacion":24,"pct_remedios_caseros":22,"pct_viv_desocupada":0,"pct_alquiler":12,"pct_electricidad":100,"pct_sin_electricidad":0,"pct_agua_red":100,"pct_alcantarillado":12,"pct_camara_septica":25,"pct_pozo_ciego":50,"pct_sin_desague":0,"pct_gas_red":0,"pct_gas_garrafa":75,"pct_lena_guano":75,"pct_basura_formal":12,"pct_basura_quema":62,"pct_basura_informal":0,"pct_internet":62,"pct_celular":88,"pct_televisor":62}},{"type":"Feature","geometry":{"type":"Polygon","coordinates":[[[-63.86977,-15.25108],[-63.86904,-15.25048],[-63.86843,-15.25116],[-63.86916,-15.25177],[-63.86977,-15.25108]]]},"properties":{"n":"PUENTE SAN PABLO","p":42,"personas_x_ha":41,"masculinidad":68,"pct_menor20":45,"pct_60mas":5,"pct_migrante":81,"dependencia_econ":162,"pct_empleados":6,"pct_cuentapropia":62,"pct_agricultura":44,"pct_comercio":12,"pct_manufactura":0,"pct_construccion":12,"pct_transporte":6,"pct_alojamiento":0,"pct_sin_educacion":8,"pct_educ_superior":8,"brecha_educ":0,"pct_sin_seguro":5,"pct_sus":93,"pct_seguro_privado":0,"brecha_seguro":2,"pct_salud_publica":34,"pct_med_tradicional":3,"pct_automedicacion":18,"pct_remedios_caseros":16,"pct_viv_desocupada":0,"pct_alquiler":0,"pct_electricidad":100,"pct_sin_electricidad":0,"pct_agua_red":100,"pct_alcantarillado":0,"pct_camara_septica":40,"pct_pozo_ciego":50,"pct_sin_desague":10,"pct_gas_red":0,"pct_gas_garrafa":90,"pct_lena_guano":90,"pct_basura_formal":0,"pct_basura_quema":100,"pct_basura_informal":0,"pct_internet":80,"pct_celular":90,"pct_televisor":50}},{"type":"Feature","geometry":{"type":"Polygon","coordinates":[[[-63.86478,-15.23972],[-63.8643,-15.23929],[-63.86497,-15.23865],[-63.86539,-15.23905],[-63.86478,-15.23972]]]},"properties":{"n":"PUENTE SAN PABLO","p":33,"personas_x_ha":48,"masculinidad":230,"pct_menor20":48,"pct_60mas":0,"pct_migrante":79,"dependencia_econ":200,"pct_empleados":82,"pct_cuentapropia":9,"pct_agricultura":36,"pct_comercio":9,"pct_manufactura":0,"pct_construccion":36,"pct_transporte":0,"pct_alojamiento":0,"pct_sin_educacion":6,"pct_educ_superior":6,"brecha_educ":-9,"pct_sin_seguro":6,"pct_sus":94,"pct_seguro_privado":0,"brecha_seguro":9,"pct_salud_publica":26,"pct_med_tradicional":6,"pct_automedicacion":24,"pct_remedios_caseros":27,"pct_viv_desocupada":0,"pct_alquiler":0,"pct_electricidad":100,"pct_sin_electricidad":0,"pct_agua_red":88,"pct_alcantarillado":0,"pct_camara_septica":25,"pct_pozo_ciego":62,"pct_sin_desague":0,"pct_gas_red":0,"pct_gas_garrafa":88,"pct_lena_guano":88,"pct_basura_formal":0,"pct_basura_quema":100,"pct_basura_informal":0,"pct_internet":50,"pct_celular":62,"pct_televisor":75}},{"type":"Feature","geometry":{"type":"Polygon","coordinates":[[[-63.86559,-15.24041],[-63.86488,-15.2398],[-63.86551,-15.23912],[-63.8662,-15.23973],[-63.86559,-15.24041]]]},"properties":{"n":"PUENTE SAN PABLO","p":21,"personas_x_ha":21,"masculinidad":75,"pct_menor20":52,"pct_60mas":10,"pct_migrante":57,"dependencia_econ":900,"pct_empleados":50,"pct_cuentapropia":0,"pct_agricultura":50,"pct_comercio":0,"pct_manufactura":0,"pct_construccion":0,"pct_transporte":0,"pct_alojamiento":0,"pct_sin_educacion":0,"pct_educ_superior":0,"brecha_educ":-17,"pct_sin_seguro":17,"pct_sus":83,"pct_seguro_privado":0,"brecha_seguro":19,"pct_salud_publica":50,"pct_med_tradicional":6,"pct_automedicacion":22,"pct_remedios_caseros":22,"pct_viv_desocupada":0,"pct_alquiler":0,"pct_electricidad":83,"pct_sin_electricidad":17,"pct_agua_red":83,"pct_alcantarillado":17,"pct_camara_septica":0,"pct_pozo_ciego":67,"pct_sin_desague":0,"pct_gas_red":0,"pct_gas_garrafa":83,"pct_lena_guano":83,"pct_basura_formal":0,"pct_basura_quema":100,"pct_basura_informal":0,"pct_internet":33,"pct_celular":83,"pct_televisor":67}},{"type":"Feature","geometry":{"type":"Polygon","coordinates":[[[-63.86692,-15.25254],[-63.86638,-15.2521],[-63.86687,-15.25138],[-63.86753,-15.25189],[-63.86692,-15.25254]]]},"properties":{"n":"PUENTE SAN PABLO","p":41,"personas_x_ha":51,"masculinidad":86,"pct_menor20":59,"pct_60mas":2,"pct_migrante":56,"dependencia_econ":173,"pct_empleados":27,"pct_cuentapropia":40,"pct_agricultura":33,"pct_comercio":20,"pct_manufactura":7,"pct_construccion":0,"pct_transporte":7,"pct_alojamiento":7,"pct_sin_educacion":0,"pct_educ_superior":12,"brecha_educ":4,"pct_sin_seguro":8,"pct_sus":92,"pct_seguro_privado":0,"brecha_seguro":6,"pct_salud_publica":63,"pct_med_tradicional":0,"pct_automedicacion":10,"pct_remedios_caseros":15,"pct_viv_desocupada":0,"pct_alquiler":0,"pct_electricidad":100,"pct_sin_electricidad":0,"pct_agua_red":100,"pct_alcantarillado":0,"pct_camara_septica":36,"pct_pozo_ciego":45,"pct_sin_desague":18,"pct_gas_red":0,"pct_gas_garrafa":64,"pct_lena_guano":64,"pct_basura_formal":9,"pct_basura_quema":82,"pct_basura_informal":0,"pct_internet":9,"pct_celular":55,"pct_televisor":55}},{"type":"Feature","geometry":{"type":"Polygon","coordinates":[[[-63.86572,-15.24345],[-63.86501,-15.24286],[-63.8644,-15.24355],[-63.8651,-15.24415],[-63.86572,-15.24345]]]},"properties":{"n":"PUENTE SAN PABLO","p":34,"personas_x_ha":33,"masculinidad":70,"pct_menor20":56,"pct_60mas":12,"pct_migrante":47,"dependencia_econ":127,"pct_empleados":53,"pct_cuentapropia":47,"pct_agricultura":13,"pct_comercio":13,"pct_manufactura":7,"pct_construccion":20,"pct_transporte":7,"pct_alojamiento":0,"pct_sin_educacion":0,"pct_educ_superior":20,"brecha_educ":-11,"pct_sin_seguro":3,"pct_sus":91,"pct_seguro_privado":0,"brecha_seguro":8,"pct_salud_publica":35,"pct_med_tradicional":11,"pct_automedicacion":14,"pct_remedios_caseros":23,"pct_viv_desocupada":0,"pct_alquiler":17,"pct_electricidad":100,"pct_sin_electricidad":0,"pct_agua_red":100,"pct_alcantarillado":0,"pct_camara_septica":42,"pct_pozo_ciego":50,"pct_sin_desague":0,"pct_gas_red":0,"pct_gas_garrafa":92,"pct_lena_guano":92,"pct_basura_formal":25,"pct_basura_quema":75,"pct_basura_informal":0,"pct_internet":75,"pct_celular":83,"pct_televisor":83}},{"type":"Feature","geometry":{"type":"Polygon","coordinates":[[[-63.86794,-15.24118],[-63.86734,-15.2419],[-63.86802,-15.24247],[-63.86861,-15.24177],[-63.86794,-15.24118]]]},"properties":{"n":"PUENTE SAN PABLO","p":49,"personas_x_ha":49,"masculinidad":81,"pct_menor20":51,"pct_60mas":4,"pct_migrante":18,"dependencia_econ":181,"pct_empleados":6,"pct_cuentapropia":69,"pct_agricultura":12,"pct_comercio":31,"pct_manufactura":25,"pct_construccion":6,"pct_transporte":0,"pct_alojamiento":6,"pct_sin_educacion":0,"pct_educ_superior":14,"brecha_educ":0,"pct_sin_seguro":0,"pct_sus":98,"pct_seguro_privado":0,"brecha_seguro":0,"pct_salud_publica":61,"pct_med_tradicional":8,"pct_automedicacion":8,"pct_remedios_caseros":15,"pct_viv_desocupada":0,"pct_alquiler":0,"pct_electricidad":100,"pct_sin_electricidad":0,"pct_agua_red":100,"pct_alcantarillado":23,"pct_camara_septica":15,"pct_pozo_ciego":31,"pct_sin_desague":31,"pct_gas_red":0,"pct_gas_garrafa":77,"pct_lena_guano":77,"pct_basura_formal":15,"pct_basura_quema":62,"pct_basura_informal":46,"pct_internet":31,"pct_celular":31,"pct_televisor":31}},{"type":"Feature","geometry":{"type":"Polygon","coordinates":[[[-63.86692,-15.23892],[-63.86624,-15.23832],[-63.86563,-15.23898],[-63.86632,-15.23958],[-63.86692,-15.23892]]]},"properties":{"n":"PUENTE SAN PABLO","p":48,"personas_x_ha":50,"masculinidad":60,"pct_menor20":56,"pct_60mas":4,"pct_migrante":56,"dependencia_econ":153,"pct_empleados":68,"pct_cuentapropia":21,"pct_agricultura":37,"pct_comercio":21,"pct_manufactura":0,"pct_construccion":11,"pct_transporte":5,"pct_alojamiento":16,"pct_sin_educacion":13,"pct_educ_superior":0,"brecha_educ":-2,"pct_sin_seguro":4,"pct_sus":79,"pct_seguro_privado":0,"brecha_seguro":12,"pct_salud_publica":38,"pct_med_tradicional":2,"pct_automedicacion":21,"pct_remedios_caseros":34,"pct_viv_desocupada":0,"pct_alquiler":0,"pct_electricidad":73,"pct_sin_electricidad":27,"pct_agua_red":91,"pct_alcantarillado":9,"pct_camara_septica":18,"pct_pozo_ciego":55,"pct_sin_desague":9,"pct_gas_red":0,"pct_gas_garrafa":82,"pct_lena_guano":82,"pct_basura_formal":0,"pct_basura_quema":64,"pct_basura_informal":0,"pct_internet":73,"pct_celular":82,"pct_televisor":73}},{"type":"Feature","geometry":{"type":"Polygon","coordinates":[[[-63.87282,-15.24948],[-63.8735,-15.25007],[-63.87289,-15.25073],[-63.8722,-15.25016],[-63.87282,-15.24948]]]},"properties":{"n":"PUENTE SAN PABLO","p":31,"personas_x_ha":32,"masculinidad":121,"pct_menor20":42,"pct_60mas":13,"pct_migrante":61,"dependencia_econ":121,"pct_empleados":43,"pct_cuentapropia":57,"pct_agricultura":29,"pct_comercio":14,"pct_manufactura":14,"pct_construccion":0,"pct_transporte":7,"pct_alojamiento":0,"pct_sin_educacion":17,"pct_educ_superior":33,"brecha_educ":15,"pct_sin_seguro":10,"pct_sus":86,"pct_seguro_privado":3,"brecha_seguro":-9,"pct_salud_publica":82,"pct_med_tradicional":6,"pct_automedicacion":3,"pct_remedios_caseros":6,"pct_viv_desocupada":0,"pct_alquiler":0,"pct_electricidad":100,"pct_sin_electricidad":0,"pct_agua_red":100,"pct_alcantarillado":25,"pct_camara_septica":38,"pct_pozo_ciego":38,"pct_sin_desague":0,"pct_gas_red":0,"pct_gas_garrafa":100,"pct_lena_guano":100,"pct_basura_formal":12,"pct_basura_quema":88,"pct_basura_informal":0,"pct_internet":50,"pct_celular":62,"pct_televisor":50}},{"type":"Feature","geometry":{"type":"Polygon","coordinates":[[[-63.8668,-15.25297],[-63.86583,-15.25384],[-63.86596,-15.25403],[-63.86735,-15.25367],[-63.86743,-15.25357],[-63.8668,-15.25297]]]},"properties":{"n":"PUENTE SAN PABLO","p":18,"personas_x_ha":18,"masculinidad":157,"pct_menor20":56,"pct_60mas":6,"pct_migrante":72,"dependencia_econ":100,"pct_empleados":22,"pct_cuentapropia":67,"pct_agricultura":44,"pct_comercio":0,"pct_manufactura":0,"pct_construccion":0,"pct_transporte":22,"pct_alojamiento":0,"pct_sin_educacion":0,"pct_educ_superior":25,"brecha_educ":0,"pct_sin_seguro":6,"pct_sus":94,"pct_seguro_privado":0,"brecha_seguro":9,"pct_salud_publica":36,"pct_med_tradicional":0,"pct_automedicacion":20,"pct_remedios_caseros":34,"pct_viv_desocupada":25,"pct_alquiler":0,"pct_electricidad":80,"pct_sin_electricidad":20,"pct_agua_red":80,"pct_alcantarillado":0,"pct_camara_septica":20,"pct_pozo_ciego":60,"pct_sin_desague":20,"pct_gas_red":0,"pct_gas_garrafa":60,"pct_lena_guano":60,"pct_basura_formal":0,"pct_basura_quema":100,"pct_basura_informal":0,"pct_internet":80,"pct_celular":80,"pct_televisor":60}},{"type":"Feature","geometry":{"type":"Polygon","coordinates":[[[-63.86799,-15.24658],[-63.86859,-15.24589],[-63.86789,-15.24528],[-63.86728,-15.24599],[-63.86799,-15.24658]]]},"properties":{"n":"PUENTE SAN PABLO","p":35,"personas_x_ha":34,"masculinidad":106,"pct_menor20":46,"pct_60mas":9,"pct_migrante":89,"dependencia_econ":119,"pct_empleados":44,"pct_cuentapropia":56,"pct_agricultura":25,"pct_comercio":56,"pct_manufactura":0,"pct_construccion":0,"pct_transporte":0,"pct_alojamiento":6,"pct_sin_educacion":5,"pct_educ_superior":15,"brecha_educ":-26,"pct_sin_seguro":11,"pct_sus":83,"pct_seguro_privado":0,"brecha_seguro":11,"pct_salud_publica":28,"pct_med_tradicional":4,"pct_automedicacion":28,"pct_remedios_caseros":26,"pct_viv_desocupada":0,"pct_alquiler":40,"pct_electricidad":100,"pct_sin_electricidad":0,"pct_agua_red":60,"pct_alcantarillado":0,"pct_camara_septica":60,"pct_pozo_ciego":40,"pct_sin_desague":0,"pct_gas_red":0,"pct_gas_garrafa":100,"pct_lena_guano":100,"pct_basura_formal":30,"pct_basura_quema":60,"pct_basura_informal":0,"pct_internet":90,"pct_celular":90,"pct_televisor":60}},{"type":"Feature","geometry":{"type":"Polygon","coordinates":[[[-63.86846,-15.24443],[-63.8678,-15.24388],[-63.86718,-15.24447],[-63.86787,-15.24509],[-63.86846,-15.24443]]]},"properties":{"n":"PUENTE SAN PABLO","p":37,"personas_x_ha":39,"masculinidad":118,"pct_menor20":41,"pct_60mas":0,"pct_migrante":51,"dependencia_econ":112,"pct_empleados":41,"pct_cuentapropia":35,"pct_agricultura":29,"pct_comercio":18,"pct_manufactura":0,"pct_construccion":0,"pct_transporte":12,"pct_alojamiento":12,"pct_sin_educacion":9,"pct_educ_superior":30,"brecha_educ":-5,"pct_sin_seguro":6,"pct_sus":91,"pct_seguro_privado":0,"brecha_seguro":12,"pct_salud_publica":48,"pct_med_tradicional":5,"pct_automedicacion":14,"pct_remedios_caseros":12,"pct_viv_desocupada":12,"pct_alquiler":17,"pct_electricidad":100,"pct_sin_electricidad":0,"pct_agua_red":67,"pct_alcantarillado":17,"pct_camara_septica":50,"pct_pozo_ciego":33,"pct_sin_desague":0,"pct_gas_red":0,"pct_gas_garrafa":83,"pct_lena_guano":83,"pct_basura_formal":33,"pct_basura_quema":67,"pct_basura_informal":0,"pct_internet":50,"pct_celular":83,"pct_televisor":83}},{"type":"Feature","geometry":{"type":"Polygon","coordinates":[[[-63.86522,-15.24561],[-63.86584,-15.24491],[-63.86511,-15.24433],[-63.86452,-15.24504],[-63.86522,-15.24561]]]},"properties":{"n":"PUENTE SAN PABLO","p":65,"personas_x_ha":63,"masculinidad":132,"pct_menor20":35,"pct_60mas":15,"pct_migrante":74,"dependencia_econ":117,"pct_empleados":30,"pct_cuentapropia":57,"pct_agricultura":13,"pct_comercio":30,"pct_manufactura":3,"pct_construccion":10,"pct_transporte":17,"pct_alojamiento":3,"pct_sin_educacion":5,"pct_educ_superior":5,"brecha_educ":-14,"pct_sin_seguro":20,"pct_sus":80,"pct_seguro_privado":0,"brecha_seguro":-3,"pct_salud_publica":35,"pct_med_tradicional":4,"pct_automedicacion":17,"pct_remedios_caseros":30,"pct_viv_desocupada":0,"pct_alquiler":14,"pct_electricidad":100,"pct_sin_electricidad":0,"pct_agua_red":93,"pct_alcantarillado":7,"pct_camara_septica":57,"pct_pozo_ciego":36,"pct_sin_desague":0,"pct_gas_red":0,"pct_gas_garrafa":93,"pct_lena_guano":93,"pct_basura_formal":21,"pct_basura_quema":79,"pct_basura_informal":0,"pct_internet":79,"pct_celular":86,"pct_televisor":64}},{"type":"Feature","geometry":{"type":"Polygon","coordinates":[[[-63.86683,-15.25266],[-63.86631,-15.25218],[-63.86589,-15.2528],[-63.86631,-15.25319],[-63.86683,-15.25266]]]},"properties":{"n":"PUENTE SAN PABLO","p":55,"personas_x_ha":95,"masculinidad":77,"pct_menor20":56,"pct_60mas":5,"pct_migrante":51,"dependencia_econ":150,"pct_empleados":36,"pct_cuentapropia":36,"pct_agricultura":36,"pct_comercio":5,"pct_manufactura":14,"pct_construccion":0,"pct_transporte":0,"pct_alojamiento":36,"pct_sin_educacion":4,"pct_educ_superior":4,"brecha_educ":57,"pct_sin_seguro":38,"pct_sus":62,"pct_seguro_privado":0,"brecha_seguro":6,"pct_salud_publica":33,"pct_med_tradicional":4,"pct_automedicacion":12,"pct_remedios_caseros":33,"pct_viv_desocupada":0,"pct_alquiler":14,"pct_electricidad":100,"pct_sin_electricidad":0,"pct_agua_red":64,"pct_alcantarillado":0,"pct_camara_septica":7,"pct_pozo_ciego":43,"pct_sin_desague":50,"pct_gas_red":0,"pct_gas_garrafa":100,"pct_lena_guano":100,"pct_basura_formal":21,"pct_basura_quema":71,"pct_basura_informal":14,"pct_internet":57,"pct_celular":79,"pct_televisor":79}},{"type":"Feature","geometry":{"type":"Polygon","coordinates":[[[-63.86779,-15.24521],[-63.86704,-15.24459],[-63.86644,-15.24529],[-63.86717,-15.24589],[-63.86779,-15.24521]]]},"properties":{"n":"PUENTE SAN PABLO","p":53,"personas_x_ha":50,"masculinidad":112,"pct_menor20":34,"pct_60mas":9,"pct_migrante":81,"dependencia_econ":61,"pct_empleados":35,"pct_cuentapropia":39,"pct_agricultura":16,"pct_comercio":32,"pct_manufactura":3,"pct_construccion":6,"pct_transporte":0,"pct_alojamiento":19,"pct_sin_educacion":6,"pct_educ_superior":41,"brecha_educ":-8,"pct_sin_seguro":16,"pct_sus":74,"pct_seguro_privado":2,"brecha_seguro":-8,"pct_salud_publica":35,"pct_med_tradicional":9,"pct_automedicacion":15,"pct_remedios_caseros":18,"pct_viv_desocupada":6,"pct_alquiler":58,"pct_electricidad":100,"pct_sin_electricidad":0,"pct_agua_red":83,"pct_alcantarillado":8,"pct_camara_septica":25,"pct_pozo_ciego":58,"pct_sin_desague":8,"pct_gas_red":0,"pct_gas_garrafa":83,"pct_lena_guano":83,"pct_basura_formal":83,"pct_basura_quema":17,"pct_basura_informal":0,"pct_internet":67,"pct_celular":83,"pct_televisor":50}},{"type":"Feature","geometry":{"type":"Polygon","coordinates":[[[-63.87169,-15.24563],[-63.87099,-15.24503],[-63.8703,-15.24579],[-63.871,-15.24639],[-63.87169,-15.24563]]]},"properties":{"n":"PUENTE SAN PABLO","p":25,"personas_x_ha":22,"masculinidad":79,"pct_menor20":56,"pct_60mas":0,"pct_migrante":76,"dependencia_econ":178,"pct_empleados":11,"pct_cuentapropia":56,"pct_agricultura":44,"pct_comercio":22,"pct_manufactura":22,"pct_construccion":0,"pct_transporte":0,"pct_alojamiento":0,"pct_sin_educacion":0,"pct_educ_superior":36,"brecha_educ":-29,"pct_sin_seguro":24,"pct_sus":76,"pct_seguro_privado":0,"brecha_seguro":6,"pct_salud_publica":28,"pct_med_tradicional":18,"pct_automedicacion":19,"pct_remedios_caseros":19,"pct_viv_desocupada":0,"pct_alquiler":29,"pct_electricidad":100,"pct_sin_electricidad":0,"pct_agua_red":100,"pct_alcantarillado":43,"pct_camara_septica":29,"pct_pozo_ciego":14,"pct_sin_desague":14,"pct_gas_red":0,"pct_gas_garrafa":100,"pct_lena_guano":100,"pct_basura_formal":14,"pct_basura_quema":86,"pct_basura_informal":0,"pct_internet":57,"pct_celular":71,"pct_televisor":71}},{"type":"Feature","geometry":{"type":"Polygon","coordinates":[[[-63.86938,-15.24501],[-63.86867,-15.24442],[-63.86898,-15.24404],[-63.86957,-15.24362],[-63.87012,-15.24417],[-63.86938,-15.24501]]]},"properties":{"n":"PUENTE SAN PABLO","p":34,"personas_x_ha":28,"masculinidad":143,"pct_menor20":47,"pct_60mas":3,"pct_migrante":85,"dependencia_econ":79,"pct_empleados":16,"pct_cuentapropia":58,"pct_agricultura":21,"pct_comercio":16,"pct_manufactura":0,"pct_construccion":5,"pct_transporte":5,"pct_alojamiento":16,"pct_sin_educacion":0,"pct_educ_superior":17,"brecha_educ":12,"pct_sin_seguro":6,"pct_sus":76,"pct_seguro_privado":18,"brecha_seguro":-14,"pct_salud_publica":23,"pct_med_tradicional":9,"pct_automedicacion":21,"pct_remedios_caseros":18,"pct_viv_desocupada":8,"pct_alquiler":10,"pct_electricidad":80,"pct_sin_electricidad":20,"pct_agua_red":90,"pct_alcantarillado":30,"pct_camara_septica":0,"pct_pozo_ciego":40,"pct_sin_desague":20,"pct_gas_red":0,"pct_gas_garrafa":90,"pct_lena_guano":90,"pct_basura_formal":10,"pct_basura_quema":90,"pct_basura_informal":0,"pct_internet":80,"pct_celular":90,"pct_televisor":70}},{"type":"Feature","geometry":{"type":"Polygon","coordinates":[[[-63.8704,-15.24863],[-63.871,-15.24798],[-63.87028,-15.24737],[-63.86968,-15.24804],[-63.8704,-15.24863]]]},"properties":{"n":"PUENTE SAN PABLO","p":39,"personas_x_ha":39,"masculinidad":62,"pct_menor20":46,"pct_60mas":18,"pct_migrante":72,"dependencia_econ":77,"pct_empleados":41,"pct_cuentapropia":41,"pct_agricultura":27,"pct_comercio":14,"pct_manufactura":14,"pct_construccion":5,"pct_transporte":5,"pct_alojamiento":18,"pct_sin_educacion":10,"pct_educ_superior":38,"brecha_educ":12,"pct_sin_seguro":10,"pct_sus":90,"pct_seguro_privado":0,"brecha_seguro":16,"pct_salud_publica":27,"pct_med_tradicional":15,"pct_automedicacion":10,"pct_remedios_caseros":27,"pct_viv_desocupada":0,"pct_alquiler":0,"pct_electricidad":100,"pct_sin_electricidad":0,"pct_agua_red":100,"pct_alcantarillado":0,"pct_camara_septica":50,"pct_pozo_ciego":50,"pct_sin_desague":0,"pct_gas_red":0,"pct_gas_garrafa":100,"pct_lena_guano":100,"pct_basura_formal":0,"pct_basura_quema":100,"pct_basura_informal":0,"pct_internet":90,"pct_celular":100,"pct_televisor":80}},{"type":"Feature","geometry":{"type":"Polygon","coordinates":[[[-63.87214,-15.25023],[-63.87281,-15.25083],[-63.87221,-15.25151],[-63.8715,-15.25094],[-63.87214,-15.25023]]]},"properties":{"n":"PUENTE SAN PABLO","p":34,"personas_x_ha":34,"masculinidad":70,"pct_menor20":53,"pct_60mas":3,"pct_migrante":65,"dependencia_econ":158,"pct_empleados":17,"pct_cuentapropia":33,"pct_agricultura":33,"pct_comercio":17,"pct_manufactura":0,"pct_construccion":0,"pct_transporte":8,"pct_alojamiento":33,"pct_sin_educacion":0,"pct_educ_superior":27,"brecha_educ":-6,"pct_sin_seguro":6,"pct_sus":74,"pct_seguro_privado":0,"brecha_seguro":-11,"pct_salud_publica":37,"pct_med_tradicional":7,"pct_automedicacion":7,"pct_remedios_caseros":27,"pct_viv_desocupada":17,"pct_alquiler":0,"pct_electricidad":100,"pct_sin_electricidad":0,"pct_agua_red":43,"pct_alcantarillado":29,"pct_camara_septica":14,"pct_pozo_ciego":43,"pct_sin_desague":0,"pct_gas_red":0,"pct_gas_garrafa":100,"pct_lena_guano":100,"pct_basura_formal":0,"pct_basura_quema":86,"pct_basura_informal":29,"pct_internet":86,"pct_celular":86,"pct_televisor":71}},{"type":"Feature","geometry":{"type":"Polygon","coordinates":[[[-63.87112,-15.24649],[-63.87183,-15.24709],[-63.87244,-15.24639],[-63.87177,-15.24575],[-63.87112,-15.24649]]]},"properties":{"n":"PUENTE SAN PABLO","p":48,"personas_x_ha":44,"masculinidad":100,"pct_menor20":58,"pct_60mas":4,"pct_migrante":62,"dependencia_econ":327,"pct_empleados":64,"pct_cuentapropia":36,"pct_agricultura":45,"pct_comercio":9,"pct_manufactura":27,"pct_construccion":0,"pct_transporte":9,"pct_alojamiento":0,"pct_sin_educacion":0,"pct_educ_superior":5,"brecha_educ":1,"pct_sin_seguro":11,"pct_sus":89,"pct_seguro_privado":0,"brecha_seguro":4,"pct_salud_publica":52,"pct_med_tradicional":5,"pct_automedicacion":9,"pct_remedios_caseros":30,"pct_viv_desocupada":0,"pct_alquiler":0,"pct_electricidad":86,"pct_sin_electricidad":14,"pct_agua_red":100,"pct_alcantarillado":0,"pct_camara_septica":29,"pct_pozo_ciego":14,"pct_sin_desague":0,"pct_gas_red":0,"pct_gas_garrafa":100,"pct_lena_guano":100,"pct_basura_formal":0,"pct_basura_quema":100,"pct_basura_informal":0,"pct_internet":86,"pct_celular":86,"pct_televisor":86}},{"type":"Feature","geometry":{"type":"Polygon","coordinates":[[[-63.86712,-15.24189],[-63.86642,-15.24129],[-63.86582,-15.24198],[-63.86651,-15.24256],[-63.86712,-15.24189]]]},"properties":{"n":"PUENTE SAN PABLO","p":39,"personas_x_ha":39,"masculinidad":105,"pct_menor20":49,"pct_60mas":3,"pct_migrante":64,"dependencia_econ":70,"pct_empleados":43,"pct_cuentapropia":26,"pct_agricultura":39,"pct_comercio":39,"pct_manufactura":0,"pct_construccion":0,"pct_transporte":4,"pct_alojamiento":4,"pct_sin_educacion":5,"pct_educ_superior":50,"brecha_educ":-5,"pct_sin_seguro":49,"pct_sus":44,"pct_seguro_privado":0,"brecha_seguro":44,"pct_salud_publica":27,"pct_med_tradicional":3,"pct_automedicacion":19,"pct_remedios_caseros":19,"pct_viv_desocupada":0,"pct_alquiler":0,"pct_electricidad":100,"pct_sin_electricidad":0,"pct_agua_red":86,"pct_alcantarillado":14,"pct_camara_septica":29,"pct_pozo_ciego":43,"pct_sin_desague":14,"pct_gas_red":0,"pct_gas_garrafa":100,"pct_lena_guano":100,"pct_basura_formal":43,"pct_basura_quema":43,"pct_basura_informal":0,"pct_internet":86,"pct_celular":100,"pct_televisor":57}},{"type":"Feature","geometry":{"type":"Polygon","coordinates":[[[-63.87128,-15.24938],[-63.87187,-15.2487],[-63.87117,-15.2481],[-63.87057,-15.24877],[-63.87128,-15.24938]]]},"properties":{"n":"PUENTE SAN PABLO","p":23,"personas_x_ha":23,"masculinidad":53,"pct_menor20":35,"pct_60mas":4,"pct_migrante":83,"dependencia_econ":667,"pct_empleados":0,"pct_cuentapropia":67,"pct_agricultura":33,"pct_comercio":33,"pct_manufactura":0,"pct_construccion":0,"pct_transporte":0,"pct_alojamiento":33,"pct_sin_educacion":0,"pct_educ_superior":20,"brecha_educ":-6,"pct_sin_seguro":30,"pct_sus":70,"pct_seguro_privado":0,"brecha_seguro":-8,"pct_salud_publica":27,"pct_med_tradicional":0,"pct_automedicacion":22,"pct_remedios_caseros":35,"pct_viv_desocupada":0,"pct_alquiler":0,"pct_electricidad":100,"pct_sin_electricidad":0,"pct_agua_red":75,"pct_alcantarillado":38,"pct_camara_septica":12,"pct_pozo_ciego":38,"pct_sin_desague":12,"pct_gas_red":0,"pct_gas_garrafa":88,"pct_lena_guano":88,"pct_basura_formal":12,"pct_basura_quema":88,"pct_basura_informal":0,"pct_internet":75,"pct_celular":88,"pct_televisor":75}},{"type":"Feature","geometry":{"type":"Polygon","coordinates":[[[-63.86476,-15.24128],[-63.8641,-15.24071],[-63.8635,-15.24139],[-63.8642,-15.24196],[-63.86476,-15.24128]]]},"properties":{"n":"PUENTE SAN PABLO","p":47,"personas_x_ha":49,"masculinidad":96,"pct_menor20":43,"pct_60mas":6,"pct_migrante":74,"dependencia_econ":88,"pct_empleados":36,"pct_cuentapropia":52,"pct_agricultura":40,"pct_comercio":28,"pct_manufactura":12,"pct_construccion":0,"pct_transporte":4,"pct_alojamiento":4,"pct_sin_educacion":0,"pct_educ_superior":30,"brecha_educ":12,"pct_sin_seguro":9,"pct_sus":80,"pct_seguro_privado":0,"brecha_seguro":-8,"pct_salud_publica":31,"pct_med_tradicional":5,"pct_automedicacion":25,"pct_remedios_caseros":23,"pct_viv_desocupada":0,"pct_alquiler":20,"pct_electricidad":100,"pct_sin_electricidad":0,"pct_agua_red":80,"pct_alcantarillado":0,"pct_camara_septica":10,"pct_pozo_ciego":70,"pct_sin_desague":10,"pct_gas_red":0,"pct_gas_garrafa":90,"pct_lena_guano":90,"pct_basura_formal":0,"pct_basura_quema":90,"pct_basura_informal":0,"pct_internet":70,"pct_celular":100,"pct_televisor":70}},{"type":"Feature","geometry":{"type":"Polygon","coordinates":[[[-63.86938,-15.24092],[-63.86868,-15.24033],[-63.86805,-15.24105],[-63.86874,-15.24166],[-63.86938,-15.24092]]]},"properties":{"n":"PUENTE SAN PABLO","p":21,"personas_x_ha":20,"masculinidad":110,"pct_menor20":43,"pct_60mas":5,"pct_migrante":67,"dependencia_econ":110,"pct_empleados":20,"pct_cuentapropia":50,"pct_agricultura":30,"pct_comercio":10,"pct_manufactura":10,"pct_construccion":0,"pct_transporte":10,"pct_alojamiento":10,"pct_sin_educacion":0,"pct_educ_superior":42,"brecha_educ":-6,"pct_sin_seguro":19,"pct_sus":48,"pct_seguro_privado":0,"brecha_seguro":17,"pct_salud_publica":17,"pct_med_tradicional":4,"pct_automedicacion":28,"pct_remedios_caseros":28,"pct_viv_desocupada":0,"pct_alquiler":0,"pct_electricidad":86,"pct_sin_electricidad":0,"pct_agua_red":86,"pct_alcantarillado":0,"pct_camara_septica":57,"pct_pozo_ciego":0,"pct_sin_desague":43,"pct_gas_red":0,"pct_gas_garrafa":100,"pct_lena_guano":100,"pct_basura_formal":14,"pct_basura_quema":86,"pct_basura_informal":0,"pct_internet":100,"pct_celular":100,"pct_televisor":86}},{"type":"Feature","geometry":{"type":"Polygon","coordinates":[[[-63.86489,-15.2412],[-63.86419,-15.2406],[-63.8648,-15.23992],[-63.8655,-15.24052],[-63.86489,-15.2412]]]},"properties":{"n":"PUENTE SAN PABLO","p":27,"personas_x_ha":27,"masculinidad":125,"pct_menor20":52,"pct_60mas":7,"pct_migrante":30,"dependencia_econ":267,"pct_empleados":50,"pct_cuentapropia":33,"pct_agricultura":50,"pct_comercio":0,"pct_manufactura":0,"pct_construccion":0,"pct_transporte":0,"pct_alojamiento":33,"pct_sin_educacion":0,"pct_educ_superior":0,"brecha_educ":-7,"pct_sin_seguro":5,"pct_sus":95,"pct_seguro_privado":0,"brecha_seguro":9,"pct_salud_publica":73,"pct_med_tradicional":0,"pct_automedicacion":0,"pct_remedios_caseros":24,"pct_viv_desocupada":0,"pct_alquiler":8,"pct_electricidad":77,"pct_sin_electricidad":23,"pct_agua_red":69,"pct_alcantarillado":23,"pct_camara_septica":8,"pct_pozo_ciego":38,"pct_sin_desague":23,"pct_gas_red":0,"pct_gas_garrafa":92,"pct_lena_guano":92,"pct_basura_formal":23,"pct_basura_quema":77,"pct_basura_informal":0,"pct_internet":69,"pct_celular":69,"pct_televisor":38}},{"type":"Feature","geometry":{"type":"Polygon","coordinates":[[[-63.8682,-15.25113],[-63.86748,-15.25053],[-63.86695,-15.25128],[-63.86759,-15.2518],[-63.8682,-15.25113]]]},"properties":{"n":"PUENTE SAN PABLO","p":31,"personas_x_ha":32,"masculinidad":72,"pct_menor20":52,"pct_60mas":6,"pct_migrante":58,"dependencia_econ":210,"pct_empleados":20,"pct_cuentapropia":40,"pct_agricultura":20,"pct_comercio":40,"pct_manufactura":10,"pct_construccion":10,"pct_transporte":0,"pct_alojamiento":10,"pct_sin_educacion":7,"pct_educ_superior":33,"brecha_educ":-10,"pct_sin_seguro":8,"pct_sus":92,"pct_seguro_privado":0,"brecha_seguro":4,"pct_salud_publica":49,"pct_med_tradicional":14,"pct_automedicacion":16,"pct_remedios_caseros":21,"pct_viv_desocupada":0,"pct_alquiler":0,"pct_electricidad":80,"pct_sin_electricidad":20,"pct_agua_red":60,"pct_alcantarillado":0,"pct_camara_septica":10,"pct_pozo_ciego":60,"pct_sin_desague":30,"pct_gas_red":0,"pct_gas_garrafa":90,"pct_lena_guano":90,"pct_basura_formal":0,"pct_basura_quema":100,"pct_basura_informal":0,"pct_internet":30,"pct_celular":80,"pct_televisor":70}},{"type":"Feature","geometry":{"type":"Polygon","coordinates":[[[-63.86732,-15.24733],[-63.8666,-15.24677],[-63.86639,-15.24703],[-63.86702,-15.24748],[-63.86732,-15.24733]]]},"properties":{"n":"PUENTE SAN PABLO","p":20,"personas_x_ha":62,"masculinidad":82,"pct_menor20":35,"pct_60mas":15,"pct_migrante":55,"dependencia_econ":43,"pct_empleados":36,"pct_cuentapropia":43,"pct_agricultura":36,"pct_comercio":14,"pct_manufactura":0,"pct_construccion":0,"pct_transporte":0,"pct_alojamiento":29,"pct_sin_educacion":0,"pct_educ_superior":14,"brecha_educ":-14,"pct_sin_seguro":5,"pct_sus":95,"pct_seguro_privado":0,"brecha_seguro":11,"pct_salud_publica":34,"pct_med_tradicional":4,"pct_automedicacion":23,"pct_remedios_caseros":16,"pct_viv_desocupada":0,"pct_alquiler":44,"pct_electricidad":100,"pct_sin_electricidad":0,"pct_agua_red":89,"pct_alcantarillado":0,"pct_camara_septica":22,"pct_pozo_ciego":78,"pct_sin_desague":0,"pct_gas_red":11,"pct_gas_garrafa":78,"pct_lena_guano":78,"pct_basura_formal":0,"pct_basura_quema":100,"pct_basura_informal":0,"pct_internet":89,"pct_celular":89,"pct_televisor":67}},{"type":"Feature","geometry":{"type":"Polygon","coordinates":[[[-63.87163,-15.24412],[-63.87095,-15.24346],[-63.87032,-15.24416],[-63.871,-15.24482],[-63.87163,-15.24412]]]},"properties":{"n":"PUENTE SAN PABLO","p":26,"personas_x_ha":24,"masculinidad":100,"pct_menor20":42,"pct_60mas":12,"pct_migrante":81,"dependencia_econ":333,"pct_empleados":0,"pct_cuentapropia":100,"pct_agricultura":67,"pct_comercio":33,"pct_manufactura":0,"pct_construccion":0,"pct_transporte":0,"pct_alojamiento":0,"pct_sin_educacion":7,"pct_educ_superior":0,"brecha_educ":-11,"pct_sin_seguro":44,"pct_sus":56,"pct_seguro_privado":0,"brecha_seguro":-12,"pct_salud_publica":31,"pct_med_tradicional":9,"pct_automedicacion":20,"pct_remedios_caseros":16,"pct_viv_desocupada":0,"pct_alquiler":12,"pct_electricidad":100,"pct_sin_electricidad":0,"pct_agua_red":100,"pct_alcantarillado":12,"pct_camara_septica":12,"pct_pozo_ciego":62,"pct_sin_desague":0,"pct_gas_red":0,"pct_gas_garrafa":88,"pct_lena_guano":88,"pct_basura_formal":12,"pct_basura_quema":88,"pct_basura_informal":0,"pct_internet":88,"pct_celular":88,"pct_televisor":88}},{"type":"Feature","geometry":{"type":"Polygon","coordinates":[[[-63.87018,-15.24729],[-63.86949,-15.24667],[-63.86888,-15.24737],[-63.86957,-15.24795],[-63.87018,-15.24729]]]},"properties":{"n":"PUENTE SAN PABLO","p":24,"personas_x_ha":24,"masculinidad":118,"pct_menor20":54,"pct_60mas":8,"pct_migrante":71,"dependencia_econ":140,"pct_empleados":10,"pct_cuentapropia":70,"pct_agricultura":30,"pct_comercio":20,"pct_manufactura":20,"pct_construccion":0,"pct_transporte":0,"pct_alojamiento":10,"pct_sin_educacion":0,"pct_educ_superior":27,"brecha_educ":-7,"pct_sin_seguro":5,"pct_sus":95,"pct_seguro_privado":0,"brecha_seguro":8,"pct_salud_publica":33,"pct_med_tradicional":12,"pct_automedicacion":18,"pct_remedios_caseros":18,"pct_viv_desocupada":0,"pct_alquiler":0,"pct_electricidad":100,"pct_sin_electricidad":0,"pct_agua_red":100,"pct_alcantarillado":0,"pct_camara_septica":0,"pct_pozo_ciego":67,"pct_sin_desague":17,"pct_gas_red":0,"pct_gas_garrafa":100,"pct_lena_guano":100,"pct_basura_formal":17,"pct_basura_quema":67,"pct_basura_informal":0,"pct_internet":83,"pct_celular":100,"pct_televisor":83}},{"type":"Feature","geometry":{"type":"Polygon","coordinates":[[[-63.86878,-15.24727],[-63.86808,-15.24666],[-63.86869,-15.24598],[-63.86937,-15.24659],[-63.86878,-15.24727]]]},"properties":{"n":"PUENTE SAN PABLO","p":25,"personas_x_ha":25,"masculinidad":79,"pct_menor20":40,"pct_60mas":12,"pct_migrante":56,"dependencia_econ":92,"pct_empleados":31,"pct_cuentapropia":69,"pct_agricultura":46,"pct_comercio":8,"pct_manufactura":0,"pct_construccion":8,"pct_transporte":0,"pct_alojamiento":15,"pct_sin_educacion":0,"pct_educ_superior":0,"brecha_educ":-17,"pct_sin_seguro":27,"pct_sus":73,"pct_seguro_privado":0,"brecha_seguro":23,"pct_salud_publica":38,"pct_med_tradicional":7,"pct_automedicacion":15,"pct_remedios_caseros":16,"pct_viv_desocupada":8,"pct_alquiler":11,"pct_electricidad":100,"pct_sin_electricidad":0,"pct_agua_red":100,"pct_alcantarillado":11,"pct_camara_septica":56,"pct_pozo_ciego":22,"pct_sin_desague":11,"pct_gas_red":0,"pct_gas_garrafa":100,"pct_lena_guano":100,"pct_basura_formal":0,"pct_basura_quema":78,"pct_basura_informal":22,"pct_internet":33,"pct_celular":56,"pct_televisor":56}},{"type":"Feature","geometry":{"type":"Polygon","coordinates":[[[-63.869,-15.24881],[-63.86971,-15.24941],[-63.8703,-15.24875],[-63.86961,-15.24815],[-63.869,-15.24881]]]},"properties":{"n":"PUENTE SAN PABLO","p":20,"personas_x_ha":20,"masculinidad":100,"pct_menor20":45,"pct_60mas":5,"pct_migrante":70,"dependencia_econ":82,"pct_empleados":18,"pct_cuentapropia":64,"pct_agricultura":45,"pct_comercio":9,"pct_manufactura":18,"pct_construccion":18,"pct_transporte":0,"pct_alojamiento":0,"pct_sin_educacion":8,"pct_educ_superior":17,"brecha_educ":0,"pct_sin_seguro":10,"pct_sus":90,"pct_seguro_privado":0,"brecha_seguro":20,"pct_salud_publica":61,"pct_med_tradicional":0,"pct_automedicacion":15,"pct_remedios_caseros":24,"pct_viv_desocupada":0,"pct_alquiler":0,"pct_electricidad":83,"pct_sin_electricidad":0,"pct_agua_red":100,"pct_alcantarillado":0,"pct_camara_septica":33,"pct_pozo_ciego":67,"pct_sin_desague":0,"pct_gas_red":0,"pct_gas_garrafa":83,"pct_lena_guano":83,"pct_basura_formal":0,"pct_basura_quema":83,"pct_basura_informal":0,"pct_internet":83,"pct_celular":83,"pct_televisor":83}},{"type":"Feature","geometry":{"type":"Polygon","coordinates":[[[-63.86701,-15.24042],[-63.86631,-15.23982],[-63.86569,-15.2405],[-63.8664,-15.2411],[-63.86701,-15.24042]]]},"properties":{"n":"PUENTE SAN PABLO","p":47,"personas_x_ha":46,"masculinidad":81,"pct_menor20":47,"pct_60mas":6,"pct_migrante":53,"dependencia_econ":159,"pct_empleados":24,"pct_cuentapropia":53,"pct_agricultura":59,"pct_comercio":18,"pct_manufactura":0,"pct_construccion":6,"pct_transporte":6,"pct_alojamiento":6,"pct_sin_educacion":0,"pct_educ_superior":0,"brecha_educ":-15,"pct_sin_seguro":11,"pct_sus":86,"pct_seguro_privado":0,"brecha_seguro":-13,"pct_salud_publica":50,"pct_med_tradicional":0,"pct_automedicacion":18,"pct_remedios_caseros":29,"pct_viv_desocupada":0,"pct_alquiler":0,"pct_electricidad":92,"pct_sin_electricidad":8,"pct_agua_red":42,"pct_alcantarillado":17,"pct_camara_septica":0,"pct_pozo_ciego":42,"pct_sin_desague":17,"pct_gas_red":0,"pct_gas_garrafa":100,"pct_lena_guano":100,"pct_basura_formal":0,"pct_basura_quema":100,"pct_basura_informal":0,"pct_internet":50,"pct_celular":75,"pct_televisor":67}},{"type":"Feature","geometry":{"type":"Polygon","coordinates":[[[-63.87266,-15.24937],[-63.87199,-15.24878],[-63.87139,-15.24947],[-63.87207,-15.25003],[-63.87266,-15.24937]]]},"properties":{"n":"PUENTE SAN PABLO","p":26,"personas_x_ha":27,"masculinidad":136,"pct_menor20":54,"pct_60mas":0,"pct_migrante":69,"dependencia_econ":136,"pct_empleados":27,"pct_cuentapropia":55,"pct_agricultura":36,"pct_comercio":27,"pct_manufactura":0,"pct_construccion":9,"pct_transporte":0,"pct_alojamiento":0,"pct_sin_educacion":0,"pct_educ_superior":42,"brecha_educ":-33,"pct_sin_seguro":8,"pct_sus":80,"pct_seguro_privado":0,"brecha_seguro":-3,"pct_salud_publica":39,"pct_med_tradicional":8,"pct_automedicacion":10,"pct_remedios_caseros":31,"pct_viv_desocupada":0,"pct_alquiler":12,"pct_electricidad":88,"pct_sin_electricidad":0,"pct_agua_red":88,"pct_alcantarillado":0,"pct_camara_septica":38,"pct_pozo_ciego":50,"pct_sin_desague":12,"pct_gas_red":0,"pct_gas_garrafa":100,"pct_lena_guano":100,"pct_basura_formal":12,"pct_basura_quema":75,"pct_basura_informal":25,"pct_internet":62,"pct_celular":100,"pct_televisor":88}},{"type":"Feature","geometry":{"type":"Polygon","coordinates":[[[-63.86339,-15.24287],[-63.86268,-15.24228],[-63.86209,-15.24297],[-63.86277,-15.24356],[-63.86339,-15.24287]]]},"properties":{"n":"PUENTE SAN PABLO","p":74,"personas_x_ha":74,"masculinidad":100,"pct_menor20":54,"pct_60mas":7,"pct_migrante":64,"dependencia_econ":265,"pct_empleados":35,"pct_cuentapropia":45,"pct_agricultura":35,"pct_comercio":0,"pct_manufactura":20,"pct_construccion":15,"pct_transporte":5,"pct_alojamiento":10,"pct_sin_educacion":3,"pct_educ_superior":9,"brecha_educ":4,"pct_sin_seguro":11,"pct_sus":78,"pct_seguro_privado":0,"brecha_seguro":12,"pct_salud_publica":49,"pct_med_tradicional":5,"pct_automedicacion":9,"pct_remedios_caseros":20,"pct_viv_desocupada":0,"pct_alquiler":20,"pct_electricidad":100,"pct_sin_electricidad":0,"pct_agua_red":93,"pct_alcantarillado":13,"pct_camara_septica":40,"pct_pozo_ciego":40,"pct_sin_desague":0,"pct_gas_red":0,"pct_gas_garrafa":87,"pct_lena_guano":87,"pct_basura_formal":7,"pct_basura_quema":93,"pct_basura_informal":0,"pct_internet":87,"pct_celular":87,"pct_televisor":80}},{"type":"Feature","geometry":{"type":"Polygon","coordinates":[[[-63.87362,-15.25155],[-63.87292,-15.25093],[-63.87231,-15.25161],[-63.87305,-15.2522],[-63.87362,-15.25155]]]},"properties":{"n":"PUENTE SAN PABLO","p":33,"personas_x_ha":33,"masculinidad":120,"pct_menor20":39,"pct_60mas":6,"pct_migrante":52,"dependencia_econ":106,"pct_empleados":62,"pct_cuentapropia":12,"pct_agricultura":56,"pct_comercio":25,"pct_manufactura":0,"pct_construccion":0,"pct_transporte":0,"pct_alojamiento":0,"pct_sin_educacion":10,"pct_educ_superior":15,"brecha_educ":15,"pct_sin_seguro":3,"pct_sus":97,"pct_seguro_privado":0,"brecha_seguro":-7,"pct_salud_publica":100,"pct_med_tradicional":0,"pct_automedicacion":0,"pct_remedios_caseros":0,"pct_viv_desocupada":0,"pct_alquiler":0,"pct_electricidad":75,"pct_sin_electricidad":12,"pct_agua_red":100,"pct_alcantarillado":88,"pct_camara_septica":12,"pct_pozo_ciego":0,"pct_sin_desague":0,"pct_gas_red":0,"pct_gas_garrafa":75,"pct_lena_guano":75,"pct_basura_formal":0,"pct_basura_quema":88,"pct_basura_informal":0,"pct_internet":0,"pct_celular":0,"pct_televisor":0}},{"type":"Feature","geometry":{"type":"Polygon","coordinates":[[[-63.87121,-15.24947],[-63.87044,-15.24882],[-63.86987,-15.24958],[-63.8706,-15.25018],[-63.87121,-15.24947]]]},"properties":{"n":"PUENTE SAN PABLO","p":27,"personas_x_ha":25,"masculinidad":108,"pct_menor20":33,"pct_60mas":33,"pct_migrante":93,"dependencia_econ":145,"pct_empleados":0,"pct_cuentapropia":91,"pct_agricultura":55,"pct_comercio":27,"pct_manufactura":0,"pct_construccion":0,"pct_transporte":0,"pct_alojamiento":9,"pct_sin_educacion":11,"pct_educ_superior":11,"brecha_educ":3,"pct_sin_seguro":33,"pct_sus":67,"pct_seguro_privado":0,"brecha_seguro":20,"pct_salud_publica":30,"pct_med_tradicional":20,"pct_automedicacion":15,"pct_remedios_caseros":24,"pct_viv_desocupada":0,"pct_alquiler":0,"pct_electricidad":100,"pct_sin_electricidad":0,"pct_agua_red":100,"pct_alcantarillado":14,"pct_camara_septica":0,"pct_pozo_ciego":86,"pct_sin_desague":0,"pct_gas_red":0,"pct_gas_garrafa":57,"pct_lena_guano":57,"pct_basura_formal":29,"pct_basura_quema":43,"pct_basura_informal":57,"pct_internet":14,"pct_celular":86,"pct_televisor":71}},{"type":"Feature","geometry":{"type":"Polygon","coordinates":[[[-64.66951,-15.02094],[-64.67,-15.01982],[-64.66924,-15.01983],[-64.66886,-15.02063],[-64.66951,-15.02094]]]},"properties":{"n":"SAN ANDRES","p":21,"personas_x_ha":23,"masculinidad":133,"pct_menor20":52,"pct_60mas":5,"pct_migrante":71,"dependencia_econ":162,"pct_empleados":38,"pct_cuentapropia":25,"pct_agricultura":88,"pct_comercio":12,"pct_manufactura":0,"pct_construccion":0,"pct_transporte":0,"pct_alojamiento":0,"pct_sin_educacion":0,"pct_educ_superior":0,"brecha_educ":-5,"pct_sin_seguro":0,"pct_sus":100,"pct_seguro_privado":0,"brecha_seguro":0,"pct_salud_publica":100,"pct_med_tradicional":0,"pct_automedicacion":0,"pct_remedios_caseros":0,"pct_viv_desocupada":0,"pct_alquiler":14,"pct_electricidad":86,"pct_sin_electricidad":14,"pct_agua_red":71,"pct_alcantarillado":0,"pct_camara_septica":14,"pct_pozo_ciego":86,"pct_sin_desague":0,"pct_gas_red":0,"pct_gas_garrafa":14,"pct_lena_guano":14,"pct_basura_formal":0,"pct_basura_quema":100,"pct_basura_informal":0,"pct_internet":0,"pct_celular":43,"pct_televisor":43}},{"type":"Feature","geometry":{"type":"Polygon","coordinates":[[[-64.71828,-15.0364],[-64.71775,-15.03592],[-64.71682,-15.03696],[-64.7173,-15.03738],[-64.71828,-15.0364]]]},"properties":{"n":"SAN LORENZO","p":34,"personas_x_ha":30,"masculinidad":112,"pct_menor20":38,"pct_60mas":9,"pct_migrante":74,"dependencia_econ":240,"pct_empleados":40,"pct_cuentapropia":10,"pct_agricultura":40,"pct_comercio":30,"pct_manufactura":0,"pct_construccion":0,"pct_transporte":0,"pct_alojamiento":0,"pct_sin_educacion":0,"pct_educ_superior":14,"brecha_educ":-5,"pct_sin_seguro":0,"pct_sus":97,"pct_seguro_privado":3,"brecha_seguro":0,"pct_salud_publica":40,"pct_med_tradicional":12,"pct_automedicacion":2,"pct_remedios_caseros":26,"pct_viv_desocupada":0,"pct_alquiler":10,"pct_electricidad":70,"pct_sin_electricidad":30,"pct_agua_red":60,"pct_alcantarillado":0,"pct_camara_septica":10,"pct_pozo_ciego":40,"pct_sin_desague":40,"pct_gas_red":0,"pct_gas_garrafa":20,"pct_lena_guano":20,"pct_basura_formal":0,"pct_basura_quema":80,"pct_basura_informal":0,"pct_internet":80,"pct_celular":80,"pct_televisor":40}},{"type":"Feature","geometry":{"type":"Polygon","coordinates":[[[-64.71771,-15.0358],[-64.7168,-15.03515],[-64.71731,-15.03437],[-64.71826,-15.03514],[-64.71771,-15.0358]]]},"properties":{"n":"SAN LORENZO","p":37,"personas_x_ha":29,"masculinidad":147,"pct_menor20":59,"pct_60mas":5,"pct_migrante":70,"dependencia_econ":270,"pct_empleados":30,"pct_cuentapropia":20,"pct_agricultura":50,"pct_comercio":10,"pct_manufactura":0,"pct_construccion":10,"pct_transporte":0,"pct_alojamiento":10,"pct_sin_educacion":6,"pct_educ_superior":6,"brecha_educ":-13,"pct_sin_seguro":0,"pct_sus":100,"pct_seguro_privado":0,"brecha_seguro":0,"pct_salud_publica":40,"pct_med_tradicional":2,"pct_automedicacion":5,"pct_remedios_caseros":30,"pct_viv_desocupada":0,"pct_alquiler":0,"pct_electricidad":11,"pct_sin_electricidad":78,"pct_agua_red":11,"pct_alcantarillado":11,"pct_camara_septica":0,"pct_pozo_ciego":0,"pct_sin_desague":89,"pct_gas_red":0,"pct_gas_garrafa":22,"pct_lena_guano":22,"pct_basura_formal":0,"pct_basura_quema":100,"pct_basura_informal":0,"pct_internet":67,"pct_celular":67,"pct_televisor":0}},{"type":"Feature","geometry":{"type":"Polygon","coordinates":[[[-64.24521,-15.10306],[-64.24568,-15.10298],[-64.24558,-15.10198],[-64.2451,-15.10205],[-64.24521,-15.10306]]]},"properties":{"n":"SANTA ROSA","p":30,"personas_x_ha":52,"masculinidad":173,"pct_menor20":33,"pct_60mas":13,"pct_migrante":60,"dependencia_econ":67,"pct_empleados":28,"pct_cuentapropia":56,"pct_agricultura":44,"pct_comercio":6,"pct_manufactura":11,"pct_construccion":0,"pct_transporte":0,"pct_alojamiento":22,"pct_sin_educacion":0,"pct_educ_superior":0,"brecha_educ":-12,"pct_sin_seguro":52,"pct_sus":48,"pct_seguro_privado":0,"brecha_seguro":3,"pct_salud_publica":40,"pct_med_tradicional":10,"pct_automedicacion":15,"pct_remedios_caseros":26,"pct_viv_desocupada":0,"pct_alquiler":0,"pct_electricidad":89,"pct_sin_electricidad":11,"pct_agua_red":56,"pct_alcantarillado":0,"pct_camara_septica":44,"pct_pozo_ciego":44,"pct_sin_desague":0,"pct_gas_red":0,"pct_gas_garrafa":67,"pct_lena_guano":67,"pct_basura_formal":0,"pct_basura_quema":100,"pct_basura_informal":0,"pct_internet":78,"pct_celular":100,"pct_televisor":78}},{"type":"Feature","geometry":{"type":"Polygon","coordinates":[[[-64.24535,-15.10415],[-64.24522,-15.10318],[-64.24567,-15.1031],[-64.24579,-15.10409],[-64.24535,-15.10415]]]},"properties":{"n":"SANTA ROSA","p":36,"personas_x_ha":65,"masculinidad":157,"pct_menor20":58,"pct_60mas":8,"pct_migrante":67,"dependencia_econ":620,"pct_empleados":0,"pct_cuentapropia":0,"pct_agricultura":60,"pct_comercio":0,"pct_manufactura":0,"pct_construccion":0,"pct_transporte":0,"pct_alojamiento":0,"pct_sin_educacion":0,"pct_educ_superior":0,"brecha_educ":20,"pct_sin_seguro":54,"pct_sus":29,"pct_seguro_privado":17,"brecha_seguro":37,"pct_salud_publica":67,"pct_med_tradicional":0,"pct_automedicacion":0,"pct_remedios_caseros":20,"pct_viv_desocupada":0,"pct_alquiler":12,"pct_electricidad":88,"pct_sin_electricidad":12,"pct_agua_red":62,"pct_alcantarillado":12,"pct_camara_septica":12,"pct_pozo_ciego":50,"pct_sin_desague":25,"pct_gas_red":0,"pct_gas_garrafa":75,"pct_lena_guano":75,"pct_basura_formal":0,"pct_basura_quema":100,"pct_basura_informal":0,"pct_internet":50,"pct_celular":62,"pct_televisor":50}},{"type":"Feature","geometry":{"type":"Polygon","coordinates":[[[-64.24348,-15.10159],[-64.24484,-15.10145],[-64.24505,-15.10307],[-64.24346,-15.10329],[-64.24348,-15.10159]]]},"properties":{"n":"SANTA ROSA","p":55,"personas_x_ha":18,"masculinidad":96,"pct_menor20":53,"pct_60mas":9,"pct_migrante":76,"dependencia_econ":150,"pct_empleados":23,"pct_cuentapropia":50,"pct_agricultura":45,"pct_comercio":14,"pct_manufactura":9,"pct_construccion":5,"pct_transporte":9,"pct_alojamiento":5,"pct_sin_educacion":4,"pct_educ_superior":4,"brecha_educ":30,"pct_sin_seguro":7,"pct_sus":93,"pct_seguro_privado":0,"brecha_seguro":8,"pct_salud_publica":43,"pct_med_tradicional":6,"pct_automedicacion":10,"pct_remedios_caseros":38,"pct_viv_desocupada":0,"pct_alquiler":0,"pct_electricidad":75,"pct_sin_electricidad":8,"pct_agua_red":75,"pct_alcantarillado":0,"pct_camara_septica":25,"pct_pozo_ciego":75,"pct_sin_desague":0,"pct_gas_red":0,"pct_gas_garrafa":75,"pct_lena_guano":75,"pct_basura_formal":0,"pct_basura_quema":92,"pct_basura_informal":17,"pct_internet":67,"pct_celular":75,"pct_televisor":42}},{"type":"Feature","geometry":{"type":"Polygon","coordinates":[[[-64.24585,-15.10526],[-64.24601,-15.10652],[-64.24458,-15.10658],[-64.24452,-15.1054],[-64.24585,-15.10526]]]},"properties":{"n":"SANTA ROSA","p":20,"personas_x_ha":10,"masculinidad":67,"pct_menor20":35,"pct_60mas":5,"pct_migrante":65,"dependencia_econ":82,"pct_empleados":64,"pct_cuentapropia":18,"pct_agricultura":27,"pct_comercio":0,"pct_manufactura":9,"pct_construccion":0,"pct_transporte":0,"pct_alojamiento":0,"pct_sin_educacion":0,"pct_educ_superior":36,"brecha_educ":-8,"pct_sin_seguro":22,"pct_sus":78,"pct_seguro_privado":0,"brecha_seguro":17,"pct_salud_publica":41,"pct_med_tradicional":0,"pct_automedicacion":3,"pct_remedios_caseros":43,"pct_viv_desocupada":0,"pct_alquiler":0,"pct_electricidad":88,"pct_sin_electricidad":12,"pct_agua_red":25,"pct_alcantarillado":0,"pct_camara_septica":0,"pct_pozo_ciego":100,"pct_sin_desague":0,"pct_gas_red":0,"pct_gas_garrafa":38,"pct_lena_guano":38,"pct_basura_formal":0,"pct_basura_quema":100,"pct_basura_informal":0,"pct_internet":50,"pct_celular":100,"pct_televisor":50}},{"type":"Feature","geometry":{"type":"Polygon","coordinates":[[[-64.24439,-15.10531],[-64.2443,-15.10442],[-64.24345,-15.1045],[-64.24355,-15.10541],[-64.24439,-15.10531]]]},"properties":{"n":"SANTA ROSA","p":34,"personas_x_ha":37,"masculinidad":62,"pct_menor20":53,"pct_60mas":9,"pct_migrante":44,"dependencia_econ":120,"pct_empleados":40,"pct_cuentapropia":20,"pct_agricultura":33,"pct_comercio":13,"pct_manufactura":0,"pct_construccion":7,"pct_transporte":0,"pct_alojamiento":7,"pct_sin_educacion":0,"pct_educ_superior":41,"brecha_educ":-11,"pct_sin_seguro":3,"pct_sus":67,"pct_seguro_privado":3,"brecha_seguro":-5,"pct_salud_publica":39,"pct_med_tradicional":12,"pct_automedicacion":5,"pct_remedios_caseros":23,"pct_viv_desocupada":8,"pct_alquiler":0,"pct_electricidad":100,"pct_sin_electricidad":0,"pct_agua_red":78,"pct_alcantarillado":11,"pct_camara_septica":56,"pct_pozo_ciego":22,"pct_sin_desague":0,"pct_gas_red":0,"pct_gas_garrafa":100,"pct_lena_guano":100,"pct_basura_formal":0,"pct_basura_quema":100,"pct_basura_informal":0,"pct_internet":44,"pct_celular":67,"pct_televisor":78}},{"type":"Feature","geometry":{"type":"Polygon","coordinates":[[[-64.2448,-15.10091],[-64.24469,-15.10008],[-64.24345,-15.10017],[-64.24344,-15.10101],[-64.2448,-15.10091]]]},"properties":{"n":"SANTA ROSA","p":20,"personas_x_ha":15,"masculinidad":67,"pct_menor20":40,"pct_60mas":0,"pct_migrante":25,"dependencia_econ":90,"pct_empleados":20,"pct_cuentapropia":10,"pct_agricultura":70,"pct_comercio":0,"pct_manufactura":0,"pct_construccion":10,"pct_transporte":0,"pct_alojamiento":0,"pct_sin_educacion":9,"pct_educ_superior":9,"brecha_educ":3,"pct_sin_seguro":11,"pct_sus":78,"pct_seguro_privado":0,"brecha_seguro":25,"pct_salud_publica":38,"pct_med_tradicional":8,"pct_automedicacion":6,"pct_remedios_caseros":32,"pct_viv_desocupada":0,"pct_alquiler":0,"pct_electricidad":57,"pct_sin_electricidad":43,"pct_agua_red":71,"pct_alcantarillado":0,"pct_camara_septica":14,"pct_pozo_ciego":57,"pct_sin_desague":14,"pct_gas_red":0,"pct_gas_garrafa":57,"pct_lena_guano":57,"pct_basura_formal":0,"pct_basura_quema":86,"pct_basura_informal":0,"pct_internet":57,"pct_celular":71,"pct_televisor":29}},{"type":"Feature","geometry":{"type":"Polygon","coordinates":[[[-64.24349,-15.10651],[-64.24177,-15.10654],[-64.2417,-15.10164],[-64.24319,-15.10164],[-64.24331,-15.10441],[-64.24296,-15.10442],[-64.24266,-15.10422],[-64.24295,-15.10446],[-64.24331,-15.10445],[-64.24349,-15.10651]]]},"properties":{"n":"SANTA ROSA","p":36,"personas_x_ha":4,"masculinidad":100,"pct_menor20":42,"pct_60mas":19,"pct_migrante":47,"dependencia_econ":100,"pct_empleados":50,"pct_cuentapropia":28,"pct_agricultura":39,"pct_comercio":11,"pct_manufactura":11,"pct_construccion":11,"pct_transporte":11,"pct_alojamiento":0,"pct_sin_educacion":19,"pct_educ_superior":10,"brecha_educ":-19,"pct_sin_seguro":36,"pct_sus":50,"pct_seguro_privado":0,"brecha_seguro":50,"pct_salud_publica":44,"pct_med_tradicional":3,"pct_automedicacion":7,"pct_remedios_caseros":27,"pct_viv_desocupada":21,"pct_alquiler":9,"pct_electricidad":64,"pct_sin_electricidad":27,"pct_agua_red":36,"pct_alcantarillado":0,"pct_camara_septica":9,"pct_pozo_ciego":27,"pct_sin_desague":9,"pct_gas_red":0,"pct_gas_garrafa":55,"pct_lena_guano":55,"pct_basura_formal":0,"pct_basura_quema":91,"pct_basura_informal":0,"pct_internet":36,"pct_celular":73,"pct_televisor":36}},{"type":"Feature","geometry":{"type":"Polygon","coordinates":[[[-64.24457,-15.09794],[-64.24509,-15.09774],[-64.24497,-15.09646],[-64.24438,-15.09669],[-64.24457,-15.09794]]]},"properties":{"n":"SANTA ROSA","p":38,"personas_x_ha":41,"masculinidad":81,"pct_menor20":47,"pct_60mas":8,"pct_migrante":39,"dependencia_econ":169,"pct_empleados":38,"pct_cuentapropia":31,"pct_agricultura":62,"pct_comercio":15,"pct_manufactura":0,"pct_construccion":0,"pct_transporte":0,"pct_alojamiento":0,"pct_sin_educacion":0,"pct_educ_superior":0,"brecha_educ":-12,"pct_sin_seguro":65,"pct_sus":35,"pct_seguro_privado":0,"brecha_seguro":-4,"pct_salud_publica":90,"pct_med_tradicional":0,"pct_automedicacion":2,"pct_remedios_caseros":7,"pct_viv_desocupada":0,"pct_alquiler":0,"pct_electricidad":92,"pct_sin_electricidad":8,"pct_agua_red":46,"pct_alcantarillado":15,"pct_camara_septica":23,"pct_pozo_ciego":46,"pct_sin_desague":8,"pct_gas_red":0,"pct_gas_garrafa":77,"pct_lena_guano":77,"pct_basura_formal":0,"pct_basura_quema":100,"pct_basura_informal":0,"pct_internet":8,"pct_celular":54,"pct_televisor":69}},{"type":"Feature","geometry":{"type":"Polygon","coordinates":[[[-64.24345,-15.10002],[-64.24469,-15.09992],[-64.24461,-15.09909],[-64.24336,-15.09923],[-64.24339,-15.09997],[-64.24345,-15.10002]]]},"properties":{"n":"SANTA ROSA","p":33,"personas_x_ha":26,"masculinidad":136,"pct_menor20":55,"pct_60mas":9,"pct_migrante":12,"dependencia_econ":275,"pct_empleados":12,"pct_cuentapropia":38,"pct_agricultura":38,"pct_comercio":0,"pct_manufactura":0,"pct_construccion":25,"pct_transporte":0,"pct_alojamiento":0,"pct_sin_educacion":8,"pct_educ_superior":0,"brecha_educ":51,"pct_sin_seguro":4,"pct_sus":96,"pct_seguro_privado":0,"brecha_seguro":6,"pct_salud_publica":100,"pct_med_tradicional":0,"pct_automedicacion":0,"pct_remedios_caseros":0,"pct_viv_desocupada":0,"pct_alquiler":0,"pct_electricidad":71,"pct_sin_electricidad":29,"pct_agua_red":57,"pct_alcantarillado":14,"pct_camara_septica":14,"pct_pozo_ciego":57,"pct_sin_desague":14,"pct_gas_red":0,"pct_gas_garrafa":57,"pct_lena_guano":57,"pct_basura_formal":0,"pct_basura_quema":100,"pct_basura_informal":0,"pct_internet":14,"pct_celular":29,"pct_televisor":14}},{"type":"Feature","geometry":{"type":"Polygon","coordinates":[[[-64.24453,-15.10528],[-64.24445,-15.10445],[-64.24527,-15.10431],[-64.24544,-15.10518],[-64.24453,-15.10528]]]},"properties":{"n":"SANTA ROSA","p":26,"personas_x_ha":29,"masculinidad":160,"pct_menor20":54,"pct_60mas":4,"pct_migrante":58,"dependencia_econ":333,"pct_empleados":17,"pct_cuentapropia":33,"pct_agricultura":0,"pct_comercio":0,"pct_manufactura":0,"pct_construccion":17,"pct_transporte":0,"pct_alojamiento":0,"pct_sin_educacion":0,"pct_educ_superior":33,"brecha_educ":38,"pct_sin_seguro":0,"pct_sus":100,"pct_seguro_privado":0,"brecha_seguro":0,"pct_salud_publica":100,"pct_med_tradicional":0,"pct_automedicacion":0,"pct_remedios_caseros":0,"pct_viv_desocupada":0,"pct_alquiler":50,"pct_electricidad":83,"pct_sin_electricidad":17,"pct_agua_red":17,"pct_alcantarillado":67,"pct_camara_septica":17,"pct_pozo_ciego":17,"pct_sin_desague":0,"pct_gas_red":0,"pct_gas_garrafa":83,"pct_lena_guano":83,"pct_basura_formal":0,"pct_basura_quema":100,"pct_basura_informal":0,"pct_internet":33,"pct_celular":33,"pct_televisor":17}},{"type":"Feature","geometry":{"type":"Polygon","coordinates":[[[-64.41833,-14.94692],[-64.41826,-14.94682],[-64.41678,-14.94663],[-64.41659,-14.94816],[-64.41823,-14.94833],[-64.41833,-14.94692]]]},"properties":{"n":"VILLA BANZER","p":20,"personas_x_ha":7,"masculinidad":186,"pct_menor20":25,"pct_60mas":25,"pct_migrante":80,"dependencia_econ":33,"pct_empleados":33,"pct_cuentapropia":53,"pct_agricultura":47,"pct_comercio":13,"pct_manufactura":0,"pct_construccion":27,"pct_transporte":0,"pct_alojamiento":0,"pct_sin_educacion":7,"pct_educ_superior":0,"brecha_educ":11,"pct_sin_seguro":0,"pct_sus":95,"pct_seguro_privado":0,"brecha_seguro":0,"pct_salud_publica":85,"pct_med_tradicional":0,"pct_automedicacion":0,"pct_remedios_caseros":0,"pct_viv_desocupada":0,"pct_alquiler":0,"pct_electricidad":71,"pct_sin_electricidad":29,"pct_agua_red":14,"pct_alcantarillado":14,"pct_camara_septica":14,"pct_pozo_ciego":43,"pct_sin_desague":14,"pct_gas_red":0,"pct_gas_garrafa":29,"pct_lena_guano":29,"pct_basura_formal":0,"pct_basura_quema":86,"pct_basura_informal":0,"pct_internet":29,"pct_celular":86,"pct_televisor":43}}]}