{"type":"FeatureCollection","features":[{"type":"Feature","geometry":{"type":"Polygon","coordinates":[[[-64.76736,-20.68428],[-64.76759,-20.68363],[-64.76746,-20.68353],[-64.76707,-20.68372],[-64.76678,-20.68418],[-64.76688,-20.68436],[-64.7672,-20.68432],[-64.76706,-20.68409],[-64.76725,-20.68431],[-64.76736,-20.68428]]]},"properties":{"n":"CHILLAJARA","p":33,"personas_x_ha":73,"masculinidad":50,"pct_menor20":42,"pct_60mas":12,"pct_migrante":64,"dependencia_econ":164,"pct_empleados":64,"pct_cuentapropia":9,"pct_agricultura":27,"pct_comercio":0,"pct_manufactura":0,"pct_construccion":0,"pct_transporte":0,"pct_alojamiento":9,"pct_educ_superior":33,"brecha_educ":-50,"pct_sin_seguro":3,"pct_seguro_privado":0,"brecha_seguro":10,"pct_med_tradicional":12,"pct_automedicacion":21,"pct_remedios_caseros":25,"pct_viv_desocupada":0,"pct_alquiler":0,"pct_electricidad":100,"pct_agua_red":25,"pct_alcantarillado":25,"pct_gas_red":0,"pct_gas_garrafa":88,"pct_lena_guano":88,"pct_basura_formal":0,"pct_basura_quema":75,"pct_basura_informal":25,"pct_internet":100,"pct_celular":100,"pct_televisor":75}},{"type":"Feature","geometry":{"type":"Polygon","coordinates":[[[-64.76785,-20.68373],[-64.76782,-20.68397],[-64.76741,-20.68417],[-64.76742,-20.68428],[-64.76814,-20.68398],[-64.76806,-20.68382],[-64.76785,-20.68373]]]},"properties":{"n":"CHILLAJARA","p":21,"personas_x_ha":140,"masculinidad":133,"pct_menor20":43,"pct_60mas":5,"pct_migrante":24,"dependencia_econ":2000,"pct_empleados":100,"pct_cuentapropia":0,"pct_agricultura":0,"pct_comercio":0,"pct_manufactura":100,"pct_construccion":0,"pct_transporte":0,"pct_alojamiento":0,"pct_educ_superior":0,"brecha_educ":-31,"pct_sin_seguro":10,"pct_seguro_privado":0,"brecha_seguro":-22,"pct_med_tradicional":5,"pct_automedicacion":14,"pct_remedios_caseros":31,"pct_viv_desocupada":14,"pct_alquiler":0,"pct_electricidad":80,"pct_agua_red":20,"pct_alcantarillado":0,"pct_gas_red":0,"pct_gas_garrafa":20,"pct_lena_guano":20,"pct_basura_formal":0,"pct_basura_quema":60,"pct_basura_informal":80,"pct_internet":40,"pct_celular":80,"pct_televisor":60}},{"type":"Feature","geometry":{"type":"Polygon","coordinates":[[[-64.54227,-20.59991],[-64.54267,-20.59979],[-64.54244,-20.59894],[-64.54218,-20.59901],[-64.54207,-20.59871],[-64.54177,-20.59882],[-64.54189,-20.59916],[-64.54204,-20.59912],[-64.54227,-20.59991]]]},"properties":{"n":"HUAJLAYA","p":104,"personas_x_ha":184,"masculinidad":79,"pct_menor20":48,"pct_60mas":10,"pct_migrante":15,"dependencia_econ":168,"pct_empleados":21,"pct_cuentapropia":71,"pct_agricultura":68,"pct_comercio":0,"pct_manufactura":0,"pct_construccion":0,"pct_transporte":0,"pct_alojamiento":5,"pct_educ_superior":27,"brecha_educ":-5,"pct_sin_seguro":0,"pct_seguro_privado":0,"brecha_seguro":0,"pct_med_tradicional":7,"pct_automedicacion":23,"pct_remedios_caseros":25,"pct_viv_desocupada":0,"pct_alquiler":0,"pct_electricidad":6,"pct_agua_red":50,"pct_alcantarillado":22,"pct_gas_red":6,"pct_gas_garrafa":33,"pct_lena_guano":33,"pct_basura_formal":11,"pct_basura_quema":83,"pct_basura_informal":11,"pct_internet":56,"pct_celular":72,"pct_televisor":11}},{"type":"Feature","geometry":{"type":"Polygon","coordinates":[[[-64.54175,-20.59877],[-64.54205,-20.59867],[-64.54185,-20.59807],[-64.54156,-20.59816],[-64.54175,-20.59877]]]},"properties":{"n":"HUAJLAYA","p":25,"personas_x_ha":110,"masculinidad":79,"pct_menor20":48,"pct_60mas":8,"pct_migrante":12,"dependencia_econ":50,"pct_empleados":12,"pct_cuentapropia":56,"pct_agricultura":69,"pct_comercio":0,"pct_manufactura":0,"pct_construccion":0,"pct_transporte":0,"pct_alojamiento":0,"pct_educ_superior":21,"brecha_educ":12,"pct_sin_seguro":0,"pct_seguro_privado":0,"brecha_seguro":0,"pct_med_tradicional":0,"pct_automedicacion":14,"pct_remedios_caseros":42,"pct_viv_desocupada":17,"pct_alquiler":0,"pct_electricidad":0,"pct_agua_red":14,"pct_alcantarillado":0,"pct_gas_red":0,"pct_gas_garrafa":0,"pct_lena_guano":0,"pct_basura_formal":0,"pct_basura_quema":100,"pct_basura_informal":0,"pct_internet":29,"pct_celular":71,"pct_televisor":0}},{"type":"Feature","geometry":{"type":"Polygon","coordinates":[[[-64.54244,-20.59889],[-64.54223,-20.59838],[-64.54241,-20.59828],[-64.5426,-20.59885],[-64.54244,-20.59889]]]},"properties":{"n":"HUAJLAYA","p":16,"personas_x_ha":128,"masculinidad":60,"pct_menor20":31,"pct_60mas":6,"pct_migrante":19,"dependencia_econ":75,"pct_empleados":12,"pct_cuentapropia":88,"pct_agricultura":50,"pct_comercio":25,"pct_manufactura":0,"pct_construccion":0,"pct_transporte":0,"pct_alojamiento":0,"pct_educ_superior":9,"brecha_educ":7,"pct_sin_seguro":0,"pct_seguro_privado":0,"brecha_seguro":0,"pct_med_tradicional":0,"pct_automedicacion":21,"pct_remedios_caseros":36,"pct_viv_desocupada":0,"pct_alquiler":0,"pct_electricidad":0,"pct_agua_red":50,"pct_alcantarillado":25,"pct_gas_red":0,"pct_gas_garrafa":25,"pct_lena_guano":25,"pct_basura_formal":0,"pct_basura_quema":100,"pct_basura_informal":0,"pct_internet":25,"pct_celular":25,"pct_televisor":0}},{"type":"Feature","geometry":{"type":"Polygon","coordinates":[[[-64.86795,-20.78259],[-64.86761,-20.78245],[-64.8676,-20.7818],[-64.86727,-20.78111],[-64.86697,-20.77943],[-64.86759,-20.77933],[-64.86817,-20.78215],[-64.86795,-20.78259]]]},"properties":{"n":"INCAHUASI","p":166,"personas_x_ha":79,"masculinidad":95,"pct_menor20":32,"pct_60mas":13,"pct_migrante":28,"dependencia_econ":68,"pct_empleados":27,"pct_cuentapropia":64,"pct_agricultura":53,"pct_comercio":7,"pct_manufactura":4,"pct_construccion":2,"pct_transporte":9,"pct_alojamiento":4,"pct_educ_superior":27,"brecha_educ":-11,"pct_sin_seguro":12,"pct_seguro_privado":0,"brecha_seguro":-2,"pct_med_tradicional":16,"pct_automedicacion":19,"pct_remedios_caseros":24,"pct_viv_desocupada":0,"pct_alquiler":14,"pct_electricidad":92,"pct_agua_red":92,"pct_alcantarillado":86,"pct_gas_red":0,"pct_gas_garrafa":92,"pct_lena_guano":92,"pct_basura_formal":92,"pct_basura_quema":6,"pct_basura_informal":0,"pct_internet":81,"pct_celular":92,"pct_televisor":86}},{"type":"Feature","geometry":{"type":"Polygon","coordinates":[[[-64.86943,-20.77983],[-64.86913,-20.779],[-64.86867,-20.77915],[-64.86886,-20.77994],[-64.86943,-20.77983]]]},"properties":{"n":"INCAHUASI","p":28,"personas_x_ha":56,"masculinidad":133,"pct_menor20":14,"pct_60mas":18,"pct_migrante":11,"dependencia_econ":300,"pct_empleados":14,"pct_cuentapropia":71,"pct_agricultura":157,"pct_comercio":14,"pct_manufactura":0,"pct_construccion":0,"pct_transporte":0,"pct_alojamiento":0,"pct_educ_superior":17,"brecha_educ":-10,"pct_sin_seguro":0,"pct_seguro_privado":0,"brecha_seguro":0,"pct_med_tradicional":25,"pct_automedicacion":16,"pct_remedios_caseros":26,"pct_viv_desocupada":0,"pct_alquiler":0,"pct_electricidad":88,"pct_agua_red":88,"pct_alcantarillado":88,"pct_gas_red":0,"pct_gas_garrafa":88,"pct_lena_guano":88,"pct_basura_formal":88,"pct_basura_quema":12,"pct_basura_informal":0,"pct_internet":75,"pct_celular":88,"pct_televisor":50}},{"type":"Feature","geometry":{"type":"Polygon","coordinates":[[[-64.86489,-20.7775],[-64.86533,-20.77764],[-64.86512,-20.77829],[-64.86472,-20.77822],[-64.86489,-20.7775]]]},"properties":{"n":"INCAHUASI","p":32,"personas_x_ha":94,"masculinidad":113,"pct_menor20":34,"pct_60mas":22,"pct_migrante":50,"dependencia_econ":113,"pct_empleados":27,"pct_cuentapropia":60,"pct_agricultura":40,"pct_comercio":7,"pct_manufactura":0,"pct_construccion":40,"pct_transporte":0,"pct_alojamiento":0,"pct_educ_superior":9,"brecha_educ":-9,"pct_sin_seguro":6,"pct_seguro_privado":0,"brecha_seguro":-1,"pct_med_tradicional":17,"pct_automedicacion":28,"pct_remedios_caseros":28,"pct_viv_desocupada":0,"pct_alquiler":0,"pct_electricidad":88,"pct_agua_red":75,"pct_alcantarillado":38,"pct_gas_red":0,"pct_gas_garrafa":100,"pct_lena_guano":100,"pct_basura_formal":50,"pct_basura_quema":50,"pct_basura_informal":0,"pct_internet":50,"pct_celular":88,"pct_televisor":62}},{"type":"Feature","geometry":{"type":"Polygon","coordinates":[[[-64.86756,-20.77705],[-64.86739,-20.77723],[-64.86681,-20.77697],[-64.86694,-20.77668],[-64.86756,-20.77705]]]},"properties":{"n":"INCAHUASI","p":22,"personas_x_ha":95,"masculinidad":214,"pct_menor20":23,"pct_60mas":9,"pct_migrante":18,"dependencia_econ":90,"pct_empleados":10,"pct_cuentapropia":80,"pct_agricultura":30,"pct_comercio":20,"pct_manufactura":10,"pct_construccion":10,"pct_transporte":0,"pct_alojamiento":0,"pct_educ_superior":20,"brecha_educ":5,"pct_sin_seguro":0,"pct_seguro_privado":0,"brecha_seguro":0,"pct_med_tradicional":8,"pct_automedicacion":10,"pct_remedios_caseros":28,"pct_viv_desocupada":0,"pct_alquiler":38,"pct_electricidad":100,"pct_agua_red":75,"pct_alcantarillado":88,"pct_gas_red":0,"pct_gas_garrafa":88,"pct_lena_guano":88,"pct_basura_formal":100,"pct_basura_quema":0,"pct_basura_informal":0,"pct_internet":62,"pct_celular":75,"pct_televisor":62}},{"type":"Feature","geometry":{"type":"Polygon","coordinates":[[[-64.86933,-20.78077],[-64.86927,-20.78037],[-64.86892,-20.7804],[-64.86896,-20.78081],[-64.86933,-20.78077]]]},"properties":{"n":"INCAHUASI","p":44,"personas_x_ha":243,"masculinidad":132,"pct_menor20":7,"pct_60mas":11,"pct_migrante":27,"dependencia_econ":64,"pct_empleados":44,"pct_cuentapropia":52,"pct_agricultura":64,"pct_comercio":8,"pct_manufactura":4,"pct_construccion":16,"pct_transporte":0,"pct_alojamiento":4,"pct_educ_superior":18,"brecha_educ":13,"pct_sin_seguro":61,"pct_seguro_privado":0,"brecha_seguro":4,"pct_med_tradicional":0,"pct_automedicacion":29,"pct_remedios_caseros":29,"pct_viv_desocupada":0,"pct_alquiler":50,"pct_electricidad":75,"pct_agua_red":75,"pct_alcantarillado":58,"pct_gas_red":0,"pct_gas_garrafa":75,"pct_lena_guano":83,"pct_basura_formal":58,"pct_basura_quema":33,"pct_basura_informal":0,"pct_internet":50,"pct_celular":75,"pct_televisor":42}},{"type":"Feature","geometry":{"type":"Polygon","coordinates":[[[-64.86554,-20.78025],[-64.86553,-20.78009],[-64.86471,-20.78015],[-64.86473,-20.78045],[-64.86542,-20.7804],[-64.86554,-20.78025]]]},"properties":{"n":"INCAHUASI","p":58,"personas_x_ha":210,"masculinidad":142,"pct_menor20":38,"pct_60mas":10,"pct_migrante":9,"dependencia_econ":142,"pct_empleados":21,"pct_cuentapropia":79,"pct_agricultura":50,"pct_comercio":4,"pct_manufactura":0,"pct_construccion":21,"pct_transporte":0,"pct_alojamiento":0,"pct_educ_superior":24,"brecha_educ":-1,"pct_sin_seguro":3,"pct_seguro_privado":0,"brecha_seguro":-1,"pct_med_tradicional":11,"pct_automedicacion":23,"pct_remedios_caseros":29,"pct_viv_desocupada":0,"pct_alquiler":0,"pct_electricidad":86,"pct_agua_red":100,"pct_alcantarillado":100,"pct_gas_red":0,"pct_gas_garrafa":100,"pct_lena_guano":100,"pct_basura_formal":100,"pct_basura_quema":0,"pct_basura_informal":0,"pct_internet":57,"pct_celular":64,"pct_televisor":64}},{"type":"Feature","geometry":{"type":"Polygon","coordinates":[[[-64.86639,-20.77934],[-64.86618,-20.77919],[-64.86557,-20.77928],[-64.86556,-20.77962],[-64.86641,-20.77948],[-64.86639,-20.77934]]]},"properties":{"n":"INCAHUASI","p":20,"personas_x_ha":66,"masculinidad":67,"pct_menor20":25,"pct_60mas":5,"pct_migrante":5,"dependencia_econ":67,"pct_empleados":0,"pct_cuentapropia":75,"pct_agricultura":58,"pct_comercio":17,"pct_manufactura":0,"pct_construccion":0,"pct_transporte":0,"pct_alojamiento":0,"pct_educ_superior":20,"brecha_educ":18,"pct_sin_seguro":21,"pct_seguro_privado":0,"brecha_seguro":28,"pct_med_tradicional":18,"pct_automedicacion":20,"pct_remedios_caseros":22,"pct_viv_desocupada":22,"pct_alquiler":0,"pct_electricidad":83,"pct_agua_red":83,"pct_alcantarillado":67,"pct_gas_red":0,"pct_gas_garrafa":83,"pct_lena_guano":83,"pct_basura_formal":67,"pct_basura_quema":33,"pct_basura_informal":0,"pct_internet":67,"pct_celular":67,"pct_televisor":67}},{"type":"Feature","geometry":{"type":"Polygon","coordinates":[[[-64.86855,-20.77911],[-64.8684,-20.77869],[-64.86825,-20.77871],[-64.86828,-20.77913],[-64.86855,-20.77911]]]},"properties":{"n":"INCAHUASI","p":59,"personas_x_ha":532,"masculinidad":127,"pct_menor20":19,"pct_60mas":7,"pct_migrante":59,"dependencia_econ":119,"pct_empleados":4,"pct_cuentapropia":63,"pct_agricultura":70,"pct_comercio":4,"pct_manufactura":4,"pct_construccion":4,"pct_transporte":7,"pct_alojamiento":0,"pct_educ_superior":25,"brecha_educ":11,"pct_sin_seguro":40,"pct_seguro_privado":0,"brecha_seguro":-29,"pct_med_tradicional":19,"pct_automedicacion":22,"pct_remedios_caseros":26,"pct_viv_desocupada":0,"pct_alquiler":60,"pct_electricidad":100,"pct_agua_red":100,"pct_alcantarillado":100,"pct_gas_red":0,"pct_gas_garrafa":100,"pct_lena_guano":100,"pct_basura_formal":100,"pct_basura_quema":0,"pct_basura_informal":0,"pct_internet":87,"pct_celular":93,"pct_televisor":93}},{"type":"Feature","geometry":{"type":"Polygon","coordinates":[[[-64.86809,-20.77918],[-64.86795,-20.77849],[-64.86755,-20.77856],[-64.86769,-20.77926],[-64.86809,-20.77918]]]},"properties":{"n":"INCAHUASI","p":55,"personas_x_ha":161,"masculinidad":150,"pct_menor20":33,"pct_60mas":4,"pct_migrante":56,"dependencia_econ":53,"pct_empleados":36,"pct_cuentapropia":50,"pct_agricultura":39,"pct_comercio":33,"pct_manufactura":0,"pct_construccion":3,"pct_transporte":11,"pct_alojamiento":3,"pct_educ_superior":22,"brecha_educ":18,"pct_sin_seguro":9,"pct_seguro_privado":0,"brecha_seguro":-1,"pct_med_tradicional":8,"pct_automedicacion":27,"pct_remedios_caseros":29,"pct_viv_desocupada":0,"pct_alquiler":25,"pct_electricidad":100,"pct_agua_red":100,"pct_alcantarillado":100,"pct_gas_red":0,"pct_gas_garrafa":100,"pct_lena_guano":100,"pct_basura_formal":100,"pct_basura_quema":0,"pct_basura_informal":0,"pct_internet":100,"pct_celular":100,"pct_televisor":88}},{"type":"Feature","geometry":{"type":"Polygon","coordinates":[[[-64.86457,-20.77938],[-64.86457,-20.77908],[-64.86389,-20.77912],[-64.8639,-20.77942],[-64.86457,-20.77938]]]},"properties":{"n":"INCAHUASI","p":69,"personas_x_ha":295,"masculinidad":97,"pct_menor20":43,"pct_60mas":12,"pct_migrante":30,"dependencia_econ":146,"pct_empleados":61,"pct_cuentapropia":39,"pct_agricultura":46,"pct_comercio":18,"pct_manufactura":14,"pct_construccion":7,"pct_transporte":0,"pct_alojamiento":4,"pct_educ_superior":20,"brecha_educ":-10,"pct_sin_seguro":6,"pct_seguro_privado":0,"brecha_seguro":-6,"pct_med_tradicional":18,"pct_automedicacion":22,"pct_remedios_caseros":23,"pct_viv_desocupada":0,"pct_alquiler":15,"pct_electricidad":100,"pct_agua_red":100,"pct_alcantarillado":100,"pct_gas_red":0,"pct_gas_garrafa":100,"pct_lena_guano":100,"pct_basura_formal":92,"pct_basura_quema":8,"pct_basura_informal":0,"pct_internet":92,"pct_celular":100,"pct_televisor":77}},{"type":"Feature","geometry":{"type":"Polygon","coordinates":[[[-64.86672,-20.77698],[-64.86625,-20.77681],[-64.86588,-20.77774],[-64.8665,-20.77772],[-64.86672,-20.77698]]]},"properties":{"n":"INCAHUASI","p":30,"personas_x_ha":55,"masculinidad":88,"pct_menor20":20,"pct_60mas":27,"pct_migrante":23,"dependencia_econ":114,"pct_empleados":7,"pct_cuentapropia":79,"pct_agricultura":79,"pct_comercio":7,"pct_manufactura":7,"pct_construccion":0,"pct_transporte":7,"pct_alojamiento":0,"pct_educ_superior":17,"brecha_educ":3,"pct_sin_seguro":7,"pct_seguro_privado":0,"brecha_seguro":1,"pct_med_tradicional":6,"pct_automedicacion":12,"pct_remedios_caseros":16,"pct_viv_desocupada":0,"pct_alquiler":0,"pct_electricidad":90,"pct_agua_red":90,"pct_alcantarillado":90,"pct_gas_red":0,"pct_gas_garrafa":40,"pct_lena_guano":40,"pct_basura_formal":70,"pct_basura_quema":10,"pct_basura_informal":40,"pct_internet":30,"pct_celular":30,"pct_televisor":20}},{"type":"Feature","geometry":{"type":"Polygon","coordinates":[[[-64.86873,-20.78197],[-64.86856,-20.78183],[-64.86823,-20.7822],[-64.86776,-20.78326],[-64.86784,-20.7835],[-64.86773,-20.78365],[-64.86785,-20.78374],[-64.86853,-20.78371],[-64.86928,-20.7831],[-64.86968,-20.78244],[-64.86968,-20.7815],[-64.8698,-20.78126],[-64.86949,-20.78097],[-64.86927,-20.7813],[-64.86922,-20.78161],[-64.86916,-20.78161],[-64.86935,-20.7809],[-64.86898,-20.78086],[-64.86873,-20.78197]]]},"properties":{"n":"INCAHUASI","p":80,"personas_x_ha":22,"masculinidad":158,"pct_menor20":12,"pct_60mas":22,"pct_migrante":9,"dependencia_econ":61,"pct_empleados":49,"pct_cuentapropia":45,"pct_agricultura":33,"pct_comercio":14,"pct_manufactura":10,"pct_construccion":18,"pct_transporte":4,"pct_alojamiento":6,"pct_educ_superior":25,"brecha_educ":6,"pct_sin_seguro":3,"pct_seguro_privado":0,"brecha_seguro":4,"pct_med_tradicional":14,"pct_automedicacion":17,"pct_remedios_caseros":25,"pct_viv_desocupada":0,"pct_alquiler":10,"pct_electricidad":90,"pct_agua_red":60,"pct_alcantarillado":50,"pct_gas_red":0,"pct_gas_garrafa":70,"pct_lena_guano":70,"pct_basura_formal":40,"pct_basura_quema":30,"pct_basura_informal":40,"pct_internet":60,"pct_celular":80,"pct_televisor":90}},{"type":"Feature","geometry":{"type":"Polygon","coordinates":[[[-64.86887,-20.78041],[-64.86841,-20.78047],[-64.86851,-20.78128],[-64.86883,-20.78131],[-64.86891,-20.78087],[-64.86876,-20.78086],[-64.86892,-20.78085],[-64.86887,-20.78041]]]},"properties":{"n":"INCAHUASI","p":106,"personas_x_ha":256,"masculinidad":74,"pct_menor20":33,"pct_60mas":7,"pct_migrante":31,"dependencia_econ":142,"pct_empleados":58,"pct_cuentapropia":40,"pct_agricultura":7,"pct_comercio":14,"pct_manufactura":0,"pct_construccion":7,"pct_transporte":9,"pct_alojamiento":5,"pct_educ_superior":44,"brecha_educ":-17,"pct_sin_seguro":12,"pct_seguro_privado":0,"brecha_seguro":16,"pct_med_tradicional":11,"pct_automedicacion":20,"pct_remedios_caseros":24,"pct_viv_desocupada":0,"pct_alquiler":17,"pct_electricidad":100,"pct_agua_red":100,"pct_alcantarillado":74,"pct_gas_red":0,"pct_gas_garrafa":96,"pct_lena_guano":96,"pct_basura_formal":96,"pct_basura_quema":4,"pct_basura_informal":0,"pct_internet":78,"pct_celular":87,"pct_televisor":87}},{"type":"Feature","geometry":{"type":"Polygon","coordinates":[[[-64.86579,-20.77493],[-64.86574,-20.7745],[-64.86594,-20.77447],[-64.86601,-20.77508],[-64.86593,-20.77549],[-64.86572,-20.77543],[-64.86579,-20.77493]]]},"properties":{"n":"INCAHUASI","p":47,"personas_x_ha":189,"masculinidad":135,"pct_menor20":21,"pct_60mas":15,"pct_migrante":36,"dependencia_econ":96,"pct_empleados":17,"pct_cuentapropia":79,"pct_agricultura":92,"pct_comercio":4,"pct_manufactura":4,"pct_construccion":4,"pct_transporte":0,"pct_alojamiento":0,"pct_educ_superior":0,"brecha_educ":-19,"pct_sin_seguro":9,"pct_seguro_privado":0,"brecha_seguro":-3,"pct_med_tradicional":7,"pct_automedicacion":25,"pct_remedios_caseros":28,"pct_viv_desocupada":0,"pct_alquiler":0,"pct_electricidad":80,"pct_agua_red":80,"pct_alcantarillado":10,"pct_gas_red":0,"pct_gas_garrafa":90,"pct_lena_guano":90,"pct_basura_formal":30,"pct_basura_quema":70,"pct_basura_informal":0,"pct_internet":70,"pct_celular":90,"pct_televisor":30}},{"type":"Feature","geometry":{"type":"Polygon","coordinates":[[[-64.86717,-20.77598],[-64.86669,-20.77587],[-64.86629,-20.77673],[-64.86676,-20.77693],[-64.86717,-20.77598]]]},"properties":{"n":"INCAHUASI","p":26,"personas_x_ha":45,"masculinidad":100,"pct_menor20":38,"pct_60mas":12,"pct_migrante":50,"dependencia_econ":189,"pct_empleados":22,"pct_cuentapropia":67,"pct_agricultura":56,"pct_comercio":0,"pct_manufactura":11,"pct_construccion":11,"pct_transporte":0,"pct_alojamiento":0,"pct_educ_superior":6,"brecha_educ":-13,"pct_sin_seguro":4,"pct_seguro_privado":0,"brecha_seguro":8,"pct_med_tradicional":15,"pct_automedicacion":16,"pct_remedios_caseros":25,"pct_viv_desocupada":0,"pct_alquiler":0,"pct_electricidad":88,"pct_agua_red":50,"pct_alcantarillado":62,"pct_gas_red":0,"pct_gas_garrafa":88,"pct_lena_guano":88,"pct_basura_formal":88,"pct_basura_quema":0,"pct_basura_informal":0,"pct_internet":25,"pct_celular":62,"pct_televisor":50}},{"type":"Feature","geometry":{"type":"Polygon","coordinates":[[[-64.8654,-20.77758],[-64.86579,-20.77773],[-64.86621,-20.77673],[-64.86585,-20.77658],[-64.8654,-20.77758]]]},"properties":{"n":"INCAHUASI","p":31,"personas_x_ha":61,"masculinidad":94,"pct_menor20":35,"pct_60mas":16,"pct_migrante":16,"dependencia_econ":75,"pct_empleados":56,"pct_cuentapropia":31,"pct_agricultura":50,"pct_comercio":25,"pct_manufactura":0,"pct_construccion":19,"pct_transporte":0,"pct_alojamiento":0,"pct_educ_superior":18,"brecha_educ":32,"pct_sin_seguro":14,"pct_seguro_privado":0,"brecha_seguro":0,"pct_med_tradicional":20,"pct_automedicacion":16,"pct_remedios_caseros":24,"pct_viv_desocupada":0,"pct_alquiler":0,"pct_electricidad":82,"pct_agua_red":82,"pct_alcantarillado":73,"pct_gas_red":0,"pct_gas_garrafa":82,"pct_lena_guano":82,"pct_basura_formal":100,"pct_basura_quema":0,"pct_basura_informal":0,"pct_internet":45,"pct_celular":82,"pct_televisor":73}},{"type":"Feature","geometry":{"type":"Polygon","coordinates":[[[-64.86841,-20.77484],[-64.86821,-20.77481],[-64.86804,-20.77523],[-64.86764,-20.77509],[-64.86729,-20.77595],[-64.86793,-20.77613],[-64.86841,-20.77484]]]},"properties":{"n":"INCAHUASI","p":43,"personas_x_ha":55,"masculinidad":139,"pct_menor20":33,"pct_60mas":2,"pct_migrante":21,"dependencia_econ":68,"pct_empleados":18,"pct_cuentapropia":68,"pct_agricultura":55,"pct_comercio":5,"pct_manufactura":5,"pct_construccion":27,"pct_transporte":5,"pct_alojamiento":5,"pct_educ_superior":21,"brecha_educ":5,"pct_sin_seguro":24,"pct_seguro_privado":0,"brecha_seguro":7,"pct_med_tradicional":7,"pct_automedicacion":2,"pct_remedios_caseros":18,"pct_viv_desocupada":0,"pct_alquiler":14,"pct_electricidad":86,"pct_agua_red":93,"pct_alcantarillado":79,"pct_gas_red":0,"pct_gas_garrafa":79,"pct_lena_guano":79,"pct_basura_formal":86,"pct_basura_quema":0,"pct_basura_informal":0,"pct_internet":57,"pct_celular":86,"pct_televisor":71}},{"type":"Feature","geometry":{"type":"Polygon","coordinates":[[[-64.86787,-20.77727],[-64.86836,-20.77582],[-64.86891,-20.77523],[-64.8685,-20.77495],[-64.86773,-20.77722],[-64.86787,-20.77727]]]},"properties":{"n":"INCAHUASI","p":81,"personas_x_ha":137,"masculinidad":93,"pct_menor20":43,"pct_60mas":2,"pct_migrante":28,"dependencia_econ":122,"pct_empleados":36,"pct_cuentapropia":53,"pct_agricultura":36,"pct_comercio":17,"pct_manufactura":3,"pct_construccion":11,"pct_transporte":3,"pct_alojamiento":0,"pct_educ_superior":60,"brecha_educ":12,"pct_sin_seguro":1,"pct_seguro_privado":0,"brecha_seguro":3,"pct_med_tradicional":14,"pct_automedicacion":18,"pct_remedios_caseros":19,"pct_viv_desocupada":0,"pct_alquiler":22,"pct_electricidad":100,"pct_agua_red":100,"pct_alcantarillado":89,"pct_gas_red":0,"pct_gas_garrafa":100,"pct_lena_guano":100,"pct_basura_formal":100,"pct_basura_quema":0,"pct_basura_informal":0,"pct_internet":78,"pct_celular":89,"pct_televisor":72}},{"type":"Feature","geometry":{"type":"Polygon","coordinates":[[[-64.86511,-20.77746],[-64.86568,-20.77615],[-64.86548,-20.77607],[-64.8649,-20.77739],[-64.86511,-20.77746]]]},"properties":{"n":"INCAHUASI","p":54,"personas_x_ha":156,"masculinidad":100,"pct_menor20":39,"pct_60mas":9,"pct_migrante":26,"dependencia_econ":145,"pct_empleados":55,"pct_cuentapropia":41,"pct_agricultura":59,"pct_comercio":5,"pct_manufactura":0,"pct_construccion":18,"pct_transporte":0,"pct_alojamiento":9,"pct_educ_superior":14,"brecha_educ":3,"pct_sin_seguro":4,"pct_seguro_privado":0,"brecha_seguro":7,"pct_med_tradicional":13,"pct_automedicacion":21,"pct_remedios_caseros":28,"pct_viv_desocupada":0,"pct_alquiler":27,"pct_electricidad":80,"pct_agua_red":80,"pct_alcantarillado":67,"pct_gas_red":0,"pct_gas_garrafa":73,"pct_lena_guano":73,"pct_basura_formal":93,"pct_basura_quema":7,"pct_basura_informal":0,"pct_internet":87,"pct_celular":87,"pct_televisor":73}},{"type":"Feature","geometry":{"type":"Polygon","coordinates":[[[-64.86808,-20.7784],[-64.8675,-20.77849],[-64.86733,-20.77753],[-64.86737,-20.77739],[-64.8677,-20.77736],[-64.868,-20.77794],[-64.86808,-20.7784]]]},"properties":{"n":"INCAHUASI","p":82,"personas_x_ha":120,"masculinidad":67,"pct_menor20":26,"pct_60mas":7,"pct_migrante":33,"dependencia_econ":74,"pct_empleados":15,"pct_cuentapropia":79,"pct_agricultura":36,"pct_comercio":32,"pct_manufactura":2,"pct_construccion":9,"pct_transporte":0,"pct_alojamiento":6,"pct_educ_superior":25,"brecha_educ":-14,"pct_sin_seguro":17,"pct_seguro_privado":0,"brecha_seguro":12,"pct_med_tradicional":13,"pct_automedicacion":18,"pct_remedios_caseros":25,"pct_viv_desocupada":3,"pct_alquiler":25,"pct_electricidad":100,"pct_agua_red":96,"pct_alcantarillado":100,"pct_gas_red":0,"pct_gas_garrafa":96,"pct_lena_guano":96,"pct_basura_formal":100,"pct_basura_quema":0,"pct_basura_informal":0,"pct_internet":89,"pct_celular":96,"pct_televisor":82}},{"type":"Feature","geometry":{"type":"Polygon","coordinates":[[[-64.86592,-20.77558],[-64.86571,-20.7755],[-64.86554,-20.77603],[-64.8657,-20.77609],[-64.86592,-20.77558]]]},"properties":{"n":"INCAHUASI","p":26,"personas_x_ha":199,"masculinidad":86,"pct_menor20":27,"pct_60mas":27,"pct_migrante":65,"dependencia_econ":271,"pct_empleados":14,"pct_cuentapropia":57,"pct_agricultura":200,"pct_comercio":0,"pct_manufactura":0,"pct_construccion":0,"pct_transporte":0,"pct_alojamiento":0,"pct_educ_superior":0,"brecha_educ":-29,"pct_sin_seguro":42,"pct_seguro_privado":0,"brecha_seguro":30,"pct_med_tradicional":16,"pct_automedicacion":17,"pct_remedios_caseros":28,"pct_viv_desocupada":0,"pct_alquiler":25,"pct_electricidad":50,"pct_agua_red":88,"pct_alcantarillado":0,"pct_gas_red":0,"pct_gas_garrafa":75,"pct_lena_guano":75,"pct_basura_formal":100,"pct_basura_quema":0,"pct_basura_informal":0,"pct_internet":88,"pct_celular":88,"pct_televisor":38}},{"type":"Feature","geometry":{"type":"Polygon","coordinates":[[[-64.86635,-20.77524],[-64.86608,-20.77597],[-64.86647,-20.77614],[-64.86691,-20.77507],[-64.86635,-20.77503],[-64.86635,-20.77524]]]},"properties":{"n":"INCAHUASI","p":59,"personas_x_ha":109,"masculinidad":103,"pct_menor20":29,"pct_60mas":7,"pct_migrante":19,"dependencia_econ":64,"pct_empleados":36,"pct_cuentapropia":56,"pct_agricultura":56,"pct_comercio":8,"pct_manufactura":0,"pct_construccion":14,"pct_transporte":0,"pct_alojamiento":6,"pct_educ_superior":21,"brecha_educ":-4,"pct_sin_seguro":12,"pct_seguro_privado":0,"brecha_seguro":18,"pct_med_tradicional":3,"pct_automedicacion":11,"pct_remedios_caseros":9,"pct_viv_desocupada":0,"pct_alquiler":0,"pct_electricidad":95,"pct_agua_red":95,"pct_alcantarillado":84,"pct_gas_red":0,"pct_gas_garrafa":74,"pct_lena_guano":74,"pct_basura_formal":100,"pct_basura_quema":0,"pct_basura_informal":0,"pct_internet":68,"pct_celular":95,"pct_televisor":68}},{"type":"Feature","geometry":{"type":"Polygon","coordinates":[[[-64.86739,-20.77859],[-64.86699,-20.77866],[-64.867,-20.77937],[-64.86754,-20.77928],[-64.86739,-20.77859]]]},"properties":{"n":"INCAHUASI","p":109,"personas_x_ha":267,"masculinidad":118,"pct_menor20":32,"pct_60mas":2,"pct_migrante":27,"dependencia_econ":118,"pct_empleados":28,"pct_cuentapropia":66,"pct_agricultura":54,"pct_comercio":8,"pct_manufactura":0,"pct_construccion":2,"pct_transporte":8,"pct_alojamiento":10,"pct_educ_superior":36,"brecha_educ":11,"pct_sin_seguro":12,"pct_seguro_privado":0,"brecha_seguro":-8,"pct_med_tradicional":11,"pct_automedicacion":24,"pct_remedios_caseros":25,"pct_viv_desocupada":5,"pct_alquiler":26,"pct_electricidad":100,"pct_agua_red":100,"pct_alcantarillado":100,"pct_gas_red":0,"pct_gas_garrafa":100,"pct_lena_guano":100,"pct_basura_formal":100,"pct_basura_quema":0,"pct_basura_informal":0,"pct_internet":79,"pct_celular":79,"pct_televisor":79}},{"type":"Feature","geometry":{"type":"Polygon","coordinates":[[[-64.86549,-20.77887],[-64.86556,-20.77842],[-64.86471,-20.77829],[-64.86464,-20.77897],[-64.86549,-20.77887]]]},"properties":{"n":"INCAHUASI","p":17,"personas_x_ha":29,"masculinidad":70,"pct_menor20":12,"pct_60mas":18,"pct_migrante":35,"dependencia_econ":143,"pct_empleados":43,"pct_cuentapropia":57,"pct_agricultura":57,"pct_comercio":0,"pct_manufactura":14,"pct_construccion":14,"pct_transporte":0,"pct_alojamiento":0,"pct_educ_superior":6,"brecha_educ":17,"pct_sin_seguro":41,"pct_seguro_privado":0,"brecha_seguro":27,"pct_med_tradicional":17,"pct_automedicacion":27,"pct_remedios_caseros":28,"pct_viv_desocupada":0,"pct_alquiler":12,"pct_electricidad":62,"pct_agua_red":88,"pct_alcantarillado":38,"pct_gas_red":0,"pct_gas_garrafa":88,"pct_lena_guano":88,"pct_basura_formal":75,"pct_basura_quema":25,"pct_basura_informal":0,"pct_internet":62,"pct_celular":75,"pct_televisor":62}},{"type":"Feature","geometry":{"type":"Polygon","coordinates":[[[-64.86461,-20.77974],[-64.86392,-20.77981],[-64.86391,-20.77949],[-64.8646,-20.77944],[-64.86461,-20.77974]]]},"properties":{"n":"INCAHUASI","p":58,"personas_x_ha":235,"masculinidad":107,"pct_menor20":33,"pct_60mas":14,"pct_migrante":19,"dependencia_econ":93,"pct_empleados":40,"pct_cuentapropia":60,"pct_agricultura":57,"pct_comercio":20,"pct_manufactura":0,"pct_construccion":7,"pct_transporte":0,"pct_alojamiento":0,"pct_educ_superior":21,"brecha_educ":12,"pct_sin_seguro":2,"pct_seguro_privado":0,"brecha_seguro":3,"pct_med_tradicional":5,"pct_automedicacion":28,"pct_remedios_caseros":31,"pct_viv_desocupada":0,"pct_alquiler":8,"pct_electricidad":100,"pct_agua_red":100,"pct_alcantarillado":100,"pct_gas_red":0,"pct_gas_garrafa":100,"pct_lena_guano":100,"pct_basura_formal":100,"pct_basura_quema":0,"pct_basura_informal":0,"pct_internet":100,"pct_celular":100,"pct_televisor":92}},{"type":"Feature","geometry":{"type":"Polygon","coordinates":[[[-64.86808,-20.78122],[-64.86841,-20.78119],[-64.86832,-20.78045],[-64.86793,-20.78049],[-64.86808,-20.78122]]]},"properties":{"n":"INCAHUASI","p":50,"personas_x_ha":151,"masculinidad":85,"pct_menor20":22,"pct_60mas":12,"pct_migrante":28,"dependencia_econ":100,"pct_empleados":40,"pct_cuentapropia":60,"pct_agricultura":36,"pct_comercio":28,"pct_manufactura":4,"pct_construccion":0,"pct_transporte":20,"pct_alojamiento":0,"pct_educ_superior":42,"brecha_educ":-22,"pct_sin_seguro":6,"pct_seguro_privado":0,"brecha_seguro":5,"pct_med_tradicional":9,"pct_automedicacion":14,"pct_remedios_caseros":24,"pct_viv_desocupada":0,"pct_alquiler":21,"pct_electricidad":100,"pct_agua_red":100,"pct_alcantarillado":86,"pct_gas_red":0,"pct_gas_garrafa":93,"pct_lena_guano":93,"pct_basura_formal":100,"pct_basura_quema":0,"pct_basura_informal":0,"pct_internet":57,"pct_celular":71,"pct_televisor":64}},{"type":"Feature","geometry":{"type":"Polygon","coordinates":[[[-64.86733,-20.77686],[-64.86695,-20.77664],[-64.86703,-20.77647],[-64.86745,-20.77658],[-64.86707,-20.77642],[-64.86723,-20.776],[-64.86786,-20.77617],[-64.86764,-20.77693],[-64.86733,-20.77686]]]},"properties":{"n":"INCAHUASI","p":72,"personas_x_ha":122,"masculinidad":157,"pct_menor20":38,"pct_60mas":4,"pct_migrante":29,"dependencia_econ":100,"pct_empleados":33,"pct_cuentapropia":67,"pct_agricultura":25,"pct_comercio":31,"pct_manufactura":8,"pct_construccion":17,"pct_transporte":0,"pct_alojamiento":6,"pct_educ_superior":33,"brecha_educ":-12,"pct_sin_seguro":2,"pct_seguro_privado":0,"brecha_seguro":3,"pct_med_tradicional":2,"pct_automedicacion":3,"pct_remedios_caseros":15,"pct_viv_desocupada":0,"pct_alquiler":0,"pct_electricidad":90,"pct_agua_red":80,"pct_alcantarillado":90,"pct_gas_red":0,"pct_gas_garrafa":90,"pct_lena_guano":90,"pct_basura_formal":100,"pct_basura_quema":0,"pct_basura_informal":0,"pct_internet":60,"pct_celular":90,"pct_televisor":90}},{"type":"Feature","geometry":{"type":"Polygon","coordinates":[[[-64.86712,-20.77749],[-64.86733,-20.77728],[-64.86681,-20.77702],[-64.86661,-20.77767],[-64.86693,-20.77762],[-64.8671,-20.77751],[-64.86691,-20.77741],[-64.86712,-20.77749]]]},"properties":{"n":"INCAHUASI","p":83,"personas_x_ha":283,"masculinidad":89,"pct_menor20":22,"pct_60mas":22,"pct_migrante":14,"dependencia_econ":90,"pct_empleados":19,"pct_cuentapropia":74,"pct_agricultura":48,"pct_comercio":14,"pct_manufactura":12,"pct_construccion":14,"pct_transporte":14,"pct_alojamiento":0,"pct_educ_superior":16,"brecha_educ":-10,"pct_sin_seguro":14,"pct_seguro_privado":0,"brecha_seguro":4,"pct_med_tradicional":16,"pct_automedicacion":19,"pct_remedios_caseros":28,"pct_viv_desocupada":0,"pct_alquiler":0,"pct_electricidad":80,"pct_agua_red":80,"pct_alcantarillado":47,"pct_gas_red":0,"pct_gas_garrafa":67,"pct_lena_guano":67,"pct_basura_formal":47,"pct_basura_quema":40,"pct_basura_informal":0,"pct_internet":60,"pct_celular":73,"pct_televisor":47}},{"type":"Feature","geometry":{"type":"Polygon","coordinates":[[[-64.86829,-20.7804],[-64.86824,-20.78001],[-64.86805,-20.78005],[-64.8679,-20.77929],[-64.86769,-20.77931],[-64.86789,-20.78043],[-64.86829,-20.7804]]]},"properties":{"n":"INCAHUASI","p":88,"personas_x_ha":243,"masculinidad":57,"pct_menor20":30,"pct_60mas":6,"pct_migrante":44,"dependencia_econ":89,"pct_empleados":57,"pct_cuentapropia":43,"pct_agricultura":35,"pct_comercio":9,"pct_manufactura":13,"pct_construccion":2,"pct_transporte":11,"pct_alojamiento":7,"pct_educ_superior":39,"brecha_educ":-17,"pct_sin_seguro":20,"pct_seguro_privado":1,"brecha_seguro":0,"pct_med_tradicional":8,"pct_automedicacion":24,"pct_remedios_caseros":24,"pct_viv_desocupada":25,"pct_alquiler":17,"pct_electricidad":100,"pct_agua_red":100,"pct_alcantarillado":100,"pct_gas_red":0,"pct_gas_garrafa":100,"pct_lena_guano":100,"pct_basura_formal":100,"pct_basura_quema":0,"pct_basura_informal":0,"pct_internet":67,"pct_celular":83,"pct_televisor":75}},{"type":"Feature","geometry":{"type":"Polygon","coordinates":[[[-64.86548,-20.77925],[-64.86546,-20.77896],[-64.86466,-20.77904],[-64.86466,-20.77935],[-64.86548,-20.77925]]]},"properties":{"n":"INCAHUASI","p":52,"personas_x_ha":181,"masculinidad":86,"pct_menor20":33,"pct_60mas":13,"pct_migrante":38,"dependencia_econ":93,"pct_empleados":26,"pct_cuentapropia":48,"pct_agricultura":52,"pct_comercio":15,"pct_manufactura":0,"pct_construccion":11,"pct_transporte":0,"pct_alojamiento":0,"pct_educ_superior":23,"brecha_educ":10,"pct_sin_seguro":0,"pct_seguro_privado":0,"brecha_seguro":0,"pct_med_tradicional":18,"pct_automedicacion":25,"pct_remedios_caseros":26,"pct_viv_desocupada":0,"pct_alquiler":8,"pct_electricidad":62,"pct_agua_red":77,"pct_alcantarillado":62,"pct_gas_red":0,"pct_gas_garrafa":92,"pct_lena_guano":92,"pct_basura_formal":100,"pct_basura_quema":0,"pct_basura_informal":0,"pct_internet":92,"pct_celular":92,"pct_televisor":77}},{"type":"Feature","geometry":{"type":"Polygon","coordinates":[[[-64.86536,-20.77757],[-64.86515,-20.77748],[-64.86547,-20.77675],[-64.86568,-20.77682],[-64.86536,-20.77757]]]},"properties":{"n":"INCAHUASI","p":31,"personas_x_ha":149,"masculinidad":82,"pct_menor20":35,"pct_60mas":6,"pct_migrante":29,"dependencia_econ":94,"pct_empleados":44,"pct_cuentapropia":50,"pct_agricultura":62,"pct_comercio":6,"pct_manufactura":6,"pct_construccion":25,"pct_transporte":6,"pct_alojamiento":0,"pct_educ_superior":10,"brecha_educ":14,"pct_sin_seguro":13,"pct_seguro_privado":0,"brecha_seguro":4,"pct_med_tradicional":7,"pct_automedicacion":24,"pct_remedios_caseros":22,"pct_viv_desocupada":0,"pct_alquiler":12,"pct_electricidad":100,"pct_agua_red":100,"pct_alcantarillado":88,"pct_gas_red":0,"pct_gas_garrafa":100,"pct_lena_guano":100,"pct_basura_formal":100,"pct_basura_quema":0,"pct_basura_informal":0,"pct_internet":62,"pct_celular":75,"pct_televisor":62}},{"type":"Feature","geometry":{"type":"Polygon","coordinates":[[[-64.86468,-20.77973],[-64.86547,-20.77962],[-64.86545,-20.77931],[-64.86467,-20.77942],[-64.86468,-20.77973]]]},"properties":{"n":"INCAHUASI","p":109,"personas_x_ha":386,"masculinidad":70,"pct_menor20":28,"pct_60mas":14,"pct_migrante":10,"dependencia_econ":91,"pct_empleados":25,"pct_cuentapropia":70,"pct_agricultura":54,"pct_comercio":9,"pct_manufactura":7,"pct_construccion":4,"pct_transporte":4,"pct_alojamiento":0,"pct_educ_superior":17,"brecha_educ":-3,"pct_sin_seguro":3,"pct_seguro_privado":0,"brecha_seguro":-1,"pct_med_tradicional":14,"pct_automedicacion":18,"pct_remedios_caseros":29,"pct_viv_desocupada":0,"pct_alquiler":39,"pct_electricidad":100,"pct_agua_red":100,"pct_alcantarillado":100,"pct_gas_red":0,"pct_gas_garrafa":100,"pct_lena_guano":100,"pct_basura_formal":100,"pct_basura_quema":0,"pct_basura_informal":0,"pct_internet":100,"pct_celular":100,"pct_televisor":94}},{"type":"Feature","geometry":{"type":"Polygon","coordinates":[[[-64.86944,-20.77259],[-64.86823,-20.77298],[-64.86825,-20.77305],[-64.8689,-20.77352],[-64.86915,-20.773],[-64.86948,-20.77265],[-64.86944,-20.77259]]]},"properties":{"n":"INCAHUASI","p":22,"personas_x_ha":39,"masculinidad":175,"pct_menor20":36,"pct_60mas":9,"pct_migrante":14,"dependencia_econ":175,"pct_empleados":12,"pct_cuentapropia":75,"pct_agricultura":75,"pct_comercio":0,"pct_manufactura":0,"pct_construccion":0,"pct_transporte":0,"pct_alojamiento":0,"pct_educ_superior":7,"brecha_educ":-14,"pct_sin_seguro":0,"pct_seguro_privado":0,"brecha_seguro":0,"pct_med_tradicional":0,"pct_automedicacion":25,"pct_remedios_caseros":29,"pct_viv_desocupada":0,"pct_alquiler":14,"pct_electricidad":100,"pct_agua_red":86,"pct_alcantarillado":43,"pct_gas_red":0,"pct_gas_garrafa":86,"pct_lena_guano":86,"pct_basura_formal":100,"pct_basura_quema":0,"pct_basura_informal":0,"pct_internet":100,"pct_celular":100,"pct_televisor":86}},{"type":"Feature","geometry":{"type":"Polygon","coordinates":[[[-64.86385,-20.7798],[-64.86383,-20.7795],[-64.86328,-20.77951],[-64.86328,-20.77982],[-64.86385,-20.7798]]]},"properties":{"n":"INCAHUASI","p":32,"personas_x_ha":161,"masculinidad":113,"pct_menor20":44,"pct_60mas":12,"pct_migrante":19,"dependencia_econ":82,"pct_empleados":47,"pct_cuentapropia":6,"pct_agricultura":82,"pct_comercio":6,"pct_manufactura":0,"pct_construccion":0,"pct_transporte":0,"pct_alojamiento":0,"pct_educ_superior":17,"brecha_educ":30,"pct_sin_seguro":3,"pct_seguro_privado":0,"brecha_seguro":6,"pct_med_tradicional":18,"pct_automedicacion":21,"pct_remedios_caseros":25,"pct_viv_desocupada":0,"pct_alquiler":22,"pct_electricidad":100,"pct_agua_red":78,"pct_alcantarillado":89,"pct_gas_red":0,"pct_gas_garrafa":100,"pct_lena_guano":100,"pct_basura_formal":100,"pct_basura_quema":0,"pct_basura_informal":0,"pct_internet":78,"pct_celular":89,"pct_televisor":78}},{"type":"Feature","geometry":{"type":"Polygon","coordinates":[[[-64.86718,-20.77753],[-64.86724,-20.77755],[-64.86741,-20.7785],[-64.86704,-20.77858],[-64.86685,-20.77832],[-64.86682,-20.77792],[-64.86718,-20.77753]]]},"properties":{"n":"INCAHUASI","p":84,"personas_x_ha":182,"masculinidad":180,"pct_menor20":19,"pct_60mas":8,"pct_migrante":15,"dependencia_econ":102,"pct_empleados":41,"pct_cuentapropia":56,"pct_agricultura":56,"pct_comercio":15,"pct_manufactura":7,"pct_construccion":7,"pct_transporte":2,"pct_alojamiento":0,"pct_educ_superior":32,"brecha_educ":-6,"pct_sin_seguro":6,"pct_seguro_privado":0,"brecha_seguro":-1,"pct_med_tradicional":13,"pct_automedicacion":12,"pct_remedios_caseros":25,"pct_viv_desocupada":0,"pct_alquiler":23,"pct_electricidad":100,"pct_agua_red":91,"pct_alcantarillado":95,"pct_gas_red":0,"pct_gas_garrafa":100,"pct_lena_guano":100,"pct_basura_formal":100,"pct_basura_quema":0,"pct_basura_informal":0,"pct_internet":50,"pct_celular":64,"pct_televisor":73}},{"type":"Feature","geometry":{"type":"Polygon","coordinates":[[[-64.86824,-20.77999],[-64.86811,-20.77925],[-64.86795,-20.77928],[-64.86807,-20.78003],[-64.86824,-20.77999]]]},"properties":{"n":"INCAHUASI","p":31,"personas_x_ha":198,"masculinidad":121,"pct_menor20":23,"pct_60mas":23,"pct_migrante":45,"dependencia_econ":94,"pct_empleados":19,"pct_cuentapropia":81,"pct_agricultura":38,"pct_comercio":38,"pct_manufactura":0,"pct_construccion":0,"pct_transporte":0,"pct_alojamiento":12,"pct_educ_superior":32,"brecha_educ":36,"pct_sin_seguro":3,"pct_seguro_privado":0,"brecha_seguro":-7,"pct_med_tradicional":8,"pct_automedicacion":23,"pct_remedios_caseros":27,"pct_viv_desocupada":0,"pct_alquiler":0,"pct_electricidad":100,"pct_agua_red":100,"pct_alcantarillado":100,"pct_gas_red":0,"pct_gas_garrafa":100,"pct_lena_guano":100,"pct_basura_formal":100,"pct_basura_quema":0,"pct_basura_informal":0,"pct_internet":78,"pct_celular":100,"pct_televisor":89}},{"type":"Feature","geometry":{"type":"Polygon","coordinates":[[[-64.86626,-20.77544],[-64.86627,-20.7748],[-64.8662,-20.77461],[-64.86602,-20.77464],[-64.86607,-20.77496],[-64.86597,-20.77552],[-64.86618,-20.7756],[-64.86626,-20.77544]]]},"properties":{"n":"INCAHUASI","p":40,"personas_x_ha":158,"masculinidad":100,"pct_menor20":32,"pct_60mas":10,"pct_migrante":80,"dependencia_econ":300,"pct_empleados":0,"pct_cuentapropia":40,"pct_agricultura":70,"pct_comercio":0,"pct_manufactura":0,"pct_construccion":20,"pct_transporte":0,"pct_alojamiento":0,"pct_educ_superior":0,"brecha_educ":2,"pct_sin_seguro":8,"pct_seguro_privado":0,"brecha_seguro":-5,"pct_med_tradicional":25,"pct_automedicacion":26,"pct_remedios_caseros":26,"pct_viv_desocupada":0,"pct_alquiler":0,"pct_electricidad":62,"pct_agua_red":88,"pct_alcantarillado":38,"pct_gas_red":0,"pct_gas_garrafa":50,"pct_lena_guano":50,"pct_basura_formal":38,"pct_basura_quema":62,"pct_basura_informal":0,"pct_internet":50,"pct_celular":100,"pct_televisor":38}},{"type":"Feature","geometry":{"type":"Polygon","coordinates":[[[-64.86553,-20.78],[-64.86548,-20.7797],[-64.86466,-20.77982],[-64.86473,-20.78009],[-64.86553,-20.78]]]},"properties":{"n":"INCAHUASI","p":77,"personas_x_ha":254,"masculinidad":79,"pct_menor20":44,"pct_60mas":6,"pct_migrante":49,"dependencia_econ":92,"pct_empleados":38,"pct_cuentapropia":52,"pct_agricultura":38,"pct_comercio":8,"pct_manufactura":0,"pct_construccion":12,"pct_transporte":0,"pct_alojamiento":15,"pct_educ_superior":42,"brecha_educ":-17,"pct_sin_seguro":3,"pct_seguro_privado":0,"brecha_seguro":1,"pct_med_tradicional":8,"pct_automedicacion":24,"pct_remedios_caseros":28,"pct_viv_desocupada":0,"pct_alquiler":16,"pct_electricidad":89,"pct_agua_red":89,"pct_alcantarillado":84,"pct_gas_red":0,"pct_gas_garrafa":95,"pct_lena_guano":95,"pct_basura_formal":100,"pct_basura_quema":0,"pct_basura_informal":0,"pct_internet":79,"pct_celular":89,"pct_televisor":84}},{"type":"Feature","geometry":{"type":"Polygon","coordinates":[[[-64.8684,-20.78042],[-64.86887,-20.78036],[-64.86859,-20.77916],[-64.86828,-20.77921],[-64.8684,-20.78042]]]},"properties":{"n":"INCAHUASI","p":302,"personas_x_ha":512,"masculinidad":110,"pct_menor20":27,"pct_60mas":9,"pct_migrante":28,"dependencia_econ":82,"pct_empleados":24,"pct_cuentapropia":63,"pct_agricultura":47,"pct_comercio":17,"pct_manufactura":7,"pct_construccion":6,"pct_transporte":4,"pct_alojamiento":1,"pct_educ_superior":42,"brecha_educ":-6,"pct_sin_seguro":5,"pct_seguro_privado":0,"brecha_seguro":-1,"pct_med_tradicional":8,"pct_automedicacion":24,"pct_remedios_caseros":26,"pct_viv_desocupada":0,"pct_alquiler":26,"pct_electricidad":94,"pct_agua_red":92,"pct_alcantarillado":85,"pct_gas_red":0,"pct_gas_garrafa":95,"pct_lena_guano":95,"pct_basura_formal":85,"pct_basura_quema":9,"pct_basura_informal":6,"pct_internet":60,"pct_celular":78,"pct_televisor":69}},{"type":"Feature","geometry":{"type":"Polygon","coordinates":[[[-64.86901,-20.77866],[-64.86841,-20.77786],[-64.86813,-20.77757],[-64.8678,-20.77737],[-64.86863,-20.7791],[-64.86911,-20.77896],[-64.86901,-20.77866]]]},"properties":{"n":"INCAHUASI","p":126,"personas_x_ha":164,"masculinidad":88,"pct_menor20":30,"pct_60mas":10,"pct_migrante":21,"dependencia_econ":91,"pct_empleados":34,"pct_cuentapropia":58,"pct_agricultura":46,"pct_comercio":6,"pct_manufactura":2,"pct_construccion":3,"pct_transporte":9,"pct_alojamiento":0,"pct_educ_superior":39,"brecha_educ":0,"pct_sin_seguro":14,"pct_seguro_privado":0,"brecha_seguro":13,"pct_med_tradicional":17,"pct_automedicacion":18,"pct_remedios_caseros":28,"pct_viv_desocupada":0,"pct_alquiler":30,"pct_electricidad":97,"pct_agua_red":97,"pct_alcantarillado":80,"pct_gas_red":0,"pct_gas_garrafa":83,"pct_lena_guano":83,"pct_basura_formal":87,"pct_basura_quema":10,"pct_basura_informal":0,"pct_internet":73,"pct_celular":87,"pct_televisor":63}},{"type":"Feature","geometry":{"type":"Polygon","coordinates":[[[-64.86675,-20.77579],[-64.86719,-20.7759],[-64.86755,-20.77506],[-64.86736,-20.77499],[-64.86677,-20.77565],[-64.86675,-20.77579]]]},"properties":{"n":"INCAHUASI","p":32,"personas_x_ha":78,"masculinidad":113,"pct_menor20":44,"pct_60mas":3,"pct_migrante":69,"dependencia_econ":433,"pct_empleados":33,"pct_cuentapropia":67,"pct_agricultura":100,"pct_comercio":0,"pct_manufactura":0,"pct_construccion":0,"pct_transporte":0,"pct_alojamiento":0,"pct_educ_superior":0,"brecha_educ":1,"pct_sin_seguro":13,"pct_seguro_privado":0,"brecha_seguro":24,"pct_med_tradicional":1,"pct_automedicacion":24,"pct_remedios_caseros":35,"pct_viv_desocupada":0,"pct_alquiler":0,"pct_electricidad":88,"pct_agua_red":88,"pct_alcantarillado":100,"pct_gas_red":0,"pct_gas_garrafa":88,"pct_lena_guano":88,"pct_basura_formal":100,"pct_basura_quema":0,"pct_basura_informal":0,"pct_internet":62,"pct_celular":88,"pct_televisor":25}},{"type":"Feature","geometry":{"type":"Polygon","coordinates":[[[-64.86222,-20.71472],[-64.86178,-20.71453],[-64.86152,-20.71512],[-64.86176,-20.71537],[-64.86191,-20.71538],[-64.86222,-20.71472]]]},"properties":{"n":"JOLENCIA","p":28,"personas_x_ha":71,"masculinidad":56,"pct_menor20":32,"pct_60mas":11,"pct_migrante":21,"dependencia_econ":75,"pct_empleados":12,"pct_cuentapropia":81,"pct_agricultura":81,"pct_comercio":0,"pct_manufactura":0,"pct_construccion":6,"pct_transporte":0,"pct_alojamiento":0,"pct_educ_superior":5,"brecha_educ":-14,"pct_sin_seguro":0,"pct_seguro_privado":0,"brecha_seguro":0,"pct_med_tradicional":2,"pct_automedicacion":28,"pct_remedios_caseros":32,"pct_viv_desocupada":0,"pct_alquiler":12,"pct_electricidad":100,"pct_agua_red":100,"pct_alcantarillado":100,"pct_gas_red":0,"pct_gas_garrafa":100,"pct_lena_guano":100,"pct_basura_formal":100,"pct_basura_quema":0,"pct_basura_informal":0,"pct_internet":75,"pct_celular":75,"pct_televisor":75}},{"type":"Feature","geometry":{"type":"Polygon","coordinates":[[[-64.8639,-20.71634],[-64.86373,-20.71459],[-64.86344,-20.71448],[-64.86349,-20.71638],[-64.8639,-20.71634]]]},"properties":{"n":"JOLENCIA","p":59,"personas_x_ha":81,"masculinidad":119,"pct_menor20":36,"pct_60mas":12,"pct_migrante":20,"dependencia_econ":69,"pct_empleados":17,"pct_cuentapropia":69,"pct_agricultura":69,"pct_comercio":20,"pct_manufactura":3,"pct_construccion":3,"pct_transporte":0,"pct_alojamiento":0,"pct_educ_superior":16,"brecha_educ":7,"pct_sin_seguro":20,"pct_seguro_privado":0,"brecha_seguro":24,"pct_med_tradicional":16,"pct_automedicacion":20,"pct_remedios_caseros":23,"pct_viv_desocupada":0,"pct_alquiler":6,"pct_electricidad":100,"pct_agua_red":100,"pct_alcantarillado":81,"pct_gas_red":0,"pct_gas_garrafa":62,"pct_lena_guano":62,"pct_basura_formal":94,"pct_basura_quema":0,"pct_basura_informal":12,"pct_internet":56,"pct_celular":50,"pct_televisor":50}},{"type":"Feature","geometry":{"type":"Polygon","coordinates":[[[-64.86225,-20.71552],[-64.86256,-20.71486],[-64.86229,-20.71474],[-64.86198,-20.71543],[-64.86225,-20.71552]]]},"properties":{"n":"JOLENCIA","p":19,"personas_x_ha":77,"masculinidad":58,"pct_menor20":53,"pct_60mas":11,"pct_migrante":26,"dependencia_econ":217,"pct_empleados":50,"pct_cuentapropia":50,"pct_agricultura":50,"pct_comercio":0,"pct_manufactura":0,"pct_construccion":17,"pct_transporte":0,"pct_alojamiento":0,"pct_educ_superior":22,"brecha_educ":30,"pct_sin_seguro":5,"pct_seguro_privado":0,"brecha_seguro":14,"pct_med_tradicional":21,"pct_automedicacion":16,"pct_remedios_caseros":25,"pct_viv_desocupada":0,"pct_alquiler":0,"pct_electricidad":100,"pct_agua_red":20,"pct_alcantarillado":60,"pct_gas_red":0,"pct_gas_garrafa":100,"pct_lena_guano":100,"pct_basura_formal":100,"pct_basura_quema":0,"pct_basura_informal":0,"pct_internet":100,"pct_celular":100,"pct_televisor":60}},{"type":"Feature","geometry":{"type":"Polygon","coordinates":[[[-64.86245,-20.71442],[-64.86231,-20.71469],[-64.86283,-20.71489],[-64.86294,-20.71462],[-64.86245,-20.71442]]]},"properties":{"n":"JOLENCIA","p":30,"personas_x_ha":161,"masculinidad":88,"pct_menor20":43,"pct_60mas":7,"pct_migrante":10,"dependencia_econ":58,"pct_empleados":11,"pct_cuentapropia":79,"pct_agricultura":100,"pct_comercio":0,"pct_manufactura":0,"pct_construccion":0,"pct_transporte":5,"pct_alojamiento":0,"pct_educ_superior":12,"brecha_educ":-65,"pct_sin_seguro":0,"pct_seguro_privado":0,"brecha_seguro":0,"pct_med_tradicional":7,"pct_automedicacion":26,"pct_remedios_caseros":27,"pct_viv_desocupada":0,"pct_alquiler":0,"pct_electricidad":100,"pct_agua_red":100,"pct_alcantarillado":100,"pct_gas_red":0,"pct_gas_garrafa":100,"pct_lena_guano":100,"pct_basura_formal":100,"pct_basura_quema":0,"pct_basura_informal":0,"pct_internet":71,"pct_celular":71,"pct_televisor":43}}]}