{"type":"FeatureCollection","features":[{"type":"Feature","geometry":{"type":"Polygon","coordinates":[[[-64.31159,-19.62836],[-64.31117,-19.62812],[-64.31101,-19.62836],[-64.31145,-19.62859],[-64.31159,-19.62836]]]},"properties":{"n":"EL VILLAR","p":29,"personas_x_ha":183,"masculinidad":107,"pct_menor20":34,"pct_60mas":7,"pct_migrante":52,"dependencia_econ":71,"pct_empleados":35,"pct_cuentapropia":53,"pct_agricultura":0,"pct_comercio":12,"pct_manufactura":29,"pct_construccion":12,"pct_transporte":12,"pct_alojamiento":6,"pct_sin_educacion":11,"pct_educ_superior":37,"brecha_educ":-7,"pct_sin_seguro":38,"pct_sus":41,"pct_seguro_privado":0,"brecha_seguro":4,"pct_salud_publica":28,"pct_med_tradicional":18,"pct_automedicacion":19,"pct_remedios_caseros":15,"pct_viv_desocupada":0,"pct_alquiler":43,"pct_electricidad":100,"pct_sin_electricidad":0,"pct_agua_red":100,"pct_alcantarillado":100,"pct_camara_septica":0,"pct_pozo_ciego":0,"pct_sin_desague":0,"pct_gas_red":86,"pct_gas_garrafa":14,"pct_lena_guano":0,"pct_basura_formal":43,"pct_basura_quema":14,"pct_basura_informal":43,"pct_internet":71,"pct_celular":86,"pct_televisor":71}},{"type":"Feature","geometry":{"type":"Polygon","coordinates":[[[-64.30856,-19.62878],[-64.30913,-19.62926],[-64.30989,-19.62831],[-64.30972,-19.62807],[-64.30878,-19.62855],[-64.30856,-19.62878]]]},"properties":{"n":"EL VILLAR","p":50,"personas_x_ha":61,"masculinidad":92,"pct_menor20":28,"pct_60mas":12,"pct_migrante":86,"dependencia_econ":79,"pct_empleados":18,"pct_cuentapropia":36,"pct_agricultura":50,"pct_comercio":18,"pct_manufactura":0,"pct_construccion":4,"pct_transporte":4,"pct_alojamiento":0,"pct_sin_educacion":0,"pct_educ_superior":68,"brecha_educ":-1,"pct_sin_seguro":16,"pct_sus":64,"pct_seguro_privado":0,"brecha_seguro":1,"pct_salud_publica":27,"pct_med_tradicional":16,"pct_automedicacion":16,"pct_remedios_caseros":25,"pct_viv_desocupada":0,"pct_alquiler":18,"pct_electricidad":100,"pct_sin_electricidad":0,"pct_agua_red":91,"pct_alcantarillado":91,"pct_camara_septica":0,"pct_pozo_ciego":9,"pct_sin_desague":0,"pct_gas_red":36,"pct_gas_garrafa":64,"pct_lena_guano":0,"pct_basura_formal":100,"pct_basura_quema":0,"pct_basura_informal":0,"pct_internet":82,"pct_celular":100,"pct_televisor":64}},{"type":"Feature","geometry":{"type":"Polygon","coordinates":[[[-64.30992,-19.62923],[-64.30946,-19.629],[-64.30923,-19.62925],[-64.30974,-19.62955],[-64.30992,-19.62923]]]},"properties":{"n":"EL VILLAR","p":53,"personas_x_ha":227,"masculinidad":104,"pct_menor20":26,"pct_60mas":6,"pct_migrante":60,"dependencia_econ":51,"pct_empleados":31,"pct_cuentapropia":54,"pct_agricultura":20,"pct_comercio":11,"pct_manufactura":17,"pct_construccion":17,"pct_transporte":9,"pct_alojamiento":6,"pct_sin_educacion":5,"pct_educ_superior":46,"brecha_educ":-21,"pct_sin_seguro":23,"pct_sus":68,"pct_seguro_privado":0,"brecha_seguro":14,"pct_salud_publica":31,"pct_med_tradicional":13,"pct_automedicacion":21,"pct_remedios_caseros":27,"pct_viv_desocupada":0,"pct_alquiler":33,"pct_electricidad":100,"pct_sin_electricidad":0,"pct_agua_red":100,"pct_alcantarillado":100,"pct_camara_septica":0,"pct_pozo_ciego":0,"pct_sin_desague":0,"pct_gas_red":58,"pct_gas_garrafa":42,"pct_lena_guano":0,"pct_basura_formal":100,"pct_basura_quema":0,"pct_basura_informal":0,"pct_internet":75,"pct_celular":92,"pct_televisor":100}},{"type":"Feature","geometry":{"type":"Polygon","coordinates":[[[-64.30418,-19.63108],[-64.30312,-19.63149],[-64.30338,-19.63189],[-64.30376,-19.63167],[-64.30431,-19.6315],[-64.30418,-19.63108]]]},"properties":{"n":"EL VILLAR","p":28,"personas_x_ha":51,"masculinidad":47,"pct_menor20":21,"pct_60mas":14,"pct_migrante":18,"dependencia_econ":47,"pct_empleados":26,"pct_cuentapropia":58,"pct_agricultura":42,"pct_comercio":16,"pct_manufactura":0,"pct_construccion":11,"pct_transporte":0,"pct_alojamiento":5,"pct_sin_educacion":17,"pct_educ_superior":30,"brecha_educ":23,"pct_sin_seguro":4,"pct_sus":89,"pct_seguro_privado":4,"brecha_seguro":11,"pct_salud_publica":35,"pct_med_tradicional":17,"pct_automedicacion":19,"pct_remedios_caseros":22,"pct_viv_desocupada":0,"pct_alquiler":14,"pct_electricidad":100,"pct_sin_electricidad":0,"pct_agua_red":100,"pct_alcantarillado":86,"pct_camara_septica":0,"pct_pozo_ciego":14,"pct_sin_desague":0,"pct_gas_red":71,"pct_gas_garrafa":14,"pct_lena_guano":14,"pct_basura_formal":71,"pct_basura_quema":14,"pct_basura_informal":14,"pct_internet":100,"pct_celular":100,"pct_televisor":29}},{"type":"Feature","geometry":{"type":"Polygon","coordinates":[[[-64.30971,-19.62958],[-64.30921,-19.62929],[-64.309,-19.62954],[-64.30957,-19.6298],[-64.30971,-19.62958]]]},"properties":{"n":"EL VILLAR","p":22,"personas_x_ha":106,"masculinidad":69,"pct_menor20":41,"pct_60mas":14,"pct_migrante":59,"dependencia_econ":175,"pct_empleados":62,"pct_cuentapropia":25,"pct_agricultura":12,"pct_comercio":0,"pct_manufactura":0,"pct_construccion":0,"pct_transporte":0,"pct_alojamiento":12,"pct_sin_educacion":8,"pct_educ_superior":54,"brecha_educ":36,"pct_sin_seguro":27,"pct_sus":23,"pct_seguro_privado":0,"brecha_seguro":-9,"pct_salud_publica":20,"pct_med_tradicional":22,"pct_automedicacion":16,"pct_remedios_caseros":22,"pct_viv_desocupada":0,"pct_alquiler":43,"pct_electricidad":100,"pct_sin_electricidad":0,"pct_agua_red":100,"pct_alcantarillado":100,"pct_camara_septica":0,"pct_pozo_ciego":0,"pct_sin_desague":0,"pct_gas_red":43,"pct_gas_garrafa":57,"pct_lena_guano":0,"pct_basura_formal":100,"pct_basura_quema":0,"pct_basura_informal":0,"pct_internet":14,"pct_celular":86,"pct_televisor":57}},{"type":"Feature","geometry":{"type":"Polygon","coordinates":[[[-64.30678,-19.63116],[-64.30676,-19.63064],[-64.30627,-19.63087],[-64.30643,-19.63126],[-64.30678,-19.63116]]]},"properties":{"n":"EL VILLAR","p":20,"personas_x_ha":84,"masculinidad":82,"pct_menor20":35,"pct_60mas":15,"pct_migrante":50,"dependencia_econ":100,"pct_empleados":20,"pct_cuentapropia":50,"pct_agricultura":20,"pct_comercio":20,"pct_manufactura":0,"pct_construccion":20,"pct_transporte":0,"pct_alojamiento":10,"pct_sin_educacion":23,"pct_educ_superior":31,"brecha_educ":-50,"pct_sin_seguro":25,"pct_sus":55,"pct_seguro_privado":0,"brecha_seguro":-5,"pct_salud_publica":25,"pct_med_tradicional":13,"pct_automedicacion":21,"pct_remedios_caseros":21,"pct_viv_desocupada":0,"pct_alquiler":0,"pct_electricidad":100,"pct_sin_electricidad":0,"pct_agua_red":100,"pct_alcantarillado":75,"pct_camara_septica":12,"pct_pozo_ciego":0,"pct_sin_desague":12,"pct_gas_red":62,"pct_gas_garrafa":38,"pct_lena_guano":0,"pct_basura_formal":88,"pct_basura_quema":12,"pct_basura_informal":0,"pct_internet":62,"pct_celular":75,"pct_televisor":38}},{"type":"Feature","geometry":{"type":"Polygon","coordinates":[[[-64.30974,-19.62907],[-64.3095,-19.62896],[-64.30997,-19.62835],[-64.31007,-19.6284],[-64.30974,-19.62907]]]},"properties":{"n":"EL VILLAR","p":17,"personas_x_ha":88,"masculinidad":89,"pct_menor20":24,"pct_60mas":12,"pct_migrante":82,"dependencia_econ":70,"pct_empleados":60,"pct_cuentapropia":30,"pct_agricultura":10,"pct_comercio":0,"pct_manufactura":10,"pct_construccion":10,"pct_transporte":0,"pct_alojamiento":0,"pct_sin_educacion":0,"pct_educ_superior":77,"brecha_educ":17,"pct_sin_seguro":18,"pct_sus":24,"pct_seguro_privado":6,"brecha_seguro":14,"pct_salud_publica":16,"pct_med_tradicional":2,"pct_automedicacion":24,"pct_remedios_caseros":26,"pct_viv_desocupada":9,"pct_alquiler":50,"pct_electricidad":100,"pct_sin_electricidad":0,"pct_agua_red":100,"pct_alcantarillado":100,"pct_camara_septica":0,"pct_pozo_ciego":0,"pct_sin_desague":0,"pct_gas_red":50,"pct_gas_garrafa":33,"pct_lena_guano":0,"pct_basura_formal":100,"pct_basura_quema":0,"pct_basura_informal":0,"pct_internet":100,"pct_celular":100,"pct_televisor":67}},{"type":"Feature","geometry":{"type":"Polygon","coordinates":[[[-64.31227,-19.62957],[-64.31121,-19.62916],[-64.31067,-19.63028],[-64.31181,-19.63071],[-64.31227,-19.62957]]]},"properties":{"n":"EL VILLAR","p":100,"personas_x_ha":58,"masculinidad":75,"pct_menor20":32,"pct_60mas":10,"pct_migrante":46,"dependencia_econ":108,"pct_empleados":38,"pct_cuentapropia":33,"pct_agricultura":25,"pct_comercio":8,"pct_manufactura":8,"pct_construccion":2,"pct_transporte":6,"pct_alojamiento":0,"pct_sin_educacion":12,"pct_educ_superior":49,"brecha_educ":-9,"pct_sin_seguro":0,"pct_sus":75,"pct_seguro_privado":1,"brecha_seguro":0,"pct_salud_publica":28,"pct_med_tradicional":22,"pct_automedicacion":13,"pct_remedios_caseros":27,"pct_viv_desocupada":0,"pct_alquiler":25,"pct_electricidad":100,"pct_sin_electricidad":0,"pct_agua_red":89,"pct_alcantarillado":96,"pct_camara_septica":0,"pct_pozo_ciego":4,"pct_sin_desague":0,"pct_gas_red":54,"pct_gas_garrafa":43,"pct_lena_guano":4,"pct_basura_formal":100,"pct_basura_quema":0,"pct_basura_informal":0,"pct_internet":89,"pct_celular":86,"pct_televisor":82}},{"type":"Feature","geometry":{"type":"Polygon","coordinates":[[[-64.31021,-19.62978],[-64.31037,-19.62943],[-64.30995,-19.62924],[-64.30977,-19.62956],[-64.31021,-19.62978]]]},"properties":{"n":"EL VILLAR","p":35,"personas_x_ha":169,"masculinidad":52,"pct_menor20":26,"pct_60mas":17,"pct_migrante":54,"dependencia_econ":59,"pct_empleados":14,"pct_cuentapropia":86,"pct_agricultura":45,"pct_comercio":23,"pct_manufactura":5,"pct_construccion":5,"pct_transporte":0,"pct_alojamiento":0,"pct_sin_educacion":0,"pct_educ_superior":58,"brecha_educ":10,"pct_sin_seguro":3,"pct_sus":62,"pct_seguro_privado":3,"brecha_seguro":-5,"pct_salud_publica":25,"pct_med_tradicional":15,"pct_automedicacion":9,"pct_remedios_caseros":21,"pct_viv_desocupada":0,"pct_alquiler":31,"pct_electricidad":100,"pct_sin_electricidad":0,"pct_agua_red":100,"pct_alcantarillado":100,"pct_camara_septica":0,"pct_pozo_ciego":0,"pct_sin_desague":0,"pct_gas_red":69,"pct_gas_garrafa":31,"pct_lena_guano":0,"pct_basura_formal":100,"pct_basura_quema":0,"pct_basura_informal":0,"pct_internet":85,"pct_celular":92,"pct_televisor":62}},{"type":"Feature","geometry":{"type":"Polygon","coordinates":[[[-64.30333,-19.63191],[-64.30306,-19.63151],[-64.30204,-19.63212],[-64.30225,-19.63249],[-64.30235,-19.63249],[-64.30333,-19.63191]]]},"properties":{"n":"EL VILLAR","p":35,"personas_x_ha":52,"masculinidad":106,"pct_menor20":40,"pct_60mas":9,"pct_migrante":31,"dependencia_econ":169,"pct_empleados":23,"pct_cuentapropia":62,"pct_agricultura":54,"pct_comercio":0,"pct_manufactura":0,"pct_construccion":0,"pct_transporte":0,"pct_alojamiento":0,"pct_sin_educacion":14,"pct_educ_superior":43,"brecha_educ":-6,"pct_sin_seguro":3,"pct_sus":74,"pct_seguro_privado":0,"brecha_seguro":6,"pct_salud_publica":27,"pct_med_tradicional":12,"pct_automedicacion":16,"pct_remedios_caseros":31,"pct_viv_desocupada":12,"pct_alquiler":0,"pct_electricidad":86,"pct_sin_electricidad":14,"pct_agua_red":71,"pct_alcantarillado":86,"pct_camara_septica":0,"pct_pozo_ciego":0,"pct_sin_desague":14,"pct_gas_red":71,"pct_gas_garrafa":29,"pct_lena_guano":0,"pct_basura_formal":57,"pct_basura_quema":29,"pct_basura_informal":0,"pct_internet":43,"pct_celular":100,"pct_televisor":86}},{"type":"Feature","geometry":{"type":"Polygon","coordinates":[[[-64.3104,-19.62938],[-64.30978,-19.62909],[-64.3101,-19.62842],[-64.31076,-19.62869],[-64.3104,-19.62938]]]},"properties":{"n":"EL VILLAR","p":32,"personas_x_ha":52,"masculinidad":100,"pct_menor20":22,"pct_60mas":16,"pct_migrante":66,"dependencia_econ":60,"pct_empleados":40,"pct_cuentapropia":55,"pct_agricultura":5,"pct_comercio":30,"pct_manufactura":5,"pct_construccion":0,"pct_transporte":30,"pct_alojamiento":0,"pct_sin_educacion":0,"pct_educ_superior":44,"brecha_educ":-10,"pct_sin_seguro":27,"pct_sus":30,"pct_seguro_privado":0,"brecha_seguro":23,"pct_salud_publica":31,"pct_med_tradicional":7,"pct_automedicacion":12,"pct_remedios_caseros":29,"pct_viv_desocupada":5,"pct_alquiler":60,"pct_electricidad":100,"pct_sin_electricidad":0,"pct_agua_red":67,"pct_alcantarillado":73,"pct_camara_septica":0,"pct_pozo_ciego":0,"pct_sin_desague":27,"pct_gas_red":33,"pct_gas_garrafa":27,"pct_lena_guano":0,"pct_basura_formal":100,"pct_basura_quema":0,"pct_basura_informal":0,"pct_internet":100,"pct_celular":100,"pct_televisor":80}},{"type":"Feature","geometry":{"type":"Polygon","coordinates":[[[-64.31244,-19.62918],[-64.31177,-19.62879],[-64.31186,-19.62864],[-64.31159,-19.62842],[-64.31133,-19.6289],[-64.31237,-19.62932],[-64.31244,-19.62918]]]},"properties":{"n":"EL VILLAR","p":31,"personas_x_ha":82,"masculinidad":107,"pct_menor20":19,"pct_60mas":19,"pct_migrante":29,"dependencia_econ":48,"pct_empleados":48,"pct_cuentapropia":29,"pct_agricultura":10,"pct_comercio":24,"pct_manufactura":10,"pct_construccion":19,"pct_transporte":5,"pct_alojamiento":0,"pct_sin_educacion":16,"pct_educ_superior":36,"brecha_educ":-26,"pct_sin_seguro":0,"pct_sus":61,"pct_seguro_privado":0,"brecha_seguro":0,"pct_salud_publica":31,"pct_med_tradicional":8,"pct_automedicacion":21,"pct_remedios_caseros":21,"pct_viv_desocupada":0,"pct_alquiler":36,"pct_electricidad":100,"pct_sin_electricidad":0,"pct_agua_red":100,"pct_alcantarillado":86,"pct_camara_septica":0,"pct_pozo_ciego":0,"pct_sin_desague":14,"pct_gas_red":50,"pct_gas_garrafa":29,"pct_lena_guano":14,"pct_basura_formal":79,"pct_basura_quema":21,"pct_basura_informal":0,"pct_internet":57,"pct_celular":100,"pct_televisor":36}},{"type":"Feature","geometry":{"type":"Polygon","coordinates":[[[-64.31328,-19.63032],[-64.3135,-19.63002],[-64.31244,-19.62946],[-64.31202,-19.63045],[-64.31218,-19.63052],[-64.31328,-19.63032]]]},"properties":{"n":"EL VILLAR","p":34,"personas_x_ha":33,"masculinidad":55,"pct_menor20":29,"pct_60mas":3,"pct_migrante":68,"dependencia_econ":79,"pct_empleados":47,"pct_cuentapropia":26,"pct_agricultura":21,"pct_comercio":16,"pct_manufactura":0,"pct_construccion":21,"pct_transporte":0,"pct_alojamiento":0,"pct_sin_educacion":8,"pct_educ_superior":42,"brecha_educ":9,"pct_sin_seguro":15,"pct_sus":68,"pct_seguro_privado":3,"brecha_seguro":-23,"pct_salud_publica":23,"pct_med_tradicional":17,"pct_automedicacion":17,"pct_remedios_caseros":23,"pct_viv_desocupada":0,"pct_alquiler":17,"pct_electricidad":83,"pct_sin_electricidad":0,"pct_agua_red":83,"pct_alcantarillado":67,"pct_camara_septica":0,"pct_pozo_ciego":0,"pct_sin_desague":33,"pct_gas_red":50,"pct_gas_garrafa":17,"pct_lena_guano":33,"pct_basura_formal":100,"pct_basura_quema":0,"pct_basura_informal":0,"pct_internet":83,"pct_celular":100,"pct_televisor":50}},{"type":"Feature","geometry":{"type":"Polygon","coordinates":[[[-64.3044,-19.63134],[-64.30451,-19.6314],[-64.30615,-19.63082],[-64.30558,-19.62992],[-64.30436,-19.63051],[-64.3044,-19.63134]]]},"properties":{"n":"EL VILLAR","p":27,"personas_x_ha":15,"masculinidad":59,"pct_menor20":44,"pct_60mas":0,"pct_migrante":22,"dependencia_econ":350,"pct_empleados":83,"pct_cuentapropia":17,"pct_agricultura":17,"pct_comercio":17,"pct_manufactura":33,"pct_construccion":17,"pct_transporte":0,"pct_alojamiento":0,"pct_sin_educacion":7,"pct_educ_superior":27,"brecha_educ":-20,"pct_sin_seguro":7,"pct_sus":93,"pct_seguro_privado":0,"brecha_seguro":20,"pct_salud_publica":26,"pct_med_tradicional":22,"pct_automedicacion":25,"pct_remedios_caseros":26,"pct_viv_desocupada":0,"pct_alquiler":25,"pct_electricidad":100,"pct_sin_electricidad":0,"pct_agua_red":100,"pct_alcantarillado":88,"pct_camara_septica":0,"pct_pozo_ciego":0,"pct_sin_desague":12,"pct_gas_red":75,"pct_gas_garrafa":25,"pct_lena_guano":0,"pct_basura_formal":100,"pct_basura_quema":0,"pct_basura_informal":0,"pct_internet":88,"pct_celular":88,"pct_televisor":62}},{"type":"Feature","geometry":{"type":"Polygon","coordinates":[[[-64.30716,-19.62982],[-64.30854,-19.6288],[-64.30912,-19.62926],[-64.30888,-19.62955],[-64.30734,-19.63026],[-64.30716,-19.62982]]]},"properties":{"n":"EL VILLAR","p":56,"personas_x_ha":39,"masculinidad":93,"pct_menor20":23,"pct_60mas":21,"pct_migrante":57,"dependencia_econ":70,"pct_empleados":27,"pct_cuentapropia":42,"pct_agricultura":18,"pct_comercio":12,"pct_manufactura":6,"pct_construccion":12,"pct_transporte":3,"pct_alojamiento":3,"pct_sin_educacion":12,"pct_educ_superior":47,"brecha_educ":-18,"pct_sin_seguro":34,"pct_sus":50,"pct_seguro_privado":5,"brecha_seguro":20,"pct_salud_publica":24,"pct_med_tradicional":15,"pct_automedicacion":22,"pct_remedios_caseros":21,"pct_viv_desocupada":0,"pct_alquiler":11,"pct_electricidad":100,"pct_sin_electricidad":0,"pct_agua_red":95,"pct_alcantarillado":95,"pct_camara_septica":5,"pct_pozo_ciego":0,"pct_sin_desague":0,"pct_gas_red":84,"pct_gas_garrafa":16,"pct_lena_guano":0,"pct_basura_formal":100,"pct_basura_quema":0,"pct_basura_informal":0,"pct_internet":89,"pct_celular":100,"pct_televisor":63}},{"type":"Feature","geometry":{"type":"Polygon","coordinates":[[[-64.31063,-19.63032],[-64.3105,-19.6306],[-64.31044,-19.63057],[-64.31057,-19.63029],[-64.30893,-19.62959],[-64.3068,-19.63063],[-64.30689,-19.63127],[-64.30758,-19.63087],[-64.30762,-19.63049],[-64.30889,-19.62982],[-64.3092,-19.62995],[-64.30911,-19.63024],[-64.31097,-19.63099],[-64.31115,-19.63056],[-64.31063,-19.63032]]]},"properties":{"n":"EL VILLAR","p":123,"personas_x_ha":56,"masculinidad":132,"pct_menor20":28,"pct_60mas":9,"pct_migrante":51,"dependencia_econ":91,"pct_empleados":36,"pct_cuentapropia":44,"pct_agricultura":28,"pct_comercio":12,"pct_manufactura":5,"pct_construccion":16,"pct_transporte":5,"pct_alojamiento":3,"pct_sin_educacion":3,"pct_educ_superior":43,"brecha_educ":8,"pct_sin_seguro":13,"pct_sus":74,"pct_seguro_privado":0,"brecha_seguro":-8,"pct_salud_publica":26,"pct_med_tradicional":12,"pct_automedicacion":22,"pct_remedios_caseros":25,"pct_viv_desocupada":2,"pct_alquiler":47,"pct_electricidad":100,"pct_sin_electricidad":0,"pct_agua_red":94,"pct_alcantarillado":94,"pct_camara_septica":0,"pct_pozo_ciego":0,"pct_sin_desague":6,"pct_gas_red":47,"pct_gas_garrafa":50,"pct_lena_guano":3,"pct_basura_formal":100,"pct_basura_quema":0,"pct_basura_informal":0,"pct_internet":88,"pct_celular":91,"pct_televisor":59}},{"type":"Feature","geometry":{"type":"Polygon","coordinates":[[[-64.31234,-19.62938],[-64.31131,-19.62892],[-64.31122,-19.62911],[-64.31226,-19.62952],[-64.31234,-19.62938]]]},"properties":{"n":"EL VILLAR","p":36,"personas_x_ha":133,"masculinidad":140,"pct_menor20":36,"pct_60mas":8,"pct_migrante":28,"dependencia_econ":140,"pct_empleados":53,"pct_cuentapropia":33,"pct_agricultura":13,"pct_comercio":13,"pct_manufactura":7,"pct_construccion":13,"pct_transporte":0,"pct_alojamiento":20,"pct_sin_educacion":4,"pct_educ_superior":57,"brecha_educ":-33,"pct_sin_seguro":14,"pct_sus":69,"pct_seguro_privado":0,"brecha_seguro":24,"pct_salud_publica":27,"pct_med_tradicional":12,"pct_automedicacion":27,"pct_remedios_caseros":25,"pct_viv_desocupada":0,"pct_alquiler":44,"pct_electricidad":100,"pct_sin_electricidad":0,"pct_agua_red":100,"pct_alcantarillado":78,"pct_camara_septica":0,"pct_pozo_ciego":11,"pct_sin_desague":11,"pct_gas_red":44,"pct_gas_garrafa":56,"pct_lena_guano":0,"pct_basura_formal":100,"pct_basura_quema":0,"pct_basura_informal":0,"pct_internet":67,"pct_celular":78,"pct_televisor":78}},{"type":"Feature","geometry":{"type":"Polygon","coordinates":[[[-64.30672,-19.63056],[-64.3063,-19.62987],[-64.30584,-19.63019],[-64.30623,-19.63079],[-64.30672,-19.63056]]]},"properties":{"n":"EL VILLAR","p":34,"personas_x_ha":66,"masculinidad":127,"pct_menor20":35,"pct_60mas":0,"pct_migrante":32,"dependencia_econ":143,"pct_empleados":21,"pct_cuentapropia":71,"pct_agricultura":36,"pct_comercio":7,"pct_manufactura":7,"pct_construccion":21,"pct_transporte":0,"pct_alojamiento":7,"pct_sin_educacion":0,"pct_educ_superior":23,"brecha_educ":17,"pct_sin_seguro":6,"pct_sus":91,"pct_seguro_privado":0,"brecha_seguro":-1,"pct_salud_publica":29,"pct_med_tradicional":24,"pct_automedicacion":18,"pct_remedios_caseros":24,"pct_viv_desocupada":0,"pct_alquiler":44,"pct_electricidad":100,"pct_sin_electricidad":0,"pct_agua_red":100,"pct_alcantarillado":44,"pct_camara_septica":0,"pct_pozo_ciego":0,"pct_sin_desague":44,"pct_gas_red":56,"pct_gas_garrafa":22,"pct_lena_guano":22,"pct_basura_formal":100,"pct_basura_quema":0,"pct_basura_informal":0,"pct_internet":78,"pct_celular":100,"pct_televisor":44}},{"type":"Feature","geometry":{"type":"Polygon","coordinates":[[[-64.31057,-19.63024],[-64.31014,-19.63004],[-64.31044,-19.62943],[-64.3107,-19.62956],[-64.31085,-19.62938],[-64.31099,-19.62944],[-64.31057,-19.63024]]]},"properties":{"n":"EL VILLAR","p":47,"personas_x_ha":111,"masculinidad":104,"pct_menor20":17,"pct_60mas":19,"pct_migrante":57,"dependencia_econ":104,"pct_empleados":30,"pct_cuentapropia":39,"pct_agricultura":30,"pct_comercio":9,"pct_manufactura":0,"pct_construccion":9,"pct_transporte":9,"pct_alojamiento":4,"pct_sin_educacion":5,"pct_educ_superior":62,"brecha_educ":-21,"pct_sin_seguro":23,"pct_sus":51,"pct_seguro_privado":0,"brecha_seguro":20,"pct_salud_publica":22,"pct_med_tradicional":9,"pct_automedicacion":19,"pct_remedios_caseros":21,"pct_viv_desocupada":0,"pct_alquiler":29,"pct_electricidad":100,"pct_sin_electricidad":0,"pct_agua_red":93,"pct_alcantarillado":100,"pct_camara_septica":0,"pct_pozo_ciego":0,"pct_sin_desague":0,"pct_gas_red":57,"pct_gas_garrafa":43,"pct_lena_guano":0,"pct_basura_formal":93,"pct_basura_quema":7,"pct_basura_informal":0,"pct_internet":86,"pct_celular":93,"pct_televisor":79}},{"type":"Feature","geometry":{"type":"Polygon","coordinates":[[[-64.20274,-19.79995],[-64.20295,-19.80005],[-64.20316,-19.79952],[-64.20282,-19.79907],[-64.20246,-19.79935],[-64.20274,-19.79995]]]},"properties":{"n":"LA REVUELTA","p":28,"personas_x_ha":62,"masculinidad":65,"pct_menor20":36,"pct_60mas":11,"pct_migrante":11,"dependencia_econ":87,"pct_empleados":7,"pct_cuentapropia":80,"pct_agricultura":53,"pct_comercio":7,"pct_manufactura":13,"pct_construccion":13,"pct_transporte":0,"pct_alojamiento":0,"pct_sin_educacion":0,"pct_educ_superior":5,"brecha_educ":-13,"pct_sin_seguro":7,"pct_sus":93,"pct_seguro_privado":0,"brecha_seguro":-12,"pct_salud_publica":37,"pct_med_tradicional":9,"pct_automedicacion":12,"pct_remedios_caseros":19,"pct_viv_desocupada":0,"pct_alquiler":14,"pct_electricidad":100,"pct_sin_electricidad":0,"pct_agua_red":100,"pct_alcantarillado":0,"pct_camara_septica":0,"pct_pozo_ciego":100,"pct_sin_desague":0,"pct_gas_red":0,"pct_gas_garrafa":71,"pct_lena_guano":29,"pct_basura_formal":0,"pct_basura_quema":100,"pct_basura_informal":0,"pct_internet":0,"pct_celular":71,"pct_televisor":43}},{"type":"Feature","geometry":{"type":"Polygon","coordinates":[[[-64.2031,-19.79847],[-64.20287,-19.79865],[-64.20304,-19.79885],[-64.20286,-19.799],[-64.20226,-19.79823],[-64.20222,-19.79792],[-64.2025,-19.79764],[-64.20271,-19.7978],[-64.2026,-19.79793],[-64.2031,-19.79847]]]},"properties":{"n":"LA REVUELTA","p":15,"personas_x_ha":24,"masculinidad":67,"pct_menor20":40,"pct_60mas":27,"pct_migrante":33,"dependencia_econ":67,"pct_empleados":0,"pct_cuentapropia":67,"pct_agricultura":56,"pct_comercio":11,"pct_manufactura":0,"pct_construccion":0,"pct_transporte":0,"pct_alojamiento":11,"pct_sin_educacion":0,"pct_educ_superior":56,"brecha_educ":21,"pct_sin_seguro":0,"pct_sus":60,"pct_seguro_privado":0,"brecha_seguro":0,"pct_salud_publica":54,"pct_med_tradicional":0,"pct_automedicacion":0,"pct_remedios_caseros":27,"pct_viv_desocupada":33,"pct_alquiler":0,"pct_electricidad":100,"pct_sin_electricidad":0,"pct_agua_red":100,"pct_alcantarillado":0,"pct_camara_septica":0,"pct_pozo_ciego":100,"pct_sin_desague":0,"pct_gas_red":0,"pct_gas_garrafa":60,"pct_lena_guano":40,"pct_basura_formal":0,"pct_basura_quema":80,"pct_basura_informal":0,"pct_internet":0,"pct_celular":100,"pct_televisor":60}},{"type":"Feature","geometry":{"type":"Polygon","coordinates":[[[-64.20246,-19.79955],[-64.20242,-19.79931],[-64.20187,-19.79863],[-64.20149,-19.79893],[-64.20205,-19.79966],[-64.20246,-19.79955]]]},"properties":{"n":"LA REVUELTA","p":40,"personas_x_ha":67,"masculinidad":90,"pct_menor20":42,"pct_60mas":0,"pct_migrante":12,"dependencia_econ":48,"pct_empleados":41,"pct_cuentapropia":52,"pct_agricultura":93,"pct_comercio":0,"pct_manufactura":0,"pct_construccion":0,"pct_transporte":0,"pct_alojamiento":0,"pct_sin_educacion":12,"pct_educ_superior":24,"brecha_educ":18,"pct_sin_seguro":12,"pct_sus":72,"pct_seguro_privado":0,"brecha_seguro":-4,"pct_salud_publica":55,"pct_med_tradicional":16,"pct_automedicacion":0,"pct_remedios_caseros":14,"pct_viv_desocupada":18,"pct_alquiler":7,"pct_electricidad":57,"pct_sin_electricidad":43,"pct_agua_red":57,"pct_alcantarillado":14,"pct_camara_septica":0,"pct_pozo_ciego":29,"pct_sin_desague":57,"pct_gas_red":0,"pct_gas_garrafa":21,"pct_lena_guano":79,"pct_basura_formal":0,"pct_basura_quema":100,"pct_basura_informal":0,"pct_internet":29,"pct_celular":50,"pct_televisor":29}},{"type":"Feature","geometry":{"type":"Polygon","coordinates":[[[-64.19701,-19.82362],[-64.19848,-19.82365],[-64.19849,-19.82311],[-64.19721,-19.82308],[-64.19701,-19.82362]]]},"properties":{"n":"RODEITO","p":40,"personas_x_ha":45,"masculinidad":135,"pct_menor20":38,"pct_60mas":12,"pct_migrante":22,"dependencia_econ":264,"pct_empleados":18,"pct_cuentapropia":64,"pct_agricultura":64,"pct_comercio":9,"pct_manufactura":9,"pct_construccion":9,"pct_transporte":0,"pct_alojamiento":0,"pct_sin_educacion":0,"pct_educ_superior":32,"brecha_educ":16,"pct_sin_seguro":5,"pct_sus":95,"pct_seguro_privado":0,"brecha_seguro":-12,"pct_salud_publica":29,"pct_med_tradicional":16,"pct_automedicacion":24,"pct_remedios_caseros":27,"pct_viv_desocupada":14,"pct_alquiler":0,"pct_electricidad":83,"pct_sin_electricidad":17,"pct_agua_red":33,"pct_alcantarillado":0,"pct_camara_septica":0,"pct_pozo_ciego":67,"pct_sin_desague":33,"pct_gas_red":0,"pct_gas_garrafa":17,"pct_lena_guano":83,"pct_basura_formal":0,"pct_basura_quema":83,"pct_basura_informal":17,"pct_internet":0,"pct_celular":83,"pct_televisor":50}},{"type":"Feature","geometry":{"type":"Polygon","coordinates":[[[-64.19953,-19.82122],[-64.19864,-19.8212],[-64.19863,-19.82178],[-64.19944,-19.82178],[-64.19953,-19.82122]]]},"properties":{"n":"RODEITO","p":46,"personas_x_ha":82,"masculinidad":119,"pct_menor20":26,"pct_60mas":7,"pct_migrante":13,"dependencia_econ":156,"pct_empleados":17,"pct_cuentapropia":50,"pct_agricultura":83,"pct_comercio":11,"pct_manufactura":0,"pct_construccion":0,"pct_transporte":0,"pct_alojamiento":0,"pct_sin_educacion":6,"pct_educ_superior":18,"brecha_educ":7,"pct_sin_seguro":0,"pct_sus":96,"pct_seguro_privado":0,"brecha_seguro":0,"pct_salud_publica":32,"pct_med_tradicional":8,"pct_automedicacion":27,"pct_remedios_caseros":30,"pct_viv_desocupada":20,"pct_alquiler":0,"pct_electricidad":100,"pct_sin_electricidad":0,"pct_agua_red":25,"pct_alcantarillado":0,"pct_camara_septica":12,"pct_pozo_ciego":88,"pct_sin_desague":0,"pct_gas_red":0,"pct_gas_garrafa":12,"pct_lena_guano":88,"pct_basura_formal":0,"pct_basura_quema":88,"pct_basura_informal":0,"pct_internet":50,"pct_celular":62,"pct_televisor":62}},{"type":"Feature","geometry":{"type":"Polygon","coordinates":[[[-64.19925,-19.82053],[-64.19865,-19.82057],[-64.19866,-19.82113],[-64.19924,-19.82113],[-64.19925,-19.82053]]]},"properties":{"n":"RODEITO","p":24,"personas_x_ha":60,"masculinidad":140,"pct_menor20":33,"pct_60mas":12,"pct_migrante":50,"dependencia_econ":71,"pct_empleados":14,"pct_cuentapropia":36,"pct_agricultura":57,"pct_comercio":7,"pct_manufactura":0,"pct_construccion":14,"pct_transporte":7,"pct_alojamiento":0,"pct_sin_educacion":0,"pct_educ_superior":19,"brecha_educ":27,"pct_sin_seguro":17,"pct_sus":62,"pct_seguro_privado":0,"brecha_seguro":11,"pct_salud_publica":33,"pct_med_tradicional":16,"pct_automedicacion":15,"pct_remedios_caseros":32,"pct_viv_desocupada":0,"pct_alquiler":0,"pct_electricidad":100,"pct_sin_electricidad":0,"pct_agua_red":0,"pct_alcantarillado":0,"pct_camara_septica":0,"pct_pozo_ciego":43,"pct_sin_desague":57,"pct_gas_red":0,"pct_gas_garrafa":57,"pct_lena_guano":43,"pct_basura_formal":0,"pct_basura_quema":100,"pct_basura_informal":0,"pct_internet":43,"pct_celular":86,"pct_televisor":29}},{"type":"Feature","geometry":{"type":"Polygon","coordinates":[[[-64.19863,-19.82185],[-64.19942,-19.82186],[-64.19933,-19.8224],[-64.19862,-19.82242],[-64.19863,-19.82185]]]},"properties":{"n":"RODEITO","p":15,"personas_x_ha":30,"masculinidad":36,"pct_menor20":40,"pct_60mas":0,"pct_migrante":67,"dependencia_econ":67,"pct_empleados":100,"pct_cuentapropia":0,"pct_agricultura":0,"pct_comercio":0,"pct_manufactura":0,"pct_construccion":0,"pct_transporte":0,"pct_alojamiento":0,"pct_sin_educacion":0,"pct_educ_superior":100,"brecha_educ":0,"pct_sin_seguro":0,"pct_sus":27,"pct_seguro_privado":0,"brecha_seguro":0,"pct_salud_publica":22,"pct_med_tradicional":7,"pct_automedicacion":13,"pct_remedios_caseros":21,"pct_viv_desocupada":0,"pct_alquiler":0,"pct_electricidad":100,"pct_sin_electricidad":0,"pct_agua_red":0,"pct_alcantarillado":0,"pct_camara_septica":0,"pct_pozo_ciego":100,"pct_sin_desague":0,"pct_gas_red":0,"pct_gas_garrafa":100,"pct_lena_guano":0,"pct_basura_formal":0,"pct_basura_quema":14,"pct_basura_informal":0,"pct_internet":100,"pct_celular":100,"pct_televisor":86}}]}