{"type":"FeatureCollection","features":[{"type":"Feature","geometry":{"type":"Polygon","coordinates":[[[-64.5575,-19.32526],[-64.55765,-19.32469],[-64.55739,-19.32474],[-64.55728,-19.32522],[-64.5575,-19.32526]]]},"properties":{"n":"AMANCAYA","p":37,"personas_x_ha":254,"masculinidad":147,"pct_menor20":49,"pct_60mas":5,"pct_migrante":27,"dependencia_econ":68,"pct_empleados":27,"pct_cuentapropia":50,"pct_agricultura":50,"pct_comercio":9,"pct_manufactura":5,"pct_construccion":9,"pct_transporte":9,"pct_alojamiento":14,"pct_sin_educacion":5,"pct_educ_superior":21,"brecha_educ":-15,"pct_sin_seguro":17,"pct_sus":83,"pct_seguro_privado":0,"brecha_seguro":6,"pct_salud_publica":31,"pct_med_tradicional":25,"pct_automedicacion":7,"pct_remedios_caseros":29,"pct_viv_desocupada":0,"pct_alquiler":0,"pct_electricidad":80,"pct_sin_electricidad":0,"pct_agua_red":40,"pct_alcantarillado":0,"pct_camara_septica":0,"pct_pozo_ciego":40,"pct_sin_desague":60,"pct_gas_red":0,"pct_gas_garrafa":40,"pct_lena_guano":60,"pct_basura_formal":0,"pct_basura_quema":60,"pct_basura_informal":40,"pct_internet":60,"pct_celular":100,"pct_televisor":40}},{"type":"Feature","geometry":{"type":"Polygon","coordinates":[[[-64.56028,-19.3271],[-64.56075,-19.32639],[-64.56074,-19.32616],[-64.56041,-19.32565],[-64.55994,-19.32547],[-64.55969,-19.32523],[-64.55896,-19.32589],[-64.55892,-19.32637],[-64.55915,-19.32682],[-64.5591,-19.32728],[-64.55896,-19.32759],[-64.559,-19.32766],[-64.55993,-19.3274],[-64.56028,-19.3271]]]},"properties":{"n":"AMANCAYA","p":66,"personas_x_ha":20,"masculinidad":65,"pct_menor20":38,"pct_60mas":9,"pct_migrante":12,"dependencia_econ":187,"pct_empleados":9,"pct_cuentapropia":48,"pct_agricultura":65,"pct_comercio":4,"pct_manufactura":0,"pct_construccion":0,"pct_transporte":0,"pct_alojamiento":0,"pct_sin_educacion":21,"pct_educ_superior":14,"brecha_educ":18,"pct_sin_seguro":49,"pct_sus":48,"pct_seguro_privado":3,"brecha_seguro":-37,"pct_salud_publica":34,"pct_med_tradicional":16,"pct_automedicacion":19,"pct_remedios_caseros":27,"pct_viv_desocupada":0,"pct_alquiler":9,"pct_electricidad":91,"pct_sin_electricidad":9,"pct_agua_red":36,"pct_alcantarillado":0,"pct_camara_septica":9,"pct_pozo_ciego":45,"pct_sin_desague":45,"pct_gas_red":0,"pct_gas_garrafa":45,"pct_lena_guano":55,"pct_basura_formal":0,"pct_basura_quema":82,"pct_basura_informal":0,"pct_internet":82,"pct_celular":91,"pct_televisor":45}},{"type":"Feature","geometry":{"type":"Polygon","coordinates":[[[-64.55745,-19.32553],[-64.55749,-19.32532],[-64.55673,-19.32522],[-64.55671,-19.32545],[-64.55745,-19.32553]]]},"properties":{"n":"AMANCAYA","p":18,"personas_x_ha":92,"masculinidad":200,"pct_menor20":39,"pct_60mas":11,"pct_migrante":39,"dependencia_econ":225,"pct_empleados":75,"pct_cuentapropia":25,"pct_agricultura":0,"pct_comercio":0,"pct_manufactura":0,"pct_construccion":50,"pct_transporte":0,"pct_alojamiento":0,"pct_sin_educacion":14,"pct_educ_superior":14,"brecha_educ":-42,"pct_sin_seguro":77,"pct_sus":15,"pct_seguro_privado":0,"brecha_seguro":3,"pct_salud_publica":21,"pct_med_tradicional":14,"pct_automedicacion":25,"pct_remedios_caseros":23,"pct_viv_desocupada":0,"pct_alquiler":14,"pct_electricidad":86,"pct_sin_electricidad":14,"pct_agua_red":57,"pct_alcantarillado":0,"pct_camara_septica":0,"pct_pozo_ciego":43,"pct_sin_desague":57,"pct_gas_red":0,"pct_gas_garrafa":29,"pct_lena_guano":71,"pct_basura_formal":0,"pct_basura_quema":29,"pct_basura_informal":71,"pct_internet":86,"pct_celular":100,"pct_televisor":43}},{"type":"Feature","geometry":{"type":"Polygon","coordinates":[[[-64.55849,-19.32548],[-64.55781,-19.32538],[-64.55773,-19.32582],[-64.5585,-19.32611],[-64.55859,-19.32587],[-64.55849,-19.32548]]]},"properties":{"n":"AMANCAYA","p":20,"personas_x_ha":41,"masculinidad":100,"pct_menor20":35,"pct_60mas":10,"pct_migrante":35,"dependencia_econ":54,"pct_empleados":15,"pct_cuentapropia":54,"pct_agricultura":15,"pct_comercio":8,"pct_manufactura":0,"pct_construccion":15,"pct_transporte":0,"pct_alojamiento":0,"pct_sin_educacion":0,"pct_educ_superior":31,"brecha_educ":7,"pct_sin_seguro":15,"pct_sus":85,"pct_seguro_privado":0,"brecha_seguro":30,"pct_salud_publica":33,"pct_med_tradicional":12,"pct_automedicacion":17,"pct_remedios_caseros":33,"pct_viv_desocupada":8,"pct_alquiler":50,"pct_electricidad":88,"pct_sin_electricidad":12,"pct_agua_red":0,"pct_alcantarillado":0,"pct_camara_septica":0,"pct_pozo_ciego":25,"pct_sin_desague":75,"pct_gas_red":0,"pct_gas_garrafa":50,"pct_lena_guano":50,"pct_basura_formal":0,"pct_basura_quema":88,"pct_basura_informal":12,"pct_internet":100,"pct_celular":100,"pct_televisor":12}},{"type":"Feature","geometry":{"type":"Polygon","coordinates":[[[-64.55794,-19.32461],[-64.55771,-19.32458],[-64.55754,-19.32527],[-64.55778,-19.32531],[-64.55794,-19.32461]]]},"properties":{"n":"AMANCAYA","p":42,"personas_x_ha":214,"masculinidad":223,"pct_menor20":36,"pct_60mas":14,"pct_migrante":45,"dependencia_econ":110,"pct_empleados":20,"pct_cuentapropia":40,"pct_agricultura":50,"pct_comercio":15,"pct_manufactura":0,"pct_construccion":0,"pct_transporte":5,"pct_alojamiento":5,"pct_sin_educacion":10,"pct_educ_superior":38,"brecha_educ":-27,"pct_sin_seguro":14,"pct_sus":71,"pct_seguro_privado":0,"brecha_seguro":-2,"pct_salud_publica":26,"pct_med_tradicional":16,"pct_automedicacion":20,"pct_remedios_caseros":17,"pct_viv_desocupada":6,"pct_alquiler":12,"pct_electricidad":100,"pct_sin_electricidad":0,"pct_agua_red":25,"pct_alcantarillado":0,"pct_camara_septica":0,"pct_pozo_ciego":0,"pct_sin_desague":100,"pct_gas_red":0,"pct_gas_garrafa":38,"pct_lena_guano":62,"pct_basura_formal":12,"pct_basura_quema":62,"pct_basura_informal":25,"pct_internet":100,"pct_celular":100,"pct_televisor":50}},{"type":"Feature","geometry":{"type":"Polygon","coordinates":[[[-64.55834,-19.32463],[-64.55831,-19.3248],[-64.55867,-19.32487],[-64.55872,-19.32452],[-64.5585,-19.32448],[-64.55834,-19.32463]]]},"properties":{"n":"AMANCAYA","p":15,"personas_x_ha":116,"masculinidad":67,"pct_menor20":53,"pct_60mas":0,"pct_migrante":33,"dependencia_econ":150,"pct_empleados":67,"pct_cuentapropia":33,"pct_agricultura":0,"pct_comercio":33,"pct_manufactura":0,"pct_construccion":0,"pct_transporte":0,"pct_alojamiento":17,"pct_sin_educacion":11,"pct_educ_superior":44,"brecha_educ":-40,"pct_sin_seguro":50,"pct_sus":50,"pct_seguro_privado":0,"brecha_seguro":16,"pct_salud_publica":28,"pct_med_tradicional":20,"pct_automedicacion":15,"pct_remedios_caseros":25,"pct_viv_desocupada":0,"pct_alquiler":40,"pct_electricidad":100,"pct_sin_electricidad":0,"pct_agua_red":0,"pct_alcantarillado":20,"pct_camara_septica":0,"pct_pozo_ciego":40,"pct_sin_desague":40,"pct_gas_red":0,"pct_gas_garrafa":60,"pct_lena_guano":40,"pct_basura_formal":0,"pct_basura_quema":60,"pct_basura_informal":0,"pct_internet":20,"pct_celular":80,"pct_televisor":40}},{"type":"Feature","geometry":{"type":"Polygon","coordinates":[[[-64.55776,-19.32538],[-64.55752,-19.32532],[-64.55742,-19.32582],[-64.55768,-19.32587],[-64.55776,-19.32538]]]},"properties":{"n":"AMANCAYA","p":22,"personas_x_ha":147,"masculinidad":83,"pct_menor20":50,"pct_60mas":5,"pct_migrante":23,"dependencia_econ":120,"pct_empleados":20,"pct_cuentapropia":50,"pct_agricultura":90,"pct_comercio":0,"pct_manufactura":0,"pct_construccion":0,"pct_transporte":0,"pct_alojamiento":0,"pct_sin_educacion":0,"pct_educ_superior":0,"brecha_educ":18,"pct_sin_seguro":5,"pct_sus":73,"pct_seguro_privado":0,"brecha_seguro":-8,"pct_salud_publica":37,"pct_med_tradicional":18,"pct_automedicacion":10,"pct_remedios_caseros":22,"pct_viv_desocupada":0,"pct_alquiler":17,"pct_electricidad":83,"pct_sin_electricidad":17,"pct_agua_red":67,"pct_alcantarillado":0,"pct_camara_septica":0,"pct_pozo_ciego":0,"pct_sin_desague":100,"pct_gas_red":0,"pct_gas_garrafa":33,"pct_lena_guano":67,"pct_basura_formal":0,"pct_basura_quema":100,"pct_basura_informal":0,"pct_internet":50,"pct_celular":83,"pct_televisor":67}},{"type":"Feature","geometry":{"type":"Polygon","coordinates":[[[-64.46039,-19.41523],[-64.46075,-19.41506],[-64.46013,-19.41392],[-64.45977,-19.4141],[-64.46039,-19.41523]]]},"properties":{"n":"PAMPAS PUNTA","p":57,"personas_x_ha":95,"masculinidad":78,"pct_menor20":42,"pct_60mas":11,"pct_migrante":18,"dependencia_econ":185,"pct_empleados":45,"pct_cuentapropia":40,"pct_agricultura":30,"pct_comercio":5,"pct_manufactura":10,"pct_construccion":25,"pct_transporte":5,"pct_alojamiento":10,"pct_sin_educacion":41,"pct_educ_superior":3,"brecha_educ":-13,"pct_sin_seguro":25,"pct_sus":75,"pct_seguro_privado":0,"brecha_seguro":-1,"pct_salud_publica":25,"pct_med_tradicional":21,"pct_automedicacion":24,"pct_remedios_caseros":25,"pct_viv_desocupada":0,"pct_alquiler":0,"pct_electricidad":94,"pct_sin_electricidad":6,"pct_agua_red":94,"pct_alcantarillado":94,"pct_camara_septica":0,"pct_pozo_ciego":0,"pct_sin_desague":6,"pct_gas_red":0,"pct_gas_garrafa":53,"pct_lena_guano":47,"pct_basura_formal":65,"pct_basura_quema":35,"pct_basura_informal":0,"pct_internet":88,"pct_celular":94,"pct_televisor":53}},{"type":"Feature","geometry":{"type":"Polygon","coordinates":[[[-64.46037,-19.41536],[-64.46007,-19.41481],[-64.45974,-19.415],[-64.46003,-19.41553],[-64.46037,-19.41536]]]},"properties":{"n":"PAMPAS PUNTA","p":31,"personas_x_ha":114,"masculinidad":158,"pct_menor20":48,"pct_60mas":6,"pct_migrante":16,"dependencia_econ":343,"pct_empleados":29,"pct_cuentapropia":29,"pct_agricultura":43,"pct_comercio":0,"pct_manufactura":14,"pct_construccion":29,"pct_transporte":0,"pct_alojamiento":0,"pct_sin_educacion":18,"pct_educ_superior":0,"brecha_educ":-21,"pct_sin_seguro":0,"pct_sus":100,"pct_seguro_privado":0,"brecha_seguro":0,"pct_salud_publica":34,"pct_med_tradicional":29,"pct_automedicacion":9,"pct_remedios_caseros":27,"pct_viv_desocupada":0,"pct_alquiler":0,"pct_electricidad":100,"pct_sin_electricidad":0,"pct_agua_red":100,"pct_alcantarillado":75,"pct_camara_septica":0,"pct_pozo_ciego":0,"pct_sin_desague":25,"pct_gas_red":0,"pct_gas_garrafa":38,"pct_lena_guano":62,"pct_basura_formal":62,"pct_basura_quema":38,"pct_basura_informal":0,"pct_internet":88,"pct_celular":100,"pct_televisor":38}},{"type":"Feature","geometry":{"type":"Polygon","coordinates":[[[-64.46187,-19.41587],[-64.46194,-19.41549],[-64.46099,-19.41531],[-64.46092,-19.41568],[-64.46187,-19.41587]]]},"properties":{"n":"PAMPAS PUNTA","p":53,"personas_x_ha":124,"masculinidad":83,"pct_menor20":40,"pct_60mas":13,"pct_migrante":15,"dependencia_econ":104,"pct_empleados":8,"pct_cuentapropia":62,"pct_agricultura":81,"pct_comercio":0,"pct_manufactura":0,"pct_construccion":8,"pct_transporte":8,"pct_alojamiento":0,"pct_sin_educacion":32,"pct_educ_superior":3,"brecha_educ":-27,"pct_sin_seguro":8,"pct_sus":92,"pct_seguro_privado":0,"brecha_seguro":2,"pct_salud_publica":31,"pct_med_tradicional":14,"pct_automedicacion":18,"pct_remedios_caseros":29,"pct_viv_desocupada":0,"pct_alquiler":0,"pct_electricidad":100,"pct_sin_electricidad":0,"pct_agua_red":100,"pct_alcantarillado":73,"pct_camara_septica":13,"pct_pozo_ciego":13,"pct_sin_desague":0,"pct_gas_red":0,"pct_gas_garrafa":20,"pct_lena_guano":80,"pct_basura_formal":67,"pct_basura_quema":20,"pct_basura_informal":13,"pct_internet":27,"pct_celular":87,"pct_televisor":40}},{"type":"Feature","geometry":{"type":"Polygon","coordinates":[[[-64.46103,-19.41514],[-64.4612,-19.41487],[-64.4607,-19.41401],[-64.46045,-19.41415],[-64.46103,-19.41514]]]},"properties":{"n":"PAMPAS PUNTA","p":35,"personas_x_ha":89,"masculinidad":106,"pct_menor20":40,"pct_60mas":11,"pct_migrante":31,"dependencia_econ":500,"pct_empleados":0,"pct_cuentapropia":60,"pct_agricultura":80,"pct_comercio":20,"pct_manufactura":0,"pct_construccion":0,"pct_transporte":0,"pct_alojamiento":0,"pct_sin_educacion":39,"pct_educ_superior":6,"brecha_educ":-44,"pct_sin_seguro":13,"pct_sus":87,"pct_seguro_privado":0,"brecha_seguro":-10,"pct_salud_publica":29,"pct_med_tradicional":21,"pct_automedicacion":23,"pct_remedios_caseros":25,"pct_viv_desocupada":0,"pct_alquiler":14,"pct_electricidad":100,"pct_sin_electricidad":0,"pct_agua_red":100,"pct_alcantarillado":100,"pct_camara_septica":0,"pct_pozo_ciego":0,"pct_sin_desague":0,"pct_gas_red":0,"pct_gas_garrafa":86,"pct_lena_guano":14,"pct_basura_formal":71,"pct_basura_quema":29,"pct_basura_informal":0,"pct_internet":86,"pct_celular":86,"pct_televisor":57}},{"type":"Feature","geometry":{"type":"Polygon","coordinates":[[[-64.46139,-19.41583],[-64.46032,-19.41563],[-64.4603,-19.41589],[-64.46135,-19.41607],[-64.46139,-19.41583]]]},"properties":{"n":"PAMPAS PUNTA","p":35,"personas_x_ha":113,"masculinidad":94,"pct_menor20":37,"pct_60mas":14,"pct_migrante":11,"dependencia_econ":119,"pct_empleados":19,"pct_cuentapropia":25,"pct_agricultura":62,"pct_comercio":6,"pct_manufactura":6,"pct_construccion":0,"pct_transporte":0,"pct_alojamiento":0,"pct_sin_educacion":27,"pct_educ_superior":0,"brecha_educ":-36,"pct_sin_seguro":35,"pct_sus":65,"pct_seguro_privado":0,"brecha_seguro":-8,"pct_salud_publica":38,"pct_med_tradicional":16,"pct_automedicacion":18,"pct_remedios_caseros":20,"pct_viv_desocupada":0,"pct_alquiler":0,"pct_electricidad":100,"pct_sin_electricidad":0,"pct_agua_red":100,"pct_alcantarillado":100,"pct_camara_septica":0,"pct_pozo_ciego":0,"pct_sin_desague":0,"pct_gas_red":0,"pct_gas_garrafa":22,"pct_lena_guano":78,"pct_basura_formal":89,"pct_basura_quema":11,"pct_basura_informal":0,"pct_internet":67,"pct_celular":100,"pct_televisor":78}},{"type":"Feature","geometry":{"type":"Polygon","coordinates":[[[-64.47184,-19.48633],[-64.47267,-19.48632],[-64.47375,-19.48708],[-64.47393,-19.48685],[-64.47255,-19.48586],[-64.47198,-19.48593],[-64.47155,-19.48587],[-64.47141,-19.48616],[-64.47184,-19.48633]]]},"properties":{"n":"SOPACHUY","p":71,"personas_x_ha":68,"masculinidad":69,"pct_menor20":30,"pct_60mas":21,"pct_migrante":59,"dependencia_econ":79,"pct_empleados":46,"pct_cuentapropia":31,"pct_agricultura":21,"pct_comercio":18,"pct_manufactura":8,"pct_construccion":5,"pct_transporte":0,"pct_alojamiento":3,"pct_sin_educacion":8,"pct_educ_superior":54,"brecha_educ":-10,"pct_sin_seguro":19,"pct_sus":56,"pct_seguro_privado":7,"brecha_seguro":15,"pct_salud_publica":22,"pct_med_tradicional":12,"pct_automedicacion":20,"pct_remedios_caseros":22,"pct_viv_desocupada":0,"pct_alquiler":40,"pct_electricidad":100,"pct_sin_electricidad":0,"pct_agua_red":84,"pct_alcantarillado":100,"pct_camara_septica":0,"pct_pozo_ciego":0,"pct_sin_desague":0,"pct_gas_red":72,"pct_gas_garrafa":28,"pct_lena_guano":0,"pct_basura_formal":100,"pct_basura_quema":0,"pct_basura_informal":0,"pct_internet":80,"pct_celular":80,"pct_televisor":64}},{"type":"Feature","geometry":{"type":"Polygon","coordinates":[[[-64.47462,-19.48801],[-64.47442,-19.48835],[-64.47474,-19.4886],[-64.47529,-19.48831],[-64.47462,-19.48801]]]},"properties":{"n":"SOPACHUY","p":38,"personas_x_ha":126,"masculinidad":111,"pct_menor20":26,"pct_60mas":18,"pct_migrante":34,"dependencia_econ":90,"pct_empleados":30,"pct_cuentapropia":30,"pct_agricultura":15,"pct_comercio":10,"pct_manufactura":0,"pct_construccion":25,"pct_transporte":0,"pct_alojamiento":25,"pct_sin_educacion":18,"pct_educ_superior":39,"brecha_educ":-15,"pct_sin_seguro":11,"pct_sus":89,"pct_seguro_privado":0,"brecha_seguro":20,"pct_salud_publica":30,"pct_med_tradicional":12,"pct_automedicacion":17,"pct_remedios_caseros":25,"pct_viv_desocupada":0,"pct_alquiler":42,"pct_electricidad":100,"pct_sin_electricidad":0,"pct_agua_red":100,"pct_alcantarillado":100,"pct_camara_septica":0,"pct_pozo_ciego":0,"pct_sin_desague":0,"pct_gas_red":58,"pct_gas_garrafa":32,"pct_lena_guano":0,"pct_basura_formal":100,"pct_basura_quema":0,"pct_basura_informal":0,"pct_internet":89,"pct_celular":95,"pct_televisor":68}},{"type":"Feature","geometry":{"type":"Polygon","coordinates":[[[-64.47596,-19.48533],[-64.47559,-19.4849],[-64.4751,-19.48531],[-64.47536,-19.48557],[-64.47557,-19.48562],[-64.47596,-19.48533]]]},"properties":{"n":"SOPACHUY","p":28,"personas_x_ha":71,"masculinidad":87,"pct_menor20":46,"pct_60mas":11,"pct_migrante":25,"dependencia_econ":100,"pct_empleados":43,"pct_cuentapropia":43,"pct_agricultura":43,"pct_comercio":7,"pct_manufactura":0,"pct_construccion":29,"pct_transporte":0,"pct_alojamiento":0,"pct_sin_educacion":31,"pct_educ_superior":0,"brecha_educ":-33,"pct_sin_seguro":0,"pct_sus":96,"pct_seguro_privado":0,"brecha_seguro":0,"pct_salud_publica":23,"pct_med_tradicional":19,"pct_automedicacion":21,"pct_remedios_caseros":23,"pct_viv_desocupada":7,"pct_alquiler":20,"pct_electricidad":90,"pct_sin_electricidad":10,"pct_agua_red":90,"pct_alcantarillado":70,"pct_camara_septica":0,"pct_pozo_ciego":0,"pct_sin_desague":30,"pct_gas_red":50,"pct_gas_garrafa":30,"pct_lena_guano":10,"pct_basura_formal":90,"pct_basura_quema":10,"pct_basura_informal":0,"pct_internet":60,"pct_celular":60,"pct_televisor":40}},{"type":"Feature","geometry":{"type":"Polygon","coordinates":[[[-64.4738,-19.49146],[-64.47373,-19.49234],[-64.47423,-19.49236],[-64.47428,-19.4915],[-64.4738,-19.49146]]]},"properties":{"n":"SOPACHUY","p":22,"personas_x_ha":44,"masculinidad":120,"pct_menor20":41,"pct_60mas":18,"pct_migrante":23,"dependencia_econ":31,"pct_empleados":50,"pct_cuentapropia":50,"pct_agricultura":25,"pct_comercio":19,"pct_manufactura":6,"pct_construccion":19,"pct_transporte":6,"pct_alojamiento":12,"pct_sin_educacion":27,"pct_educ_superior":33,"brecha_educ":-9,"pct_sin_seguro":10,"pct_sus":76,"pct_seguro_privado":0,"brecha_seguro":-1,"pct_salud_publica":24,"pct_med_tradicional":15,"pct_automedicacion":21,"pct_remedios_caseros":22,"pct_viv_desocupada":7,"pct_alquiler":14,"pct_electricidad":100,"pct_sin_electricidad":0,"pct_agua_red":100,"pct_alcantarillado":100,"pct_camara_septica":0,"pct_pozo_ciego":0,"pct_sin_desague":0,"pct_gas_red":29,"pct_gas_garrafa":71,"pct_lena_guano":0,"pct_basura_formal":100,"pct_basura_quema":0,"pct_basura_informal":0,"pct_internet":71,"pct_celular":86,"pct_televisor":29}},{"type":"Feature","geometry":{"type":"Polygon","coordinates":[[[-64.4766,-19.48596],[-64.47608,-19.48658],[-64.47671,-19.48703],[-64.47781,-19.4853],[-64.47745,-19.48512],[-64.47712,-19.48572],[-64.4766,-19.48596]]]},"properties":{"n":"SOPACHUY","p":72,"personas_x_ha":55,"masculinidad":76,"pct_menor20":33,"pct_60mas":24,"pct_migrante":31,"dependencia_econ":177,"pct_empleados":35,"pct_cuentapropia":35,"pct_agricultura":23,"pct_comercio":12,"pct_manufactura":0,"pct_construccion":19,"pct_transporte":0,"pct_alojamiento":12,"pct_sin_educacion":25,"pct_educ_superior":29,"brecha_educ":-11,"pct_sin_seguro":11,"pct_sus":85,"pct_seguro_privado":0,"brecha_seguro":-3,"pct_salud_publica":33,"pct_med_tradicional":11,"pct_automedicacion":24,"pct_remedios_caseros":22,"pct_viv_desocupada":0,"pct_alquiler":22,"pct_electricidad":100,"pct_sin_electricidad":0,"pct_agua_red":100,"pct_alcantarillado":96,"pct_camara_septica":0,"pct_pozo_ciego":0,"pct_sin_desague":4,"pct_gas_red":33,"pct_gas_garrafa":63,"pct_lena_guano":4,"pct_basura_formal":89,"pct_basura_quema":4,"pct_basura_informal":7,"pct_internet":67,"pct_celular":85,"pct_televisor":63}},{"type":"Feature","geometry":{"type":"Polygon","coordinates":[[[-64.47473,-19.48745],[-64.47395,-19.48687],[-64.47377,-19.4871],[-64.47458,-19.48767],[-64.47473,-19.48745]]]},"properties":{"n":"SOPACHUY","p":23,"personas_x_ha":71,"masculinidad":53,"pct_menor20":26,"pct_60mas":17,"pct_migrante":70,"dependencia_econ":77,"pct_empleados":23,"pct_cuentapropia":46,"pct_agricultura":38,"pct_comercio":8,"pct_manufactura":8,"pct_construccion":0,"pct_transporte":0,"pct_alojamiento":15,"pct_sin_educacion":6,"pct_educ_superior":29,"brecha_educ":11,"pct_sin_seguro":0,"pct_sus":61,"pct_seguro_privado":0,"brecha_seguro":0,"pct_salud_publica":24,"pct_med_tradicional":14,"pct_automedicacion":18,"pct_remedios_caseros":23,"pct_viv_desocupada":0,"pct_alquiler":18,"pct_electricidad":100,"pct_sin_electricidad":0,"pct_agua_red":91,"pct_alcantarillado":91,"pct_camara_septica":0,"pct_pozo_ciego":0,"pct_sin_desague":9,"pct_gas_red":64,"pct_gas_garrafa":27,"pct_lena_guano":9,"pct_basura_formal":100,"pct_basura_quema":0,"pct_basura_informal":0,"pct_internet":82,"pct_celular":82,"pct_televisor":73}},{"type":"Feature","geometry":{"type":"Polygon","coordinates":[[[-64.47753,-19.48733],[-64.47817,-19.48664],[-64.47737,-19.48614],[-64.47675,-19.48705],[-64.47711,-19.48724],[-64.47718,-19.48711],[-64.47753,-19.48733]]]},"properties":{"n":"SOPACHUY","p":28,"personas_x_ha":27,"masculinidad":75,"pct_menor20":25,"pct_60mas":32,"pct_migrante":14,"dependencia_econ":180,"pct_empleados":10,"pct_cuentapropia":60,"pct_agricultura":10,"pct_comercio":20,"pct_manufactura":0,"pct_construccion":0,"pct_transporte":10,"pct_alojamiento":20,"pct_sin_educacion":33,"pct_educ_superior":24,"brecha_educ":-17,"pct_sin_seguro":4,"pct_sus":96,"pct_seguro_privado":0,"brecha_seguro":8,"pct_salud_publica":34,"pct_med_tradicional":15,"pct_automedicacion":15,"pct_remedios_caseros":29,"pct_viv_desocupada":0,"pct_alquiler":0,"pct_electricidad":100,"pct_sin_electricidad":0,"pct_agua_red":100,"pct_alcantarillado":91,"pct_camara_septica":0,"pct_pozo_ciego":0,"pct_sin_desague":9,"pct_gas_red":73,"pct_gas_garrafa":18,"pct_lena_guano":9,"pct_basura_formal":100,"pct_basura_quema":0,"pct_basura_informal":0,"pct_internet":64,"pct_celular":82,"pct_televisor":91}},{"type":"Feature","geometry":{"type":"Polygon","coordinates":[[[-64.47626,-19.48749],[-64.47645,-19.48755],[-64.47649,-19.48737],[-64.47627,-19.48727],[-64.47612,-19.48752],[-64.4762,-19.48756],[-64.47626,-19.48749]]]},"properties":{"n":"SOPACHUY","p":17,"personas_x_ha":231,"masculinidad":70,"pct_menor20":35,"pct_60mas":18,"pct_migrante":82,"dependencia_econ":42,"pct_empleados":50,"pct_cuentapropia":33,"pct_agricultura":8,"pct_comercio":25,"pct_manufactura":17,"pct_construccion":0,"pct_transporte":0,"pct_alojamiento":0,"pct_sin_educacion":0,"pct_educ_superior":58,"brecha_educ":0,"pct_sin_seguro":12,"pct_sus":41,"pct_seguro_privado":0,"brecha_seguro":-20,"pct_salud_publica":25,"pct_med_tradicional":11,"pct_automedicacion":15,"pct_remedios_caseros":27,"pct_viv_desocupada":0,"pct_alquiler":50,"pct_electricidad":100,"pct_sin_electricidad":0,"pct_agua_red":100,"pct_alcantarillado":100,"pct_camara_septica":0,"pct_pozo_ciego":0,"pct_sin_desague":0,"pct_gas_red":67,"pct_gas_garrafa":33,"pct_lena_guano":0,"pct_basura_formal":100,"pct_basura_quema":0,"pct_basura_informal":0,"pct_internet":50,"pct_celular":83,"pct_televisor":67}},{"type":"Feature","geometry":{"type":"Polygon","coordinates":[[[-64.4728,-19.48469],[-64.47256,-19.4849],[-64.47174,-19.48525],[-64.47142,-19.48562],[-64.47168,-19.4858],[-64.47219,-19.48515],[-64.47256,-19.48539],[-64.47331,-19.48442],[-64.47349,-19.48429],[-64.47318,-19.48389],[-64.47293,-19.4839],[-64.47289,-19.48447],[-64.4728,-19.48469]]]},"properties":{"n":"SOPACHUY","p":61,"personas_x_ha":64,"masculinidad":91,"pct_menor20":38,"pct_60mas":23,"pct_migrante":28,"dependencia_econ":118,"pct_empleados":32,"pct_cuentapropia":29,"pct_agricultura":57,"pct_comercio":4,"pct_manufactura":0,"pct_construccion":4,"pct_transporte":4,"pct_alojamiento":4,"pct_sin_educacion":32,"pct_educ_superior":32,"brecha_educ":-11,"pct_sin_seguro":5,"pct_sus":85,"pct_seguro_privado":0,"brecha_seguro":4,"pct_salud_publica":27,"pct_med_tradicional":21,"pct_automedicacion":18,"pct_remedios_caseros":26,"pct_viv_desocupada":6,"pct_alquiler":26,"pct_electricidad":96,"pct_sin_electricidad":4,"pct_agua_red":96,"pct_alcantarillado":100,"pct_camara_septica":0,"pct_pozo_ciego":0,"pct_sin_desague":0,"pct_gas_red":65,"pct_gas_garrafa":26,"pct_lena_guano":4,"pct_basura_formal":96,"pct_basura_quema":4,"pct_basura_informal":0,"pct_internet":83,"pct_celular":91,"pct_televisor":83}},{"type":"Feature","geometry":{"type":"Polygon","coordinates":[[[-64.47417,-19.49318],[-64.47393,-19.49315],[-64.47388,-19.49389],[-64.47412,-19.49388],[-64.47417,-19.49318]]]},"properties":{"n":"SOPACHUY","p":22,"personas_x_ha":108,"masculinidad":83,"pct_menor20":50,"pct_60mas":5,"pct_migrante":45,"dependencia_econ":100,"pct_empleados":64,"pct_cuentapropia":27,"pct_agricultura":9,"pct_comercio":18,"pct_manufactura":9,"pct_construccion":9,"pct_transporte":9,"pct_alojamiento":0,"pct_sin_educacion":0,"pct_educ_superior":50,"brecha_educ":-33,"pct_sin_seguro":0,"pct_sus":68,"pct_seguro_privado":0,"brecha_seguro":0,"pct_salud_publica":41,"pct_med_tradicional":15,"pct_automedicacion":10,"pct_remedios_caseros":15,"pct_viv_desocupada":0,"pct_alquiler":60,"pct_electricidad":100,"pct_sin_electricidad":0,"pct_agua_red":80,"pct_alcantarillado":100,"pct_camara_septica":0,"pct_pozo_ciego":0,"pct_sin_desague":0,"pct_gas_red":60,"pct_gas_garrafa":40,"pct_lena_guano":0,"pct_basura_formal":100,"pct_basura_quema":0,"pct_basura_informal":0,"pct_internet":100,"pct_celular":100,"pct_televisor":60}},{"type":"Feature","geometry":{"type":"Polygon","coordinates":[[[-64.47352,-19.4849],[-64.47352,-19.48453],[-64.47344,-19.48449],[-64.47338,-19.48455],[-64.47331,-19.48449],[-64.47303,-19.48486],[-64.47337,-19.4851],[-64.47352,-19.4849]]]},"properties":{"n":"SOPACHUY","p":64,"personas_x_ha":303,"masculinidad":83,"pct_menor20":33,"pct_60mas":6,"pct_migrante":61,"dependencia_econ":94,"pct_empleados":64,"pct_cuentapropia":6,"pct_agricultura":9,"pct_comercio":6,"pct_manufactura":0,"pct_construccion":9,"pct_transporte":3,"pct_alojamiento":12,"pct_sin_educacion":9,"pct_educ_superior":52,"brecha_educ":-1,"pct_sin_seguro":9,"pct_sus":77,"pct_seguro_privado":0,"brecha_seguro":2,"pct_salud_publica":22,"pct_med_tradicional":18,"pct_automedicacion":18,"pct_remedios_caseros":23,"pct_viv_desocupada":0,"pct_alquiler":55,"pct_electricidad":100,"pct_sin_electricidad":0,"pct_agua_red":100,"pct_alcantarillado":100,"pct_camara_septica":0,"pct_pozo_ciego":0,"pct_sin_desague":0,"pct_gas_red":45,"pct_gas_garrafa":50,"pct_lena_guano":0,"pct_basura_formal":100,"pct_basura_quema":0,"pct_basura_informal":0,"pct_internet":100,"pct_celular":100,"pct_televisor":86}},{"type":"Feature","geometry":{"type":"Polygon","coordinates":[[[-64.47506,-19.48525],[-64.47553,-19.48485],[-64.47515,-19.48447],[-64.47468,-19.48486],[-64.47506,-19.48525]]]},"properties":{"n":"SOPACHUY","p":50,"personas_x_ha":129,"masculinidad":79,"pct_menor20":58,"pct_60mas":4,"pct_migrante":28,"dependencia_econ":127,"pct_empleados":36,"pct_cuentapropia":32,"pct_agricultura":36,"pct_comercio":14,"pct_manufactura":18,"pct_construccion":9,"pct_transporte":0,"pct_alojamiento":9,"pct_sin_educacion":17,"pct_educ_superior":26,"brecha_educ":-2,"pct_sin_seguro":8,"pct_sus":92,"pct_seguro_privado":0,"brecha_seguro":2,"pct_salud_publica":22,"pct_med_tradicional":20,"pct_automedicacion":19,"pct_remedios_caseros":22,"pct_viv_desocupada":0,"pct_alquiler":0,"pct_electricidad":89,"pct_sin_electricidad":0,"pct_agua_red":89,"pct_alcantarillado":44,"pct_camara_septica":0,"pct_pozo_ciego":0,"pct_sin_desague":44,"pct_gas_red":0,"pct_gas_garrafa":100,"pct_lena_guano":0,"pct_basura_formal":100,"pct_basura_quema":0,"pct_basura_informal":0,"pct_internet":100,"pct_celular":100,"pct_televisor":56}},{"type":"Feature","geometry":{"type":"Polygon","coordinates":[[[-64.4722,-19.48585],[-64.47253,-19.48541],[-64.47215,-19.48525],[-64.47173,-19.48581],[-64.4722,-19.48585]]]},"properties":{"n":"SOPACHUY","p":57,"personas_x_ha":184,"masculinidad":104,"pct_menor20":30,"pct_60mas":19,"pct_migrante":37,"dependencia_econ":63,"pct_empleados":34,"pct_cuentapropia":23,"pct_agricultura":31,"pct_comercio":3,"pct_manufactura":3,"pct_construccion":20,"pct_transporte":0,"pct_alojamiento":9,"pct_sin_educacion":20,"pct_educ_superior":25,"brecha_educ":-25,"pct_sin_seguro":21,"pct_sus":58,"pct_seguro_privado":2,"brecha_seguro":20,"pct_salud_publica":25,"pct_med_tradicional":12,"pct_automedicacion":12,"pct_remedios_caseros":26,"pct_viv_desocupada":0,"pct_alquiler":11,"pct_electricidad":94,"pct_sin_electricidad":6,"pct_agua_red":83,"pct_alcantarillado":83,"pct_camara_septica":0,"pct_pozo_ciego":0,"pct_sin_desague":11,"pct_gas_red":56,"pct_gas_garrafa":39,"pct_lena_guano":6,"pct_basura_formal":94,"pct_basura_quema":0,"pct_basura_informal":6,"pct_internet":89,"pct_celular":83,"pct_televisor":78}},{"type":"Feature","geometry":{"type":"Polygon","coordinates":[[[-64.47418,-19.49311],[-64.47421,-19.49245],[-64.47371,-19.49241],[-64.47369,-19.49303],[-64.47418,-19.49311]]]},"properties":{"n":"SOPACHUY","p":28,"personas_x_ha":76,"masculinidad":87,"pct_menor20":50,"pct_60mas":7,"pct_migrante":57,"dependencia_econ":133,"pct_empleados":75,"pct_cuentapropia":25,"pct_agricultura":0,"pct_comercio":17,"pct_manufactura":0,"pct_construccion":17,"pct_transporte":0,"pct_alojamiento":17,"pct_sin_educacion":7,"pct_educ_superior":73,"brecha_educ":2,"pct_sin_seguro":7,"pct_sus":68,"pct_seguro_privado":11,"brecha_seguro":15,"pct_salud_publica":23,"pct_med_tradicional":18,"pct_automedicacion":20,"pct_remedios_caseros":24,"pct_viv_desocupada":0,"pct_alquiler":11,"pct_electricidad":100,"pct_sin_electricidad":0,"pct_agua_red":100,"pct_alcantarillado":100,"pct_camara_septica":0,"pct_pozo_ciego":0,"pct_sin_desague":0,"pct_gas_red":78,"pct_gas_garrafa":11,"pct_lena_guano":0,"pct_basura_formal":100,"pct_basura_quema":0,"pct_basura_informal":0,"pct_internet":89,"pct_celular":89,"pct_televisor":100}},{"type":"Feature","geometry":{"type":"Polygon","coordinates":[[[-64.47374,-19.48719],[-64.47361,-19.48732],[-64.47434,-19.48784],[-64.47416,-19.48818],[-64.47431,-19.48828],[-64.47458,-19.48778],[-64.47374,-19.48719]]]},"properties":{"n":"SOPACHUY","p":35,"personas_x_ha":114,"masculinidad":75,"pct_menor20":31,"pct_60mas":17,"pct_migrante":57,"dependencia_econ":84,"pct_empleados":26,"pct_cuentapropia":42,"pct_agricultura":21,"pct_comercio":11,"pct_manufactura":5,"pct_construccion":5,"pct_transporte":5,"pct_alojamiento":0,"pct_sin_educacion":16,"pct_educ_superior":60,"brecha_educ":-6,"pct_sin_seguro":17,"pct_sus":66,"pct_seguro_privado":0,"brecha_seguro":17,"pct_salud_publica":30,"pct_med_tradicional":9,"pct_automedicacion":21,"pct_remedios_caseros":20,"pct_viv_desocupada":0,"pct_alquiler":43,"pct_electricidad":100,"pct_sin_electricidad":0,"pct_agua_red":79,"pct_alcantarillado":79,"pct_camara_septica":0,"pct_pozo_ciego":14,"pct_sin_desague":7,"pct_gas_red":36,"pct_gas_garrafa":57,"pct_lena_guano":7,"pct_basura_formal":100,"pct_basura_quema":0,"pct_basura_informal":0,"pct_internet":86,"pct_celular":93,"pct_televisor":64}},{"type":"Feature","geometry":{"type":"Polygon","coordinates":[[[-64.47399,-19.4904],[-64.47415,-19.48928],[-64.47395,-19.48918],[-64.47355,-19.48998],[-64.47373,-19.49006],[-64.47366,-19.49027],[-64.47399,-19.4904]]]},"properties":{"n":"SOPACHUY","p":52,"personas_x_ha":113,"masculinidad":117,"pct_menor20":44,"pct_60mas":12,"pct_migrante":23,"dependencia_econ":86,"pct_empleados":39,"pct_cuentapropia":46,"pct_agricultura":46,"pct_comercio":11,"pct_manufactura":7,"pct_construccion":7,"pct_transporte":4,"pct_alojamiento":0,"pct_sin_educacion":10,"pct_educ_superior":17,"brecha_educ":-19,"pct_sin_seguro":6,"pct_sus":86,"pct_seguro_privado":0,"brecha_seguro":11,"pct_salud_publica":26,"pct_med_tradicional":22,"pct_automedicacion":21,"pct_remedios_caseros":25,"pct_viv_desocupada":4,"pct_alquiler":18,"pct_electricidad":94,"pct_sin_electricidad":0,"pct_agua_red":100,"pct_alcantarillado":100,"pct_camara_septica":0,"pct_pozo_ciego":0,"pct_sin_desague":0,"pct_gas_red":47,"pct_gas_garrafa":47,"pct_lena_guano":0,"pct_basura_formal":100,"pct_basura_quema":0,"pct_basura_informal":0,"pct_internet":88,"pct_celular":88,"pct_televisor":53}},{"type":"Feature","geometry":{"type":"Polygon","coordinates":[[[-64.47551,-19.48777],[-64.47567,-19.48734],[-64.47504,-19.48701],[-64.47457,-19.48646],[-64.47404,-19.48683],[-64.47502,-19.48753],[-64.47551,-19.48777]]]},"properties":{"n":"SOPACHUY","p":33,"personas_x_ha":35,"masculinidad":136,"pct_menor20":27,"pct_60mas":12,"pct_migrante":70,"dependencia_econ":78,"pct_empleados":44,"pct_cuentapropia":28,"pct_agricultura":0,"pct_comercio":6,"pct_manufactura":6,"pct_construccion":11,"pct_transporte":22,"pct_alojamiento":0,"pct_sin_educacion":0,"pct_educ_superior":52,"brecha_educ":3,"pct_sin_seguro":25,"pct_sus":31,"pct_seguro_privado":0,"brecha_seguro":16,"pct_salud_publica":26,"pct_med_tradicional":8,"pct_automedicacion":19,"pct_remedios_caseros":23,"pct_viv_desocupada":7,"pct_alquiler":30,"pct_electricidad":100,"pct_sin_electricidad":0,"pct_agua_red":100,"pct_alcantarillado":100,"pct_camara_septica":0,"pct_pozo_ciego":0,"pct_sin_desague":0,"pct_gas_red":50,"pct_gas_garrafa":50,"pct_lena_guano":0,"pct_basura_formal":100,"pct_basura_quema":0,"pct_basura_informal":0,"pct_internet":100,"pct_celular":100,"pct_televisor":90}},{"type":"Feature","geometry":{"type":"Polygon","coordinates":[[[-64.47421,-19.4893],[-64.47408,-19.49038],[-64.47438,-19.49044],[-64.47445,-19.48941],[-64.47421,-19.4893]]]},"properties":{"n":"SOPACHUY","p":68,"personas_x_ha":189,"masculinidad":84,"pct_menor20":38,"pct_60mas":10,"pct_migrante":38,"dependencia_econ":196,"pct_empleados":30,"pct_cuentapropia":61,"pct_agricultura":13,"pct_comercio":9,"pct_manufactura":9,"pct_construccion":17,"pct_transporte":4,"pct_alojamiento":22,"pct_sin_educacion":12,"pct_educ_superior":31,"brecha_educ":13,"pct_sin_seguro":13,"pct_sus":85,"pct_seguro_privado":0,"brecha_seguro":11,"pct_salud_publica":32,"pct_med_tradicional":11,"pct_automedicacion":22,"pct_remedios_caseros":27,"pct_viv_desocupada":5,"pct_alquiler":12,"pct_electricidad":100,"pct_sin_electricidad":0,"pct_agua_red":94,"pct_alcantarillado":100,"pct_camara_septica":0,"pct_pozo_ciego":0,"pct_sin_desague":0,"pct_gas_red":71,"pct_gas_garrafa":29,"pct_lena_guano":0,"pct_basura_formal":94,"pct_basura_quema":0,"pct_basura_informal":0,"pct_internet":71,"pct_celular":82,"pct_televisor":59}},{"type":"Feature","geometry":{"type":"Polygon","coordinates":[[[-64.4758,-19.48704],[-64.47566,-19.48727],[-64.47608,-19.48751],[-64.47623,-19.48725],[-64.4758,-19.48704]]]},"properties":{"n":"SOPACHUY","p":21,"personas_x_ha":132,"masculinidad":62,"pct_menor20":14,"pct_60mas":43,"pct_migrante":62,"dependencia_econ":82,"pct_empleados":55,"pct_cuentapropia":27,"pct_agricultura":9,"pct_comercio":18,"pct_manufactura":0,"pct_construccion":9,"pct_transporte":0,"pct_alojamiento":0,"pct_sin_educacion":0,"pct_educ_superior":76,"brecha_educ":14,"pct_sin_seguro":10,"pct_sus":70,"pct_seguro_privado":0,"brecha_seguro":25,"pct_salud_publica":22,"pct_med_tradicional":14,"pct_automedicacion":12,"pct_remedios_caseros":22,"pct_viv_desocupada":0,"pct_alquiler":42,"pct_electricidad":100,"pct_sin_electricidad":0,"pct_agua_red":100,"pct_alcantarillado":100,"pct_camara_septica":0,"pct_pozo_ciego":0,"pct_sin_desague":0,"pct_gas_red":42,"pct_gas_garrafa":33,"pct_lena_guano":0,"pct_basura_formal":100,"pct_basura_quema":0,"pct_basura_informal":0,"pct_internet":92,"pct_celular":100,"pct_televisor":58}},{"type":"Feature","geometry":{"type":"Polygon","coordinates":[[[-64.47532,-19.48797],[-64.47486,-19.48754],[-64.47461,-19.48796],[-64.4752,-19.48824],[-64.47532,-19.48797]]]},"properties":{"n":"SOPACHUY","p":32,"personas_x_ha":105,"masculinidad":129,"pct_menor20":31,"pct_60mas":6,"pct_migrante":38,"dependencia_econ":129,"pct_empleados":36,"pct_cuentapropia":43,"pct_agricultura":21,"pct_comercio":36,"pct_manufactura":0,"pct_construccion":7,"pct_transporte":0,"pct_alojamiento":7,"pct_sin_educacion":9,"pct_educ_superior":64,"brecha_educ":-36,"pct_sin_seguro":16,"pct_sus":84,"pct_seguro_privado":0,"brecha_seguro":1,"pct_salud_publica":33,"pct_med_tradicional":10,"pct_automedicacion":16,"pct_remedios_caseros":28,"pct_viv_desocupada":0,"pct_alquiler":12,"pct_electricidad":100,"pct_sin_electricidad":0,"pct_agua_red":100,"pct_alcantarillado":100,"pct_camara_septica":0,"pct_pozo_ciego":0,"pct_sin_desague":0,"pct_gas_red":88,"pct_gas_garrafa":0,"pct_lena_guano":0,"pct_basura_formal":100,"pct_basura_quema":0,"pct_basura_informal":0,"pct_internet":88,"pct_celular":100,"pct_televisor":88}},{"type":"Feature","geometry":{"type":"Polygon","coordinates":[[[-64.47369,-19.489],[-64.47388,-19.48909],[-64.47424,-19.48843],[-64.47405,-19.48832],[-64.47369,-19.489]]]},"properties":{"n":"SOPACHUY","p":44,"personas_x_ha":232,"masculinidad":100,"pct_menor20":52,"pct_60mas":2,"pct_migrante":36,"dependencia_econ":100,"pct_empleados":20,"pct_cuentapropia":50,"pct_agricultura":45,"pct_comercio":10,"pct_manufactura":5,"pct_construccion":20,"pct_transporte":0,"pct_alojamiento":0,"pct_sin_educacion":15,"pct_educ_superior":20,"brecha_educ":-10,"pct_sin_seguro":2,"pct_sus":82,"pct_seguro_privado":0,"brecha_seguro":5,"pct_salud_publica":25,"pct_med_tradicional":16,"pct_automedicacion":19,"pct_remedios_caseros":23,"pct_viv_desocupada":0,"pct_alquiler":27,"pct_electricidad":100,"pct_sin_electricidad":0,"pct_agua_red":91,"pct_alcantarillado":73,"pct_camara_septica":0,"pct_pozo_ciego":18,"pct_sin_desague":9,"pct_gas_red":64,"pct_gas_garrafa":27,"pct_lena_guano":0,"pct_basura_formal":91,"pct_basura_quema":9,"pct_basura_informal":0,"pct_internet":91,"pct_celular":100,"pct_televisor":64}},{"type":"Feature","geometry":{"type":"Polygon","coordinates":[[[-64.47482,-19.48617],[-64.4754,-19.48575],[-64.47462,-19.48492],[-64.47412,-19.4854],[-64.47482,-19.48617]]]},"properties":{"n":"SOPACHUY","p":41,"personas_x_ha":45,"masculinidad":71,"pct_menor20":37,"pct_60mas":12,"pct_migrante":24,"dependencia_econ":100,"pct_empleados":25,"pct_cuentapropia":20,"pct_agricultura":25,"pct_comercio":10,"pct_manufactura":0,"pct_construccion":5,"pct_transporte":0,"pct_alojamiento":0,"pct_sin_educacion":8,"pct_educ_superior":44,"brecha_educ":-20,"pct_sin_seguro":5,"pct_sus":72,"pct_seguro_privado":0,"brecha_seguro":2,"pct_salud_publica":20,"pct_med_tradicional":20,"pct_automedicacion":22,"pct_remedios_caseros":23,"pct_viv_desocupada":5,"pct_alquiler":8,"pct_electricidad":100,"pct_sin_electricidad":0,"pct_agua_red":100,"pct_alcantarillado":92,"pct_camara_septica":0,"pct_pozo_ciego":0,"pct_sin_desague":8,"pct_gas_red":42,"pct_gas_garrafa":42,"pct_lena_guano":17,"pct_basura_formal":92,"pct_basura_quema":8,"pct_basura_informal":0,"pct_internet":100,"pct_celular":100,"pct_televisor":75}},{"type":"Feature","geometry":{"type":"Polygon","coordinates":[[[-64.4755,-19.49401],[-64.47584,-19.4933],[-64.47486,-19.49323],[-64.47482,-19.49395],[-64.4755,-19.49401]]]},"properties":{"n":"SOPACHUY","p":28,"personas_x_ha":39,"masculinidad":75,"pct_menor20":57,"pct_60mas":0,"pct_migrante":64,"dependencia_econ":178,"pct_empleados":33,"pct_cuentapropia":67,"pct_agricultura":33,"pct_comercio":0,"pct_manufactura":11,"pct_construccion":0,"pct_transporte":11,"pct_alojamiento":0,"pct_sin_educacion":0,"pct_educ_superior":60,"brecha_educ":0,"pct_sin_seguro":4,"pct_sus":96,"pct_seguro_privado":0,"brecha_seguro":9,"pct_salud_publica":35,"pct_med_tradicional":1,"pct_automedicacion":30,"pct_remedios_caseros":30,"pct_viv_desocupada":0,"pct_alquiler":60,"pct_electricidad":100,"pct_sin_electricidad":0,"pct_agua_red":100,"pct_alcantarillado":100,"pct_camara_septica":0,"pct_pozo_ciego":0,"pct_sin_desague":0,"pct_gas_red":80,"pct_gas_garrafa":20,"pct_lena_guano":0,"pct_basura_formal":100,"pct_basura_quema":0,"pct_basura_informal":0,"pct_internet":40,"pct_celular":60,"pct_televisor":40}},{"type":"Feature","geometry":{"type":"Polygon","coordinates":[[[-64.47622,-19.48808],[-64.47554,-19.48785],[-64.47526,-19.48843],[-64.47471,-19.48876],[-64.47456,-19.48917],[-64.47446,-19.4905],[-64.47506,-19.49072],[-64.47622,-19.48808]]]},"properties":{"n":"SOPACHUY","p":142,"personas_x_ha":48,"masculinidad":82,"pct_menor20":35,"pct_60mas":8,"pct_migrante":49,"dependencia_econ":109,"pct_empleados":29,"pct_cuentapropia":57,"pct_agricultura":18,"pct_comercio":22,"pct_manufactura":6,"pct_construccion":1,"pct_transporte":10,"pct_alojamiento":0,"pct_sin_educacion":9,"pct_educ_superior":36,"brecha_educ":-15,"pct_sin_seguro":10,"pct_sus":85,"pct_seguro_privado":3,"brecha_seguro":8,"pct_salud_publica":25,"pct_med_tradicional":17,"pct_automedicacion":19,"pct_remedios_caseros":24,"pct_viv_desocupada":0,"pct_alquiler":43,"pct_electricidad":100,"pct_sin_electricidad":0,"pct_agua_red":96,"pct_alcantarillado":98,"pct_camara_septica":2,"pct_pozo_ciego":0,"pct_sin_desague":0,"pct_gas_red":61,"pct_gas_garrafa":39,"pct_lena_guano":0,"pct_basura_formal":93,"pct_basura_quema":7,"pct_basura_informal":0,"pct_internet":78,"pct_celular":85,"pct_televisor":70}},{"type":"Feature","geometry":{"type":"Polygon","coordinates":[[[-64.47477,-19.49241],[-64.4749,-19.49123],[-64.47503,-19.4908],[-64.47445,-19.49056],[-64.47431,-19.49236],[-64.47477,-19.49241]]]},"properties":{"n":"SOPACHUY","p":42,"personas_x_ha":41,"masculinidad":83,"pct_menor20":33,"pct_60mas":19,"pct_migrante":55,"dependencia_econ":75,"pct_empleados":25,"pct_cuentapropia":46,"pct_agricultura":25,"pct_comercio":8,"pct_manufactura":12,"pct_construccion":0,"pct_transporte":0,"pct_alojamiento":12,"pct_sin_educacion":7,"pct_educ_superior":50,"brecha_educ":16,"pct_sin_seguro":0,"pct_sus":86,"pct_seguro_privado":0,"brecha_seguro":0,"pct_salud_publica":29,"pct_med_tradicional":4,"pct_automedicacion":18,"pct_remedios_caseros":22,"pct_viv_desocupada":4,"pct_alquiler":26,"pct_electricidad":100,"pct_sin_electricidad":0,"pct_agua_red":100,"pct_alcantarillado":100,"pct_camara_septica":0,"pct_pozo_ciego":0,"pct_sin_desague":0,"pct_gas_red":42,"pct_gas_garrafa":53,"pct_lena_guano":0,"pct_basura_formal":100,"pct_basura_quema":0,"pct_basura_informal":0,"pct_internet":79,"pct_celular":89,"pct_televisor":74}},{"type":"Feature","geometry":{"type":"Polygon","coordinates":[[[-64.47366,-19.49231],[-64.47371,-19.49148],[-64.47308,-19.49142],[-64.47296,-19.49226],[-64.47366,-19.49231]]]},"properties":{"n":"SOPACHUY","p":23,"personas_x_ha":34,"masculinidad":156,"pct_menor20":35,"pct_60mas":9,"pct_migrante":35,"dependencia_econ":77,"pct_empleados":38,"pct_cuentapropia":38,"pct_agricultura":23,"pct_comercio":15,"pct_manufactura":23,"pct_construccion":15,"pct_transporte":0,"pct_alojamiento":0,"pct_sin_educacion":7,"pct_educ_superior":20,"brecha_educ":-20,"pct_sin_seguro":4,"pct_sus":87,"pct_seguro_privado":0,"brecha_seguro":7,"pct_salud_publica":48,"pct_med_tradicional":8,"pct_automedicacion":21,"pct_remedios_caseros":12,"pct_viv_desocupada":0,"pct_alquiler":0,"pct_electricidad":88,"pct_sin_electricidad":0,"pct_agua_red":50,"pct_alcantarillado":100,"pct_camara_septica":0,"pct_pozo_ciego":0,"pct_sin_desague":0,"pct_gas_red":50,"pct_gas_garrafa":50,"pct_lena_guano":0,"pct_basura_formal":100,"pct_basura_quema":0,"pct_basura_informal":0,"pct_internet":88,"pct_celular":100,"pct_televisor":75}},{"type":"Feature","geometry":{"type":"Polygon","coordinates":[[[-64.47422,-19.49391],[-64.47468,-19.49393],[-64.47476,-19.49248],[-64.4743,-19.49246],[-64.47422,-19.49391]]]},"properties":{"n":"SOPACHUY","p":45,"personas_x_ha":57,"masculinidad":96,"pct_menor20":36,"pct_60mas":13,"pct_migrante":24,"dependencia_econ":181,"pct_empleados":31,"pct_cuentapropia":38,"pct_agricultura":19,"pct_comercio":19,"pct_manufactura":6,"pct_construccion":12,"pct_transporte":0,"pct_alojamiento":6,"pct_sin_educacion":20,"pct_educ_superior":30,"brecha_educ":-42,"pct_sin_seguro":0,"pct_sus":78,"pct_seguro_privado":0,"brecha_seguro":0,"pct_salud_publica":29,"pct_med_tradicional":11,"pct_automedicacion":24,"pct_remedios_caseros":28,"pct_viv_desocupada":0,"pct_alquiler":7,"pct_electricidad":100,"pct_sin_electricidad":0,"pct_agua_red":100,"pct_alcantarillado":93,"pct_camara_septica":0,"pct_pozo_ciego":0,"pct_sin_desague":7,"pct_gas_red":73,"pct_gas_garrafa":20,"pct_lena_guano":0,"pct_basura_formal":100,"pct_basura_quema":0,"pct_basura_informal":0,"pct_internet":80,"pct_celular":80,"pct_televisor":73}},{"type":"Feature","geometry":{"type":"Polygon","coordinates":[[[-64.47212,-19.491],[-64.47236,-19.49117],[-64.47342,-19.4899],[-64.47384,-19.48914],[-64.47366,-19.48905],[-64.47334,-19.4896],[-64.47212,-19.491]]]},"properties":{"n":"SOPACHUY","p":19,"personas_x_ha":25,"masculinidad":58,"pct_menor20":47,"pct_60mas":21,"pct_migrante":47,"dependencia_econ":280,"pct_empleados":20,"pct_cuentapropia":80,"pct_agricultura":20,"pct_comercio":20,"pct_manufactura":20,"pct_construccion":0,"pct_transporte":0,"pct_alojamiento":20,"pct_sin_educacion":18,"pct_educ_superior":0,"brecha_educ":-8,"pct_sin_seguro":0,"pct_sus":100,"pct_seguro_privado":0,"brecha_seguro":0,"pct_salud_publica":31,"pct_med_tradicional":10,"pct_automedicacion":27,"pct_remedios_caseros":27,"pct_viv_desocupada":0,"pct_alquiler":14,"pct_electricidad":100,"pct_sin_electricidad":0,"pct_agua_red":86,"pct_alcantarillado":14,"pct_camara_septica":0,"pct_pozo_ciego":43,"pct_sin_desague":43,"pct_gas_red":0,"pct_gas_garrafa":100,"pct_lena_guano":0,"pct_basura_formal":43,"pct_basura_quema":57,"pct_basura_informal":0,"pct_internet":57,"pct_celular":100,"pct_televisor":43}},{"type":"Feature","geometry":{"type":"Polygon","coordinates":[[[-64.47595,-19.49248],[-64.4763,-19.49063],[-64.47612,-19.49058],[-64.47677,-19.48941],[-64.47714,-19.48852],[-64.47665,-19.48829],[-64.47657,-19.48811],[-64.47632,-19.48801],[-64.47515,-19.49078],[-64.47582,-19.49098],[-64.47513,-19.49083],[-64.47499,-19.49123],[-64.47492,-19.49242],[-64.47595,-19.49248]]]},"properties":{"n":"SOPACHUY","p":64,"personas_x_ha":13,"masculinidad":73,"pct_menor20":23,"pct_60mas":39,"pct_migrante":38,"dependencia_econ":94,"pct_empleados":30,"pct_cuentapropia":64,"pct_agricultura":24,"pct_comercio":27,"pct_manufactura":3,"pct_construccion":0,"pct_transporte":0,"pct_alojamiento":3,"pct_sin_educacion":14,"pct_educ_superior":46,"brecha_educ":-2,"pct_sin_seguro":6,"pct_sus":86,"pct_seguro_privado":3,"brecha_seguro":2,"pct_salud_publica":29,"pct_med_tradicional":11,"pct_automedicacion":16,"pct_remedios_caseros":24,"pct_viv_desocupada":2,"pct_alquiler":14,"pct_electricidad":100,"pct_sin_electricidad":0,"pct_agua_red":100,"pct_alcantarillado":96,"pct_camara_septica":0,"pct_pozo_ciego":0,"pct_sin_desague":4,"pct_gas_red":68,"pct_gas_garrafa":29,"pct_lena_guano":4,"pct_basura_formal":100,"pct_basura_quema":0,"pct_basura_informal":0,"pct_internet":86,"pct_celular":96,"pct_televisor":86}},{"type":"Feature","geometry":{"type":"Polygon","coordinates":[[[-64.47401,-19.4868],[-64.4745,-19.48638],[-64.47381,-19.48571],[-64.47336,-19.48635],[-64.47401,-19.4868]]]},"properties":{"n":"SOPACHUY","p":25,"personas_x_ha":32,"masculinidad":178,"pct_menor20":56,"pct_60mas":8,"pct_migrante":68,"dependencia_econ":118,"pct_empleados":27,"pct_cuentapropia":64,"pct_agricultura":27,"pct_comercio":18,"pct_manufactura":0,"pct_construccion":0,"pct_transporte":0,"pct_alojamiento":9,"pct_sin_educacion":20,"pct_educ_superior":70,"brecha_educ":8,"pct_sin_seguro":14,"pct_sus":64,"pct_seguro_privado":0,"brecha_seguro":-1,"pct_salud_publica":32,"pct_med_tradicional":7,"pct_automedicacion":16,"pct_remedios_caseros":30,"pct_viv_desocupada":0,"pct_alquiler":43,"pct_electricidad":71,"pct_sin_electricidad":29,"pct_agua_red":71,"pct_alcantarillado":71,"pct_camara_septica":0,"pct_pozo_ciego":0,"pct_sin_desague":29,"pct_gas_red":43,"pct_gas_garrafa":43,"pct_lena_guano":0,"pct_basura_formal":100,"pct_basura_quema":0,"pct_basura_informal":0,"pct_internet":71,"pct_celular":71,"pct_televisor":71}},{"type":"Feature","geometry":{"type":"Polygon","coordinates":[[[-64.47803,-19.48443],[-64.47748,-19.48504],[-64.47785,-19.48526],[-64.47836,-19.48467],[-64.47875,-19.48455],[-64.47944,-19.48459],[-64.47945,-19.48428],[-64.47838,-19.48428],[-64.47803,-19.48443]]]},"properties":{"n":"SOPACHUY","p":42,"personas_x_ha":49,"masculinidad":68,"pct_menor20":40,"pct_60mas":17,"pct_migrante":36,"dependencia_econ":91,"pct_empleados":14,"pct_cuentapropia":77,"pct_agricultura":32,"pct_comercio":23,"pct_manufactura":0,"pct_construccion":18,"pct_transporte":0,"pct_alojamiento":14,"pct_sin_educacion":27,"pct_educ_superior":4,"brecha_educ":-26,"pct_sin_seguro":12,"pct_sus":86,"pct_seguro_privado":0,"brecha_seguro":-10,"pct_salud_publica":25,"pct_med_tradicional":17,"pct_automedicacion":25,"pct_remedios_caseros":25,"pct_viv_desocupada":0,"pct_alquiler":17,"pct_electricidad":100,"pct_sin_electricidad":0,"pct_agua_red":100,"pct_alcantarillado":92,"pct_camara_septica":0,"pct_pozo_ciego":0,"pct_sin_desague":8,"pct_gas_red":58,"pct_gas_garrafa":42,"pct_lena_guano":0,"pct_basura_formal":100,"pct_basura_quema":0,"pct_basura_informal":0,"pct_internet":83,"pct_celular":100,"pct_televisor":75}},{"type":"Feature","geometry":{"type":"Polygon","coordinates":[[[-64.47295,-19.48565],[-64.47335,-19.48512],[-64.47302,-19.48488],[-64.47261,-19.48542],[-64.47295,-19.48565]]]},"properties":{"n":"SOPACHUY","p":40,"personas_x_ha":125,"masculinidad":135,"pct_menor20":30,"pct_60mas":5,"pct_migrante":45,"dependencia_econ":67,"pct_empleados":42,"pct_cuentapropia":21,"pct_agricultura":42,"pct_comercio":4,"pct_manufactura":8,"pct_construccion":12,"pct_transporte":0,"pct_alojamiento":4,"pct_sin_educacion":10,"pct_educ_superior":48,"brecha_educ":-40,"pct_sin_seguro":10,"pct_sus":62,"pct_seguro_privado":0,"brecha_seguro":7,"pct_salud_publica":22,"pct_med_tradicional":16,"pct_automedicacion":23,"pct_remedios_caseros":23,"pct_viv_desocupada":0,"pct_alquiler":25,"pct_electricidad":100,"pct_sin_electricidad":0,"pct_agua_red":100,"pct_alcantarillado":100,"pct_camara_septica":0,"pct_pozo_ciego":0,"pct_sin_desague":0,"pct_gas_red":75,"pct_gas_garrafa":25,"pct_lena_guano":0,"pct_basura_formal":100,"pct_basura_quema":0,"pct_basura_informal":0,"pct_internet":100,"pct_celular":100,"pct_televisor":92}},{"type":"Feature","geometry":{"type":"Polygon","coordinates":[[[-64.4735,-19.49571],[-64.47401,-19.49572],[-64.4741,-19.49396],[-64.47363,-19.49393],[-64.4735,-19.49571]]]},"properties":{"n":"SOPACHUY","p":44,"personas_x_ha":43,"masculinidad":91,"pct_menor20":45,"pct_60mas":2,"pct_migrante":39,"dependencia_econ":193,"pct_empleados":33,"pct_cuentapropia":27,"pct_agricultura":0,"pct_comercio":13,"pct_manufactura":27,"pct_construccion":20,"pct_transporte":7,"pct_alojamiento":13,"pct_sin_educacion":17,"pct_educ_superior":12,"brecha_educ":-25,"pct_sin_seguro":5,"pct_sus":95,"pct_seguro_privado":0,"brecha_seguro":10,"pct_salud_publica":25,"pct_med_tradicional":13,"pct_automedicacion":24,"pct_remedios_caseros":23,"pct_viv_desocupada":9,"pct_alquiler":0,"pct_electricidad":92,"pct_sin_electricidad":8,"pct_agua_red":92,"pct_alcantarillado":77,"pct_camara_septica":0,"pct_pozo_ciego":0,"pct_sin_desague":23,"pct_gas_red":62,"pct_gas_garrafa":23,"pct_lena_guano":15,"pct_basura_formal":92,"pct_basura_quema":8,"pct_basura_informal":0,"pct_internet":69,"pct_celular":69,"pct_televisor":62}},{"type":"Feature","geometry":{"type":"Polygon","coordinates":[[[-64.47547,-19.49408],[-64.47481,-19.49405],[-64.47468,-19.49584],[-64.47508,-19.49586],[-64.47516,-19.49576],[-64.47547,-19.49408]]]},"properties":{"n":"SOPACHUY","p":22,"personas_x_ha":19,"masculinidad":57,"pct_menor20":45,"pct_60mas":18,"pct_migrante":9,"dependencia_econ":267,"pct_empleados":0,"pct_cuentapropia":83,"pct_agricultura":83,"pct_comercio":17,"pct_manufactura":0,"pct_construccion":0,"pct_transporte":0,"pct_alojamiento":0,"pct_sin_educacion":33,"pct_educ_superior":17,"brecha_educ":-62,"pct_sin_seguro":5,"pct_sus":82,"pct_seguro_privado":0,"brecha_seguro":12,"pct_salud_publica":33,"pct_med_tradicional":19,"pct_automedicacion":16,"pct_remedios_caseros":17,"pct_viv_desocupada":0,"pct_alquiler":0,"pct_electricidad":78,"pct_sin_electricidad":22,"pct_agua_red":100,"pct_alcantarillado":89,"pct_camara_septica":0,"pct_pozo_ciego":0,"pct_sin_desague":11,"pct_gas_red":67,"pct_gas_garrafa":33,"pct_lena_guano":0,"pct_basura_formal":100,"pct_basura_quema":0,"pct_basura_informal":0,"pct_internet":33,"pct_celular":44,"pct_televisor":67}},{"type":"Feature","geometry":{"type":"Polygon","coordinates":[[[-64.47445,-19.48934],[-64.47469,-19.4886],[-64.4744,-19.4884],[-64.47402,-19.48915],[-64.47445,-19.48934]]]},"properties":{"n":"SOPACHUY","p":49,"personas_x_ha":133,"masculinidad":75,"pct_menor20":37,"pct_60mas":27,"pct_migrante":33,"dependencia_econ":145,"pct_empleados":50,"pct_cuentapropia":35,"pct_agricultura":25,"pct_comercio":15,"pct_manufactura":10,"pct_construccion":0,"pct_transporte":5,"pct_alojamiento":30,"pct_sin_educacion":28,"pct_educ_superior":22,"brecha_educ":-9,"pct_sin_seguro":14,"pct_sus":80,"pct_seguro_privado":0,"brecha_seguro":-8,"pct_salud_publica":23,"pct_med_tradicional":21,"pct_automedicacion":23,"pct_remedios_caseros":24,"pct_viv_desocupada":0,"pct_alquiler":19,"pct_electricidad":100,"pct_sin_electricidad":0,"pct_agua_red":94,"pct_alcantarillado":100,"pct_camara_septica":0,"pct_pozo_ciego":0,"pct_sin_desague":0,"pct_gas_red":69,"pct_gas_garrafa":31,"pct_lena_guano":0,"pct_basura_formal":100,"pct_basura_quema":0,"pct_basura_informal":0,"pct_internet":81,"pct_celular":88,"pct_televisor":75}},{"type":"Feature","geometry":{"type":"Polygon","coordinates":[[[-64.47624,-19.48622],[-64.47558,-19.48621],[-64.47543,-19.4858],[-64.47485,-19.48621],[-64.47524,-19.48668],[-64.47579,-19.48694],[-64.47624,-19.48622]]]},"properties":{"n":"SOPACHUY","p":56,"personas_x_ha":66,"masculinidad":70,"pct_menor20":30,"pct_60mas":20,"pct_migrante":41,"dependencia_econ":124,"pct_empleados":36,"pct_cuentapropia":40,"pct_agricultura":32,"pct_comercio":28,"pct_manufactura":4,"pct_construccion":16,"pct_transporte":0,"pct_alojamiento":4,"pct_sin_educacion":5,"pct_educ_superior":21,"brecha_educ":-18,"pct_sin_seguro":0,"pct_sus":82,"pct_seguro_privado":0,"brecha_seguro":0,"pct_salud_publica":29,"pct_med_tradicional":13,"pct_automedicacion":19,"pct_remedios_caseros":26,"pct_viv_desocupada":17,"pct_alquiler":24,"pct_electricidad":100,"pct_sin_electricidad":0,"pct_agua_red":100,"pct_alcantarillado":100,"pct_camara_septica":0,"pct_pozo_ciego":0,"pct_sin_desague":0,"pct_gas_red":62,"pct_gas_garrafa":38,"pct_lena_guano":0,"pct_basura_formal":90,"pct_basura_quema":10,"pct_basura_informal":0,"pct_internet":71,"pct_celular":100,"pct_televisor":76}},{"type":"Feature","geometry":{"type":"Polygon","coordinates":[[[-64.47661,-19.48479],[-64.47578,-19.48407],[-64.47527,-19.48442],[-64.47613,-19.48542],[-64.47621,-19.48534],[-64.4762,-19.48488],[-64.47632,-19.48484],[-64.47659,-19.48504],[-64.47661,-19.48479]]]},"properties":{"n":"SOPACHUY","p":25,"personas_x_ha":26,"masculinidad":56,"pct_menor20":44,"pct_60mas":12,"pct_migrante":28,"dependencia_econ":108,"pct_empleados":42,"pct_cuentapropia":42,"pct_agricultura":17,"pct_comercio":8,"pct_manufactura":8,"pct_construccion":25,"pct_transporte":0,"pct_alojamiento":25,"pct_sin_educacion":14,"pct_educ_superior":14,"brecha_educ":4,"pct_sin_seguro":0,"pct_sus":100,"pct_seguro_privado":0,"brecha_seguro":0,"pct_salud_publica":23,"pct_med_tradicional":23,"pct_automedicacion":23,"pct_remedios_caseros":22,"pct_viv_desocupada":0,"pct_alquiler":0,"pct_electricidad":100,"pct_sin_electricidad":0,"pct_agua_red":100,"pct_alcantarillado":33,"pct_camara_septica":0,"pct_pozo_ciego":0,"pct_sin_desague":67,"pct_gas_red":17,"pct_gas_garrafa":67,"pct_lena_guano":17,"pct_basura_formal":100,"pct_basura_quema":0,"pct_basura_informal":0,"pct_internet":83,"pct_celular":100,"pct_televisor":83}},{"type":"Feature","geometry":{"type":"Polygon","coordinates":[[[-64.47309,-19.49136],[-64.47372,-19.49141],[-64.47376,-19.49085],[-64.47318,-19.49081],[-64.47309,-19.49136]]]},"properties":{"n":"SOPACHUY","p":31,"personas_x_ha":79,"masculinidad":94,"pct_menor20":39,"pct_60mas":13,"pct_migrante":48,"dependencia_econ":63,"pct_empleados":16,"pct_cuentapropia":47,"pct_agricultura":37,"pct_comercio":26,"pct_manufactura":0,"pct_construccion":0,"pct_transporte":5,"pct_alojamiento":5,"pct_sin_educacion":10,"pct_educ_superior":30,"brecha_educ":1,"pct_sin_seguro":6,"pct_sus":94,"pct_seguro_privado":0,"brecha_seguro":0,"pct_salud_publica":23,"pct_med_tradicional":14,"pct_automedicacion":21,"pct_remedios_caseros":24,"pct_viv_desocupada":0,"pct_alquiler":12,"pct_electricidad":100,"pct_sin_electricidad":0,"pct_agua_red":100,"pct_alcantarillado":62,"pct_camara_septica":25,"pct_pozo_ciego":0,"pct_sin_desague":12,"pct_gas_red":12,"pct_gas_garrafa":62,"pct_lena_guano":0,"pct_basura_formal":88,"pct_basura_quema":12,"pct_basura_informal":0,"pct_internet":88,"pct_celular":88,"pct_televisor":50}},{"type":"Feature","geometry":{"type":"Polygon","coordinates":[[[-64.47392,-19.49058],[-64.4738,-19.49137],[-64.47429,-19.49142],[-64.47435,-19.49063],[-64.47392,-19.49058]]]},"properties":{"n":"SOPACHUY","p":22,"personas_x_ha":48,"masculinidad":69,"pct_menor20":32,"pct_60mas":14,"pct_migrante":45,"dependencia_econ":83,"pct_empleados":17,"pct_cuentapropia":58,"pct_agricultura":17,"pct_comercio":8,"pct_manufactura":17,"pct_construccion":17,"pct_transporte":0,"pct_alojamiento":0,"pct_sin_educacion":28,"pct_educ_superior":28,"brecha_educ":-12,"pct_sin_seguro":5,"pct_sus":82,"pct_seguro_privado":0,"brecha_seguro":11,"pct_salud_publica":21,"pct_med_tradicional":19,"pct_automedicacion":21,"pct_remedios_caseros":24,"pct_viv_desocupada":0,"pct_alquiler":0,"pct_electricidad":100,"pct_sin_electricidad":0,"pct_agua_red":100,"pct_alcantarillado":100,"pct_camara_septica":0,"pct_pozo_ciego":0,"pct_sin_desague":0,"pct_gas_red":67,"pct_gas_garrafa":33,"pct_lena_guano":0,"pct_basura_formal":100,"pct_basura_quema":0,"pct_basura_informal":0,"pct_internet":78,"pct_celular":89,"pct_televisor":67}},{"type":"Feature","geometry":{"type":"Polygon","coordinates":[[[-64.47944,-19.48533],[-64.4799,-19.48501],[-64.47963,-19.48471],[-64.47931,-19.48461],[-64.47862,-19.48463],[-64.47818,-19.48491],[-64.47738,-19.48611],[-64.47824,-19.48662],[-64.4785,-19.48647],[-64.47866,-19.48615],[-64.47944,-19.48533]]]},"properties":{"n":"SOPACHUY","p":39,"personas_x_ha":13,"masculinidad":77,"pct_menor20":26,"pct_60mas":21,"pct_migrante":28,"dependencia_econ":255,"pct_empleados":18,"pct_cuentapropia":64,"pct_agricultura":18,"pct_comercio":27,"pct_manufactura":27,"pct_construccion":0,"pct_transporte":0,"pct_alojamiento":0,"pct_sin_educacion":24,"pct_educ_superior":17,"brecha_educ":-18,"pct_sin_seguro":31,"pct_sus":69,"pct_seguro_privado":0,"brecha_seguro":29,"pct_salud_publica":29,"pct_med_tradicional":20,"pct_automedicacion":19,"pct_remedios_caseros":24,"pct_viv_desocupada":0,"pct_alquiler":0,"pct_electricidad":100,"pct_sin_electricidad":0,"pct_agua_red":93,"pct_alcantarillado":93,"pct_camara_septica":0,"pct_pozo_ciego":0,"pct_sin_desague":7,"pct_gas_red":86,"pct_gas_garrafa":14,"pct_lena_guano":0,"pct_basura_formal":93,"pct_basura_quema":0,"pct_basura_informal":7,"pct_internet":79,"pct_celular":86,"pct_televisor":71}},{"type":"Feature","geometry":{"type":"Polygon","coordinates":[[[-64.47455,-19.49572],[-64.47466,-19.494],[-64.47421,-19.49398],[-64.47412,-19.49539],[-64.47455,-19.49572]]]},"properties":{"n":"SOPACHUY","p":41,"personas_x_ha":49,"masculinidad":78,"pct_menor20":34,"pct_60mas":20,"pct_migrante":34,"dependencia_econ":122,"pct_empleados":11,"pct_cuentapropia":67,"pct_agricultura":39,"pct_comercio":28,"pct_manufactura":0,"pct_construccion":6,"pct_transporte":0,"pct_alojamiento":11,"pct_sin_educacion":23,"pct_educ_superior":8,"brecha_educ":-21,"pct_sin_seguro":3,"pct_sus":87,"pct_seguro_privado":0,"brecha_seguro":6,"pct_salud_publica":26,"pct_med_tradicional":17,"pct_automedicacion":25,"pct_remedios_caseros":22,"pct_viv_desocupada":0,"pct_alquiler":6,"pct_electricidad":89,"pct_sin_electricidad":11,"pct_agua_red":78,"pct_alcantarillado":83,"pct_camara_septica":0,"pct_pozo_ciego":0,"pct_sin_desague":17,"pct_gas_red":67,"pct_gas_garrafa":22,"pct_lena_guano":6,"pct_basura_formal":94,"pct_basura_quema":0,"pct_basura_informal":0,"pct_internet":78,"pct_celular":89,"pct_televisor":56}}]}