{"type":"FeatureCollection","features":[{"type":"Feature","geometry":{"type":"Polygon","coordinates":[[[-64.3915,-19.36962],[-64.39076,-19.36927],[-64.39093,-19.36892],[-64.39169,-19.36927],[-64.3915,-19.36962]]]},"properties":{"n":"ALCALA","p":56,"personas_x_ha":146,"masculinidad":124,"pct_menor20":45,"pct_60mas":7,"pct_migrante":41,"dependencia_econ":195,"pct_empleados":26,"pct_cuentapropia":58,"pct_agricultura":32,"pct_comercio":26,"pct_manufactura":5,"pct_construccion":5,"pct_transporte":0,"pct_alojamiento":5,"pct_educ_superior":36,"brecha_educ":-19,"pct_sin_seguro":0,"pct_seguro_privado":0,"brecha_seguro":0,"pct_med_tradicional":23,"pct_automedicacion":11,"pct_remedios_caseros":28,"pct_viv_desocupada":0,"pct_alquiler":15,"pct_electricidad":100,"pct_agua_red":85,"pct_alcantarillado":77,"pct_gas_red":0,"pct_gas_garrafa":92,"pct_lena_guano":92,"pct_basura_formal":92,"pct_basura_quema":8,"pct_basura_informal":0,"pct_internet":92,"pct_celular":100,"pct_televisor":77}},{"type":"Feature","geometry":{"type":"Polygon","coordinates":[[[-64.39153,-19.3677],[-64.39141,-19.36801],[-64.39303,-19.3689],[-64.39315,-19.36857],[-64.39186,-19.36781],[-64.39153,-19.3677]]]},"properties":{"n":"ALCALA","p":44,"personas_x_ha":53,"masculinidad":83,"pct_menor20":43,"pct_60mas":11,"pct_migrante":32,"dependencia_econ":47,"pct_empleados":53,"pct_cuentapropia":33,"pct_agricultura":30,"pct_comercio":7,"pct_manufactura":3,"pct_construccion":10,"pct_transporte":13,"pct_alojamiento":17,"pct_educ_superior":37,"brecha_educ":-23,"pct_sin_seguro":2,"pct_seguro_privado":0,"brecha_seguro":5,"pct_med_tradicional":22,"pct_automedicacion":19,"pct_remedios_caseros":25,"pct_viv_desocupada":0,"pct_alquiler":7,"pct_electricidad":100,"pct_agua_red":93,"pct_alcantarillado":80,"pct_gas_red":0,"pct_gas_garrafa":93,"pct_lena_guano":93,"pct_basura_formal":67,"pct_basura_quema":33,"pct_basura_informal":0,"pct_internet":67,"pct_celular":73,"pct_televisor":73}},{"type":"Feature","geometry":{"type":"Polygon","coordinates":[[[-64.39203,-19.3666],[-64.39119,-19.36623],[-64.39103,-19.36655],[-64.39185,-19.36692],[-64.39203,-19.3666]]]},"properties":{"n":"ALCALA","p":75,"personas_x_ha":197,"masculinidad":79,"pct_menor20":27,"pct_60mas":11,"pct_migrante":80,"dependencia_econ":73,"pct_empleados":49,"pct_cuentapropia":43,"pct_agricultura":0,"pct_comercio":11,"pct_manufactura":0,"pct_construccion":14,"pct_transporte":5,"pct_alojamiento":0,"pct_educ_superior":76,"brecha_educ":-12,"pct_sin_seguro":22,"pct_seguro_privado":0,"brecha_seguro":1,"pct_med_tradicional":6,"pct_automedicacion":15,"pct_remedios_caseros":20,"pct_viv_desocupada":0,"pct_alquiler":17,"pct_electricidad":100,"pct_agua_red":100,"pct_alcantarillado":100,"pct_gas_red":0,"pct_gas_garrafa":94,"pct_lena_guano":94,"pct_basura_formal":100,"pct_basura_quema":0,"pct_basura_informal":0,"pct_internet":94,"pct_celular":94,"pct_televisor":83}},{"type":"Feature","geometry":{"type":"Polygon","coordinates":[[[-64.39054,-19.36734],[-64.39091,-19.36659],[-64.39058,-19.36643],[-64.39016,-19.36726],[-64.39054,-19.36734]]]},"properties":{"n":"ALCALA","p":20,"personas_x_ha":52,"masculinidad":67,"pct_menor20":25,"pct_60mas":20,"pct_migrante":60,"dependencia_econ":300,"pct_empleados":0,"pct_cuentapropia":80,"pct_agricultura":40,"pct_comercio":0,"pct_manufactura":0,"pct_construccion":0,"pct_transporte":20,"pct_alojamiento":20,"pct_educ_superior":47,"brecha_educ":-40,"pct_sin_seguro":5,"pct_seguro_privado":0,"brecha_seguro":-8,"pct_med_tradicional":20,"pct_automedicacion":21,"pct_remedios_caseros":26,"pct_viv_desocupada":8,"pct_alquiler":25,"pct_electricidad":88,"pct_agua_red":100,"pct_alcantarillado":100,"pct_gas_red":0,"pct_gas_garrafa":75,"pct_lena_guano":75,"pct_basura_formal":100,"pct_basura_quema":0,"pct_basura_informal":0,"pct_internet":88,"pct_celular":100,"pct_televisor":50}},{"type":"Feature","geometry":{"type":"Polygon","coordinates":[[[-64.39371,-19.36788],[-64.39336,-19.36848],[-64.39358,-19.3686],[-64.39405,-19.36819],[-64.39371,-19.36788]]]},"properties":{"n":"ALCALA","p":27,"personas_x_ha":96,"masculinidad":125,"pct_menor20":41,"pct_60mas":4,"pct_migrante":37,"dependencia_econ":170,"pct_empleados":40,"pct_cuentapropia":50,"pct_agricultura":20,"pct_comercio":20,"pct_manufactura":0,"pct_construccion":0,"pct_transporte":0,"pct_alojamiento":0,"pct_educ_superior":62,"brecha_educ":-12,"pct_sin_seguro":19,"pct_seguro_privado":4,"brecha_seguro":18,"pct_med_tradicional":8,"pct_automedicacion":15,"pct_remedios_caseros":21,"pct_viv_desocupada":0,"pct_alquiler":14,"pct_electricidad":100,"pct_agua_red":100,"pct_alcantarillado":100,"pct_gas_red":0,"pct_gas_garrafa":100,"pct_lena_guano":100,"pct_basura_formal":100,"pct_basura_quema":0,"pct_basura_informal":0,"pct_internet":100,"pct_celular":100,"pct_televisor":100}},{"type":"Feature","geometry":{"type":"Polygon","coordinates":[[[-64.39196,-19.36887],[-64.39117,-19.36843],[-64.39097,-19.36884],[-64.39175,-19.36921],[-64.39196,-19.36887]]]},"properties":{"n":"ALCALA","p":62,"personas_x_ha":140,"masculinidad":77,"pct_menor20":44,"pct_60mas":11,"pct_migrante":29,"dependencia_econ":226,"pct_empleados":47,"pct_cuentapropia":42,"pct_agricultura":47,"pct_comercio":26,"pct_manufactura":5,"pct_construccion":11,"pct_transporte":0,"pct_alojamiento":5,"pct_educ_superior":14,"brecha_educ":2,"pct_sin_seguro":10,"pct_seguro_privado":2,"brecha_seguro":-4,"pct_med_tradicional":22,"pct_automedicacion":16,"pct_remedios_caseros":30,"pct_viv_desocupada":0,"pct_alquiler":20,"pct_electricidad":100,"pct_agua_red":100,"pct_alcantarillado":93,"pct_gas_red":0,"pct_gas_garrafa":87,"pct_lena_guano":87,"pct_basura_formal":93,"pct_basura_quema":7,"pct_basura_informal":0,"pct_internet":60,"pct_celular":93,"pct_televisor":60}},{"type":"Feature","geometry":{"type":"Polygon","coordinates":[[[-64.39206,-19.36886],[-64.39284,-19.36928],[-64.393,-19.36899],[-64.39224,-19.36856],[-64.39206,-19.36886]]]},"properties":{"n":"ALCALA","p":43,"personas_x_ha":122,"masculinidad":139,"pct_menor20":33,"pct_60mas":21,"pct_migrante":26,"dependencia_econ":223,"pct_empleados":46,"pct_cuentapropia":54,"pct_agricultura":23,"pct_comercio":15,"pct_manufactura":0,"pct_construccion":31,"pct_transporte":0,"pct_alojamiento":8,"pct_educ_superior":38,"brecha_educ":-25,"pct_sin_seguro":5,"pct_seguro_privado":0,"brecha_seguro":-1,"pct_med_tradicional":19,"pct_automedicacion":15,"pct_remedios_caseros":22,"pct_viv_desocupada":0,"pct_alquiler":19,"pct_electricidad":100,"pct_agua_red":88,"pct_alcantarillado":88,"pct_gas_red":0,"pct_gas_garrafa":62,"pct_lena_guano":62,"pct_basura_formal":100,"pct_basura_quema":0,"pct_basura_informal":0,"pct_internet":88,"pct_celular":100,"pct_televisor":56}},{"type":"Feature","geometry":{"type":"Polygon","coordinates":[[[-64.39064,-19.36734],[-64.39117,-19.36752],[-64.39153,-19.36751],[-64.3918,-19.367],[-64.39101,-19.36663],[-64.39064,-19.36734]]]},"properties":{"n":"ALCALA","p":50,"personas_x_ha":68,"masculinidad":85,"pct_menor20":24,"pct_60mas":16,"pct_migrante":52,"dependencia_econ":150,"pct_empleados":35,"pct_cuentapropia":60,"pct_agricultura":5,"pct_comercio":5,"pct_manufactura":5,"pct_construccion":5,"pct_transporte":15,"pct_alojamiento":0,"pct_educ_superior":68,"brecha_educ":2,"pct_sin_seguro":14,"pct_seguro_privado":0,"brecha_seguro":-18,"pct_med_tradicional":7,"pct_automedicacion":18,"pct_remedios_caseros":26,"pct_viv_desocupada":0,"pct_alquiler":47,"pct_electricidad":100,"pct_agua_red":94,"pct_alcantarillado":100,"pct_gas_red":0,"pct_gas_garrafa":100,"pct_lena_guano":100,"pct_basura_formal":100,"pct_basura_quema":0,"pct_basura_informal":0,"pct_internet":82,"pct_celular":82,"pct_televisor":59}},{"type":"Feature","geometry":{"type":"Polygon","coordinates":[[[-64.39051,-19.36824],[-64.39093,-19.36871],[-64.39124,-19.36804],[-64.39042,-19.36784],[-64.39051,-19.36824]]]},"properties":{"n":"ALCALA","p":24,"personas_x_ha":52,"masculinidad":118,"pct_menor20":38,"pct_60mas":0,"pct_migrante":29,"dependencia_econ":85,"pct_empleados":54,"pct_cuentapropia":38,"pct_agricultura":23,"pct_comercio":31,"pct_manufactura":0,"pct_construccion":23,"pct_transporte":0,"pct_alojamiento":8,"pct_educ_superior":44,"brecha_educ":-56,"pct_sin_seguro":0,"pct_seguro_privado":0,"brecha_seguro":0,"pct_med_tradicional":22,"pct_automedicacion":14,"pct_remedios_caseros":25,"pct_viv_desocupada":7,"pct_alquiler":12,"pct_electricidad":100,"pct_agua_red":38,"pct_alcantarillado":100,"pct_gas_red":0,"pct_gas_garrafa":88,"pct_lena_guano":88,"pct_basura_formal":100,"pct_basura_quema":0,"pct_basura_informal":0,"pct_internet":75,"pct_celular":100,"pct_televisor":75}},{"type":"Feature","geometry":{"type":"Polygon","coordinates":[[[-64.39283,-19.36936],[-64.39202,-19.36891],[-64.39182,-19.36925],[-64.39265,-19.36965],[-64.39283,-19.36936]]]},"properties":{"n":"ALCALA","p":49,"personas_x_ha":124,"masculinidad":113,"pct_menor20":33,"pct_60mas":12,"pct_migrante":22,"dependencia_econ":88,"pct_empleados":42,"pct_cuentapropia":38,"pct_agricultura":42,"pct_comercio":4,"pct_manufactura":4,"pct_construccion":23,"pct_transporte":0,"pct_alojamiento":8,"pct_educ_superior":15,"brecha_educ":3,"pct_sin_seguro":0,"pct_seguro_privado":0,"brecha_seguro":0,"pct_med_tradicional":23,"pct_automedicacion":21,"pct_remedios_caseros":25,"pct_viv_desocupada":0,"pct_alquiler":10,"pct_electricidad":100,"pct_agua_red":100,"pct_alcantarillado":80,"pct_gas_red":0,"pct_gas_garrafa":85,"pct_lena_guano":85,"pct_basura_formal":100,"pct_basura_quema":0,"pct_basura_informal":0,"pct_internet":85,"pct_celular":85,"pct_televisor":85}},{"type":"Feature","geometry":{"type":"Polygon","coordinates":[[[-64.39243,-19.37008],[-64.39264,-19.36973],[-64.39176,-19.36933],[-64.39161,-19.36968],[-64.39243,-19.37008]]]},"properties":{"n":"ALCALA","p":59,"personas_x_ha":129,"masculinidad":69,"pct_menor20":46,"pct_60mas":5,"pct_migrante":41,"dependencia_econ":157,"pct_empleados":30,"pct_cuentapropia":35,"pct_agricultura":57,"pct_comercio":9,"pct_manufactura":0,"pct_construccion":4,"pct_transporte":0,"pct_alojamiento":9,"pct_educ_superior":50,"brecha_educ":-8,"pct_sin_seguro":2,"pct_seguro_privado":0,"brecha_seguro":-3,"pct_med_tradicional":24,"pct_automedicacion":21,"pct_remedios_caseros":24,"pct_viv_desocupada":5,"pct_alquiler":21,"pct_electricidad":100,"pct_agua_red":100,"pct_alcantarillado":100,"pct_gas_red":0,"pct_gas_garrafa":100,"pct_lena_guano":100,"pct_basura_formal":100,"pct_basura_quema":0,"pct_basura_informal":0,"pct_internet":86,"pct_celular":93,"pct_televisor":86}},{"type":"Feature","geometry":{"type":"Polygon","coordinates":[[[-64.39017,-19.36775],[-64.3902,-19.3677],[-64.38991,-19.3673],[-64.3888,-19.36707],[-64.38863,-19.36738],[-64.39017,-19.36775]]]},"properties":{"n":"ALCALA","p":84,"personas_x_ha":141,"masculinidad":110,"pct_menor20":37,"pct_60mas":10,"pct_migrante":50,"dependencia_econ":180,"pct_empleados":53,"pct_cuentapropia":37,"pct_agricultura":47,"pct_comercio":27,"pct_manufactura":0,"pct_construccion":13,"pct_transporte":3,"pct_alojamiento":7,"pct_educ_superior":41,"brecha_educ":-9,"pct_sin_seguro":4,"pct_seguro_privado":1,"brecha_seguro":-3,"pct_med_tradicional":20,"pct_automedicacion":10,"pct_remedios_caseros":26,"pct_viv_desocupada":0,"pct_alquiler":23,"pct_electricidad":100,"pct_agua_red":96,"pct_alcantarillado":100,"pct_gas_red":0,"pct_gas_garrafa":92,"pct_lena_guano":92,"pct_basura_formal":96,"pct_basura_quema":4,"pct_basura_informal":0,"pct_internet":96,"pct_celular":100,"pct_televisor":73}},{"type":"Feature","geometry":{"type":"Polygon","coordinates":[[[-64.39012,-19.36575],[-64.38958,-19.3655],[-64.38941,-19.36583],[-64.38996,-19.36607],[-64.39012,-19.36575]]]},"properties":{"n":"ALCALA","p":55,"personas_x_ha":209,"masculinidad":53,"pct_menor20":24,"pct_60mas":15,"pct_migrante":60,"dependencia_econ":74,"pct_empleados":48,"pct_cuentapropia":48,"pct_agricultura":13,"pct_comercio":23,"pct_manufactura":3,"pct_construccion":3,"pct_transporte":6,"pct_alojamiento":0,"pct_educ_superior":86,"brecha_educ":-7,"pct_sin_seguro":7,"pct_seguro_privado":15,"brecha_seguro":5,"pct_med_tradicional":13,"pct_automedicacion":15,"pct_remedios_caseros":23,"pct_viv_desocupada":0,"pct_alquiler":40,"pct_electricidad":100,"pct_agua_red":95,"pct_alcantarillado":90,"pct_gas_red":0,"pct_gas_garrafa":100,"pct_lena_guano":100,"pct_basura_formal":100,"pct_basura_quema":0,"pct_basura_informal":0,"pct_internet":85,"pct_celular":95,"pct_televisor":80}},{"type":"Feature","geometry":{"type":"Polygon","coordinates":[[[-64.39092,-19.36429],[-64.39022,-19.3657],[-64.39073,-19.36593],[-64.39141,-19.36455],[-64.39092,-19.36429]]]},"properties":{"n":"ALCALA","p":22,"personas_x_ha":21,"masculinidad":120,"pct_menor20":14,"pct_60mas":27,"pct_migrante":59,"dependencia_econ":100,"pct_empleados":36,"pct_cuentapropia":55,"pct_agricultura":0,"pct_comercio":27,"pct_manufactura":0,"pct_construccion":0,"pct_transporte":9,"pct_alojamiento":0,"pct_educ_superior":84,"brecha_educ":1,"pct_sin_seguro":27,"pct_seguro_privado":9,"brecha_seguro":-5,"pct_med_tradicional":4,"pct_automedicacion":21,"pct_remedios_caseros":28,"pct_viv_desocupada":0,"pct_alquiler":50,"pct_electricidad":100,"pct_agua_red":100,"pct_alcantarillado":100,"pct_gas_red":12,"pct_gas_garrafa":75,"pct_lena_guano":75,"pct_basura_formal":100,"pct_basura_quema":0,"pct_basura_informal":0,"pct_internet":100,"pct_celular":100,"pct_televisor":62}},{"type":"Feature","geometry":{"type":"Polygon","coordinates":[[[-64.39306,-19.36708],[-64.39292,-19.36741],[-64.39359,-19.36775],[-64.39366,-19.36763],[-64.39331,-19.36721],[-64.39306,-19.36708]]]},"properties":{"n":"ALCALA","p":49,"personas_x_ha":193,"masculinidad":88,"pct_menor20":45,"pct_60mas":10,"pct_migrante":73,"dependencia_econ":145,"pct_empleados":35,"pct_cuentapropia":60,"pct_agricultura":20,"pct_comercio":20,"pct_manufactura":5,"pct_construccion":10,"pct_transporte":0,"pct_alojamiento":10,"pct_educ_superior":64,"brecha_educ":7,"pct_sin_seguro":14,"pct_seguro_privado":0,"brecha_seguro":30,"pct_med_tradicional":18,"pct_automedicacion":16,"pct_remedios_caseros":22,"pct_viv_desocupada":0,"pct_alquiler":33,"pct_electricidad":100,"pct_agua_red":100,"pct_alcantarillado":100,"pct_gas_red":0,"pct_gas_garrafa":100,"pct_lena_guano":100,"pct_basura_formal":100,"pct_basura_quema":0,"pct_basura_informal":0,"pct_internet":89,"pct_celular":89,"pct_televisor":83}},{"type":"Feature","geometry":{"type":"Polygon","coordinates":[[[-64.3912,-19.36836],[-64.39198,-19.3688],[-64.39216,-19.36853],[-64.39137,-19.36808],[-64.3912,-19.36836]]]},"properties":{"n":"ALCALA","p":25,"personas_x_ha":71,"masculinidad":92,"pct_menor20":36,"pct_60mas":8,"pct_migrante":24,"dependencia_econ":92,"pct_empleados":46,"pct_cuentapropia":46,"pct_agricultura":31,"pct_comercio":8,"pct_manufactura":0,"pct_construccion":8,"pct_transporte":0,"pct_alojamiento":15,"pct_educ_superior":38,"brecha_educ":-12,"pct_sin_seguro":0,"pct_seguro_privado":0,"brecha_seguro":0,"pct_med_tradicional":21,"pct_automedicacion":20,"pct_remedios_caseros":24,"pct_viv_desocupada":0,"pct_alquiler":27,"pct_electricidad":100,"pct_agua_red":100,"pct_alcantarillado":64,"pct_gas_red":0,"pct_gas_garrafa":82,"pct_lena_guano":82,"pct_basura_formal":100,"pct_basura_quema":0,"pct_basura_informal":0,"pct_internet":73,"pct_celular":91,"pct_televisor":55}},{"type":"Feature","geometry":{"type":"Polygon","coordinates":[[[-64.38904,-19.36524],[-64.38882,-19.36524],[-64.38861,-19.36545],[-64.38935,-19.36579],[-64.38951,-19.36547],[-64.38904,-19.36524]]]},"properties":{"n":"ALCALA","p":20,"personas_x_ha":62,"masculinidad":100,"pct_menor20":20,"pct_60mas":20,"pct_migrante":80,"dependencia_econ":82,"pct_empleados":45,"pct_cuentapropia":55,"pct_agricultura":9,"pct_comercio":27,"pct_manufactura":9,"pct_construccion":0,"pct_transporte":0,"pct_alojamiento":9,"pct_educ_superior":62,"brecha_educ":0,"pct_sin_seguro":15,"pct_seguro_privado":0,"brecha_seguro":10,"pct_med_tradicional":11,"pct_automedicacion":19,"pct_remedios_caseros":21,"pct_viv_desocupada":0,"pct_alquiler":38,"pct_electricidad":100,"pct_agua_red":100,"pct_alcantarillado":100,"pct_gas_red":0,"pct_gas_garrafa":100,"pct_lena_guano":100,"pct_basura_formal":100,"pct_basura_quema":0,"pct_basura_informal":0,"pct_internet":88,"pct_celular":100,"pct_televisor":62}},{"type":"Feature","geometry":{"type":"Polygon","coordinates":[[[-64.38851,-19.3655],[-64.38811,-19.36579],[-64.38907,-19.36636],[-64.38931,-19.36586],[-64.38851,-19.3655]]]},"properties":{"n":"ALCALA","p":44,"personas_x_ha":74,"masculinidad":110,"pct_menor20":45,"pct_60mas":11,"pct_migrante":41,"dependencia_econ":175,"pct_empleados":42,"pct_cuentapropia":50,"pct_agricultura":33,"pct_comercio":8,"pct_manufactura":0,"pct_construccion":8,"pct_transporte":0,"pct_alojamiento":25,"pct_educ_superior":65,"brecha_educ":0,"pct_sin_seguro":3,"pct_seguro_privado":0,"brecha_seguro":6,"pct_med_tradicional":22,"pct_automedicacion":12,"pct_remedios_caseros":25,"pct_viv_desocupada":11,"pct_alquiler":12,"pct_electricidad":100,"pct_agua_red":100,"pct_alcantarillado":100,"pct_gas_red":0,"pct_gas_garrafa":100,"pct_lena_guano":100,"pct_basura_formal":100,"pct_basura_quema":0,"pct_basura_informal":0,"pct_internet":100,"pct_celular":100,"pct_televisor":100}},{"type":"Feature","geometry":{"type":"Polygon","coordinates":[[[-64.3896,-19.36831],[-64.38855,-19.36752],[-64.38806,-19.36851],[-64.38924,-19.36898],[-64.3896,-19.36831]]]},"properties":{"n":"ALCALA","p":49,"personas_x_ha":36,"masculinidad":96,"pct_menor20":41,"pct_60mas":8,"pct_migrante":49,"dependencia_econ":119,"pct_empleados":25,"pct_cuentapropia":62,"pct_agricultura":25,"pct_comercio":12,"pct_manufactura":0,"pct_construccion":19,"pct_transporte":6,"pct_alojamiento":12,"pct_educ_superior":28,"brecha_educ":-37,"pct_sin_seguro":21,"pct_seguro_privado":0,"brecha_seguro":6,"pct_med_tradicional":23,"pct_automedicacion":11,"pct_remedios_caseros":27,"pct_viv_desocupada":0,"pct_alquiler":25,"pct_electricidad":100,"pct_agua_red":92,"pct_alcantarillado":100,"pct_gas_red":0,"pct_gas_garrafa":100,"pct_lena_guano":100,"pct_basura_formal":92,"pct_basura_quema":8,"pct_basura_informal":0,"pct_internet":100,"pct_celular":100,"pct_televisor":100}},{"type":"Feature","geometry":{"type":"Polygon","coordinates":[[[-64.38809,-19.36722],[-64.38848,-19.3675],[-64.388,-19.36837],[-64.38786,-19.3683],[-64.38808,-19.36789],[-64.38803,-19.3673],[-64.38809,-19.36722]]]},"properties":{"n":"ALCALA","p":21,"personas_x_ha":67,"masculinidad":133,"pct_menor20":38,"pct_60mas":5,"pct_migrante":29,"dependencia_econ":200,"pct_empleados":43,"pct_cuentapropia":57,"pct_agricultura":43,"pct_comercio":14,"pct_manufactura":14,"pct_construccion":14,"pct_transporte":0,"pct_alojamiento":0,"pct_educ_superior":31,"brecha_educ":14,"pct_sin_seguro":0,"pct_seguro_privado":0,"brecha_seguro":0,"pct_med_tradicional":24,"pct_automedicacion":18,"pct_remedios_caseros":25,"pct_viv_desocupada":0,"pct_alquiler":0,"pct_electricidad":86,"pct_agua_red":86,"pct_alcantarillado":57,"pct_gas_red":0,"pct_gas_garrafa":71,"pct_lena_guano":71,"pct_basura_formal":100,"pct_basura_quema":0,"pct_basura_informal":0,"pct_internet":57,"pct_celular":71,"pct_televisor":57}},{"type":"Feature","geometry":{"type":"Polygon","coordinates":[[[-64.3908,-19.36597],[-64.39114,-19.36611],[-64.39183,-19.3648],[-64.39151,-19.36461],[-64.3908,-19.36597]]]},"properties":{"n":"ALCALA","p":22,"personas_x_ha":33,"masculinidad":120,"pct_menor20":27,"pct_60mas":9,"pct_migrante":23,"dependencia_econ":69,"pct_empleados":54,"pct_cuentapropia":46,"pct_agricultura":8,"pct_comercio":31,"pct_manufactura":0,"pct_construccion":46,"pct_transporte":0,"pct_alojamiento":15,"pct_educ_superior":31,"brecha_educ":-6,"pct_sin_seguro":0,"pct_seguro_privado":5,"brecha_seguro":0,"pct_med_tradicional":14,"pct_automedicacion":16,"pct_remedios_caseros":19,"pct_viv_desocupada":7,"pct_alquiler":85,"pct_electricidad":100,"pct_agua_red":92,"pct_alcantarillado":100,"pct_gas_red":0,"pct_gas_garrafa":100,"pct_lena_guano":100,"pct_basura_formal":100,"pct_basura_quema":0,"pct_basura_informal":0,"pct_internet":77,"pct_celular":92,"pct_televisor":31}},{"type":"Feature","geometry":{"type":"Polygon","coordinates":[[[-64.38969,-19.36662],[-64.38992,-19.36615],[-64.38939,-19.3659],[-64.38915,-19.36639],[-64.38969,-19.36662]]]},"properties":{"n":"ALCALA","p":47,"personas_x_ha":125,"masculinidad":74,"pct_menor20":40,"pct_60mas":9,"pct_migrante":64,"dependencia_econ":124,"pct_empleados":67,"pct_cuentapropia":29,"pct_agricultura":0,"pct_comercio":5,"pct_manufactura":10,"pct_construccion":0,"pct_transporte":5,"pct_alojamiento":5,"pct_educ_superior":82,"brecha_educ":10,"pct_sin_seguro":7,"pct_seguro_privado":0,"brecha_seguro":7,"pct_med_tradicional":16,"pct_automedicacion":14,"pct_remedios_caseros":21,"pct_viv_desocupada":0,"pct_alquiler":53,"pct_electricidad":100,"pct_agua_red":100,"pct_alcantarillado":100,"pct_gas_red":0,"pct_gas_garrafa":94,"pct_lena_guano":94,"pct_basura_formal":100,"pct_basura_quema":0,"pct_basura_informal":0,"pct_internet":88,"pct_celular":94,"pct_televisor":76}},{"type":"Feature","geometry":{"type":"Polygon","coordinates":[[[-64.39123,-19.36614],[-64.39207,-19.36652],[-64.39276,-19.36544],[-64.3926,-19.36524],[-64.39189,-19.36479],[-64.39123,-19.36614]]]},"properties":{"n":"ALCALA","p":30,"personas_x_ha":18,"masculinidad":114,"pct_menor20":13,"pct_60mas":27,"pct_migrante":53,"dependencia_econ":131,"pct_empleados":23,"pct_cuentapropia":54,"pct_agricultura":15,"pct_comercio":8,"pct_manufactura":0,"pct_construccion":15,"pct_transporte":0,"pct_alojamiento":8,"pct_educ_superior":73,"brecha_educ":-31,"pct_sin_seguro":53,"pct_seguro_privado":0,"brecha_seguro":46,"pct_med_tradicional":7,"pct_automedicacion":8,"pct_remedios_caseros":26,"pct_viv_desocupada":0,"pct_alquiler":20,"pct_electricidad":100,"pct_agua_red":100,"pct_alcantarillado":100,"pct_gas_red":0,"pct_gas_garrafa":90,"pct_lena_guano":90,"pct_basura_formal":100,"pct_basura_quema":0,"pct_basura_informal":0,"pct_internet":90,"pct_celular":100,"pct_televisor":90}},{"type":"Feature","geometry":{"type":"Polygon","coordinates":[[[-64.38948,-19.36808],[-64.39017,-19.36821],[-64.39024,-19.36781],[-64.38877,-19.36752],[-64.38948,-19.36808]]]},"properties":{"n":"ALCALA","p":56,"personas_x_ha":101,"masculinidad":124,"pct_menor20":39,"pct_60mas":9,"pct_migrante":39,"dependencia_econ":133,"pct_empleados":67,"pct_cuentapropia":29,"pct_agricultura":29,"pct_comercio":4,"pct_manufactura":12,"pct_construccion":4,"pct_transporte":8,"pct_alojamiento":8,"pct_educ_superior":46,"brecha_educ":-26,"pct_sin_seguro":8,"pct_seguro_privado":0,"brecha_seguro":6,"pct_med_tradicional":22,"pct_automedicacion":20,"pct_remedios_caseros":23,"pct_viv_desocupada":0,"pct_alquiler":10,"pct_electricidad":100,"pct_agua_red":100,"pct_alcantarillado":85,"pct_gas_red":0,"pct_gas_garrafa":90,"pct_lena_guano":90,"pct_basura_formal":100,"pct_basura_quema":0,"pct_basura_informal":0,"pct_internet":85,"pct_celular":95,"pct_televisor":80}},{"type":"Feature","geometry":{"type":"Polygon","coordinates":[[[-64.39147,-19.36766],[-64.39021,-19.36736],[-64.39046,-19.36776],[-64.39131,-19.36798],[-64.39147,-19.36766]]]},"properties":{"n":"ALCALA","p":41,"personas_x_ha":93,"masculinidad":71,"pct_menor20":24,"pct_60mas":15,"pct_migrante":22,"dependencia_econ":116,"pct_empleados":26,"pct_cuentapropia":53,"pct_agricultura":42,"pct_comercio":11,"pct_manufactura":16,"pct_construccion":11,"pct_transporte":0,"pct_alojamiento":5,"pct_educ_superior":23,"brecha_educ":-10,"pct_sin_seguro":5,"pct_seguro_privado":0,"brecha_seguro":2,"pct_med_tradicional":25,"pct_automedicacion":15,"pct_remedios_caseros":26,"pct_viv_desocupada":0,"pct_alquiler":21,"pct_electricidad":100,"pct_agua_red":57,"pct_alcantarillado":100,"pct_gas_red":0,"pct_gas_garrafa":71,"pct_lena_guano":71,"pct_basura_formal":93,"pct_basura_quema":7,"pct_basura_informal":0,"pct_internet":71,"pct_celular":93,"pct_televisor":71}},{"type":"Feature","geometry":{"type":"Polygon","coordinates":[[[-64.39213,-19.36654],[-64.3934,-19.3672],[-64.39375,-19.36699],[-64.39308,-19.36588],[-64.39278,-19.36552],[-64.39213,-19.36654]]]},"properties":{"n":"ALCALA","p":39,"personas_x_ha":27,"masculinidad":86,"pct_menor20":31,"pct_60mas":18,"pct_migrante":56,"dependencia_econ":50,"pct_empleados":58,"pct_cuentapropia":31,"pct_agricultura":27,"pct_comercio":8,"pct_manufactura":4,"pct_construccion":15,"pct_transporte":0,"pct_alojamiento":0,"pct_educ_superior":66,"brecha_educ":-24,"pct_sin_seguro":8,"pct_seguro_privado":0,"brecha_seguro":6,"pct_med_tradicional":17,"pct_automedicacion":19,"pct_remedios_caseros":25,"pct_viv_desocupada":0,"pct_alquiler":17,"pct_electricidad":100,"pct_agua_red":92,"pct_alcantarillado":92,"pct_gas_red":0,"pct_gas_garrafa":75,"pct_lena_guano":75,"pct_basura_formal":100,"pct_basura_quema":0,"pct_basura_informal":0,"pct_internet":75,"pct_celular":83,"pct_televisor":75}},{"type":"Feature","geometry":{"type":"Polygon","coordinates":[[[-64.3929,-19.3674],[-64.39304,-19.36706],[-64.39209,-19.36662],[-64.39193,-19.36698],[-64.3929,-19.3674]]]},"properties":{"n":"ALCALA","p":34,"personas_x_ha":74,"masculinidad":127,"pct_menor20":29,"pct_60mas":15,"pct_migrante":71,"dependencia_econ":74,"pct_empleados":47,"pct_cuentapropia":53,"pct_agricultura":0,"pct_comercio":16,"pct_manufactura":5,"pct_construccion":11,"pct_transporte":0,"pct_alojamiento":0,"pct_educ_superior":100,"brecha_educ":0,"pct_sin_seguro":6,"pct_seguro_privado":9,"brecha_seguro":11,"pct_med_tradicional":10,"pct_automedicacion":16,"pct_remedios_caseros":15,"pct_viv_desocupada":0,"pct_alquiler":33,"pct_electricidad":100,"pct_agua_red":100,"pct_alcantarillado":100,"pct_gas_red":0,"pct_gas_garrafa":89,"pct_lena_guano":89,"pct_basura_formal":100,"pct_basura_quema":0,"pct_basura_informal":0,"pct_internet":100,"pct_celular":100,"pct_televisor":89}},{"type":"Feature","geometry":{"type":"Polygon","coordinates":[[[-64.39365,-19.36786],[-64.39187,-19.36701],[-64.39158,-19.36761],[-64.39331,-19.36842],[-64.39365,-19.36786]]]},"properties":{"n":"ALCALA","p":71,"personas_x_ha":47,"masculinidad":97,"pct_menor20":27,"pct_60mas":24,"pct_migrante":37,"dependencia_econ":154,"pct_empleados":43,"pct_cuentapropia":54,"pct_agricultura":18,"pct_comercio":36,"pct_manufactura":0,"pct_construccion":4,"pct_transporte":0,"pct_alojamiento":14,"pct_educ_superior":44,"brecha_educ":-2,"pct_sin_seguro":7,"pct_seguro_privado":0,"brecha_seguro":-3,"pct_med_tradicional":15,"pct_automedicacion":15,"pct_remedios_caseros":19,"pct_viv_desocupada":0,"pct_alquiler":16,"pct_electricidad":100,"pct_agua_red":100,"pct_alcantarillado":100,"pct_gas_red":0,"pct_gas_garrafa":100,"pct_lena_guano":100,"pct_basura_formal":100,"pct_basura_quema":0,"pct_basura_informal":0,"pct_internet":68,"pct_celular":96,"pct_televisor":64}},{"type":"Feature","geometry":{"type":"Polygon","coordinates":[[[-64.39008,-19.3672],[-64.39049,-19.3664],[-64.38998,-19.36617],[-64.38974,-19.36665],[-64.39008,-19.3672]]]},"properties":{"n":"ALCALA","p":30,"personas_x_ha":63,"masculinidad":150,"pct_menor20":30,"pct_60mas":3,"pct_migrante":10,"dependencia_econ":67,"pct_empleados":61,"pct_cuentapropia":33,"pct_agricultura":28,"pct_comercio":22,"pct_manufactura":6,"pct_construccion":6,"pct_transporte":6,"pct_alojamiento":0,"pct_educ_superior":48,"brecha_educ":8,"pct_sin_seguro":17,"pct_seguro_privado":0,"brecha_seguro":14,"pct_med_tradicional":20,"pct_automedicacion":17,"pct_remedios_caseros":25,"pct_viv_desocupada":0,"pct_alquiler":12,"pct_electricidad":100,"pct_agua_red":100,"pct_alcantarillado":100,"pct_gas_red":0,"pct_gas_garrafa":100,"pct_lena_guano":100,"pct_basura_formal":100,"pct_basura_quema":0,"pct_basura_informal":0,"pct_internet":75,"pct_celular":100,"pct_televisor":75}},{"type":"Feature","geometry":{"type":"Polygon","coordinates":[[[-64.38964,-19.36671],[-64.38912,-19.36644],[-64.38886,-19.36698],[-64.38946,-19.36709],[-64.38964,-19.36671]]]},"properties":{"n":"ALCALA","p":39,"personas_x_ha":107,"masculinidad":95,"pct_menor20":31,"pct_60mas":5,"pct_migrante":72,"dependencia_econ":144,"pct_empleados":38,"pct_cuentapropia":50,"pct_agricultura":12,"pct_comercio":25,"pct_manufactura":0,"pct_construccion":12,"pct_transporte":25,"pct_alojamiento":0,"pct_educ_superior":48,"brecha_educ":15,"pct_sin_seguro":31,"pct_seguro_privado":3,"brecha_seguro":-9,"pct_med_tradicional":14,"pct_automedicacion":26,"pct_remedios_caseros":25,"pct_viv_desocupada":0,"pct_alquiler":0,"pct_electricidad":100,"pct_agua_red":90,"pct_alcantarillado":100,"pct_gas_red":0,"pct_gas_garrafa":100,"pct_lena_guano":100,"pct_basura_formal":100,"pct_basura_quema":0,"pct_basura_informal":0,"pct_internet":100,"pct_celular":100,"pct_televisor":60}},{"type":"Feature","geometry":{"type":"Polygon","coordinates":[[[-64.33477,-19.50411],[-64.33435,-19.50407],[-64.33424,-19.50504],[-64.33466,-19.50509],[-64.33477,-19.50411]]]},"properties":{"n":"LIMA BAMBA CENTRO","p":17,"personas_x_ha":35,"masculinidad":89,"pct_menor20":35,"pct_60mas":29,"pct_migrante":6,"dependencia_econ":112,"pct_empleados":0,"pct_cuentapropia":38,"pct_agricultura":100,"pct_comercio":0,"pct_manufactura":0,"pct_construccion":0,"pct_transporte":0,"pct_alojamiento":0,"pct_educ_superior":8,"brecha_educ":0,"pct_sin_seguro":0,"pct_seguro_privado":0,"brecha_seguro":0,"pct_med_tradicional":21,"pct_automedicacion":4,"pct_remedios_caseros":30,"pct_viv_desocupada":0,"pct_alquiler":0,"pct_electricidad":100,"pct_agua_red":88,"pct_alcantarillado":88,"pct_gas_red":0,"pct_gas_garrafa":25,"pct_lena_guano":25,"pct_basura_formal":38,"pct_basura_quema":50,"pct_basura_informal":0,"pct_internet":38,"pct_celular":75,"pct_televisor":88}},{"type":"Feature","geometry":{"type":"Polygon","coordinates":[[[-64.33427,-19.50399],[-64.33435,-19.50325],[-64.33394,-19.50319],[-64.33384,-19.50394],[-64.33427,-19.50399]]]},"properties":{"n":"LIMA BAMBA CENTRO","p":36,"personas_x_ha":95,"masculinidad":71,"pct_menor20":39,"pct_60mas":14,"pct_migrante":22,"dependencia_econ":177,"pct_empleados":46,"pct_cuentapropia":38,"pct_agricultura":38,"pct_comercio":31,"pct_manufactura":0,"pct_construccion":8,"pct_transporte":0,"pct_alojamiento":8,"pct_educ_superior":17,"brecha_educ":-14,"pct_sin_seguro":6,"pct_seguro_privado":0,"brecha_seguro":2,"pct_med_tradicional":22,"pct_automedicacion":13,"pct_remedios_caseros":27,"pct_viv_desocupada":0,"pct_alquiler":11,"pct_electricidad":100,"pct_agua_red":67,"pct_alcantarillado":67,"pct_gas_red":0,"pct_gas_garrafa":67,"pct_lena_guano":67,"pct_basura_formal":33,"pct_basura_quema":33,"pct_basura_informal":44,"pct_internet":33,"pct_celular":100,"pct_televisor":78}},{"type":"Feature","geometry":{"type":"Polygon","coordinates":[[[-64.33489,-19.50311],[-64.33446,-19.50307],[-64.33439,-19.50397],[-64.33479,-19.50401],[-64.33489,-19.50311]]]},"properties":{"n":"LIMA BAMBA CENTRO","p":22,"personas_x_ha":49,"masculinidad":83,"pct_menor20":32,"pct_60mas":14,"pct_migrante":5,"dependencia_econ":120,"pct_empleados":50,"pct_cuentapropia":40,"pct_agricultura":50,"pct_comercio":20,"pct_manufactura":0,"pct_construccion":10,"pct_transporte":10,"pct_alojamiento":0,"pct_educ_superior":7,"brecha_educ":-46,"pct_sin_seguro":0,"pct_seguro_privado":0,"brecha_seguro":0,"pct_med_tradicional":6,"pct_automedicacion":30,"pct_remedios_caseros":31,"pct_viv_desocupada":29,"pct_alquiler":12,"pct_electricidad":100,"pct_agua_red":100,"pct_alcantarillado":75,"pct_gas_red":0,"pct_gas_garrafa":50,"pct_lena_guano":50,"pct_basura_formal":100,"pct_basura_quema":0,"pct_basura_informal":0,"pct_internet":88,"pct_celular":100,"pct_televisor":62}},{"type":"Feature","geometry":{"type":"Polygon","coordinates":[[[-64.33501,-19.50205],[-64.33458,-19.50201],[-64.33451,-19.50299],[-64.33489,-19.50303],[-64.33501,-19.50205]]]},"properties":{"n":"LIMA BAMBA CENTRO","p":19,"personas_x_ha":39,"masculinidad":46,"pct_menor20":42,"pct_60mas":16,"pct_migrante":63,"dependencia_econ":171,"pct_empleados":14,"pct_cuentapropia":57,"pct_agricultura":86,"pct_comercio":0,"pct_manufactura":0,"pct_construccion":14,"pct_transporte":0,"pct_alojamiento":0,"pct_educ_superior":18,"brecha_educ":-29,"pct_sin_seguro":0,"pct_seguro_privado":0,"brecha_seguro":0,"pct_med_tradicional":21,"pct_automedicacion":9,"pct_remedios_caseros":25,"pct_viv_desocupada":0,"pct_alquiler":57,"pct_electricidad":100,"pct_agua_red":86,"pct_alcantarillado":71,"pct_gas_red":0,"pct_gas_garrafa":86,"pct_lena_guano":86,"pct_basura_formal":100,"pct_basura_quema":0,"pct_basura_informal":0,"pct_internet":71,"pct_celular":86,"pct_televisor":57}},{"type":"Feature","geometry":{"type":"Polygon","coordinates":[[[-64.33584,-19.50419],[-64.33543,-19.50415],[-64.33529,-19.5051],[-64.33571,-19.50514],[-64.33584,-19.50419]]]},"properties":{"n":"LIMA BAMBA CENTRO","p":25,"personas_x_ha":53,"masculinidad":67,"pct_menor20":32,"pct_60mas":16,"pct_migrante":44,"dependencia_econ":79,"pct_empleados":36,"pct_cuentapropia":50,"pct_agricultura":29,"pct_comercio":7,"pct_manufactura":7,"pct_construccion":0,"pct_transporte":0,"pct_alojamiento":0,"pct_educ_superior":44,"brecha_educ":1,"pct_sin_seguro":4,"pct_seguro_privado":0,"brecha_seguro":-7,"pct_med_tradicional":17,"pct_automedicacion":9,"pct_remedios_caseros":28,"pct_viv_desocupada":0,"pct_alquiler":40,"pct_electricidad":100,"pct_agua_red":100,"pct_alcantarillado":90,"pct_gas_red":0,"pct_gas_garrafa":60,"pct_lena_guano":60,"pct_basura_formal":100,"pct_basura_quema":0,"pct_basura_informal":0,"pct_internet":90,"pct_celular":100,"pct_televisor":80}},{"type":"Feature","geometry":{"type":"Polygon","coordinates":[[[-64.33508,-19.5057],[-64.33468,-19.50566],[-64.33459,-19.50649],[-64.335,-19.50652],[-64.33508,-19.5057]]]},"properties":{"n":"LIMA BAMBA CENTRO","p":23,"personas_x_ha":58,"masculinidad":77,"pct_menor20":26,"pct_60mas":4,"pct_migrante":35,"dependencia_econ":109,"pct_empleados":45,"pct_cuentapropia":36,"pct_agricultura":18,"pct_comercio":0,"pct_manufactura":0,"pct_construccion":9,"pct_transporte":9,"pct_alojamiento":9,"pct_educ_superior":41,"brecha_educ":-3,"pct_sin_seguro":9,"pct_seguro_privado":0,"brecha_seguro":2,"pct_med_tradicional":23,"pct_automedicacion":15,"pct_remedios_caseros":23,"pct_viv_desocupada":18,"pct_alquiler":17,"pct_electricidad":100,"pct_agua_red":100,"pct_alcantarillado":67,"pct_gas_red":0,"pct_gas_garrafa":67,"pct_lena_guano":67,"pct_basura_formal":83,"pct_basura_quema":17,"pct_basura_informal":0,"pct_internet":33,"pct_celular":67,"pct_televisor":50}},{"type":"Feature","geometry":{"type":"Polygon","coordinates":[[[-64.3345,-19.50656],[-64.33409,-19.50652],[-64.33395,-19.50781],[-64.33436,-19.50786],[-64.3345,-19.50656]]]},"properties":{"n":"LIMA BAMBA CENTRO","p":17,"personas_x_ha":27,"masculinidad":89,"pct_menor20":29,"pct_60mas":0,"pct_migrante":12,"dependencia_econ":89,"pct_empleados":44,"pct_cuentapropia":44,"pct_agricultura":56,"pct_comercio":11,"pct_manufactura":0,"pct_construccion":22,"pct_transporte":0,"pct_alojamiento":11,"pct_educ_superior":8,"brecha_educ":0,"pct_sin_seguro":0,"pct_seguro_privado":0,"brecha_seguro":0,"pct_med_tradicional":24,"pct_automedicacion":15,"pct_remedios_caseros":24,"pct_viv_desocupada":0,"pct_alquiler":0,"pct_electricidad":100,"pct_agua_red":100,"pct_alcantarillado":14,"pct_gas_red":0,"pct_gas_garrafa":43,"pct_lena_guano":43,"pct_basura_formal":57,"pct_basura_quema":43,"pct_basura_informal":0,"pct_internet":43,"pct_celular":86,"pct_televisor":57}},{"type":"Feature","geometry":{"type":"Polygon","coordinates":[[[-64.33565,-19.50558],[-64.33523,-19.50555],[-64.33516,-19.50653],[-64.33554,-19.50656],[-64.33565,-19.50558]]]},"properties":{"n":"LIMA BAMBA CENTRO","p":28,"personas_x_ha":60,"masculinidad":40,"pct_menor20":32,"pct_60mas":25,"pct_migrante":25,"dependencia_econ":238,"pct_empleados":50,"pct_cuentapropia":50,"pct_agricultura":25,"pct_comercio":0,"pct_manufactura":0,"pct_construccion":0,"pct_transporte":12,"pct_alojamiento":12,"pct_educ_superior":44,"brecha_educ":-17,"pct_sin_seguro":8,"pct_seguro_privado":0,"brecha_seguro":-11,"pct_med_tradicional":17,"pct_automedicacion":5,"pct_remedios_caseros":19,"pct_viv_desocupada":0,"pct_alquiler":17,"pct_electricidad":100,"pct_agua_red":100,"pct_alcantarillado":100,"pct_gas_red":0,"pct_gas_garrafa":83,"pct_lena_guano":83,"pct_basura_formal":100,"pct_basura_quema":0,"pct_basura_informal":0,"pct_internet":42,"pct_celular":92,"pct_televisor":67}},{"type":"Feature","geometry":{"type":"Polygon","coordinates":[[[-64.33555,-19.50318],[-64.33544,-19.50406],[-64.33586,-19.5041],[-64.33598,-19.50324],[-64.33555,-19.50318]]]},"properties":{"n":"LIMA BAMBA CENTRO","p":33,"personas_x_ha":75,"masculinidad":50,"pct_menor20":27,"pct_60mas":12,"pct_migrante":39,"dependencia_econ":74,"pct_empleados":26,"pct_cuentapropia":63,"pct_agricultura":32,"pct_comercio":21,"pct_manufactura":5,"pct_construccion":16,"pct_transporte":0,"pct_alojamiento":5,"pct_educ_superior":38,"brecha_educ":-12,"pct_sin_seguro":3,"pct_seguro_privado":0,"brecha_seguro":9,"pct_med_tradicional":17,"pct_automedicacion":12,"pct_remedios_caseros":30,"pct_viv_desocupada":8,"pct_alquiler":40,"pct_electricidad":100,"pct_agua_red":100,"pct_alcantarillado":90,"pct_gas_red":0,"pct_gas_garrafa":70,"pct_lena_guano":70,"pct_basura_formal":90,"pct_basura_quema":10,"pct_basura_informal":0,"pct_internet":90,"pct_celular":100,"pct_televisor":70}},{"type":"Feature","geometry":{"type":"Polygon","coordinates":[[[-64.33527,-19.50414],[-64.33483,-19.50412],[-64.33474,-19.5051],[-64.33515,-19.50514],[-64.33527,-19.50414]]]},"properties":{"n":"LIMA BAMBA CENTRO","p":33,"personas_x_ha":66,"masculinidad":83,"pct_menor20":36,"pct_60mas":30,"pct_migrante":18,"dependencia_econ":65,"pct_empleados":20,"pct_cuentapropia":60,"pct_agricultura":80,"pct_comercio":5,"pct_manufactura":0,"pct_construccion":0,"pct_transporte":0,"pct_alojamiento":0,"pct_educ_superior":13,"brecha_educ":14,"pct_sin_seguro":0,"pct_seguro_privado":0,"brecha_seguro":0,"pct_med_tradicional":25,"pct_automedicacion":9,"pct_remedios_caseros":24,"pct_viv_desocupada":0,"pct_alquiler":10,"pct_electricidad":100,"pct_agua_red":100,"pct_alcantarillado":70,"pct_gas_red":0,"pct_gas_garrafa":60,"pct_lena_guano":60,"pct_basura_formal":80,"pct_basura_quema":20,"pct_basura_informal":0,"pct_internet":40,"pct_celular":90,"pct_televisor":70}},{"type":"Feature","geometry":{"type":"Polygon","coordinates":[[[-64.33538,-19.50797],[-64.33554,-19.5066],[-64.33514,-19.50657],[-64.33495,-19.50846],[-64.33505,-19.50847],[-64.33538,-19.50797]]]},"properties":{"n":"LIMA BAMBA CENTRO","p":21,"personas_x_ha":27,"masculinidad":110,"pct_menor20":33,"pct_60mas":14,"pct_migrante":24,"dependencia_econ":75,"pct_empleados":25,"pct_cuentapropia":75,"pct_agricultura":50,"pct_comercio":17,"pct_manufactura":0,"pct_construccion":17,"pct_transporte":0,"pct_alojamiento":0,"pct_educ_superior":21,"brecha_educ":-57,"pct_sin_seguro":10,"pct_seguro_privado":0,"brecha_seguro":18,"pct_med_tradicional":21,"pct_automedicacion":8,"pct_remedios_caseros":19,"pct_viv_desocupada":0,"pct_alquiler":20,"pct_electricidad":100,"pct_agua_red":100,"pct_alcantarillado":80,"pct_gas_red":0,"pct_gas_garrafa":80,"pct_lena_guano":80,"pct_basura_formal":100,"pct_basura_quema":0,"pct_basura_informal":0,"pct_internet":50,"pct_celular":80,"pct_televisor":40}}]}