{"type":"FeatureCollection","features":[{"type":"Feature","geometry":{"type":"Polygon","coordinates":[[[-65.14258,-19.242],[-65.14217,-19.24094],[-65.14164,-19.24112],[-65.14202,-19.24218],[-65.14258,-19.242]]]},"properties":{"n":"ALCANTARI","p":48,"personas_x_ha":63,"masculinidad":100,"pct_menor20":10,"pct_60mas":38,"pct_migrante":15,"dependencia_econ":41,"pct_empleados":16,"pct_cuentapropia":59,"pct_agricultura":50,"pct_comercio":3,"pct_manufactura":9,"pct_construccion":12,"pct_transporte":9,"pct_alojamiento":0,"pct_sin_educacion":28,"pct_educ_superior":12,"brecha_educ":-41,"pct_sin_seguro":40,"pct_sus":58,"pct_seguro_privado":0,"brecha_seguro":11,"pct_salud_publica":31,"pct_med_tradicional":6,"pct_automedicacion":15,"pct_remedios_caseros":29,"pct_viv_desocupada":0,"pct_alquiler":0,"pct_electricidad":81,"pct_sin_electricidad":19,"pct_agua_red":52,"pct_alcantarillado":95,"pct_camara_septica":0,"pct_pozo_ciego":5,"pct_sin_desague":0,"pct_gas_red":57,"pct_gas_garrafa":29,"pct_lena_guano":14,"pct_basura_formal":0,"pct_basura_quema":76,"pct_basura_informal":14,"pct_internet":62,"pct_celular":81,"pct_televisor":38}},{"type":"Feature","geometry":{"type":"Polygon","coordinates":[[[-65.14031,-19.24216],[-65.14012,-19.24159],[-65.13918,-19.24189],[-65.13936,-19.24244],[-65.14031,-19.24216]]]},"properties":{"n":"ALCANTARI","p":49,"personas_x_ha":72,"masculinidad":133,"pct_menor20":29,"pct_60mas":22,"pct_migrante":24,"dependencia_econ":58,"pct_empleados":10,"pct_cuentapropia":65,"pct_agricultura":48,"pct_comercio":16,"pct_manufactura":10,"pct_construccion":10,"pct_transporte":6,"pct_alojamiento":3,"pct_sin_educacion":11,"pct_educ_superior":16,"brecha_educ":-25,"pct_sin_seguro":25,"pct_sus":67,"pct_seguro_privado":0,"brecha_seguro":11,"pct_salud_publica":31,"pct_med_tradicional":9,"pct_automedicacion":22,"pct_remedios_caseros":27,"pct_viv_desocupada":0,"pct_alquiler":12,"pct_electricidad":100,"pct_sin_electricidad":0,"pct_agua_red":100,"pct_alcantarillado":100,"pct_camara_septica":0,"pct_pozo_ciego":0,"pct_sin_desague":0,"pct_gas_red":59,"pct_gas_garrafa":41,"pct_lena_guano":0,"pct_basura_formal":0,"pct_basura_quema":71,"pct_basura_informal":24,"pct_internet":47,"pct_celular":88,"pct_televisor":41}},{"type":"Feature","geometry":{"type":"Polygon","coordinates":[[[-65.14163,-19.24104],[-65.14212,-19.24087],[-65.14192,-19.24031],[-65.14142,-19.24046],[-65.14163,-19.24104]]]},"properties":{"n":"ALCANTARI","p":17,"personas_x_ha":46,"masculinidad":143,"pct_menor20":6,"pct_60mas":41,"pct_migrante":29,"dependencia_econ":13,"pct_empleados":7,"pct_cuentapropia":80,"pct_agricultura":40,"pct_comercio":20,"pct_manufactura":0,"pct_construccion":7,"pct_transporte":33,"pct_alojamiento":0,"pct_sin_educacion":0,"pct_educ_superior":0,"brecha_educ":-7,"pct_sin_seguro":12,"pct_sus":88,"pct_seguro_privado":0,"brecha_seguro":-4,"pct_salud_publica":36,"pct_med_tradicional":33,"pct_automedicacion":2,"pct_remedios_caseros":22,"pct_viv_desocupada":0,"pct_alquiler":0,"pct_electricidad":100,"pct_sin_electricidad":0,"pct_agua_red":0,"pct_alcantarillado":78,"pct_camara_septica":0,"pct_pozo_ciego":0,"pct_sin_desague":22,"pct_gas_red":67,"pct_gas_garrafa":33,"pct_lena_guano":0,"pct_basura_formal":0,"pct_basura_quema":100,"pct_basura_informal":0,"pct_internet":44,"pct_celular":89,"pct_televisor":56}},{"type":"Feature","geometry":{"type":"Polygon","coordinates":[[[-65.14009,-19.24151],[-65.1399,-19.24095],[-65.13896,-19.24125],[-65.13915,-19.24181],[-65.14009,-19.24151]]]},"properties":{"n":"ALCANTARI","p":34,"personas_x_ha":50,"masculinidad":89,"pct_menor20":26,"pct_60mas":26,"pct_migrante":26,"dependencia_econ":79,"pct_empleados":32,"pct_cuentapropia":63,"pct_agricultura":32,"pct_comercio":21,"pct_manufactura":5,"pct_construccion":21,"pct_transporte":11,"pct_alojamiento":5,"pct_sin_educacion":12,"pct_educ_superior":12,"brecha_educ":-14,"pct_sin_seguro":15,"pct_sus":85,"pct_seguro_privado":0,"brecha_seguro":-4,"pct_salud_publica":21,"pct_med_tradicional":7,"pct_automedicacion":31,"pct_remedios_caseros":33,"pct_viv_desocupada":0,"pct_alquiler":0,"pct_electricidad":92,"pct_sin_electricidad":8,"pct_agua_red":100,"pct_alcantarillado":100,"pct_camara_septica":0,"pct_pozo_ciego":0,"pct_sin_desague":0,"pct_gas_red":67,"pct_gas_garrafa":33,"pct_lena_guano":0,"pct_basura_formal":0,"pct_basura_quema":67,"pct_basura_informal":25,"pct_internet":75,"pct_celular":100,"pct_televisor":42}},{"type":"Feature","geometry":{"type":"Polygon","coordinates":[[[-65.14192,-19.24213],[-65.14158,-19.24113],[-65.14106,-19.2413],[-65.14141,-19.24229],[-65.14192,-19.24213]]]},"properties":{"n":"ALCANTARI","p":25,"personas_x_ha":38,"masculinidad":92,"pct_menor20":8,"pct_60mas":16,"pct_migrante":12,"dependencia_econ":39,"pct_empleados":22,"pct_cuentapropia":72,"pct_agricultura":50,"pct_comercio":6,"pct_manufactura":0,"pct_construccion":17,"pct_transporte":17,"pct_alojamiento":0,"pct_sin_educacion":8,"pct_educ_superior":0,"brecha_educ":-39,"pct_sin_seguro":0,"pct_sus":100,"pct_seguro_privado":0,"brecha_seguro":0,"pct_salud_publica":61,"pct_med_tradicional":2,"pct_automedicacion":17,"pct_remedios_caseros":20,"pct_viv_desocupada":6,"pct_alquiler":0,"pct_electricidad":91,"pct_sin_electricidad":9,"pct_agua_red":27,"pct_alcantarillado":91,"pct_camara_septica":0,"pct_pozo_ciego":0,"pct_sin_desague":9,"pct_gas_red":73,"pct_gas_garrafa":9,"pct_lena_guano":9,"pct_basura_formal":0,"pct_basura_quema":100,"pct_basura_informal":0,"pct_internet":64,"pct_celular":91,"pct_televisor":27}},{"type":"Feature","geometry":{"type":"Polygon","coordinates":[[[-65.14054,-19.24137],[-65.14035,-19.24081],[-65.13997,-19.24093],[-65.14018,-19.24148],[-65.14054,-19.24137]]]},"properties":{"n":"ALCANTARI","p":22,"personas_x_ha":82,"masculinidad":57,"pct_menor20":23,"pct_60mas":5,"pct_migrante":18,"dependencia_econ":100,"pct_empleados":11,"pct_cuentapropia":89,"pct_agricultura":33,"pct_comercio":22,"pct_manufactura":22,"pct_construccion":0,"pct_transporte":11,"pct_alojamiento":0,"pct_sin_educacion":8,"pct_educ_superior":23,"brecha_educ":7,"pct_sin_seguro":11,"pct_sus":89,"pct_seguro_privado":0,"brecha_seguro":29,"pct_salud_publica":30,"pct_med_tradicional":6,"pct_automedicacion":20,"pct_remedios_caseros":30,"pct_viv_desocupada":0,"pct_alquiler":0,"pct_electricidad":86,"pct_sin_electricidad":14,"pct_agua_red":29,"pct_alcantarillado":71,"pct_camara_septica":0,"pct_pozo_ciego":0,"pct_sin_desague":14,"pct_gas_red":57,"pct_gas_garrafa":43,"pct_lena_guano":0,"pct_basura_formal":14,"pct_basura_quema":86,"pct_basura_informal":0,"pct_internet":100,"pct_celular":100,"pct_televisor":14}},{"type":"Feature","geometry":{"type":"Polygon","coordinates":[[[-65.14134,-19.2405],[-65.14083,-19.24066],[-65.14104,-19.24122],[-65.14155,-19.24106],[-65.14134,-19.2405]]]},"properties":{"n":"ALCANTARI","p":15,"personas_x_ha":40,"masculinidad":114,"pct_menor20":7,"pct_60mas":47,"pct_migrante":0,"dependencia_econ":114,"pct_empleados":0,"pct_cuentapropia":71,"pct_agricultura":29,"pct_comercio":29,"pct_manufactura":0,"pct_construccion":14,"pct_transporte":14,"pct_alojamiento":0,"pct_sin_educacion":14,"pct_educ_superior":7,"brecha_educ":0,"pct_sin_seguro":7,"pct_sus":93,"pct_seguro_privado":0,"brecha_seguro":12,"pct_salud_publica":36,"pct_med_tradicional":13,"pct_automedicacion":23,"pct_remedios_caseros":26,"pct_viv_desocupada":10,"pct_alquiler":0,"pct_electricidad":88,"pct_sin_electricidad":12,"pct_agua_red":100,"pct_alcantarillado":100,"pct_camara_septica":0,"pct_pozo_ciego":0,"pct_sin_desague":0,"pct_gas_red":38,"pct_gas_garrafa":25,"pct_lena_guano":12,"pct_basura_formal":12,"pct_basura_quema":88,"pct_basura_informal":0,"pct_internet":75,"pct_celular":75,"pct_televisor":38}},{"type":"Feature","geometry":{"type":"Polygon","coordinates":[[[-65.06993,-19.2554],[-65.0708,-19.25623],[-65.0706,-19.25644],[-65.07026,-19.25623],[-65.07054,-19.2565],[-65.07,-19.25699],[-65.06981,-19.25682],[-65.06977,-19.25667],[-65.06986,-19.25632],[-65.06953,-19.25626],[-65.06953,-19.25587],[-65.06944,-19.25577],[-65.06993,-19.2554]]]},"properties":{"n":"ESCANA","p":19,"personas_x_ha":15,"masculinidad":90,"pct_menor20":37,"pct_60mas":32,"pct_migrante":26,"dependencia_econ":58,"pct_empleados":8,"pct_cuentapropia":50,"pct_agricultura":67,"pct_comercio":8,"pct_manufactura":0,"pct_construccion":0,"pct_transporte":0,"pct_alojamiento":0,"pct_sin_educacion":8,"pct_educ_superior":8,"brecha_educ":-36,"pct_sin_seguro":5,"pct_sus":89,"pct_seguro_privado":0,"brecha_seguro":-10,"pct_salud_publica":31,"pct_med_tradicional":2,"pct_automedicacion":27,"pct_remedios_caseros":25,"pct_viv_desocupada":0,"pct_alquiler":0,"pct_electricidad":100,"pct_sin_electricidad":0,"pct_agua_red":86,"pct_alcantarillado":100,"pct_camara_septica":0,"pct_pozo_ciego":0,"pct_sin_desague":0,"pct_gas_red":0,"pct_gas_garrafa":86,"pct_lena_guano":14,"pct_basura_formal":0,"pct_basura_quema":86,"pct_basura_informal":0,"pct_internet":86,"pct_celular":100,"pct_televisor":71}},{"type":"Feature","geometry":{"type":"Polygon","coordinates":[[[-65.07475,-19.2544],[-65.07478,-19.2535],[-65.07449,-19.25327],[-65.0738,-19.25392],[-65.07401,-19.25401],[-65.07404,-19.25407],[-65.07379,-19.25393],[-65.07369,-19.25403],[-65.07425,-19.25473],[-65.07457,-19.25445],[-65.07475,-19.2544]]]},"properties":{"n":"ESCANA","p":20,"personas_x_ha":18,"masculinidad":186,"pct_menor20":15,"pct_60mas":15,"pct_migrante":70,"dependencia_econ":33,"pct_empleados":47,"pct_cuentapropia":47,"pct_agricultura":33,"pct_comercio":7,"pct_manufactura":0,"pct_construccion":0,"pct_transporte":0,"pct_alojamiento":0,"pct_sin_educacion":0,"pct_educ_superior":47,"brecha_educ":50,"pct_sin_seguro":20,"pct_sus":45,"pct_seguro_privado":5,"brecha_seguro":31,"pct_salud_publica":18,"pct_med_tradicional":2,"pct_automedicacion":29,"pct_remedios_caseros":21,"pct_viv_desocupada":0,"pct_alquiler":0,"pct_electricidad":100,"pct_sin_electricidad":0,"pct_agua_red":100,"pct_alcantarillado":42,"pct_camara_septica":58,"pct_pozo_ciego":0,"pct_sin_desague":0,"pct_gas_red":0,"pct_gas_garrafa":100,"pct_lena_guano":0,"pct_basura_formal":8,"pct_basura_quema":50,"pct_basura_informal":0,"pct_internet":58,"pct_celular":92,"pct_televisor":83}},{"type":"Feature","geometry":{"type":"Polygon","coordinates":[[[-65.07407,-19.2552],[-65.07426,-19.25509],[-65.07426,-19.2549],[-65.07386,-19.25428],[-65.07363,-19.25411],[-65.07303,-19.25501],[-65.07335,-19.25527],[-65.07407,-19.2552]]]},"properties":{"n":"ESCANA","p":18,"personas_x_ha":19,"masculinidad":80,"pct_menor20":17,"pct_60mas":33,"pct_migrante":39,"dependencia_econ":64,"pct_empleados":18,"pct_cuentapropia":45,"pct_agricultura":45,"pct_comercio":27,"pct_manufactura":0,"pct_construccion":0,"pct_transporte":0,"pct_alojamiento":0,"pct_sin_educacion":6,"pct_educ_superior":25,"brecha_educ":-16,"pct_sin_seguro":18,"pct_sus":76,"pct_seguro_privado":0,"brecha_seguro":14,"pct_salud_publica":37,"pct_med_tradicional":2,"pct_automedicacion":9,"pct_remedios_caseros":30,"pct_viv_desocupada":0,"pct_alquiler":0,"pct_electricidad":100,"pct_sin_electricidad":0,"pct_agua_red":100,"pct_alcantarillado":100,"pct_camara_septica":0,"pct_pozo_ciego":0,"pct_sin_desague":0,"pct_gas_red":0,"pct_gas_garrafa":89,"pct_lena_guano":11,"pct_basura_formal":0,"pct_basura_quema":67,"pct_basura_informal":11,"pct_internet":100,"pct_celular":100,"pct_televisor":89}},{"type":"Feature","geometry":{"type":"Polygon","coordinates":[[[-65.0738,-19.25337],[-65.07332,-19.25365],[-65.07357,-19.25401],[-65.07413,-19.25352],[-65.07402,-19.25336],[-65.0738,-19.25337]]]},"properties":{"n":"ESCANA","p":16,"personas_x_ha":49,"masculinidad":60,"pct_menor20":38,"pct_60mas":25,"pct_migrante":38,"dependencia_econ":78,"pct_empleados":33,"pct_cuentapropia":33,"pct_agricultura":56,"pct_comercio":11,"pct_manufactura":0,"pct_construccion":0,"pct_transporte":0,"pct_alojamiento":0,"pct_sin_educacion":20,"pct_educ_superior":50,"brecha_educ":0,"pct_sin_seguro":6,"pct_sus":69,"pct_seguro_privado":0,"brecha_seguro":17,"pct_salud_publica":28,"pct_med_tradicional":9,"pct_automedicacion":17,"pct_remedios_caseros":33,"pct_viv_desocupada":0,"pct_alquiler":0,"pct_electricidad":100,"pct_sin_electricidad":0,"pct_agua_red":100,"pct_alcantarillado":80,"pct_camara_septica":0,"pct_pozo_ciego":20,"pct_sin_desague":0,"pct_gas_red":0,"pct_gas_garrafa":100,"pct_lena_guano":0,"pct_basura_formal":0,"pct_basura_quema":40,"pct_basura_informal":20,"pct_internet":80,"pct_celular":100,"pct_televisor":80}},{"type":"Feature","geometry":{"type":"Polygon","coordinates":[[[-65.06962,-19.25882],[-65.06964,-19.25813],[-65.0698,-19.2573],[-65.06977,-19.25698],[-65.06951,-19.25706],[-65.06931,-19.25728],[-65.06915,-19.2573],[-65.06907,-19.25791],[-65.06919,-19.25809],[-65.0691,-19.25892],[-65.06954,-19.25902],[-65.06962,-19.25882]]]},"properties":{"n":"ESCANA","p":22,"personas_x_ha":18,"masculinidad":120,"pct_menor20":32,"pct_60mas":23,"pct_migrante":5,"dependencia_econ":57,"pct_empleados":29,"pct_cuentapropia":57,"pct_agricultura":86,"pct_comercio":0,"pct_manufactura":0,"pct_construccion":14,"pct_transporte":0,"pct_alojamiento":0,"pct_sin_educacion":13,"pct_educ_superior":0,"brecha_educ":-6,"pct_sin_seguro":5,"pct_sus":95,"pct_seguro_privado":0,"brecha_seguro":8,"pct_salud_publica":27,"pct_med_tradicional":18,"pct_automedicacion":15,"pct_remedios_caseros":27,"pct_viv_desocupada":0,"pct_alquiler":0,"pct_electricidad":89,"pct_sin_electricidad":11,"pct_agua_red":100,"pct_alcantarillado":89,"pct_camara_septica":0,"pct_pozo_ciego":0,"pct_sin_desague":11,"pct_gas_red":0,"pct_gas_garrafa":33,"pct_lena_guano":67,"pct_basura_formal":0,"pct_basura_quema":67,"pct_basura_informal":33,"pct_internet":44,"pct_celular":100,"pct_televisor":44}},{"type":"Feature","geometry":{"type":"Polygon","coordinates":[[[-65.07192,-19.25572],[-65.07188,-19.25568],[-65.07282,-19.25491],[-65.07268,-19.25472],[-65.0728,-19.25434],[-65.07276,-19.25423],[-65.07223,-19.2541],[-65.07207,-19.25416],[-65.072,-19.25441],[-65.07122,-19.25509],[-65.07091,-19.25574],[-65.07134,-19.25595],[-65.07158,-19.25592],[-65.07192,-19.25572]]]},"properties":{"n":"ESCANA","p":42,"personas_x_ha":20,"masculinidad":100,"pct_menor20":29,"pct_60mas":24,"pct_migrante":29,"dependencia_econ":68,"pct_empleados":24,"pct_cuentapropia":44,"pct_agricultura":48,"pct_comercio":8,"pct_manufactura":0,"pct_construccion":4,"pct_transporte":0,"pct_alojamiento":4,"pct_sin_educacion":10,"pct_educ_superior":26,"brecha_educ":3,"pct_sin_seguro":17,"pct_sus":48,"pct_seguro_privado":0,"brecha_seguro":14,"pct_salud_publica":27,"pct_med_tradicional":17,"pct_automedicacion":9,"pct_remedios_caseros":27,"pct_viv_desocupada":0,"pct_alquiler":0,"pct_electricidad":100,"pct_sin_electricidad":0,"pct_agua_red":100,"pct_alcantarillado":73,"pct_camara_septica":0,"pct_pozo_ciego":13,"pct_sin_desague":13,"pct_gas_red":0,"pct_gas_garrafa":87,"pct_lena_guano":13,"pct_basura_formal":0,"pct_basura_quema":67,"pct_basura_informal":13,"pct_internet":67,"pct_celular":93,"pct_televisor":67}},{"type":"Feature","geometry":{"type":"Polygon","coordinates":[[[-64.96057,-19.34964],[-64.96076,-19.34926],[-64.96087,-19.34883],[-64.96066,-19.3488],[-64.96037,-19.34927],[-64.95996,-19.34972],[-64.96024,-19.35003],[-64.96057,-19.34964]]]},"properties":{"n":"LA MENDOZA","p":18,"personas_x_ha":35,"masculinidad":29,"pct_menor20":22,"pct_60mas":6,"pct_migrante":0,"dependencia_econ":70,"pct_empleados":0,"pct_cuentapropia":70,"pct_agricultura":90,"pct_comercio":0,"pct_manufactura":0,"pct_construccion":0,"pct_transporte":0,"pct_alojamiento":0,"pct_sin_educacion":14,"pct_educ_superior":0,"brecha_educ":18,"pct_sin_seguro":23,"pct_sus":77,"pct_seguro_privado":0,"brecha_seguro":-30,"pct_salud_publica":24,"pct_med_tradicional":16,"pct_automedicacion":23,"pct_remedios_caseros":23,"pct_viv_desocupada":22,"pct_alquiler":0,"pct_electricidad":100,"pct_sin_electricidad":0,"pct_agua_red":86,"pct_alcantarillado":0,"pct_camara_septica":0,"pct_pozo_ciego":0,"pct_sin_desague":100,"pct_gas_red":0,"pct_gas_garrafa":29,"pct_lena_guano":71,"pct_basura_formal":0,"pct_basura_quema":100,"pct_basura_informal":0,"pct_internet":43,"pct_celular":86,"pct_televisor":57}},{"type":"Feature","geometry":{"type":"Polygon","coordinates":[[[-64.96125,-19.34795],[-64.96157,-19.34731],[-64.96195,-19.34693],[-64.96182,-19.34682],[-64.96166,-19.34695],[-64.9611,-19.34789],[-64.96125,-19.34795]]]},"properties":{"n":"LA MENDOZA","p":22,"personas_x_ha":96,"masculinidad":120,"pct_menor20":27,"pct_60mas":36,"pct_migrante":27,"dependencia_econ":340,"pct_empleados":0,"pct_cuentapropia":60,"pct_agricultura":60,"pct_comercio":0,"pct_manufactura":0,"pct_construccion":0,"pct_transporte":0,"pct_alojamiento":0,"pct_sin_educacion":24,"pct_educ_superior":12,"brecha_educ":-21,"pct_sin_seguro":9,"pct_sus":73,"pct_seguro_privado":0,"brecha_seguro":-2,"pct_salud_publica":21,"pct_med_tradicional":12,"pct_automedicacion":16,"pct_remedios_caseros":19,"pct_viv_desocupada":0,"pct_alquiler":12,"pct_electricidad":100,"pct_sin_electricidad":0,"pct_agua_red":25,"pct_alcantarillado":12,"pct_camara_septica":0,"pct_pozo_ciego":25,"pct_sin_desague":62,"pct_gas_red":0,"pct_gas_garrafa":38,"pct_lena_guano":62,"pct_basura_formal":0,"pct_basura_quema":88,"pct_basura_informal":12,"pct_internet":25,"pct_celular":88,"pct_televisor":25}},{"type":"Feature","geometry":{"type":"Polygon","coordinates":[[[-64.9608,-19.34935],[-64.96058,-19.34975],[-64.96032,-19.3504],[-64.96053,-19.35045],[-64.96095,-19.3494],[-64.9608,-19.34935]]]},"properties":{"n":"LA MENDOZA","p":21,"personas_x_ha":80,"masculinidad":91,"pct_menor20":33,"pct_60mas":19,"pct_migrante":24,"dependencia_econ":40,"pct_empleados":0,"pct_cuentapropia":67,"pct_agricultura":100,"pct_comercio":0,"pct_manufactura":0,"pct_construccion":0,"pct_transporte":0,"pct_alojamiento":0,"pct_sin_educacion":7,"pct_educ_superior":7,"brecha_educ":0,"pct_sin_seguro":0,"pct_sus":100,"pct_seguro_privado":0,"brecha_seguro":0,"pct_salud_publica":29,"pct_med_tradicional":23,"pct_automedicacion":4,"pct_remedios_caseros":23,"pct_viv_desocupada":0,"pct_alquiler":0,"pct_electricidad":100,"pct_sin_electricidad":0,"pct_agua_red":100,"pct_alcantarillado":0,"pct_camara_septica":0,"pct_pozo_ciego":0,"pct_sin_desague":100,"pct_gas_red":0,"pct_gas_garrafa":0,"pct_lena_guano":100,"pct_basura_formal":0,"pct_basura_quema":100,"pct_basura_informal":0,"pct_internet":0,"pct_celular":57,"pct_televisor":57}},{"type":"Feature","geometry":{"type":"Polygon","coordinates":[[[-65.13174,-19.1667],[-65.13061,-19.16601],[-65.13053,-19.16613],[-65.13063,-19.16634],[-65.13158,-19.16692],[-65.13174,-19.1667]]]},"properties":{"n":"MOLLE PUNKU","p":33,"personas_x_ha":84,"masculinidad":106,"pct_menor20":42,"pct_60mas":12,"pct_migrante":18,"dependencia_econ":50,"pct_empleados":5,"pct_cuentapropia":55,"pct_agricultura":82,"pct_comercio":0,"pct_manufactura":5,"pct_construccion":9,"pct_transporte":0,"pct_alojamiento":0,"pct_sin_educacion":15,"pct_educ_superior":5,"brecha_educ":-10,"pct_sin_seguro":21,"pct_sus":79,"pct_seguro_privado":0,"brecha_seguro":17,"pct_salud_publica":33,"pct_med_tradicional":14,"pct_automedicacion":12,"pct_remedios_caseros":19,"pct_viv_desocupada":20,"pct_alquiler":0,"pct_electricidad":100,"pct_sin_electricidad":0,"pct_agua_red":33,"pct_alcantarillado":83,"pct_camara_septica":0,"pct_pozo_ciego":17,"pct_sin_desague":0,"pct_gas_red":67,"pct_gas_garrafa":33,"pct_lena_guano":0,"pct_basura_formal":58,"pct_basura_quema":42,"pct_basura_informal":0,"pct_internet":58,"pct_celular":100,"pct_televisor":58}},{"type":"Feature","geometry":{"type":"Polygon","coordinates":[[[-65.13349,-19.16645],[-65.1322,-19.16616],[-65.13214,-19.16641],[-65.13343,-19.16671],[-65.13349,-19.16645]]]},"properties":{"n":"MOLLE PUNKU","p":40,"personas_x_ha":99,"masculinidad":74,"pct_menor20":50,"pct_60mas":20,"pct_migrante":12,"dependencia_econ":82,"pct_empleados":0,"pct_cuentapropia":55,"pct_agricultura":91,"pct_comercio":5,"pct_manufactura":0,"pct_construccion":0,"pct_transporte":0,"pct_alojamiento":0,"pct_sin_educacion":38,"pct_educ_superior":5,"brecha_educ":-14,"pct_sin_seguro":8,"pct_sus":90,"pct_seguro_privado":0,"brecha_seguro":7,"pct_salud_publica":40,"pct_med_tradicional":5,"pct_automedicacion":8,"pct_remedios_caseros":33,"pct_viv_desocupada":0,"pct_alquiler":0,"pct_electricidad":80,"pct_sin_electricidad":20,"pct_agua_red":100,"pct_alcantarillado":60,"pct_camara_septica":0,"pct_pozo_ciego":10,"pct_sin_desague":30,"pct_gas_red":0,"pct_gas_garrafa":60,"pct_lena_guano":40,"pct_basura_formal":40,"pct_basura_quema":60,"pct_basura_informal":0,"pct_internet":40,"pct_celular":70,"pct_televisor":30}},{"type":"Feature","geometry":{"type":"Polygon","coordinates":[[[-65.13345,-19.16704],[-65.13355,-19.16681],[-65.13228,-19.16653],[-65.13221,-19.16679],[-65.13345,-19.16704]]]},"properties":{"n":"MOLLE PUNKU","p":19,"personas_x_ha":48,"masculinidad":111,"pct_menor20":32,"pct_60mas":11,"pct_migrante":11,"dependencia_econ":46,"pct_empleados":15,"pct_cuentapropia":69,"pct_agricultura":62,"pct_comercio":0,"pct_manufactura":0,"pct_construccion":15,"pct_transporte":0,"pct_alojamiento":15,"pct_sin_educacion":15,"pct_educ_superior":0,"brecha_educ":-10,"pct_sin_seguro":11,"pct_sus":89,"pct_seguro_privado":0,"brecha_seguro":20,"pct_salud_publica":37,"pct_med_tradicional":2,"pct_automedicacion":19,"pct_remedios_caseros":23,"pct_viv_desocupada":0,"pct_alquiler":0,"pct_electricidad":80,"pct_sin_electricidad":20,"pct_agua_red":100,"pct_alcantarillado":40,"pct_camara_septica":0,"pct_pozo_ciego":0,"pct_sin_desague":50,"pct_gas_red":20,"pct_gas_garrafa":60,"pct_lena_guano":0,"pct_basura_formal":20,"pct_basura_quema":80,"pct_basura_informal":0,"pct_internet":80,"pct_celular":100,"pct_televisor":40}},{"type":"Feature","geometry":{"type":"Polygon","coordinates":[[[-65.13008,-19.16513],[-65.13082,-19.16558],[-65.13096,-19.16537],[-65.13033,-19.16498],[-65.13008,-19.16513]]]},"properties":{"n":"MOLLE PUNKU","p":15,"personas_x_ha":58,"masculinidad":88,"pct_menor20":47,"pct_60mas":7,"pct_migrante":27,"dependencia_econ":88,"pct_empleados":12,"pct_cuentapropia":75,"pct_agricultura":50,"pct_comercio":25,"pct_manufactura":0,"pct_construccion":25,"pct_transporte":0,"pct_alojamiento":0,"pct_sin_educacion":12,"pct_educ_superior":0,"brecha_educ":0,"pct_sin_seguro":14,"pct_sus":86,"pct_seguro_privado":0,"brecha_seguro":33,"pct_salud_publica":37,"pct_med_tradicional":0,"pct_automedicacion":17,"pct_remedios_caseros":29,"pct_viv_desocupada":0,"pct_alquiler":0,"pct_electricidad":83,"pct_sin_electricidad":0,"pct_agua_red":100,"pct_alcantarillado":50,"pct_camara_septica":17,"pct_pozo_ciego":0,"pct_sin_desague":33,"pct_gas_red":83,"pct_gas_garrafa":17,"pct_lena_guano":0,"pct_basura_formal":100,"pct_basura_quema":0,"pct_basura_informal":0,"pct_internet":67,"pct_celular":83,"pct_televisor":33}},{"type":"Feature","geometry":{"type":"Polygon","coordinates":[[[-65.13066,-19.16594],[-65.13178,-19.16664],[-65.13193,-19.16641],[-65.13081,-19.16572],[-65.13066,-19.16594]]]},"properties":{"n":"MOLLE PUNKU","p":35,"personas_x_ha":85,"masculinidad":192,"pct_menor20":37,"pct_60mas":9,"pct_migrante":3,"dependencia_econ":30,"pct_empleados":11,"pct_cuentapropia":22,"pct_agricultura":59,"pct_comercio":11,"pct_manufactura":4,"pct_construccion":7,"pct_transporte":0,"pct_alojamiento":0,"pct_sin_educacion":4,"pct_educ_superior":13,"brecha_educ":-2,"pct_sin_seguro":12,"pct_sus":88,"pct_seguro_privado":0,"brecha_seguro":-9,"pct_salud_publica":45,"pct_med_tradicional":12,"pct_automedicacion":3,"pct_remedios_caseros":29,"pct_viv_desocupada":0,"pct_alquiler":0,"pct_electricidad":80,"pct_sin_electricidad":20,"pct_agua_red":0,"pct_alcantarillado":80,"pct_camara_septica":0,"pct_pozo_ciego":10,"pct_sin_desague":10,"pct_gas_red":40,"pct_gas_garrafa":50,"pct_lena_guano":10,"pct_basura_formal":80,"pct_basura_quema":20,"pct_basura_informal":0,"pct_internet":30,"pct_celular":100,"pct_televisor":60}},{"type":"Feature","geometry":{"type":"Polygon","coordinates":[[[-65.13197,-19.16635],[-65.13213,-19.16611],[-65.13102,-19.16543],[-65.13084,-19.16567],[-65.13197,-19.16635]]]},"properties":{"n":"MOLLE PUNKU","p":52,"personas_x_ha":117,"masculinidad":79,"pct_menor20":48,"pct_60mas":13,"pct_migrante":4,"dependencia_econ":126,"pct_empleados":0,"pct_cuentapropia":43,"pct_agricultura":91,"pct_comercio":0,"pct_manufactura":0,"pct_construccion":4,"pct_transporte":0,"pct_alojamiento":0,"pct_sin_educacion":18,"pct_educ_superior":4,"brecha_educ":-4,"pct_sin_seguro":2,"pct_sus":98,"pct_seguro_privado":0,"brecha_seguro":-3,"pct_salud_publica":33,"pct_med_tradicional":7,"pct_automedicacion":18,"pct_remedios_caseros":28,"pct_viv_desocupada":8,"pct_alquiler":0,"pct_electricidad":100,"pct_sin_electricidad":0,"pct_agua_red":90,"pct_alcantarillado":90,"pct_camara_septica":0,"pct_pozo_ciego":0,"pct_sin_desague":10,"pct_gas_red":100,"pct_gas_garrafa":0,"pct_lena_guano":0,"pct_basura_formal":80,"pct_basura_quema":20,"pct_basura_informal":0,"pct_internet":70,"pct_celular":90,"pct_televisor":50}},{"type":"Feature","geometry":{"type":"Polygon","coordinates":[[[-65.1283,-19.24032],[-65.12764,-19.24082],[-65.12751,-19.2411],[-65.12754,-19.24135],[-65.12863,-19.24121],[-65.12856,-19.24102],[-65.12878,-19.24083],[-65.1283,-19.24032]]]},"properties":{"n":"PULQUI AVAROA","p":21,"personas_x_ha":23,"masculinidad":91,"pct_menor20":29,"pct_60mas":38,"pct_migrante":14,"dependencia_econ":40,"pct_empleados":13,"pct_cuentapropia":67,"pct_agricultura":80,"pct_comercio":0,"pct_manufactura":0,"pct_construccion":7,"pct_transporte":0,"pct_alojamiento":0,"pct_sin_educacion":40,"pct_educ_superior":13,"brecha_educ":-18,"pct_sin_seguro":5,"pct_sus":86,"pct_seguro_privado":0,"brecha_seguro":10,"pct_salud_publica":21,"pct_med_tradicional":13,"pct_automedicacion":7,"pct_remedios_caseros":22,"pct_viv_desocupada":0,"pct_alquiler":0,"pct_electricidad":100,"pct_sin_electricidad":0,"pct_agua_red":100,"pct_alcantarillado":0,"pct_camara_septica":0,"pct_pozo_ciego":100,"pct_sin_desague":0,"pct_gas_red":70,"pct_gas_garrafa":20,"pct_lena_guano":10,"pct_basura_formal":0,"pct_basura_quema":90,"pct_basura_informal":10,"pct_internet":50,"pct_celular":100,"pct_televisor":70}},{"type":"Feature","geometry":{"type":"Polygon","coordinates":[[[-65.12921,-19.24048],[-65.12873,-19.24095],[-65.12883,-19.2411],[-65.1295,-19.24076],[-65.12921,-19.24048]]]},"properties":{"n":"PULQUI AVAROA","p":19,"personas_x_ha":77,"masculinidad":138,"pct_menor20":21,"pct_60mas":21,"pct_migrante":11,"dependencia_econ":36,"pct_empleados":43,"pct_cuentapropia":43,"pct_agricultura":50,"pct_comercio":7,"pct_manufactura":21,"pct_construccion":7,"pct_transporte":0,"pct_alojamiento":0,"pct_sin_educacion":17,"pct_educ_superior":22,"brecha_educ":10,"pct_sin_seguro":5,"pct_sus":95,"pct_seguro_privado":0,"brecha_seguro":9,"pct_salud_publica":28,"pct_med_tradicional":18,"pct_automedicacion":1,"pct_remedios_caseros":28,"pct_viv_desocupada":0,"pct_alquiler":0,"pct_electricidad":100,"pct_sin_electricidad":0,"pct_agua_red":100,"pct_alcantarillado":0,"pct_camara_septica":0,"pct_pozo_ciego":100,"pct_sin_desague":0,"pct_gas_red":80,"pct_gas_garrafa":20,"pct_lena_guano":0,"pct_basura_formal":0,"pct_basura_quema":100,"pct_basura_informal":0,"pct_internet":100,"pct_celular":100,"pct_televisor":100}},{"type":"Feature","geometry":{"type":"Polygon","coordinates":[[[-65.129,-19.24134],[-65.12922,-19.24119],[-65.12991,-19.24081],[-65.1298,-19.24068],[-65.12883,-19.24114],[-65.129,-19.24134]]]},"properties":{"n":"PULQUI AVAROA","p":22,"personas_x_ha":81,"masculinidad":83,"pct_menor20":23,"pct_60mas":36,"pct_migrante":0,"dependencia_econ":22,"pct_empleados":6,"pct_cuentapropia":28,"pct_agricultura":89,"pct_comercio":6,"pct_manufactura":0,"pct_construccion":0,"pct_transporte":0,"pct_alojamiento":0,"pct_sin_educacion":47,"pct_educ_superior":5,"brecha_educ":-46,"pct_sin_seguro":0,"pct_sus":100,"pct_seguro_privado":0,"brecha_seguro":0,"pct_salud_publica":27,"pct_med_tradicional":19,"pct_automedicacion":18,"pct_remedios_caseros":24,"pct_viv_desocupada":0,"pct_alquiler":0,"pct_electricidad":100,"pct_sin_electricidad":0,"pct_agua_red":100,"pct_alcantarillado":0,"pct_camara_septica":0,"pct_pozo_ciego":71,"pct_sin_desague":29,"pct_gas_red":71,"pct_gas_garrafa":29,"pct_lena_guano":0,"pct_basura_formal":0,"pct_basura_quema":86,"pct_basura_informal":14,"pct_internet":14,"pct_celular":71,"pct_televisor":43}},{"type":"Feature","geometry":{"type":"Polygon","coordinates":[[[-65.12932,-19.24168],[-65.12964,-19.242],[-65.12989,-19.24144],[-65.13031,-19.24113],[-65.13026,-19.24098],[-65.12994,-19.24082],[-65.12903,-19.24135],[-65.12929,-19.24165],[-65.12952,-19.24144],[-65.12932,-19.24168]]]},"properties":{"n":"PULQUI AVAROA","p":28,"personas_x_ha":36,"masculinidad":75,"pct_menor20":43,"pct_60mas":11,"pct_migrante":4,"dependencia_econ":33,"pct_empleados":10,"pct_cuentapropia":33,"pct_agricultura":71,"pct_comercio":10,"pct_manufactura":5,"pct_construccion":5,"pct_transporte":5,"pct_alojamiento":0,"pct_sin_educacion":6,"pct_educ_superior":6,"brecha_educ":-6,"pct_sin_seguro":4,"pct_sus":96,"pct_seguro_privado":0,"brecha_seguro":-6,"pct_salud_publica":30,"pct_med_tradicional":9,"pct_automedicacion":28,"pct_remedios_caseros":29,"pct_viv_desocupada":0,"pct_alquiler":0,"pct_electricidad":100,"pct_sin_electricidad":0,"pct_agua_red":100,"pct_alcantarillado":0,"pct_camara_septica":0,"pct_pozo_ciego":89,"pct_sin_desague":11,"pct_gas_red":78,"pct_gas_garrafa":11,"pct_lena_guano":11,"pct_basura_formal":0,"pct_basura_quema":89,"pct_basura_informal":11,"pct_internet":89,"pct_celular":100,"pct_televisor":89}},{"type":"Feature","geometry":{"type":"Polygon","coordinates":[[[-65.12941,-19.24223],[-65.12963,-19.24209],[-65.12879,-19.24123],[-65.12735,-19.24146],[-65.12687,-19.24139],[-65.12685,-19.24148],[-65.12721,-19.24159],[-65.1289,-19.2419],[-65.12941,-19.24223]]]},"properties":{"n":"PULQUI AVAROA","p":17,"personas_x_ha":15,"masculinidad":183,"pct_menor20":24,"pct_60mas":53,"pct_migrante":24,"dependencia_econ":183,"pct_empleados":17,"pct_cuentapropia":67,"pct_agricultura":83,"pct_comercio":17,"pct_manufactura":0,"pct_construccion":0,"pct_transporte":0,"pct_alojamiento":0,"pct_sin_educacion":15,"pct_educ_superior":0,"brecha_educ":17,"pct_sin_seguro":6,"pct_sus":94,"pct_seguro_privado":0,"brecha_seguro":-17,"pct_salud_publica":39,"pct_med_tradicional":8,"pct_automedicacion":16,"pct_remedios_caseros":29,"pct_viv_desocupada":0,"pct_alquiler":0,"pct_electricidad":75,"pct_sin_electricidad":25,"pct_agua_red":100,"pct_alcantarillado":0,"pct_camara_septica":0,"pct_pozo_ciego":50,"pct_sin_desague":50,"pct_gas_red":50,"pct_gas_garrafa":38,"pct_lena_guano":12,"pct_basura_formal":0,"pct_basura_quema":100,"pct_basura_informal":0,"pct_internet":50,"pct_celular":100,"pct_televisor":12}},{"type":"Feature","geometry":{"type":"Polygon","coordinates":[[[-65.1591,-19.21438],[-65.15873,-19.21445],[-65.15883,-19.21507],[-65.1592,-19.21501],[-65.1591,-19.21438]]]},"properties":{"n":"QUIRAGUANI","p":45,"personas_x_ha":157,"masculinidad":150,"pct_menor20":33,"pct_60mas":9,"pct_migrante":11,"dependencia_econ":114,"pct_empleados":48,"pct_cuentapropia":33,"pct_agricultura":29,"pct_comercio":19,"pct_manufactura":0,"pct_construccion":19,"pct_transporte":10,"pct_alojamiento":5,"pct_sin_educacion":7,"pct_educ_superior":20,"brecha_educ":-28,"pct_sin_seguro":4,"pct_sus":96,"pct_seguro_privado":0,"brecha_seguro":7,"pct_salud_publica":41,"pct_med_tradicional":15,"pct_automedicacion":1,"pct_remedios_caseros":38,"pct_viv_desocupada":0,"pct_alquiler":0,"pct_electricidad":100,"pct_sin_electricidad":0,"pct_agua_red":100,"pct_alcantarillado":100,"pct_camara_septica":0,"pct_pozo_ciego":0,"pct_sin_desague":0,"pct_gas_red":80,"pct_gas_garrafa":20,"pct_lena_guano":0,"pct_basura_formal":0,"pct_basura_quema":80,"pct_basura_informal":20,"pct_internet":60,"pct_celular":70,"pct_televisor":50}},{"type":"Feature","geometry":{"type":"Polygon","coordinates":[[[-65.15825,-19.21516],[-65.15818,-19.21453],[-65.1578,-19.21457],[-65.15788,-19.21521],[-65.15825,-19.21516]]]},"properties":{"n":"QUIRAGUANI","p":41,"personas_x_ha":137,"masculinidad":58,"pct_menor20":41,"pct_60mas":2,"pct_migrante":34,"dependencia_econ":86,"pct_empleados":41,"pct_cuentapropia":18,"pct_agricultura":32,"pct_comercio":14,"pct_manufactura":5,"pct_construccion":9,"pct_transporte":0,"pct_alojamiento":5,"pct_sin_educacion":8,"pct_educ_superior":44,"brecha_educ":-20,"pct_sin_seguro":15,"pct_sus":59,"pct_seguro_privado":0,"brecha_seguro":-2,"pct_salud_publica":38,"pct_med_tradicional":8,"pct_automedicacion":9,"pct_remedios_caseros":20,"pct_viv_desocupada":0,"pct_alquiler":0,"pct_electricidad":100,"pct_sin_electricidad":0,"pct_agua_red":100,"pct_alcantarillado":91,"pct_camara_septica":0,"pct_pozo_ciego":0,"pct_sin_desague":9,"pct_gas_red":73,"pct_gas_garrafa":18,"pct_lena_guano":9,"pct_basura_formal":0,"pct_basura_quema":82,"pct_basura_informal":18,"pct_internet":91,"pct_celular":100,"pct_televisor":64}},{"type":"Feature","geometry":{"type":"Polygon","coordinates":[[[-65.15861,-19.21444],[-65.15825,-19.21451],[-65.15834,-19.21512],[-65.15874,-19.21509],[-65.15861,-19.21444]]]},"properties":{"n":"QUIRAGUANI","p":28,"personas_x_ha":92,"masculinidad":115,"pct_menor20":25,"pct_60mas":21,"pct_migrante":36,"dependencia_econ":22,"pct_empleados":22,"pct_cuentapropia":30,"pct_agricultura":48,"pct_comercio":9,"pct_manufactura":0,"pct_construccion":9,"pct_transporte":17,"pct_alojamiento":0,"pct_sin_educacion":23,"pct_educ_superior":23,"brecha_educ":-8,"pct_sin_seguro":7,"pct_sus":93,"pct_seguro_privado":0,"brecha_seguro":-15,"pct_salud_publica":32,"pct_med_tradicional":24,"pct_automedicacion":0,"pct_remedios_caseros":28,"pct_viv_desocupada":0,"pct_alquiler":0,"pct_electricidad":82,"pct_sin_electricidad":9,"pct_agua_red":100,"pct_alcantarillado":100,"pct_camara_septica":0,"pct_pozo_ciego":0,"pct_sin_desague":0,"pct_gas_red":45,"pct_gas_garrafa":55,"pct_lena_guano":0,"pct_basura_formal":0,"pct_basura_quema":91,"pct_basura_informal":0,"pct_internet":91,"pct_celular":91,"pct_televisor":55}},{"type":"Feature","geometry":{"type":"Polygon","coordinates":[[[-65.15879,-19.21351],[-65.15814,-19.21361],[-65.15819,-19.21397],[-65.15884,-19.21387],[-65.15879,-19.21351]]]},"properties":{"n":"QUIRAGUANI","p":19,"personas_x_ha":67,"masculinidad":217,"pct_menor20":21,"pct_60mas":32,"pct_migrante":16,"dependencia_econ":58,"pct_empleados":8,"pct_cuentapropia":67,"pct_agricultura":42,"pct_comercio":0,"pct_manufactura":17,"pct_construccion":0,"pct_transporte":17,"pct_alojamiento":0,"pct_sin_educacion":20,"pct_educ_superior":7,"brecha_educ":0,"pct_sin_seguro":5,"pct_sus":95,"pct_seguro_privado":0,"brecha_seguro":8,"pct_salud_publica":32,"pct_med_tradicional":5,"pct_automedicacion":16,"pct_remedios_caseros":32,"pct_viv_desocupada":0,"pct_alquiler":0,"pct_electricidad":86,"pct_sin_electricidad":14,"pct_agua_red":100,"pct_alcantarillado":86,"pct_camara_septica":0,"pct_pozo_ciego":0,"pct_sin_desague":14,"pct_gas_red":71,"pct_gas_garrafa":14,"pct_lena_guano":14,"pct_basura_formal":0,"pct_basura_quema":100,"pct_basura_informal":0,"pct_internet":71,"pct_celular":71,"pct_televisor":29}},{"type":"Feature","geometry":{"type":"Polygon","coordinates":[[[-65.15799,-19.21334],[-65.1576,-19.21338],[-65.15766,-19.21378],[-65.15805,-19.21372],[-65.15799,-19.21334]]]},"properties":{"n":"QUIRAGUANI","p":20,"personas_x_ha":111,"masculinidad":100,"pct_menor20":35,"pct_60mas":5,"pct_migrante":45,"dependencia_econ":33,"pct_empleados":20,"pct_cuentapropia":53,"pct_agricultura":33,"pct_comercio":7,"pct_manufactura":0,"pct_construccion":27,"pct_transporte":7,"pct_alojamiento":7,"pct_sin_educacion":8,"pct_educ_superior":38,"brecha_educ":-10,"pct_sin_seguro":35,"pct_sus":55,"pct_seguro_privado":5,"brecha_seguro":30,"pct_salud_publica":23,"pct_med_tradicional":4,"pct_automedicacion":32,"pct_remedios_caseros":32,"pct_viv_desocupada":0,"pct_alquiler":0,"pct_electricidad":86,"pct_sin_electricidad":0,"pct_agua_red":71,"pct_alcantarillado":100,"pct_camara_septica":0,"pct_pozo_ciego":0,"pct_sin_desague":0,"pct_gas_red":14,"pct_gas_garrafa":71,"pct_lena_guano":14,"pct_basura_formal":14,"pct_basura_quema":71,"pct_basura_informal":14,"pct_internet":86,"pct_celular":86,"pct_televisor":43}},{"type":"Feature","geometry":{"type":"Polygon","coordinates":[[[-65.15768,-19.21385],[-65.15778,-19.21448],[-65.15816,-19.21443],[-65.15806,-19.2138],[-65.15768,-19.21385]]]},"properties":{"n":"QUIRAGUANI","p":41,"personas_x_ha":144,"masculinidad":71,"pct_menor20":41,"pct_60mas":12,"pct_migrante":41,"dependencia_econ":156,"pct_empleados":31,"pct_cuentapropia":69,"pct_agricultura":38,"pct_comercio":25,"pct_manufactura":0,"pct_construccion":19,"pct_transporte":6,"pct_alojamiento":0,"pct_sin_educacion":17,"pct_educ_superior":8,"brecha_educ":-31,"pct_sin_seguro":5,"pct_sus":75,"pct_seguro_privado":0,"brecha_seguro":2,"pct_salud_publica":29,"pct_med_tradicional":6,"pct_automedicacion":29,"pct_remedios_caseros":30,"pct_viv_desocupada":0,"pct_alquiler":0,"pct_electricidad":100,"pct_sin_electricidad":0,"pct_agua_red":100,"pct_alcantarillado":100,"pct_camara_septica":0,"pct_pozo_ciego":0,"pct_sin_desague":0,"pct_gas_red":44,"pct_gas_garrafa":56,"pct_lena_guano":0,"pct_basura_formal":11,"pct_basura_quema":89,"pct_basura_informal":0,"pct_internet":78,"pct_celular":89,"pct_televisor":67}},{"type":"Feature","geometry":{"type":"Polygon","coordinates":[[[-64.99627,-19.34109],[-64.99612,-19.34108],[-64.99609,-19.34119],[-64.99634,-19.34131],[-64.99645,-19.34123],[-64.99627,-19.34109]]]},"properties":{"n":"SOTOMAYOR","p":38,"personas_x_ha":709,"masculinidad":90,"pct_menor20":24,"pct_60mas":21,"pct_migrante":24,"dependencia_econ":90,"pct_empleados":15,"pct_cuentapropia":45,"pct_agricultura":55,"pct_comercio":15,"pct_manufactura":5,"pct_construccion":5,"pct_transporte":0,"pct_alojamiento":0,"pct_sin_educacion":28,"pct_educ_superior":14,"brecha_educ":-37,"pct_sin_seguro":3,"pct_sus":95,"pct_seguro_privado":0,"brecha_seguro":6,"pct_salud_publica":26,"pct_med_tradicional":9,"pct_automedicacion":21,"pct_remedios_caseros":25,"pct_viv_desocupada":0,"pct_alquiler":0,"pct_electricidad":100,"pct_sin_electricidad":0,"pct_agua_red":69,"pct_alcantarillado":100,"pct_camara_septica":0,"pct_pozo_ciego":0,"pct_sin_desague":0,"pct_gas_red":0,"pct_gas_garrafa":100,"pct_lena_guano":0,"pct_basura_formal":46,"pct_basura_quema":46,"pct_basura_informal":8,"pct_internet":54,"pct_celular":69,"pct_televisor":54}},{"type":"Feature","geometry":{"type":"Polygon","coordinates":[[[-64.99815,-19.34391],[-64.99688,-19.34302],[-64.99641,-19.34372],[-64.99657,-19.34382],[-64.99675,-19.34355],[-64.99785,-19.34431],[-64.99815,-19.34391]]]},"properties":{"n":"SOTOMAYOR","p":42,"personas_x_ha":43,"masculinidad":133,"pct_menor20":7,"pct_60mas":40,"pct_migrante":14,"dependencia_econ":40,"pct_empleados":7,"pct_cuentapropia":80,"pct_agricultura":70,"pct_comercio":3,"pct_manufactura":0,"pct_construccion":0,"pct_transporte":7,"pct_alojamiento":3,"pct_sin_educacion":18,"pct_educ_superior":5,"brecha_educ":-10,"pct_sin_seguro":30,"pct_sus":62,"pct_seguro_privado":0,"brecha_seguro":11,"pct_salud_publica":30,"pct_med_tradicional":17,"pct_automedicacion":10,"pct_remedios_caseros":31,"pct_viv_desocupada":4,"pct_alquiler":5,"pct_electricidad":100,"pct_sin_electricidad":0,"pct_agua_red":60,"pct_alcantarillado":85,"pct_camara_septica":0,"pct_pozo_ciego":0,"pct_sin_desague":5,"pct_gas_red":0,"pct_gas_garrafa":100,"pct_lena_guano":0,"pct_basura_formal":75,"pct_basura_quema":25,"pct_basura_informal":0,"pct_internet":30,"pct_celular":85,"pct_televisor":45}},{"type":"Feature","geometry":{"type":"Polygon","coordinates":[[[-65.00286,-19.34482],[-65.00292,-19.34473],[-65.00214,-19.34404],[-65.0014,-19.34416],[-65.00127,-19.34425],[-65.00129,-19.34433],[-65.00207,-19.34416],[-65.00286,-19.34482]]]},"properties":{"n":"SOTOMAYOR","p":21,"personas_x_ha":80,"masculinidad":133,"pct_menor20":14,"pct_60mas":33,"pct_migrante":29,"dependencia_econ":17,"pct_empleados":6,"pct_cuentapropia":94,"pct_agricultura":44,"pct_comercio":0,"pct_manufactura":0,"pct_construccion":0,"pct_transporte":11,"pct_alojamiento":0,"pct_sin_educacion":11,"pct_educ_superior":6,"brecha_educ":-12,"pct_sin_seguro":0,"pct_sus":100,"pct_seguro_privado":0,"brecha_seguro":0,"pct_salud_publica":34,"pct_med_tradicional":10,"pct_automedicacion":7,"pct_remedios_caseros":33,"pct_viv_desocupada":29,"pct_alquiler":0,"pct_electricidad":100,"pct_sin_electricidad":0,"pct_agua_red":20,"pct_alcantarillado":80,"pct_camara_septica":0,"pct_pozo_ciego":0,"pct_sin_desague":0,"pct_gas_red":0,"pct_gas_garrafa":80,"pct_lena_guano":20,"pct_basura_formal":0,"pct_basura_quema":80,"pct_basura_informal":0,"pct_internet":80,"pct_celular":80,"pct_televisor":80}},{"type":"Feature","geometry":{"type":"Polygon","coordinates":[[[-64.99535,-19.34219],[-64.99557,-19.34125],[-64.99536,-19.34115],[-64.99515,-19.34214],[-64.99535,-19.34219]]]},"properties":{"n":"SOTOMAYOR","p":61,"personas_x_ha":245,"masculinidad":118,"pct_menor20":33,"pct_60mas":16,"pct_migrante":30,"dependencia_econ":221,"pct_empleados":5,"pct_cuentapropia":21,"pct_agricultura":47,"pct_comercio":0,"pct_manufactura":0,"pct_construccion":0,"pct_transporte":0,"pct_alojamiento":0,"pct_sin_educacion":21,"pct_educ_superior":5,"brecha_educ":-30,"pct_sin_seguro":5,"pct_sus":92,"pct_seguro_privado":0,"brecha_seguro":2,"pct_salud_publica":26,"pct_med_tradicional":20,"pct_automedicacion":12,"pct_remedios_caseros":25,"pct_viv_desocupada":0,"pct_alquiler":6,"pct_electricidad":100,"pct_sin_electricidad":0,"pct_agua_red":50,"pct_alcantarillado":89,"pct_camara_septica":0,"pct_pozo_ciego":0,"pct_sin_desague":11,"pct_gas_red":0,"pct_gas_garrafa":67,"pct_lena_guano":33,"pct_basura_formal":6,"pct_basura_quema":50,"pct_basura_informal":6,"pct_internet":72,"pct_celular":78,"pct_televisor":50}},{"type":"Feature","geometry":{"type":"Polygon","coordinates":[[[-64.99499,-19.34186],[-64.99518,-19.34189],[-64.99534,-19.34109],[-64.99511,-19.34105],[-64.99499,-19.34186]]]},"properties":{"n":"SOTOMAYOR","p":33,"personas_x_ha":154,"masculinidad":106,"pct_menor20":42,"pct_60mas":12,"pct_migrante":33,"dependencia_econ":83,"pct_empleados":28,"pct_cuentapropia":72,"pct_agricultura":44,"pct_comercio":6,"pct_manufactura":0,"pct_construccion":0,"pct_transporte":0,"pct_alojamiento":0,"pct_sin_educacion":16,"pct_educ_superior":16,"brecha_educ":-4,"pct_sin_seguro":3,"pct_sus":88,"pct_seguro_privado":0,"brecha_seguro":6,"pct_salud_publica":33,"pct_med_tradicional":14,"pct_automedicacion":20,"pct_remedios_caseros":21,"pct_viv_desocupada":0,"pct_alquiler":31,"pct_electricidad":92,"pct_sin_electricidad":0,"pct_agua_red":8,"pct_alcantarillado":100,"pct_camara_septica":0,"pct_pozo_ciego":0,"pct_sin_desague":0,"pct_gas_red":0,"pct_gas_garrafa":100,"pct_lena_guano":0,"pct_basura_formal":8,"pct_basura_quema":85,"pct_basura_informal":8,"pct_internet":100,"pct_celular":100,"pct_televisor":77}},{"type":"Feature","geometry":{"type":"Polygon","coordinates":[[[-65.00256,-19.34373],[-65.00231,-19.34312],[-65.00184,-19.34316],[-65.00145,-19.34409],[-65.00169,-19.34405],[-65.00166,-19.34383],[-65.00221,-19.34369],[-65.00217,-19.34357],[-65.00231,-19.3435],[-65.0022,-19.34357],[-65.00223,-19.34368],[-65.00248,-19.3436],[-65.00247,-19.34374],[-65.00256,-19.34373]]]},"properties":{"n":"SOTOMAYOR","p":16,"personas_x_ha":26,"masculinidad":167,"pct_menor20":38,"pct_60mas":6,"pct_migrante":62,"dependencia_econ":50,"pct_empleados":10,"pct_cuentapropia":30,"pct_agricultura":50,"pct_comercio":0,"pct_manufactura":20,"pct_construccion":10,"pct_transporte":10,"pct_alojamiento":0,"pct_sin_educacion":10,"pct_educ_superior":10,"brecha_educ":-33,"pct_sin_seguro":0,"pct_sus":100,"pct_seguro_privado":0,"brecha_seguro":0,"pct_salud_publica":25,"pct_med_tradicional":18,"pct_automedicacion":23,"pct_remedios_caseros":23,"pct_viv_desocupada":12,"pct_alquiler":0,"pct_electricidad":100,"pct_sin_electricidad":0,"pct_agua_red":0,"pct_alcantarillado":33,"pct_camara_septica":0,"pct_pozo_ciego":0,"pct_sin_desague":67,"pct_gas_red":0,"pct_gas_garrafa":83,"pct_lena_guano":17,"pct_basura_formal":33,"pct_basura_quema":33,"pct_basura_informal":17,"pct_internet":100,"pct_celular":100,"pct_televisor":83}},{"type":"Feature","geometry":{"type":"Polygon","coordinates":[[[-64.99684,-19.34233],[-64.99661,-19.34274],[-64.99672,-19.34282],[-64.99705,-19.34243],[-64.99684,-19.34233]]]},"properties":{"n":"SOTOMAYOR","p":21,"personas_x_ha":172,"masculinidad":162,"pct_menor20":24,"pct_60mas":19,"pct_migrante":33,"dependencia_econ":50,"pct_empleados":0,"pct_cuentapropia":86,"pct_agricultura":29,"pct_comercio":29,"pct_manufactura":7,"pct_construccion":7,"pct_transporte":14,"pct_alojamiento":0,"pct_sin_educacion":0,"pct_educ_superior":12,"brecha_educ":-10,"pct_sin_seguro":10,"pct_sus":80,"pct_seguro_privado":5,"brecha_seguro":15,"pct_salud_publica":21,"pct_med_tradicional":13,"pct_automedicacion":18,"pct_remedios_caseros":20,"pct_viv_desocupada":0,"pct_alquiler":0,"pct_electricidad":100,"pct_sin_electricidad":0,"pct_agua_red":100,"pct_alcantarillado":100,"pct_camara_septica":0,"pct_pozo_ciego":0,"pct_sin_desague":0,"pct_gas_red":0,"pct_gas_garrafa":100,"pct_lena_guano":0,"pct_basura_formal":0,"pct_basura_quema":100,"pct_basura_informal":0,"pct_internet":71,"pct_celular":86,"pct_televisor":86}},{"type":"Feature","geometry":{"type":"Polygon","coordinates":[[[-64.99626,-19.34285],[-64.99657,-19.34297],[-64.9967,-19.34287],[-64.99635,-19.34256],[-64.99623,-19.34233],[-64.99603,-19.34226],[-64.99577,-19.34249],[-64.99563,-19.34288],[-64.99568,-19.34299],[-64.9959,-19.34291],[-64.99586,-19.34277],[-64.99593,-19.34262],[-64.996,-19.34265],[-64.99596,-19.34289],[-64.99621,-19.34294],[-64.99626,-19.34285]]]},"properties":{"n":"SOTOMAYOR","p":57,"personas_x_ha":123,"masculinidad":90,"pct_menor20":25,"pct_60mas":19,"pct_migrante":32,"dependencia_econ":84,"pct_empleados":23,"pct_cuentapropia":74,"pct_agricultura":39,"pct_comercio":23,"pct_manufactura":6,"pct_construccion":6,"pct_transporte":6,"pct_alojamiento":0,"pct_sin_educacion":9,"pct_educ_superior":26,"brecha_educ":-2,"pct_sin_seguro":4,"pct_sus":91,"pct_seguro_privado":0,"brecha_seguro":0,"pct_salud_publica":43,"pct_med_tradicional":2,"pct_automedicacion":21,"pct_remedios_caseros":21,"pct_viv_desocupada":17,"pct_alquiler":5,"pct_electricidad":100,"pct_sin_electricidad":0,"pct_agua_red":53,"pct_alcantarillado":100,"pct_camara_septica":0,"pct_pozo_ciego":0,"pct_sin_desague":0,"pct_gas_red":0,"pct_gas_garrafa":95,"pct_lena_guano":5,"pct_basura_formal":0,"pct_basura_quema":95,"pct_basura_informal":0,"pct_internet":74,"pct_celular":100,"pct_televisor":89}},{"type":"Feature","geometry":{"type":"Polygon","coordinates":[[[-64.99557,-19.34225],[-64.99588,-19.34236],[-64.99604,-19.34217],[-64.99593,-19.34208],[-64.99597,-19.34203],[-64.99608,-19.34211],[-64.99614,-19.34205],[-64.99616,-19.34174],[-64.99627,-19.3417],[-64.99632,-19.34156],[-64.99619,-19.34135],[-64.99604,-19.34127],[-64.99592,-19.34156],[-64.99591,-19.34156],[-64.99604,-19.34127],[-64.9958,-19.34121],[-64.99573,-19.34137],[-64.99579,-19.3412],[-64.99563,-19.3412],[-64.99544,-19.34182],[-64.99548,-19.34186],[-64.99558,-19.34177],[-64.99537,-19.34219],[-64.99555,-19.34224],[-64.99562,-19.34215],[-64.99557,-19.34225]]]},"properties":{"n":"SOTOMAYOR","p":52,"personas_x_ha":63,"masculinidad":148,"pct_menor20":33,"pct_60mas":17,"pct_migrante":29,"dependencia_econ":136,"pct_empleados":14,"pct_cuentapropia":59,"pct_agricultura":59,"pct_comercio":5,"pct_manufactura":0,"pct_construccion":5,"pct_transporte":0,"pct_alojamiento":0,"pct_sin_educacion":14,"pct_educ_superior":6,"brecha_educ":-12,"pct_sin_seguro":14,"pct_sus":82,"pct_seguro_privado":0,"brecha_seguro":-2,"pct_salud_publica":46,"pct_med_tradicional":10,"pct_automedicacion":9,"pct_remedios_caseros":21,"pct_viv_desocupada":9,"pct_alquiler":10,"pct_electricidad":100,"pct_sin_electricidad":0,"pct_agua_red":57,"pct_alcantarillado":86,"pct_camara_septica":5,"pct_pozo_ciego":0,"pct_sin_desague":10,"pct_gas_red":0,"pct_gas_garrafa":100,"pct_lena_guano":0,"pct_basura_formal":38,"pct_basura_quema":48,"pct_basura_informal":14,"pct_internet":29,"pct_celular":81,"pct_televisor":48}},{"type":"Feature","geometry":{"type":"Polygon","coordinates":[[[-64.99679,-19.34136],[-64.99657,-19.34126],[-64.99629,-19.34137],[-64.99639,-19.34151],[-64.99634,-19.34198],[-64.99667,-19.34197],[-64.99679,-19.34136]]]},"properties":{"n":"SOTOMAYOR","p":22,"personas_x_ha":69,"masculinidad":83,"pct_menor20":14,"pct_60mas":27,"pct_migrante":23,"dependencia_econ":69,"pct_empleados":15,"pct_cuentapropia":77,"pct_agricultura":31,"pct_comercio":23,"pct_manufactura":0,"pct_construccion":8,"pct_transporte":8,"pct_alojamiento":0,"pct_sin_educacion":11,"pct_educ_superior":11,"brecha_educ":-5,"pct_sin_seguro":0,"pct_sus":90,"pct_seguro_privado":0,"brecha_seguro":0,"pct_salud_publica":30,"pct_med_tradicional":14,"pct_automedicacion":14,"pct_remedios_caseros":24,"pct_viv_desocupada":0,"pct_alquiler":22,"pct_electricidad":100,"pct_sin_electricidad":0,"pct_agua_red":0,"pct_alcantarillado":100,"pct_camara_septica":0,"pct_pozo_ciego":0,"pct_sin_desague":0,"pct_gas_red":0,"pct_gas_garrafa":100,"pct_lena_guano":0,"pct_basura_formal":11,"pct_basura_quema":89,"pct_basura_informal":0,"pct_internet":89,"pct_celular":100,"pct_televisor":67}},{"type":"Feature","geometry":{"type":"Polygon","coordinates":[[[-64.99552,-19.34306],[-64.99557,-19.34279],[-64.99478,-19.34263],[-64.99477,-19.34294],[-64.99486,-19.34298],[-64.9949,-19.34319],[-64.99552,-19.34306]]]},"properties":{"n":"SOTOMAYOR","p":31,"personas_x_ha":88,"masculinidad":138,"pct_menor20":32,"pct_60mas":16,"pct_migrante":29,"dependencia_econ":72,"pct_empleados":28,"pct_cuentapropia":50,"pct_agricultura":61,"pct_comercio":11,"pct_manufactura":0,"pct_construccion":6,"pct_transporte":11,"pct_alojamiento":0,"pct_sin_educacion":24,"pct_educ_superior":0,"brecha_educ":-5,"pct_sin_seguro":16,"pct_sus":84,"pct_seguro_privado":0,"brecha_seguro":-12,"pct_salud_publica":29,"pct_med_tradicional":21,"pct_automedicacion":17,"pct_remedios_caseros":22,"pct_viv_desocupada":9,"pct_alquiler":20,"pct_electricidad":100,"pct_sin_electricidad":0,"pct_agua_red":0,"pct_alcantarillado":60,"pct_camara_septica":0,"pct_pozo_ciego":20,"pct_sin_desague":20,"pct_gas_red":0,"pct_gas_garrafa":90,"pct_lena_guano":10,"pct_basura_formal":60,"pct_basura_quema":30,"pct_basura_informal":0,"pct_internet":70,"pct_celular":90,"pct_televisor":40}},{"type":"Feature","geometry":{"type":"Polygon","coordinates":[[[-64.99616,-19.34343],[-64.996,-19.34366],[-64.99644,-19.34351],[-64.99645,-19.34313],[-64.99653,-19.34299],[-64.99644,-19.34291],[-64.99627,-19.34289],[-64.99616,-19.34311],[-64.99616,-19.34343]]]},"properties":{"n":"SOTOMAYOR","p":16,"personas_x_ha":62,"masculinidad":220,"pct_menor20":19,"pct_60mas":19,"pct_migrante":31,"dependencia_econ":300,"pct_empleados":0,"pct_cuentapropia":25,"pct_agricultura":50,"pct_comercio":25,"pct_manufactura":0,"pct_construccion":0,"pct_transporte":0,"pct_alojamiento":0,"pct_sin_educacion":8,"pct_educ_superior":15,"brecha_educ":-18,"pct_sin_seguro":38,"pct_sus":56,"pct_seguro_privado":6,"brecha_seguro":55,"pct_salud_publica":21,"pct_med_tradicional":11,"pct_automedicacion":19,"pct_remedios_caseros":17,"pct_viv_desocupada":14,"pct_alquiler":0,"pct_electricidad":100,"pct_sin_electricidad":0,"pct_agua_red":33,"pct_alcantarillado":67,"pct_camara_septica":0,"pct_pozo_ciego":17,"pct_sin_desague":17,"pct_gas_red":0,"pct_gas_garrafa":83,"pct_lena_guano":17,"pct_basura_formal":0,"pct_basura_quema":100,"pct_basura_informal":0,"pct_internet":67,"pct_celular":83,"pct_televisor":83}},{"type":"Feature","geometry":{"type":"Polygon","coordinates":[[[-65.12195,-19.19011],[-65.12228,-19.19015],[-65.12238,-19.19007],[-65.12275,-19.1894],[-65.12265,-19.18937],[-65.12118,-19.18977],[-65.1215,-19.19027],[-65.12195,-19.19011]]]},"properties":{"n":"YAMPARAEZ","p":30,"personas_x_ha":35,"masculinidad":114,"pct_menor20":20,"pct_60mas":30,"pct_migrante":53,"dependencia_econ":43,"pct_empleados":62,"pct_cuentapropia":38,"pct_agricultura":5,"pct_comercio":5,"pct_manufactura":0,"pct_construccion":10,"pct_transporte":19,"pct_alojamiento":0,"pct_sin_educacion":0,"pct_educ_superior":62,"brecha_educ":-9,"pct_sin_seguro":7,"pct_sus":60,"pct_seguro_privado":3,"brecha_seguro":-1,"pct_salud_publica":36,"pct_med_tradicional":7,"pct_automedicacion":12,"pct_remedios_caseros":18,"pct_viv_desocupada":0,"pct_alquiler":20,"pct_electricidad":100,"pct_sin_electricidad":0,"pct_agua_red":80,"pct_alcantarillado":87,"pct_camara_septica":7,"pct_pozo_ciego":0,"pct_sin_desague":7,"pct_gas_red":20,"pct_gas_garrafa":73,"pct_lena_guano":0,"pct_basura_formal":87,"pct_basura_quema":7,"pct_basura_informal":7,"pct_internet":73,"pct_celular":93,"pct_televisor":40}},{"type":"Feature","geometry":{"type":"Polygon","coordinates":[[[-65.1302,-19.18405],[-65.12965,-19.18382],[-65.12951,-19.18415],[-65.13005,-19.18436],[-65.1302,-19.18405]]]},"properties":{"n":"YAMPARAEZ","p":22,"personas_x_ha":88,"masculinidad":144,"pct_menor20":32,"pct_60mas":27,"pct_migrante":23,"dependencia_econ":69,"pct_empleados":15,"pct_cuentapropia":77,"pct_agricultura":54,"pct_comercio":8,"pct_manufactura":0,"pct_construccion":0,"pct_transporte":15,"pct_alojamiento":0,"pct_sin_educacion":12,"pct_educ_superior":25,"brecha_educ":-38,"pct_sin_seguro":0,"pct_sus":100,"pct_seguro_privado":0,"brecha_seguro":0,"pct_salud_publica":32,"pct_med_tradicional":11,"pct_automedicacion":29,"pct_remedios_caseros":24,"pct_viv_desocupada":0,"pct_alquiler":11,"pct_electricidad":89,"pct_sin_electricidad":0,"pct_agua_red":100,"pct_alcantarillado":100,"pct_camara_septica":0,"pct_pozo_ciego":0,"pct_sin_desague":0,"pct_gas_red":89,"pct_gas_garrafa":11,"pct_lena_guano":0,"pct_basura_formal":89,"pct_basura_quema":11,"pct_basura_informal":0,"pct_internet":100,"pct_celular":100,"pct_televisor":89}},{"type":"Feature","geometry":{"type":"Polygon","coordinates":[[[-65.12813,-19.19189],[-65.12779,-19.19165],[-65.12758,-19.19203],[-65.12802,-19.19209],[-65.12813,-19.19189]]]},"properties":{"n":"YAMPARAEZ","p":16,"personas_x_ha":96,"masculinidad":129,"pct_menor20":25,"pct_60mas":19,"pct_migrante":19,"dependencia_econ":78,"pct_empleados":22,"pct_cuentapropia":56,"pct_agricultura":44,"pct_comercio":0,"pct_manufactura":11,"pct_construccion":22,"pct_transporte":0,"pct_alojamiento":0,"pct_sin_educacion":17,"pct_educ_superior":17,"brecha_educ":-37,"pct_sin_seguro":6,"pct_sus":94,"pct_seguro_privado":0,"brecha_seguro":11,"pct_salud_publica":23,"pct_med_tradicional":23,"pct_automedicacion":16,"pct_remedios_caseros":23,"pct_viv_desocupada":0,"pct_alquiler":0,"pct_electricidad":100,"pct_sin_electricidad":0,"pct_agua_red":100,"pct_alcantarillado":83,"pct_camara_septica":0,"pct_pozo_ciego":0,"pct_sin_desague":0,"pct_gas_red":67,"pct_gas_garrafa":0,"pct_lena_guano":17,"pct_basura_formal":67,"pct_basura_quema":17,"pct_basura_informal":0,"pct_internet":67,"pct_celular":100,"pct_televisor":83}},{"type":"Feature","geometry":{"type":"Polygon","coordinates":[[[-65.12547,-19.18575],[-65.12539,-19.18541],[-65.12502,-19.18528],[-65.1245,-19.18536],[-65.12401,-19.18568],[-65.12436,-19.18626],[-65.12547,-19.18575]]]},"properties":{"n":"YAMPARAEZ","p":16,"personas_x_ha":15,"masculinidad":100,"pct_menor20":44,"pct_60mas":0,"pct_migrante":62,"dependencia_econ":129,"pct_empleados":14,"pct_cuentapropia":57,"pct_agricultura":57,"pct_comercio":0,"pct_manufactura":0,"pct_construccion":29,"pct_transporte":0,"pct_alojamiento":0,"pct_sin_educacion":0,"pct_educ_superior":0,"brecha_educ":-55,"pct_sin_seguro":6,"pct_sus":94,"pct_seguro_privado":0,"brecha_seguro":12,"pct_salud_publica":36,"pct_med_tradicional":14,"pct_automedicacion":2,"pct_remedios_caseros":32,"pct_viv_desocupada":0,"pct_alquiler":0,"pct_electricidad":43,"pct_sin_electricidad":29,"pct_agua_red":0,"pct_alcantarillado":14,"pct_camara_septica":0,"pct_pozo_ciego":14,"pct_sin_desague":71,"pct_gas_red":0,"pct_gas_garrafa":71,"pct_lena_guano":14,"pct_basura_formal":43,"pct_basura_quema":57,"pct_basura_informal":0,"pct_internet":86,"pct_celular":100,"pct_televisor":43}},{"type":"Feature","geometry":{"type":"Polygon","coordinates":[[[-65.12124,-19.18916],[-65.12031,-19.18925],[-65.12039,-19.18989],[-65.12136,-19.18968],[-65.12124,-19.18916]]]},"properties":{"n":"YAMPARAEZ","p":35,"personas_x_ha":51,"masculinidad":25,"pct_menor20":63,"pct_60mas":17,"pct_migrante":46,"dependencia_econ":169,"pct_empleados":38,"pct_cuentapropia":38,"pct_agricultura":31,"pct_comercio":15,"pct_manufactura":8,"pct_construccion":8,"pct_transporte":0,"pct_alojamiento":8,"pct_sin_educacion":7,"pct_educ_superior":29,"brecha_educ":-4,"pct_sin_seguro":20,"pct_sus":71,"pct_seguro_privado":3,"brecha_seguro":11,"pct_salud_publica":36,"pct_med_tradicional":10,"pct_automedicacion":16,"pct_remedios_caseros":25,"pct_viv_desocupada":0,"pct_alquiler":0,"pct_electricidad":100,"pct_sin_electricidad":0,"pct_agua_red":86,"pct_alcantarillado":86,"pct_camara_septica":0,"pct_pozo_ciego":14,"pct_sin_desague":0,"pct_gas_red":71,"pct_gas_garrafa":29,"pct_lena_guano":0,"pct_basura_formal":100,"pct_basura_quema":0,"pct_basura_informal":0,"pct_internet":86,"pct_celular":86,"pct_televisor":86}},{"type":"Feature","geometry":{"type":"Polygon","coordinates":[[[-65.12172,-19.19088],[-65.12168,-19.19068],[-65.12155,-19.19059],[-65.12082,-19.19067],[-65.12092,-19.19092],[-65.12157,-19.19105],[-65.12244,-19.19144],[-65.12257,-19.19088],[-65.12172,-19.19088]]]},"properties":{"n":"YAMPARAEZ","p":15,"personas_x_ha":20,"masculinidad":114,"pct_menor20":33,"pct_60mas":20,"pct_migrante":80,"dependencia_econ":150,"pct_empleados":0,"pct_cuentapropia":33,"pct_agricultura":33,"pct_comercio":0,"pct_manufactura":0,"pct_construccion":0,"pct_transporte":0,"pct_alojamiento":0,"pct_sin_educacion":30,"pct_educ_superior":10,"brecha_educ":20,"pct_sin_seguro":7,"pct_sus":93,"pct_seguro_privado":0,"brecha_seguro":12,"pct_salud_publica":33,"pct_med_tradicional":14,"pct_automedicacion":19,"pct_remedios_caseros":26,"pct_viv_desocupada":0,"pct_alquiler":17,"pct_electricidad":83,"pct_sin_electricidad":0,"pct_agua_red":67,"pct_alcantarillado":83,"pct_camara_septica":0,"pct_pozo_ciego":0,"pct_sin_desague":17,"pct_gas_red":0,"pct_gas_garrafa":100,"pct_lena_guano":0,"pct_basura_formal":100,"pct_basura_quema":0,"pct_basura_informal":0,"pct_internet":67,"pct_celular":67,"pct_televisor":17}},{"type":"Feature","geometry":{"type":"Polygon","coordinates":[[[-65.12341,-19.19107],[-65.12342,-19.19096],[-65.1226,-19.19089],[-65.1226,-19.19104],[-65.12341,-19.19107]]]},"properties":{"n":"YAMPARAEZ","p":25,"personas_x_ha":184,"masculinidad":47,"pct_menor20":32,"pct_60mas":12,"pct_migrante":44,"dependencia_econ":92,"pct_empleados":31,"pct_cuentapropia":54,"pct_agricultura":8,"pct_comercio":0,"pct_manufactura":46,"pct_construccion":15,"pct_transporte":8,"pct_alojamiento":0,"pct_sin_educacion":0,"pct_educ_superior":29,"brecha_educ":7,"pct_sin_seguro":44,"pct_sus":40,"pct_seguro_privado":4,"brecha_seguro":-28,"pct_salud_publica":28,"pct_med_tradicional":7,"pct_automedicacion":24,"pct_remedios_caseros":28,"pct_viv_desocupada":0,"pct_alquiler":38,"pct_electricidad":100,"pct_sin_electricidad":0,"pct_agua_red":88,"pct_alcantarillado":100,"pct_camara_septica":0,"pct_pozo_ciego":0,"pct_sin_desague":0,"pct_gas_red":62,"pct_gas_garrafa":38,"pct_lena_guano":0,"pct_basura_formal":100,"pct_basura_quema":0,"pct_basura_informal":0,"pct_internet":100,"pct_celular":88,"pct_televisor":100}},{"type":"Feature","geometry":{"type":"Polygon","coordinates":[[[-65.12273,-19.18996],[-65.12287,-19.18944],[-65.12361,-19.18953],[-65.12432,-19.18975],[-65.12421,-19.1902],[-65.12411,-19.1902],[-65.12359,-19.19013],[-65.12356,-19.19005],[-65.12301,-19.18985],[-65.12291,-19.18984],[-65.12288,-19.18998],[-65.12273,-19.18996]]]},"properties":{"n":"YAMPARAEZ","p":26,"personas_x_ha":30,"masculinidad":117,"pct_menor20":12,"pct_60mas":27,"pct_migrante":38,"dependencia_econ":73,"pct_empleados":53,"pct_cuentapropia":40,"pct_agricultura":0,"pct_comercio":27,"pct_manufactura":7,"pct_construccion":7,"pct_transporte":7,"pct_alojamiento":7,"pct_sin_educacion":0,"pct_educ_superior":39,"brecha_educ":13,"pct_sin_seguro":12,"pct_sus":72,"pct_seguro_privado":0,"brecha_seguro":7,"pct_salud_publica":55,"pct_med_tradicional":5,"pct_automedicacion":8,"pct_remedios_caseros":13,"pct_viv_desocupada":30,"pct_alquiler":14,"pct_electricidad":100,"pct_sin_electricidad":0,"pct_agua_red":93,"pct_alcantarillado":100,"pct_camara_septica":0,"pct_pozo_ciego":0,"pct_sin_desague":0,"pct_gas_red":29,"pct_gas_garrafa":50,"pct_lena_guano":0,"pct_basura_formal":100,"pct_basura_quema":0,"pct_basura_informal":0,"pct_internet":50,"pct_celular":86,"pct_televisor":57}},{"type":"Feature","geometry":{"type":"Polygon","coordinates":[[[-65.11941,-19.18736],[-65.11972,-19.18698],[-65.11895,-19.18697],[-65.11892,-19.18705],[-65.11923,-19.1873],[-65.11921,-19.18787],[-65.12012,-19.18792],[-65.12016,-19.18762],[-65.11995,-19.18755],[-65.11986,-19.18768],[-65.11941,-19.18736]]]},"properties":{"n":"YAMPARAEZ","p":18,"personas_x_ha":29,"masculinidad":157,"pct_menor20":28,"pct_60mas":17,"pct_migrante":50,"dependencia_econ":36,"pct_empleados":18,"pct_cuentapropia":64,"pct_agricultura":36,"pct_comercio":18,"pct_manufactura":9,"pct_construccion":9,"pct_transporte":9,"pct_alojamiento":0,"pct_sin_educacion":20,"pct_educ_superior":0,"brecha_educ":0,"pct_sin_seguro":0,"pct_sus":100,"pct_seguro_privado":0,"brecha_seguro":0,"pct_salud_publica":34,"pct_med_tradicional":4,"pct_automedicacion":19,"pct_remedios_caseros":28,"pct_viv_desocupada":0,"pct_alquiler":12,"pct_electricidad":100,"pct_sin_electricidad":0,"pct_agua_red":100,"pct_alcantarillado":88,"pct_camara_septica":12,"pct_pozo_ciego":0,"pct_sin_desague":0,"pct_gas_red":62,"pct_gas_garrafa":38,"pct_lena_guano":0,"pct_basura_formal":50,"pct_basura_quema":25,"pct_basura_informal":25,"pct_internet":88,"pct_celular":100,"pct_televisor":62}},{"type":"Feature","geometry":{"type":"Polygon","coordinates":[[[-65.1257,-19.18612],[-65.12551,-19.18583],[-65.12441,-19.18634],[-65.12471,-19.18692],[-65.12557,-19.18654],[-65.12559,-19.18659],[-65.12514,-19.18679],[-65.12518,-19.18689],[-65.1254,-19.1869],[-65.12579,-19.18671],[-65.1257,-19.18612]]]},"properties":{"n":"YAMPARAEZ","p":19,"personas_x_ha":17,"masculinidad":138,"pct_menor20":47,"pct_60mas":16,"pct_migrante":37,"dependencia_econ":90,"pct_empleados":50,"pct_cuentapropia":50,"pct_agricultura":20,"pct_comercio":0,"pct_manufactura":0,"pct_construccion":20,"pct_transporte":0,"pct_alojamiento":10,"pct_sin_educacion":18,"pct_educ_superior":0,"brecha_educ":-36,"pct_sin_seguro":21,"pct_sus":79,"pct_seguro_privado":0,"brecha_seguro":15,"pct_salud_publica":38,"pct_med_tradicional":2,"pct_automedicacion":2,"pct_remedios_caseros":33,"pct_viv_desocupada":8,"pct_alquiler":0,"pct_electricidad":80,"pct_sin_electricidad":20,"pct_agua_red":0,"pct_alcantarillado":0,"pct_camara_septica":0,"pct_pozo_ciego":60,"pct_sin_desague":40,"pct_gas_red":0,"pct_gas_garrafa":60,"pct_lena_guano":40,"pct_basura_formal":20,"pct_basura_quema":80,"pct_basura_informal":0,"pct_internet":80,"pct_celular":100,"pct_televisor":40}},{"type":"Feature","geometry":{"type":"Polygon","coordinates":[[[-65.12233,-19.18689],[-65.12173,-19.18727],[-65.1224,-19.18768],[-65.1225,-19.18701],[-65.12245,-19.1869],[-65.12233,-19.18689]]]},"properties":{"n":"YAMPARAEZ","p":26,"personas_x_ha":67,"masculinidad":136,"pct_menor20":27,"pct_60mas":15,"pct_migrante":8,"dependencia_econ":73,"pct_empleados":7,"pct_cuentapropia":73,"pct_agricultura":7,"pct_comercio":0,"pct_manufactura":13,"pct_construccion":47,"pct_transporte":0,"pct_alojamiento":0,"pct_sin_educacion":21,"pct_educ_superior":16,"brecha_educ":-4,"pct_sin_seguro":4,"pct_sus":96,"pct_seguro_privado":0,"brecha_seguro":7,"pct_salud_publica":32,"pct_med_tradicional":12,"pct_automedicacion":6,"pct_remedios_caseros":22,"pct_viv_desocupada":0,"pct_alquiler":0,"pct_electricidad":100,"pct_sin_electricidad":0,"pct_agua_red":100,"pct_alcantarillado":88,"pct_camara_septica":0,"pct_pozo_ciego":0,"pct_sin_desague":12,"pct_gas_red":25,"pct_gas_garrafa":62,"pct_lena_guano":12,"pct_basura_formal":50,"pct_basura_quema":38,"pct_basura_informal":12,"pct_internet":38,"pct_celular":38,"pct_televisor":38}},{"type":"Feature","geometry":{"type":"Polygon","coordinates":[[[-65.12822,-19.18521],[-65.12814,-19.18538],[-65.12886,-19.18571],[-65.12902,-19.18541],[-65.1284,-19.18512],[-65.12822,-19.18521]]]},"properties":{"n":"YAMPARAEZ","p":24,"personas_x_ha":77,"masculinidad":167,"pct_menor20":29,"pct_60mas":21,"pct_migrante":21,"dependencia_econ":60,"pct_empleados":40,"pct_cuentapropia":60,"pct_agricultura":53,"pct_comercio":13,"pct_manufactura":0,"pct_construccion":7,"pct_transporte":7,"pct_alojamiento":13,"pct_sin_educacion":18,"pct_educ_superior":18,"brecha_educ":-7,"pct_sin_seguro":0,"pct_sus":100,"pct_seguro_privado":0,"brecha_seguro":0,"pct_salud_publica":30,"pct_med_tradicional":4,"pct_automedicacion":30,"pct_remedios_caseros":30,"pct_viv_desocupada":0,"pct_alquiler":33,"pct_electricidad":100,"pct_sin_electricidad":0,"pct_agua_red":78,"pct_alcantarillado":67,"pct_camara_septica":0,"pct_pozo_ciego":33,"pct_sin_desague":0,"pct_gas_red":56,"pct_gas_garrafa":44,"pct_lena_guano":0,"pct_basura_formal":56,"pct_basura_quema":22,"pct_basura_informal":22,"pct_internet":67,"pct_celular":78,"pct_televisor":56}},{"type":"Feature","geometry":{"type":"Polygon","coordinates":[[[-65.11918,-19.18659],[-65.11851,-19.18655],[-65.11847,-19.18678],[-65.11916,-19.18688],[-65.11918,-19.18659]]]},"properties":{"n":"YAMPARAEZ","p":19,"personas_x_ha":79,"masculinidad":46,"pct_menor20":37,"pct_60mas":11,"pct_migrante":26,"dependencia_econ":46,"pct_empleados":15,"pct_cuentapropia":46,"pct_agricultura":31,"pct_comercio":0,"pct_manufactura":23,"pct_construccion":0,"pct_transporte":15,"pct_alojamiento":0,"pct_sin_educacion":8,"pct_educ_superior":25,"brecha_educ":-50,"pct_sin_seguro":0,"pct_sus":94,"pct_seguro_privado":0,"brecha_seguro":0,"pct_salud_publica":29,"pct_med_tradicional":12,"pct_automedicacion":27,"pct_remedios_caseros":26,"pct_viv_desocupada":0,"pct_alquiler":0,"pct_electricidad":100,"pct_sin_electricidad":0,"pct_agua_red":100,"pct_alcantarillado":88,"pct_camara_septica":0,"pct_pozo_ciego":0,"pct_sin_desague":12,"pct_gas_red":88,"pct_gas_garrafa":12,"pct_lena_guano":0,"pct_basura_formal":75,"pct_basura_quema":25,"pct_basura_informal":0,"pct_internet":100,"pct_celular":100,"pct_televisor":75}},{"type":"Feature","geometry":{"type":"Polygon","coordinates":[[[-65.12309,-19.18632],[-65.12353,-19.18683],[-65.12428,-19.18628],[-65.12403,-19.18588],[-65.12384,-19.18574],[-65.12309,-19.18632]]]},"properties":{"n":"YAMPARAEZ","p":26,"personas_x_ha":34,"masculinidad":53,"pct_menor20":38,"pct_60mas":8,"pct_migrante":73,"dependencia_econ":100,"pct_empleados":8,"pct_cuentapropia":69,"pct_agricultura":0,"pct_comercio":8,"pct_manufactura":46,"pct_construccion":15,"pct_transporte":0,"pct_alojamiento":15,"pct_sin_educacion":6,"pct_educ_superior":19,"brecha_educ":-27,"pct_sin_seguro":12,"pct_sus":69,"pct_seguro_privado":0,"brecha_seguro":16,"pct_salud_publica":23,"pct_med_tradicional":5,"pct_automedicacion":22,"pct_remedios_caseros":26,"pct_viv_desocupada":0,"pct_alquiler":0,"pct_electricidad":78,"pct_sin_electricidad":22,"pct_agua_red":89,"pct_alcantarillado":0,"pct_camara_septica":0,"pct_pozo_ciego":56,"pct_sin_desague":22,"pct_gas_red":56,"pct_gas_garrafa":22,"pct_lena_guano":22,"pct_basura_formal":56,"pct_basura_quema":33,"pct_basura_informal":0,"pct_internet":100,"pct_celular":89,"pct_televisor":67}},{"type":"Feature","geometry":{"type":"Polygon","coordinates":[[[-65.12051,-19.18661],[-65.12084,-19.18637],[-65.12042,-19.18579],[-65.1201,-19.18593],[-65.12051,-19.18661]]]},"properties":{"n":"YAMPARAEZ","p":23,"personas_x_ha":70,"masculinidad":188,"pct_menor20":48,"pct_60mas":4,"pct_migrante":9,"dependencia_econ":92,"pct_empleados":75,"pct_cuentapropia":25,"pct_agricultura":17,"pct_comercio":8,"pct_manufactura":0,"pct_construccion":67,"pct_transporte":0,"pct_alojamiento":0,"pct_sin_educacion":17,"pct_educ_superior":0,"brecha_educ":-67,"pct_sin_seguro":0,"pct_sus":96,"pct_seguro_privado":0,"brecha_seguro":0,"pct_salud_publica":96,"pct_med_tradicional":0,"pct_automedicacion":0,"pct_remedios_caseros":0,"pct_viv_desocupada":10,"pct_alquiler":0,"pct_electricidad":71,"pct_sin_electricidad":29,"pct_agua_red":29,"pct_alcantarillado":43,"pct_camara_septica":0,"pct_pozo_ciego":0,"pct_sin_desague":43,"pct_gas_red":14,"pct_gas_garrafa":57,"pct_lena_guano":0,"pct_basura_formal":100,"pct_basura_quema":0,"pct_basura_informal":0,"pct_internet":71,"pct_celular":71,"pct_televisor":43}},{"type":"Feature","geometry":{"type":"Polygon","coordinates":[[[-65.12336,-19.18565],[-65.12352,-19.18576],[-65.12212,-19.18677],[-65.12186,-19.18672],[-65.12171,-19.1865],[-65.12293,-19.18562],[-65.12336,-19.18565]]]},"properties":{"n":"YAMPARAEZ","p":80,"personas_x_ha":88,"masculinidad":116,"pct_menor20":50,"pct_60mas":6,"pct_migrante":39,"dependencia_econ":111,"pct_empleados":39,"pct_cuentapropia":50,"pct_agricultura":18,"pct_comercio":13,"pct_manufactura":13,"pct_construccion":29,"pct_transporte":8,"pct_alojamiento":3,"pct_sin_educacion":11,"pct_educ_superior":20,"brecha_educ":-22,"pct_sin_seguro":10,"pct_sus":82,"pct_seguro_privado":0,"brecha_seguro":4,"pct_salud_publica":32,"pct_med_tradicional":7,"pct_automedicacion":26,"pct_remedios_caseros":26,"pct_viv_desocupada":0,"pct_alquiler":5,"pct_electricidad":86,"pct_sin_electricidad":14,"pct_agua_red":68,"pct_alcantarillado":73,"pct_camara_septica":0,"pct_pozo_ciego":0,"pct_sin_desague":23,"pct_gas_red":73,"pct_gas_garrafa":18,"pct_lena_guano":5,"pct_basura_formal":86,"pct_basura_quema":5,"pct_basura_informal":5,"pct_internet":86,"pct_celular":91,"pct_televisor":59}},{"type":"Feature","geometry":{"type":"Polygon","coordinates":[[[-65.12921,-19.18506],[-65.12865,-19.18479],[-65.12846,-19.18507],[-65.12905,-19.18535],[-65.12921,-19.18506]]]},"properties":{"n":"YAMPARAEZ","p":26,"personas_x_ha":97,"masculinidad":86,"pct_menor20":23,"pct_60mas":35,"pct_migrante":27,"dependencia_econ":271,"pct_empleados":14,"pct_cuentapropia":86,"pct_agricultura":43,"pct_comercio":0,"pct_manufactura":43,"pct_construccion":0,"pct_transporte":0,"pct_alojamiento":0,"pct_sin_educacion":29,"pct_educ_superior":5,"brecha_educ":-3,"pct_sin_seguro":0,"pct_sus":62,"pct_seguro_privado":0,"brecha_seguro":0,"pct_salud_publica":30,"pct_med_tradicional":0,"pct_automedicacion":19,"pct_remedios_caseros":28,"pct_viv_desocupada":20,"pct_alquiler":0,"pct_electricidad":100,"pct_sin_electricidad":0,"pct_agua_red":100,"pct_alcantarillado":88,"pct_camara_septica":0,"pct_pozo_ciego":0,"pct_sin_desague":12,"pct_gas_red":38,"pct_gas_garrafa":62,"pct_lena_guano":0,"pct_basura_formal":88,"pct_basura_quema":12,"pct_basura_informal":0,"pct_internet":38,"pct_celular":88,"pct_televisor":75}},{"type":"Feature","geometry":{"type":"Polygon","coordinates":[[[-65.12696,-19.1894],[-65.12676,-19.18929],[-65.1269,-19.189],[-65.12545,-19.18852],[-65.12536,-19.18896],[-65.12601,-19.18913],[-65.12681,-19.18949],[-65.12696,-19.18948],[-65.12696,-19.1894]]]},"properties":{"n":"YAMPARAEZ","p":24,"personas_x_ha":30,"masculinidad":60,"pct_menor20":42,"pct_60mas":4,"pct_migrante":8,"dependencia_econ":118,"pct_empleados":0,"pct_cuentapropia":82,"pct_agricultura":18,"pct_comercio":0,"pct_manufactura":18,"pct_construccion":9,"pct_transporte":36,"pct_alojamiento":9,"pct_sin_educacion":7,"pct_educ_superior":0,"brecha_educ":-33,"pct_sin_seguro":62,"pct_sus":38,"pct_seguro_privado":0,"brecha_seguro":-11,"pct_salud_publica":26,"pct_med_tradicional":19,"pct_automedicacion":19,"pct_remedios_caseros":21,"pct_viv_desocupada":0,"pct_alquiler":0,"pct_electricidad":100,"pct_sin_electricidad":0,"pct_agua_red":86,"pct_alcantarillado":86,"pct_camara_septica":0,"pct_pozo_ciego":14,"pct_sin_desague":0,"pct_gas_red":57,"pct_gas_garrafa":43,"pct_lena_guano":0,"pct_basura_formal":86,"pct_basura_quema":0,"pct_basura_informal":14,"pct_internet":71,"pct_celular":86,"pct_televisor":57}},{"type":"Feature","geometry":{"type":"Polygon","coordinates":[[[-65.12534,-19.18895],[-65.12542,-19.18848],[-65.12469,-19.18821],[-65.12451,-19.18891],[-65.12534,-19.18895]]]},"properties":{"n":"YAMPARAEZ","p":44,"personas_x_ha":84,"masculinidad":193,"pct_menor20":20,"pct_60mas":7,"pct_migrante":50,"dependencia_econ":63,"pct_empleados":63,"pct_cuentapropia":30,"pct_agricultura":11,"pct_comercio":11,"pct_manufactura":7,"pct_construccion":44,"pct_transporte":0,"pct_alojamiento":11,"pct_sin_educacion":6,"pct_educ_superior":29,"brecha_educ":-46,"pct_sin_seguro":16,"pct_sus":75,"pct_seguro_privado":0,"brecha_seguro":14,"pct_salud_publica":29,"pct_med_tradicional":8,"pct_automedicacion":25,"pct_remedios_caseros":20,"pct_viv_desocupada":0,"pct_alquiler":47,"pct_electricidad":100,"pct_sin_electricidad":0,"pct_agua_red":82,"pct_alcantarillado":100,"pct_camara_septica":0,"pct_pozo_ciego":0,"pct_sin_desague":0,"pct_gas_red":53,"pct_gas_garrafa":24,"pct_lena_guano":0,"pct_basura_formal":94,"pct_basura_quema":6,"pct_basura_informal":0,"pct_internet":100,"pct_celular":100,"pct_televisor":53}},{"type":"Feature","geometry":{"type":"Polygon","coordinates":[[[-65.12666,-19.19074],[-65.12781,-19.19156],[-65.12789,-19.19146],[-65.12752,-19.19109],[-65.12698,-19.19028],[-65.1261,-19.18998],[-65.1259,-19.19033],[-65.12666,-19.19074]]]},"properties":{"n":"YAMPARAEZ","p":62,"personas_x_ha":62,"masculinidad":82,"pct_menor20":34,"pct_60mas":16,"pct_migrante":15,"dependencia_econ":88,"pct_empleados":21,"pct_cuentapropia":58,"pct_agricultura":18,"pct_comercio":21,"pct_manufactura":0,"pct_construccion":18,"pct_transporte":9,"pct_alojamiento":0,"pct_sin_educacion":7,"pct_educ_superior":17,"brecha_educ":-2,"pct_sin_seguro":3,"pct_sus":95,"pct_seguro_privado":0,"brecha_seguro":1,"pct_salud_publica":80,"pct_med_tradicional":1,"pct_automedicacion":3,"pct_remedios_caseros":5,"pct_viv_desocupada":0,"pct_alquiler":10,"pct_electricidad":95,"pct_sin_electricidad":5,"pct_agua_red":85,"pct_alcantarillado":90,"pct_camara_septica":0,"pct_pozo_ciego":5,"pct_sin_desague":5,"pct_gas_red":65,"pct_gas_garrafa":35,"pct_lena_guano":0,"pct_basura_formal":90,"pct_basura_quema":10,"pct_basura_informal":0,"pct_internet":55,"pct_celular":60,"pct_televisor":65}},{"type":"Feature","geometry":{"type":"Polygon","coordinates":[[[-65.12438,-19.18975],[-65.12405,-19.19107],[-65.12538,-19.19142],[-65.12546,-19.19122],[-65.12533,-19.1909],[-65.12503,-19.19076],[-65.12496,-19.19062],[-65.12521,-19.1901],[-65.12438,-19.18975]]]},"properties":{"n":"YAMPARAEZ","p":31,"personas_x_ha":20,"masculinidad":72,"pct_menor20":48,"pct_60mas":16,"pct_migrante":55,"dependencia_econ":72,"pct_empleados":33,"pct_cuentapropia":67,"pct_agricultura":28,"pct_comercio":17,"pct_manufactura":6,"pct_construccion":0,"pct_transporte":6,"pct_alojamiento":0,"pct_sin_educacion":12,"pct_educ_superior":18,"brecha_educ":-7,"pct_sin_seguro":0,"pct_sus":77,"pct_seguro_privado":0,"brecha_seguro":0,"pct_salud_publica":18,"pct_med_tradicional":13,"pct_automedicacion":22,"pct_remedios_caseros":22,"pct_viv_desocupada":0,"pct_alquiler":10,"pct_electricidad":100,"pct_sin_electricidad":0,"pct_agua_red":70,"pct_alcantarillado":70,"pct_camara_septica":0,"pct_pozo_ciego":0,"pct_sin_desague":30,"pct_gas_red":40,"pct_gas_garrafa":60,"pct_lena_guano":0,"pct_basura_formal":100,"pct_basura_quema":0,"pct_basura_informal":0,"pct_internet":80,"pct_celular":90,"pct_televisor":40}},{"type":"Feature","geometry":{"type":"Polygon","coordinates":[[[-65.12245,-19.18939],[-65.12245,-19.1893],[-65.12194,-19.18913],[-65.12147,-19.18917],[-65.12157,-19.18962],[-65.12245,-19.18939]]]},"properties":{"n":"YAMPARAEZ","p":16,"personas_x_ha":43,"masculinidad":60,"pct_menor20":12,"pct_60mas":38,"pct_migrante":38,"dependencia_econ":88,"pct_empleados":38,"pct_cuentapropia":38,"pct_agricultura":25,"pct_comercio":0,"pct_manufactura":0,"pct_construccion":12,"pct_transporte":0,"pct_alojamiento":0,"pct_sin_educacion":15,"pct_educ_superior":54,"brecha_educ":-18,"pct_sin_seguro":13,"pct_sus":60,"pct_seguro_privado":0,"brecha_seguro":6,"pct_salud_publica":26,"pct_med_tradicional":15,"pct_automedicacion":12,"pct_remedios_caseros":29,"pct_viv_desocupada":7,"pct_alquiler":30,"pct_electricidad":100,"pct_sin_electricidad":0,"pct_agua_red":90,"pct_alcantarillado":90,"pct_camara_septica":0,"pct_pozo_ciego":10,"pct_sin_desague":0,"pct_gas_red":50,"pct_gas_garrafa":40,"pct_lena_guano":0,"pct_basura_formal":100,"pct_basura_quema":0,"pct_basura_informal":0,"pct_internet":90,"pct_celular":90,"pct_televisor":70}},{"type":"Feature","geometry":{"type":"Polygon","coordinates":[[[-65.13122,-19.1849],[-65.1305,-19.18463],[-65.13037,-19.18495],[-65.13106,-19.18521],[-65.13122,-19.1849]]]},"properties":{"n":"YAMPARAEZ","p":18,"personas_x_ha":59,"masculinidad":100,"pct_menor20":17,"pct_60mas":17,"pct_migrante":11,"dependencia_econ":64,"pct_empleados":18,"pct_cuentapropia":82,"pct_agricultura":36,"pct_comercio":0,"pct_manufactura":9,"pct_construccion":9,"pct_transporte":0,"pct_alojamiento":0,"pct_sin_educacion":13,"pct_educ_superior":7,"brecha_educ":23,"pct_sin_seguro":0,"pct_sus":100,"pct_seguro_privado":0,"brecha_seguro":0,"pct_salud_publica":26,"pct_med_tradicional":14,"pct_automedicacion":26,"pct_remedios_caseros":26,"pct_viv_desocupada":0,"pct_alquiler":17,"pct_electricidad":100,"pct_sin_electricidad":0,"pct_agua_red":100,"pct_alcantarillado":50,"pct_camara_septica":0,"pct_pozo_ciego":33,"pct_sin_desague":17,"pct_gas_red":83,"pct_gas_garrafa":17,"pct_lena_guano":0,"pct_basura_formal":100,"pct_basura_quema":0,"pct_basura_informal":0,"pct_internet":67,"pct_celular":83,"pct_televisor":17}},{"type":"Feature","geometry":{"type":"Polygon","coordinates":[[[-65.12094,-19.18632],[-65.1213,-19.18605],[-65.12098,-19.18556],[-65.12057,-19.18573],[-65.12094,-19.18632]]]},"properties":{"n":"YAMPARAEZ","p":27,"personas_x_ha":82,"masculinidad":200,"pct_menor20":59,"pct_60mas":4,"pct_migrante":22,"dependencia_econ":145,"pct_empleados":27,"pct_cuentapropia":55,"pct_agricultura":45,"pct_comercio":0,"pct_manufactura":9,"pct_construccion":45,"pct_transporte":0,"pct_alojamiento":0,"pct_sin_educacion":9,"pct_educ_superior":0,"brecha_educ":-32,"pct_sin_seguro":11,"pct_sus":89,"pct_seguro_privado":0,"brecha_seguro":0,"pct_salud_publica":62,"pct_med_tradicional":0,"pct_automedicacion":8,"pct_remedios_caseros":30,"pct_viv_desocupada":0,"pct_alquiler":0,"pct_electricidad":75,"pct_sin_electricidad":25,"pct_agua_red":50,"pct_alcantarillado":50,"pct_camara_septica":0,"pct_pozo_ciego":0,"pct_sin_desague":50,"pct_gas_red":38,"pct_gas_garrafa":62,"pct_lena_guano":0,"pct_basura_formal":88,"pct_basura_quema":12,"pct_basura_informal":0,"pct_internet":38,"pct_celular":75,"pct_televisor":25}},{"type":"Feature","geometry":{"type":"Polygon","coordinates":[[[-65.12206,-19.18508],[-65.12108,-19.18553],[-65.12137,-19.186],[-65.12227,-19.18536],[-65.12206,-19.18508]]]},"properties":{"n":"YAMPARAEZ","p":52,"personas_x_ha":91,"masculinidad":73,"pct_menor20":38,"pct_60mas":12,"pct_migrante":42,"dependencia_econ":96,"pct_empleados":12,"pct_cuentapropia":85,"pct_agricultura":27,"pct_comercio":27,"pct_manufactura":4,"pct_construccion":19,"pct_transporte":4,"pct_alojamiento":0,"pct_sin_educacion":9,"pct_educ_superior":31,"brecha_educ":-38,"pct_sin_seguro":0,"pct_sus":90,"pct_seguro_privado":6,"brecha_seguro":0,"pct_salud_publica":27,"pct_med_tradicional":9,"pct_automedicacion":12,"pct_remedios_caseros":20,"pct_viv_desocupada":0,"pct_alquiler":7,"pct_electricidad":87,"pct_sin_electricidad":13,"pct_agua_red":40,"pct_alcantarillado":53,"pct_camara_septica":0,"pct_pozo_ciego":13,"pct_sin_desague":33,"pct_gas_red":47,"pct_gas_garrafa":47,"pct_lena_guano":7,"pct_basura_formal":87,"pct_basura_quema":13,"pct_basura_informal":0,"pct_internet":73,"pct_celular":100,"pct_televisor":53}},{"type":"Feature","geometry":{"type":"Polygon","coordinates":[[[-65.11962,-19.18866],[-65.11986,-19.18889],[-65.12008,-19.1889],[-65.12011,-19.18832],[-65.11943,-19.18827],[-65.11962,-19.18866]]]},"properties":{"n":"YAMPARAEZ","p":42,"personas_x_ha":118,"masculinidad":68,"pct_menor20":31,"pct_60mas":14,"pct_migrante":5,"dependencia_econ":83,"pct_empleados":43,"pct_cuentapropia":26,"pct_agricultura":17,"pct_comercio":13,"pct_manufactura":9,"pct_construccion":30,"pct_transporte":4,"pct_alojamiento":9,"pct_sin_educacion":0,"pct_educ_superior":20,"brecha_educ":-13,"pct_sin_seguro":12,"pct_sus":81,"pct_seguro_privado":7,"brecha_seguro":10,"pct_salud_publica":58,"pct_med_tradicional":3,"pct_automedicacion":9,"pct_remedios_caseros":22,"pct_viv_desocupada":0,"pct_alquiler":0,"pct_electricidad":100,"pct_sin_electricidad":0,"pct_agua_red":89,"pct_alcantarillado":67,"pct_camara_septica":0,"pct_pozo_ciego":0,"pct_sin_desague":33,"pct_gas_red":56,"pct_gas_garrafa":44,"pct_lena_guano":0,"pct_basura_formal":89,"pct_basura_quema":0,"pct_basura_informal":11,"pct_internet":89,"pct_celular":100,"pct_televisor":56}},{"type":"Feature","geometry":{"type":"Polygon","coordinates":[[[-65.1212,-19.18866],[-65.12088,-19.18864],[-65.12088,-19.18839],[-65.12018,-19.18833],[-65.12015,-19.1888],[-65.12125,-19.18894],[-65.1212,-19.18866]]]},"properties":{"n":"YAMPARAEZ","p":34,"personas_x_ha":66,"masculinidad":162,"pct_menor20":21,"pct_60mas":32,"pct_migrante":12,"dependencia_econ":26,"pct_empleados":11,"pct_cuentapropia":67,"pct_agricultura":67,"pct_comercio":4,"pct_manufactura":4,"pct_construccion":4,"pct_transporte":7,"pct_alojamiento":0,"pct_sin_educacion":4,"pct_educ_superior":11,"brecha_educ":-17,"pct_sin_seguro":0,"pct_sus":94,"pct_seguro_privado":0,"brecha_seguro":0,"pct_salud_publica":26,"pct_med_tradicional":16,"pct_automedicacion":22,"pct_remedios_caseros":25,"pct_viv_desocupada":0,"pct_alquiler":0,"pct_electricidad":100,"pct_sin_electricidad":0,"pct_agua_red":60,"pct_alcantarillado":100,"pct_camara_septica":0,"pct_pozo_ciego":0,"pct_sin_desague":0,"pct_gas_red":60,"pct_gas_garrafa":40,"pct_lena_guano":0,"pct_basura_formal":80,"pct_basura_quema":20,"pct_basura_informal":0,"pct_internet":40,"pct_celular":100,"pct_televisor":90}},{"type":"Feature","geometry":{"type":"Polygon","coordinates":[[[-65.12282,-19.18861],[-65.12302,-19.18864],[-65.12306,-19.18883],[-65.12268,-19.18933],[-65.12192,-19.18907],[-65.12178,-19.18894],[-65.12179,-19.18866],[-65.12224,-19.18871],[-65.12229,-19.18859],[-65.12274,-19.18875],[-65.12282,-19.18861]]]},"properties":{"n":"YAMPARAEZ","p":31,"personas_x_ha":44,"masculinidad":121,"pct_menor20":39,"pct_60mas":13,"pct_migrante":45,"dependencia_econ":82,"pct_empleados":47,"pct_cuentapropia":35,"pct_agricultura":6,"pct_comercio":6,"pct_manufactura":0,"pct_construccion":29,"pct_transporte":0,"pct_alojamiento":18,"pct_sin_educacion":10,"pct_educ_superior":45,"brecha_educ":-23,"pct_sin_seguro":0,"pct_sus":87,"pct_seguro_privado":0,"brecha_seguro":0,"pct_salud_publica":30,"pct_med_tradicional":9,"pct_automedicacion":24,"pct_remedios_caseros":32,"pct_viv_desocupada":6,"pct_alquiler":25,"pct_electricidad":83,"pct_sin_electricidad":17,"pct_agua_red":83,"pct_alcantarillado":83,"pct_camara_septica":0,"pct_pozo_ciego":0,"pct_sin_desague":17,"pct_gas_red":33,"pct_gas_garrafa":58,"pct_lena_guano":0,"pct_basura_formal":100,"pct_basura_quema":0,"pct_basura_informal":0,"pct_internet":100,"pct_celular":100,"pct_televisor":75}},{"type":"Feature","geometry":{"type":"Polygon","coordinates":[[[-65.12313,-19.18915],[-65.12391,-19.18908],[-65.12433,-19.18914],[-65.12425,-19.18963],[-65.12305,-19.1894],[-65.12313,-19.18915]]]},"properties":{"n":"YAMPARAEZ","p":17,"personas_x_ha":31,"masculinidad":183,"pct_menor20":12,"pct_60mas":24,"pct_migrante":29,"dependencia_econ":13,"pct_empleados":27,"pct_cuentapropia":60,"pct_agricultura":13,"pct_comercio":40,"pct_manufactura":0,"pct_construccion":0,"pct_transporte":13,"pct_alojamiento":7,"pct_sin_educacion":0,"pct_educ_superior":53,"brecha_educ":-17,"pct_sin_seguro":6,"pct_sus":59,"pct_seguro_privado":0,"brecha_seguro":9,"pct_salud_publica":20,"pct_med_tradicional":7,"pct_automedicacion":24,"pct_remedios_caseros":27,"pct_viv_desocupada":0,"pct_alquiler":17,"pct_electricidad":100,"pct_sin_electricidad":0,"pct_agua_red":83,"pct_alcantarillado":100,"pct_camara_septica":0,"pct_pozo_ciego":0,"pct_sin_desague":0,"pct_gas_red":50,"pct_gas_garrafa":50,"pct_lena_guano":0,"pct_basura_formal":100,"pct_basura_quema":0,"pct_basura_informal":0,"pct_internet":83,"pct_celular":83,"pct_televisor":67}},{"type":"Feature","geometry":{"type":"Polygon","coordinates":[[[-65.13139,-19.18446],[-65.13069,-19.18421],[-65.13055,-19.18456],[-65.13125,-19.18482],[-65.13139,-19.18446]]]},"properties":{"n":"YAMPARAEZ","p":28,"personas_x_ha":82,"masculinidad":100,"pct_menor20":11,"pct_60mas":11,"pct_migrante":21,"dependencia_econ":22,"pct_empleados":22,"pct_cuentapropia":35,"pct_agricultura":61,"pct_comercio":0,"pct_manufactura":0,"pct_construccion":22,"pct_transporte":4,"pct_alojamiento":4,"pct_sin_educacion":4,"pct_educ_superior":8,"brecha_educ":-3,"pct_sin_seguro":25,"pct_sus":75,"pct_seguro_privado":0,"brecha_seguro":21,"pct_salud_publica":27,"pct_med_tradicional":12,"pct_automedicacion":25,"pct_remedios_caseros":24,"pct_viv_desocupada":0,"pct_alquiler":20,"pct_electricidad":90,"pct_sin_electricidad":10,"pct_agua_red":100,"pct_alcantarillado":80,"pct_camara_septica":0,"pct_pozo_ciego":0,"pct_sin_desague":20,"pct_gas_red":90,"pct_gas_garrafa":10,"pct_lena_guano":0,"pct_basura_formal":20,"pct_basura_quema":80,"pct_basura_informal":0,"pct_internet":80,"pct_celular":90,"pct_televisor":70}},{"type":"Feature","geometry":{"type":"Polygon","coordinates":[[[-65.12167,-19.18644],[-65.12261,-19.18578],[-65.12234,-19.18543],[-65.12142,-19.18607],[-65.12167,-19.18644]]]},"properties":{"n":"YAMPARAEZ","p":33,"personas_x_ha":57,"masculinidad":94,"pct_menor20":30,"pct_60mas":21,"pct_migrante":61,"dependencia_econ":57,"pct_empleados":33,"pct_cuentapropia":33,"pct_agricultura":71,"pct_comercio":5,"pct_manufactura":5,"pct_construccion":10,"pct_transporte":5,"pct_alojamiento":0,"pct_sin_educacion":22,"pct_educ_superior":0,"brecha_educ":-19,"pct_sin_seguro":18,"pct_sus":82,"pct_seguro_privado":0,"brecha_seguro":13,"pct_salud_publica":21,"pct_med_tradicional":9,"pct_automedicacion":18,"pct_remedios_caseros":22,"pct_viv_desocupada":11,"pct_alquiler":0,"pct_electricidad":67,"pct_sin_electricidad":17,"pct_agua_red":50,"pct_alcantarillado":50,"pct_camara_septica":0,"pct_pozo_ciego":8,"pct_sin_desague":42,"pct_gas_red":50,"pct_gas_garrafa":42,"pct_lena_guano":8,"pct_basura_formal":100,"pct_basura_quema":0,"pct_basura_informal":0,"pct_internet":67,"pct_celular":83,"pct_televisor":75}},{"type":"Feature","geometry":{"type":"Polygon","coordinates":[[[-65.12883,-19.18578],[-65.12815,-19.18546],[-65.12796,-19.18577],[-65.12844,-19.18598],[-65.12868,-19.18599],[-65.12883,-19.18578]]]},"properties":{"n":"YAMPARAEZ","p":17,"personas_x_ha":56,"masculinidad":89,"pct_menor20":35,"pct_60mas":6,"pct_migrante":41,"dependencia_econ":70,"pct_empleados":10,"pct_cuentapropia":50,"pct_agricultura":60,"pct_comercio":10,"pct_manufactura":0,"pct_construccion":0,"pct_transporte":20,"pct_alojamiento":0,"pct_sin_educacion":9,"pct_educ_superior":9,"brecha_educ":-10,"pct_sin_seguro":0,"pct_sus":100,"pct_seguro_privado":0,"brecha_seguro":0,"pct_salud_publica":44,"pct_med_tradicional":3,"pct_automedicacion":13,"pct_remedios_caseros":41,"pct_viv_desocupada":27,"pct_alquiler":50,"pct_electricidad":100,"pct_sin_electricidad":0,"pct_agua_red":100,"pct_alcantarillado":100,"pct_camara_septica":0,"pct_pozo_ciego":0,"pct_sin_desague":0,"pct_gas_red":17,"pct_gas_garrafa":50,"pct_lena_guano":33,"pct_basura_formal":50,"pct_basura_quema":50,"pct_basura_informal":0,"pct_internet":83,"pct_celular":83,"pct_televisor":0}},{"type":"Feature","geometry":{"type":"Polygon","coordinates":[[[-65.12545,-19.18971],[-65.1251,-19.18947],[-65.12479,-19.18943],[-65.12469,-19.18978],[-65.12528,-19.19],[-65.12545,-19.18971]]]},"properties":{"n":"YAMPARAEZ","p":17,"personas_x_ha":56,"masculinidad":55,"pct_menor20":29,"pct_60mas":12,"pct_migrante":47,"dependencia_econ":70,"pct_empleados":30,"pct_cuentapropia":60,"pct_agricultura":30,"pct_comercio":10,"pct_manufactura":0,"pct_construccion":10,"pct_transporte":10,"pct_alojamiento":10,"pct_sin_educacion":8,"pct_educ_superior":42,"brecha_educ":-3,"pct_sin_seguro":12,"pct_sus":62,"pct_seguro_privado":0,"brecha_seguro":-20,"pct_salud_publica":29,"pct_med_tradicional":14,"pct_automedicacion":17,"pct_remedios_caseros":24,"pct_viv_desocupada":0,"pct_alquiler":25,"pct_electricidad":100,"pct_sin_electricidad":0,"pct_agua_red":62,"pct_alcantarillado":100,"pct_camara_septica":0,"pct_pozo_ciego":0,"pct_sin_desague":0,"pct_gas_red":50,"pct_gas_garrafa":38,"pct_lena_guano":0,"pct_basura_formal":100,"pct_basura_quema":0,"pct_basura_informal":0,"pct_internet":75,"pct_celular":88,"pct_televisor":50}},{"type":"Feature","geometry":{"type":"Polygon","coordinates":[[[-65.12556,-19.19093],[-65.12531,-19.19068],[-65.125,-19.19056],[-65.12522,-19.19013],[-65.12675,-19.1909],[-65.12644,-19.19158],[-65.12636,-19.1914],[-65.12556,-19.19093]]]},"properties":{"n":"YAMPARAEZ","p":24,"personas_x_ha":22,"masculinidad":140,"pct_menor20":33,"pct_60mas":38,"pct_migrante":38,"dependencia_econ":64,"pct_empleados":36,"pct_cuentapropia":43,"pct_agricultura":36,"pct_comercio":14,"pct_manufactura":7,"pct_construccion":0,"pct_transporte":7,"pct_alojamiento":14,"pct_sin_educacion":6,"pct_educ_superior":12,"brecha_educ":-24,"pct_sin_seguro":0,"pct_sus":85,"pct_seguro_privado":0,"brecha_seguro":0,"pct_salud_publica":95,"pct_med_tradicional":0,"pct_automedicacion":0,"pct_remedios_caseros":0,"pct_viv_desocupada":0,"pct_alquiler":33,"pct_electricidad":100,"pct_sin_electricidad":0,"pct_agua_red":89,"pct_alcantarillado":89,"pct_camara_septica":0,"pct_pozo_ciego":0,"pct_sin_desague":11,"pct_gas_red":44,"pct_gas_garrafa":56,"pct_lena_guano":0,"pct_basura_formal":100,"pct_basura_quema":0,"pct_basura_informal":0,"pct_internet":44,"pct_celular":44,"pct_televisor":78}}]}