{"type":"FeatureCollection","features":[{"type":"Feature","geometry":{"type":"Polygon","coordinates":[[[-65.28038,-21.35714],[-65.28025,-21.35696],[-65.28003,-21.35685],[-65.27998,-21.35705],[-65.27987,-21.35702],[-65.27984,-21.35722],[-65.2803,-21.35735],[-65.28038,-21.35714]]]},"properties":{"n":"IMPORA","p":26,"personas_x_ha":141,"masculinidad":117,"pct_menor20":46,"pct_60mas":8,"pct_migrante":0,"dependencia_econ":400,"pct_empleados":0,"pct_cuentapropia":60,"pct_agricultura":80,"pct_comercio":20,"pct_manufactura":0,"pct_construccion":0,"pct_transporte":0,"pct_alojamiento":0,"pct_educ_superior":8,"brecha_educ":-7,"pct_sin_seguro":20,"pct_seguro_privado":0,"brecha_seguro":6,"pct_med_tradicional":0,"pct_automedicacion":14,"pct_remedios_caseros":16,"pct_viv_desocupada":0,"pct_alquiler":50,"pct_electricidad":50,"pct_agua_red":25,"pct_alcantarillado":12,"pct_gas_red":0,"pct_gas_garrafa":25,"pct_lena_guano":25,"pct_basura_formal":12,"pct_basura_quema":88,"pct_basura_informal":0,"pct_internet":12,"pct_celular":50,"pct_televisor":50}},{"type":"Feature","geometry":{"type":"Polygon","coordinates":[[[-65.2929,-21.20256],[-65.29364,-21.20267],[-65.2936,-21.20355],[-65.29347,-21.20412],[-65.29325,-21.20411],[-65.2931,-21.20379],[-65.29309,-21.20356],[-65.29331,-21.20352],[-65.29291,-21.20351],[-65.29287,-21.20303],[-65.29321,-21.20305],[-65.29325,-21.20323],[-65.29323,-21.20303],[-65.29287,-21.20301],[-65.2929,-21.20256]]]},"properties":{"n":"LA TORRE","p":16,"personas_x_ha":16,"masculinidad":78,"pct_menor20":12,"pct_60mas":38,"pct_migrante":38,"dependencia_econ":129,"pct_empleados":43,"pct_cuentapropia":29,"pct_agricultura":43,"pct_comercio":0,"pct_manufactura":0,"pct_construccion":14,"pct_transporte":29,"pct_alojamiento":0,"pct_educ_superior":29,"brecha_educ":-38,"pct_sin_seguro":12,"pct_seguro_privado":6,"brecha_seguro":3,"pct_med_tradicional":14,"pct_automedicacion":12,"pct_remedios_caseros":22,"pct_viv_desocupada":0,"pct_alquiler":33,"pct_electricidad":100,"pct_agua_red":83,"pct_alcantarillado":0,"pct_gas_red":0,"pct_gas_garrafa":0,"pct_lena_guano":0,"pct_basura_formal":0,"pct_basura_quema":100,"pct_basura_informal":0,"pct_internet":50,"pct_celular":83,"pct_televisor":83}},{"type":"Feature","geometry":{"type":"Polygon","coordinates":[[[-65.29141,-21.20055],[-65.29177,-21.20051],[-65.29165,-21.20117],[-65.29118,-21.20111],[-65.29121,-21.20099],[-65.29117,-21.20111],[-65.29093,-21.20125],[-65.29085,-21.20103],[-65.2911,-21.20066],[-65.29139,-21.20055],[-65.29139,-21.20074],[-65.29141,-21.20055]]]},"properties":{"n":"LA TORRE","p":17,"personas_x_ha":34,"masculinidad":143,"pct_menor20":18,"pct_60mas":24,"pct_migrante":41,"dependencia_econ":45,"pct_empleados":36,"pct_cuentapropia":64,"pct_agricultura":27,"pct_comercio":9,"pct_manufactura":0,"pct_construccion":9,"pct_transporte":18,"pct_alojamiento":9,"pct_educ_superior":31,"brecha_educ":-3,"pct_sin_seguro":38,"pct_seguro_privado":0,"brecha_seguro":-35,"pct_med_tradicional":7,"pct_automedicacion":7,"pct_remedios_caseros":32,"pct_viv_desocupada":0,"pct_alquiler":0,"pct_electricidad":75,"pct_agua_red":75,"pct_alcantarillado":12,"pct_gas_red":0,"pct_gas_garrafa":50,"pct_lena_guano":50,"pct_basura_formal":0,"pct_basura_quema":88,"pct_basura_informal":25,"pct_internet":62,"pct_celular":75,"pct_televisor":12}},{"type":"Feature","geometry":{"type":"Polygon","coordinates":[[[-65.29434,-21.19979],[-65.29444,-21.19967],[-65.29432,-21.19958],[-65.29309,-21.19928],[-65.29286,-21.19993],[-65.29301,-21.20026],[-65.29336,-21.20036],[-65.29376,-21.20007],[-65.29394,-21.19963],[-65.29434,-21.19979]]]},"properties":{"n":"LA TORRE","p":26,"personas_x_ha":24,"masculinidad":117,"pct_menor20":27,"pct_60mas":23,"pct_migrante":46,"dependencia_econ":24,"pct_empleados":14,"pct_cuentapropia":62,"pct_agricultura":29,"pct_comercio":5,"pct_manufactura":5,"pct_construccion":29,"pct_transporte":10,"pct_alojamiento":0,"pct_educ_superior":25,"brecha_educ":-30,"pct_sin_seguro":12,"pct_seguro_privado":0,"brecha_seguro":-8,"pct_med_tradicional":0,"pct_automedicacion":12,"pct_remedios_caseros":17,"pct_viv_desocupada":0,"pct_alquiler":0,"pct_electricidad":100,"pct_agua_red":100,"pct_alcantarillado":0,"pct_gas_red":0,"pct_gas_garrafa":11,"pct_lena_guano":11,"pct_basura_formal":0,"pct_basura_quema":100,"pct_basura_informal":0,"pct_internet":89,"pct_celular":100,"pct_televisor":56}},{"type":"Feature","geometry":{"type":"Polygon","coordinates":[[[-65.21115,-21.20681],[-65.21121,-21.20621],[-65.21081,-21.20616],[-65.21072,-21.20677],[-65.21115,-21.20681]]]},"properties":{"n":"LAS CARRERAS","p":43,"personas_x_ha":145,"masculinidad":139,"pct_menor20":47,"pct_60mas":0,"pct_migrante":70,"dependencia_econ":95,"pct_empleados":32,"pct_cuentapropia":55,"pct_agricultura":41,"pct_comercio":14,"pct_manufactura":14,"pct_construccion":9,"pct_transporte":0,"pct_alojamiento":5,"pct_educ_superior":50,"brecha_educ":-33,"pct_sin_seguro":5,"pct_seguro_privado":0,"brecha_seguro":8,"pct_med_tradicional":15,"pct_automedicacion":25,"pct_remedios_caseros":27,"pct_viv_desocupada":0,"pct_alquiler":44,"pct_electricidad":100,"pct_agua_red":100,"pct_alcantarillado":100,"pct_gas_red":56,"pct_gas_garrafa":44,"pct_lena_guano":44,"pct_basura_formal":100,"pct_basura_quema":0,"pct_basura_informal":0,"pct_internet":78,"pct_celular":89,"pct_televisor":67}},{"type":"Feature","geometry":{"type":"Polygon","coordinates":[[[-65.21029,-21.21018],[-65.21032,-21.20921],[-65.20991,-21.20922],[-65.2099,-21.21018],[-65.21029,-21.21018]]]},"properties":{"n":"LAS CARRERAS","p":26,"personas_x_ha":57,"masculinidad":100,"pct_menor20":31,"pct_60mas":19,"pct_migrante":50,"dependencia_econ":62,"pct_empleados":19,"pct_cuentapropia":81,"pct_agricultura":50,"pct_comercio":12,"pct_manufactura":0,"pct_construccion":6,"pct_transporte":0,"pct_alojamiento":12,"pct_educ_superior":47,"brecha_educ":-13,"pct_sin_seguro":8,"pct_seguro_privado":0,"brecha_seguro":0,"pct_med_tradicional":11,"pct_automedicacion":3,"pct_remedios_caseros":26,"pct_viv_desocupada":0,"pct_alquiler":11,"pct_electricidad":100,"pct_agua_red":100,"pct_alcantarillado":100,"pct_gas_red":78,"pct_gas_garrafa":22,"pct_lena_guano":22,"pct_basura_formal":100,"pct_basura_quema":0,"pct_basura_informal":0,"pct_internet":78,"pct_celular":89,"pct_televisor":56}},{"type":"Feature","geometry":{"type":"Polygon","coordinates":[[[-65.21094,-21.20816],[-65.21098,-21.20753],[-65.2106,-21.20752],[-65.21052,-21.20815],[-65.21094,-21.20816]]]},"properties":{"n":"LAS CARRERAS","p":39,"personas_x_ha":131,"masculinidad":39,"pct_menor20":26,"pct_60mas":18,"pct_migrante":74,"dependencia_econ":56,"pct_empleados":40,"pct_cuentapropia":52,"pct_agricultura":32,"pct_comercio":12,"pct_manufactura":4,"pct_construccion":0,"pct_transporte":0,"pct_alojamiento":4,"pct_educ_superior":62,"brecha_educ":3,"pct_sin_seguro":13,"pct_seguro_privado":0,"brecha_seguro":-4,"pct_med_tradicional":16,"pct_automedicacion":12,"pct_remedios_caseros":24,"pct_viv_desocupada":11,"pct_alquiler":25,"pct_electricidad":100,"pct_agua_red":50,"pct_alcantarillado":100,"pct_gas_red":62,"pct_gas_garrafa":38,"pct_lena_guano":38,"pct_basura_formal":100,"pct_basura_quema":0,"pct_basura_informal":0,"pct_internet":75,"pct_celular":88,"pct_televisor":88}},{"type":"Feature","geometry":{"type":"Polygon","coordinates":[[[-65.21113,-21.20929],[-65.21048,-21.20925],[-65.21046,-21.21021],[-65.21112,-21.21024],[-65.21113,-21.20929]]]},"properties":{"n":"LAS CARRERAS","p":60,"personas_x_ha":83,"masculinidad":71,"pct_menor20":38,"pct_60mas":17,"pct_migrante":73,"dependencia_econ":114,"pct_empleados":39,"pct_cuentapropia":50,"pct_agricultura":25,"pct_comercio":25,"pct_manufactura":7,"pct_construccion":0,"pct_transporte":0,"pct_alojamiento":11,"pct_educ_superior":54,"brecha_educ":-12,"pct_sin_seguro":5,"pct_seguro_privado":10,"brecha_seguro":-9,"pct_med_tradicional":9,"pct_automedicacion":21,"pct_remedios_caseros":20,"pct_viv_desocupada":13,"pct_alquiler":39,"pct_electricidad":100,"pct_agua_red":83,"pct_alcantarillado":100,"pct_gas_red":72,"pct_gas_garrafa":28,"pct_lena_guano":28,"pct_basura_formal":100,"pct_basura_quema":0,"pct_basura_informal":0,"pct_internet":78,"pct_celular":89,"pct_televisor":72}},{"type":"Feature","geometry":{"type":"Polygon","coordinates":[[[-65.211,-21.21305],[-65.21091,-21.21161],[-65.21113,-21.21075],[-65.21114,-21.21034],[-65.2105,-21.21031],[-65.21046,-21.21094],[-65.21062,-21.21247],[-65.21075,-21.21307],[-65.211,-21.21305]]]},"properties":{"n":"LAS CARRERAS","p":133,"personas_x_ha":95,"masculinidad":77,"pct_menor20":38,"pct_60mas":8,"pct_migrante":38,"dependencia_econ":105,"pct_empleados":31,"pct_cuentapropia":49,"pct_agricultura":34,"pct_comercio":17,"pct_manufactura":5,"pct_construccion":2,"pct_transporte":3,"pct_alojamiento":9,"pct_educ_superior":34,"brecha_educ":-13,"pct_sin_seguro":4,"pct_seguro_privado":0,"brecha_seguro":2,"pct_med_tradicional":12,"pct_automedicacion":14,"pct_remedios_caseros":27,"pct_viv_desocupada":0,"pct_alquiler":38,"pct_electricidad":100,"pct_agua_red":97,"pct_alcantarillado":97,"pct_gas_red":62,"pct_gas_garrafa":34,"pct_lena_guano":34,"pct_basura_formal":100,"pct_basura_quema":0,"pct_basura_informal":0,"pct_internet":78,"pct_celular":100,"pct_televisor":78}},{"type":"Feature","geometry":{"type":"Polygon","coordinates":[[[-65.20928,-21.20862],[-65.20914,-21.20866],[-65.2092,-21.20913],[-65.20984,-21.20911],[-65.20981,-21.20821],[-65.20925,-21.20823],[-65.20928,-21.20862]]]},"properties":{"n":"LAS CARRERAS","p":46,"personas_x_ha":70,"masculinidad":156,"pct_menor20":26,"pct_60mas":13,"pct_migrante":48,"dependencia_econ":77,"pct_empleados":46,"pct_cuentapropia":35,"pct_agricultura":23,"pct_comercio":12,"pct_manufactura":12,"pct_construccion":8,"pct_transporte":0,"pct_alojamiento":19,"pct_educ_superior":43,"brecha_educ":-38,"pct_sin_seguro":13,"pct_seguro_privado":0,"brecha_seguro":3,"pct_med_tradicional":8,"pct_automedicacion":16,"pct_remedios_caseros":20,"pct_viv_desocupada":0,"pct_alquiler":0,"pct_electricidad":89,"pct_agua_red":100,"pct_alcantarillado":89,"pct_gas_red":89,"pct_gas_garrafa":11,"pct_lena_guano":11,"pct_basura_formal":100,"pct_basura_quema":0,"pct_basura_informal":0,"pct_internet":56,"pct_celular":89,"pct_televisor":67}},{"type":"Feature","geometry":{"type":"Polygon","coordinates":[[[-65.21172,-21.20629],[-65.21129,-21.20625],[-65.21114,-21.20745],[-65.21152,-21.20747],[-65.21162,-21.20721],[-65.21172,-21.20629]]]},"properties":{"n":"LAS CARRERAS","p":30,"personas_x_ha":50,"masculinidad":114,"pct_menor20":13,"pct_60mas":23,"pct_migrante":83,"dependencia_econ":20,"pct_empleados":32,"pct_cuentapropia":44,"pct_agricultura":24,"pct_comercio":8,"pct_manufactura":16,"pct_construccion":0,"pct_transporte":8,"pct_alojamiento":0,"pct_educ_superior":46,"brecha_educ":-18,"pct_sin_seguro":31,"pct_seguro_privado":0,"brecha_seguro":-23,"pct_med_tradicional":13,"pct_automedicacion":15,"pct_remedios_caseros":25,"pct_viv_desocupada":0,"pct_alquiler":18,"pct_electricidad":91,"pct_agua_red":100,"pct_alcantarillado":91,"pct_gas_red":36,"pct_gas_garrafa":64,"pct_lena_guano":64,"pct_basura_formal":82,"pct_basura_quema":18,"pct_basura_informal":0,"pct_internet":91,"pct_celular":100,"pct_televisor":91}},{"type":"Feature","geometry":{"type":"Polygon","coordinates":[[[-65.21042,-21.21287],[-65.20982,-21.21288],[-65.21003,-21.21342],[-65.21069,-21.21338],[-65.21056,-21.21245],[-65.21045,-21.21246],[-65.21042,-21.21287]]]},"properties":{"n":"LAS CARRERAS","p":21,"personas_x_ha":39,"masculinidad":133,"pct_menor20":19,"pct_60mas":29,"pct_migrante":38,"dependencia_econ":133,"pct_empleados":11,"pct_cuentapropia":67,"pct_agricultura":44,"pct_comercio":11,"pct_manufactura":0,"pct_construccion":0,"pct_transporte":11,"pct_alojamiento":0,"pct_educ_superior":41,"brecha_educ":11,"pct_sin_seguro":14,"pct_seguro_privado":0,"brecha_seguro":6,"pct_med_tradicional":9,"pct_automedicacion":10,"pct_remedios_caseros":28,"pct_viv_desocupada":0,"pct_alquiler":43,"pct_electricidad":100,"pct_agua_red":100,"pct_alcantarillado":100,"pct_gas_red":100,"pct_gas_garrafa":0,"pct_lena_guano":0,"pct_basura_formal":100,"pct_basura_quema":0,"pct_basura_informal":0,"pct_internet":86,"pct_celular":100,"pct_televisor":86}},{"type":"Feature","geometry":{"type":"Polygon","coordinates":[[[-65.2111,-21.20921],[-65.21047,-21.20917],[-65.2105,-21.20822],[-65.2113,-21.20824],[-65.21116,-21.20854],[-65.2111,-21.20921]]]},"properties":{"n":"LAS CARRERAS","p":31,"personas_x_ha":42,"masculinidad":82,"pct_menor20":39,"pct_60mas":6,"pct_migrante":65,"dependencia_econ":107,"pct_empleados":47,"pct_cuentapropia":33,"pct_agricultura":33,"pct_comercio":13,"pct_manufactura":0,"pct_construccion":27,"pct_transporte":7,"pct_alojamiento":0,"pct_educ_superior":37,"brecha_educ":1,"pct_sin_seguro":16,"pct_seguro_privado":0,"brecha_seguro":23,"pct_med_tradicional":21,"pct_automedicacion":14,"pct_remedios_caseros":24,"pct_viv_desocupada":0,"pct_alquiler":36,"pct_electricidad":100,"pct_agua_red":100,"pct_alcantarillado":91,"pct_gas_red":64,"pct_gas_garrafa":27,"pct_lena_guano":27,"pct_basura_formal":91,"pct_basura_quema":9,"pct_basura_informal":0,"pct_internet":100,"pct_celular":100,"pct_televisor":55}},{"type":"Feature","geometry":{"type":"Polygon","coordinates":[[[-65.20997,-21.21086],[-65.21005,-21.21089],[-65.21007,-21.2112],[-65.21035,-21.21117],[-65.21026,-21.2105],[-65.2103,-21.21031],[-65.20992,-21.21031],[-65.20997,-21.21086]]]},"properties":{"n":"LAS CARRERAS","p":23,"personas_x_ha":70,"masculinidad":77,"pct_menor20":26,"pct_60mas":13,"pct_migrante":61,"dependencia_econ":92,"pct_empleados":33,"pct_cuentapropia":67,"pct_agricultura":50,"pct_comercio":25,"pct_manufactura":0,"pct_construccion":0,"pct_transporte":0,"pct_alojamiento":0,"pct_educ_superior":44,"brecha_educ":3,"pct_sin_seguro":0,"pct_seguro_privado":0,"brecha_seguro":0,"pct_med_tradicional":11,"pct_automedicacion":18,"pct_remedios_caseros":25,"pct_viv_desocupada":0,"pct_alquiler":29,"pct_electricidad":100,"pct_agua_red":100,"pct_alcantarillado":86,"pct_gas_red":86,"pct_gas_garrafa":14,"pct_lena_guano":14,"pct_basura_formal":100,"pct_basura_quema":0,"pct_basura_informal":0,"pct_internet":86,"pct_celular":100,"pct_televisor":57}},{"type":"Feature","geometry":{"type":"Polygon","coordinates":[[[-65.21189,-21.20155],[-65.21175,-21.20154],[-65.21175,-21.20143],[-65.2115,-21.20139],[-65.2114,-21.20228],[-65.21144,-21.20282],[-65.21167,-21.20286],[-65.21189,-21.20155]]]},"properties":{"n":"LAS CARRERAS","p":44,"personas_x_ha":79,"masculinidad":144,"pct_menor20":30,"pct_60mas":20,"pct_migrante":48,"dependencia_econ":63,"pct_empleados":15,"pct_cuentapropia":74,"pct_agricultura":44,"pct_comercio":15,"pct_manufactura":15,"pct_construccion":7,"pct_transporte":7,"pct_alojamiento":4,"pct_educ_superior":18,"brecha_educ":-22,"pct_sin_seguro":7,"pct_seguro_privado":0,"brecha_seguro":12,"pct_med_tradicional":14,"pct_automedicacion":13,"pct_remedios_caseros":26,"pct_viv_desocupada":0,"pct_alquiler":13,"pct_electricidad":93,"pct_agua_red":93,"pct_alcantarillado":40,"pct_gas_red":40,"pct_gas_garrafa":47,"pct_lena_guano":47,"pct_basura_formal":0,"pct_basura_quema":100,"pct_basura_informal":0,"pct_internet":67,"pct_celular":73,"pct_televisor":47}},{"type":"Feature","geometry":{"type":"Polygon","coordinates":[[[-65.2092,-21.20814],[-65.20822,-21.20825],[-65.2082,-21.20768],[-65.20895,-21.20765],[-65.20912,-21.20778],[-65.2092,-21.20814]]]},"properties":{"n":"LAS CARRERAS","p":25,"personas_x_ha":43,"masculinidad":127,"pct_menor20":24,"pct_60mas":8,"pct_migrante":52,"dependencia_econ":92,"pct_empleados":23,"pct_cuentapropia":62,"pct_agricultura":38,"pct_comercio":15,"pct_manufactura":0,"pct_construccion":15,"pct_transporte":0,"pct_alojamiento":0,"pct_educ_superior":20,"brecha_educ":-26,"pct_sin_seguro":16,"pct_seguro_privado":16,"brecha_seguro":-4,"pct_med_tradicional":20,"pct_automedicacion":14,"pct_remedios_caseros":23,"pct_viv_desocupada":0,"pct_alquiler":29,"pct_electricidad":100,"pct_agua_red":100,"pct_alcantarillado":71,"pct_gas_red":57,"pct_gas_garrafa":29,"pct_lena_guano":29,"pct_basura_formal":57,"pct_basura_quema":29,"pct_basura_informal":0,"pct_internet":86,"pct_celular":100,"pct_televisor":100}},{"type":"Feature","geometry":{"type":"Polygon","coordinates":[[[-65.21008,-21.21122],[-65.20988,-21.21214],[-65.21047,-21.21211],[-65.21035,-21.21119],[-65.21008,-21.21122]]]},"properties":{"n":"LAS CARRERAS","p":32,"personas_x_ha":65,"masculinidad":78,"pct_menor20":25,"pct_60mas":19,"pct_migrante":69,"dependencia_econ":88,"pct_empleados":65,"pct_cuentapropia":35,"pct_agricultura":6,"pct_comercio":12,"pct_manufactura":0,"pct_construccion":6,"pct_transporte":0,"pct_alojamiento":6,"pct_educ_superior":52,"brecha_educ":-6,"pct_sin_seguro":16,"pct_seguro_privado":0,"brecha_seguro":-28,"pct_med_tradicional":15,"pct_automedicacion":16,"pct_remedios_caseros":20,"pct_viv_desocupada":0,"pct_alquiler":50,"pct_electricidad":100,"pct_agua_red":90,"pct_alcantarillado":100,"pct_gas_red":80,"pct_gas_garrafa":20,"pct_lena_guano":20,"pct_basura_formal":100,"pct_basura_quema":0,"pct_basura_informal":0,"pct_internet":90,"pct_celular":90,"pct_televisor":80}},{"type":"Feature","geometry":{"type":"Polygon","coordinates":[[[-65.21036,-21.20821],[-65.20994,-21.20824],[-65.20992,-21.20914],[-65.21034,-21.20913],[-65.21036,-21.20821]]]},"properties":{"n":"LAS CARRERAS","p":50,"personas_x_ha":110,"masculinidad":117,"pct_menor20":20,"pct_60mas":14,"pct_migrante":50,"dependencia_econ":43,"pct_empleados":29,"pct_cuentapropia":43,"pct_agricultura":6,"pct_comercio":31,"pct_manufactura":0,"pct_construccion":11,"pct_transporte":11,"pct_alojamiento":0,"pct_educ_superior":56,"brecha_educ":2,"pct_sin_seguro":24,"pct_seguro_privado":0,"brecha_seguro":-12,"pct_med_tradicional":10,"pct_automedicacion":18,"pct_remedios_caseros":21,"pct_viv_desocupada":0,"pct_alquiler":45,"pct_electricidad":100,"pct_agua_red":85,"pct_alcantarillado":95,"pct_gas_red":50,"pct_gas_garrafa":40,"pct_lena_guano":40,"pct_basura_formal":95,"pct_basura_quema":0,"pct_basura_informal":0,"pct_internet":80,"pct_celular":95,"pct_televisor":55}},{"type":"Feature","geometry":{"type":"Polygon","coordinates":[[[-65.20953,-21.21022],[-65.20941,-21.20918],[-65.20983,-21.20919],[-65.20982,-21.2102],[-65.20953,-21.21022]]]},"properties":{"n":"LAS CARRERAS","p":27,"personas_x_ha":62,"masculinidad":145,"pct_menor20":33,"pct_60mas":15,"pct_migrante":52,"dependencia_econ":125,"pct_empleados":58,"pct_cuentapropia":33,"pct_agricultura":17,"pct_comercio":8,"pct_manufactura":17,"pct_construccion":17,"pct_transporte":0,"pct_alojamiento":8,"pct_educ_superior":37,"brecha_educ":-3,"pct_sin_seguro":7,"pct_seguro_privado":0,"brecha_seguro":-3,"pct_med_tradicional":12,"pct_automedicacion":18,"pct_remedios_caseros":26,"pct_viv_desocupada":0,"pct_alquiler":0,"pct_electricidad":100,"pct_agua_red":100,"pct_alcantarillado":100,"pct_gas_red":78,"pct_gas_garrafa":22,"pct_lena_guano":22,"pct_basura_formal":100,"pct_basura_quema":0,"pct_basura_informal":0,"pct_internet":100,"pct_celular":100,"pct_televisor":89}},{"type":"Feature","geometry":{"type":"Polygon","coordinates":[[[-65.20924,-21.2063],[-65.20978,-21.20721],[-65.2098,-21.20742],[-65.2088,-21.20749],[-65.20864,-21.20738],[-65.20834,-21.20693],[-65.20815,-21.20704],[-65.20806,-21.20691],[-65.20924,-21.2063]]]},"properties":{"n":"LAS CARRERAS","p":39,"personas_x_ha":29,"masculinidad":117,"pct_menor20":31,"pct_60mas":15,"pct_migrante":72,"dependencia_econ":86,"pct_empleados":48,"pct_cuentapropia":38,"pct_agricultura":43,"pct_comercio":10,"pct_manufactura":5,"pct_construccion":24,"pct_transporte":5,"pct_alojamiento":5,"pct_educ_superior":26,"brecha_educ":-5,"pct_sin_seguro":21,"pct_seguro_privado":18,"brecha_seguro":-3,"pct_med_tradicional":7,"pct_automedicacion":14,"pct_remedios_caseros":26,"pct_viv_desocupada":0,"pct_alquiler":27,"pct_electricidad":91,"pct_agua_red":64,"pct_alcantarillado":82,"pct_gas_red":64,"pct_gas_garrafa":27,"pct_lena_guano":27,"pct_basura_formal":91,"pct_basura_quema":9,"pct_basura_informal":0,"pct_internet":73,"pct_celular":82,"pct_televisor":64}},{"type":"Feature","geometry":{"type":"Polygon","coordinates":[[[-65.20995,-21.20751],[-65.20992,-21.2081],[-65.21034,-21.20814],[-65.21044,-21.20754],[-65.20995,-21.20751]]]},"properties":{"n":"LAS CARRERAS","p":37,"personas_x_ha":108,"masculinidad":76,"pct_menor20":41,"pct_60mas":14,"pct_migrante":84,"dependencia_econ":270,"pct_empleados":50,"pct_cuentapropia":40,"pct_agricultura":0,"pct_comercio":30,"pct_manufactura":0,"pct_construccion":10,"pct_transporte":10,"pct_alojamiento":0,"pct_educ_superior":55,"brecha_educ":-29,"pct_sin_seguro":6,"pct_seguro_privado":0,"brecha_seguro":1,"pct_med_tradicional":15,"pct_automedicacion":12,"pct_remedios_caseros":15,"pct_viv_desocupada":17,"pct_alquiler":60,"pct_electricidad":100,"pct_agua_red":100,"pct_alcantarillado":100,"pct_gas_red":40,"pct_gas_garrafa":60,"pct_lena_guano":60,"pct_basura_formal":100,"pct_basura_quema":0,"pct_basura_informal":0,"pct_internet":80,"pct_celular":90,"pct_televisor":80}},{"type":"Feature","geometry":{"type":"Polygon","coordinates":[[[-65.26236,-21.20537],[-65.26358,-21.20537],[-65.26361,-21.20497],[-65.26354,-21.20488],[-65.26237,-21.20495],[-65.26236,-21.20537]]]},"properties":{"n":"LIME","p":44,"personas_x_ha":66,"masculinidad":132,"pct_menor20":16,"pct_60mas":11,"pct_migrante":64,"dependencia_econ":31,"pct_empleados":31,"pct_cuentapropia":56,"pct_agricultura":62,"pct_comercio":3,"pct_manufactura":0,"pct_construccion":6,"pct_transporte":0,"pct_alojamiento":0,"pct_educ_superior":49,"brecha_educ":-2,"pct_sin_seguro":76,"pct_seguro_privado":0,"brecha_seguro":17,"pct_med_tradicional":0,"pct_automedicacion":19,"pct_remedios_caseros":35,"pct_viv_desocupada":0,"pct_alquiler":0,"pct_electricidad":100,"pct_agua_red":29,"pct_alcantarillado":0,"pct_gas_red":0,"pct_gas_garrafa":71,"pct_lena_guano":71,"pct_basura_formal":0,"pct_basura_quema":57,"pct_basura_informal":0,"pct_internet":71,"pct_celular":71,"pct_televisor":29}},{"type":"Feature","geometry":{"type":"Polygon","coordinates":[[[-65.26177,-21.20386],[-65.26203,-21.20436],[-65.26179,-21.2044],[-65.26176,-21.20492],[-65.26127,-21.20485],[-65.2613,-21.20393],[-65.26177,-21.20386]]]},"properties":{"n":"LIME","p":50,"personas_x_ha":78,"masculinidad":127,"pct_menor20":28,"pct_60mas":12,"pct_migrante":12,"dependencia_econ":100,"pct_empleados":8,"pct_cuentapropia":68,"pct_agricultura":72,"pct_comercio":20,"pct_manufactura":8,"pct_construccion":12,"pct_transporte":0,"pct_alojamiento":0,"pct_educ_superior":6,"brecha_educ":-2,"pct_sin_seguro":38,"pct_seguro_privado":0,"brecha_seguro":3,"pct_med_tradicional":0,"pct_automedicacion":1,"pct_remedios_caseros":49,"pct_viv_desocupada":0,"pct_alquiler":0,"pct_electricidad":100,"pct_agua_red":0,"pct_alcantarillado":0,"pct_gas_red":0,"pct_gas_garrafa":10,"pct_lena_guano":10,"pct_basura_formal":0,"pct_basura_quema":90,"pct_basura_informal":0,"pct_internet":50,"pct_celular":70,"pct_televisor":20}}]}