{"type":"FeatureCollection","features":[{"type":"Feature","geometry":{"type":"Polygon","coordinates":[[[-65.22983,-20.97522],[-65.22998,-20.97523],[-65.22997,-20.97535],[-65.2305,-20.97547],[-65.23052,-20.975],[-65.22999,-20.975],[-65.22998,-20.97491],[-65.22983,-20.97491],[-65.22983,-20.97522]]]},"properties":{"n":"VILLA ABECIA","p":26,"personas_x_ha":84,"masculinidad":117,"pct_menor20":15,"pct_60mas":19,"pct_migrante":65,"dependencia_econ":53,"pct_empleados":41,"pct_cuentapropia":59,"pct_agricultura":18,"pct_comercio":12,"pct_manufactura":0,"pct_construccion":6,"pct_transporte":18,"pct_alojamiento":0,"pct_educ_superior":52,"brecha_educ":-10,"pct_sin_seguro":48,"pct_seguro_privado":0,"brecha_seguro":60,"pct_med_tradicional":9,"pct_automedicacion":23,"pct_remedios_caseros":21,"pct_viv_desocupada":8,"pct_alquiler":33,"pct_electricidad":100,"pct_agua_red":100,"pct_alcantarillado":100,"pct_gas_red":83,"pct_gas_garrafa":17,"pct_lena_guano":17,"pct_basura_formal":100,"pct_basura_quema":0,"pct_basura_informal":0,"pct_internet":100,"pct_celular":100,"pct_televisor":100}},{"type":"Feature","geometry":{"type":"Polygon","coordinates":[[[-65.2313,-20.9756],[-65.23057,-20.97554],[-65.23056,-20.97586],[-65.23136,-20.97578],[-65.2313,-20.9756]]]},"properties":{"n":"VILLA ABECIA","p":40,"personas_x_ha":177,"masculinidad":167,"pct_menor20":42,"pct_60mas":25,"pct_migrante":65,"dependencia_econ":208,"pct_empleados":15,"pct_cuentapropia":62,"pct_agricultura":8,"pct_comercio":85,"pct_manufactura":0,"pct_construccion":0,"pct_transporte":0,"pct_alojamiento":0,"pct_educ_superior":46,"brecha_educ":-19,"pct_sin_seguro":18,"pct_seguro_privado":0,"brecha_seguro":17,"pct_med_tradicional":3,"pct_automedicacion":21,"pct_remedios_caseros":28,"pct_viv_desocupada":42,"pct_alquiler":14,"pct_electricidad":100,"pct_agua_red":100,"pct_alcantarillado":100,"pct_gas_red":86,"pct_gas_garrafa":14,"pct_lena_guano":14,"pct_basura_formal":100,"pct_basura_quema":0,"pct_basura_informal":0,"pct_internet":86,"pct_celular":100,"pct_televisor":86}},{"type":"Feature","geometry":{"type":"Polygon","coordinates":[[[-65.23329,-20.97869],[-65.23312,-20.97852],[-65.23273,-20.97841],[-65.23267,-20.97887],[-65.23249,-20.97894],[-65.23257,-20.97915],[-65.23329,-20.97869]]]},"properties":{"n":"VILLA ABECIA","p":22,"personas_x_ha":73,"masculinidad":83,"pct_menor20":36,"pct_60mas":5,"pct_migrante":23,"dependencia_econ":69,"pct_empleados":69,"pct_cuentapropia":15,"pct_agricultura":31,"pct_comercio":0,"pct_manufactura":15,"pct_construccion":23,"pct_transporte":0,"pct_alojamiento":8,"pct_educ_superior":25,"brecha_educ":25,"pct_sin_seguro":14,"pct_seguro_privado":0,"brecha_seguro":30,"pct_med_tradicional":17,"pct_automedicacion":21,"pct_remedios_caseros":29,"pct_viv_desocupada":31,"pct_alquiler":29,"pct_electricidad":100,"pct_agua_red":100,"pct_alcantarillado":71,"pct_gas_red":43,"pct_gas_garrafa":57,"pct_lena_guano":57,"pct_basura_formal":100,"pct_basura_quema":0,"pct_basura_informal":0,"pct_internet":86,"pct_celular":100,"pct_televisor":86}},{"type":"Feature","geometry":{"type":"Polygon","coordinates":[[[-65.23126,-20.97554],[-65.23093,-20.97483],[-65.23059,-20.97486],[-65.23058,-20.97548],[-65.23126,-20.97554]]]},"properties":{"n":"VILLA ABECIA","p":127,"personas_x_ha":320,"masculinidad":112,"pct_menor20":28,"pct_60mas":17,"pct_migrante":46,"dependencia_econ":69,"pct_empleados":31,"pct_cuentapropia":64,"pct_agricultura":23,"pct_comercio":27,"pct_manufactura":12,"pct_construccion":8,"pct_transporte":4,"pct_alojamiento":4,"pct_educ_superior":52,"brecha_educ":-11,"pct_sin_seguro":19,"pct_seguro_privado":2,"brecha_seguro":1,"pct_med_tradicional":9,"pct_automedicacion":19,"pct_remedios_caseros":24,"pct_viv_desocupada":4,"pct_alquiler":13,"pct_electricidad":100,"pct_agua_red":100,"pct_alcantarillado":100,"pct_gas_red":78,"pct_gas_garrafa":22,"pct_lena_guano":22,"pct_basura_formal":100,"pct_basura_quema":0,"pct_basura_informal":0,"pct_internet":96,"pct_celular":96,"pct_televisor":87}},{"type":"Feature","geometry":{"type":"Polygon","coordinates":[[[-65.23143,-20.97567],[-65.23169,-20.97558],[-65.23124,-20.97479],[-65.231,-20.97485],[-65.23143,-20.97567]]]},"properties":{"n":"VILLA ABECIA","p":64,"personas_x_ha":227,"masculinidad":78,"pct_menor20":22,"pct_60mas":19,"pct_migrante":59,"dependencia_econ":68,"pct_empleados":39,"pct_cuentapropia":50,"pct_agricultura":16,"pct_comercio":21,"pct_manufactura":5,"pct_construccion":3,"pct_transporte":3,"pct_alojamiento":5,"pct_educ_superior":57,"brecha_educ":-1,"pct_sin_seguro":23,"pct_seguro_privado":0,"brecha_seguro":3,"pct_med_tradicional":8,"pct_automedicacion":20,"pct_remedios_caseros":23,"pct_viv_desocupada":17,"pct_alquiler":38,"pct_electricidad":100,"pct_agua_red":92,"pct_alcantarillado":100,"pct_gas_red":31,"pct_gas_garrafa":69,"pct_lena_guano":69,"pct_basura_formal":100,"pct_basura_quema":0,"pct_basura_informal":0,"pct_internet":85,"pct_celular":85,"pct_televisor":77}},{"type":"Feature","geometry":{"type":"Polygon","coordinates":[[[-65.23177,-20.97825],[-65.23187,-20.97777],[-65.23027,-20.97746],[-65.23021,-20.97761],[-65.23038,-20.97791],[-65.23099,-20.9781],[-65.23112,-20.97824],[-65.23177,-20.97825]]]},"properties":{"n":"VILLA ABECIA","p":33,"personas_x_ha":35,"masculinidad":154,"pct_menor20":18,"pct_60mas":6,"pct_migrante":52,"dependencia_econ":65,"pct_empleados":45,"pct_cuentapropia":45,"pct_agricultura":10,"pct_comercio":20,"pct_manufactura":0,"pct_construccion":20,"pct_transporte":10,"pct_alojamiento":5,"pct_educ_superior":52,"brecha_educ":-1,"pct_sin_seguro":9,"pct_seguro_privado":0,"brecha_seguro":-23,"pct_med_tradicional":4,"pct_automedicacion":24,"pct_remedios_caseros":21,"pct_viv_desocupada":17,"pct_alquiler":53,"pct_electricidad":100,"pct_agua_red":100,"pct_alcantarillado":100,"pct_gas_red":33,"pct_gas_garrafa":40,"pct_lena_guano":40,"pct_basura_formal":100,"pct_basura_quema":0,"pct_basura_informal":0,"pct_internet":100,"pct_celular":100,"pct_televisor":80}},{"type":"Feature","geometry":{"type":"Polygon","coordinates":[[[-65.22932,-20.97278],[-65.22931,-20.97182],[-65.22898,-20.97178],[-65.22889,-20.97167],[-65.22901,-20.97115],[-65.22934,-20.97102],[-65.22963,-20.97115],[-65.23015,-20.97206],[-65.23053,-20.97414],[-65.23052,-20.97497],[-65.23002,-20.97499],[-65.23,-20.9749],[-65.22957,-20.97477],[-65.22926,-20.97443],[-65.22913,-20.9744],[-65.22932,-20.97278]]]},"properties":{"n":"VILLA ABECIA","p":183,"personas_x_ha":40,"masculinidad":89,"pct_menor20":22,"pct_60mas":20,"pct_migrante":67,"dependencia_econ":103,"pct_empleados":36,"pct_cuentapropia":54,"pct_agricultura":18,"pct_comercio":16,"pct_manufactura":4,"pct_construccion":4,"pct_transporte":6,"pct_alojamiento":10,"pct_educ_superior":57,"brecha_educ":-8,"pct_sin_seguro":9,"pct_seguro_privado":1,"brecha_seguro":2,"pct_med_tradicional":11,"pct_automedicacion":16,"pct_remedios_caseros":20,"pct_viv_desocupada":0,"pct_alquiler":16,"pct_electricidad":100,"pct_agua_red":98,"pct_alcantarillado":86,"pct_gas_red":77,"pct_gas_garrafa":21,"pct_lena_guano":21,"pct_basura_formal":95,"pct_basura_quema":5,"pct_basura_informal":0,"pct_internet":84,"pct_celular":93,"pct_televisor":74}},{"type":"Feature","geometry":{"type":"Polygon","coordinates":[[[-65.2285,-20.97671],[-65.22881,-20.97674],[-65.22872,-20.97593],[-65.22846,-20.97594],[-65.2285,-20.97671]]]},"properties":{"n":"VILLA ABECIA","p":45,"personas_x_ha":163,"masculinidad":73,"pct_menor20":42,"pct_60mas":7,"pct_migrante":27,"dependencia_econ":105,"pct_empleados":59,"pct_cuentapropia":18,"pct_agricultura":5,"pct_comercio":23,"pct_manufactura":23,"pct_construccion":18,"pct_transporte":0,"pct_alojamiento":5,"pct_educ_superior":30,"brecha_educ":-21,"pct_sin_seguro":13,"pct_seguro_privado":0,"brecha_seguro":4,"pct_med_tradicional":9,"pct_automedicacion":14,"pct_remedios_caseros":25,"pct_viv_desocupada":0,"pct_alquiler":18,"pct_electricidad":91,"pct_agua_red":91,"pct_alcantarillado":0,"pct_gas_red":0,"pct_gas_garrafa":91,"pct_lena_guano":91,"pct_basura_formal":100,"pct_basura_quema":0,"pct_basura_informal":0,"pct_internet":100,"pct_celular":100,"pct_televisor":73}},{"type":"Feature","geometry":{"type":"Polygon","coordinates":[[[-65.23177,-20.97653],[-65.23052,-20.97663],[-65.23045,-20.97706],[-65.23029,-20.97741],[-65.23185,-20.97772],[-65.23189,-20.97718],[-65.23177,-20.97653]]]},"properties":{"n":"VILLA ABECIA","p":111,"personas_x_ha":68,"masculinidad":79,"pct_menor20":41,"pct_60mas":5,"pct_migrante":54,"dependencia_econ":164,"pct_empleados":29,"pct_cuentapropia":69,"pct_agricultura":26,"pct_comercio":29,"pct_manufactura":5,"pct_construccion":17,"pct_transporte":7,"pct_alojamiento":5,"pct_educ_superior":25,"brecha_educ":-23,"pct_sin_seguro":20,"pct_seguro_privado":1,"brecha_seguro":-10,"pct_med_tradicional":11,"pct_automedicacion":20,"pct_remedios_caseros":23,"pct_viv_desocupada":0,"pct_alquiler":11,"pct_electricidad":100,"pct_agua_red":95,"pct_alcantarillado":89,"pct_gas_red":79,"pct_gas_garrafa":21,"pct_lena_guano":21,"pct_basura_formal":100,"pct_basura_quema":0,"pct_basura_informal":0,"pct_internet":79,"pct_celular":89,"pct_televisor":79}},{"type":"Feature","geometry":{"type":"Polygon","coordinates":[[[-65.22971,-20.97782],[-65.23007,-20.97776],[-65.23035,-20.97703],[-65.2305,-20.9755],[-65.22979,-20.97537],[-65.2298,-20.97493],[-65.22956,-20.97485],[-65.22922,-20.9745],[-65.22909,-20.97461],[-65.22908,-20.97484],[-65.2293,-20.97532],[-65.22939,-20.9759],[-65.22975,-20.97658],[-65.2296,-20.97716],[-65.22959,-20.97768],[-65.22971,-20.97782]]]},"properties":{"n":"VILLA ABECIA","p":17,"personas_x_ha":6,"masculinidad":70,"pct_menor20":29,"pct_60mas":24,"pct_migrante":65,"dependencia_econ":183,"pct_empleados":83,"pct_cuentapropia":17,"pct_agricultura":0,"pct_comercio":17,"pct_manufactura":0,"pct_construccion":0,"pct_transporte":0,"pct_alojamiento":0,"pct_educ_superior":83,"brecha_educ":0,"pct_sin_seguro":6,"pct_seguro_privado":0,"brecha_seguro":14,"pct_med_tradicional":11,"pct_automedicacion":17,"pct_remedios_caseros":16,"pct_viv_desocupada":17,"pct_alquiler":0,"pct_electricidad":100,"pct_agua_red":100,"pct_alcantarillado":100,"pct_gas_red":75,"pct_gas_garrafa":0,"pct_lena_guano":0,"pct_basura_formal":100,"pct_basura_quema":0,"pct_basura_informal":0,"pct_internet":100,"pct_celular":100,"pct_televisor":100}},{"type":"Feature","geometry":{"type":"Polygon","coordinates":[[[-65.22755,-20.97627],[-65.22788,-20.97666],[-65.22739,-20.97735],[-65.22701,-20.97705],[-65.22755,-20.97627]]]},"properties":{"n":"VILLA ABECIA","p":32,"personas_x_ha":64,"masculinidad":88,"pct_menor20":44,"pct_60mas":3,"pct_migrante":19,"dependencia_econ":88,"pct_empleados":65,"pct_cuentapropia":29,"pct_agricultura":41,"pct_comercio":12,"pct_manufactura":6,"pct_construccion":24,"pct_transporte":6,"pct_alojamiento":0,"pct_educ_superior":0,"brecha_educ":-45,"pct_sin_seguro":12,"pct_seguro_privado":0,"brecha_seguro":2,"pct_med_tradicional":2,"pct_automedicacion":15,"pct_remedios_caseros":25,"pct_viv_desocupada":0,"pct_alquiler":0,"pct_electricidad":75,"pct_agua_red":100,"pct_alcantarillado":12,"pct_gas_red":0,"pct_gas_garrafa":100,"pct_lena_guano":100,"pct_basura_formal":62,"pct_basura_quema":38,"pct_basura_informal":0,"pct_internet":62,"pct_celular":75,"pct_televisor":38}},{"type":"Feature","geometry":{"type":"Polygon","coordinates":[[[-65.22861,-20.98515],[-65.22744,-20.98508],[-65.22741,-20.98547],[-65.2286,-20.9855],[-65.22861,-20.98515]]]},"properties":{"n":"VILLA ABECIA","p":17,"personas_x_ha":34,"masculinidad":70,"pct_menor20":35,"pct_60mas":6,"pct_migrante":47,"dependencia_econ":143,"pct_empleados":43,"pct_cuentapropia":29,"pct_agricultura":29,"pct_comercio":0,"pct_manufactura":0,"pct_construccion":29,"pct_transporte":0,"pct_alojamiento":29,"pct_educ_superior":9,"brecha_educ":-23,"pct_sin_seguro":24,"pct_seguro_privado":0,"brecha_seguro":-16,"pct_med_tradicional":15,"pct_automedicacion":19,"pct_remedios_caseros":31,"pct_viv_desocupada":0,"pct_alquiler":0,"pct_electricidad":100,"pct_agua_red":67,"pct_alcantarillado":17,"pct_gas_red":0,"pct_gas_garrafa":83,"pct_lena_guano":83,"pct_basura_formal":67,"pct_basura_quema":33,"pct_basura_informal":0,"pct_internet":67,"pct_celular":83,"pct_televisor":50}},{"type":"Feature","geometry":{"type":"Polygon","coordinates":[[[-65.23173,-20.97645],[-65.23165,-20.97605],[-65.23154,-20.97606],[-65.2315,-20.97587],[-65.23056,-20.97592],[-65.23055,-20.97654],[-65.23173,-20.97645]]]},"properties":{"n":"VILLA ABECIA","p":87,"personas_x_ha":114,"masculinidad":67,"pct_menor20":31,"pct_60mas":15,"pct_migrante":43,"dependencia_econ":81,"pct_empleados":42,"pct_cuentapropia":58,"pct_agricultura":17,"pct_comercio":17,"pct_manufactura":12,"pct_construccion":10,"pct_transporte":6,"pct_alojamiento":0,"pct_educ_superior":47,"brecha_educ":3,"pct_sin_seguro":16,"pct_seguro_privado":2,"brecha_seguro":-3,"pct_med_tradicional":8,"pct_automedicacion":17,"pct_remedios_caseros":25,"pct_viv_desocupada":3,"pct_alquiler":42,"pct_electricidad":96,"pct_agua_red":100,"pct_alcantarillado":100,"pct_gas_red":58,"pct_gas_garrafa":42,"pct_lena_guano":42,"pct_basura_formal":100,"pct_basura_quema":0,"pct_basura_informal":0,"pct_internet":92,"pct_celular":96,"pct_televisor":96}},{"type":"Feature","geometry":{"type":"Polygon","coordinates":[[[-65.23124,-20.9645],[-65.23134,-20.96425],[-65.23026,-20.96426],[-65.23028,-20.96451],[-65.23124,-20.9645]]]},"properties":{"n":"VILLA ABECIA","p":64,"personas_x_ha":214,"masculinidad":100,"pct_menor20":30,"pct_60mas":8,"pct_migrante":53,"dependencia_econ":167,"pct_empleados":38,"pct_cuentapropia":42,"pct_agricultura":33,"pct_comercio":25,"pct_manufactura":12,"pct_construccion":12,"pct_transporte":8,"pct_alojamiento":4,"pct_educ_superior":17,"brecha_educ":-5,"pct_sin_seguro":39,"pct_seguro_privado":0,"brecha_seguro":16,"pct_med_tradicional":14,"pct_automedicacion":22,"pct_remedios_caseros":26,"pct_viv_desocupada":0,"pct_alquiler":7,"pct_electricidad":100,"pct_agua_red":100,"pct_alcantarillado":7,"pct_gas_red":0,"pct_gas_garrafa":87,"pct_lena_guano":87,"pct_basura_formal":87,"pct_basura_quema":13,"pct_basura_informal":0,"pct_internet":87,"pct_celular":93,"pct_televisor":60}},{"type":"Feature","geometry":{"type":"Polygon","coordinates":[[[-65.22894,-20.97558],[-65.22881,-20.97475],[-65.22848,-20.97478],[-65.22874,-20.97562],[-65.22894,-20.97558]]]},"properties":{"n":"VILLA ABECIA","p":26,"personas_x_ha":94,"masculinidad":73,"pct_menor20":31,"pct_60mas":19,"pct_migrante":15,"dependencia_econ":225,"pct_empleados":25,"pct_cuentapropia":62,"pct_agricultura":50,"pct_comercio":12,"pct_manufactura":12,"pct_construccion":12,"pct_transporte":0,"pct_alojamiento":0,"pct_educ_superior":22,"brecha_educ":-17,"pct_sin_seguro":38,"pct_seguro_privado":0,"brecha_seguro":-4,"pct_med_tradicional":8,"pct_automedicacion":20,"pct_remedios_caseros":28,"pct_viv_desocupada":29,"pct_alquiler":0,"pct_electricidad":100,"pct_agua_red":100,"pct_alcantarillado":0,"pct_gas_red":0,"pct_gas_garrafa":75,"pct_lena_guano":75,"pct_basura_formal":50,"pct_basura_quema":50,"pct_basura_informal":0,"pct_internet":75,"pct_celular":100,"pct_televisor":75}},{"type":"Feature","geometry":{"type":"Polygon","coordinates":[[[-65.22875,-20.9741],[-65.22865,-20.9739],[-65.22839,-20.97396],[-65.22847,-20.97473],[-65.22893,-20.97467],[-65.22919,-20.97352],[-65.22885,-20.97334],[-65.2286,-20.97335],[-65.22835,-20.9735],[-65.22839,-20.97391],[-65.22868,-20.97385],[-65.22875,-20.9741]]]},"properties":{"n":"VILLA ABECIA","p":54,"personas_x_ha":55,"masculinidad":69,"pct_menor20":35,"pct_60mas":6,"pct_migrante":28,"dependencia_econ":108,"pct_empleados":38,"pct_cuentapropia":58,"pct_agricultura":19,"pct_comercio":23,"pct_manufactura":0,"pct_construccion":19,"pct_transporte":8,"pct_alojamiento":8,"pct_educ_superior":26,"brecha_educ":2,"pct_sin_seguro":15,"pct_seguro_privado":0,"brecha_seguro":13,"pct_med_tradicional":12,"pct_automedicacion":27,"pct_remedios_caseros":24,"pct_viv_desocupada":0,"pct_alquiler":0,"pct_electricidad":92,"pct_agua_red":92,"pct_alcantarillado":25,"pct_gas_red":0,"pct_gas_garrafa":92,"pct_lena_guano":92,"pct_basura_formal":92,"pct_basura_quema":8,"pct_basura_informal":0,"pct_internet":75,"pct_celular":83,"pct_televisor":75}},{"type":"Feature","geometry":{"type":"Polygon","coordinates":[[[-65.23271,-20.97789],[-65.23196,-20.97778],[-65.23195,-20.97811],[-65.23267,-20.97832],[-65.23271,-20.97789]]]},"properties":{"n":"VILLA ABECIA","p":76,"personas_x_ha":228,"masculinidad":95,"pct_menor20":29,"pct_60mas":8,"pct_migrante":51,"dependencia_econ":50,"pct_empleados":42,"pct_cuentapropia":48,"pct_agricultura":20,"pct_comercio":28,"pct_manufactura":8,"pct_construccion":12,"pct_transporte":0,"pct_alojamiento":2,"pct_educ_superior":48,"brecha_educ":2,"pct_sin_seguro":16,"pct_seguro_privado":1,"brecha_seguro":17,"pct_med_tradicional":13,"pct_automedicacion":24,"pct_remedios_caseros":21,"pct_viv_desocupada":5,"pct_alquiler":30,"pct_electricidad":100,"pct_agua_red":100,"pct_alcantarillado":90,"pct_gas_red":55,"pct_gas_garrafa":45,"pct_lena_guano":45,"pct_basura_formal":100,"pct_basura_quema":0,"pct_basura_informal":0,"pct_internet":65,"pct_celular":70,"pct_televisor":50}},{"type":"Feature","geometry":{"type":"Polygon","coordinates":[[[-65.22948,-20.97683],[-65.22933,-20.97779],[-65.22902,-20.97773],[-65.22891,-20.97765],[-65.22898,-20.97689],[-65.2291,-20.97679],[-65.22948,-20.97683]]]},"properties":{"n":"VILLA ABECIA","p":27,"personas_x_ha":53,"masculinidad":125,"pct_menor20":41,"pct_60mas":4,"pct_migrante":22,"dependencia_econ":80,"pct_empleados":20,"pct_cuentapropia":67,"pct_agricultura":13,"pct_comercio":13,"pct_manufactura":13,"pct_construccion":20,"pct_transporte":0,"pct_alojamiento":0,"pct_educ_superior":47,"brecha_educ":33,"pct_sin_seguro":0,"pct_seguro_privado":0,"brecha_seguro":0,"pct_med_tradicional":13,"pct_automedicacion":18,"pct_remedios_caseros":26,"pct_viv_desocupada":0,"pct_alquiler":0,"pct_electricidad":100,"pct_agua_red":100,"pct_alcantarillado":0,"pct_gas_red":0,"pct_gas_garrafa":88,"pct_lena_guano":88,"pct_basura_formal":100,"pct_basura_quema":0,"pct_basura_informal":0,"pct_internet":100,"pct_celular":100,"pct_televisor":75}},{"type":"Feature","geometry":{"type":"Polygon","coordinates":[[[-65.23314,-20.97539],[-65.23374,-20.97511],[-65.23395,-20.97493],[-65.23411,-20.97492],[-65.23453,-20.97522],[-65.23484,-20.97565],[-65.23501,-20.97571],[-65.2361,-20.97541],[-65.23648,-20.9755],[-65.23703,-20.97588],[-65.23777,-20.97753],[-65.23821,-20.97785],[-65.23878,-20.97786],[-65.23937,-20.97821],[-65.2395,-20.97836],[-65.23945,-20.97878],[-65.23842,-20.97877],[-65.23816,-20.97893],[-65.23787,-20.97825],[-65.23747,-20.97807],[-65.23656,-20.97784],[-65.23662,-20.97748],[-65.23549,-20.97715],[-65.23527,-20.97724],[-65.23485,-20.97719],[-65.23469,-20.97705],[-65.2347,-20.97677],[-65.23417,-20.97674],[-65.23418,-20.97655],[-65.23402,-20.97648],[-65.23313,-20.97644],[-65.23291,-20.97624],[-65.23254,-20.97567],[-65.23222,-20.97562],[-65.23226,-20.9754],[-65.23243,-20.97543],[-65.23248,-20.97534],[-65.23314,-20.97539]]]},"properties":{"n":"VILLA ABECIA","p":78,"personas_x_ha":7,"masculinidad":123,"pct_menor20":36,"pct_60mas":5,"pct_migrante":45,"dependencia_econ":73,"pct_empleados":38,"pct_cuentapropia":51,"pct_agricultura":40,"pct_comercio":13,"pct_manufactura":7,"pct_construccion":7,"pct_transporte":0,"pct_alojamiento":4,"pct_educ_superior":29,"brecha_educ":-16,"pct_sin_seguro":14,"pct_seguro_privado":1,"brecha_seguro":5,"pct_med_tradicional":10,"pct_automedicacion":23,"pct_remedios_caseros":26,"pct_viv_desocupada":0,"pct_alquiler":33,"pct_electricidad":94,"pct_agua_red":89,"pct_alcantarillado":61,"pct_gas_red":33,"pct_gas_garrafa":56,"pct_lena_guano":56,"pct_basura_formal":78,"pct_basura_quema":11,"pct_basura_informal":0,"pct_internet":83,"pct_celular":89,"pct_televisor":78}},{"type":"Feature","geometry":{"type":"Polygon","coordinates":[[[-65.22906,-20.97569],[-65.2288,-20.97577],[-65.22891,-20.9767],[-65.22926,-20.97661],[-65.22906,-20.97569]]]},"properties":{"n":"VILLA ABECIA","p":74,"personas_x_ha":207,"masculinidad":95,"pct_menor20":32,"pct_60mas":4,"pct_migrante":43,"dependencia_econ":100,"pct_empleados":57,"pct_cuentapropia":35,"pct_agricultura":19,"pct_comercio":11,"pct_manufactura":8,"pct_construccion":27,"pct_transporte":3,"pct_alojamiento":5,"pct_educ_superior":13,"brecha_educ":-2,"pct_sin_seguro":42,"pct_seguro_privado":0,"brecha_seguro":10,"pct_med_tradicional":17,"pct_automedicacion":20,"pct_remedios_caseros":26,"pct_viv_desocupada":0,"pct_alquiler":0,"pct_electricidad":94,"pct_agua_red":100,"pct_alcantarillado":0,"pct_gas_red":0,"pct_gas_garrafa":71,"pct_lena_guano":71,"pct_basura_formal":76,"pct_basura_quema":24,"pct_basura_informal":0,"pct_internet":88,"pct_celular":100,"pct_televisor":65}},{"type":"Feature","geometry":{"type":"Polygon","coordinates":[[[-65.2319,-20.97258],[-65.23084,-20.97197],[-65.23028,-20.9721],[-65.23056,-20.97403],[-65.23091,-20.97403],[-65.23091,-20.97411],[-65.23143,-20.97408],[-65.23124,-20.97346],[-65.23209,-20.97314],[-65.2319,-20.97258]]]},"properties":{"n":"VILLA ABECIA","p":67,"personas_x_ha":24,"masculinidad":63,"pct_menor20":19,"pct_60mas":21,"pct_migrante":81,"dependencia_econ":83,"pct_empleados":22,"pct_cuentapropia":61,"pct_agricultura":22,"pct_comercio":25,"pct_manufactura":19,"pct_construccion":3,"pct_transporte":0,"pct_alojamiento":0,"pct_educ_superior":58,"brecha_educ":5,"pct_sin_seguro":38,"pct_seguro_privado":9,"brecha_seguro":9,"pct_med_tradicional":6,"pct_automedicacion":14,"pct_remedios_caseros":24,"pct_viv_desocupada":0,"pct_alquiler":33,"pct_electricidad":100,"pct_agua_red":100,"pct_alcantarillado":100,"pct_gas_red":56,"pct_gas_garrafa":39,"pct_lena_guano":39,"pct_basura_formal":94,"pct_basura_quema":0,"pct_basura_informal":0,"pct_internet":94,"pct_celular":89,"pct_televisor":78}},{"type":"Feature","geometry":{"type":"Polygon","coordinates":[[[-65.23132,-20.96393],[-65.23033,-20.96392],[-65.23031,-20.9642],[-65.23132,-20.96419],[-65.23132,-20.96393]]]},"properties":{"n":"VILLA ABECIA","p":45,"personas_x_ha":145,"masculinidad":67,"pct_menor20":44,"pct_60mas":4,"pct_migrante":47,"dependencia_econ":114,"pct_empleados":33,"pct_cuentapropia":52,"pct_agricultura":48,"pct_comercio":14,"pct_manufactura":5,"pct_construccion":14,"pct_transporte":10,"pct_alojamiento":5,"pct_educ_superior":23,"brecha_educ":-31,"pct_sin_seguro":20,"pct_seguro_privado":0,"brecha_seguro":4,"pct_med_tradicional":11,"pct_automedicacion":17,"pct_remedios_caseros":27,"pct_viv_desocupada":21,"pct_alquiler":0,"pct_electricidad":100,"pct_agua_red":100,"pct_alcantarillado":0,"pct_gas_red":0,"pct_gas_garrafa":100,"pct_lena_guano":100,"pct_basura_formal":100,"pct_basura_quema":0,"pct_basura_informal":0,"pct_internet":100,"pct_celular":100,"pct_televisor":100}},{"type":"Feature","geometry":{"type":"Polygon","coordinates":[[[-65.23276,-20.9748],[-65.23205,-20.97327],[-65.2313,-20.97353],[-65.23145,-20.97411],[-65.23093,-20.97417],[-65.23102,-20.97478],[-65.23151,-20.97467],[-65.23132,-20.97477],[-65.23178,-20.97563],[-65.23218,-20.97564],[-65.23222,-20.97523],[-65.23264,-20.97502],[-65.23276,-20.9748]]]},"properties":{"n":"VILLA ABECIA","p":60,"personas_x_ha":21,"masculinidad":76,"pct_menor20":28,"pct_60mas":25,"pct_migrante":62,"dependencia_econ":94,"pct_empleados":26,"pct_cuentapropia":61,"pct_agricultura":16,"pct_comercio":10,"pct_manufactura":3,"pct_construccion":3,"pct_transporte":3,"pct_alojamiento":10,"pct_educ_superior":70,"brecha_educ":-7,"pct_sin_seguro":2,"pct_seguro_privado":0,"brecha_seguro":4,"pct_med_tradicional":10,"pct_automedicacion":8,"pct_remedios_caseros":25,"pct_viv_desocupada":3,"pct_alquiler":18,"pct_electricidad":100,"pct_agua_red":100,"pct_alcantarillado":100,"pct_gas_red":35,"pct_gas_garrafa":59,"pct_lena_guano":59,"pct_basura_formal":88,"pct_basura_quema":0,"pct_basura_informal":0,"pct_internet":94,"pct_celular":94,"pct_televisor":94}},{"type":"Feature","geometry":{"type":"Polygon","coordinates":[[[-65.22856,-20.98599],[-65.22805,-20.98595],[-65.22805,-20.98634],[-65.22854,-20.98637],[-65.22856,-20.98599]]]},"properties":{"n":"VILLA ABECIA","p":19,"personas_x_ha":86,"masculinidad":90,"pct_menor20":32,"pct_60mas":26,"pct_migrante":42,"dependencia_econ":111,"pct_empleados":11,"pct_cuentapropia":78,"pct_agricultura":22,"pct_comercio":33,"pct_manufactura":11,"pct_construccion":22,"pct_transporte":0,"pct_alojamiento":0,"pct_educ_superior":23,"brecha_educ":-21,"pct_sin_seguro":11,"pct_seguro_privado":0,"brecha_seguro":22,"pct_med_tradicional":18,"pct_automedicacion":22,"pct_remedios_caseros":22,"pct_viv_desocupada":0,"pct_alquiler":0,"pct_electricidad":100,"pct_agua_red":83,"pct_alcantarillado":0,"pct_gas_red":0,"pct_gas_garrafa":100,"pct_lena_guano":100,"pct_basura_formal":83,"pct_basura_quema":0,"pct_basura_informal":0,"pct_internet":83,"pct_celular":83,"pct_televisor":83}},{"type":"Feature","geometry":{"type":"Polygon","coordinates":[[[-65.23413,-20.97655],[-65.23327,-20.97653],[-65.23286,-20.97633],[-65.23184,-20.97651],[-65.23196,-20.97721],[-65.23194,-20.97772],[-65.23268,-20.97783],[-65.23269,-20.97769],[-65.2327,-20.97784],[-65.2332,-20.97791],[-65.23277,-20.97788],[-65.23274,-20.97834],[-65.23322,-20.9785],[-65.23378,-20.97915],[-65.23411,-20.97927],[-65.23442,-20.97927],[-65.23504,-20.97896],[-65.23529,-20.97893],[-65.2357,-20.97905],[-65.23577,-20.98029],[-65.23634,-20.98022],[-65.23645,-20.97987],[-65.23719,-20.98],[-65.23731,-20.9795],[-65.23784,-20.9792],[-65.23794,-20.9785],[-65.2378,-20.97834],[-65.23758,-20.97818],[-65.23692,-20.978],[-65.23645,-20.97809],[-65.23648,-20.97757],[-65.23549,-20.97724],[-65.2353,-20.97732],[-65.23482,-20.97724],[-65.23464,-20.97705],[-65.23465,-20.97684],[-65.23411,-20.97678],[-65.23413,-20.97655]]]},"properties":{"n":"VILLA ABECIA","p":139,"personas_x_ha":10,"masculinidad":144,"pct_menor20":33,"pct_60mas":10,"pct_migrante":25,"dependencia_econ":114,"pct_empleados":35,"pct_cuentapropia":55,"pct_agricultura":29,"pct_comercio":6,"pct_manufactura":9,"pct_construccion":18,"pct_transporte":6,"pct_alojamiento":8,"pct_educ_superior":31,"brecha_educ":-3,"pct_sin_seguro":20,"pct_seguro_privado":0,"brecha_seguro":-2,"pct_med_tradicional":6,"pct_automedicacion":19,"pct_remedios_caseros":25,"pct_viv_desocupada":5,"pct_alquiler":29,"pct_electricidad":100,"pct_agua_red":88,"pct_alcantarillado":80,"pct_gas_red":59,"pct_gas_garrafa":34,"pct_lena_guano":34,"pct_basura_formal":93,"pct_basura_quema":7,"pct_basura_informal":0,"pct_internet":76,"pct_celular":88,"pct_televisor":66}},{"type":"Feature","geometry":{"type":"Polygon","coordinates":[[[-65.23116,-20.96485],[-65.23125,-20.96456],[-65.23027,-20.96457],[-65.23028,-20.96488],[-65.23116,-20.96485]]]},"properties":{"n":"VILLA ABECIA","p":38,"personas_x_ha":118,"masculinidad":280,"pct_menor20":24,"pct_60mas":16,"pct_migrante":34,"dependencia_econ":58,"pct_empleados":25,"pct_cuentapropia":62,"pct_agricultura":29,"pct_comercio":8,"pct_manufactura":8,"pct_construccion":4,"pct_transporte":25,"pct_alojamiento":4,"pct_educ_superior":41,"brecha_educ":-19,"pct_sin_seguro":24,"pct_seguro_privado":0,"brecha_seguro":-8,"pct_med_tradicional":6,"pct_automedicacion":14,"pct_remedios_caseros":26,"pct_viv_desocupada":38,"pct_alquiler":20,"pct_electricidad":100,"pct_agua_red":90,"pct_alcantarillado":20,"pct_gas_red":0,"pct_gas_garrafa":100,"pct_lena_guano":100,"pct_basura_formal":90,"pct_basura_quema":10,"pct_basura_informal":0,"pct_internet":90,"pct_celular":100,"pct_televisor":60}},{"type":"Feature","geometry":{"type":"Polygon","coordinates":[[[-65.23286,-20.97625],[-65.23248,-20.97569],[-65.23179,-20.97568],[-65.23182,-20.97594],[-65.23223,-20.9759],[-65.23172,-20.97604],[-65.23183,-20.97647],[-65.23286,-20.97625]]]},"properties":{"n":"VILLA ABECIA","p":140,"personas_x_ha":194,"masculinidad":89,"pct_menor20":34,"pct_60mas":10,"pct_migrante":63,"dependencia_econ":119,"pct_empleados":36,"pct_cuentapropia":50,"pct_agricultura":9,"pct_comercio":19,"pct_manufactura":8,"pct_construccion":8,"pct_transporte":16,"pct_alojamiento":8,"pct_educ_superior":42,"brecha_educ":1,"pct_sin_seguro":14,"pct_seguro_privado":1,"brecha_seguro":-3,"pct_med_tradicional":11,"pct_automedicacion":21,"pct_remedios_caseros":27,"pct_viv_desocupada":6,"pct_alquiler":37,"pct_electricidad":100,"pct_agua_red":97,"pct_alcantarillado":93,"pct_gas_red":77,"pct_gas_garrafa":20,"pct_lena_guano":20,"pct_basura_formal":100,"pct_basura_quema":0,"pct_basura_informal":0,"pct_internet":90,"pct_celular":93,"pct_televisor":77}},{"type":"Feature","geometry":{"type":"Polygon","coordinates":[[[-65.23368,-20.97969],[-65.23341,-20.98076],[-65.23314,-20.98074],[-65.23274,-20.98117],[-65.23215,-20.98146],[-65.23151,-20.98129],[-65.23154,-20.9803],[-65.23227,-20.98037],[-65.23233,-20.97982],[-65.23227,-20.97981],[-65.23221,-20.98029],[-65.23155,-20.98023],[-65.23178,-20.97894],[-65.23223,-20.97891],[-65.23224,-20.97909],[-65.2326,-20.9793],[-65.23345,-20.97888],[-65.23365,-20.97913],[-65.23381,-20.97961],[-65.23368,-20.97969]]]},"properties":{"n":"VILLA ABECIA","p":50,"personas_x_ha":10,"masculinidad":127,"pct_menor20":54,"pct_60mas":2,"pct_migrante":42,"dependencia_econ":212,"pct_empleados":50,"pct_cuentapropia":50,"pct_agricultura":19,"pct_comercio":25,"pct_manufactura":19,"pct_construccion":19,"pct_transporte":0,"pct_alojamiento":25,"pct_educ_superior":42,"brecha_educ":-36,"pct_sin_seguro":24,"pct_seguro_privado":0,"brecha_seguro":10,"pct_med_tradicional":7,"pct_automedicacion":7,"pct_remedios_caseros":21,"pct_viv_desocupada":14,"pct_alquiler":8,"pct_electricidad":100,"pct_agua_red":100,"pct_alcantarillado":0,"pct_gas_red":0,"pct_gas_garrafa":92,"pct_lena_guano":92,"pct_basura_formal":100,"pct_basura_quema":0,"pct_basura_informal":0,"pct_internet":100,"pct_celular":100,"pct_televisor":83}},{"type":"Feature","geometry":{"type":"Polygon","coordinates":[[[-65.22798,-20.97715],[-65.22776,-20.97724],[-65.22781,-20.97798],[-65.22834,-20.97799],[-65.22826,-20.97718],[-65.22798,-20.97715]]]},"properties":{"n":"VILLA ABECIA","p":65,"personas_x_ha":134,"masculinidad":110,"pct_menor20":42,"pct_60mas":3,"pct_migrante":51,"dependencia_econ":74,"pct_empleados":26,"pct_cuentapropia":26,"pct_agricultura":60,"pct_comercio":3,"pct_manufactura":9,"pct_construccion":11,"pct_transporte":3,"pct_alojamiento":14,"pct_educ_superior":23,"brecha_educ":0,"pct_sin_seguro":12,"pct_seguro_privado":0,"brecha_seguro":-5,"pct_med_tradicional":19,"pct_automedicacion":8,"pct_remedios_caseros":18,"pct_viv_desocupada":6,"pct_alquiler":0,"pct_electricidad":93,"pct_agua_red":100,"pct_alcantarillado":7,"pct_gas_red":0,"pct_gas_garrafa":100,"pct_lena_guano":100,"pct_basura_formal":100,"pct_basura_quema":0,"pct_basura_informal":0,"pct_internet":14,"pct_celular":86,"pct_televisor":29}}]}