{"type":"FeatureCollection","features":[{"type":"Feature","geometry":{"type":"Polygon","coordinates":[[[-65.40443,-18.74846],[-65.40405,-18.74824],[-65.40364,-18.74863],[-65.40353,-18.74853],[-65.40338,-18.74866],[-65.40399,-18.74916],[-65.40443,-18.74846]]]},"properties":{"n":"PIOCERA","p":22,"personas_x_ha":42,"masculinidad":144,"pct_menor20":32,"pct_60mas":14,"pct_migrante":41,"dependencia_econ":69,"pct_empleados":23,"pct_cuentapropia":77,"pct_agricultura":54,"pct_comercio":15,"pct_manufactura":8,"pct_construccion":23,"pct_transporte":0,"pct_alojamiento":0,"pct_sin_educacion":7,"pct_educ_superior":13,"brecha_educ":-7,"pct_sin_seguro":5,"pct_sus":95,"pct_seguro_privado":0,"brecha_seguro":-12,"pct_salud_publica":43,"pct_med_tradicional":0,"pct_automedicacion":17,"pct_remedios_caseros":40,"pct_viv_desocupada":0,"pct_alquiler":0,"pct_electricidad":88,"pct_sin_electricidad":12,"pct_agua_red":25,"pct_alcantarillado":0,"pct_camara_septica":0,"pct_pozo_ciego":0,"pct_sin_desague":88,"pct_gas_red":0,"pct_gas_garrafa":0,"pct_lena_guano":0,"pct_basura_formal":0,"pct_basura_quema":62,"pct_basura_informal":0,"pct_internet":50,"pct_celular":75,"pct_televisor":38}},{"type":"Feature","geometry":{"type":"Polygon","coordinates":[[[-65.32647,-18.79457],[-65.32614,-18.79451],[-65.32603,-18.79442],[-65.32602,-18.79428],[-65.32651,-18.79388],[-65.32656,-18.79391],[-65.32699,-18.79386],[-65.32666,-18.79388],[-65.32666,-18.79376],[-65.32699,-18.79363],[-65.32728,-18.79364],[-65.32729,-18.794],[-65.32745,-18.79414],[-65.3274,-18.7942],[-65.32694,-18.79397],[-65.32647,-18.79457]]]},"properties":{"n":"POJPO","p":21,"personas_x_ha":32,"masculinidad":200,"pct_menor20":24,"pct_60mas":29,"pct_migrante":24,"dependencia_econ":54,"pct_empleados":15,"pct_cuentapropia":46,"pct_agricultura":54,"pct_comercio":8,"pct_manufactura":0,"pct_construccion":8,"pct_transporte":0,"pct_alojamiento":0,"pct_sin_educacion":6,"pct_educ_superior":31,"brecha_educ":10,"pct_sin_seguro":11,"pct_sus":79,"pct_seguro_privado":0,"brecha_seguro":17,"pct_salud_publica":33,"pct_med_tradicional":12,"pct_automedicacion":7,"pct_remedios_caseros":30,"pct_viv_desocupada":4,"pct_alquiler":9,"pct_electricidad":100,"pct_sin_electricidad":0,"pct_agua_red":64,"pct_alcantarillado":0,"pct_camara_septica":27,"pct_pozo_ciego":9,"pct_sin_desague":64,"pct_gas_red":0,"pct_gas_garrafa":36,"pct_lena_guano":36,"pct_basura_formal":0,"pct_basura_quema":55,"pct_basura_informal":36,"pct_internet":45,"pct_celular":73,"pct_televisor":27}},{"type":"Feature","geometry":{"type":"Polygon","coordinates":[[[-65.43049,-18.53768],[-65.43043,-18.53765],[-65.43025,-18.53784],[-65.42978,-18.5385],[-65.43015,-18.53878],[-65.43043,-18.53819],[-65.43049,-18.53768]]]},"properties":{"n":"POROMA","p":25,"personas_x_ha":60,"masculinidad":79,"pct_menor20":52,"pct_60mas":8,"pct_migrante":0,"dependencia_econ":317,"pct_empleados":0,"pct_cuentapropia":83,"pct_agricultura":83,"pct_comercio":0,"pct_manufactura":0,"pct_construccion":0,"pct_transporte":0,"pct_alojamiento":0,"pct_sin_educacion":25,"pct_educ_superior":8,"brecha_educ":-62,"pct_sin_seguro":0,"pct_sus":100,"pct_seguro_privado":0,"brecha_seguro":0,"pct_salud_publica":39,"pct_med_tradicional":16,"pct_automedicacion":15,"pct_remedios_caseros":28,"pct_viv_desocupada":0,"pct_alquiler":0,"pct_electricidad":100,"pct_sin_electricidad":0,"pct_agua_red":100,"pct_alcantarillado":0,"pct_camara_septica":9,"pct_pozo_ciego":45,"pct_sin_desague":45,"pct_gas_red":0,"pct_gas_garrafa":64,"pct_lena_guano":64,"pct_basura_formal":45,"pct_basura_quema":45,"pct_basura_informal":0,"pct_internet":82,"pct_celular":91,"pct_televisor":64}},{"type":"Feature","geometry":{"type":"Polygon","coordinates":[[[-65.42671,-18.53805],[-65.42619,-18.53824],[-65.42584,-18.53847],[-65.42571,-18.53818],[-65.42571,-18.53774],[-65.42591,-18.53744],[-65.42659,-18.53714],[-65.42722,-18.5376],[-65.42671,-18.53805]]]},"properties":{"n":"POROMA","p":19,"personas_x_ha":14,"masculinidad":217,"pct_menor20":37,"pct_60mas":16,"pct_migrante":21,"dependencia_econ":90,"pct_empleados":10,"pct_cuentapropia":70,"pct_agricultura":40,"pct_comercio":20,"pct_manufactura":0,"pct_construccion":0,"pct_transporte":0,"pct_alojamiento":20,"pct_sin_educacion":0,"pct_educ_superior":25,"brecha_educ":-17,"pct_sin_seguro":16,"pct_sus":79,"pct_seguro_privado":5,"brecha_seguro":-1,"pct_salud_publica":31,"pct_med_tradicional":13,"pct_automedicacion":20,"pct_remedios_caseros":21,"pct_viv_desocupada":0,"pct_alquiler":17,"pct_electricidad":100,"pct_sin_electricidad":0,"pct_agua_red":75,"pct_alcantarillado":50,"pct_camara_septica":0,"pct_pozo_ciego":8,"pct_sin_desague":42,"pct_gas_red":0,"pct_gas_garrafa":58,"pct_lena_guano":58,"pct_basura_formal":83,"pct_basura_quema":17,"pct_basura_informal":0,"pct_internet":67,"pct_celular":75,"pct_televisor":33}},{"type":"Feature","geometry":{"type":"Polygon","coordinates":[[[-65.42842,-18.53817],[-65.42854,-18.5381],[-65.42868,-18.53825],[-65.42825,-18.53847],[-65.42751,-18.53797],[-65.42776,-18.53772],[-65.42823,-18.53748],[-65.42853,-18.53808],[-65.42842,-18.53817]]]},"properties":{"n":"POROMA","p":81,"personas_x_ha":116,"masculinidad":72,"pct_menor20":67,"pct_60mas":6,"pct_migrante":16,"dependencia_econ":212,"pct_empleados":31,"pct_cuentapropia":38,"pct_agricultura":46,"pct_comercio":12,"pct_manufactura":0,"pct_construccion":8,"pct_transporte":0,"pct_alojamiento":15,"pct_sin_educacion":14,"pct_educ_superior":7,"brecha_educ":-25,"pct_sin_seguro":2,"pct_sus":96,"pct_seguro_privado":0,"brecha_seguro":-4,"pct_salud_publica":34,"pct_med_tradicional":24,"pct_automedicacion":8,"pct_remedios_caseros":30,"pct_viv_desocupada":0,"pct_alquiler":8,"pct_electricidad":100,"pct_sin_electricidad":0,"pct_agua_red":96,"pct_alcantarillado":40,"pct_camara_septica":0,"pct_pozo_ciego":0,"pct_sin_desague":56,"pct_gas_red":0,"pct_gas_garrafa":72,"pct_lena_guano":72,"pct_basura_formal":48,"pct_basura_quema":44,"pct_basura_informal":8,"pct_internet":72,"pct_celular":88,"pct_televisor":44}},{"type":"Feature","geometry":{"type":"Polygon","coordinates":[[[-65.42336,-18.53975],[-65.42386,-18.54008],[-65.42412,-18.5399],[-65.42404,-18.53981],[-65.42471,-18.53956],[-65.42403,-18.5388],[-65.42387,-18.53851],[-65.42366,-18.53871],[-65.42336,-18.53975]]]},"properties":{"n":"POROMA","p":23,"personas_x_ha":18,"masculinidad":77,"pct_menor20":43,"pct_60mas":9,"pct_migrante":39,"dependencia_econ":92,"pct_empleados":25,"pct_cuentapropia":42,"pct_agricultura":58,"pct_comercio":0,"pct_manufactura":0,"pct_construccion":0,"pct_transporte":0,"pct_alojamiento":0,"pct_sin_educacion":15,"pct_educ_superior":31,"brecha_educ":22,"pct_sin_seguro":0,"pct_sus":65,"pct_seguro_privado":0,"brecha_seguro":0,"pct_salud_publica":21,"pct_med_tradicional":10,"pct_automedicacion":13,"pct_remedios_caseros":22,"pct_viv_desocupada":0,"pct_alquiler":11,"pct_electricidad":100,"pct_sin_electricidad":0,"pct_agua_red":100,"pct_alcantarillado":100,"pct_camara_septica":0,"pct_pozo_ciego":0,"pct_sin_desague":0,"pct_gas_red":0,"pct_gas_garrafa":56,"pct_lena_guano":56,"pct_basura_formal":78,"pct_basura_quema":22,"pct_basura_informal":0,"pct_internet":67,"pct_celular":67,"pct_televisor":78}},{"type":"Feature","geometry":{"type":"Polygon","coordinates":[[[-65.42777,-18.54066],[-65.42734,-18.54004],[-65.4275,-18.54006],[-65.42762,-18.54044],[-65.42798,-18.54034],[-65.42799,-18.54014],[-65.42848,-18.54011],[-65.42864,-18.54028],[-65.42777,-18.54066]]]},"properties":{"n":"POROMA","p":19,"personas_x_ha":51,"masculinidad":58,"pct_menor20":42,"pct_60mas":16,"pct_migrante":21,"dependencia_econ":138,"pct_empleados":12,"pct_cuentapropia":75,"pct_agricultura":88,"pct_comercio":12,"pct_manufactura":0,"pct_construccion":0,"pct_transporte":0,"pct_alojamiento":0,"pct_sin_educacion":8,"pct_educ_superior":8,"brecha_educ":17,"pct_sin_seguro":0,"pct_sus":95,"pct_seguro_privado":0,"brecha_seguro":0,"pct_salud_publica":33,"pct_med_tradicional":13,"pct_automedicacion":4,"pct_remedios_caseros":39,"pct_viv_desocupada":0,"pct_alquiler":22,"pct_electricidad":89,"pct_sin_electricidad":11,"pct_agua_red":78,"pct_alcantarillado":22,"pct_camara_septica":0,"pct_pozo_ciego":11,"pct_sin_desague":56,"pct_gas_red":0,"pct_gas_garrafa":67,"pct_lena_guano":67,"pct_basura_formal":44,"pct_basura_quema":33,"pct_basura_informal":44,"pct_internet":78,"pct_celular":78,"pct_televisor":44}},{"type":"Feature","geometry":{"type":"Polygon","coordinates":[[[-65.42743,-18.53795],[-65.42728,-18.53765],[-65.42685,-18.53801],[-65.42702,-18.53823],[-65.42743,-18.53795]]]},"properties":{"n":"POROMA","p":22,"personas_x_ha":112,"masculinidad":69,"pct_menor20":45,"pct_60mas":5,"pct_migrante":23,"dependencia_econ":214,"pct_empleados":71,"pct_cuentapropia":29,"pct_agricultura":29,"pct_comercio":0,"pct_manufactura":0,"pct_construccion":0,"pct_transporte":0,"pct_alojamiento":0,"pct_sin_educacion":0,"pct_educ_superior":42,"brecha_educ":-50,"pct_sin_seguro":0,"pct_sus":64,"pct_seguro_privado":0,"brecha_seguro":0,"pct_salud_publica":26,"pct_med_tradicional":7,"pct_automedicacion":21,"pct_remedios_caseros":33,"pct_viv_desocupada":0,"pct_alquiler":44,"pct_electricidad":100,"pct_sin_electricidad":0,"pct_agua_red":100,"pct_alcantarillado":89,"pct_camara_septica":0,"pct_pozo_ciego":0,"pct_sin_desague":11,"pct_gas_red":0,"pct_gas_garrafa":89,"pct_lena_guano":89,"pct_basura_formal":100,"pct_basura_quema":0,"pct_basura_informal":0,"pct_internet":100,"pct_celular":89,"pct_televisor":44}},{"type":"Feature","geometry":{"type":"Polygon","coordinates":[[[-65.42718,-18.53998],[-65.42685,-18.53954],[-65.42672,-18.53922],[-65.4265,-18.53932],[-65.42656,-18.53946],[-65.42648,-18.53932],[-65.42619,-18.53954],[-65.42669,-18.54025],[-65.42672,-18.54091],[-65.42687,-18.54091],[-65.42695,-18.54079],[-65.42718,-18.53998]]]},"properties":{"n":"POROMA","p":69,"personas_x_ha":78,"masculinidad":92,"pct_menor20":55,"pct_60mas":9,"pct_migrante":16,"dependencia_econ":165,"pct_empleados":15,"pct_cuentapropia":69,"pct_agricultura":46,"pct_comercio":4,"pct_manufactura":4,"pct_construccion":8,"pct_transporte":12,"pct_alojamiento":8,"pct_sin_educacion":6,"pct_educ_superior":12,"brecha_educ":-22,"pct_sin_seguro":3,"pct_sus":97,"pct_seguro_privado":0,"brecha_seguro":0,"pct_salud_publica":45,"pct_med_tradicional":9,"pct_automedicacion":3,"pct_remedios_caseros":34,"pct_viv_desocupada":7,"pct_alquiler":11,"pct_electricidad":96,"pct_sin_electricidad":4,"pct_agua_red":63,"pct_alcantarillado":74,"pct_camara_septica":0,"pct_pozo_ciego":0,"pct_sin_desague":26,"pct_gas_red":0,"pct_gas_garrafa":56,"pct_lena_guano":56,"pct_basura_formal":30,"pct_basura_quema":70,"pct_basura_informal":0,"pct_internet":67,"pct_celular":85,"pct_televisor":59}},{"type":"Feature","geometry":{"type":"Polygon","coordinates":[[[-65.42777,-18.53981],[-65.42804,-18.54007],[-65.42726,-18.53996],[-65.42698,-18.53965],[-65.42676,-18.53919],[-65.42708,-18.53907],[-65.42736,-18.53966],[-65.42768,-18.53969],[-65.42776,-18.5398],[-65.42763,-18.53988],[-65.42777,-18.53981]]]},"properties":{"n":"POROMA","p":52,"personas_x_ha":105,"masculinidad":79,"pct_menor20":40,"pct_60mas":12,"pct_migrante":31,"dependencia_econ":108,"pct_empleados":40,"pct_cuentapropia":52,"pct_agricultura":28,"pct_comercio":16,"pct_manufactura":12,"pct_construccion":0,"pct_transporte":0,"pct_alojamiento":0,"pct_sin_educacion":16,"pct_educ_superior":41,"brecha_educ":-25,"pct_sin_seguro":0,"pct_sus":76,"pct_seguro_privado":0,"brecha_seguro":0,"pct_salud_publica":34,"pct_med_tradicional":8,"pct_automedicacion":11,"pct_remedios_caseros":26,"pct_viv_desocupada":16,"pct_alquiler":45,"pct_electricidad":90,"pct_sin_electricidad":10,"pct_agua_red":90,"pct_alcantarillado":80,"pct_camara_septica":0,"pct_pozo_ciego":0,"pct_sin_desague":20,"pct_gas_red":0,"pct_gas_garrafa":70,"pct_lena_guano":70,"pct_basura_formal":100,"pct_basura_quema":0,"pct_basura_informal":0,"pct_internet":70,"pct_celular":80,"pct_televisor":35}},{"type":"Feature","geometry":{"type":"Polygon","coordinates":[[[-65.4247,-18.54114],[-65.42531,-18.54069],[-65.42523,-18.54039],[-65.42473,-18.54059],[-65.42439,-18.54096],[-65.4247,-18.54114]]]},"properties":{"n":"POROMA","p":29,"personas_x_ha":72,"masculinidad":61,"pct_menor20":62,"pct_60mas":0,"pct_migrante":14,"dependencia_econ":164,"pct_empleados":27,"pct_cuentapropia":27,"pct_agricultura":73,"pct_comercio":9,"pct_manufactura":0,"pct_construccion":0,"pct_transporte":0,"pct_alojamiento":0,"pct_sin_educacion":0,"pct_educ_superior":0,"brecha_educ":-50,"pct_sin_seguro":0,"pct_sus":100,"pct_seguro_privado":0,"brecha_seguro":0,"pct_salud_publica":69,"pct_med_tradicional":10,"pct_automedicacion":10,"pct_remedios_caseros":12,"pct_viv_desocupada":0,"pct_alquiler":0,"pct_electricidad":75,"pct_sin_electricidad":12,"pct_agua_red":75,"pct_alcantarillado":25,"pct_camara_septica":0,"pct_pozo_ciego":0,"pct_sin_desague":75,"pct_gas_red":0,"pct_gas_garrafa":50,"pct_lena_guano":50,"pct_basura_formal":25,"pct_basura_quema":75,"pct_basura_informal":0,"pct_internet":12,"pct_celular":100,"pct_televisor":25}},{"type":"Feature","geometry":{"type":"Polygon","coordinates":[[[-65.42864,-18.53809],[-65.42828,-18.53743],[-65.4298,-18.53659],[-65.42987,-18.53674],[-65.42967,-18.53752],[-65.42864,-18.53809]]]},"properties":{"n":"POROMA","p":18,"personas_x_ha":13,"masculinidad":80,"pct_menor20":33,"pct_60mas":11,"pct_migrante":17,"dependencia_econ":100,"pct_empleados":33,"pct_cuentapropia":67,"pct_agricultura":78,"pct_comercio":11,"pct_manufactura":0,"pct_construccion":0,"pct_transporte":0,"pct_alojamiento":0,"pct_sin_educacion":0,"pct_educ_superior":23,"brecha_educ":-43,"pct_sin_seguro":0,"pct_sus":100,"pct_seguro_privado":0,"brecha_seguro":0,"pct_salud_publica":30,"pct_med_tradicional":22,"pct_automedicacion":5,"pct_remedios_caseros":25,"pct_viv_desocupada":0,"pct_alquiler":9,"pct_electricidad":100,"pct_sin_electricidad":0,"pct_agua_red":82,"pct_alcantarillado":18,"pct_camara_septica":0,"pct_pozo_ciego":0,"pct_sin_desague":82,"pct_gas_red":0,"pct_gas_garrafa":73,"pct_lena_guano":73,"pct_basura_formal":82,"pct_basura_quema":0,"pct_basura_informal":0,"pct_internet":91,"pct_celular":100,"pct_televisor":36}},{"type":"Feature","geometry":{"type":"Polygon","coordinates":[[[-65.42761,-18.5396],[-65.42728,-18.53899],[-65.42712,-18.53905],[-65.42737,-18.53959],[-65.42761,-18.5396]]]},"properties":{"n":"POROMA","p":18,"personas_x_ha":118,"masculinidad":50,"pct_menor20":50,"pct_60mas":33,"pct_migrante":6,"dependencia_econ":125,"pct_empleados":0,"pct_cuentapropia":50,"pct_agricultura":38,"pct_comercio":12,"pct_manufactura":0,"pct_construccion":0,"pct_transporte":0,"pct_alojamiento":38,"pct_sin_educacion":30,"pct_educ_superior":10,"brecha_educ":-5,"pct_sin_seguro":0,"pct_sus":94,"pct_seguro_privado":0,"brecha_seguro":0,"pct_salud_publica":50,"pct_med_tradicional":0,"pct_automedicacion":0,"pct_remedios_caseros":47,"pct_viv_desocupada":0,"pct_alquiler":0,"pct_electricidad":86,"pct_sin_electricidad":14,"pct_agua_red":100,"pct_alcantarillado":57,"pct_camara_septica":0,"pct_pozo_ciego":43,"pct_sin_desague":0,"pct_gas_red":0,"pct_gas_garrafa":71,"pct_lena_guano":71,"pct_basura_formal":57,"pct_basura_quema":43,"pct_basura_informal":0,"pct_internet":86,"pct_celular":86,"pct_televisor":57}},{"type":"Feature","geometry":{"type":"Polygon","coordinates":[[[-65.42816,-18.5387],[-65.42735,-18.53897],[-65.42774,-18.53967],[-65.42827,-18.53944],[-65.42816,-18.5387]]]},"properties":{"n":"POROMA","p":30,"personas_x_ha":47,"masculinidad":150,"pct_menor20":47,"pct_60mas":3,"pct_migrante":20,"dependencia_econ":200,"pct_empleados":10,"pct_cuentapropia":90,"pct_agricultura":60,"pct_comercio":0,"pct_manufactura":10,"pct_construccion":10,"pct_transporte":0,"pct_alojamiento":0,"pct_sin_educacion":0,"pct_educ_superior":29,"brecha_educ":-3,"pct_sin_seguro":3,"pct_sus":97,"pct_seguro_privado":0,"brecha_seguro":6,"pct_salud_publica":40,"pct_med_tradicional":16,"pct_automedicacion":3,"pct_remedios_caseros":39,"pct_viv_desocupada":0,"pct_alquiler":8,"pct_electricidad":92,"pct_sin_electricidad":8,"pct_agua_red":77,"pct_alcantarillado":69,"pct_camara_septica":0,"pct_pozo_ciego":0,"pct_sin_desague":31,"pct_gas_red":8,"pct_gas_garrafa":62,"pct_lena_guano":62,"pct_basura_formal":77,"pct_basura_quema":23,"pct_basura_informal":0,"pct_internet":92,"pct_celular":100,"pct_televisor":38}},{"type":"Feature","geometry":{"type":"Polygon","coordinates":[[[-65.42636,-18.54115],[-65.42558,-18.54119],[-65.42578,-18.54006],[-65.42572,-18.53996],[-65.42551,-18.54],[-65.42549,-18.53978],[-65.42607,-18.53966],[-65.42649,-18.54022],[-65.42634,-18.54045],[-65.42636,-18.54115]]]},"properties":{"n":"POROMA","p":15,"personas_x_ha":13,"masculinidad":50,"pct_menor20":40,"pct_60mas":7,"pct_migrante":27,"dependencia_econ":200,"pct_empleados":20,"pct_cuentapropia":80,"pct_agricultura":40,"pct_comercio":0,"pct_manufactura":0,"pct_construccion":0,"pct_transporte":0,"pct_alojamiento":20,"pct_sin_educacion":11,"pct_educ_superior":44,"brecha_educ":-33,"pct_sin_seguro":0,"pct_sus":93,"pct_seguro_privado":0,"brecha_seguro":0,"pct_salud_publica":45,"pct_med_tradicional":16,"pct_automedicacion":6,"pct_remedios_caseros":23,"pct_viv_desocupada":0,"pct_alquiler":17,"pct_electricidad":100,"pct_sin_electricidad":0,"pct_agua_red":83,"pct_alcantarillado":67,"pct_camara_septica":0,"pct_pozo_ciego":0,"pct_sin_desague":33,"pct_gas_red":0,"pct_gas_garrafa":67,"pct_lena_guano":67,"pct_basura_formal":83,"pct_basura_quema":17,"pct_basura_informal":0,"pct_internet":50,"pct_celular":83,"pct_televisor":67}},{"type":"Feature","geometry":{"type":"Polygon","coordinates":[[[-65.42726,-18.53888],[-65.42702,-18.53832],[-65.42637,-18.53851],[-65.42642,-18.53869],[-65.42661,-18.53865],[-65.42674,-18.5391],[-65.42726,-18.53888]]]},"properties":{"n":"POROMA","p":49,"personas_x_ha":110,"masculinidad":123,"pct_menor20":39,"pct_60mas":10,"pct_migrante":43,"dependencia_econ":88,"pct_empleados":54,"pct_cuentapropia":27,"pct_agricultura":15,"pct_comercio":12,"pct_manufactura":8,"pct_construccion":0,"pct_transporte":0,"pct_alojamiento":12,"pct_sin_educacion":10,"pct_educ_superior":53,"brecha_educ":-6,"pct_sin_seguro":2,"pct_sus":79,"pct_seguro_privado":0,"brecha_seguro":4,"pct_salud_publica":31,"pct_med_tradicional":16,"pct_automedicacion":9,"pct_remedios_caseros":27,"pct_viv_desocupada":0,"pct_alquiler":33,"pct_electricidad":92,"pct_sin_electricidad":8,"pct_agua_red":83,"pct_alcantarillado":83,"pct_camara_septica":0,"pct_pozo_ciego":0,"pct_sin_desague":17,"pct_gas_red":0,"pct_gas_garrafa":83,"pct_lena_guano":83,"pct_basura_formal":83,"pct_basura_quema":8,"pct_basura_informal":0,"pct_internet":58,"pct_celular":75,"pct_televisor":42}},{"type":"Feature","geometry":{"type":"Polygon","coordinates":[[[-65.42851,-18.5389],[-65.42835,-18.53928],[-65.42839,-18.53959],[-65.42864,-18.53973],[-65.42872,-18.53968],[-65.42876,-18.5392],[-65.42912,-18.53881],[-65.429,-18.53868],[-65.42851,-18.5389]]]},"properties":{"n":"POROMA","p":20,"personas_x_ha":45,"masculinidad":54,"pct_menor20":55,"pct_60mas":0,"pct_migrante":5,"dependencia_econ":233,"pct_empleados":0,"pct_cuentapropia":50,"pct_agricultura":83,"pct_comercio":0,"pct_manufactura":0,"pct_construccion":0,"pct_transporte":0,"pct_alojamiento":0,"pct_sin_educacion":0,"pct_educ_superior":0,"brecha_educ":17,"pct_sin_seguro":15,"pct_sus":85,"pct_seguro_privado":0,"brecha_seguro":-23,"pct_salud_publica":32,"pct_med_tradicional":14,"pct_automedicacion":12,"pct_remedios_caseros":25,"pct_viv_desocupada":0,"pct_alquiler":0,"pct_electricidad":67,"pct_sin_electricidad":11,"pct_agua_red":78,"pct_alcantarillado":11,"pct_camara_septica":0,"pct_pozo_ciego":22,"pct_sin_desague":33,"pct_gas_red":0,"pct_gas_garrafa":89,"pct_lena_guano":89,"pct_basura_formal":67,"pct_basura_quema":33,"pct_basura_informal":0,"pct_internet":89,"pct_celular":100,"pct_televisor":44}},{"type":"Feature","geometry":{"type":"Polygon","coordinates":[[[-65.42512,-18.53792],[-65.42475,-18.53794],[-65.42389,-18.53849],[-65.42475,-18.53955],[-65.42552,-18.53901],[-65.42512,-18.53792]]]},"properties":{"n":"POROMA","p":26,"personas_x_ha":14,"masculinidad":117,"pct_menor20":42,"pct_60mas":8,"pct_migrante":27,"dependencia_econ":86,"pct_empleados":21,"pct_cuentapropia":50,"pct_agricultura":57,"pct_comercio":7,"pct_manufactura":0,"pct_construccion":0,"pct_transporte":7,"pct_alojamiento":0,"pct_sin_educacion":0,"pct_educ_superior":31,"brecha_educ":-23,"pct_sin_seguro":4,"pct_sus":88,"pct_seguro_privado":0,"brecha_seguro":7,"pct_salud_publica":30,"pct_med_tradicional":13,"pct_automedicacion":13,"pct_remedios_caseros":28,"pct_viv_desocupada":10,"pct_alquiler":17,"pct_electricidad":100,"pct_sin_electricidad":0,"pct_agua_red":92,"pct_alcantarillado":67,"pct_camara_septica":0,"pct_pozo_ciego":17,"pct_sin_desague":17,"pct_gas_red":0,"pct_gas_garrafa":67,"pct_lena_guano":67,"pct_basura_formal":83,"pct_basura_quema":17,"pct_basura_informal":0,"pct_internet":67,"pct_celular":83,"pct_televisor":42}},{"type":"Feature","geometry":{"type":"Polygon","coordinates":[[[-65.42668,-18.53911],[-65.42597,-18.53955],[-65.42569,-18.5392],[-65.42563,-18.53893],[-65.42583,-18.53879],[-65.42573,-18.53863],[-65.42624,-18.53831],[-65.42639,-18.53874],[-65.42659,-18.53874],[-65.42668,-18.53911]]]},"properties":{"n":"POROMA","p":28,"personas_x_ha":33,"masculinidad":75,"pct_menor20":39,"pct_60mas":7,"pct_migrante":68,"dependencia_econ":115,"pct_empleados":69,"pct_cuentapropia":15,"pct_agricultura":0,"pct_comercio":0,"pct_manufactura":0,"pct_construccion":0,"pct_transporte":0,"pct_alojamiento":23,"pct_sin_educacion":0,"pct_educ_superior":50,"brecha_educ":-13,"pct_sin_seguro":11,"pct_sus":25,"pct_seguro_privado":0,"brecha_seguro":-4,"pct_salud_publica":20,"pct_med_tradicional":12,"pct_automedicacion":14,"pct_remedios_caseros":26,"pct_viv_desocupada":0,"pct_alquiler":58,"pct_electricidad":100,"pct_sin_electricidad":0,"pct_agua_red":100,"pct_alcantarillado":75,"pct_camara_septica":0,"pct_pozo_ciego":25,"pct_sin_desague":0,"pct_gas_red":0,"pct_gas_garrafa":100,"pct_lena_guano":100,"pct_basura_formal":100,"pct_basura_quema":0,"pct_basura_informal":0,"pct_internet":100,"pct_celular":100,"pct_televisor":83}},{"type":"Feature","geometry":{"type":"Polygon","coordinates":[[[-65.42528,-18.54035],[-65.42514,-18.54031],[-65.42444,-18.54062],[-65.42429,-18.54035],[-65.4254,-18.5398],[-65.42544,-18.54058],[-65.42535,-18.54058],[-65.42528,-18.54035]]]},"properties":{"n":"POROMA","p":47,"personas_x_ha":86,"masculinidad":135,"pct_menor20":43,"pct_60mas":15,"pct_migrante":9,"dependencia_econ":81,"pct_empleados":27,"pct_cuentapropia":62,"pct_agricultura":46,"pct_comercio":4,"pct_manufactura":8,"pct_construccion":4,"pct_transporte":0,"pct_alojamiento":15,"pct_sin_educacion":11,"pct_educ_superior":26,"brecha_educ":-40,"pct_sin_seguro":2,"pct_sus":98,"pct_seguro_privado":0,"brecha_seguro":4,"pct_salud_publica":31,"pct_med_tradicional":12,"pct_automedicacion":11,"pct_remedios_caseros":20,"pct_viv_desocupada":0,"pct_alquiler":9,"pct_electricidad":86,"pct_sin_electricidad":9,"pct_agua_red":77,"pct_alcantarillado":68,"pct_camara_septica":5,"pct_pozo_ciego":0,"pct_sin_desague":27,"pct_gas_red":0,"pct_gas_garrafa":59,"pct_lena_guano":59,"pct_basura_formal":50,"pct_basura_quema":36,"pct_basura_informal":0,"pct_internet":50,"pct_celular":68,"pct_televisor":32}},{"type":"Feature","geometry":{"type":"Polygon","coordinates":[[[-65.42572,-18.53947],[-65.42553,-18.53906],[-65.42488,-18.53955],[-65.42434,-18.53977],[-65.4239,-18.54014],[-65.42402,-18.54037],[-65.42502,-18.53984],[-65.42546,-18.53969],[-65.42545,-18.5396],[-65.42572,-18.53947]]]},"properties":{"n":"POROMA","p":73,"personas_x_ha":88,"masculinidad":92,"pct_menor20":37,"pct_60mas":21,"pct_migrante":45,"dependencia_econ":112,"pct_empleados":32,"pct_cuentapropia":32,"pct_agricultura":24,"pct_comercio":9,"pct_manufactura":3,"pct_construccion":9,"pct_transporte":0,"pct_alojamiento":3,"pct_sin_educacion":18,"pct_educ_superior":36,"brecha_educ":-32,"pct_sin_seguro":0,"pct_sus":59,"pct_seguro_privado":0,"brecha_seguro":0,"pct_salud_publica":34,"pct_med_tradicional":18,"pct_automedicacion":5,"pct_remedios_caseros":25,"pct_viv_desocupada":7,"pct_alquiler":21,"pct_electricidad":97,"pct_sin_electricidad":3,"pct_agua_red":97,"pct_alcantarillado":69,"pct_camara_septica":0,"pct_pozo_ciego":3,"pct_sin_desague":24,"pct_gas_red":0,"pct_gas_garrafa":66,"pct_lena_guano":69,"pct_basura_formal":69,"pct_basura_quema":7,"pct_basura_informal":0,"pct_internet":72,"pct_celular":83,"pct_televisor":59}},{"type":"Feature","geometry":{"type":"Polygon","coordinates":[[[-65.42806,-18.53845],[-65.42748,-18.53806],[-65.42707,-18.53829],[-65.42733,-18.53885],[-65.42805,-18.53861],[-65.42806,-18.53845]]]},"properties":{"n":"POROMA","p":26,"personas_x_ha":48,"masculinidad":86,"pct_menor20":42,"pct_60mas":12,"pct_migrante":69,"dependencia_econ":100,"pct_empleados":54,"pct_cuentapropia":23,"pct_agricultura":15,"pct_comercio":8,"pct_manufactura":0,"pct_construccion":8,"pct_transporte":8,"pct_alojamiento":0,"pct_sin_educacion":6,"pct_educ_superior":56,"brecha_educ":-3,"pct_sin_seguro":0,"pct_sus":96,"pct_seguro_privado":0,"brecha_seguro":0,"pct_salud_publica":25,"pct_med_tradicional":21,"pct_automedicacion":17,"pct_remedios_caseros":21,"pct_viv_desocupada":0,"pct_alquiler":55,"pct_electricidad":100,"pct_sin_electricidad":0,"pct_agua_red":100,"pct_alcantarillado":91,"pct_camara_septica":0,"pct_pozo_ciego":0,"pct_sin_desague":9,"pct_gas_red":0,"pct_gas_garrafa":91,"pct_lena_guano":91,"pct_basura_formal":91,"pct_basura_quema":0,"pct_basura_informal":0,"pct_internet":91,"pct_celular":91,"pct_televisor":73}},{"type":"Feature","geometry":{"type":"Polygon","coordinates":[[[-65.43052,-18.53823],[-65.43038,-18.53858],[-65.43059,-18.53869],[-65.43083,-18.53785],[-65.43105,-18.53763],[-65.43122,-18.53757],[-65.43109,-18.53722],[-65.43085,-18.53724],[-65.43072,-18.53736],[-65.43054,-18.5379],[-65.43052,-18.53823]]]},"properties":{"n":"POROMA","p":45,"personas_x_ha":84,"masculinidad":88,"pct_menor20":58,"pct_60mas":9,"pct_migrante":7,"dependencia_econ":450,"pct_empleados":38,"pct_cuentapropia":50,"pct_agricultura":50,"pct_comercio":12,"pct_manufactura":0,"pct_construccion":25,"pct_transporte":0,"pct_alojamiento":0,"pct_sin_educacion":16,"pct_educ_superior":5,"brecha_educ":-32,"pct_sin_seguro":2,"pct_sus":98,"pct_seguro_privado":0,"brecha_seguro":5,"pct_salud_publica":36,"pct_med_tradicional":10,"pct_automedicacion":17,"pct_remedios_caseros":33,"pct_viv_desocupada":0,"pct_alquiler":0,"pct_electricidad":100,"pct_sin_electricidad":0,"pct_agua_red":100,"pct_alcantarillado":0,"pct_camara_septica":12,"pct_pozo_ciego":62,"pct_sin_desague":25,"pct_gas_red":0,"pct_gas_garrafa":56,"pct_lena_guano":56,"pct_basura_formal":31,"pct_basura_quema":69,"pct_basura_informal":0,"pct_internet":94,"pct_celular":94,"pct_televisor":69}},{"type":"Feature","geometry":{"type":"Polygon","coordinates":[[[-65.42872,-18.53711],[-65.42991,-18.53644],[-65.42979,-18.53616],[-65.42858,-18.53692],[-65.42872,-18.53711]]]},"properties":{"n":"POROMA","p":27,"personas_x_ha":62,"masculinidad":108,"pct_menor20":52,"pct_60mas":4,"pct_migrante":11,"dependencia_econ":125,"pct_empleados":8,"pct_cuentapropia":58,"pct_agricultura":75,"pct_comercio":0,"pct_manufactura":0,"pct_construccion":0,"pct_transporte":0,"pct_alojamiento":0,"pct_sin_educacion":0,"pct_educ_superior":15,"brecha_educ":7,"pct_sin_seguro":0,"pct_sus":96,"pct_seguro_privado":0,"brecha_seguro":0,"pct_salud_publica":28,"pct_med_tradicional":22,"pct_automedicacion":20,"pct_remedios_caseros":23,"pct_viv_desocupada":7,"pct_alquiler":11,"pct_electricidad":89,"pct_sin_electricidad":11,"pct_agua_red":78,"pct_alcantarillado":0,"pct_camara_septica":0,"pct_pozo_ciego":44,"pct_sin_desague":56,"pct_gas_red":0,"pct_gas_garrafa":56,"pct_lena_guano":56,"pct_basura_formal":78,"pct_basura_quema":11,"pct_basura_informal":22,"pct_internet":78,"pct_celular":78,"pct_televisor":78}},{"type":"Feature","geometry":{"type":"Polygon","coordinates":[[[-65.42845,-18.53887],[-65.42897,-18.53863],[-65.42884,-18.53835],[-65.42829,-18.53863],[-65.42831,-18.53916],[-65.42845,-18.53887]]]},"properties":{"n":"POROMA","p":41,"personas_x_ha":156,"masculinidad":128,"pct_menor20":44,"pct_60mas":10,"pct_migrante":12,"dependencia_econ":86,"pct_empleados":18,"pct_cuentapropia":45,"pct_agricultura":36,"pct_comercio":9,"pct_manufactura":0,"pct_construccion":23,"pct_transporte":5,"pct_alojamiento":5,"pct_sin_educacion":12,"pct_educ_superior":8,"brecha_educ":-25,"pct_sin_seguro":7,"pct_sus":90,"pct_seguro_privado":0,"brecha_seguro":3,"pct_salud_publica":36,"pct_med_tradicional":18,"pct_automedicacion":11,"pct_remedios_caseros":34,"pct_viv_desocupada":0,"pct_alquiler":12,"pct_electricidad":88,"pct_sin_electricidad":12,"pct_agua_red":94,"pct_alcantarillado":71,"pct_camara_septica":0,"pct_pozo_ciego":0,"pct_sin_desague":29,"pct_gas_red":0,"pct_gas_garrafa":53,"pct_lena_guano":53,"pct_basura_formal":76,"pct_basura_quema":24,"pct_basura_informal":0,"pct_internet":59,"pct_celular":71,"pct_televisor":18}},{"type":"Feature","geometry":{"type":"Polygon","coordinates":[[[-65.42767,-18.54073],[-65.42725,-18.54009],[-65.42701,-18.5409],[-65.42721,-18.54091],[-65.42767,-18.54073]]]},"properties":{"n":"POROMA","p":19,"personas_x_ha":59,"masculinidad":138,"pct_menor20":42,"pct_60mas":11,"pct_migrante":16,"dependencia_econ":90,"pct_empleados":20,"pct_cuentapropia":40,"pct_agricultura":60,"pct_comercio":0,"pct_manufactura":10,"pct_construccion":10,"pct_transporte":0,"pct_alojamiento":0,"pct_sin_educacion":33,"pct_educ_superior":8,"brecha_educ":-3,"pct_sin_seguro":5,"pct_sus":89,"pct_seguro_privado":0,"brecha_seguro":9,"pct_salud_publica":26,"pct_med_tradicional":25,"pct_automedicacion":11,"pct_remedios_caseros":30,"pct_viv_desocupada":0,"pct_alquiler":14,"pct_electricidad":100,"pct_sin_electricidad":0,"pct_agua_red":14,"pct_alcantarillado":43,"pct_camara_septica":0,"pct_pozo_ciego":0,"pct_sin_desague":57,"pct_gas_red":0,"pct_gas_garrafa":14,"pct_lena_guano":14,"pct_basura_formal":14,"pct_basura_quema":71,"pct_basura_informal":0,"pct_internet":57,"pct_celular":100,"pct_televisor":57}},{"type":"Feature","geometry":{"type":"Polygon","coordinates":[[[-65.31134,-18.73352],[-65.31188,-18.73296],[-65.31178,-18.73287],[-65.31117,-18.73336],[-65.31134,-18.73352]]]},"properties":{"n":"SAN JUAN DE ORCAS","p":33,"personas_x_ha":193,"masculinidad":120,"pct_menor20":48,"pct_60mas":3,"pct_migrante":9,"dependencia_econ":131,"pct_empleados":54,"pct_cuentapropia":38,"pct_agricultura":69,"pct_comercio":8,"pct_manufactura":0,"pct_construccion":0,"pct_transporte":15,"pct_alojamiento":0,"pct_sin_educacion":6,"pct_educ_superior":6,"brecha_educ":-6,"pct_sin_seguro":0,"pct_sus":100,"pct_seguro_privado":0,"brecha_seguro":0,"pct_salud_publica":36,"pct_med_tradicional":33,"pct_automedicacion":1,"pct_remedios_caseros":30,"pct_viv_desocupada":7,"pct_alquiler":0,"pct_electricidad":90,"pct_sin_electricidad":0,"pct_agua_red":70,"pct_alcantarillado":0,"pct_camara_septica":0,"pct_pozo_ciego":0,"pct_sin_desague":70,"pct_gas_red":0,"pct_gas_garrafa":70,"pct_lena_guano":70,"pct_basura_formal":0,"pct_basura_quema":100,"pct_basura_informal":0,"pct_internet":0,"pct_celular":60,"pct_televisor":20}},{"type":"Feature","geometry":{"type":"Polygon","coordinates":[[[-65.31328,-18.73253],[-65.31305,-18.73193],[-65.31335,-18.7317],[-65.31357,-18.73228],[-65.31328,-18.73253]]]},"properties":{"n":"SAN JUAN DE ORCAS","p":16,"personas_x_ha":59,"masculinidad":60,"pct_menor20":56,"pct_60mas":12,"pct_migrante":0,"dependencia_econ":129,"pct_empleados":0,"pct_cuentapropia":57,"pct_agricultura":71,"pct_comercio":0,"pct_manufactura":0,"pct_construccion":14,"pct_transporte":0,"pct_alojamiento":0,"pct_sin_educacion":25,"pct_educ_superior":0,"brecha_educ":-50,"pct_sin_seguro":6,"pct_sus":94,"pct_seguro_privado":0,"brecha_seguro":17,"pct_salud_publica":41,"pct_med_tradicional":17,"pct_automedicacion":3,"pct_remedios_caseros":34,"pct_viv_desocupada":21,"pct_alquiler":0,"pct_electricidad":91,"pct_sin_electricidad":9,"pct_agua_red":55,"pct_alcantarillado":9,"pct_camara_septica":0,"pct_pozo_ciego":0,"pct_sin_desague":91,"pct_gas_red":0,"pct_gas_garrafa":73,"pct_lena_guano":73,"pct_basura_formal":0,"pct_basura_quema":82,"pct_basura_informal":36,"pct_internet":9,"pct_celular":64,"pct_televisor":9}},{"type":"Feature","geometry":{"type":"Polygon","coordinates":[[[-65.31361,-18.73184],[-65.31376,-18.73197],[-65.314,-18.73169],[-65.31369,-18.73142],[-65.3134,-18.73166],[-65.3136,-18.73183],[-65.31368,-18.73174],[-65.31361,-18.73184]]]},"properties":{"n":"SAN JUAN DE ORCAS","p":18,"personas_x_ha":96,"masculinidad":50,"pct_menor20":56,"pct_60mas":11,"pct_migrante":22,"dependencia_econ":500,"pct_empleados":0,"pct_cuentapropia":100,"pct_agricultura":100,"pct_comercio":0,"pct_manufactura":0,"pct_construccion":0,"pct_transporte":0,"pct_alojamiento":0,"pct_sin_educacion":0,"pct_educ_superior":0,"brecha_educ":80,"pct_sin_seguro":0,"pct_sus":100,"pct_seguro_privado":0,"brecha_seguro":0,"pct_salud_publica":33,"pct_med_tradicional":33,"pct_automedicacion":0,"pct_remedios_caseros":33,"pct_viv_desocupada":0,"pct_alquiler":0,"pct_electricidad":88,"pct_sin_electricidad":12,"pct_agua_red":100,"pct_alcantarillado":0,"pct_camara_septica":12,"pct_pozo_ciego":0,"pct_sin_desague":88,"pct_gas_red":0,"pct_gas_garrafa":62,"pct_lena_guano":62,"pct_basura_formal":0,"pct_basura_quema":100,"pct_basura_informal":0,"pct_internet":75,"pct_celular":62,"pct_televisor":25}},{"type":"Feature","geometry":{"type":"Polygon","coordinates":[[[-65.31246,-18.73249],[-65.31262,-18.73263],[-65.3125,-18.73319],[-65.3124,-18.73328],[-65.31203,-18.733],[-65.31246,-18.73249]]]},"properties":{"n":"SAN JUAN DE ORCAS","p":17,"personas_x_ha":59,"masculinidad":89,"pct_menor20":41,"pct_60mas":24,"pct_migrante":0,"dependencia_econ":112,"pct_empleados":12,"pct_cuentapropia":75,"pct_agricultura":88,"pct_comercio":0,"pct_manufactura":12,"pct_construccion":0,"pct_transporte":0,"pct_alojamiento":0,"pct_sin_educacion":20,"pct_educ_superior":10,"brecha_educ":17,"pct_sin_seguro":6,"pct_sus":94,"pct_seguro_privado":0,"brecha_seguro":-11,"pct_salud_publica":37,"pct_med_tradicional":26,"pct_automedicacion":0,"pct_remedios_caseros":37,"pct_viv_desocupada":7,"pct_alquiler":0,"pct_electricidad":80,"pct_sin_electricidad":20,"pct_agua_red":80,"pct_alcantarillado":10,"pct_camara_septica":0,"pct_pozo_ciego":80,"pct_sin_desague":10,"pct_gas_red":0,"pct_gas_garrafa":70,"pct_lena_guano":70,"pct_basura_formal":0,"pct_basura_quema":100,"pct_basura_informal":0,"pct_internet":60,"pct_celular":80,"pct_televisor":40}},{"type":"Feature","geometry":{"type":"Polygon","coordinates":[[[-65.3111,-18.73339],[-65.31035,-18.7339],[-65.31035,-18.73392],[-65.31086,-18.73388],[-65.31128,-18.73357],[-65.3111,-18.73339]]]},"properties":{"n":"SAN JUAN DE ORCAS","p":30,"personas_x_ha":131,"masculinidad":76,"pct_menor20":57,"pct_60mas":10,"pct_migrante":27,"dependencia_econ":67,"pct_empleados":33,"pct_cuentapropia":61,"pct_agricultura":44,"pct_comercio":0,"pct_manufactura":0,"pct_construccion":11,"pct_transporte":0,"pct_alojamiento":0,"pct_sin_educacion":14,"pct_educ_superior":21,"brecha_educ":-7,"pct_sin_seguro":0,"pct_sus":100,"pct_seguro_privado":0,"brecha_seguro":0,"pct_salud_publica":39,"pct_med_tradicional":16,"pct_automedicacion":0,"pct_remedios_caseros":25,"pct_viv_desocupada":0,"pct_alquiler":11,"pct_electricidad":100,"pct_sin_electricidad":0,"pct_agua_red":78,"pct_alcantarillado":11,"pct_camara_septica":11,"pct_pozo_ciego":44,"pct_sin_desague":33,"pct_gas_red":0,"pct_gas_garrafa":33,"pct_lena_guano":33,"pct_basura_formal":0,"pct_basura_quema":100,"pct_basura_informal":0,"pct_internet":78,"pct_celular":78,"pct_televisor":33}},{"type":"Feature","geometry":{"type":"Polygon","coordinates":[[[-65.3117,-18.73391],[-65.31138,-18.73364],[-65.31093,-18.73395],[-65.31116,-18.73401],[-65.3117,-18.73391]]]},"properties":{"n":"SAN JUAN DE ORCAS","p":20,"personas_x_ha":111,"masculinidad":82,"pct_menor20":25,"pct_60mas":10,"pct_migrante":35,"dependencia_econ":67,"pct_empleados":42,"pct_cuentapropia":50,"pct_agricultura":42,"pct_comercio":17,"pct_manufactura":8,"pct_construccion":0,"pct_transporte":8,"pct_alojamiento":0,"pct_sin_educacion":0,"pct_educ_superior":13,"brecha_educ":-71,"pct_sin_seguro":30,"pct_sus":60,"pct_seguro_privado":0,"brecha_seguro":6,"pct_salud_publica":29,"pct_med_tradicional":7,"pct_automedicacion":27,"pct_remedios_caseros":30,"pct_viv_desocupada":0,"pct_alquiler":0,"pct_electricidad":100,"pct_sin_electricidad":0,"pct_agua_red":100,"pct_alcantarillado":10,"pct_camara_septica":10,"pct_pozo_ciego":60,"pct_sin_desague":20,"pct_gas_red":0,"pct_gas_garrafa":80,"pct_lena_guano":80,"pct_basura_formal":0,"pct_basura_quema":90,"pct_basura_informal":20,"pct_internet":60,"pct_celular":90,"pct_televisor":60}},{"type":"Feature","geometry":{"type":"Polygon","coordinates":[[[-65.27778,-18.7245],[-65.27757,-18.72417],[-65.27629,-18.72471],[-65.27639,-18.72485],[-65.27703,-18.72494],[-65.27778,-18.7245]]]},"properties":{"n":"SAPSE","p":27,"personas_x_ha":40,"masculinidad":59,"pct_menor20":37,"pct_60mas":15,"pct_migrante":11,"dependencia_econ":93,"pct_empleados":0,"pct_cuentapropia":64,"pct_agricultura":57,"pct_comercio":7,"pct_manufactura":0,"pct_construccion":0,"pct_transporte":0,"pct_alojamiento":0,"pct_sin_educacion":6,"pct_educ_superior":6,"brecha_educ":-53,"pct_sin_seguro":30,"pct_sus":65,"pct_seguro_privado":0,"brecha_seguro":-13,"pct_salud_publica":57,"pct_med_tradicional":10,"pct_automedicacion":5,"pct_remedios_caseros":24,"pct_viv_desocupada":18,"pct_alquiler":0,"pct_electricidad":92,"pct_sin_electricidad":8,"pct_agua_red":92,"pct_alcantarillado":0,"pct_camara_septica":15,"pct_pozo_ciego":31,"pct_sin_desague":54,"pct_gas_red":0,"pct_gas_garrafa":8,"pct_lena_guano":8,"pct_basura_formal":8,"pct_basura_quema":85,"pct_basura_informal":15,"pct_internet":15,"pct_celular":62,"pct_televisor":15}},{"type":"Feature","geometry":{"type":"Polygon","coordinates":[[[-65.27743,-18.72533],[-65.27781,-18.72502],[-65.2777,-18.72464],[-65.27705,-18.72498],[-65.2772,-18.7252],[-65.27743,-18.72533]]]},"properties":{"n":"SAPSE","p":17,"personas_x_ha":52,"masculinidad":89,"pct_menor20":24,"pct_60mas":18,"pct_migrante":35,"dependencia_econ":31,"pct_empleados":31,"pct_cuentapropia":54,"pct_agricultura":38,"pct_comercio":8,"pct_manufactura":8,"pct_construccion":0,"pct_transporte":0,"pct_alojamiento":0,"pct_sin_educacion":8,"pct_educ_superior":15,"brecha_educ":38,"pct_sin_seguro":0,"pct_sus":88,"pct_seguro_privado":0,"brecha_seguro":0,"pct_salud_publica":88,"pct_med_tradicional":0,"pct_automedicacion":0,"pct_remedios_caseros":0,"pct_viv_desocupada":0,"pct_alquiler":0,"pct_electricidad":71,"pct_sin_electricidad":29,"pct_agua_red":86,"pct_alcantarillado":14,"pct_camara_septica":0,"pct_pozo_ciego":29,"pct_sin_desague":43,"pct_gas_red":0,"pct_gas_garrafa":0,"pct_lena_guano":0,"pct_basura_formal":0,"pct_basura_quema":86,"pct_basura_informal":0,"pct_internet":57,"pct_celular":71,"pct_televisor":14}},{"type":"Feature","geometry":{"type":"Polygon","coordinates":[[[-65.27821,-18.72411],[-65.27801,-18.72394],[-65.27785,-18.72403],[-65.27803,-18.72426],[-65.27821,-18.72411]]]},"properties":{"n":"SAPSE","p":16,"personas_x_ha":241,"masculinidad":78,"pct_menor20":44,"pct_60mas":6,"pct_migrante":25,"dependencia_econ":33,"pct_empleados":25,"pct_cuentapropia":50,"pct_agricultura":42,"pct_comercio":0,"pct_manufactura":17,"pct_construccion":8,"pct_transporte":0,"pct_alojamiento":8,"pct_sin_educacion":10,"pct_educ_superior":40,"brecha_educ":-33,"pct_sin_seguro":0,"pct_sus":88,"pct_seguro_privado":0,"brecha_seguro":0,"pct_salud_publica":25,"pct_med_tradicional":14,"pct_automedicacion":20,"pct_remedios_caseros":25,"pct_viv_desocupada":0,"pct_alquiler":0,"pct_electricidad":50,"pct_sin_electricidad":50,"pct_agua_red":25,"pct_alcantarillado":0,"pct_camara_septica":0,"pct_pozo_ciego":0,"pct_sin_desague":100,"pct_gas_red":0,"pct_gas_garrafa":50,"pct_lena_guano":50,"pct_basura_formal":0,"pct_basura_quema":100,"pct_basura_informal":0,"pct_internet":75,"pct_celular":75,"pct_televisor":25}},{"type":"Feature","geometry":{"type":"Polygon","coordinates":[[[-65.27799,-18.72389],[-65.2764,-18.72458],[-65.27614,-18.72476],[-65.276,-18.72465],[-65.27648,-18.72424],[-65.27697,-18.72408],[-65.2774,-18.72362],[-65.27752,-18.72332],[-65.27799,-18.72389]]]},"properties":{"n":"SAPSE","p":38,"personas_x_ha":45,"masculinidad":111,"pct_menor20":50,"pct_60mas":5,"pct_migrante":18,"dependencia_econ":322,"pct_empleados":0,"pct_cuentapropia":78,"pct_agricultura":89,"pct_comercio":0,"pct_manufactura":11,"pct_construccion":0,"pct_transporte":0,"pct_alojamiento":0,"pct_sin_educacion":15,"pct_educ_superior":0,"brecha_educ":-15,"pct_sin_seguro":11,"pct_sus":89,"pct_seguro_privado":0,"brecha_seguro":-1,"pct_salud_publica":34,"pct_med_tradicional":14,"pct_automedicacion":13,"pct_remedios_caseros":36,"pct_viv_desocupada":0,"pct_alquiler":0,"pct_electricidad":67,"pct_sin_electricidad":8,"pct_agua_red":67,"pct_alcantarillado":8,"pct_camara_septica":0,"pct_pozo_ciego":0,"pct_sin_desague":92,"pct_gas_red":0,"pct_gas_garrafa":17,"pct_lena_guano":17,"pct_basura_formal":0,"pct_basura_quema":100,"pct_basura_informal":0,"pct_internet":58,"pct_celular":92,"pct_televisor":25}},{"type":"Feature","geometry":{"type":"Polygon","coordinates":[[[-65.27836,-18.72392],[-65.27784,-18.72344],[-65.27773,-18.72351],[-65.27811,-18.72397],[-65.27846,-18.72418],[-65.27901,-18.72419],[-65.27908,-18.72405],[-65.27895,-18.72396],[-65.27861,-18.72401],[-65.27836,-18.72392]]]},"properties":{"n":"SAPSE","p":19,"personas_x_ha":59,"masculinidad":73,"pct_menor20":53,"pct_60mas":11,"pct_migrante":5,"dependencia_econ":171,"pct_empleados":29,"pct_cuentapropia":43,"pct_agricultura":43,"pct_comercio":0,"pct_manufactura":29,"pct_construccion":29,"pct_transporte":0,"pct_alojamiento":0,"pct_sin_educacion":33,"pct_educ_superior":0,"brecha_educ":-67,"pct_sin_seguro":0,"pct_sus":100,"pct_seguro_privado":0,"brecha_seguro":0,"pct_salud_publica":47,"pct_med_tradicional":5,"pct_automedicacion":11,"pct_remedios_caseros":34,"pct_viv_desocupada":20,"pct_alquiler":0,"pct_electricidad":83,"pct_sin_electricidad":17,"pct_agua_red":17,"pct_alcantarillado":0,"pct_camara_septica":0,"pct_pozo_ciego":50,"pct_sin_desague":50,"pct_gas_red":0,"pct_gas_garrafa":17,"pct_lena_guano":17,"pct_basura_formal":0,"pct_basura_quema":100,"pct_basura_informal":0,"pct_internet":67,"pct_celular":83,"pct_televisor":50}}]}