{"type":"FeatureCollection","features":[{"type":"Feature","geometry":{"type":"Polygon","coordinates":[[[-64.89345,-20.72149],[-64.89344,-20.72081],[-64.89189,-20.72082],[-64.89191,-20.72144],[-64.89345,-20.72149]]]},"properties":{"n":"CENTRO VILLA CHARCAS","p":21,"personas_x_ha":18,"masculinidad":62,"pct_menor20":43,"pct_60mas":14,"pct_migrante":43,"dependencia_econ":250,"pct_empleados":17,"pct_cuentapropia":83,"pct_agricultura":67,"pct_comercio":0,"pct_manufactura":17,"pct_construccion":17,"pct_transporte":0,"pct_alojamiento":0,"pct_sin_educacion":50,"pct_educ_superior":0,"brecha_educ":-12,"pct_sin_seguro":5,"pct_sus":95,"pct_seguro_privado":0,"brecha_seguro":-8,"pct_salud_publica":91,"pct_med_tradicional":0,"pct_automedicacion":5,"pct_remedios_caseros":5,"pct_viv_desocupada":0,"pct_alquiler":20,"pct_electricidad":40,"pct_sin_electricidad":60,"pct_agua_red":60,"pct_alcantarillado":0,"pct_camara_septica":0,"pct_pozo_ciego":0,"pct_sin_desague":100,"pct_gas_red":0,"pct_gas_garrafa":60,"pct_lena_guano":60,"pct_basura_formal":60,"pct_basura_quema":0,"pct_basura_informal":0,"pct_internet":60,"pct_celular":40,"pct_televisor":0}},{"type":"Feature","geometry":{"type":"Polygon","coordinates":[[[-64.89034,-20.72172],[-64.89025,-20.7208],[-64.88912,-20.7208],[-64.88909,-20.72154],[-64.8894,-20.72154],[-64.88963,-20.72166],[-64.88967,-20.72185],[-64.89034,-20.72172]]]},"properties":{"n":"CENTRO VILLA CHARCAS","p":24,"personas_x_ha":20,"masculinidad":85,"pct_menor20":46,"pct_60mas":8,"pct_migrante":29,"dependencia_econ":85,"pct_empleados":62,"pct_cuentapropia":38,"pct_agricultura":38,"pct_comercio":23,"pct_manufactura":0,"pct_construccion":23,"pct_transporte":0,"pct_alojamiento":0,"pct_sin_educacion":8,"pct_educ_superior":23,"brecha_educ":5,"pct_sin_seguro":4,"pct_sus":88,"pct_seguro_privado":0,"brecha_seguro":9,"pct_salud_publica":34,"pct_med_tradicional":30,"pct_automedicacion":14,"pct_remedios_caseros":17,"pct_viv_desocupada":0,"pct_alquiler":29,"pct_electricidad":100,"pct_sin_electricidad":0,"pct_agua_red":86,"pct_alcantarillado":100,"pct_camara_septica":0,"pct_pozo_ciego":0,"pct_sin_desague":0,"pct_gas_red":0,"pct_gas_garrafa":71,"pct_lena_guano":71,"pct_basura_formal":71,"pct_basura_quema":29,"pct_basura_informal":0,"pct_internet":71,"pct_celular":100,"pct_televisor":43}},{"type":"Feature","geometry":{"type":"Polygon","coordinates":[[[-64.89091,-20.72167],[-64.89028,-20.72184],[-64.89046,-20.72269],[-64.89106,-20.7227],[-64.89091,-20.72167]]]},"properties":{"n":"CENTRO VILLA CHARCAS","p":17,"personas_x_ha":24,"masculinidad":31,"pct_menor20":53,"pct_60mas":6,"pct_migrante":24,"dependencia_econ":70,"pct_empleados":0,"pct_cuentapropia":70,"pct_agricultura":50,"pct_comercio":20,"pct_manufactura":20,"pct_construccion":0,"pct_transporte":0,"pct_alojamiento":10,"pct_sin_educacion":9,"pct_educ_superior":0,"brecha_educ":-6,"pct_sin_seguro":18,"pct_sus":82,"pct_seguro_privado":0,"brecha_seguro":-23,"pct_salud_publica":29,"pct_med_tradicional":17,"pct_automedicacion":22,"pct_remedios_caseros":28,"pct_viv_desocupada":36,"pct_alquiler":0,"pct_electricidad":100,"pct_sin_electricidad":0,"pct_agua_red":0,"pct_alcantarillado":88,"pct_camara_septica":0,"pct_pozo_ciego":0,"pct_sin_desague":12,"pct_gas_red":0,"pct_gas_garrafa":100,"pct_lena_guano":100,"pct_basura_formal":100,"pct_basura_quema":0,"pct_basura_informal":0,"pct_internet":75,"pct_celular":88,"pct_televisor":38}},{"type":"Feature","geometry":{"type":"Polygon","coordinates":[[[-64.89021,-20.72185],[-64.88969,-20.72196],[-64.88984,-20.72265],[-64.89038,-20.72268],[-64.89021,-20.72185]]]},"properties":{"n":"CENTRO VILLA CHARCAS","p":29,"personas_x_ha":61,"masculinidad":142,"pct_menor20":45,"pct_60mas":3,"pct_migrante":17,"dependencia_econ":65,"pct_empleados":29,"pct_cuentapropia":59,"pct_agricultura":47,"pct_comercio":29,"pct_manufactura":18,"pct_construccion":0,"pct_transporte":0,"pct_alojamiento":6,"pct_sin_educacion":12,"pct_educ_superior":18,"brecha_educ":-30,"pct_sin_seguro":4,"pct_sus":96,"pct_seguro_privado":0,"brecha_seguro":6,"pct_salud_publica":35,"pct_med_tradicional":10,"pct_automedicacion":20,"pct_remedios_caseros":31,"pct_viv_desocupada":33,"pct_alquiler":25,"pct_electricidad":100,"pct_sin_electricidad":0,"pct_agua_red":100,"pct_alcantarillado":100,"pct_camara_septica":0,"pct_pozo_ciego":0,"pct_sin_desague":0,"pct_gas_red":0,"pct_gas_garrafa":100,"pct_lena_guano":100,"pct_basura_formal":100,"pct_basura_quema":0,"pct_basura_informal":0,"pct_internet":88,"pct_celular":88,"pct_televisor":88}},{"type":"Feature","geometry":{"type":"Polygon","coordinates":[[[-64.88939,-20.72528],[-64.88886,-20.72525],[-64.88884,-20.72584],[-64.88895,-20.72585],[-64.88903,-20.72571],[-64.88936,-20.72563],[-64.88939,-20.72528]]]},"properties":{"n":"CENTRO VILLA CHARCAS","p":33,"personas_x_ha":119,"masculinidad":83,"pct_menor20":45,"pct_60mas":3,"pct_migrante":36,"dependencia_econ":120,"pct_empleados":40,"pct_cuentapropia":53,"pct_agricultura":53,"pct_comercio":27,"pct_manufactura":0,"pct_construccion":0,"pct_transporte":7,"pct_alojamiento":0,"pct_sin_educacion":6,"pct_educ_superior":33,"brecha_educ":2,"pct_sin_seguro":18,"pct_sus":82,"pct_seguro_privado":0,"brecha_seguro":3,"pct_salud_publica":26,"pct_med_tradicional":16,"pct_automedicacion":22,"pct_remedios_caseros":27,"pct_viv_desocupada":0,"pct_alquiler":44,"pct_electricidad":100,"pct_sin_electricidad":0,"pct_agua_red":78,"pct_alcantarillado":100,"pct_camara_septica":0,"pct_pozo_ciego":0,"pct_sin_desague":0,"pct_gas_red":0,"pct_gas_garrafa":100,"pct_lena_guano":100,"pct_basura_formal":100,"pct_basura_quema":0,"pct_basura_informal":0,"pct_internet":89,"pct_celular":89,"pct_televisor":78}},{"type":"Feature","geometry":{"type":"Polygon","coordinates":[[[-64.88894,-20.72263],[-64.88896,-20.72211],[-64.88832,-20.72218],[-64.8883,-20.72261],[-64.88894,-20.72263]]]},"properties":{"n":"CENTRO VILLA CHARCAS","p":22,"personas_x_ha":63,"masculinidad":57,"pct_menor20":45,"pct_60mas":9,"pct_migrante":41,"dependencia_econ":175,"pct_empleados":25,"pct_cuentapropia":50,"pct_agricultura":12,"pct_comercio":38,"pct_manufactura":25,"pct_construccion":0,"pct_transporte":0,"pct_alojamiento":12,"pct_sin_educacion":17,"pct_educ_superior":17,"brecha_educ":0,"pct_sin_seguro":32,"pct_sus":68,"pct_seguro_privado":0,"brecha_seguro":-30,"pct_salud_publica":33,"pct_med_tradicional":10,"pct_automedicacion":22,"pct_remedios_caseros":24,"pct_viv_desocupada":0,"pct_alquiler":43,"pct_electricidad":100,"pct_sin_electricidad":0,"pct_agua_red":100,"pct_alcantarillado":57,"pct_camara_septica":0,"pct_pozo_ciego":0,"pct_sin_desague":43,"pct_gas_red":0,"pct_gas_garrafa":100,"pct_lena_guano":100,"pct_basura_formal":100,"pct_basura_quema":0,"pct_basura_informal":0,"pct_internet":86,"pct_celular":86,"pct_televisor":57}},{"type":"Feature","geometry":{"type":"Polygon","coordinates":[[[-64.89237,-20.72621],[-64.89199,-20.72509],[-64.8906,-20.72526],[-64.8904,-20.72531],[-64.88919,-20.72661],[-64.88947,-20.72809],[-64.89011,-20.7288],[-64.89086,-20.7281],[-64.89032,-20.72757],[-64.89024,-20.72716],[-64.89035,-20.72755],[-64.89092,-20.7281],[-64.89015,-20.72881],[-64.89069,-20.72938],[-64.89122,-20.72902],[-64.89237,-20.72621]]]},"properties":{"n":"CENTRO VILLA CHARCAS","p":27,"personas_x_ha":3,"masculinidad":125,"pct_menor20":44,"pct_60mas":11,"pct_migrante":48,"dependencia_econ":93,"pct_empleados":14,"pct_cuentapropia":71,"pct_agricultura":57,"pct_comercio":7,"pct_manufactura":0,"pct_construccion":0,"pct_transporte":14,"pct_alojamiento":7,"pct_sin_educacion":13,"pct_educ_superior":13,"brecha_educ":-21,"pct_sin_seguro":22,"pct_sus":78,"pct_seguro_privado":0,"brecha_seguro":40,"pct_salud_publica":55,"pct_med_tradicional":6,"pct_automedicacion":12,"pct_remedios_caseros":27,"pct_viv_desocupada":0,"pct_alquiler":0,"pct_electricidad":86,"pct_sin_electricidad":14,"pct_agua_red":86,"pct_alcantarillado":57,"pct_camara_septica":0,"pct_pozo_ciego":0,"pct_sin_desague":43,"pct_gas_red":0,"pct_gas_garrafa":100,"pct_lena_guano":100,"pct_basura_formal":86,"pct_basura_quema":0,"pct_basura_informal":29,"pct_internet":86,"pct_celular":86,"pct_televisor":86}},{"type":"Feature","geometry":{"type":"Polygon","coordinates":[[[-64.8585,-20.63615],[-64.85863,-20.63612],[-64.85877,-20.6371],[-64.85842,-20.63723],[-64.85823,-20.63681],[-64.8585,-20.63615]]]},"properties":{"n":"PALCAPATA","p":19,"personas_x_ha":44,"masculinidad":73,"pct_menor20":53,"pct_60mas":0,"pct_migrante":5,"dependencia_econ":58,"pct_empleados":25,"pct_cuentapropia":25,"pct_agricultura":67,"pct_comercio":0,"pct_manufactura":17,"pct_construccion":8,"pct_transporte":0,"pct_alojamiento":0,"pct_sin_educacion":11,"pct_educ_superior":0,"brecha_educ":-30,"pct_sin_seguro":29,"pct_sus":71,"pct_seguro_privado":0,"brecha_seguro":-8,"pct_salud_publica":94,"pct_med_tradicional":0,"pct_automedicacion":0,"pct_remedios_caseros":6,"pct_viv_desocupada":25,"pct_alquiler":17,"pct_electricidad":67,"pct_sin_electricidad":33,"pct_agua_red":83,"pct_alcantarillado":0,"pct_camara_septica":0,"pct_pozo_ciego":0,"pct_sin_desague":100,"pct_gas_red":0,"pct_gas_garrafa":100,"pct_lena_guano":100,"pct_basura_formal":50,"pct_basura_quema":17,"pct_basura_informal":33,"pct_internet":50,"pct_celular":50,"pct_televisor":0}},{"type":"Feature","geometry":{"type":"Polygon","coordinates":[[[-64.859,-20.6386],[-64.8591,-20.63878],[-64.85986,-20.63841],[-64.85976,-20.63822],[-64.859,-20.6386]]]},"properties":{"n":"PALCAPATA","p":27,"personas_x_ha":131,"masculinidad":108,"pct_menor20":41,"pct_60mas":15,"pct_migrante":26,"dependencia_econ":108,"pct_empleados":15,"pct_cuentapropia":69,"pct_agricultura":77,"pct_comercio":0,"pct_manufactura":0,"pct_construccion":0,"pct_transporte":0,"pct_alojamiento":15,"pct_sin_educacion":6,"pct_educ_superior":0,"brecha_educ":-27,"pct_sin_seguro":33,"pct_sus":67,"pct_seguro_privado":0,"brecha_seguro":35,"pct_salud_publica":40,"pct_med_tradicional":0,"pct_automedicacion":27,"pct_remedios_caseros":33,"pct_viv_desocupada":0,"pct_alquiler":12,"pct_electricidad":100,"pct_sin_electricidad":0,"pct_agua_red":100,"pct_alcantarillado":12,"pct_camara_septica":0,"pct_pozo_ciego":50,"pct_sin_desague":12,"pct_gas_red":0,"pct_gas_garrafa":88,"pct_lena_guano":88,"pct_basura_formal":100,"pct_basura_quema":0,"pct_basura_informal":0,"pct_internet":75,"pct_celular":88,"pct_televisor":50}},{"type":"Feature","geometry":{"type":"Polygon","coordinates":[[[-64.86062,-20.63772],[-64.86125,-20.63739],[-64.86116,-20.63721],[-64.86096,-20.63711],[-64.86042,-20.63737],[-64.86062,-20.63772]]]},"properties":{"n":"PALCAPATA","p":32,"personas_x_ha":103,"masculinidad":88,"pct_menor20":34,"pct_60mas":0,"pct_migrante":9,"dependencia_econ":88,"pct_empleados":6,"pct_cuentapropia":71,"pct_agricultura":71,"pct_comercio":6,"pct_manufactura":12,"pct_construccion":0,"pct_transporte":0,"pct_alojamiento":0,"pct_sin_educacion":0,"pct_educ_superior":10,"brecha_educ":-5,"pct_sin_seguro":0,"pct_sus":100,"pct_seguro_privado":0,"brecha_seguro":0,"pct_salud_publica":30,"pct_med_tradicional":4,"pct_automedicacion":25,"pct_remedios_caseros":29,"pct_viv_desocupada":10,"pct_alquiler":11,"pct_electricidad":89,"pct_sin_electricidad":11,"pct_agua_red":100,"pct_alcantarillado":11,"pct_camara_septica":0,"pct_pozo_ciego":44,"pct_sin_desague":33,"pct_gas_red":0,"pct_gas_garrafa":89,"pct_lena_guano":89,"pct_basura_formal":100,"pct_basura_quema":0,"pct_basura_informal":0,"pct_internet":100,"pct_celular":100,"pct_televisor":44}},{"type":"Feature","geometry":{"type":"Polygon","coordinates":[[[-64.86063,-20.63847],[-64.86042,-20.63813],[-64.85994,-20.63837],[-64.85983,-20.63819],[-64.8606,-20.63781],[-64.86083,-20.63836],[-64.86063,-20.63847]]]},"properties":{"n":"PALCAPATA","p":20,"personas_x_ha":61,"masculinidad":100,"pct_menor20":30,"pct_60mas":25,"pct_migrante":10,"dependencia_econ":43,"pct_empleados":7,"pct_cuentapropia":79,"pct_agricultura":64,"pct_comercio":0,"pct_manufactura":0,"pct_construccion":0,"pct_transporte":7,"pct_alojamiento":0,"pct_sin_educacion":7,"pct_educ_superior":21,"brecha_educ":14,"pct_sin_seguro":5,"pct_sus":95,"pct_seguro_privado":0,"brecha_seguro":11,"pct_salud_publica":26,"pct_med_tradicional":8,"pct_automedicacion":26,"pct_remedios_caseros":26,"pct_viv_desocupada":18,"pct_alquiler":0,"pct_electricidad":100,"pct_sin_electricidad":0,"pct_agua_red":100,"pct_alcantarillado":0,"pct_camara_septica":14,"pct_pozo_ciego":71,"pct_sin_desague":14,"pct_gas_red":0,"pct_gas_garrafa":71,"pct_lena_guano":71,"pct_basura_formal":100,"pct_basura_quema":0,"pct_basura_informal":0,"pct_internet":86,"pct_celular":86,"pct_televisor":100}},{"type":"Feature","geometry":{"type":"Polygon","coordinates":[[[-64.8608,-20.63804],[-64.86107,-20.63791],[-64.86151,-20.63785],[-64.86163,-20.63803],[-64.86241,-20.63765],[-64.86241,-20.63747],[-64.86192,-20.63755],[-64.86118,-20.63754],[-64.86066,-20.63779],[-64.8608,-20.63804]]]},"properties":{"n":"PALCAPATA","p":49,"personas_x_ha":74,"masculinidad":133,"pct_menor20":47,"pct_60mas":0,"pct_migrante":14,"dependencia_econ":52,"pct_empleados":13,"pct_cuentapropia":68,"pct_agricultura":90,"pct_comercio":3,"pct_manufactura":0,"pct_construccion":0,"pct_transporte":0,"pct_alojamiento":3,"pct_sin_educacion":12,"pct_educ_superior":0,"brecha_educ":-31,"pct_sin_seguro":30,"pct_sus":70,"pct_seguro_privado":0,"brecha_seguro":-6,"pct_salud_publica":32,"pct_med_tradicional":9,"pct_automedicacion":22,"pct_remedios_caseros":21,"pct_viv_desocupada":7,"pct_alquiler":0,"pct_electricidad":91,"pct_sin_electricidad":0,"pct_agua_red":100,"pct_alcantarillado":0,"pct_camara_septica":45,"pct_pozo_ciego":55,"pct_sin_desague":0,"pct_gas_red":0,"pct_gas_garrafa":100,"pct_lena_guano":100,"pct_basura_formal":64,"pct_basura_quema":27,"pct_basura_informal":18,"pct_internet":64,"pct_celular":100,"pct_televisor":100}},{"type":"Feature","geometry":{"type":"Polygon","coordinates":[[[-64.86006,-20.63688],[-64.85938,-20.63554],[-64.85857,-20.63577],[-64.85878,-20.6365],[-64.85883,-20.63707],[-64.85881,-20.63729],[-64.85853,-20.6376],[-64.85871,-20.63815],[-64.86033,-20.63736],[-64.86008,-20.63692],[-64.8595,-20.63709],[-64.85949,-20.63704],[-64.86006,-20.63688]]]},"properties":{"n":"PALCAPATA","p":48,"personas_x_ha":16,"masculinidad":118,"pct_menor20":46,"pct_60mas":2,"pct_migrante":17,"dependencia_econ":92,"pct_empleados":16,"pct_cuentapropia":64,"pct_agricultura":88,"pct_comercio":0,"pct_manufactura":4,"pct_construccion":0,"pct_transporte":4,"pct_alojamiento":0,"pct_sin_educacion":8,"pct_educ_superior":0,"brecha_educ":-15,"pct_sin_seguro":17,"pct_sus":83,"pct_seguro_privado":0,"brecha_seguro":6,"pct_salud_publica":30,"pct_med_tradicional":8,"pct_automedicacion":27,"pct_remedios_caseros":25,"pct_viv_desocupada":7,"pct_alquiler":0,"pct_electricidad":100,"pct_sin_electricidad":0,"pct_agua_red":31,"pct_alcantarillado":0,"pct_camara_septica":8,"pct_pozo_ciego":69,"pct_sin_desague":8,"pct_gas_red":0,"pct_gas_garrafa":100,"pct_lena_guano":100,"pct_basura_formal":54,"pct_basura_quema":46,"pct_basura_informal":0,"pct_internet":100,"pct_celular":100,"pct_televisor":69}},{"type":"Feature","geometry":{"type":"Polygon","coordinates":[[[-64.85873,-20.63821],[-64.85891,-20.63855],[-64.86054,-20.63774],[-64.86036,-20.63741],[-64.85873,-20.63821]]]},"properties":{"n":"PALCAPATA","p":39,"personas_x_ha":49,"masculinidad":129,"pct_menor20":36,"pct_60mas":3,"pct_migrante":13,"dependencia_econ":44,"pct_empleados":4,"pct_cuentapropia":63,"pct_agricultura":93,"pct_comercio":0,"pct_manufactura":0,"pct_construccion":0,"pct_transporte":4,"pct_alojamiento":0,"pct_sin_educacion":4,"pct_educ_superior":12,"brecha_educ":19,"pct_sin_seguro":10,"pct_sus":82,"pct_seguro_privado":0,"brecha_seguro":-3,"pct_salud_publica":27,"pct_med_tradicional":22,"pct_automedicacion":14,"pct_remedios_caseros":29,"pct_viv_desocupada":0,"pct_alquiler":0,"pct_electricidad":91,"pct_sin_electricidad":9,"pct_agua_red":91,"pct_alcantarillado":0,"pct_camara_septica":0,"pct_pozo_ciego":91,"pct_sin_desague":9,"pct_gas_red":0,"pct_gas_garrafa":36,"pct_lena_guano":45,"pct_basura_formal":82,"pct_basura_quema":0,"pct_basura_informal":18,"pct_internet":64,"pct_celular":91,"pct_televisor":73}},{"type":"Feature","geometry":{"type":"Polygon","coordinates":[[[-64.85895,-20.6642],[-64.85867,-20.66352],[-64.8579,-20.66381],[-64.85812,-20.6645],[-64.85895,-20.6642]]]},"properties":{"n":"PUCARA","p":28,"personas_x_ha":38,"masculinidad":155,"pct_menor20":43,"pct_60mas":7,"pct_migrante":21,"dependencia_econ":62,"pct_empleados":19,"pct_cuentapropia":50,"pct_agricultura":38,"pct_comercio":25,"pct_manufactura":0,"pct_construccion":0,"pct_transporte":6,"pct_alojamiento":0,"pct_sin_educacion":0,"pct_educ_superior":18,"brecha_educ":-31,"pct_sin_seguro":54,"pct_sus":23,"pct_seguro_privado":0,"brecha_seguro":-26,"pct_salud_publica":21,"pct_med_tradicional":13,"pct_automedicacion":14,"pct_remedios_caseros":26,"pct_viv_desocupada":0,"pct_alquiler":0,"pct_electricidad":100,"pct_sin_electricidad":0,"pct_agua_red":70,"pct_alcantarillado":90,"pct_camara_septica":0,"pct_pozo_ciego":0,"pct_sin_desague":10,"pct_gas_red":0,"pct_gas_garrafa":100,"pct_lena_guano":100,"pct_basura_formal":90,"pct_basura_quema":10,"pct_basura_informal":0,"pct_internet":50,"pct_celular":80,"pct_televisor":80}},{"type":"Feature","geometry":{"type":"Polygon","coordinates":[[[-64.858,-20.66536],[-64.85784,-20.66497],[-64.85756,-20.66486],[-64.85725,-20.66453],[-64.85707,-20.66405],[-64.85776,-20.66386],[-64.85822,-20.66532],[-64.858,-20.66536]]]},"properties":{"n":"PUCARA","p":40,"personas_x_ha":45,"masculinidad":48,"pct_menor20":45,"pct_60mas":5,"pct_migrante":32,"dependencia_econ":56,"pct_empleados":36,"pct_cuentapropia":44,"pct_agricultura":52,"pct_comercio":8,"pct_manufactura":0,"pct_construccion":0,"pct_transporte":0,"pct_alojamiento":0,"pct_sin_educacion":5,"pct_educ_superior":45,"brecha_educ":-27,"pct_sin_seguro":21,"pct_sus":67,"pct_seguro_privado":0,"brecha_seguro":6,"pct_salud_publica":26,"pct_med_tradicional":15,"pct_automedicacion":15,"pct_remedios_caseros":23,"pct_viv_desocupada":0,"pct_alquiler":6,"pct_electricidad":94,"pct_sin_electricidad":6,"pct_agua_red":94,"pct_alcantarillado":76,"pct_camara_septica":12,"pct_pozo_ciego":6,"pct_sin_desague":6,"pct_gas_red":0,"pct_gas_garrafa":88,"pct_lena_guano":88,"pct_basura_formal":76,"pct_basura_quema":24,"pct_basura_informal":0,"pct_internet":82,"pct_celular":88,"pct_televisor":53}},{"type":"Feature","geometry":{"type":"Polygon","coordinates":[[[-64.85832,-20.66262],[-64.85794,-20.66173],[-64.85715,-20.6621],[-64.85754,-20.66293],[-64.85832,-20.66262]]]},"properties":{"n":"PUCARA","p":25,"personas_x_ha":27,"masculinidad":108,"pct_menor20":44,"pct_60mas":12,"pct_migrante":24,"dependencia_econ":39,"pct_empleados":0,"pct_cuentapropia":67,"pct_agricultura":78,"pct_comercio":0,"pct_manufactura":0,"pct_construccion":6,"pct_transporte":6,"pct_alojamiento":0,"pct_sin_educacion":14,"pct_educ_superior":0,"brecha_educ":-42,"pct_sin_seguro":0,"pct_sus":96,"pct_seguro_privado":4,"brecha_seguro":0,"pct_salud_publica":25,"pct_med_tradicional":5,"pct_automedicacion":20,"pct_remedios_caseros":25,"pct_viv_desocupada":0,"pct_alquiler":0,"pct_electricidad":100,"pct_sin_electricidad":0,"pct_agua_red":100,"pct_alcantarillado":100,"pct_camara_septica":0,"pct_pozo_ciego":0,"pct_sin_desague":0,"pct_gas_red":0,"pct_gas_garrafa":100,"pct_lena_guano":100,"pct_basura_formal":100,"pct_basura_quema":0,"pct_basura_informal":0,"pct_internet":75,"pct_celular":100,"pct_televisor":88}},{"type":"Feature","geometry":{"type":"Polygon","coordinates":[[[-64.85917,-20.67283],[-64.85898,-20.67278],[-64.85932,-20.67113],[-64.85924,-20.67029],[-64.85889,-20.66906],[-64.85899,-20.66901],[-64.86114,-20.67123],[-64.86015,-20.67182],[-64.85985,-20.67224],[-64.85951,-20.67222],[-64.85945,-20.67235],[-64.85932,-20.6724],[-64.85917,-20.67283]]]},"properties":{"n":"PUCARA","p":25,"personas_x_ha":6,"masculinidad":108,"pct_menor20":44,"pct_60mas":20,"pct_migrante":76,"dependencia_econ":56,"pct_empleados":25,"pct_cuentapropia":56,"pct_agricultura":62,"pct_comercio":12,"pct_manufactura":0,"pct_construccion":12,"pct_transporte":0,"pct_alojamiento":0,"pct_sin_educacion":7,"pct_educ_superior":29,"brecha_educ":29,"pct_sin_seguro":17,"pct_sus":58,"pct_seguro_privado":25,"brecha_seguro":-3,"pct_salud_publica":23,"pct_med_tradicional":19,"pct_automedicacion":14,"pct_remedios_caseros":24,"pct_viv_desocupada":12,"pct_alquiler":0,"pct_electricidad":100,"pct_sin_electricidad":0,"pct_agua_red":88,"pct_alcantarillado":62,"pct_camara_septica":0,"pct_pozo_ciego":12,"pct_sin_desague":12,"pct_gas_red":0,"pct_gas_garrafa":100,"pct_lena_guano":100,"pct_basura_formal":50,"pct_basura_quema":12,"pct_basura_informal":50,"pct_internet":75,"pct_celular":75,"pct_televisor":75}},{"type":"Feature","geometry":{"type":"Polygon","coordinates":[[[-64.85835,-20.66271],[-64.85758,-20.66301],[-64.85786,-20.66372],[-64.85863,-20.66344],[-64.85835,-20.66271]]]},"properties":{"n":"PUCARA","p":41,"personas_x_ha":55,"masculinidad":105,"pct_menor20":29,"pct_60mas":12,"pct_migrante":20,"dependencia_econ":52,"pct_empleados":0,"pct_cuentapropia":74,"pct_agricultura":85,"pct_comercio":7,"pct_manufactura":4,"pct_construccion":0,"pct_transporte":0,"pct_alojamiento":0,"pct_sin_educacion":13,"pct_educ_superior":7,"brecha_educ":13,"pct_sin_seguro":22,"pct_sus":76,"pct_seguro_privado":0,"brecha_seguro":4,"pct_salud_publica":45,"pct_med_tradicional":17,"pct_automedicacion":18,"pct_remedios_caseros":18,"pct_viv_desocupada":0,"pct_alquiler":23,"pct_electricidad":100,"pct_sin_electricidad":0,"pct_agua_red":92,"pct_alcantarillado":100,"pct_camara_septica":0,"pct_pozo_ciego":0,"pct_sin_desague":0,"pct_gas_red":0,"pct_gas_garrafa":85,"pct_lena_guano":85,"pct_basura_formal":85,"pct_basura_quema":0,"pct_basura_informal":31,"pct_internet":38,"pct_celular":77,"pct_televisor":46}},{"type":"Feature","geometry":{"type":"Polygon","coordinates":[[[-64.85578,-20.66021],[-64.85513,-20.66056],[-64.85595,-20.66168],[-64.8567,-20.66329],[-64.85738,-20.66299],[-64.85668,-20.66143],[-64.85578,-20.66021]]]},"properties":{"n":"PUCARA","p":51,"personas_x_ha":18,"masculinidad":132,"pct_menor20":41,"pct_60mas":10,"pct_migrante":31,"dependencia_econ":64,"pct_empleados":7,"pct_cuentapropia":89,"pct_agricultura":61,"pct_comercio":4,"pct_manufactura":4,"pct_construccion":0,"pct_transporte":7,"pct_alojamiento":0,"pct_sin_educacion":14,"pct_educ_superior":7,"brecha_educ":-24,"pct_sin_seguro":52,"pct_sus":46,"pct_seguro_privado":0,"brecha_seguro":13,"pct_salud_publica":23,"pct_med_tradicional":17,"pct_automedicacion":24,"pct_remedios_caseros":24,"pct_viv_desocupada":28,"pct_alquiler":0,"pct_electricidad":92,"pct_sin_electricidad":8,"pct_agua_red":85,"pct_alcantarillado":100,"pct_camara_septica":0,"pct_pozo_ciego":0,"pct_sin_desague":0,"pct_gas_red":0,"pct_gas_garrafa":100,"pct_lena_guano":100,"pct_basura_formal":100,"pct_basura_quema":0,"pct_basura_informal":0,"pct_internet":69,"pct_celular":92,"pct_televisor":69}},{"type":"Feature","geometry":{"type":"Polygon","coordinates":[[[-64.88564,-20.71555],[-64.88558,-20.71554],[-64.88455,-20.71763],[-64.88561,-20.71766],[-64.88564,-20.71555]]]},"properties":{"n":"SAN ANTONIO","p":43,"personas_x_ha":32,"masculinidad":95,"pct_menor20":60,"pct_60mas":12,"pct_migrante":16,"dependencia_econ":187,"pct_empleados":0,"pct_cuentapropia":67,"pct_agricultura":80,"pct_comercio":20,"pct_manufactura":0,"pct_construccion":0,"pct_transporte":0,"pct_alojamiento":0,"pct_sin_educacion":21,"pct_educ_superior":0,"brecha_educ":-14,"pct_sin_seguro":5,"pct_sus":95,"pct_seguro_privado":0,"brecha_seguro":10,"pct_salud_publica":26,"pct_med_tradicional":16,"pct_automedicacion":17,"pct_remedios_caseros":21,"pct_viv_desocupada":8,"pct_alquiler":0,"pct_electricidad":100,"pct_sin_electricidad":0,"pct_agua_red":90,"pct_alcantarillado":60,"pct_camara_septica":0,"pct_pozo_ciego":40,"pct_sin_desague":0,"pct_gas_red":0,"pct_gas_garrafa":90,"pct_lena_guano":90,"pct_basura_formal":80,"pct_basura_quema":20,"pct_basura_informal":0,"pct_internet":90,"pct_celular":90,"pct_televisor":80}},{"type":"Feature","geometry":{"type":"Polygon","coordinates":[[[-64.88627,-20.71367],[-64.88624,-20.71357],[-64.8857,-20.71347],[-64.8854,-20.71421],[-64.88593,-20.71443],[-64.88627,-20.71367]]]},"properties":{"n":"SAN ANTONIO","p":38,"personas_x_ha":61,"masculinidad":111,"pct_menor20":37,"pct_60mas":3,"pct_migrante":71,"dependencia_econ":73,"pct_empleados":27,"pct_cuentapropia":41,"pct_agricultura":45,"pct_comercio":14,"pct_manufactura":0,"pct_construccion":0,"pct_transporte":36,"pct_alojamiento":0,"pct_sin_educacion":0,"pct_educ_superior":25,"brecha_educ":-24,"pct_sin_seguro":18,"pct_sus":82,"pct_seguro_privado":0,"brecha_seguro":-18,"pct_salud_publica":22,"pct_med_tradicional":20,"pct_automedicacion":22,"pct_remedios_caseros":23,"pct_viv_desocupada":17,"pct_alquiler":11,"pct_electricidad":100,"pct_sin_electricidad":0,"pct_agua_red":89,"pct_alcantarillado":89,"pct_camara_septica":0,"pct_pozo_ciego":0,"pct_sin_desague":11,"pct_gas_red":0,"pct_gas_garrafa":89,"pct_lena_guano":89,"pct_basura_formal":89,"pct_basura_quema":11,"pct_basura_informal":0,"pct_internet":89,"pct_celular":100,"pct_televisor":89}},{"type":"Feature","geometry":{"type":"Polygon","coordinates":[[[-64.88658,-20.71529],[-64.88656,-20.71471],[-64.88608,-20.71449],[-64.88643,-20.71358],[-64.88685,-20.71359],[-64.88691,-20.71391],[-64.88759,-20.71401],[-64.88767,-20.71415],[-64.88761,-20.71428],[-64.88778,-20.71443],[-64.88725,-20.71491],[-64.88658,-20.71529]]]},"properties":{"n":"SAN ANTONIO","p":26,"personas_x_ha":15,"masculinidad":117,"pct_menor20":38,"pct_60mas":12,"pct_migrante":12,"dependencia_econ":62,"pct_empleados":19,"pct_cuentapropia":75,"pct_agricultura":38,"pct_comercio":31,"pct_manufactura":0,"pct_construccion":6,"pct_transporte":19,"pct_alojamiento":6,"pct_sin_educacion":18,"pct_educ_superior":12,"brecha_educ":17,"pct_sin_seguro":12,"pct_sus":88,"pct_seguro_privado":0,"brecha_seguro":21,"pct_salud_publica":100,"pct_med_tradicional":0,"pct_automedicacion":0,"pct_remedios_caseros":0,"pct_viv_desocupada":0,"pct_alquiler":25,"pct_electricidad":100,"pct_sin_electricidad":0,"pct_agua_red":88,"pct_alcantarillado":75,"pct_camara_septica":0,"pct_pozo_ciego":12,"pct_sin_desague":12,"pct_gas_red":0,"pct_gas_garrafa":100,"pct_lena_guano":100,"pct_basura_formal":62,"pct_basura_quema":38,"pct_basura_informal":0,"pct_internet":75,"pct_celular":100,"pct_televisor":75}},{"type":"Feature","geometry":{"type":"Polygon","coordinates":[[[-64.88501,-20.71495],[-64.88554,-20.71521],[-64.8859,-20.71451],[-64.88535,-20.71431],[-64.88501,-20.71495]]]},"properties":{"n":"SAN ANTONIO","p":31,"personas_x_ha":60,"masculinidad":107,"pct_menor20":42,"pct_60mas":3,"pct_migrante":48,"dependencia_econ":244,"pct_empleados":44,"pct_cuentapropia":22,"pct_agricultura":33,"pct_comercio":11,"pct_manufactura":0,"pct_construccion":0,"pct_transporte":0,"pct_alojamiento":0,"pct_sin_educacion":6,"pct_educ_superior":22,"brecha_educ":-21,"pct_sin_seguro":10,"pct_sus":61,"pct_seguro_privado":0,"brecha_seguro":-7,"pct_salud_publica":23,"pct_med_tradicional":18,"pct_automedicacion":23,"pct_remedios_caseros":29,"pct_viv_desocupada":0,"pct_alquiler":12,"pct_electricidad":100,"pct_sin_electricidad":0,"pct_agua_red":88,"pct_alcantarillado":25,"pct_camara_septica":25,"pct_pozo_ciego":12,"pct_sin_desague":25,"pct_gas_red":0,"pct_gas_garrafa":100,"pct_lena_guano":100,"pct_basura_formal":88,"pct_basura_quema":12,"pct_basura_informal":0,"pct_internet":100,"pct_celular":100,"pct_televisor":100}},{"type":"Feature","geometry":{"type":"Polygon","coordinates":[[[-64.77532,-20.58204],[-64.77545,-20.58334],[-64.77606,-20.58346],[-64.77575,-20.58313],[-64.7756,-20.58226],[-64.77537,-20.58193],[-64.77532,-20.58204]]]},"properties":{"n":"SANTA ELENA","p":20,"personas_x_ha":38,"masculinidad":82,"pct_menor20":25,"pct_60mas":40,"pct_migrante":5,"dependencia_econ":100,"pct_empleados":22,"pct_cuentapropia":56,"pct_agricultura":0,"pct_comercio":44,"pct_manufactura":0,"pct_construccion":11,"pct_transporte":0,"pct_alojamiento":11,"pct_sin_educacion":15,"pct_educ_superior":23,"brecha_educ":10,"pct_sin_seguro":17,"pct_sus":61,"pct_seguro_privado":0,"brecha_seguro":38,"pct_salud_publica":27,"pct_med_tradicional":18,"pct_automedicacion":12,"pct_remedios_caseros":14,"pct_viv_desocupada":6,"pct_alquiler":0,"pct_electricidad":90,"pct_sin_electricidad":10,"pct_agua_red":50,"pct_alcantarillado":10,"pct_camara_septica":10,"pct_pozo_ciego":50,"pct_sin_desague":30,"pct_gas_red":0,"pct_gas_garrafa":50,"pct_lena_guano":50,"pct_basura_formal":70,"pct_basura_quema":30,"pct_basura_informal":0,"pct_internet":40,"pct_celular":100,"pct_televisor":50}},{"type":"Feature","geometry":{"type":"Polygon","coordinates":[[[-64.77798,-20.58332],[-64.77826,-20.58379],[-64.77836,-20.58378],[-64.77838,-20.58358],[-64.77813,-20.58322],[-64.77775,-20.58313],[-64.7763,-20.58349],[-64.77561,-20.58342],[-64.77562,-20.58379],[-64.77549,-20.5838],[-64.77543,-20.58398],[-64.77579,-20.58412],[-64.77624,-20.58374],[-64.77649,-20.58392],[-64.77666,-20.5842],[-64.77725,-20.58393],[-64.77715,-20.58371],[-64.77798,-20.58332]]]},"properties":{"n":"SANTA ELENA","p":32,"personas_x_ha":22,"masculinidad":113,"pct_menor20":41,"pct_60mas":9,"pct_migrante":9,"dependencia_econ":113,"pct_empleados":7,"pct_cuentapropia":73,"pct_agricultura":87,"pct_comercio":13,"pct_manufactura":0,"pct_construccion":0,"pct_transporte":0,"pct_alojamiento":0,"pct_sin_educacion":5,"pct_educ_superior":0,"brecha_educ":-32,"pct_sin_seguro":4,"pct_sus":96,"pct_seguro_privado":0,"brecha_seguro":8,"pct_salud_publica":42,"pct_med_tradicional":14,"pct_automedicacion":14,"pct_remedios_caseros":31,"pct_viv_desocupada":25,"pct_alquiler":0,"pct_electricidad":100,"pct_sin_electricidad":0,"pct_agua_red":69,"pct_alcantarillado":0,"pct_camara_septica":15,"pct_pozo_ciego":46,"pct_sin_desague":38,"pct_gas_red":0,"pct_gas_garrafa":69,"pct_lena_guano":69,"pct_basura_formal":38,"pct_basura_quema":46,"pct_basura_informal":31,"pct_internet":54,"pct_celular":92,"pct_televisor":46}},{"type":"Feature","geometry":{"type":"Polygon","coordinates":[[[-64.77689,-20.58482],[-64.77829,-20.5847],[-64.77807,-20.58433],[-64.77686,-20.58452],[-64.77689,-20.58482]]]},"properties":{"n":"SANTA ELENA","p":20,"personas_x_ha":38,"masculinidad":67,"pct_menor20":55,"pct_60mas":5,"pct_migrante":0,"dependencia_econ":186,"pct_empleados":0,"pct_cuentapropia":0,"pct_agricultura":71,"pct_comercio":0,"pct_manufactura":0,"pct_construccion":14,"pct_transporte":0,"pct_alojamiento":0,"pct_sin_educacion":0,"pct_educ_superior":11,"brecha_educ":-17,"pct_sin_seguro":5,"pct_sus":95,"pct_seguro_privado":0,"brecha_seguro":14,"pct_salud_publica":43,"pct_med_tradicional":25,"pct_automedicacion":7,"pct_remedios_caseros":25,"pct_viv_desocupada":0,"pct_alquiler":0,"pct_electricidad":100,"pct_sin_electricidad":0,"pct_agua_red":100,"pct_alcantarillado":0,"pct_camara_septica":12,"pct_pozo_ciego":75,"pct_sin_desague":12,"pct_gas_red":12,"pct_gas_garrafa":75,"pct_lena_guano":75,"pct_basura_formal":0,"pct_basura_quema":88,"pct_basura_informal":0,"pct_internet":38,"pct_celular":62,"pct_televisor":38}},{"type":"Feature","geometry":{"type":"Polygon","coordinates":[[[-64.77846,-20.58218],[-64.77837,-20.58266],[-64.77697,-20.58251],[-64.77578,-20.58264],[-64.77573,-20.58228],[-64.77651,-20.58222],[-64.77677,-20.58207],[-64.77846,-20.58218]]]},"properties":{"n":"SANTA ELENA","p":25,"personas_x_ha":19,"masculinidad":92,"pct_menor20":64,"pct_60mas":0,"pct_migrante":16,"dependencia_econ":79,"pct_empleados":7,"pct_cuentapropia":29,"pct_agricultura":79,"pct_comercio":0,"pct_manufactura":0,"pct_construccion":0,"pct_transporte":0,"pct_alojamiento":7,"pct_sin_educacion":0,"pct_educ_superior":10,"brecha_educ":20,"pct_sin_seguro":4,"pct_sus":88,"pct_seguro_privado":0,"brecha_seguro":8,"pct_salud_publica":23,"pct_med_tradicional":21,"pct_automedicacion":17,"pct_remedios_caseros":21,"pct_viv_desocupada":12,"pct_alquiler":0,"pct_electricidad":100,"pct_sin_electricidad":0,"pct_agua_red":100,"pct_alcantarillado":0,"pct_camara_septica":0,"pct_pozo_ciego":80,"pct_sin_desague":20,"pct_gas_red":0,"pct_gas_garrafa":80,"pct_lena_guano":80,"pct_basura_formal":0,"pct_basura_quema":100,"pct_basura_informal":0,"pct_internet":100,"pct_celular":100,"pct_televisor":40}},{"type":"Feature","geometry":{"type":"Polygon","coordinates":[[[-64.77423,-20.58443],[-64.77439,-20.58458],[-64.77543,-20.58508],[-64.77569,-20.58506],[-64.77562,-20.58425],[-64.77568,-20.5841],[-64.77478,-20.58378],[-64.7745,-20.58332],[-64.77433,-20.58337],[-64.77424,-20.58353],[-64.77423,-20.58443]]]},"properties":{"n":"SANTA ELENA","p":15,"personas_x_ha":8,"masculinidad":150,"pct_menor20":33,"pct_60mas":27,"pct_migrante":13,"dependencia_econ":200,"pct_empleados":20,"pct_cuentapropia":60,"pct_agricultura":80,"pct_comercio":0,"pct_manufactura":0,"pct_construccion":0,"pct_transporte":0,"pct_alojamiento":0,"pct_sin_educacion":0,"pct_educ_superior":20,"brecha_educ":-42,"pct_sin_seguro":0,"pct_sus":93,"pct_seguro_privado":0,"brecha_seguro":0,"pct_salud_publica":70,"pct_med_tradicional":0,"pct_automedicacion":5,"pct_remedios_caseros":20,"pct_viv_desocupada":18,"pct_alquiler":0,"pct_electricidad":100,"pct_sin_electricidad":0,"pct_agua_red":100,"pct_alcantarillado":0,"pct_camara_septica":33,"pct_pozo_ciego":33,"pct_sin_desague":33,"pct_gas_red":0,"pct_gas_garrafa":100,"pct_lena_guano":100,"pct_basura_formal":17,"pct_basura_quema":67,"pct_basura_informal":33,"pct_internet":0,"pct_celular":100,"pct_televisor":100}},{"type":"Feature","geometry":{"type":"Polygon","coordinates":[[[-64.88745,-20.72256],[-64.88749,-20.72214],[-64.8869,-20.72213],[-64.88687,-20.72254],[-64.88745,-20.72256]]]},"properties":{"n":"VILLA CHARCAS","p":37,"personas_x_ha":124,"masculinidad":95,"pct_menor20":43,"pct_60mas":8,"pct_migrante":43,"dependencia_econ":236,"pct_empleados":36,"pct_cuentapropia":27,"pct_agricultura":18,"pct_comercio":36,"pct_manufactura":0,"pct_construccion":18,"pct_transporte":0,"pct_alojamiento":0,"pct_sin_educacion":14,"pct_educ_superior":38,"brecha_educ":-25,"pct_sin_seguro":11,"pct_sus":81,"pct_seguro_privado":8,"brecha_seguro":-10,"pct_salud_publica":68,"pct_med_tradicional":2,"pct_automedicacion":0,"pct_remedios_caseros":7,"pct_viv_desocupada":0,"pct_alquiler":0,"pct_electricidad":91,"pct_sin_electricidad":0,"pct_agua_red":91,"pct_alcantarillado":91,"pct_camara_septica":0,"pct_pozo_ciego":0,"pct_sin_desague":9,"pct_gas_red":0,"pct_gas_garrafa":100,"pct_lena_guano":100,"pct_basura_formal":100,"pct_basura_quema":0,"pct_basura_informal":0,"pct_internet":36,"pct_celular":45,"pct_televisor":45}},{"type":"Feature","geometry":{"type":"Polygon","coordinates":[[[-64.887,-20.71975],[-64.88634,-20.71976],[-64.88631,-20.72066],[-64.88692,-20.72067],[-64.887,-20.71975]]]},"properties":{"n":"VILLA CHARCAS","p":29,"personas_x_ha":43,"masculinidad":93,"pct_menor20":55,"pct_60mas":0,"pct_migrante":24,"dependencia_econ":71,"pct_empleados":18,"pct_cuentapropia":47,"pct_agricultura":59,"pct_comercio":24,"pct_manufactura":6,"pct_construccion":6,"pct_transporte":0,"pct_alojamiento":0,"pct_sin_educacion":0,"pct_educ_superior":8,"brecha_educ":-7,"pct_sin_seguro":19,"pct_sus":67,"pct_seguro_privado":15,"brecha_seguro":-6,"pct_salud_publica":26,"pct_med_tradicional":18,"pct_automedicacion":26,"pct_remedios_caseros":24,"pct_viv_desocupada":0,"pct_alquiler":12,"pct_electricidad":75,"pct_sin_electricidad":12,"pct_agua_red":100,"pct_alcantarillado":88,"pct_camara_septica":0,"pct_pozo_ciego":0,"pct_sin_desague":12,"pct_gas_red":0,"pct_gas_garrafa":100,"pct_lena_guano":100,"pct_basura_formal":75,"pct_basura_quema":25,"pct_basura_informal":0,"pct_internet":100,"pct_celular":100,"pct_televisor":75}},{"type":"Feature","geometry":{"type":"Polygon","coordinates":[[[-64.88535,-20.72561],[-64.88588,-20.72564],[-64.88588,-20.7251],[-64.88538,-20.72507],[-64.88535,-20.72561]]]},"properties":{"n":"VILLA CHARCAS","p":37,"personas_x_ha":108,"masculinidad":147,"pct_menor20":24,"pct_60mas":16,"pct_migrante":30,"dependencia_econ":52,"pct_empleados":39,"pct_cuentapropia":39,"pct_agricultura":35,"pct_comercio":22,"pct_manufactura":4,"pct_construccion":4,"pct_transporte":0,"pct_alojamiento":0,"pct_sin_educacion":4,"pct_educ_superior":25,"brecha_educ":-21,"pct_sin_seguro":17,"pct_sus":62,"pct_seguro_privado":0,"brecha_seguro":28,"pct_salud_publica":58,"pct_med_tradicional":0,"pct_automedicacion":20,"pct_remedios_caseros":4,"pct_viv_desocupada":29,"pct_alquiler":0,"pct_electricidad":100,"pct_sin_electricidad":0,"pct_agua_red":100,"pct_alcantarillado":100,"pct_camara_septica":0,"pct_pozo_ciego":0,"pct_sin_desague":0,"pct_gas_red":0,"pct_gas_garrafa":80,"pct_lena_guano":80,"pct_basura_formal":100,"pct_basura_quema":0,"pct_basura_informal":0,"pct_internet":20,"pct_celular":60,"pct_televisor":20}},{"type":"Feature","geometry":{"type":"Polygon","coordinates":[[[-64.8853,-20.72616],[-64.88584,-20.72619],[-64.88587,-20.72572],[-64.88534,-20.72568],[-64.8853,-20.72616]]]},"properties":{"n":"VILLA CHARCAS","p":20,"personas_x_ha":66,"masculinidad":233,"pct_menor20":25,"pct_60mas":5,"pct_migrante":65,"dependencia_econ":33,"pct_empleados":7,"pct_cuentapropia":80,"pct_agricultura":33,"pct_comercio":20,"pct_manufactura":20,"pct_construccion":13,"pct_transporte":0,"pct_alojamiento":0,"pct_sin_educacion":6,"pct_educ_superior":19,"brecha_educ":-35,"pct_sin_seguro":15,"pct_sus":75,"pct_seguro_privado":0,"brecha_seguro":-2,"pct_salud_publica":18,"pct_med_tradicional":12,"pct_automedicacion":28,"pct_remedios_caseros":25,"pct_viv_desocupada":20,"pct_alquiler":14,"pct_electricidad":100,"pct_sin_electricidad":0,"pct_agua_red":100,"pct_alcantarillado":86,"pct_camara_septica":0,"pct_pozo_ciego":0,"pct_sin_desague":14,"pct_gas_red":0,"pct_gas_garrafa":86,"pct_lena_guano":86,"pct_basura_formal":100,"pct_basura_quema":0,"pct_basura_informal":0,"pct_internet":100,"pct_celular":100,"pct_televisor":86}},{"type":"Feature","geometry":{"type":"Polygon","coordinates":[[[-64.88641,-20.72208],[-64.88639,-20.72254],[-64.88679,-20.72254],[-64.8868,-20.7221],[-64.88641,-20.72208]]]},"properties":{"n":"VILLA CHARCAS","p":22,"personas_x_ha":103,"masculinidad":120,"pct_menor20":23,"pct_60mas":5,"pct_migrante":27,"dependencia_econ":38,"pct_empleados":12,"pct_cuentapropia":50,"pct_agricultura":44,"pct_comercio":38,"pct_manufactura":0,"pct_construccion":0,"pct_transporte":6,"pct_alojamiento":0,"pct_sin_educacion":6,"pct_educ_superior":29,"brecha_educ":-13,"pct_sin_seguro":35,"pct_sus":59,"pct_seguro_privado":6,"brecha_seguro":28,"pct_salud_publica":40,"pct_med_tradicional":10,"pct_automedicacion":25,"pct_remedios_caseros":25,"pct_viv_desocupada":0,"pct_alquiler":20,"pct_electricidad":100,"pct_sin_electricidad":0,"pct_agua_red":100,"pct_alcantarillado":90,"pct_camara_septica":0,"pct_pozo_ciego":0,"pct_sin_desague":10,"pct_gas_red":0,"pct_gas_garrafa":90,"pct_lena_guano":90,"pct_basura_formal":100,"pct_basura_quema":0,"pct_basura_informal":0,"pct_internet":60,"pct_celular":70,"pct_televisor":70}},{"type":"Feature","geometry":{"type":"Polygon","coordinates":[[[-64.88432,-20.72612],[-64.88517,-20.72616],[-64.8852,-20.72568],[-64.88436,-20.72561],[-64.88432,-20.72612]]]},"properties":{"n":"VILLA CHARCAS","p":39,"personas_x_ha":78,"masculinidad":105,"pct_menor20":49,"pct_60mas":5,"pct_migrante":54,"dependencia_econ":255,"pct_empleados":45,"pct_cuentapropia":45,"pct_agricultura":36,"pct_comercio":0,"pct_manufactura":0,"pct_construccion":0,"pct_transporte":0,"pct_alojamiento":0,"pct_sin_educacion":18,"pct_educ_superior":23,"brecha_educ":-36,"pct_sin_seguro":8,"pct_sus":74,"pct_seguro_privado":0,"brecha_seguro":-6,"pct_salud_publica":21,"pct_med_tradicional":17,"pct_automedicacion":20,"pct_remedios_caseros":22,"pct_viv_desocupada":0,"pct_alquiler":9,"pct_electricidad":100,"pct_sin_electricidad":0,"pct_agua_red":100,"pct_alcantarillado":73,"pct_camara_septica":0,"pct_pozo_ciego":0,"pct_sin_desague":27,"pct_gas_red":0,"pct_gas_garrafa":91,"pct_lena_guano":91,"pct_basura_formal":100,"pct_basura_quema":0,"pct_basura_informal":0,"pct_internet":91,"pct_celular":91,"pct_televisor":82}},{"type":"Feature","geometry":{"type":"Polygon","coordinates":[[[-64.88568,-20.72141],[-64.88565,-20.72194],[-64.88595,-20.72196],[-64.88594,-20.72179],[-64.88639,-20.72179],[-64.8864,-20.722],[-64.88683,-20.72198],[-64.88684,-20.72148],[-64.88568,-20.72141]]]},"properties":{"n":"VILLA CHARCAS","p":57,"personas_x_ha":89,"masculinidad":73,"pct_menor20":35,"pct_60mas":7,"pct_migrante":40,"dependencia_econ":73,"pct_empleados":3,"pct_cuentapropia":82,"pct_agricultura":52,"pct_comercio":21,"pct_manufactura":24,"pct_construccion":3,"pct_transporte":0,"pct_alojamiento":0,"pct_sin_educacion":3,"pct_educ_superior":38,"brecha_educ":-22,"pct_sin_seguro":9,"pct_sus":89,"pct_seguro_privado":0,"brecha_seguro":6,"pct_salud_publica":27,"pct_med_tradicional":10,"pct_automedicacion":24,"pct_remedios_caseros":24,"pct_viv_desocupada":8,"pct_alquiler":48,"pct_electricidad":100,"pct_sin_electricidad":0,"pct_agua_red":76,"pct_alcantarillado":90,"pct_camara_septica":5,"pct_pozo_ciego":0,"pct_sin_desague":5,"pct_gas_red":0,"pct_gas_garrafa":71,"pct_lena_guano":71,"pct_basura_formal":100,"pct_basura_quema":0,"pct_basura_informal":0,"pct_internet":100,"pct_celular":100,"pct_televisor":48}},{"type":"Feature","geometry":{"type":"Polygon","coordinates":[[[-64.8832,-20.72421],[-64.88256,-20.7242],[-64.88253,-20.724],[-64.88194,-20.7239],[-64.88196,-20.72369],[-64.88321,-20.72377],[-64.8832,-20.72421]]]},"properties":{"n":"VILLA CHARCAS","p":32,"personas_x_ha":62,"masculinidad":100,"pct_menor20":41,"pct_60mas":0,"pct_migrante":47,"dependencia_econ":68,"pct_empleados":16,"pct_cuentapropia":68,"pct_agricultura":58,"pct_comercio":11,"pct_manufactura":5,"pct_construccion":5,"pct_transporte":11,"pct_alojamiento":0,"pct_sin_educacion":5,"pct_educ_superior":11,"brecha_educ":33,"pct_sin_seguro":19,"pct_sus":81,"pct_seguro_privado":0,"brecha_seguro":0,"pct_salud_publica":30,"pct_med_tradicional":13,"pct_automedicacion":30,"pct_remedios_caseros":23,"pct_viv_desocupada":0,"pct_alquiler":20,"pct_electricidad":80,"pct_sin_electricidad":20,"pct_agua_red":100,"pct_alcantarillado":50,"pct_camara_septica":0,"pct_pozo_ciego":30,"pct_sin_desague":20,"pct_gas_red":0,"pct_gas_garrafa":80,"pct_lena_guano":80,"pct_basura_formal":60,"pct_basura_quema":30,"pct_basura_informal":20,"pct_internet":60,"pct_celular":80,"pct_televisor":70}},{"type":"Feature","geometry":{"type":"Polygon","coordinates":[[[-64.88822,-20.72217],[-64.88758,-20.72218],[-64.88757,-20.72257],[-64.88821,-20.72256],[-64.88822,-20.72217]]]},"properties":{"n":"VILLA CHARCAS","p":24,"personas_x_ha":75,"masculinidad":100,"pct_menor20":42,"pct_60mas":8,"pct_migrante":42,"dependencia_econ":109,"pct_empleados":45,"pct_cuentapropia":36,"pct_agricultura":18,"pct_comercio":45,"pct_manufactura":0,"pct_construccion":0,"pct_transporte":0,"pct_alojamiento":0,"pct_sin_educacion":14,"pct_educ_superior":43,"brecha_educ":-43,"pct_sin_seguro":9,"pct_sus":55,"pct_seguro_privado":0,"brecha_seguro":18,"pct_salud_publica":23,"pct_med_tradicional":15,"pct_automedicacion":19,"pct_remedios_caseros":20,"pct_viv_desocupada":0,"pct_alquiler":20,"pct_electricidad":90,"pct_sin_electricidad":10,"pct_agua_red":90,"pct_alcantarillado":90,"pct_camara_septica":0,"pct_pozo_ciego":0,"pct_sin_desague":10,"pct_gas_red":0,"pct_gas_garrafa":90,"pct_lena_guano":90,"pct_basura_formal":100,"pct_basura_quema":0,"pct_basura_informal":0,"pct_internet":80,"pct_celular":90,"pct_televisor":50}},{"type":"Feature","geometry":{"type":"Polygon","coordinates":[[[-64.88313,-20.72542],[-64.88318,-20.72431],[-64.88265,-20.72429],[-64.88246,-20.72538],[-64.88313,-20.72542]]]},"properties":{"n":"VILLA CHARCAS","p":23,"personas_x_ha":30,"masculinidad":64,"pct_menor20":48,"pct_60mas":0,"pct_migrante":35,"dependencia_econ":64,"pct_empleados":29,"pct_cuentapropia":50,"pct_agricultura":43,"pct_comercio":0,"pct_manufactura":7,"pct_construccion":14,"pct_transporte":7,"pct_alojamiento":14,"pct_sin_educacion":8,"pct_educ_superior":23,"brecha_educ":-27,"pct_sin_seguro":13,"pct_sus":87,"pct_seguro_privado":0,"brecha_seguro":15,"pct_salud_publica":28,"pct_med_tradicional":18,"pct_automedicacion":18,"pct_remedios_caseros":25,"pct_viv_desocupada":0,"pct_alquiler":0,"pct_electricidad":100,"pct_sin_electricidad":0,"pct_agua_red":100,"pct_alcantarillado":57,"pct_camara_septica":0,"pct_pozo_ciego":0,"pct_sin_desague":43,"pct_gas_red":0,"pct_gas_garrafa":100,"pct_lena_guano":100,"pct_basura_formal":100,"pct_basura_quema":0,"pct_basura_informal":0,"pct_internet":86,"pct_celular":86,"pct_televisor":71}},{"type":"Feature","geometry":{"type":"Polygon","coordinates":[[[-64.88545,-20.72437],[-64.88595,-20.7244],[-64.88599,-20.72398],[-64.88546,-20.72395],[-64.88545,-20.72437]]]},"properties":{"n":"VILLA CHARCAS","p":36,"personas_x_ha":136,"masculinidad":100,"pct_menor20":28,"pct_60mas":19,"pct_migrante":67,"dependencia_econ":71,"pct_empleados":10,"pct_cuentapropia":67,"pct_agricultura":48,"pct_comercio":38,"pct_manufactura":0,"pct_construccion":0,"pct_transporte":5,"pct_alojamiento":0,"pct_sin_educacion":8,"pct_educ_superior":31,"brecha_educ":-30,"pct_sin_seguro":25,"pct_sus":75,"pct_seguro_privado":0,"brecha_seguro":39,"pct_salud_publica":30,"pct_med_tradicional":5,"pct_automedicacion":27,"pct_remedios_caseros":23,"pct_viv_desocupada":0,"pct_alquiler":44,"pct_electricidad":100,"pct_sin_electricidad":0,"pct_agua_red":100,"pct_alcantarillado":100,"pct_camara_septica":0,"pct_pozo_ciego":0,"pct_sin_desague":0,"pct_gas_red":0,"pct_gas_garrafa":100,"pct_lena_guano":100,"pct_basura_formal":100,"pct_basura_quema":0,"pct_basura_informal":0,"pct_internet":89,"pct_celular":100,"pct_televisor":89}},{"type":"Feature","geometry":{"type":"Polygon","coordinates":[[[-64.88386,-20.72428],[-64.88438,-20.7243],[-64.88441,-20.72385],[-64.88391,-20.72383],[-64.88386,-20.72428]]]},"properties":{"n":"VILLA CHARCAS","p":42,"personas_x_ha":158,"masculinidad":91,"pct_menor20":38,"pct_60mas":2,"pct_migrante":67,"dependencia_econ":75,"pct_empleados":54,"pct_cuentapropia":33,"pct_agricultura":4,"pct_comercio":8,"pct_manufactura":4,"pct_construccion":4,"pct_transporte":8,"pct_alojamiento":4,"pct_sin_educacion":0,"pct_educ_superior":59,"brecha_educ":-12,"pct_sin_seguro":0,"pct_sus":76,"pct_seguro_privado":0,"brecha_seguro":0,"pct_salud_publica":39,"pct_med_tradicional":8,"pct_automedicacion":14,"pct_remedios_caseros":14,"pct_viv_desocupada":0,"pct_alquiler":38,"pct_electricidad":100,"pct_sin_electricidad":0,"pct_agua_red":100,"pct_alcantarillado":100,"pct_camara_septica":0,"pct_pozo_ciego":0,"pct_sin_desague":0,"pct_gas_red":0,"pct_gas_garrafa":100,"pct_lena_guano":100,"pct_basura_formal":100,"pct_basura_quema":0,"pct_basura_informal":0,"pct_internet":69,"pct_celular":69,"pct_televisor":54}},{"type":"Feature","geometry":{"type":"Polygon","coordinates":[[[-64.88662,-20.72569],[-64.88719,-20.72573],[-64.88726,-20.72518],[-64.88665,-20.72514],[-64.88662,-20.72569]]]},"properties":{"n":"VILLA CHARCAS","p":27,"personas_x_ha":68,"masculinidad":125,"pct_menor20":56,"pct_60mas":4,"pct_migrante":41,"dependencia_econ":145,"pct_empleados":36,"pct_cuentapropia":45,"pct_agricultura":36,"pct_comercio":9,"pct_manufactura":0,"pct_construccion":27,"pct_transporte":0,"pct_alojamiento":18,"pct_sin_educacion":8,"pct_educ_superior":17,"brecha_educ":-17,"pct_sin_seguro":11,"pct_sus":70,"pct_seguro_privado":0,"brecha_seguro":20,"pct_salud_publica":30,"pct_med_tradicional":12,"pct_automedicacion":25,"pct_remedios_caseros":22,"pct_viv_desocupada":0,"pct_alquiler":25,"pct_electricidad":88,"pct_sin_electricidad":12,"pct_agua_red":88,"pct_alcantarillado":88,"pct_camara_septica":0,"pct_pozo_ciego":0,"pct_sin_desague":12,"pct_gas_red":0,"pct_gas_garrafa":88,"pct_lena_guano":88,"pct_basura_formal":88,"pct_basura_quema":0,"pct_basura_informal":0,"pct_internet":100,"pct_celular":100,"pct_televisor":75}},{"type":"Feature","geometry":{"type":"Polygon","coordinates":[[[-64.88701,-20.72786],[-64.88694,-20.72879],[-64.88636,-20.72881],[-64.88643,-20.72789],[-64.88701,-20.72786]]]},"properties":{"n":"VILLA CHARCAS","p":26,"personas_x_ha":41,"masculinidad":62,"pct_menor20":54,"pct_60mas":4,"pct_migrante":58,"dependencia_econ":100,"pct_empleados":0,"pct_cuentapropia":46,"pct_agricultura":77,"pct_comercio":0,"pct_manufactura":0,"pct_construccion":8,"pct_transporte":0,"pct_alojamiento":0,"pct_sin_educacion":8,"pct_educ_superior":0,"brecha_educ":-17,"pct_sin_seguro":35,"pct_sus":58,"pct_seguro_privado":0,"brecha_seguro":9,"pct_salud_publica":30,"pct_med_tradicional":5,"pct_automedicacion":32,"pct_remedios_caseros":25,"pct_viv_desocupada":0,"pct_alquiler":0,"pct_electricidad":100,"pct_sin_electricidad":0,"pct_agua_red":100,"pct_alcantarillado":86,"pct_camara_septica":0,"pct_pozo_ciego":0,"pct_sin_desague":0,"pct_gas_red":0,"pct_gas_garrafa":100,"pct_lena_guano":100,"pct_basura_formal":100,"pct_basura_quema":0,"pct_basura_informal":0,"pct_internet":57,"pct_celular":57,"pct_televisor":43}},{"type":"Feature","geometry":{"type":"Polygon","coordinates":[[[-64.8839,-20.72376],[-64.88443,-20.7238],[-64.88447,-20.72324],[-64.88395,-20.7232],[-64.8839,-20.72376]]]},"properties":{"n":"VILLA CHARCAS","p":60,"personas_x_ha":176,"masculinidad":67,"pct_menor20":37,"pct_60mas":5,"pct_migrante":73,"dependencia_econ":71,"pct_empleados":26,"pct_cuentapropia":54,"pct_agricultura":9,"pct_comercio":14,"pct_manufactura":9,"pct_construccion":11,"pct_transporte":11,"pct_alojamiento":11,"pct_sin_educacion":5,"pct_educ_superior":40,"brecha_educ":-1,"pct_sin_seguro":8,"pct_sus":73,"pct_seguro_privado":5,"brecha_seguro":7,"pct_salud_publica":25,"pct_med_tradicional":12,"pct_automedicacion":26,"pct_remedios_caseros":23,"pct_viv_desocupada":0,"pct_alquiler":39,"pct_electricidad":100,"pct_sin_electricidad":0,"pct_agua_red":100,"pct_alcantarillado":100,"pct_camara_septica":0,"pct_pozo_ciego":0,"pct_sin_desague":0,"pct_gas_red":0,"pct_gas_garrafa":96,"pct_lena_guano":96,"pct_basura_formal":100,"pct_basura_quema":0,"pct_basura_informal":0,"pct_internet":78,"pct_celular":78,"pct_televisor":74}},{"type":"Feature","geometry":{"type":"Polygon","coordinates":[[[-64.88463,-20.72896],[-64.885,-20.72879],[-64.88543,-20.72879],[-64.88547,-20.72795],[-64.88524,-20.72693],[-64.88493,-20.72694],[-64.88493,-20.72687],[-64.88522,-20.72682],[-64.88514,-20.72648],[-64.88517,-20.72623],[-64.88373,-20.72616],[-64.88353,-20.72896],[-64.88463,-20.72896]]]},"properties":{"n":"VILLA CHARCAS","p":95,"personas_x_ha":18,"masculinidad":86,"pct_menor20":48,"pct_60mas":6,"pct_migrante":36,"dependencia_econ":129,"pct_empleados":12,"pct_cuentapropia":66,"pct_agricultura":46,"pct_comercio":17,"pct_manufactura":5,"pct_construccion":2,"pct_transporte":5,"pct_alojamiento":7,"pct_sin_educacion":37,"pct_educ_superior":21,"brecha_educ":0,"pct_sin_seguro":9,"pct_sus":86,"pct_seguro_privado":0,"brecha_seguro":10,"pct_salud_publica":26,"pct_med_tradicional":18,"pct_automedicacion":20,"pct_remedios_caseros":24,"pct_viv_desocupada":0,"pct_alquiler":12,"pct_electricidad":100,"pct_sin_electricidad":0,"pct_agua_red":88,"pct_alcantarillado":96,"pct_camara_septica":0,"pct_pozo_ciego":0,"pct_sin_desague":4,"pct_gas_red":0,"pct_gas_garrafa":100,"pct_lena_guano":100,"pct_basura_formal":96,"pct_basura_quema":4,"pct_basura_informal":0,"pct_internet":88,"pct_celular":92,"pct_televisor":76}},{"type":"Feature","geometry":{"type":"Polygon","coordinates":[[[-64.88686,-20.72139],[-64.88689,-20.72088],[-64.8868,-20.72077],[-64.88538,-20.72071],[-64.8857,-20.72131],[-64.88686,-20.72139]]]},"properties":{"n":"VILLA CHARCAS","p":41,"personas_x_ha":43,"masculinidad":71,"pct_menor20":32,"pct_60mas":20,"pct_migrante":32,"dependencia_econ":100,"pct_empleados":15,"pct_cuentapropia":65,"pct_agricultura":30,"pct_comercio":45,"pct_manufactura":0,"pct_construccion":10,"pct_transporte":10,"pct_alojamiento":0,"pct_sin_educacion":21,"pct_educ_superior":14,"brecha_educ":4,"pct_sin_seguro":15,"pct_sus":85,"pct_seguro_privado":0,"brecha_seguro":6,"pct_salud_publica":25,"pct_med_tradicional":16,"pct_automedicacion":20,"pct_remedios_caseros":25,"pct_viv_desocupada":0,"pct_alquiler":7,"pct_electricidad":100,"pct_sin_electricidad":0,"pct_agua_red":87,"pct_alcantarillado":93,"pct_camara_septica":0,"pct_pozo_ciego":0,"pct_sin_desague":7,"pct_gas_red":0,"pct_gas_garrafa":100,"pct_lena_guano":100,"pct_basura_formal":100,"pct_basura_quema":0,"pct_basura_informal":0,"pct_internet":80,"pct_celular":87,"pct_televisor":73}},{"type":"Feature","geometry":{"type":"Polygon","coordinates":[[[-64.8848,-20.72225],[-64.8855,-20.72239],[-64.88554,-20.72205],[-64.88486,-20.72196],[-64.8848,-20.72225]]]},"properties":{"n":"VILLA CHARCAS","p":26,"personas_x_ha":96,"masculinidad":86,"pct_menor20":19,"pct_60mas":12,"pct_migrante":38,"dependencia_econ":86,"pct_empleados":29,"pct_cuentapropia":71,"pct_agricultura":36,"pct_comercio":21,"pct_manufactura":7,"pct_construccion":0,"pct_transporte":7,"pct_alojamiento":0,"pct_sin_educacion":18,"pct_educ_superior":50,"brecha_educ":-45,"pct_sin_seguro":24,"pct_sus":44,"pct_seguro_privado":0,"brecha_seguro":2,"pct_salud_publica":34,"pct_med_tradicional":7,"pct_automedicacion":24,"pct_remedios_caseros":21,"pct_viv_desocupada":11,"pct_alquiler":23,"pct_electricidad":100,"pct_sin_electricidad":0,"pct_agua_red":100,"pct_alcantarillado":100,"pct_camara_septica":0,"pct_pozo_ciego":0,"pct_sin_desague":0,"pct_gas_red":0,"pct_gas_garrafa":92,"pct_lena_guano":92,"pct_basura_formal":100,"pct_basura_quema":0,"pct_basura_informal":0,"pct_internet":69,"pct_celular":100,"pct_televisor":62}},{"type":"Feature","geometry":{"type":"Polygon","coordinates":[[[-64.8874,-20.72451],[-64.8881,-20.72456],[-64.88811,-20.72411],[-64.88742,-20.72406],[-64.8874,-20.72451]]]},"properties":{"n":"VILLA CHARCAS","p":87,"personas_x_ha":241,"masculinidad":85,"pct_menor20":31,"pct_60mas":15,"pct_migrante":30,"dependencia_econ":64,"pct_empleados":6,"pct_cuentapropia":51,"pct_agricultura":85,"pct_comercio":9,"pct_manufactura":0,"pct_construccion":0,"pct_transporte":2,"pct_alojamiento":2,"pct_sin_educacion":20,"pct_educ_superior":17,"brecha_educ":-33,"pct_sin_seguro":16,"pct_sus":84,"pct_seguro_privado":0,"brecha_seguro":3,"pct_salud_publica":25,"pct_med_tradicional":12,"pct_automedicacion":25,"pct_remedios_caseros":19,"pct_viv_desocupada":4,"pct_alquiler":62,"pct_electricidad":96,"pct_sin_electricidad":4,"pct_agua_red":71,"pct_alcantarillado":71,"pct_camara_septica":0,"pct_pozo_ciego":8,"pct_sin_desague":21,"pct_gas_red":0,"pct_gas_garrafa":92,"pct_lena_guano":92,"pct_basura_formal":92,"pct_basura_quema":4,"pct_basura_informal":8,"pct_internet":92,"pct_celular":96,"pct_televisor":50}},{"type":"Feature","geometry":{"type":"Polygon","coordinates":[[[-64.88339,-20.72242],[-64.88347,-20.72192],[-64.88315,-20.72142],[-64.8841,-20.72127],[-64.88411,-20.7207],[-64.88518,-20.72071],[-64.88451,-20.72276],[-64.88447,-20.72317],[-64.88339,-20.72309],[-64.88336,-20.723],[-64.88286,-20.72284],[-64.88293,-20.72256],[-64.88317,-20.72254],[-64.88339,-20.72242]]]},"properties":{"n":"VILLA CHARCAS","p":127,"personas_x_ha":34,"masculinidad":84,"pct_menor20":32,"pct_60mas":9,"pct_migrante":39,"dependencia_econ":57,"pct_empleados":23,"pct_cuentapropia":58,"pct_agricultura":33,"pct_comercio":26,"pct_manufactura":2,"pct_construccion":5,"pct_transporte":2,"pct_alojamiento":1,"pct_sin_educacion":5,"pct_educ_superior":42,"brecha_educ":-15,"pct_sin_seguro":25,"pct_sus":58,"pct_seguro_privado":0,"brecha_seguro":-5,"pct_salud_publica":32,"pct_med_tradicional":11,"pct_automedicacion":27,"pct_remedios_caseros":19,"pct_viv_desocupada":4,"pct_alquiler":28,"pct_electricidad":100,"pct_sin_electricidad":0,"pct_agua_red":81,"pct_alcantarillado":93,"pct_camara_septica":0,"pct_pozo_ciego":0,"pct_sin_desague":7,"pct_gas_red":0,"pct_gas_garrafa":98,"pct_lena_guano":98,"pct_basura_formal":100,"pct_basura_quema":0,"pct_basura_informal":0,"pct_internet":81,"pct_celular":91,"pct_televisor":77}},{"type":"Feature","geometry":{"type":"Polygon","coordinates":[[[-64.8875,-20.72207],[-64.88755,-20.72151],[-64.88695,-20.72149],[-64.88693,-20.72203],[-64.8875,-20.72207]]]},"properties":{"n":"VILLA CHARCAS","p":28,"personas_x_ha":72,"masculinidad":100,"pct_menor20":39,"pct_60mas":7,"pct_migrante":21,"dependencia_econ":133,"pct_empleados":33,"pct_cuentapropia":58,"pct_agricultura":42,"pct_comercio":17,"pct_manufactura":0,"pct_construccion":17,"pct_transporte":0,"pct_alojamiento":0,"pct_sin_educacion":6,"pct_educ_superior":24,"brecha_educ":-28,"pct_sin_seguro":26,"pct_sus":74,"pct_seguro_privado":0,"brecha_seguro":9,"pct_salud_publica":30,"pct_med_tradicional":11,"pct_automedicacion":18,"pct_remedios_caseros":23,"pct_viv_desocupada":0,"pct_alquiler":0,"pct_electricidad":100,"pct_sin_electricidad":0,"pct_agua_red":75,"pct_alcantarillado":100,"pct_camara_septica":0,"pct_pozo_ciego":0,"pct_sin_desague":0,"pct_gas_red":0,"pct_gas_garrafa":100,"pct_lena_guano":100,"pct_basura_formal":100,"pct_basura_quema":0,"pct_basura_informal":0,"pct_internet":75,"pct_celular":75,"pct_televisor":50}},{"type":"Feature","geometry":{"type":"Polygon","coordinates":[[[-64.88554,-20.72325],[-64.88583,-20.72324],[-64.88585,-20.72204],[-64.88562,-20.72204],[-64.88554,-20.72325]]]},"properties":{"n":"VILLA CHARCAS","p":91,"personas_x_ha":240,"masculinidad":94,"pct_menor20":31,"pct_60mas":8,"pct_migrante":66,"dependencia_econ":43,"pct_empleados":35,"pct_cuentapropia":51,"pct_agricultura":13,"pct_comercio":24,"pct_manufactura":6,"pct_construccion":6,"pct_transporte":5,"pct_alojamiento":11,"pct_sin_educacion":10,"pct_educ_superior":44,"brecha_educ":-7,"pct_sin_seguro":30,"pct_sus":58,"pct_seguro_privado":3,"brecha_seguro":14,"pct_salud_publica":29,"pct_med_tradicional":8,"pct_automedicacion":20,"pct_remedios_caseros":22,"pct_viv_desocupada":0,"pct_alquiler":51,"pct_electricidad":100,"pct_sin_electricidad":0,"pct_agua_red":97,"pct_alcantarillado":97,"pct_camara_septica":0,"pct_pozo_ciego":0,"pct_sin_desague":3,"pct_gas_red":0,"pct_gas_garrafa":94,"pct_lena_guano":94,"pct_basura_formal":100,"pct_basura_quema":0,"pct_basura_informal":0,"pct_internet":86,"pct_celular":91,"pct_televisor":60}},{"type":"Feature","geometry":{"type":"Polygon","coordinates":[[[-64.88656,-20.72328],[-64.88674,-20.72328],[-64.88677,-20.72263],[-64.88658,-20.72263],[-64.88656,-20.72328]]]},"properties":{"n":"VILLA CHARCAS","p":19,"personas_x_ha":125,"masculinidad":73,"pct_menor20":42,"pct_60mas":5,"pct_migrante":37,"dependencia_econ":111,"pct_empleados":11,"pct_cuentapropia":78,"pct_agricultura":11,"pct_comercio":44,"pct_manufactura":0,"pct_construccion":0,"pct_transporte":11,"pct_alojamiento":11,"pct_sin_educacion":27,"pct_educ_superior":9,"brecha_educ":-30,"pct_sin_seguro":16,"pct_sus":84,"pct_seguro_privado":0,"brecha_seguro":16,"pct_salud_publica":27,"pct_med_tradicional":2,"pct_automedicacion":27,"pct_remedios_caseros":29,"pct_viv_desocupada":9,"pct_alquiler":0,"pct_electricidad":100,"pct_sin_electricidad":0,"pct_agua_red":100,"pct_alcantarillado":100,"pct_camara_septica":0,"pct_pozo_ciego":0,"pct_sin_desague":0,"pct_gas_red":0,"pct_gas_garrafa":100,"pct_lena_guano":100,"pct_basura_formal":100,"pct_basura_quema":0,"pct_basura_informal":0,"pct_internet":100,"pct_celular":100,"pct_televisor":83}},{"type":"Feature","geometry":{"type":"Polygon","coordinates":[[[-64.88328,-20.72487],[-64.88374,-20.72487],[-64.88376,-20.72434],[-64.88328,-20.72433],[-64.88328,-20.72487]]]},"properties":{"n":"VILLA CHARCAS","p":49,"personas_x_ha":159,"masculinidad":81,"pct_menor20":53,"pct_60mas":2,"pct_migrante":31,"dependencia_econ":181,"pct_empleados":56,"pct_cuentapropia":38,"pct_agricultura":31,"pct_comercio":19,"pct_manufactura":6,"pct_construccion":12,"pct_transporte":6,"pct_alojamiento":12,"pct_sin_educacion":14,"pct_educ_superior":9,"brecha_educ":-43,"pct_sin_seguro":18,"pct_sus":82,"pct_seguro_privado":0,"brecha_seguro":-13,"pct_salud_publica":25,"pct_med_tradicional":10,"pct_automedicacion":25,"pct_remedios_caseros":27,"pct_viv_desocupada":8,"pct_alquiler":17,"pct_electricidad":100,"pct_sin_electricidad":0,"pct_agua_red":100,"pct_alcantarillado":100,"pct_camara_septica":0,"pct_pozo_ciego":0,"pct_sin_desague":0,"pct_gas_red":0,"pct_gas_garrafa":92,"pct_lena_guano":92,"pct_basura_formal":100,"pct_basura_quema":0,"pct_basura_informal":0,"pct_internet":100,"pct_celular":100,"pct_televisor":83}},{"type":"Feature","geometry":{"type":"Polygon","coordinates":[[[-64.88597,-20.72565],[-64.88654,-20.72569],[-64.88657,-20.72514],[-64.88599,-20.72511],[-64.88597,-20.72565]]]},"properties":{"n":"VILLA CHARCAS","p":30,"personas_x_ha":78,"masculinidad":76,"pct_menor20":40,"pct_60mas":10,"pct_migrante":50,"dependencia_econ":114,"pct_empleados":43,"pct_cuentapropia":57,"pct_agricultura":36,"pct_comercio":14,"pct_manufactura":14,"pct_construccion":14,"pct_transporte":0,"pct_alojamiento":7,"pct_sin_educacion":16,"pct_educ_superior":11,"brecha_educ":-5,"pct_sin_seguro":28,"pct_sus":72,"pct_seguro_privado":0,"brecha_seguro":6,"pct_salud_publica":25,"pct_med_tradicional":7,"pct_automedicacion":26,"pct_remedios_caseros":23,"pct_viv_desocupada":0,"pct_alquiler":0,"pct_electricidad":100,"pct_sin_electricidad":0,"pct_agua_red":100,"pct_alcantarillado":88,"pct_camara_septica":0,"pct_pozo_ciego":0,"pct_sin_desague":12,"pct_gas_red":0,"pct_gas_garrafa":100,"pct_lena_guano":100,"pct_basura_formal":100,"pct_basura_quema":0,"pct_basura_informal":0,"pct_internet":100,"pct_celular":100,"pct_televisor":88}},{"type":"Feature","geometry":{"type":"Polygon","coordinates":[[[-64.88734,-20.72508],[-64.88802,-20.72514],[-64.88807,-20.72462],[-64.8874,-20.72456],[-64.88734,-20.72508]]]},"properties":{"n":"VILLA CHARCAS","p":24,"personas_x_ha":55,"masculinidad":85,"pct_menor20":29,"pct_60mas":17,"pct_migrante":46,"dependencia_econ":140,"pct_empleados":30,"pct_cuentapropia":50,"pct_agricultura":40,"pct_comercio":0,"pct_manufactura":20,"pct_construccion":10,"pct_transporte":0,"pct_alojamiento":30,"pct_sin_educacion":24,"pct_educ_superior":18,"brecha_educ":-15,"pct_sin_seguro":8,"pct_sus":92,"pct_seguro_privado":0,"brecha_seguro":-15,"pct_salud_publica":35,"pct_med_tradicional":2,"pct_automedicacion":33,"pct_remedios_caseros":30,"pct_viv_desocupada":0,"pct_alquiler":12,"pct_electricidad":100,"pct_sin_electricidad":0,"pct_agua_red":100,"pct_alcantarillado":100,"pct_camara_septica":0,"pct_pozo_ciego":0,"pct_sin_desague":0,"pct_gas_red":0,"pct_gas_garrafa":88,"pct_lena_guano":88,"pct_basura_formal":100,"pct_basura_quema":0,"pct_basura_informal":0,"pct_internet":75,"pct_celular":88,"pct_televisor":75}},{"type":"Feature","geometry":{"type":"Polygon","coordinates":[[[-64.88748,-20.72344],[-64.88745,-20.72399],[-64.88812,-20.72404],[-64.88816,-20.72346],[-64.88748,-20.72344]]]},"properties":{"n":"VILLA CHARCAS","p":59,"personas_x_ha":129,"masculinidad":119,"pct_menor20":31,"pct_60mas":3,"pct_migrante":44,"dependencia_econ":115,"pct_empleados":15,"pct_cuentapropia":81,"pct_agricultura":52,"pct_comercio":19,"pct_manufactura":11,"pct_construccion":4,"pct_transporte":4,"pct_alojamiento":7,"pct_sin_educacion":0,"pct_educ_superior":19,"brecha_educ":-8,"pct_sin_seguro":71,"pct_sus":28,"pct_seguro_privado":2,"brecha_seguro":3,"pct_salud_publica":28,"pct_med_tradicional":14,"pct_automedicacion":27,"pct_remedios_caseros":29,"pct_viv_desocupada":0,"pct_alquiler":35,"pct_electricidad":100,"pct_sin_electricidad":0,"pct_agua_red":41,"pct_alcantarillado":100,"pct_camara_septica":0,"pct_pozo_ciego":0,"pct_sin_desague":0,"pct_gas_red":0,"pct_gas_garrafa":100,"pct_lena_guano":100,"pct_basura_formal":100,"pct_basura_quema":0,"pct_basura_informal":0,"pct_internet":100,"pct_celular":100,"pct_televisor":71}},{"type":"Feature","geometry":{"type":"Polygon","coordinates":[[[-64.88384,-20.7249],[-64.8843,-20.72493],[-64.88436,-20.72438],[-64.88385,-20.72437],[-64.88384,-20.7249]]]},"properties":{"n":"VILLA CHARCAS","p":50,"personas_x_ha":159,"masculinidad":67,"pct_menor20":44,"pct_60mas":2,"pct_migrante":64,"dependencia_econ":92,"pct_empleados":15,"pct_cuentapropia":65,"pct_agricultura":23,"pct_comercio":15,"pct_manufactura":4,"pct_construccion":12,"pct_transporte":4,"pct_alojamiento":15,"pct_sin_educacion":10,"pct_educ_superior":34,"brecha_educ":-19,"pct_sin_seguro":12,"pct_sus":84,"pct_seguro_privado":0,"brecha_seguro":14,"pct_salud_publica":31,"pct_med_tradicional":8,"pct_automedicacion":28,"pct_remedios_caseros":24,"pct_viv_desocupada":12,"pct_alquiler":29,"pct_electricidad":100,"pct_sin_electricidad":0,"pct_agua_red":93,"pct_alcantarillado":100,"pct_camara_septica":0,"pct_pozo_ciego":0,"pct_sin_desague":0,"pct_gas_red":0,"pct_gas_garrafa":100,"pct_lena_guano":100,"pct_basura_formal":100,"pct_basura_quema":0,"pct_basura_informal":0,"pct_internet":93,"pct_celular":100,"pct_televisor":100}},{"type":"Feature","geometry":{"type":"Polygon","coordinates":[[[-64.88379,-20.72551],[-64.88425,-20.72553],[-64.8843,-20.72503],[-64.88384,-20.72498],[-64.88379,-20.72551]]]},"properties":{"n":"VILLA CHARCAS","p":35,"personas_x_ha":121,"masculinidad":150,"pct_menor20":46,"pct_60mas":3,"pct_migrante":37,"dependencia_econ":84,"pct_empleados":37,"pct_cuentapropia":53,"pct_agricultura":11,"pct_comercio":32,"pct_manufactura":5,"pct_construccion":21,"pct_transporte":0,"pct_alojamiento":16,"pct_sin_educacion":5,"pct_educ_superior":42,"brecha_educ":-13,"pct_sin_seguro":11,"pct_sus":89,"pct_seguro_privado":0,"brecha_seguro":-17,"pct_salud_publica":30,"pct_med_tradicional":8,"pct_automedicacion":22,"pct_remedios_caseros":29,"pct_viv_desocupada":8,"pct_alquiler":12,"pct_electricidad":100,"pct_sin_electricidad":0,"pct_agua_red":100,"pct_alcantarillado":100,"pct_camara_septica":0,"pct_pozo_ciego":0,"pct_sin_desague":0,"pct_gas_red":0,"pct_gas_garrafa":100,"pct_lena_guano":100,"pct_basura_formal":100,"pct_basura_quema":0,"pct_basura_informal":0,"pct_internet":100,"pct_celular":100,"pct_televisor":88}},{"type":"Feature","geometry":{"type":"Polygon","coordinates":[[[-64.88738,-20.72333],[-64.88745,-20.72265],[-64.88687,-20.72263],[-64.88681,-20.72328],[-64.88738,-20.72333]]]},"properties":{"n":"VILLA CHARCAS","p":28,"personas_x_ha":60,"masculinidad":75,"pct_menor20":39,"pct_60mas":14,"pct_migrante":32,"dependencia_econ":65,"pct_empleados":12,"pct_cuentapropia":71,"pct_agricultura":29,"pct_comercio":12,"pct_manufactura":0,"pct_construccion":0,"pct_transporte":0,"pct_alojamiento":24,"pct_sin_educacion":11,"pct_educ_superior":22,"brecha_educ":3,"pct_sin_seguro":15,"pct_sus":85,"pct_seguro_privado":0,"brecha_seguro":2,"pct_salud_publica":35,"pct_med_tradicional":1,"pct_automedicacion":31,"pct_remedios_caseros":32,"pct_viv_desocupada":13,"pct_alquiler":0,"pct_electricidad":100,"pct_sin_electricidad":0,"pct_agua_red":100,"pct_alcantarillado":100,"pct_camara_septica":0,"pct_pozo_ciego":0,"pct_sin_desague":0,"pct_gas_red":0,"pct_gas_garrafa":100,"pct_lena_guano":100,"pct_basura_formal":100,"pct_basura_quema":0,"pct_basura_informal":0,"pct_internet":73,"pct_celular":73,"pct_televisor":82}},{"type":"Feature","geometry":{"type":"Polygon","coordinates":[[[-64.88451,-20.72378],[-64.88464,-20.72377],[-64.88466,-20.72324],[-64.88455,-20.72325],[-64.88451,-20.72378]]]},"properties":{"n":"VILLA CHARCAS","p":15,"personas_x_ha":178,"masculinidad":114,"pct_menor20":13,"pct_60mas":20,"pct_migrante":40,"dependencia_econ":25,"pct_empleados":58,"pct_cuentapropia":8,"pct_agricultura":0,"pct_comercio":50,"pct_manufactura":0,"pct_construccion":0,"pct_transporte":0,"pct_alojamiento":0,"pct_sin_educacion":8,"pct_educ_superior":69,"brecha_educ":2,"pct_sin_seguro":20,"pct_sus":80,"pct_seguro_privado":0,"brecha_seguro":38,"pct_salud_publica":17,"pct_med_tradicional":20,"pct_automedicacion":22,"pct_remedios_caseros":23,"pct_viv_desocupada":0,"pct_alquiler":25,"pct_electricidad":100,"pct_sin_electricidad":0,"pct_agua_red":100,"pct_alcantarillado":100,"pct_camara_septica":0,"pct_pozo_ciego":0,"pct_sin_desague":0,"pct_gas_red":0,"pct_gas_garrafa":100,"pct_lena_guano":100,"pct_basura_formal":100,"pct_basura_quema":0,"pct_basura_informal":0,"pct_internet":62,"pct_celular":62,"pct_televisor":62}},{"type":"Feature","geometry":{"type":"Polygon","coordinates":[[[-64.88466,-20.72262],[-64.88456,-20.72318],[-64.88545,-20.72321],[-64.88547,-20.72266],[-64.88466,-20.72262]]]},"properties":{"n":"VILLA CHARCAS","p":78,"personas_x_ha":133,"masculinidad":77,"pct_menor20":33,"pct_60mas":9,"pct_migrante":50,"dependencia_econ":60,"pct_empleados":17,"pct_cuentapropia":65,"pct_agricultura":12,"pct_comercio":44,"pct_manufactura":0,"pct_construccion":4,"pct_transporte":6,"pct_alojamiento":0,"pct_sin_educacion":4,"pct_educ_superior":35,"brecha_educ":-30,"pct_sin_seguro":8,"pct_sus":74,"pct_seguro_privado":0,"brecha_seguro":2,"pct_salud_publica":26,"pct_med_tradicional":13,"pct_automedicacion":23,"pct_remedios_caseros":22,"pct_viv_desocupada":3,"pct_alquiler":30,"pct_electricidad":100,"pct_sin_electricidad":0,"pct_agua_red":100,"pct_alcantarillado":100,"pct_camara_septica":0,"pct_pozo_ciego":0,"pct_sin_desague":0,"pct_gas_red":0,"pct_gas_garrafa":97,"pct_lena_guano":97,"pct_basura_formal":100,"pct_basura_quema":0,"pct_basura_informal":0,"pct_internet":77,"pct_celular":80,"pct_televisor":67}},{"type":"Feature","geometry":{"type":"Polygon","coordinates":[[[-64.88566,-20.71988],[-64.88505,-20.72016],[-64.88531,-20.72063],[-64.88567,-20.72064],[-64.88566,-20.71988]]]},"properties":{"n":"VILLA CHARCAS","p":22,"personas_x_ha":58,"masculinidad":144,"pct_menor20":50,"pct_60mas":9,"pct_migrante":36,"dependencia_econ":100,"pct_empleados":50,"pct_cuentapropia":25,"pct_agricultura":50,"pct_comercio":0,"pct_manufactura":25,"pct_construccion":12,"pct_transporte":0,"pct_alojamiento":0,"pct_sin_educacion":10,"pct_educ_superior":10,"brecha_educ":-83,"pct_sin_seguro":19,"pct_sus":75,"pct_seguro_privado":0,"brecha_seguro":12,"pct_salud_publica":14,"pct_med_tradicional":11,"pct_automedicacion":26,"pct_remedios_caseros":25,"pct_viv_desocupada":0,"pct_alquiler":25,"pct_electricidad":100,"pct_sin_electricidad":0,"pct_agua_red":88,"pct_alcantarillado":75,"pct_camara_septica":0,"pct_pozo_ciego":0,"pct_sin_desague":12,"pct_gas_red":0,"pct_gas_garrafa":88,"pct_lena_guano":88,"pct_basura_formal":88,"pct_basura_quema":12,"pct_basura_informal":0,"pct_internet":88,"pct_celular":100,"pct_televisor":100}},{"type":"Feature","geometry":{"type":"Polygon","coordinates":[[[-64.88547,-20.72386],[-64.88601,-20.72389],[-64.88605,-20.72332],[-64.88551,-20.7233],[-64.88547,-20.72386]]]},"properties":{"n":"VILLA CHARCAS","p":29,"personas_x_ha":82,"masculinidad":71,"pct_menor20":52,"pct_60mas":7,"pct_migrante":59,"dependencia_econ":123,"pct_empleados":0,"pct_cuentapropia":85,"pct_agricultura":23,"pct_comercio":46,"pct_manufactura":0,"pct_construccion":15,"pct_transporte":0,"pct_alojamiento":8,"pct_sin_educacion":19,"pct_educ_superior":0,"brecha_educ":-16,"pct_sin_seguro":14,"pct_sus":86,"pct_seguro_privado":0,"brecha_seguro":-9,"pct_salud_publica":24,"pct_med_tradicional":19,"pct_automedicacion":25,"pct_remedios_caseros":22,"pct_viv_desocupada":17,"pct_alquiler":22,"pct_electricidad":100,"pct_sin_electricidad":0,"pct_agua_red":100,"pct_alcantarillado":100,"pct_camara_septica":0,"pct_pozo_ciego":0,"pct_sin_desague":0,"pct_gas_red":0,"pct_gas_garrafa":100,"pct_lena_guano":100,"pct_basura_formal":100,"pct_basura_quema":0,"pct_basura_informal":0,"pct_internet":100,"pct_celular":100,"pct_televisor":100}},{"type":"Feature","geometry":{"type":"Polygon","coordinates":[[[-64.88494,-20.72018],[-64.88412,-20.72034],[-64.88412,-20.72062],[-64.88518,-20.72061],[-64.88494,-20.72018]]]},"properties":{"n":"VILLA CHARCAS","p":22,"personas_x_ha":54,"masculinidad":47,"pct_menor20":32,"pct_60mas":14,"pct_migrante":36,"dependencia_econ":83,"pct_empleados":8,"pct_cuentapropia":75,"pct_agricultura":50,"pct_comercio":33,"pct_manufactura":0,"pct_construccion":0,"pct_transporte":8,"pct_alojamiento":8,"pct_sin_educacion":12,"pct_educ_superior":12,"brecha_educ":17,"pct_sin_seguro":10,"pct_sus":85,"pct_seguro_privado":0,"brecha_seguro":33,"pct_salud_publica":28,"pct_med_tradicional":11,"pct_automedicacion":15,"pct_remedios_caseros":24,"pct_viv_desocupada":0,"pct_alquiler":11,"pct_electricidad":100,"pct_sin_electricidad":0,"pct_agua_red":100,"pct_alcantarillado":78,"pct_camara_septica":22,"pct_pozo_ciego":0,"pct_sin_desague":0,"pct_gas_red":0,"pct_gas_garrafa":100,"pct_lena_guano":100,"pct_basura_formal":100,"pct_basura_quema":0,"pct_basura_informal":0,"pct_internet":44,"pct_celular":89,"pct_televisor":78}},{"type":"Feature","geometry":{"type":"Polygon","coordinates":[[[-64.88625,-20.72064],[-64.88624,-20.71978],[-64.88576,-20.71981],[-64.88575,-20.72064],[-64.88625,-20.72064]]]},"properties":{"n":"VILLA CHARCAS","p":24,"personas_x_ha":46,"masculinidad":85,"pct_menor20":38,"pct_60mas":4,"pct_migrante":46,"dependencia_econ":300,"pct_empleados":17,"pct_cuentapropia":33,"pct_agricultura":50,"pct_comercio":17,"pct_manufactura":0,"pct_construccion":0,"pct_transporte":0,"pct_alojamiento":0,"pct_sin_educacion":13,"pct_educ_superior":13,"brecha_educ":-18,"pct_sin_seguro":12,"pct_sus":67,"pct_seguro_privado":0,"brecha_seguro":-23,"pct_salud_publica":31,"pct_med_tradicional":8,"pct_automedicacion":32,"pct_remedios_caseros":24,"pct_viv_desocupada":9,"pct_alquiler":25,"pct_electricidad":88,"pct_sin_electricidad":0,"pct_agua_red":100,"pct_alcantarillado":100,"pct_camara_septica":0,"pct_pozo_ciego":0,"pct_sin_desague":0,"pct_gas_red":0,"pct_gas_garrafa":100,"pct_lena_guano":100,"pct_basura_formal":100,"pct_basura_quema":0,"pct_basura_informal":0,"pct_internet":75,"pct_celular":100,"pct_televisor":38}},{"type":"Feature","geometry":{"type":"Polygon","coordinates":[[[-64.88715,-20.72633],[-64.88655,-20.72631],[-64.88653,-20.72669],[-64.8871,-20.72662],[-64.88715,-20.72633]]]},"properties":{"n":"VILLA CHARCAS","p":25,"personas_x_ha":108,"masculinidad":108,"pct_menor20":48,"pct_60mas":4,"pct_migrante":64,"dependencia_econ":150,"pct_empleados":40,"pct_cuentapropia":50,"pct_agricultura":0,"pct_comercio":20,"pct_manufactura":20,"pct_construccion":10,"pct_transporte":0,"pct_alojamiento":10,"pct_sin_educacion":8,"pct_educ_superior":23,"brecha_educ":-5,"pct_sin_seguro":24,"pct_sus":68,"pct_seguro_privado":0,"brecha_seguro":-2,"pct_salud_publica":29,"pct_med_tradicional":9,"pct_automedicacion":19,"pct_remedios_caseros":23,"pct_viv_desocupada":0,"pct_alquiler":14,"pct_electricidad":100,"pct_sin_electricidad":0,"pct_agua_red":100,"pct_alcantarillado":86,"pct_camara_septica":14,"pct_pozo_ciego":0,"pct_sin_desague":0,"pct_gas_red":0,"pct_gas_garrafa":86,"pct_lena_guano":86,"pct_basura_formal":86,"pct_basura_quema":14,"pct_basura_informal":0,"pct_internet":86,"pct_celular":86,"pct_televisor":71}},{"type":"Feature","geometry":{"type":"Polygon","coordinates":[[[-64.8833,-20.72368],[-64.88381,-20.72375],[-64.88385,-20.72319],[-64.88349,-20.72317],[-64.8833,-20.72368]]]},"properties":{"n":"VILLA CHARCAS","p":42,"personas_x_ha":153,"masculinidad":100,"pct_menor20":33,"pct_60mas":14,"pct_migrante":55,"dependencia_econ":91,"pct_empleados":32,"pct_cuentapropia":64,"pct_agricultura":23,"pct_comercio":14,"pct_manufactura":14,"pct_construccion":5,"pct_transporte":14,"pct_alojamiento":0,"pct_sin_educacion":10,"pct_educ_superior":38,"brecha_educ":-2,"pct_sin_seguro":17,"pct_sus":66,"pct_seguro_privado":0,"brecha_seguro":24,"pct_salud_publica":23,"pct_med_tradicional":8,"pct_automedicacion":24,"pct_remedios_caseros":24,"pct_viv_desocupada":0,"pct_alquiler":0,"pct_electricidad":90,"pct_sin_electricidad":10,"pct_agua_red":90,"pct_alcantarillado":90,"pct_camara_septica":0,"pct_pozo_ciego":0,"pct_sin_desague":10,"pct_gas_red":0,"pct_gas_garrafa":90,"pct_lena_guano":90,"pct_basura_formal":100,"pct_basura_quema":0,"pct_basura_informal":0,"pct_internet":80,"pct_celular":90,"pct_televisor":90}},{"type":"Feature","geometry":{"type":"Polygon","coordinates":[[[-64.88594,-20.73153],[-64.88601,-20.73155],[-64.8861,-20.73133],[-64.88665,-20.73066],[-64.88681,-20.73031],[-64.88684,-20.72969],[-64.88626,-20.72968],[-64.88614,-20.73066],[-64.8855,-20.73065],[-64.88594,-20.73153]]]},"properties":{"n":"VILLA CHARCAS","p":29,"personas_x_ha":23,"masculinidad":123,"pct_menor20":31,"pct_60mas":7,"pct_migrante":31,"dependencia_econ":61,"pct_empleados":28,"pct_cuentapropia":67,"pct_agricultura":44,"pct_comercio":28,"pct_manufactura":0,"pct_construccion":17,"pct_transporte":0,"pct_alojamiento":6,"pct_sin_educacion":10,"pct_educ_superior":0,"brecha_educ":-35,"pct_sin_seguro":33,"pct_sus":67,"pct_seguro_privado":0,"brecha_seguro":-10,"pct_salud_publica":32,"pct_med_tradicional":1,"pct_automedicacion":35,"pct_remedios_caseros":32,"pct_viv_desocupada":0,"pct_alquiler":50,"pct_electricidad":100,"pct_sin_electricidad":0,"pct_agua_red":100,"pct_alcantarillado":70,"pct_camara_septica":0,"pct_pozo_ciego":20,"pct_sin_desague":10,"pct_gas_red":0,"pct_gas_garrafa":100,"pct_lena_guano":100,"pct_basura_formal":100,"pct_basura_quema":0,"pct_basura_informal":0,"pct_internet":80,"pct_celular":80,"pct_televisor":80}},{"type":"Feature","geometry":{"type":"Polygon","coordinates":[[[-64.88608,-20.72391],[-64.88669,-20.72395],[-64.88671,-20.72335],[-64.88613,-20.72334],[-64.88608,-20.72391]]]},"properties":{"n":"VILLA CHARCAS","p":80,"personas_x_ha":194,"masculinidad":67,"pct_menor20":41,"pct_60mas":9,"pct_migrante":35,"dependencia_econ":111,"pct_empleados":8,"pct_cuentapropia":76,"pct_agricultura":58,"pct_comercio":13,"pct_manufactura":3,"pct_construccion":3,"pct_transporte":0,"pct_alojamiento":3,"pct_sin_educacion":6,"pct_educ_superior":39,"brecha_educ":2,"pct_sin_seguro":5,"pct_sus":85,"pct_seguro_privado":1,"brecha_seguro":7,"pct_salud_publica":30,"pct_med_tradicional":10,"pct_automedicacion":30,"pct_remedios_caseros":21,"pct_viv_desocupada":0,"pct_alquiler":58,"pct_electricidad":100,"pct_sin_electricidad":0,"pct_agua_red":92,"pct_alcantarillado":77,"pct_camara_septica":19,"pct_pozo_ciego":0,"pct_sin_desague":4,"pct_gas_red":0,"pct_gas_garrafa":96,"pct_lena_guano":96,"pct_basura_formal":96,"pct_basura_quema":0,"pct_basura_informal":0,"pct_internet":85,"pct_celular":96,"pct_televisor":77}},{"type":"Feature","geometry":{"type":"Polygon","coordinates":[[[-64.88438,-20.72555],[-64.8852,-20.72559],[-64.88526,-20.72506],[-64.88441,-20.72502],[-64.88438,-20.72555]]]},"properties":{"n":"VILLA CHARCAS","p":42,"personas_x_ha":77,"masculinidad":75,"pct_menor20":31,"pct_60mas":10,"pct_migrante":62,"dependencia_econ":74,"pct_empleados":9,"pct_cuentapropia":61,"pct_agricultura":35,"pct_comercio":17,"pct_manufactura":9,"pct_construccion":22,"pct_transporte":0,"pct_alojamiento":9,"pct_sin_educacion":7,"pct_educ_superior":14,"brecha_educ":-5,"pct_sin_seguro":18,"pct_sus":78,"pct_seguro_privado":0,"brecha_seguro":0,"pct_salud_publica":43,"pct_med_tradicional":9,"pct_automedicacion":14,"pct_remedios_caseros":23,"pct_viv_desocupada":0,"pct_alquiler":29,"pct_electricidad":100,"pct_sin_electricidad":0,"pct_agua_red":100,"pct_alcantarillado":100,"pct_camara_septica":0,"pct_pozo_ciego":0,"pct_sin_desague":0,"pct_gas_red":0,"pct_gas_garrafa":100,"pct_lena_guano":100,"pct_basura_formal":100,"pct_basura_quema":0,"pct_basura_informal":0,"pct_internet":86,"pct_celular":86,"pct_televisor":86}},{"type":"Feature","geometry":{"type":"Polygon","coordinates":[[[-64.88674,-20.72444],[-64.8873,-20.72449],[-64.88734,-20.72409],[-64.88678,-20.72402],[-64.88674,-20.72444]]]},"properties":{"n":"VILLA CHARCAS","p":28,"personas_x_ha":97,"masculinidad":65,"pct_menor20":43,"pct_60mas":7,"pct_migrante":29,"dependencia_econ":250,"pct_empleados":0,"pct_cuentapropia":88,"pct_agricultura":50,"pct_comercio":50,"pct_manufactura":0,"pct_construccion":0,"pct_transporte":0,"pct_alojamiento":0,"pct_sin_educacion":0,"pct_educ_superior":12,"brecha_educ":-50,"pct_sin_seguro":36,"pct_sus":64,"pct_seguro_privado":0,"brecha_seguro":31,"pct_salud_publica":26,"pct_med_tradicional":24,"pct_automedicacion":25,"pct_remedios_caseros":24,"pct_viv_desocupada":0,"pct_alquiler":0,"pct_electricidad":100,"pct_sin_electricidad":0,"pct_agua_red":100,"pct_alcantarillado":100,"pct_camara_septica":0,"pct_pozo_ciego":0,"pct_sin_desague":0,"pct_gas_red":0,"pct_gas_garrafa":100,"pct_lena_guano":100,"pct_basura_formal":100,"pct_basura_quema":0,"pct_basura_informal":0,"pct_internet":89,"pct_celular":100,"pct_televisor":89}},{"type":"Feature","geometry":{"type":"Polygon","coordinates":[[[-64.8854,-20.72499],[-64.88591,-20.72502],[-64.88596,-20.7245],[-64.88543,-20.72445],[-64.8854,-20.72499]]]},"properties":{"n":"VILLA CHARCAS","p":61,"personas_x_ha":181,"masculinidad":65,"pct_menor20":41,"pct_60mas":3,"pct_migrante":34,"dependencia_econ":62,"pct_empleados":14,"pct_cuentapropia":81,"pct_agricultura":14,"pct_comercio":14,"pct_manufactura":0,"pct_construccion":3,"pct_transporte":5,"pct_alojamiento":3,"pct_sin_educacion":3,"pct_educ_superior":41,"brecha_educ":-16,"pct_sin_seguro":20,"pct_sus":78,"pct_seguro_privado":0,"brecha_seguro":-12,"pct_salud_publica":22,"pct_med_tradicional":13,"pct_automedicacion":19,"pct_remedios_caseros":25,"pct_viv_desocupada":7,"pct_alquiler":21,"pct_electricidad":100,"pct_sin_electricidad":0,"pct_agua_red":100,"pct_alcantarillado":100,"pct_camara_septica":0,"pct_pozo_ciego":0,"pct_sin_desague":0,"pct_gas_red":0,"pct_gas_garrafa":100,"pct_lena_guano":100,"pct_basura_formal":100,"pct_basura_quema":0,"pct_basura_informal":0,"pct_internet":79,"pct_celular":79,"pct_televisor":71}},{"type":"Feature","geometry":{"type":"Polygon","coordinates":[[[-64.88604,-20.72441],[-64.88664,-20.72444],[-64.88667,-20.72401],[-64.88607,-20.72397],[-64.88604,-20.72441]]]},"properties":{"n":"VILLA CHARCAS","p":30,"personas_x_ha":99,"masculinidad":131,"pct_menor20":23,"pct_60mas":13,"pct_migrante":27,"dependencia_econ":15,"pct_empleados":31,"pct_cuentapropia":42,"pct_agricultura":38,"pct_comercio":27,"pct_manufactura":0,"pct_construccion":0,"pct_transporte":4,"pct_alojamiento":12,"pct_sin_educacion":8,"pct_educ_superior":12,"brecha_educ":-30,"pct_sin_seguro":17,"pct_sus":77,"pct_seguro_privado":0,"brecha_seguro":2,"pct_salud_publica":23,"pct_med_tradicional":9,"pct_automedicacion":25,"pct_remedios_caseros":23,"pct_viv_desocupada":0,"pct_alquiler":10,"pct_electricidad":100,"pct_sin_electricidad":0,"pct_agua_red":100,"pct_alcantarillado":100,"pct_camara_septica":0,"pct_pozo_ciego":0,"pct_sin_desague":0,"pct_gas_red":0,"pct_gas_garrafa":90,"pct_lena_guano":90,"pct_basura_formal":100,"pct_basura_quema":0,"pct_basura_informal":0,"pct_internet":100,"pct_celular":100,"pct_televisor":90}},{"type":"Feature","geometry":{"type":"Polygon","coordinates":[[[-64.88676,-20.72395],[-64.88736,-20.724],[-64.88739,-20.72342],[-64.88679,-20.72339],[-64.88676,-20.72395]]]},"properties":{"n":"VILLA CHARCAS","p":48,"personas_x_ha":116,"masculinidad":71,"pct_menor20":46,"pct_60mas":4,"pct_migrante":40,"dependencia_econ":283,"pct_empleados":8,"pct_cuentapropia":25,"pct_agricultura":8,"pct_comercio":8,"pct_manufactura":17,"pct_construccion":0,"pct_transporte":8,"pct_alojamiento":0,"pct_sin_educacion":4,"pct_educ_superior":35,"brecha_educ":-6,"pct_sin_seguro":11,"pct_sus":89,"pct_seguro_privado":0,"brecha_seguro":-1,"pct_salud_publica":90,"pct_med_tradicional":0,"pct_automedicacion":0,"pct_remedios_caseros":10,"pct_viv_desocupada":0,"pct_alquiler":31,"pct_electricidad":100,"pct_sin_electricidad":0,"pct_agua_red":92,"pct_alcantarillado":100,"pct_camara_septica":0,"pct_pozo_ciego":0,"pct_sin_desague":0,"pct_gas_red":0,"pct_gas_garrafa":100,"pct_lena_guano":100,"pct_basura_formal":100,"pct_basura_quema":0,"pct_basura_informal":0,"pct_internet":85,"pct_celular":85,"pct_televisor":62}},{"type":"Feature","geometry":{"type":"Polygon","coordinates":[[[-64.8875,-20.72333],[-64.88816,-20.72337],[-64.8882,-20.72267],[-64.88755,-20.72265],[-64.8875,-20.72333]]]},"properties":{"n":"VILLA CHARCAS","p":17,"personas_x_ha":32,"masculinidad":112,"pct_menor20":41,"pct_60mas":6,"pct_migrante":35,"dependencia_econ":55,"pct_empleados":27,"pct_cuentapropia":45,"pct_agricultura":18,"pct_comercio":36,"pct_manufactura":0,"pct_construccion":9,"pct_transporte":9,"pct_alojamiento":9,"pct_sin_educacion":10,"pct_educ_superior":10,"brecha_educ":-20,"pct_sin_seguro":18,"pct_sus":82,"pct_seguro_privado":0,"brecha_seguro":10,"pct_salud_publica":26,"pct_med_tradicional":7,"pct_automedicacion":28,"pct_remedios_caseros":28,"pct_viv_desocupada":0,"pct_alquiler":0,"pct_electricidad":100,"pct_sin_electricidad":0,"pct_agua_red":80,"pct_alcantarillado":100,"pct_camara_septica":0,"pct_pozo_ciego":0,"pct_sin_desague":0,"pct_gas_red":0,"pct_gas_garrafa":100,"pct_lena_guano":100,"pct_basura_formal":100,"pct_basura_quema":0,"pct_basura_informal":0,"pct_internet":100,"pct_celular":100,"pct_televisor":60}},{"type":"Feature","geometry":{"type":"Polygon","coordinates":[[[-64.88668,-20.72506],[-64.88726,-20.72509],[-64.88731,-20.72459],[-64.88671,-20.72456],[-64.88668,-20.72506]]]},"properties":{"n":"VILLA CHARCAS","p":54,"personas_x_ha":151,"masculinidad":100,"pct_menor20":24,"pct_60mas":7,"pct_migrante":46,"dependencia_econ":43,"pct_empleados":16,"pct_cuentapropia":65,"pct_agricultura":59,"pct_comercio":11,"pct_manufactura":16,"pct_construccion":5,"pct_transporte":5,"pct_alojamiento":0,"pct_sin_educacion":0,"pct_educ_superior":10,"brecha_educ":-8,"pct_sin_seguro":25,"pct_sus":74,"pct_seguro_privado":0,"brecha_seguro":18,"pct_salud_publica":25,"pct_med_tradicional":8,"pct_automedicacion":24,"pct_remedios_caseros":24,"pct_viv_desocupada":0,"pct_alquiler":40,"pct_electricidad":100,"pct_sin_electricidad":0,"pct_agua_red":100,"pct_alcantarillado":95,"pct_camara_septica":0,"pct_pozo_ciego":5,"pct_sin_desague":0,"pct_gas_red":0,"pct_gas_garrafa":90,"pct_lena_guano":90,"pct_basura_formal":95,"pct_basura_quema":5,"pct_basura_informal":0,"pct_internet":75,"pct_celular":95,"pct_televisor":85}},{"type":"Feature","geometry":{"type":"Polygon","coordinates":[[[-64.88601,-20.72502],[-64.88659,-20.72505],[-64.88663,-20.72453],[-64.88603,-20.7245],[-64.88601,-20.72502]]]},"properties":{"n":"VILLA CHARCAS","p":38,"personas_x_ha":104,"masculinidad":65,"pct_menor20":37,"pct_60mas":0,"pct_migrante":50,"dependencia_econ":100,"pct_empleados":68,"pct_cuentapropia":16,"pct_agricultura":21,"pct_comercio":11,"pct_manufactura":0,"pct_construccion":11,"pct_transporte":0,"pct_alojamiento":5,"pct_sin_educacion":0,"pct_educ_superior":52,"brecha_educ":3,"pct_sin_seguro":11,"pct_sus":50,"pct_seguro_privado":3,"brecha_seguro":5,"pct_salud_publica":26,"pct_med_tradicional":10,"pct_automedicacion":24,"pct_remedios_caseros":16,"pct_viv_desocupada":6,"pct_alquiler":56,"pct_electricidad":100,"pct_sin_electricidad":0,"pct_agua_red":100,"pct_alcantarillado":94,"pct_camara_septica":6,"pct_pozo_ciego":0,"pct_sin_desague":0,"pct_gas_red":0,"pct_gas_garrafa":88,"pct_lena_guano":88,"pct_basura_formal":100,"pct_basura_quema":0,"pct_basura_informal":0,"pct_internet":94,"pct_celular":94,"pct_televisor":56}},{"type":"Feature","geometry":{"type":"Polygon","coordinates":[[[-64.88563,-20.71913],[-64.88552,-20.71907],[-64.88471,-20.71947],[-64.88501,-20.72006],[-64.88562,-20.71979],[-64.88563,-20.71913]]]},"properties":{"n":"VILLA CHARCAS","p":30,"personas_x_ha":44,"masculinidad":114,"pct_menor20":43,"pct_60mas":3,"pct_migrante":40,"dependencia_econ":93,"pct_empleados":14,"pct_cuentapropia":86,"pct_agricultura":36,"pct_comercio":36,"pct_manufactura":0,"pct_construccion":0,"pct_transporte":0,"pct_alojamiento":0,"pct_sin_educacion":14,"pct_educ_superior":7,"brecha_educ":-56,"pct_sin_seguro":33,"pct_sus":52,"pct_seguro_privado":0,"brecha_seguro":-5,"pct_salud_publica":25,"pct_med_tradicional":16,"pct_automedicacion":23,"pct_remedios_caseros":17,"pct_viv_desocupada":0,"pct_alquiler":0,"pct_electricidad":83,"pct_sin_electricidad":0,"pct_agua_red":50,"pct_alcantarillado":83,"pct_camara_septica":0,"pct_pozo_ciego":0,"pct_sin_desague":17,"pct_gas_red":0,"pct_gas_garrafa":100,"pct_lena_guano":100,"pct_basura_formal":100,"pct_basura_quema":0,"pct_basura_informal":0,"pct_internet":100,"pct_celular":100,"pct_televisor":83}},{"type":"Feature","geometry":{"type":"Polygon","coordinates":[[[-64.88466,-20.71941],[-64.8856,-20.71895],[-64.88561,-20.71845],[-64.88435,-20.71864],[-64.88429,-20.71873],[-64.88466,-20.71941]]]},"properties":{"n":"VILLA CHARCAS","p":67,"personas_x_ha":75,"masculinidad":86,"pct_menor20":45,"pct_60mas":4,"pct_migrante":27,"dependencia_econ":379,"pct_empleados":36,"pct_cuentapropia":43,"pct_agricultura":21,"pct_comercio":14,"pct_manufactura":0,"pct_construccion":21,"pct_transporte":7,"pct_alojamiento":0,"pct_sin_educacion":5,"pct_educ_superior":27,"brecha_educ":-1,"pct_sin_seguro":7,"pct_sus":90,"pct_seguro_privado":0,"brecha_seguro":4,"pct_salud_publica":55,"pct_med_tradicional":9,"pct_automedicacion":19,"pct_remedios_caseros":10,"pct_viv_desocupada":0,"pct_alquiler":24,"pct_electricidad":100,"pct_sin_electricidad":0,"pct_agua_red":94,"pct_alcantarillado":100,"pct_camara_septica":0,"pct_pozo_ciego":0,"pct_sin_desague":0,"pct_gas_red":0,"pct_gas_garrafa":100,"pct_lena_guano":100,"pct_basura_formal":100,"pct_basura_quema":0,"pct_basura_informal":0,"pct_internet":41,"pct_celular":100,"pct_televisor":88}},{"type":"Feature","geometry":{"type":"Polygon","coordinates":[[[-64.88473,-20.72352],[-64.88541,-20.72355],[-64.88544,-20.72331],[-64.88475,-20.72326],[-64.88473,-20.72352]]]},"properties":{"n":"VILLA CHARCAS","p":39,"personas_x_ha":183,"masculinidad":62,"pct_menor20":44,"pct_60mas":8,"pct_migrante":67,"dependencia_econ":70,"pct_empleados":39,"pct_cuentapropia":52,"pct_agricultura":4,"pct_comercio":35,"pct_manufactura":0,"pct_construccion":4,"pct_transporte":0,"pct_alojamiento":9,"pct_sin_educacion":0,"pct_educ_superior":78,"brecha_educ":11,"pct_sin_seguro":11,"pct_sus":46,"pct_seguro_privado":0,"brecha_seguro":-6,"pct_salud_publica":26,"pct_med_tradicional":11,"pct_automedicacion":20,"pct_remedios_caseros":21,"pct_viv_desocupada":21,"pct_alquiler":20,"pct_electricidad":100,"pct_sin_electricidad":0,"pct_agua_red":100,"pct_alcantarillado":100,"pct_camara_septica":0,"pct_pozo_ciego":0,"pct_sin_desague":0,"pct_gas_red":10,"pct_gas_garrafa":80,"pct_lena_guano":80,"pct_basura_formal":100,"pct_basura_quema":0,"pct_basura_informal":0,"pct_internet":100,"pct_celular":100,"pct_televisor":90}},{"type":"Feature","geometry":{"type":"Polygon","coordinates":[[[-64.88491,-20.72189],[-64.88554,-20.72192],[-64.8856,-20.7214],[-64.88505,-20.72135],[-64.88491,-20.72189]]]},"properties":{"n":"VILLA CHARCAS","p":54,"personas_x_ha":140,"masculinidad":86,"pct_menor20":35,"pct_60mas":7,"pct_migrante":46,"dependencia_econ":117,"pct_empleados":8,"pct_cuentapropia":58,"pct_agricultura":54,"pct_comercio":17,"pct_manufactura":0,"pct_construccion":0,"pct_transporte":8,"pct_alojamiento":4,"pct_sin_educacion":3,"pct_educ_superior":20,"brecha_educ":11,"pct_sin_seguro":30,"pct_sus":68,"pct_seguro_privado":2,"brecha_seguro":-23,"pct_salud_publica":31,"pct_med_tradicional":9,"pct_automedicacion":26,"pct_remedios_caseros":27,"pct_viv_desocupada":12,"pct_alquiler":21,"pct_electricidad":100,"pct_sin_electricidad":0,"pct_agua_red":100,"pct_alcantarillado":84,"pct_camara_septica":0,"pct_pozo_ciego":11,"pct_sin_desague":5,"pct_gas_red":5,"pct_gas_garrafa":95,"pct_lena_guano":95,"pct_basura_formal":100,"pct_basura_quema":0,"pct_basura_informal":0,"pct_internet":84,"pct_celular":89,"pct_televisor":63}}]}