{"type":"FeatureCollection","features":[{"type":"Feature","geometry":{"type":"Polygon","coordinates":[[[-66.51575,-17.98173],[-66.51569,-17.98143],[-66.51362,-17.98237],[-66.51405,-17.98267],[-66.51424,-17.98257],[-66.51441,-17.9827],[-66.51538,-17.98208],[-66.51575,-17.98173]]]},"properties":{"n":"ATOJHUAYCO","p":29,"personas_x_ha":23,"masculinidad":222,"pct_menor20":59,"pct_60mas":3,"pct_migrante":0,"dependencia_econ":125,"pct_empleados":0,"pct_cuentapropia":58,"pct_agricultura":100,"pct_comercio":0,"pct_manufactura":0,"pct_construccion":0,"pct_transporte":0,"pct_alojamiento":0,"pct_sin_educacion":0,"pct_educ_superior":0,"brecha_educ":0,"pct_sin_seguro":50,"pct_sus":50,"pct_seguro_privado":0,"brecha_seguro":13,"pct_salud_publica":85,"pct_med_tradicional":0,"pct_automedicacion":0,"pct_remedios_caseros":15,"pct_viv_desocupada":0,"pct_alquiler":0,"pct_electricidad":100,"pct_sin_electricidad":0,"pct_agua_red":62,"pct_alcantarillado":12,"pct_camara_septica":0,"pct_pozo_ciego":0,"pct_sin_desague":88,"pct_gas_red":0,"pct_gas_garrafa":0,"pct_lena_guano":0,"pct_basura_formal":0,"pct_basura_quema":62,"pct_basura_informal":0,"pct_internet":12,"pct_celular":50,"pct_televisor":25}},{"type":"Feature","geometry":{"type":"Polygon","coordinates":[[[-66.51575,-17.98133],[-66.51551,-17.98104],[-66.51538,-17.98113],[-66.51532,-17.98105],[-66.51538,-17.98112],[-66.51558,-17.98099],[-66.51584,-17.98092],[-66.51559,-17.98057],[-66.51514,-17.98087],[-66.5151,-17.98082],[-66.51514,-17.98086],[-66.51528,-17.98076],[-66.51512,-17.98053],[-66.51545,-17.98029],[-66.51534,-17.98015],[-66.51502,-17.98038],[-66.51476,-17.98002],[-66.51424,-17.9804],[-66.51518,-17.98157],[-66.51544,-17.98146],[-66.51537,-17.98134],[-66.51545,-17.98146],[-66.51575,-17.98133]]]},"properties":{"n":"ATOJHUAYCO","p":40,"personas_x_ha":30,"masculinidad":167,"pct_menor20":38,"pct_60mas":12,"pct_migrante":8,"dependencia_econ":227,"pct_empleados":9,"pct_cuentapropia":36,"pct_agricultura":73,"pct_comercio":18,"pct_manufactura":0,"pct_construccion":0,"pct_transporte":9,"pct_alojamiento":0,"pct_sin_educacion":14,"pct_educ_superior":5,"brecha_educ":-38,"pct_sin_seguro":0,"pct_sus":100,"pct_seguro_privado":0,"brecha_seguro":0,"pct_salud_publica":63,"pct_med_tradicional":2,"pct_automedicacion":6,"pct_remedios_caseros":30,"pct_viv_desocupada":16,"pct_alquiler":0,"pct_electricidad":100,"pct_sin_electricidad":0,"pct_agua_red":47,"pct_alcantarillado":7,"pct_camara_septica":0,"pct_pozo_ciego":7,"pct_sin_desague":67,"pct_gas_red":0,"pct_gas_garrafa":40,"pct_lena_guano":53,"pct_basura_formal":0,"pct_basura_quema":93,"pct_basura_informal":0,"pct_internet":67,"pct_celular":87,"pct_televisor":53}},{"type":"Feature","geometry":{"type":"Polygon","coordinates":[[[-66.51317,-17.98115],[-66.51413,-17.98202],[-66.51356,-17.98228],[-66.51341,-17.9821],[-66.51263,-17.98158],[-66.51277,-17.98139],[-66.51317,-17.98115]]]},"properties":{"n":"ATOJHUAYCO","p":24,"personas_x_ha":26,"masculinidad":100,"pct_menor20":71,"pct_60mas":0,"pct_migrante":0,"dependencia_econ":140,"pct_empleados":0,"pct_cuentapropia":80,"pct_agricultura":100,"pct_comercio":0,"pct_manufactura":0,"pct_construccion":0,"pct_transporte":0,"pct_alojamiento":0,"pct_sin_educacion":12,"pct_educ_superior":12,"brecha_educ":-27,"pct_sin_seguro":0,"pct_sus":100,"pct_seguro_privado":0,"brecha_seguro":0,"pct_salud_publica":42,"pct_med_tradicional":2,"pct_automedicacion":5,"pct_remedios_caseros":38,"pct_viv_desocupada":43,"pct_alquiler":0,"pct_electricidad":100,"pct_sin_electricidad":0,"pct_agua_red":100,"pct_alcantarillado":25,"pct_camara_septica":25,"pct_pozo_ciego":0,"pct_sin_desague":50,"pct_gas_red":0,"pct_gas_garrafa":25,"pct_lena_guano":25,"pct_basura_formal":0,"pct_basura_quema":75,"pct_basura_informal":0,"pct_internet":0,"pct_celular":50,"pct_televisor":25}},{"type":"Feature","geometry":{"type":"Polygon","coordinates":[[[-66.51372,-17.98075],[-66.51415,-17.98119],[-66.51431,-17.98107],[-66.51416,-17.98119],[-66.51466,-17.98178],[-66.51511,-17.98158],[-66.5149,-17.98124],[-66.51477,-17.98131],[-66.51489,-17.98123],[-66.51474,-17.98102],[-66.51457,-17.98113],[-66.51473,-17.98101],[-66.51393,-17.98013],[-66.51366,-17.98034],[-66.51394,-17.9806],[-66.51372,-17.98075]]]},"properties":{"n":"ATOJHUAYCO","p":31,"personas_x_ha":29,"masculinidad":94,"pct_menor20":42,"pct_60mas":16,"pct_migrante":0,"dependencia_econ":67,"pct_empleados":17,"pct_cuentapropia":67,"pct_agricultura":67,"pct_comercio":17,"pct_manufactura":0,"pct_construccion":17,"pct_transporte":0,"pct_alojamiento":0,"pct_sin_educacion":11,"pct_educ_superior":0,"brecha_educ":-30,"pct_sin_seguro":10,"pct_sus":90,"pct_seguro_privado":0,"brecha_seguro":-6,"pct_salud_publica":56,"pct_med_tradicional":7,"pct_automedicacion":2,"pct_remedios_caseros":33,"pct_viv_desocupada":24,"pct_alquiler":0,"pct_electricidad":67,"pct_sin_electricidad":33,"pct_agua_red":75,"pct_alcantarillado":17,"pct_camara_septica":8,"pct_pozo_ciego":17,"pct_sin_desague":42,"pct_gas_red":0,"pct_gas_garrafa":42,"pct_lena_guano":42,"pct_basura_formal":0,"pct_basura_quema":83,"pct_basura_informal":0,"pct_internet":50,"pct_celular":83,"pct_televisor":50}},{"type":"Feature","geometry":{"type":"Polygon","coordinates":[[[-66.53545,-17.96921],[-66.5353,-17.96957],[-66.53586,-17.9699],[-66.53602,-17.96975],[-66.53612,-17.96947],[-66.53581,-17.9693],[-66.53545,-17.96921]]]},"properties":{"n":"BOLIVAR","p":21,"personas_x_ha":53,"masculinidad":162,"pct_menor20":24,"pct_60mas":29,"pct_migrante":24,"dependencia_econ":0,"pct_empleados":16,"pct_cuentapropia":68,"pct_agricultura":53,"pct_comercio":21,"pct_manufactura":5,"pct_construccion":0,"pct_transporte":0,"pct_alojamiento":0,"pct_sin_educacion":0,"pct_educ_superior":40,"brecha_educ":-22,"pct_sin_seguro":11,"pct_sus":79,"pct_seguro_privado":0,"brecha_seguro":17,"pct_salud_publica":24,"pct_med_tradicional":10,"pct_automedicacion":5,"pct_remedios_caseros":21,"pct_viv_desocupada":0,"pct_alquiler":0,"pct_electricidad":92,"pct_sin_electricidad":8,"pct_agua_red":100,"pct_alcantarillado":92,"pct_camara_septica":0,"pct_pozo_ciego":0,"pct_sin_desague":8,"pct_gas_red":0,"pct_gas_garrafa":100,"pct_lena_guano":100,"pct_basura_formal":92,"pct_basura_quema":0,"pct_basura_informal":17,"pct_internet":75,"pct_celular":100,"pct_televisor":100}},{"type":"Feature","geometry":{"type":"Polygon","coordinates":[[[-66.5367,-17.96974],[-66.53685,-17.96951],[-66.53647,-17.96923],[-66.53627,-17.96951],[-66.5367,-17.96974]]]},"properties":{"n":"BOLIVAR","p":17,"personas_x_ha":95,"masculinidad":143,"pct_menor20":12,"pct_60mas":53,"pct_migrante":29,"dependencia_econ":55,"pct_empleados":18,"pct_cuentapropia":73,"pct_agricultura":18,"pct_comercio":36,"pct_manufactura":0,"pct_construccion":9,"pct_transporte":18,"pct_alojamiento":0,"pct_sin_educacion":0,"pct_educ_superior":20,"brecha_educ":-11,"pct_sin_seguro":24,"pct_sus":71,"pct_seguro_privado":6,"brecha_seguro":-9,"pct_salud_publica":33,"pct_med_tradicional":29,"pct_automedicacion":0,"pct_remedios_caseros":31,"pct_viv_desocupada":7,"pct_alquiler":9,"pct_electricidad":100,"pct_sin_electricidad":0,"pct_agua_red":91,"pct_alcantarillado":64,"pct_camara_septica":0,"pct_pozo_ciego":0,"pct_sin_desague":36,"pct_gas_red":0,"pct_gas_garrafa":100,"pct_lena_guano":100,"pct_basura_formal":100,"pct_basura_quema":0,"pct_basura_informal":0,"pct_internet":82,"pct_celular":100,"pct_televisor":73}},{"type":"Feature","geometry":{"type":"Polygon","coordinates":[[[-66.53723,-17.96899],[-66.53706,-17.96872],[-66.53685,-17.96857],[-66.5366,-17.96897],[-66.53703,-17.96925],[-66.53723,-17.96899]]]},"properties":{"n":"BOLIVAR","p":21,"personas_x_ha":77,"masculinidad":75,"pct_menor20":29,"pct_60mas":19,"pct_migrante":38,"dependencia_econ":62,"pct_empleados":15,"pct_cuentapropia":69,"pct_agricultura":23,"pct_comercio":31,"pct_manufactura":8,"pct_construccion":0,"pct_transporte":15,"pct_alojamiento":0,"pct_sin_educacion":0,"pct_educ_superior":27,"brecha_educ":-11,"pct_sin_seguro":38,"pct_sus":38,"pct_seguro_privado":0,"brecha_seguro":11,"pct_salud_publica":50,"pct_med_tradicional":7,"pct_automedicacion":4,"pct_remedios_caseros":11,"pct_viv_desocupada":35,"pct_alquiler":18,"pct_electricidad":100,"pct_sin_electricidad":0,"pct_agua_red":64,"pct_alcantarillado":64,"pct_camara_septica":9,"pct_pozo_ciego":0,"pct_sin_desague":27,"pct_gas_red":0,"pct_gas_garrafa":100,"pct_lena_guano":100,"pct_basura_formal":91,"pct_basura_quema":9,"pct_basura_informal":0,"pct_internet":91,"pct_celular":91,"pct_televisor":82}},{"type":"Feature","geometry":{"type":"Polygon","coordinates":[[[-66.53853,-17.96965],[-66.5389,-17.96911],[-66.53836,-17.96881],[-66.538,-17.96936],[-66.53853,-17.96965]]]},"properties":{"n":"BOLIVAR","p":22,"personas_x_ha":44,"masculinidad":120,"pct_menor20":9,"pct_60mas":41,"pct_migrante":32,"dependencia_econ":69,"pct_empleados":31,"pct_cuentapropia":69,"pct_agricultura":23,"pct_comercio":23,"pct_manufactura":0,"pct_construccion":15,"pct_transporte":8,"pct_alojamiento":8,"pct_sin_educacion":5,"pct_educ_superior":25,"brecha_educ":-30,"pct_sin_seguro":32,"pct_sus":41,"pct_seguro_privado":0,"brecha_seguro":3,"pct_salud_publica":22,"pct_med_tradicional":10,"pct_automedicacion":15,"pct_remedios_caseros":28,"pct_viv_desocupada":24,"pct_alquiler":8,"pct_electricidad":85,"pct_sin_electricidad":15,"pct_agua_red":92,"pct_alcantarillado":38,"pct_camara_septica":0,"pct_pozo_ciego":8,"pct_sin_desague":54,"pct_gas_red":0,"pct_gas_garrafa":85,"pct_lena_guano":85,"pct_basura_formal":92,"pct_basura_quema":8,"pct_basura_informal":0,"pct_internet":62,"pct_celular":85,"pct_televisor":62}},{"type":"Feature","geometry":{"type":"Polygon","coordinates":[[[-66.53765,-17.96843],[-66.53704,-17.9681],[-66.53685,-17.96853],[-66.53727,-17.96895],[-66.53765,-17.96843]]]},"properties":{"n":"BOLIVAR","p":32,"personas_x_ha":77,"masculinidad":78,"pct_menor20":38,"pct_60mas":9,"pct_migrante":59,"dependencia_econ":146,"pct_empleados":23,"pct_cuentapropia":54,"pct_agricultura":8,"pct_comercio":23,"pct_manufactura":8,"pct_construccion":0,"pct_transporte":23,"pct_alojamiento":0,"pct_sin_educacion":10,"pct_educ_superior":15,"brecha_educ":-33,"pct_sin_seguro":6,"pct_sus":84,"pct_seguro_privado":3,"brecha_seguro":2,"pct_salud_publica":34,"pct_med_tradicional":10,"pct_automedicacion":12,"pct_remedios_caseros":19,"pct_viv_desocupada":14,"pct_alquiler":7,"pct_electricidad":100,"pct_sin_electricidad":0,"pct_agua_red":71,"pct_alcantarillado":86,"pct_camara_septica":0,"pct_pozo_ciego":0,"pct_sin_desague":14,"pct_gas_red":0,"pct_gas_garrafa":100,"pct_lena_guano":100,"pct_basura_formal":86,"pct_basura_quema":7,"pct_basura_informal":0,"pct_internet":50,"pct_celular":64,"pct_televisor":93}},{"type":"Feature","geometry":{"type":"Polygon","coordinates":[[[-66.53661,-17.96974],[-66.53616,-17.96951],[-66.5359,-17.96993],[-66.5363,-17.97023],[-66.53661,-17.96974]]]},"properties":{"n":"BOLIVAR","p":21,"personas_x_ha":67,"masculinidad":91,"pct_menor20":19,"pct_60mas":29,"pct_migrante":14,"dependencia_econ":91,"pct_empleados":18,"pct_cuentapropia":55,"pct_agricultura":18,"pct_comercio":0,"pct_manufactura":0,"pct_construccion":9,"pct_transporte":18,"pct_alojamiento":9,"pct_sin_educacion":6,"pct_educ_superior":41,"brecha_educ":-21,"pct_sin_seguro":10,"pct_sus":70,"pct_seguro_privado":0,"brecha_seguro":20,"pct_salud_publica":53,"pct_med_tradicional":7,"pct_automedicacion":0,"pct_remedios_caseros":23,"pct_viv_desocupada":33,"pct_alquiler":0,"pct_electricidad":100,"pct_sin_electricidad":0,"pct_agua_red":100,"pct_alcantarillado":100,"pct_camara_septica":0,"pct_pozo_ciego":0,"pct_sin_desague":0,"pct_gas_red":0,"pct_gas_garrafa":100,"pct_lena_guano":100,"pct_basura_formal":100,"pct_basura_quema":0,"pct_basura_informal":0,"pct_internet":0,"pct_celular":89,"pct_televisor":78}},{"type":"Feature","geometry":{"type":"Polygon","coordinates":[[[-66.53657,-17.96731],[-66.53621,-17.96755],[-66.53702,-17.96801],[-66.53736,-17.96747],[-66.53688,-17.96718],[-66.53666,-17.96741],[-66.53657,-17.96731]]]},"properties":{"n":"BOLIVAR","p":22,"personas_x_ha":38,"masculinidad":83,"pct_menor20":27,"pct_60mas":27,"pct_migrante":50,"dependencia_econ":214,"pct_empleados":0,"pct_cuentapropia":86,"pct_agricultura":43,"pct_comercio":29,"pct_manufactura":0,"pct_construccion":14,"pct_transporte":0,"pct_alojamiento":0,"pct_sin_educacion":50,"pct_educ_superior":12,"brecha_educ":41,"pct_sin_seguro":5,"pct_sus":84,"pct_seguro_privado":0,"brecha_seguro":11,"pct_salud_publica":16,"pct_med_tradicional":22,"pct_automedicacion":23,"pct_remedios_caseros":27,"pct_viv_desocupada":0,"pct_alquiler":0,"pct_electricidad":100,"pct_sin_electricidad":0,"pct_agua_red":89,"pct_alcantarillado":33,"pct_camara_septica":0,"pct_pozo_ciego":0,"pct_sin_desague":67,"pct_gas_red":0,"pct_gas_garrafa":100,"pct_lena_guano":100,"pct_basura_formal":56,"pct_basura_quema":44,"pct_basura_informal":0,"pct_internet":11,"pct_celular":78,"pct_televisor":89}},{"type":"Feature","geometry":{"type":"Polygon","coordinates":[[[-66.53679,-17.96854],[-66.53658,-17.96894],[-66.53629,-17.96862],[-66.53648,-17.96843],[-66.53679,-17.96854]]]},"properties":{"n":"BOLIVAR","p":15,"personas_x_ha":85,"masculinidad":200,"pct_menor20":33,"pct_60mas":27,"pct_migrante":7,"dependencia_econ":67,"pct_empleados":22,"pct_cuentapropia":56,"pct_agricultura":22,"pct_comercio":11,"pct_manufactura":33,"pct_construccion":33,"pct_transporte":0,"pct_alojamiento":0,"pct_sin_educacion":0,"pct_educ_superior":20,"brecha_educ":-19,"pct_sin_seguro":0,"pct_sus":100,"pct_seguro_privado":0,"brecha_seguro":0,"pct_salud_publica":79,"pct_med_tradicional":0,"pct_automedicacion":5,"pct_remedios_caseros":11,"pct_viv_desocupada":44,"pct_alquiler":0,"pct_electricidad":100,"pct_sin_electricidad":0,"pct_agua_red":100,"pct_alcantarillado":80,"pct_camara_septica":0,"pct_pozo_ciego":0,"pct_sin_desague":20,"pct_gas_red":0,"pct_gas_garrafa":100,"pct_lena_guano":100,"pct_basura_formal":80,"pct_basura_quema":20,"pct_basura_informal":0,"pct_internet":80,"pct_celular":100,"pct_televisor":100}},{"type":"Feature","geometry":{"type":"Polygon","coordinates":[[[-66.53874,-17.9681],[-66.53907,-17.9676],[-66.53856,-17.96736],[-66.53822,-17.96783],[-66.53874,-17.9681]]]},"properties":{"n":"BOLIVAR","p":25,"personas_x_ha":60,"masculinidad":39,"pct_menor20":4,"pct_60mas":44,"pct_migrante":36,"dependencia_econ":39,"pct_empleados":17,"pct_cuentapropia":78,"pct_agricultura":17,"pct_comercio":17,"pct_manufactura":28,"pct_construccion":11,"pct_transporte":11,"pct_alojamiento":11,"pct_sin_educacion":0,"pct_educ_superior":12,"brecha_educ":-35,"pct_sin_seguro":32,"pct_sus":48,"pct_seguro_privado":0,"brecha_seguro":15,"pct_salud_publica":34,"pct_med_tradicional":7,"pct_automedicacion":11,"pct_remedios_caseros":21,"pct_viv_desocupada":0,"pct_alquiler":0,"pct_electricidad":90,"pct_sin_electricidad":10,"pct_agua_red":90,"pct_alcantarillado":80,"pct_camara_septica":0,"pct_pozo_ciego":10,"pct_sin_desague":10,"pct_gas_red":0,"pct_gas_garrafa":100,"pct_lena_guano":100,"pct_basura_formal":90,"pct_basura_quema":10,"pct_basura_informal":0,"pct_internet":70,"pct_celular":100,"pct_televisor":70}},{"type":"Feature","geometry":{"type":"Polygon","coordinates":[[[-66.5361,-17.96762],[-66.53585,-17.96803],[-66.53605,-17.9682],[-66.53622,-17.96816],[-66.53645,-17.96839],[-66.5368,-17.96849],[-66.53699,-17.96806],[-66.5361,-17.96762]]]},"properties":{"n":"BOLIVAR","p":26,"personas_x_ha":42,"masculinidad":53,"pct_menor20":35,"pct_60mas":8,"pct_migrante":38,"dependencia_econ":100,"pct_empleados":33,"pct_cuentapropia":50,"pct_agricultura":17,"pct_comercio":33,"pct_manufactura":8,"pct_construccion":8,"pct_transporte":8,"pct_alojamiento":0,"pct_sin_educacion":0,"pct_educ_superior":31,"brecha_educ":-42,"pct_sin_seguro":8,"pct_sus":83,"pct_seguro_privado":0,"brecha_seguro":4,"pct_salud_publica":73,"pct_med_tradicional":3,"pct_automedicacion":0,"pct_remedios_caseros":0,"pct_viv_desocupada":8,"pct_alquiler":8,"pct_electricidad":100,"pct_sin_electricidad":0,"pct_agua_red":100,"pct_alcantarillado":67,"pct_camara_septica":0,"pct_pozo_ciego":0,"pct_sin_desague":33,"pct_gas_red":0,"pct_gas_garrafa":83,"pct_lena_guano":83,"pct_basura_formal":83,"pct_basura_quema":17,"pct_basura_informal":0,"pct_internet":25,"pct_celular":42,"pct_televisor":33}},{"type":"Feature","geometry":{"type":"Polygon","coordinates":[[[-66.53793,-17.96932],[-66.5383,-17.96878],[-66.53771,-17.96847],[-66.53733,-17.96898],[-66.53793,-17.96932]]]},"properties":{"n":"BOLIVAR","p":35,"personas_x_ha":65,"masculinidad":94,"pct_menor20":23,"pct_60mas":29,"pct_migrante":40,"dependencia_econ":62,"pct_empleados":29,"pct_cuentapropia":71,"pct_agricultura":14,"pct_comercio":24,"pct_manufactura":19,"pct_construccion":0,"pct_transporte":29,"pct_alojamiento":0,"pct_sin_educacion":12,"pct_educ_superior":15,"brecha_educ":-37,"pct_sin_seguro":6,"pct_sus":88,"pct_seguro_privado":0,"brecha_seguro":12,"pct_salud_publica":25,"pct_med_tradicional":10,"pct_automedicacion":14,"pct_remedios_caseros":29,"pct_viv_desocupada":0,"pct_alquiler":6,"pct_electricidad":100,"pct_sin_electricidad":0,"pct_agua_red":100,"pct_alcantarillado":65,"pct_camara_septica":0,"pct_pozo_ciego":6,"pct_sin_desague":29,"pct_gas_red":0,"pct_gas_garrafa":100,"pct_lena_guano":100,"pct_basura_formal":100,"pct_basura_quema":0,"pct_basura_informal":0,"pct_internet":94,"pct_celular":88,"pct_televisor":94}},{"type":"Feature","geometry":{"type":"Polygon","coordinates":[[[-66.53929,-17.96845],[-66.53877,-17.96819],[-66.53842,-17.96877],[-66.53893,-17.96904],[-66.53929,-17.96845]]]},"properties":{"n":"BOLIVAR","p":32,"personas_x_ha":65,"masculinidad":52,"pct_menor20":34,"pct_60mas":19,"pct_migrante":47,"dependencia_econ":68,"pct_empleados":37,"pct_cuentapropia":47,"pct_agricultura":32,"pct_comercio":16,"pct_manufactura":5,"pct_construccion":0,"pct_transporte":16,"pct_alojamiento":0,"pct_sin_educacion":5,"pct_educ_superior":41,"brecha_educ":-11,"pct_sin_seguro":0,"pct_sus":88,"pct_seguro_privado":3,"brecha_seguro":0,"pct_salud_publica":28,"pct_med_tradicional":10,"pct_automedicacion":12,"pct_remedios_caseros":32,"pct_viv_desocupada":25,"pct_alquiler":20,"pct_electricidad":100,"pct_sin_electricidad":0,"pct_agua_red":100,"pct_alcantarillado":67,"pct_camara_septica":0,"pct_pozo_ciego":0,"pct_sin_desague":33,"pct_gas_red":0,"pct_gas_garrafa":100,"pct_lena_guano":100,"pct_basura_formal":100,"pct_basura_quema":0,"pct_basura_informal":0,"pct_internet":60,"pct_celular":93,"pct_televisor":73}},{"type":"Feature","geometry":{"type":"Polygon","coordinates":[[[-66.61405,-17.93305],[-66.61476,-17.93416],[-66.6155,-17.93392],[-66.61536,-17.93339],[-66.61519,-17.93324],[-66.61508,-17.93326],[-66.61507,-17.93313],[-66.6144,-17.93301],[-66.61434,-17.9329],[-66.61405,-17.93305]]]},"properties":{"n":"CARPANI","p":31,"personas_x_ha":27,"masculinidad":158,"pct_menor20":39,"pct_60mas":13,"pct_migrante":3,"dependencia_econ":63,"pct_empleados":5,"pct_cuentapropia":84,"pct_agricultura":89,"pct_comercio":0,"pct_manufactura":5,"pct_construccion":0,"pct_transporte":0,"pct_alojamiento":0,"pct_sin_educacion":5,"pct_educ_superior":5,"brecha_educ":-29,"pct_sin_seguro":13,"pct_sus":87,"pct_seguro_privado":0,"brecha_seguro":7,"pct_salud_publica":62,"pct_med_tradicional":9,"pct_automedicacion":13,"pct_remedios_caseros":16,"pct_viv_desocupada":9,"pct_alquiler":0,"pct_electricidad":40,"pct_sin_electricidad":50,"pct_agua_red":40,"pct_alcantarillado":0,"pct_camara_septica":0,"pct_pozo_ciego":0,"pct_sin_desague":100,"pct_gas_red":0,"pct_gas_garrafa":10,"pct_lena_guano":10,"pct_basura_formal":0,"pct_basura_quema":90,"pct_basura_informal":0,"pct_internet":20,"pct_celular":80,"pct_televisor":0}},{"type":"Feature","geometry":{"type":"Polygon","coordinates":[[[-66.61257,-17.93185],[-66.61238,-17.93157],[-66.61243,-17.93133],[-66.61221,-17.93103],[-66.61164,-17.93066],[-66.61136,-17.93114],[-66.61197,-17.93166],[-66.6123,-17.93205],[-66.61257,-17.93185]]]},"properties":{"n":"CARPANI","p":25,"personas_x_ha":28,"masculinidad":127,"pct_menor20":48,"pct_60mas":0,"pct_migrante":0,"dependencia_econ":85,"pct_empleados":0,"pct_cuentapropia":38,"pct_agricultura":92,"pct_comercio":0,"pct_manufactura":8,"pct_construccion":0,"pct_transporte":0,"pct_alojamiento":0,"pct_sin_educacion":0,"pct_educ_superior":0,"brecha_educ":-28,"pct_sin_seguro":0,"pct_sus":100,"pct_seguro_privado":0,"brecha_seguro":0,"pct_salud_publica":49,"pct_med_tradicional":6,"pct_automedicacion":8,"pct_remedios_caseros":31,"pct_viv_desocupada":33,"pct_alquiler":0,"pct_electricidad":0,"pct_sin_electricidad":100,"pct_agua_red":0,"pct_alcantarillado":0,"pct_camara_septica":0,"pct_pozo_ciego":0,"pct_sin_desague":100,"pct_gas_red":0,"pct_gas_garrafa":0,"pct_lena_guano":0,"pct_basura_formal":0,"pct_basura_quema":88,"pct_basura_informal":0,"pct_internet":0,"pct_celular":12,"pct_televisor":12}},{"type":"Feature","geometry":{"type":"Polygon","coordinates":[[[-66.61057,-17.93071],[-66.61019,-17.93098],[-66.60991,-17.93147],[-66.61031,-17.93166],[-66.6106,-17.93138],[-66.61138,-17.93174],[-66.6115,-17.93141],[-66.61083,-17.93084],[-66.61057,-17.93071]]]},"properties":{"n":"CARPANI","p":25,"personas_x_ha":24,"masculinidad":108,"pct_menor20":20,"pct_60mas":28,"pct_migrante":16,"dependencia_econ":32,"pct_empleados":5,"pct_cuentapropia":26,"pct_agricultura":95,"pct_comercio":5,"pct_manufactura":0,"pct_construccion":0,"pct_transporte":0,"pct_alojamiento":0,"pct_sin_educacion":15,"pct_educ_superior":5,"brecha_educ":-51,"pct_sin_seguro":4,"pct_sus":96,"pct_seguro_privado":0,"brecha_seguro":8,"pct_salud_publica":37,"pct_med_tradicional":15,"pct_automedicacion":6,"pct_remedios_caseros":35,"pct_viv_desocupada":15,"pct_alquiler":0,"pct_electricidad":73,"pct_sin_electricidad":27,"pct_agua_red":9,"pct_alcantarillado":0,"pct_camara_septica":0,"pct_pozo_ciego":0,"pct_sin_desague":100,"pct_gas_red":0,"pct_gas_garrafa":0,"pct_lena_guano":0,"pct_basura_formal":0,"pct_basura_quema":73,"pct_basura_informal":0,"pct_internet":27,"pct_celular":45,"pct_televisor":9}},{"type":"Feature","geometry":{"type":"Polygon","coordinates":[[[-66.61609,-17.93288],[-66.61568,-17.93277],[-66.61557,-17.93301],[-66.61554,-17.93335],[-66.61589,-17.93324],[-66.61601,-17.93343],[-66.61627,-17.93335],[-66.61637,-17.93365],[-66.61681,-17.93366],[-66.61684,-17.93338],[-66.61609,-17.93288]]]},"properties":{"n":"CARPANI","p":21,"personas_x_ha":30,"masculinidad":162,"pct_menor20":10,"pct_60mas":29,"pct_migrante":19,"dependencia_econ":11,"pct_empleados":5,"pct_cuentapropia":95,"pct_agricultura":89,"pct_comercio":0,"pct_manufactura":0,"pct_construccion":5,"pct_transporte":0,"pct_alojamiento":0,"pct_sin_educacion":32,"pct_educ_superior":5,"brecha_educ":-33,"pct_sin_seguro":0,"pct_sus":100,"pct_seguro_privado":0,"brecha_seguro":0,"pct_salud_publica":39,"pct_med_tradicional":18,"pct_automedicacion":14,"pct_remedios_caseros":18,"pct_viv_desocupada":15,"pct_alquiler":0,"pct_electricidad":91,"pct_sin_electricidad":9,"pct_agua_red":100,"pct_alcantarillado":0,"pct_camara_septica":0,"pct_pozo_ciego":0,"pct_sin_desague":100,"pct_gas_red":0,"pct_gas_garrafa":0,"pct_lena_guano":0,"pct_basura_formal":0,"pct_basura_quema":82,"pct_basura_informal":0,"pct_internet":36,"pct_celular":91,"pct_televisor":36}},{"type":"Feature","geometry":{"type":"Polygon","coordinates":[[[-66.58269,-17.94586],[-66.58265,-17.94581],[-66.58282,-17.94565],[-66.58279,-17.94555],[-66.58262,-17.94548],[-66.58277,-17.94514],[-66.58293,-17.94515],[-66.58294,-17.94505],[-66.58267,-17.94502],[-66.58243,-17.94531],[-66.58194,-17.94498],[-66.58178,-17.94512],[-66.58186,-17.94537],[-66.58164,-17.9455],[-66.58197,-17.94592],[-66.58214,-17.94582],[-66.58222,-17.94594],[-66.58256,-17.94597],[-66.58269,-17.94586]]]},"properties":{"n":"CHALLVIRI A","p":35,"personas_x_ha":40,"masculinidad":338,"pct_menor20":40,"pct_60mas":6,"pct_migrante":11,"dependencia_econ":84,"pct_empleados":5,"pct_cuentapropia":79,"pct_agricultura":74,"pct_comercio":5,"pct_manufactura":0,"pct_construccion":21,"pct_transporte":0,"pct_alojamiento":0,"pct_sin_educacion":18,"pct_educ_superior":0,"brecha_educ":-46,"pct_sin_seguro":15,"pct_sus":85,"pct_seguro_privado":0,"brecha_seguro":1,"pct_salud_publica":41,"pct_med_tradicional":0,"pct_automedicacion":18,"pct_remedios_caseros":41,"pct_viv_desocupada":7,"pct_alquiler":0,"pct_electricidad":79,"pct_sin_electricidad":21,"pct_agua_red":93,"pct_alcantarillado":0,"pct_camara_septica":0,"pct_pozo_ciego":0,"pct_sin_desague":100,"pct_gas_red":0,"pct_gas_garrafa":0,"pct_lena_guano":0,"pct_basura_formal":0,"pct_basura_quema":100,"pct_basura_informal":0,"pct_internet":71,"pct_celular":86,"pct_televisor":0}},{"type":"Feature","geometry":{"type":"Polygon","coordinates":[[[-66.55828,-17.92094],[-66.55751,-17.92078],[-66.5573,-17.92145],[-66.55775,-17.92159],[-66.55816,-17.92148],[-66.55828,-17.92094]]]},"properties":{"n":"CHALLVIRI B","p":17,"personas_x_ha":26,"masculinidad":112,"pct_menor20":53,"pct_60mas":0,"pct_migrante":6,"dependencia_econ":89,"pct_empleados":0,"pct_cuentapropia":44,"pct_agricultura":89,"pct_comercio":0,"pct_manufactura":11,"pct_construccion":0,"pct_transporte":0,"pct_alojamiento":0,"pct_sin_educacion":0,"pct_educ_superior":12,"brecha_educ":-25,"pct_sin_seguro":0,"pct_sus":100,"pct_seguro_privado":0,"brecha_seguro":0,"pct_salud_publica":47,"pct_med_tradicional":0,"pct_automedicacion":3,"pct_remedios_caseros":50,"pct_viv_desocupada":50,"pct_alquiler":0,"pct_electricidad":100,"pct_sin_electricidad":0,"pct_agua_red":100,"pct_alcantarillado":0,"pct_camara_septica":0,"pct_pozo_ciego":25,"pct_sin_desague":75,"pct_gas_red":0,"pct_gas_garrafa":25,"pct_lena_guano":25,"pct_basura_formal":0,"pct_basura_quema":100,"pct_basura_informal":0,"pct_internet":50,"pct_celular":75,"pct_televisor":50}},{"type":"Feature","geometry":{"type":"Polygon","coordinates":[[[-66.5573,-17.91992],[-66.55657,-17.91977],[-66.55651,-17.91995],[-66.55688,-17.92002],[-66.55676,-17.92054],[-66.5571,-17.92061],[-66.5573,-17.91992]]]},"properties":{"n":"CHALLVIRI B","p":26,"personas_x_ha":66,"masculinidad":86,"pct_menor20":54,"pct_60mas":8,"pct_migrante":0,"dependencia_econ":100,"pct_empleados":0,"pct_cuentapropia":46,"pct_agricultura":85,"pct_comercio":0,"pct_manufactura":8,"pct_construccion":8,"pct_transporte":0,"pct_alojamiento":0,"pct_sin_educacion":8,"pct_educ_superior":0,"brecha_educ":-33,"pct_sin_seguro":4,"pct_sus":96,"pct_seguro_privado":0,"brecha_seguro":-8,"pct_salud_publica":24,"pct_med_tradicional":13,"pct_automedicacion":7,"pct_remedios_caseros":43,"pct_viv_desocupada":10,"pct_alquiler":0,"pct_electricidad":78,"pct_sin_electricidad":11,"pct_agua_red":11,"pct_alcantarillado":0,"pct_camara_septica":0,"pct_pozo_ciego":11,"pct_sin_desague":89,"pct_gas_red":0,"pct_gas_garrafa":22,"pct_lena_guano":22,"pct_basura_formal":0,"pct_basura_quema":89,"pct_basura_informal":0,"pct_internet":56,"pct_celular":89,"pct_televisor":44}},{"type":"Feature","geometry":{"type":"Polygon","coordinates":[[[-66.55868,-17.91934],[-66.55794,-17.91921],[-66.55777,-17.91991],[-66.55851,-17.92002],[-66.55868,-17.91934]]]},"properties":{"n":"CHALLVIRI B","p":29,"personas_x_ha":46,"masculinidad":81,"pct_menor20":38,"pct_60mas":10,"pct_migrante":41,"dependencia_econ":53,"pct_empleados":5,"pct_cuentapropia":53,"pct_agricultura":84,"pct_comercio":0,"pct_manufactura":0,"pct_construccion":0,"pct_transporte":0,"pct_alojamiento":5,"pct_sin_educacion":6,"pct_educ_superior":6,"brecha_educ":-12,"pct_sin_seguro":14,"pct_sus":86,"pct_seguro_privado":0,"brecha_seguro":17,"pct_salud_publica":34,"pct_med_tradicional":9,"pct_automedicacion":12,"pct_remedios_caseros":40,"pct_viv_desocupada":12,"pct_alquiler":0,"pct_electricidad":86,"pct_sin_electricidad":14,"pct_agua_red":71,"pct_alcantarillado":0,"pct_camara_septica":0,"pct_pozo_ciego":14,"pct_sin_desague":71,"pct_gas_red":0,"pct_gas_garrafa":29,"pct_lena_guano":29,"pct_basura_formal":0,"pct_basura_quema":86,"pct_basura_informal":0,"pct_internet":71,"pct_celular":100,"pct_televisor":71}},{"type":"Feature","geometry":{"type":"Polygon","coordinates":[[[-66.56048,-17.98504],[-66.56142,-17.98441],[-66.56142,-17.98412],[-66.56121,-17.98389],[-66.56108,-17.98388],[-66.56013,-17.98464],[-66.56048,-17.98504]]]},"properties":{"n":"CHOQUELLUSTA","p":15,"personas_x_ha":17,"masculinidad":114,"pct_menor20":40,"pct_60mas":0,"pct_migrante":0,"dependencia_econ":67,"pct_empleados":0,"pct_cuentapropia":89,"pct_agricultura":78,"pct_comercio":0,"pct_manufactura":11,"pct_construccion":0,"pct_transporte":0,"pct_alojamiento":0,"pct_sin_educacion":11,"pct_educ_superior":22,"brecha_educ":17,"pct_sin_seguro":33,"pct_sus":47,"pct_seguro_privado":7,"brecha_seguro":9,"pct_salud_publica":32,"pct_med_tradicional":18,"pct_automedicacion":9,"pct_remedios_caseros":29,"pct_viv_desocupada":0,"pct_alquiler":0,"pct_electricidad":50,"pct_sin_electricidad":50,"pct_agua_red":83,"pct_alcantarillado":0,"pct_camara_septica":0,"pct_pozo_ciego":0,"pct_sin_desague":100,"pct_gas_red":0,"pct_gas_garrafa":0,"pct_lena_guano":0,"pct_basura_formal":0,"pct_basura_quema":33,"pct_basura_informal":0,"pct_internet":33,"pct_celular":83,"pct_televisor":17}},{"type":"Feature","geometry":{"type":"Polygon","coordinates":[[[-66.55841,-17.9833],[-66.55824,-17.98355],[-66.55811,-17.98345],[-66.55805,-17.98351],[-66.55881,-17.98418],[-66.55935,-17.98439],[-66.55949,-17.98435],[-66.55944,-17.98417],[-66.55933,-17.9842],[-66.5593,-17.98406],[-66.55956,-17.984],[-66.55961,-17.98408],[-66.56008,-17.9839],[-66.56029,-17.9839],[-66.56021,-17.98329],[-66.55971,-17.98328],[-66.55969,-17.98356],[-66.55987,-17.98358],[-66.55968,-17.98356],[-66.5597,-17.98328],[-66.55947,-17.98335],[-66.55946,-17.98364],[-66.55926,-17.98354],[-66.55912,-17.98339],[-66.55921,-17.98322],[-66.5594,-17.98312],[-66.55939,-17.98301],[-66.55902,-17.98259],[-66.55872,-17.98245],[-66.5585,-17.98293],[-66.55862,-17.98299],[-66.55842,-17.98329],[-66.55852,-17.98335],[-66.55868,-17.98323],[-66.55853,-17.98336],[-66.55841,-17.9833]]]},"properties":{"n":"CHOQUELLUSTA","p":51,"personas_x_ha":22,"masculinidad":132,"pct_menor20":41,"pct_60mas":12,"pct_migrante":4,"dependencia_econ":104,"pct_empleados":0,"pct_cuentapropia":84,"pct_agricultura":80,"pct_comercio":0,"pct_manufactura":0,"pct_construccion":4,"pct_transporte":4,"pct_alojamiento":0,"pct_sin_educacion":17,"pct_educ_superior":10,"brecha_educ":1,"pct_sin_seguro":17,"pct_sus":81,"pct_seguro_privado":0,"brecha_seguro":-11,"pct_salud_publica":57,"pct_med_tradicional":8,"pct_automedicacion":14,"pct_remedios_caseros":21,"pct_viv_desocupada":0,"pct_alquiler":0,"pct_electricidad":79,"pct_sin_electricidad":21,"pct_agua_red":89,"pct_alcantarillado":0,"pct_camara_septica":0,"pct_pozo_ciego":11,"pct_sin_desague":84,"pct_gas_red":0,"pct_gas_garrafa":11,"pct_lena_guano":11,"pct_basura_formal":0,"pct_basura_quema":47,"pct_basura_informal":11,"pct_internet":58,"pct_celular":79,"pct_televisor":11}},{"type":"Feature","geometry":{"type":"Polygon","coordinates":[[[-66.55345,-17.98171],[-66.55392,-17.98188],[-66.55395,-17.98171],[-66.55398,-17.98173],[-66.55392,-17.98188],[-66.554,-17.98194],[-66.55511,-17.98239],[-66.55526,-17.98178],[-66.55497,-17.98156],[-66.55472,-17.98148],[-66.5543,-17.9816],[-66.55411,-17.98142],[-66.55352,-17.98126],[-66.55345,-17.98171]]]},"properties":{"n":"CHOQUELLUSTA","p":44,"personas_x_ha":37,"masculinidad":100,"pct_menor20":55,"pct_60mas":7,"pct_migrante":2,"dependencia_econ":132,"pct_empleados":11,"pct_cuentapropia":74,"pct_agricultura":89,"pct_comercio":0,"pct_manufactura":0,"pct_construccion":5,"pct_transporte":0,"pct_alojamiento":0,"pct_sin_educacion":15,"pct_educ_superior":0,"brecha_educ":1,"pct_sin_seguro":28,"pct_sus":70,"pct_seguro_privado":2,"brecha_seguro":-8,"pct_salud_publica":37,"pct_med_tradicional":13,"pct_automedicacion":0,"pct_remedios_caseros":43,"pct_viv_desocupada":0,"pct_alquiler":0,"pct_electricidad":82,"pct_sin_electricidad":18,"pct_agua_red":82,"pct_alcantarillado":9,"pct_camara_septica":0,"pct_pozo_ciego":9,"pct_sin_desague":82,"pct_gas_red":0,"pct_gas_garrafa":27,"pct_lena_guano":27,"pct_basura_formal":0,"pct_basura_quema":100,"pct_basura_informal":0,"pct_internet":27,"pct_celular":64,"pct_televisor":27}},{"type":"Feature","geometry":{"type":"Polygon","coordinates":[[[-66.55249,-17.9816],[-66.55237,-17.98155],[-66.55232,-17.98167],[-66.55253,-17.98262],[-66.55357,-17.98285],[-66.55352,-17.98179],[-66.55241,-17.98148],[-66.55238,-17.98155],[-66.55249,-17.9816]]]},"properties":{"n":"CHOQUELLUSTA","p":16,"personas_x_ha":11,"masculinidad":129,"pct_menor20":56,"pct_60mas":6,"pct_migrante":0,"dependencia_econ":700,"pct_empleados":0,"pct_cuentapropia":100,"pct_agricultura":50,"pct_comercio":0,"pct_manufactura":50,"pct_construccion":0,"pct_transporte":0,"pct_alojamiento":0,"pct_sin_educacion":12,"pct_educ_superior":0,"brecha_educ":-7,"pct_sin_seguro":7,"pct_sus":93,"pct_seguro_privado":0,"brecha_seguro":11,"pct_salud_publica":71,"pct_med_tradicional":10,"pct_automedicacion":0,"pct_remedios_caseros":10,"pct_viv_desocupada":0,"pct_alquiler":0,"pct_electricidad":83,"pct_sin_electricidad":0,"pct_agua_red":100,"pct_alcantarillado":17,"pct_camara_septica":0,"pct_pozo_ciego":33,"pct_sin_desague":33,"pct_gas_red":0,"pct_gas_garrafa":67,"pct_lena_guano":67,"pct_basura_formal":0,"pct_basura_quema":100,"pct_basura_informal":0,"pct_internet":50,"pct_celular":83,"pct_televisor":50}},{"type":"Feature","geometry":{"type":"Polygon","coordinates":[[[-66.5585,-17.98306],[-66.55769,-17.98287],[-66.55797,-17.98235],[-66.55786,-17.98256],[-66.55828,-17.98267],[-66.55786,-17.98257],[-66.5577,-17.98286],[-66.55829,-17.98296],[-66.55855,-17.98237],[-66.55791,-17.9817],[-66.55758,-17.98153],[-66.55705,-17.98258],[-66.55691,-17.98302],[-66.55701,-17.98318],[-66.55719,-17.98325],[-66.55771,-17.98333],[-66.55785,-17.98306],[-66.55772,-17.98333],[-66.55801,-17.9835],[-66.5585,-17.98306]]]},"properties":{"n":"CHOQUELLUSTA","p":30,"personas_x_ha":13,"masculinidad":76,"pct_menor20":20,"pct_60mas":13,"pct_migrante":13,"dependencia_econ":200,"pct_empleados":0,"pct_cuentapropia":80,"pct_agricultura":80,"pct_comercio":10,"pct_manufactura":0,"pct_construccion":0,"pct_transporte":0,"pct_alojamiento":0,"pct_sin_educacion":38,"pct_educ_superior":8,"brecha_educ":-9,"pct_sin_seguro":13,"pct_sus":87,"pct_seguro_privado":0,"brecha_seguro":17,"pct_salud_publica":26,"pct_med_tradicional":11,"pct_automedicacion":17,"pct_remedios_caseros":29,"pct_viv_desocupada":12,"pct_alquiler":0,"pct_electricidad":87,"pct_sin_electricidad":7,"pct_agua_red":13,"pct_alcantarillado":0,"pct_camara_septica":0,"pct_pozo_ciego":0,"pct_sin_desague":93,"pct_gas_red":0,"pct_gas_garrafa":27,"pct_lena_guano":27,"pct_basura_formal":0,"pct_basura_quema":80,"pct_basura_informal":13,"pct_internet":87,"pct_celular":93,"pct_televisor":13}},{"type":"Feature","geometry":{"type":"Polygon","coordinates":[[[-66.47804,-17.90635],[-66.47726,-17.90636],[-66.47743,-17.90658],[-66.47738,-17.90685],[-66.47752,-17.90698],[-66.47822,-17.90671],[-66.47807,-17.90639],[-66.4779,-17.90648],[-66.47804,-17.90635]]]},"properties":{"n":"COMUNA","p":16,"personas_x_ha":35,"masculinidad":60,"pct_menor20":6,"pct_60mas":31,"pct_migrante":31,"dependencia_econ":33,"pct_empleados":8,"pct_cuentapropia":42,"pct_agricultura":75,"pct_comercio":0,"pct_manufactura":0,"pct_construccion":0,"pct_transporte":0,"pct_alojamiento":0,"pct_sin_educacion":7,"pct_educ_superior":20,"brecha_educ":22,"pct_sin_seguro":19,"pct_sus":75,"pct_seguro_privado":6,"brecha_seguro":23,"pct_salud_publica":31,"pct_med_tradicional":6,"pct_automedicacion":8,"pct_remedios_caseros":36,"pct_viv_desocupada":0,"pct_alquiler":14,"pct_electricidad":71,"pct_sin_electricidad":29,"pct_agua_red":43,"pct_alcantarillado":0,"pct_camara_septica":14,"pct_pozo_ciego":14,"pct_sin_desague":71,"pct_gas_red":0,"pct_gas_garrafa":0,"pct_lena_guano":0,"pct_basura_formal":0,"pct_basura_quema":29,"pct_basura_informal":0,"pct_internet":43,"pct_celular":100,"pct_televisor":0}},{"type":"Feature","geometry":{"type":"Polygon","coordinates":[[[-66.47926,-17.90767],[-66.47947,-17.90763],[-66.479,-17.90675],[-66.47889,-17.90679],[-66.47893,-17.90692],[-66.47888,-17.90679],[-66.47866,-17.90684],[-66.47845,-17.90676],[-66.47846,-17.90687],[-66.47909,-17.90722],[-66.47926,-17.90767]]]},"properties":{"n":"COMUNA","p":22,"personas_x_ha":70,"masculinidad":83,"pct_menor20":55,"pct_60mas":14,"pct_migrante":27,"dependencia_econ":69,"pct_empleados":0,"pct_cuentapropia":100,"pct_agricultura":77,"pct_comercio":8,"pct_manufactura":15,"pct_construccion":0,"pct_transporte":0,"pct_alojamiento":0,"pct_sin_educacion":60,"pct_educ_superior":0,"brecha_educ":-25,"pct_sin_seguro":0,"pct_sus":82,"pct_seguro_privado":0,"brecha_seguro":0,"pct_salud_publica":82,"pct_med_tradicional":0,"pct_automedicacion":0,"pct_remedios_caseros":0,"pct_viv_desocupada":36,"pct_alquiler":0,"pct_electricidad":100,"pct_sin_electricidad":0,"pct_agua_red":0,"pct_alcantarillado":0,"pct_camara_septica":14,"pct_pozo_ciego":0,"pct_sin_desague":86,"pct_gas_red":0,"pct_gas_garrafa":0,"pct_lena_guano":0,"pct_basura_formal":0,"pct_basura_quema":29,"pct_basura_informal":29,"pct_internet":0,"pct_celular":0,"pct_televisor":0}},{"type":"Feature","geometry":{"type":"Polygon","coordinates":[[[-66.74249,-18.08784],[-66.74254,-18.08812],[-66.74376,-18.08857],[-66.74403,-18.08829],[-66.74274,-18.08692],[-66.74223,-18.0874],[-66.74256,-18.08775],[-66.74249,-18.08784]]]},"properties":{"n":"COYUMA","p":19,"personas_x_ha":12,"masculinidad":138,"pct_menor20":32,"pct_60mas":11,"pct_migrante":21,"dependencia_econ":46,"pct_empleados":8,"pct_cuentapropia":69,"pct_agricultura":92,"pct_comercio":0,"pct_manufactura":0,"pct_construccion":8,"pct_transporte":0,"pct_alojamiento":0,"pct_sin_educacion":7,"pct_educ_superior":0,"brecha_educ":-29,"pct_sin_seguro":18,"pct_sus":76,"pct_seguro_privado":0,"brecha_seguro":30,"pct_salud_publica":37,"pct_med_tradicional":5,"pct_automedicacion":0,"pct_remedios_caseros":58,"pct_viv_desocupada":15,"pct_alquiler":0,"pct_electricidad":36,"pct_sin_electricidad":64,"pct_agua_red":0,"pct_alcantarillado":0,"pct_camara_septica":0,"pct_pozo_ciego":0,"pct_sin_desague":100,"pct_gas_red":0,"pct_gas_garrafa":18,"pct_lena_guano":36,"pct_basura_formal":0,"pct_basura_quema":91,"pct_basura_informal":0,"pct_internet":9,"pct_celular":55,"pct_televisor":9}},{"type":"Feature","geometry":{"type":"Polygon","coordinates":[[[-66.51839,-17.92838],[-66.5182,-17.92822],[-66.51841,-17.92775],[-66.51858,-17.92783],[-66.51874,-17.92778],[-66.51858,-17.92783],[-66.51842,-17.92775],[-66.51854,-17.92748],[-66.51882,-17.92754],[-66.51902,-17.92772],[-66.519,-17.92811],[-66.5191,-17.92817],[-66.51903,-17.92827],[-66.51893,-17.92821],[-66.51884,-17.92831],[-66.51885,-17.92811],[-66.51881,-17.92817],[-66.51884,-17.92832],[-66.51874,-17.92843],[-66.5186,-17.92835],[-66.51839,-17.92838]]]},"properties":{"n":"KAYMANI","p":26,"personas_x_ha":41,"masculinidad":160,"pct_menor20":19,"pct_60mas":23,"pct_migrante":8,"dependencia_econ":18,"pct_empleados":5,"pct_cuentapropia":91,"pct_agricultura":100,"pct_comercio":0,"pct_manufactura":0,"pct_construccion":0,"pct_transporte":0,"pct_alojamiento":0,"pct_sin_educacion":0,"pct_educ_superior":10,"brecha_educ":-3,"pct_sin_seguro":0,"pct_sus":100,"pct_seguro_privado":0,"brecha_seguro":0,"pct_salud_publica":34,"pct_med_tradicional":20,"pct_automedicacion":5,"pct_remedios_caseros":39,"pct_viv_desocupada":0,"pct_alquiler":0,"pct_electricidad":38,"pct_sin_electricidad":62,"pct_agua_red":94,"pct_alcantarillado":6,"pct_camara_septica":0,"pct_pozo_ciego":6,"pct_sin_desague":88,"pct_gas_red":0,"pct_gas_garrafa":0,"pct_lena_guano":0,"pct_basura_formal":0,"pct_basura_quema":75,"pct_basura_informal":0,"pct_internet":69,"pct_celular":69,"pct_televisor":0}},{"type":"Feature","geometry":{"type":"Polygon","coordinates":[[[-66.49134,-17.9979],[-66.49091,-17.99774],[-66.49063,-17.99786],[-66.49002,-17.99775],[-66.48978,-17.99777],[-66.48973,-17.998],[-66.4913,-17.99808],[-66.49134,-17.9979]]]},"properties":{"n":"PACACHANI","p":17,"personas_x_ha":36,"masculinidad":112,"pct_menor20":24,"pct_60mas":18,"pct_migrante":12,"dependencia_econ":31,"pct_empleados":0,"pct_cuentapropia":62,"pct_agricultura":54,"pct_comercio":23,"pct_manufactura":8,"pct_construccion":0,"pct_transporte":0,"pct_alojamiento":8,"pct_sin_educacion":23,"pct_educ_superior":8,"brecha_educ":-24,"pct_sin_seguro":0,"pct_sus":100,"pct_seguro_privado":0,"brecha_seguro":0,"pct_salud_publica":57,"pct_med_tradicional":0,"pct_automedicacion":11,"pct_remedios_caseros":32,"pct_viv_desocupada":9,"pct_alquiler":0,"pct_electricidad":90,"pct_sin_electricidad":10,"pct_agua_red":10,"pct_alcantarillado":0,"pct_camara_septica":0,"pct_pozo_ciego":0,"pct_sin_desague":100,"pct_gas_red":0,"pct_gas_garrafa":70,"pct_lena_guano":70,"pct_basura_formal":0,"pct_basura_quema":90,"pct_basura_informal":0,"pct_internet":40,"pct_celular":40,"pct_televisor":10}},{"type":"Feature","geometry":{"type":"Polygon","coordinates":[[[-66.49235,-17.99886],[-66.49262,-17.99891],[-66.49285,-17.99882],[-66.49284,-17.99866],[-66.49323,-17.99873],[-66.49306,-17.99845],[-66.49293,-17.9984],[-66.49293,-17.9983],[-66.4912,-17.99811],[-66.49121,-17.99834],[-66.49141,-17.99837],[-66.49136,-17.99859],[-66.49152,-17.99871],[-66.49168,-17.99869],[-66.49168,-17.99861],[-66.49234,-17.9986],[-66.49235,-17.99886]]]},"properties":{"n":"PACACHANI","p":30,"personas_x_ha":29,"masculinidad":150,"pct_menor20":50,"pct_60mas":7,"pct_migrante":0,"dependencia_econ":71,"pct_empleados":6,"pct_cuentapropia":65,"pct_agricultura":88,"pct_comercio":6,"pct_manufactura":0,"pct_construccion":6,"pct_transporte":0,"pct_alojamiento":0,"pct_sin_educacion":0,"pct_educ_superior":0,"brecha_educ":-27,"pct_sin_seguro":15,"pct_sus":85,"pct_seguro_privado":0,"brecha_seguro":-40,"pct_salud_publica":76,"pct_med_tradicional":0,"pct_automedicacion":0,"pct_remedios_caseros":19,"pct_viv_desocupada":31,"pct_alquiler":0,"pct_electricidad":100,"pct_sin_electricidad":0,"pct_agua_red":44,"pct_alcantarillado":0,"pct_camara_septica":0,"pct_pozo_ciego":11,"pct_sin_desague":67,"pct_gas_red":0,"pct_gas_garrafa":44,"pct_lena_guano":44,"pct_basura_formal":0,"pct_basura_quema":89,"pct_basura_informal":0,"pct_internet":89,"pct_celular":89,"pct_televisor":67}},{"type":"Feature","geometry":{"type":"Polygon","coordinates":[[[-66.49573,-17.99833],[-66.49632,-17.99775],[-66.49657,-17.9972],[-66.49611,-17.99673],[-66.49489,-17.99784],[-66.49573,-17.99833]]]},"properties":{"n":"PACACHANI","p":25,"personas_x_ha":16,"masculinidad":212,"pct_menor20":20,"pct_60mas":8,"pct_migrante":0,"dependencia_econ":64,"pct_empleados":9,"pct_cuentapropia":27,"pct_agricultura":91,"pct_comercio":0,"pct_manufactura":0,"pct_construccion":0,"pct_transporte":0,"pct_alojamiento":0,"pct_sin_educacion":21,"pct_educ_superior":0,"brecha_educ":9,"pct_sin_seguro":47,"pct_sus":53,"pct_seguro_privado":0,"brecha_seguro":10,"pct_salud_publica":50,"pct_med_tradicional":0,"pct_automedicacion":0,"pct_remedios_caseros":32,"pct_viv_desocupada":20,"pct_alquiler":0,"pct_electricidad":75,"pct_sin_electricidad":25,"pct_agua_red":0,"pct_alcantarillado":12,"pct_camara_septica":0,"pct_pozo_ciego":0,"pct_sin_desague":88,"pct_gas_red":0,"pct_gas_garrafa":50,"pct_lena_guano":50,"pct_basura_formal":0,"pct_basura_quema":75,"pct_basura_informal":0,"pct_internet":25,"pct_celular":62,"pct_televisor":50}},{"type":"Feature","geometry":{"type":"Polygon","coordinates":[[[-66.49499,-17.99801],[-66.49479,-17.99835],[-66.4955,-17.99874],[-66.49567,-17.9986],[-66.49569,-17.99846],[-66.49543,-17.99827],[-66.49499,-17.99801]]]},"properties":{"n":"PACACHANI","p":23,"personas_x_ha":62,"masculinidad":109,"pct_menor20":48,"pct_60mas":0,"pct_migrante":4,"dependencia_econ":250,"pct_empleados":0,"pct_cuentapropia":33,"pct_agricultura":100,"pct_comercio":0,"pct_manufactura":0,"pct_construccion":0,"pct_transporte":0,"pct_alojamiento":0,"pct_sin_educacion":20,"pct_educ_superior":0,"brecha_educ":33,"pct_sin_seguro":15,"pct_sus":85,"pct_seguro_privado":0,"brecha_seguro":10,"pct_salud_publica":50,"pct_med_tradicional":19,"pct_automedicacion":0,"pct_remedios_caseros":31,"pct_viv_desocupada":29,"pct_alquiler":0,"pct_electricidad":75,"pct_sin_electricidad":25,"pct_agua_red":0,"pct_alcantarillado":0,"pct_camara_septica":0,"pct_pozo_ciego":25,"pct_sin_desague":75,"pct_gas_red":0,"pct_gas_garrafa":50,"pct_lena_guano":50,"pct_basura_formal":0,"pct_basura_quema":100,"pct_basura_informal":0,"pct_internet":0,"pct_celular":25,"pct_televisor":25}},{"type":"Feature","geometry":{"type":"Polygon","coordinates":[[[-66.55838,-17.94961],[-66.55841,-17.9494],[-66.55787,-17.94965],[-66.55784,-17.9496],[-66.55763,-17.94972],[-66.5577,-17.94987],[-66.55762,-17.94971],[-66.55784,-17.94959],[-66.55772,-17.94936],[-66.55695,-17.94977],[-66.55648,-17.95013],[-66.55654,-17.9504],[-66.55762,-17.95022],[-66.55847,-17.94977],[-66.55838,-17.94961]]]},"properties":{"n":"PALCA","p":49,"personas_x_ha":40,"masculinidad":145,"pct_menor20":27,"pct_60mas":16,"pct_migrante":14,"dependencia_econ":41,"pct_empleados":6,"pct_cuentapropia":65,"pct_agricultura":79,"pct_comercio":6,"pct_manufactura":0,"pct_construccion":9,"pct_transporte":3,"pct_alojamiento":0,"pct_sin_educacion":17,"pct_educ_superior":17,"brecha_educ":-25,"pct_sin_seguro":10,"pct_sus":88,"pct_seguro_privado":0,"brecha_seguro":18,"pct_salud_publica":28,"pct_med_tradicional":23,"pct_automedicacion":12,"pct_remedios_caseros":32,"pct_viv_desocupada":0,"pct_alquiler":0,"pct_electricidad":75,"pct_sin_electricidad":12,"pct_agua_red":29,"pct_alcantarillado":0,"pct_camara_septica":0,"pct_pozo_ciego":4,"pct_sin_desague":96,"pct_gas_red":0,"pct_gas_garrafa":21,"pct_lena_guano":21,"pct_basura_formal":4,"pct_basura_quema":75,"pct_basura_informal":0,"pct_internet":33,"pct_celular":75,"pct_televisor":25}},{"type":"Feature","geometry":{"type":"Polygon","coordinates":[[[-66.52242,-17.97205],[-66.52111,-17.97127],[-66.52093,-17.97147],[-66.52222,-17.97232],[-66.52242,-17.97205]]]},"properties":{"n":"PAMPAJASI","p":23,"personas_x_ha":44,"masculinidad":53,"pct_menor20":57,"pct_60mas":13,"pct_migrante":17,"dependencia_econ":130,"pct_empleados":20,"pct_cuentapropia":80,"pct_agricultura":40,"pct_comercio":20,"pct_manufactura":0,"pct_construccion":10,"pct_transporte":20,"pct_alojamiento":0,"pct_sin_educacion":20,"pct_educ_superior":0,"brecha_educ":0,"pct_sin_seguro":52,"pct_sus":48,"pct_seguro_privado":0,"brecha_seguro":-42,"pct_salud_publica":32,"pct_med_tradicional":8,"pct_automedicacion":15,"pct_remedios_caseros":34,"pct_viv_desocupada":22,"pct_alquiler":0,"pct_electricidad":100,"pct_sin_electricidad":0,"pct_agua_red":43,"pct_alcantarillado":14,"pct_camara_septica":0,"pct_pozo_ciego":71,"pct_sin_desague":14,"pct_gas_red":0,"pct_gas_garrafa":86,"pct_lena_guano":86,"pct_basura_formal":0,"pct_basura_quema":86,"pct_basura_informal":0,"pct_internet":71,"pct_celular":71,"pct_televisor":57}},{"type":"Feature","geometry":{"type":"Polygon","coordinates":[[[-66.51962,-17.97306],[-66.51934,-17.97285],[-66.51917,-17.973],[-66.51902,-17.97286],[-66.51915,-17.97273],[-66.51897,-17.97262],[-66.51891,-17.97269],[-66.51876,-17.97256],[-66.51848,-17.97281],[-66.51868,-17.97303],[-66.51824,-17.9735],[-66.51849,-17.97367],[-66.51938,-17.97391],[-66.51952,-17.97359],[-66.52005,-17.97307],[-66.5199,-17.97288],[-66.51962,-17.97306]]]},"properties":{"n":"PAMPAJASI","p":40,"personas_x_ha":28,"masculinidad":90,"pct_menor20":52,"pct_60mas":8,"pct_migrante":2,"dependencia_econ":100,"pct_empleados":15,"pct_cuentapropia":75,"pct_agricultura":75,"pct_comercio":5,"pct_manufactura":5,"pct_construccion":15,"pct_transporte":0,"pct_alojamiento":0,"pct_sin_educacion":15,"pct_educ_superior":15,"brecha_educ":-17,"pct_sin_seguro":45,"pct_sus":52,"pct_seguro_privado":2,"brecha_seguro":-6,"pct_salud_publica":30,"pct_med_tradicional":25,"pct_automedicacion":3,"pct_remedios_caseros":37,"pct_viv_desocupada":40,"pct_alquiler":0,"pct_electricidad":89,"pct_sin_electricidad":0,"pct_agua_red":56,"pct_alcantarillado":0,"pct_camara_septica":0,"pct_pozo_ciego":11,"pct_sin_desague":89,"pct_gas_red":0,"pct_gas_garrafa":0,"pct_lena_guano":11,"pct_basura_formal":0,"pct_basura_quema":67,"pct_basura_informal":0,"pct_internet":22,"pct_celular":89,"pct_televisor":33}},{"type":"Feature","geometry":{"type":"Polygon","coordinates":[[[-66.52059,-17.97185],[-66.52053,-17.97172],[-66.52102,-17.97118],[-66.52068,-17.97091],[-66.52002,-17.97154],[-66.52008,-17.97169],[-66.52044,-17.97201],[-66.52059,-17.97185]]]},"properties":{"n":"PAMPAJASI","p":26,"personas_x_ha":44,"masculinidad":136,"pct_menor20":38,"pct_60mas":19,"pct_migrante":0,"dependencia_econ":73,"pct_empleados":7,"pct_cuentapropia":13,"pct_agricultura":73,"pct_comercio":0,"pct_manufactura":0,"pct_construccion":7,"pct_transporte":0,"pct_alojamiento":0,"pct_sin_educacion":6,"pct_educ_superior":0,"brecha_educ":-12,"pct_sin_seguro":0,"pct_sus":100,"pct_seguro_privado":0,"brecha_seguro":0,"pct_salud_publica":93,"pct_med_tradicional":0,"pct_automedicacion":0,"pct_remedios_caseros":7,"pct_viv_desocupada":0,"pct_alquiler":0,"pct_electricidad":71,"pct_sin_electricidad":14,"pct_agua_red":86,"pct_alcantarillado":0,"pct_camara_septica":0,"pct_pozo_ciego":86,"pct_sin_desague":14,"pct_gas_red":0,"pct_gas_garrafa":71,"pct_lena_guano":71,"pct_basura_formal":0,"pct_basura_quema":100,"pct_basura_informal":0,"pct_internet":57,"pct_celular":57,"pct_televisor":43}},{"type":"Feature","geometry":{"type":"Polygon","coordinates":[[[-66.51742,-17.97261],[-66.51715,-17.9721],[-66.51758,-17.97206],[-66.5177,-17.97186],[-66.51773,-17.97136],[-66.51711,-17.9709],[-66.51736,-17.97053],[-66.51802,-17.97089],[-66.5187,-17.97142],[-66.51787,-17.97227],[-66.51755,-17.97271],[-66.51742,-17.97261]]]},"properties":{"n":"PAMPAJASI","p":25,"personas_x_ha":15,"masculinidad":150,"pct_menor20":28,"pct_60mas":20,"pct_migrante":8,"dependencia_econ":700,"pct_empleados":0,"pct_cuentapropia":0,"pct_agricultura":0,"pct_comercio":0,"pct_manufactura":0,"pct_construccion":0,"pct_transporte":0,"pct_alojamiento":0,"pct_sin_educacion":0,"pct_educ_superior":0,"brecha_educ":-7,"pct_sin_seguro":18,"pct_sus":82,"pct_seguro_privado":0,"brecha_seguro":15,"pct_salud_publica":32,"pct_med_tradicional":23,"pct_automedicacion":12,"pct_remedios_caseros":20,"pct_viv_desocupada":31,"pct_alquiler":0,"pct_electricidad":75,"pct_sin_electricidad":25,"pct_agua_red":25,"pct_alcantarillado":0,"pct_camara_septica":12,"pct_pozo_ciego":25,"pct_sin_desague":62,"pct_gas_red":0,"pct_gas_garrafa":62,"pct_lena_guano":62,"pct_basura_formal":0,"pct_basura_quema":25,"pct_basura_informal":0,"pct_internet":75,"pct_celular":88,"pct_televisor":50}},{"type":"Feature","geometry":{"type":"Polygon","coordinates":[[[-66.52108,-17.97115],[-66.52253,-17.972],[-66.52274,-17.97178],[-66.52267,-17.9717],[-66.52275,-17.97178],[-66.52254,-17.972],[-66.52335,-17.97244],[-66.52406,-17.97155],[-66.52291,-17.97097],[-66.52087,-17.97086],[-66.52084,-17.97094],[-66.52108,-17.97115]]]},"properties":{"n":"PAMPAJASI","p":58,"personas_x_ha":20,"masculinidad":81,"pct_menor20":59,"pct_60mas":3,"pct_migrante":7,"dependencia_econ":123,"pct_empleados":0,"pct_cuentapropia":38,"pct_agricultura":65,"pct_comercio":8,"pct_manufactura":8,"pct_construccion":0,"pct_transporte":8,"pct_alojamiento":0,"pct_sin_educacion":4,"pct_educ_superior":0,"brecha_educ":-12,"pct_sin_seguro":7,"pct_sus":93,"pct_seguro_privado":0,"brecha_seguro":8,"pct_salud_publica":53,"pct_med_tradicional":19,"pct_automedicacion":5,"pct_remedios_caseros":21,"pct_viv_desocupada":6,"pct_alquiler":0,"pct_electricidad":73,"pct_sin_electricidad":27,"pct_agua_red":93,"pct_alcantarillado":0,"pct_camara_septica":0,"pct_pozo_ciego":13,"pct_sin_desague":60,"pct_gas_red":0,"pct_gas_garrafa":73,"pct_lena_guano":73,"pct_basura_formal":0,"pct_basura_quema":93,"pct_basura_informal":0,"pct_internet":47,"pct_celular":87,"pct_televisor":33}},{"type":"Feature","geometry":{"type":"Polygon","coordinates":[[[-66.52081,-17.9708],[-66.51911,-17.97066],[-66.51911,-17.97033],[-66.51868,-17.9703],[-66.51854,-17.97021],[-66.51877,-17.97003],[-66.51857,-17.96984],[-66.51881,-17.96964],[-66.51965,-17.97014],[-66.52122,-17.97034],[-66.52081,-17.9708]]]},"properties":{"n":"PAMPAJASI","p":35,"personas_x_ha":22,"masculinidad":192,"pct_menor20":46,"pct_60mas":3,"pct_migrante":3,"dependencia_econ":94,"pct_empleados":17,"pct_cuentapropia":72,"pct_agricultura":72,"pct_comercio":6,"pct_manufactura":0,"pct_construccion":11,"pct_transporte":0,"pct_alojamiento":6,"pct_sin_educacion":5,"pct_educ_superior":5,"brecha_educ":-37,"pct_sin_seguro":12,"pct_sus":84,"pct_seguro_privado":0,"brecha_seguro":-20,"pct_salud_publica":33,"pct_med_tradicional":4,"pct_automedicacion":0,"pct_remedios_caseros":61,"pct_viv_desocupada":7,"pct_alquiler":0,"pct_electricidad":60,"pct_sin_electricidad":20,"pct_agua_red":40,"pct_alcantarillado":0,"pct_camara_septica":0,"pct_pozo_ciego":0,"pct_sin_desague":90,"pct_gas_red":0,"pct_gas_garrafa":20,"pct_lena_guano":20,"pct_basura_formal":0,"pct_basura_quema":70,"pct_basura_informal":0,"pct_internet":80,"pct_celular":90,"pct_televisor":0}},{"type":"Feature","geometry":{"type":"Polygon","coordinates":[[[-66.69611,-18.05015],[-66.69653,-18.04965],[-66.69638,-18.04952],[-66.69593,-18.05002],[-66.69611,-18.05015]]]},"properties":{"n":"PAYOTA","p":15,"personas_x_ha":93,"masculinidad":67,"pct_menor20":47,"pct_60mas":7,"pct_migrante":0,"dependencia_econ":200,"pct_empleados":20,"pct_cuentapropia":80,"pct_agricultura":20,"pct_comercio":0,"pct_manufactura":20,"pct_construccion":40,"pct_transporte":0,"pct_alojamiento":0,"pct_sin_educacion":12,"pct_educ_superior":12,"brecha_educ":-50,"pct_sin_seguro":13,"pct_sus":87,"pct_seguro_privado":0,"brecha_seguro":33,"pct_salud_publica":93,"pct_med_tradicional":0,"pct_automedicacion":0,"pct_remedios_caseros":0,"pct_viv_desocupada":0,"pct_alquiler":0,"pct_electricidad":50,"pct_sin_electricidad":50,"pct_agua_red":100,"pct_alcantarillado":0,"pct_camara_septica":0,"pct_pozo_ciego":50,"pct_sin_desague":50,"pct_gas_red":0,"pct_gas_garrafa":50,"pct_lena_guano":50,"pct_basura_formal":0,"pct_basura_quema":100,"pct_basura_informal":0,"pct_internet":83,"pct_celular":67,"pct_televisor":67}},{"type":"Feature","geometry":{"type":"Polygon","coordinates":[[[-66.69567,-18.04824],[-66.69551,-18.04811],[-66.69515,-18.04815],[-66.69504,-18.04827],[-66.6954,-18.04858],[-66.69567,-18.04824]]]},"properties":{"n":"PAYOTA","p":17,"personas_x_ha":87,"masculinidad":89,"pct_menor20":47,"pct_60mas":0,"pct_migrante":35,"dependencia_econ":89,"pct_empleados":44,"pct_cuentapropia":56,"pct_agricultura":67,"pct_comercio":22,"pct_manufactura":0,"pct_construccion":0,"pct_transporte":11,"pct_alojamiento":0,"pct_sin_educacion":0,"pct_educ_superior":0,"brecha_educ":-55,"pct_sin_seguro":0,"pct_sus":100,"pct_seguro_privado":0,"brecha_seguro":0,"pct_salud_publica":94,"pct_med_tradicional":0,"pct_automedicacion":0,"pct_remedios_caseros":6,"pct_viv_desocupada":38,"pct_alquiler":0,"pct_electricidad":60,"pct_sin_electricidad":40,"pct_agua_red":100,"pct_alcantarillado":0,"pct_camara_septica":0,"pct_pozo_ciego":0,"pct_sin_desague":100,"pct_gas_red":0,"pct_gas_garrafa":80,"pct_lena_guano":80,"pct_basura_formal":0,"pct_basura_quema":100,"pct_basura_informal":0,"pct_internet":0,"pct_celular":100,"pct_televisor":20}},{"type":"Feature","geometry":{"type":"Polygon","coordinates":[[[-66.57322,-17.96555],[-66.5733,-17.96506],[-66.57315,-17.96486],[-66.57229,-17.9655],[-66.57268,-17.96592],[-66.57299,-17.9657],[-66.57285,-17.96551],[-66.573,-17.96569],[-66.57322,-17.96555]]]},"properties":{"n":"VILACAYMA","p":46,"personas_x_ha":72,"masculinidad":109,"pct_menor20":37,"pct_60mas":13,"pct_migrante":33,"dependencia_econ":91,"pct_empleados":13,"pct_cuentapropia":26,"pct_agricultura":78,"pct_comercio":4,"pct_manufactura":0,"pct_construccion":9,"pct_transporte":4,"pct_alojamiento":0,"pct_sin_educacion":15,"pct_educ_superior":15,"brecha_educ":-34,"pct_sin_seguro":9,"pct_sus":88,"pct_seguro_privado":0,"brecha_seguro":-11,"pct_salud_publica":49,"pct_med_tradicional":10,"pct_automedicacion":18,"pct_remedios_caseros":21,"pct_viv_desocupada":13,"pct_alquiler":0,"pct_electricidad":100,"pct_sin_electricidad":0,"pct_agua_red":92,"pct_alcantarillado":0,"pct_camara_septica":0,"pct_pozo_ciego":0,"pct_sin_desague":100,"pct_gas_red":0,"pct_gas_garrafa":33,"pct_lena_guano":33,"pct_basura_formal":0,"pct_basura_quema":42,"pct_basura_informal":0,"pct_internet":33,"pct_celular":58,"pct_televisor":8}},{"type":"Feature","geometry":{"type":"Polygon","coordinates":[[[-66.5736,-17.96658],[-66.57335,-17.96599],[-66.57306,-17.96619],[-66.57312,-17.96626],[-66.57319,-17.96622],[-66.57337,-17.96665],[-66.5736,-17.96658]]]},"properties":{"n":"VILACAYMA","p":23,"personas_x_ha":128,"masculinidad":156,"pct_menor20":48,"pct_60mas":13,"pct_migrante":39,"dependencia_econ":188,"pct_empleados":25,"pct_cuentapropia":62,"pct_agricultura":25,"pct_comercio":25,"pct_manufactura":0,"pct_construccion":12,"pct_transporte":25,"pct_alojamiento":0,"pct_sin_educacion":8,"pct_educ_superior":8,"brecha_educ":17,"pct_sin_seguro":22,"pct_sus":78,"pct_seguro_privado":0,"brecha_seguro":-1,"pct_salud_publica":92,"pct_med_tradicional":0,"pct_automedicacion":0,"pct_remedios_caseros":8,"pct_viv_desocupada":0,"pct_alquiler":0,"pct_electricidad":71,"pct_sin_electricidad":29,"pct_agua_red":71,"pct_alcantarillado":0,"pct_camara_septica":0,"pct_pozo_ciego":0,"pct_sin_desague":100,"pct_gas_red":0,"pct_gas_garrafa":14,"pct_lena_guano":14,"pct_basura_formal":0,"pct_basura_quema":29,"pct_basura_informal":0,"pct_internet":86,"pct_celular":100,"pct_televisor":71}}]}