{"type":"FeatureCollection","features":[{"type":"Feature","geometry":{"type":"Polygon","coordinates":[[[-65.9446,-17.62205],[-65.9435,-17.62026],[-65.94333,-17.61979],[-65.9432,-17.61965],[-65.94301,-17.61975],[-65.94441,-17.62213],[-65.94457,-17.62213],[-65.9446,-17.62205]]]},"properties":{"n":"CHILLIJCHI","p":52,"personas_x_ha":81,"masculinidad":62,"pct_menor20":38,"pct_60mas":13,"pct_migrante":15,"dependencia_econ":72,"pct_empleados":14,"pct_cuentapropia":55,"pct_agricultura":62,"pct_comercio":0,"pct_manufactura":3,"pct_construccion":3,"pct_transporte":7,"pct_alojamiento":0,"pct_sin_educacion":0,"pct_educ_superior":19,"brecha_educ":-10,"pct_sin_seguro":19,"pct_sus":81,"pct_seguro_privado":0,"brecha_seguro":-30,"pct_salud_publica":29,"pct_med_tradicional":5,"pct_automedicacion":23,"pct_remedios_caseros":26,"pct_viv_desocupada":0,"pct_alquiler":0,"pct_electricidad":93,"pct_sin_electricidad":7,"pct_agua_red":93,"pct_alcantarillado":29,"pct_camara_septica":14,"pct_pozo_ciego":36,"pct_sin_desague":14,"pct_gas_red":0,"pct_gas_garrafa":93,"pct_lena_guano":93,"pct_basura_formal":86,"pct_basura_quema":0,"pct_basura_informal":0,"pct_internet":50,"pct_celular":71,"pct_televisor":71}},{"type":"Feature","geometry":{"type":"Polygon","coordinates":[[[-65.94572,-17.62491],[-65.94592,-17.62661],[-65.94441,-17.62681],[-65.94468,-17.62666],[-65.9448,-17.62649],[-65.94497,-17.62607],[-65.94499,-17.62578],[-65.94572,-17.62491]]]},"properties":{"n":"CHILLIJCHI","p":18,"personas_x_ha":11,"masculinidad":125,"pct_menor20":17,"pct_60mas":17,"pct_migrante":33,"dependencia_econ":29,"pct_empleados":7,"pct_cuentapropia":71,"pct_agricultura":21,"pct_comercio":43,"pct_manufactura":0,"pct_construccion":0,"pct_transporte":14,"pct_alojamiento":7,"pct_sin_educacion":0,"pct_educ_superior":27,"brecha_educ":-22,"pct_sin_seguro":22,"pct_sus":78,"pct_seguro_privado":0,"brecha_seguro":-28,"pct_salud_publica":25,"pct_med_tradicional":13,"pct_automedicacion":21,"pct_remedios_caseros":24,"pct_viv_desocupada":29,"pct_alquiler":12,"pct_electricidad":100,"pct_sin_electricidad":0,"pct_agua_red":75,"pct_alcantarillado":50,"pct_camara_septica":0,"pct_pozo_ciego":25,"pct_sin_desague":12,"pct_gas_red":12,"pct_gas_garrafa":75,"pct_lena_guano":75,"pct_basura_formal":88,"pct_basura_quema":0,"pct_basura_informal":0,"pct_internet":50,"pct_celular":88,"pct_televisor":88}},{"type":"Feature","geometry":{"type":"Polygon","coordinates":[[[-65.94794,-17.62056],[-65.94574,-17.62145],[-65.94452,-17.62053],[-65.9442,-17.6202],[-65.94504,-17.61987],[-65.94696,-17.61933],[-65.94726,-17.62],[-65.94878,-17.6196],[-65.94904,-17.62024],[-65.94794,-17.62056]]]},"properties":{"n":"CHILLIJCHI","p":15,"personas_x_ha":2,"masculinidad":88,"pct_menor20":33,"pct_60mas":33,"pct_migrante":33,"dependencia_econ":25,"pct_empleados":0,"pct_cuentapropia":8,"pct_agricultura":75,"pct_comercio":8,"pct_manufactura":8,"pct_construccion":0,"pct_transporte":8,"pct_alojamiento":0,"pct_sin_educacion":0,"pct_educ_superior":20,"brecha_educ":-40,"pct_sin_seguro":7,"pct_sus":93,"pct_seguro_privado":0,"brecha_seguro":-12,"pct_salud_publica":74,"pct_med_tradicional":11,"pct_automedicacion":0,"pct_remedios_caseros":5,"pct_viv_desocupada":25,"pct_alquiler":0,"pct_electricidad":100,"pct_sin_electricidad":0,"pct_agua_red":100,"pct_alcantarillado":0,"pct_camara_septica":33,"pct_pozo_ciego":50,"pct_sin_desague":17,"pct_gas_red":0,"pct_gas_garrafa":100,"pct_lena_guano":100,"pct_basura_formal":17,"pct_basura_quema":67,"pct_basura_informal":0,"pct_internet":83,"pct_celular":100,"pct_televisor":67}},{"type":"Feature","geometry":{"type":"Polygon","coordinates":[[[-65.94909,-17.62038],[-65.94798,-17.62068],[-65.94634,-17.6213],[-65.94552,-17.6217],[-65.94537,-17.6219],[-65.94529,-17.62209],[-65.9453,-17.6224],[-65.94506,-17.62256],[-65.94578,-17.62477],[-65.94611,-17.6266],[-65.94685,-17.6263],[-65.9465,-17.62469],[-65.94657,-17.62443],[-65.95002,-17.62302],[-65.94907,-17.62079],[-65.9492,-17.62069],[-65.94909,-17.62038]]]},"properties":{"n":"CHILLIJCHI","p":84,"personas_x_ha":5,"masculinidad":100,"pct_menor20":21,"pct_60mas":30,"pct_migrante":12,"dependencia_econ":53,"pct_empleados":27,"pct_cuentapropia":36,"pct_agricultura":51,"pct_comercio":13,"pct_manufactura":4,"pct_construccion":5,"pct_transporte":4,"pct_alojamiento":2,"pct_sin_educacion":0,"pct_educ_superior":31,"brecha_educ":-16,"pct_sin_seguro":5,"pct_sus":88,"pct_seguro_privado":2,"brecha_seguro":0,"pct_salud_publica":34,"pct_med_tradicional":12,"pct_automedicacion":19,"pct_remedios_caseros":23,"pct_viv_desocupada":2,"pct_alquiler":0,"pct_electricidad":97,"pct_sin_electricidad":0,"pct_agua_red":40,"pct_alcantarillado":0,"pct_camara_septica":11,"pct_pozo_ciego":80,"pct_sin_desague":9,"pct_gas_red":0,"pct_gas_garrafa":83,"pct_lena_guano":86,"pct_basura_formal":40,"pct_basura_quema":49,"pct_basura_informal":6,"pct_internet":77,"pct_celular":89,"pct_televisor":94}},{"type":"Feature","geometry":{"type":"Polygon","coordinates":[[[-65.94315,-17.61959],[-65.94223,-17.61975],[-65.94171,-17.62001],[-65.94149,-17.61959],[-65.94029,-17.61979],[-65.9403,-17.61908],[-65.94015,-17.61901],[-65.94014,-17.61857],[-65.94052,-17.61854],[-65.94079,-17.6187],[-65.94122,-17.6188],[-65.94282,-17.61876],[-65.94315,-17.61959]]]},"properties":{"n":"CHILLIJCHI","p":28,"personas_x_ha":9,"masculinidad":87,"pct_menor20":46,"pct_60mas":11,"pct_migrante":61,"dependencia_econ":160,"pct_empleados":10,"pct_cuentapropia":10,"pct_agricultura":20,"pct_comercio":40,"pct_manufactura":0,"pct_construccion":0,"pct_transporte":10,"pct_alojamiento":0,"pct_sin_educacion":0,"pct_educ_superior":40,"brecha_educ":-14,"pct_sin_seguro":42,"pct_sus":54,"pct_seguro_privado":0,"brecha_seguro":-1,"pct_salud_publica":28,"pct_med_tradicional":15,"pct_automedicacion":10,"pct_remedios_caseros":21,"pct_viv_desocupada":0,"pct_alquiler":0,"pct_electricidad":100,"pct_sin_electricidad":0,"pct_agua_red":100,"pct_alcantarillado":12,"pct_camara_septica":25,"pct_pozo_ciego":62,"pct_sin_desague":0,"pct_gas_red":0,"pct_gas_garrafa":88,"pct_lena_guano":88,"pct_basura_formal":100,"pct_basura_quema":0,"pct_basura_informal":0,"pct_internet":88,"pct_celular":88,"pct_televisor":75}},{"type":"Feature","geometry":{"type":"Polygon","coordinates":[[[-65.93934,-17.62246],[-65.94472,-17.62216],[-65.94473,-17.62229],[-65.94457,-17.6223],[-65.94475,-17.6241],[-65.94503,-17.62408],[-65.94499,-17.62455],[-65.94347,-17.62466],[-65.9434,-17.62389],[-65.93944,-17.62416],[-65.93921,-17.62277],[-65.93924,-17.62252],[-65.93934,-17.62246]]]},"properties":{"n":"CHILLIJCHI","p":44,"personas_x_ha":4,"masculinidad":63,"pct_menor20":18,"pct_60mas":27,"pct_migrante":16,"dependencia_econ":23,"pct_empleados":6,"pct_cuentapropia":69,"pct_agricultura":54,"pct_comercio":11,"pct_manufactura":9,"pct_construccion":9,"pct_transporte":3,"pct_alojamiento":0,"pct_sin_educacion":5,"pct_educ_superior":21,"brecha_educ":-12,"pct_sin_seguro":42,"pct_sus":53,"pct_seguro_privado":0,"brecha_seguro":-1,"pct_salud_publica":21,"pct_med_tradicional":14,"pct_automedicacion":17,"pct_remedios_caseros":19,"pct_viv_desocupada":10,"pct_alquiler":0,"pct_electricidad":100,"pct_sin_electricidad":0,"pct_agua_red":71,"pct_alcantarillado":19,"pct_camara_septica":24,"pct_pozo_ciego":52,"pct_sin_desague":5,"pct_gas_red":0,"pct_gas_garrafa":100,"pct_lena_guano":100,"pct_basura_formal":67,"pct_basura_quema":33,"pct_basura_informal":0,"pct_internet":52,"pct_celular":76,"pct_televisor":81}},{"type":"Feature","geometry":{"type":"Polygon","coordinates":[[[-65.94465,-17.62199],[-65.94355,-17.62021],[-65.94352,-17.61987],[-65.94321,-17.6195],[-65.94288,-17.6186],[-65.94351,-17.61803],[-65.9434,-17.61887],[-65.94323,-17.61893],[-65.94338,-17.6194],[-65.9445,-17.62054],[-65.94564,-17.62136],[-65.94567,-17.62148],[-65.94539,-17.62166],[-65.94519,-17.62212],[-65.94482,-17.62216],[-65.94465,-17.62199]]]},"properties":{"n":"CHILLIJCHI","p":32,"personas_x_ha":11,"masculinidad":113,"pct_menor20":34,"pct_60mas":16,"pct_migrante":22,"dependencia_econ":null,"pct_empleados":null,"pct_cuentapropia":null,"pct_agricultura":null,"pct_comercio":null,"pct_manufactura":null,"pct_construccion":null,"pct_transporte":null,"pct_alojamiento":null,"pct_sin_educacion":0,"pct_educ_superior":25,"brecha_educ":6,"pct_sin_seguro":38,"pct_sus":62,"pct_seguro_privado":0,"brecha_seguro":4,"pct_salud_publica":31,"pct_med_tradicional":1,"pct_automedicacion":25,"pct_remedios_caseros":25,"pct_viv_desocupada":10,"pct_alquiler":0,"pct_electricidad":100,"pct_sin_electricidad":0,"pct_agua_red":100,"pct_alcantarillado":11,"pct_camara_septica":0,"pct_pozo_ciego":78,"pct_sin_desague":0,"pct_gas_red":22,"pct_gas_garrafa":78,"pct_lena_guano":78,"pct_basura_formal":78,"pct_basura_quema":0,"pct_basura_informal":22,"pct_internet":67,"pct_celular":33,"pct_televisor":100}},{"type":"Feature","geometry":{"type":"Polygon","coordinates":[[[-65.94494,-17.62248],[-65.94484,-17.62226],[-65.94488,-17.62221],[-65.94515,-17.62233],[-65.94494,-17.62248]]]},"properties":{"n":"CHILLIJCHI","p":23,"personas_x_ha":391,"masculinidad":92,"pct_menor20":22,"pct_60mas":30,"pct_migrante":13,"dependencia_econ":2200,"pct_empleados":0,"pct_cuentapropia":100,"pct_agricultura":100,"pct_comercio":0,"pct_manufactura":0,"pct_construccion":0,"pct_transporte":0,"pct_alojamiento":0,"pct_sin_educacion":5,"pct_educ_superior":5,"brecha_educ":-19,"pct_sin_seguro":22,"pct_sus":74,"pct_seguro_privado":4,"brecha_seguro":11,"pct_salud_publica":26,"pct_med_tradicional":11,"pct_automedicacion":17,"pct_remedios_caseros":18,"pct_viv_desocupada":0,"pct_alquiler":0,"pct_electricidad":88,"pct_sin_electricidad":12,"pct_agua_red":100,"pct_alcantarillado":0,"pct_camara_septica":0,"pct_pozo_ciego":75,"pct_sin_desague":25,"pct_gas_red":0,"pct_gas_garrafa":62,"pct_lena_guano":62,"pct_basura_formal":62,"pct_basura_quema":25,"pct_basura_informal":0,"pct_internet":38,"pct_celular":75,"pct_televisor":75}},{"type":"Feature","geometry":{"type":"Polygon","coordinates":[[[-65.90281,-17.6503],[-65.90272,-17.64853],[-65.90262,-17.64813],[-65.9016,-17.64869],[-65.90026,-17.64855],[-65.90026,-17.6488],[-65.90017,-17.64891],[-65.9002,-17.64918],[-65.90045,-17.64973],[-65.90049,-17.65013],[-65.90281,-17.6503]]]},"properties":{"n":"CHUA LOMA","p":32,"personas_x_ha":7,"masculinidad":100,"pct_menor20":28,"pct_60mas":22,"pct_migrante":62,"dependencia_econ":113,"pct_empleados":0,"pct_cuentapropia":60,"pct_agricultura":60,"pct_comercio":7,"pct_manufactura":0,"pct_construccion":20,"pct_transporte":0,"pct_alojamiento":7,"pct_sin_educacion":13,"pct_educ_superior":9,"brecha_educ":-12,"pct_sin_seguro":6,"pct_sus":78,"pct_seguro_privado":0,"brecha_seguro":12,"pct_salud_publica":27,"pct_med_tradicional":10,"pct_automedicacion":14,"pct_remedios_caseros":24,"pct_viv_desocupada":7,"pct_alquiler":7,"pct_electricidad":71,"pct_sin_electricidad":29,"pct_agua_red":0,"pct_alcantarillado":7,"pct_camara_septica":0,"pct_pozo_ciego":36,"pct_sin_desague":57,"pct_gas_red":0,"pct_gas_garrafa":71,"pct_lena_guano":71,"pct_basura_formal":0,"pct_basura_quema":57,"pct_basura_informal":71,"pct_internet":57,"pct_celular":86,"pct_televisor":50}},{"type":"Feature","geometry":{"type":"Polygon","coordinates":[[[-65.90023,-17.64979],[-65.90012,-17.64997],[-65.89977,-17.64991],[-65.89956,-17.64977],[-65.8994,-17.64981],[-65.89923,-17.64919],[-65.89931,-17.64869],[-65.89995,-17.6485],[-65.90019,-17.64855],[-65.90012,-17.64909],[-65.90038,-17.6498],[-65.90023,-17.64979]]]},"properties":{"n":"CHUA LOMA","p":35,"personas_x_ha":25,"masculinidad":94,"pct_menor20":40,"pct_60mas":11,"pct_migrante":34,"dependencia_econ":59,"pct_empleados":0,"pct_cuentapropia":41,"pct_agricultura":68,"pct_comercio":5,"pct_manufactura":0,"pct_construccion":9,"pct_transporte":0,"pct_alojamiento":0,"pct_sin_educacion":14,"pct_educ_superior":14,"brecha_educ":0,"pct_sin_seguro":6,"pct_sus":94,"pct_seguro_privado":0,"brecha_seguro":0,"pct_salud_publica":43,"pct_med_tradicional":3,"pct_automedicacion":25,"pct_remedios_caseros":25,"pct_viv_desocupada":0,"pct_alquiler":9,"pct_electricidad":100,"pct_sin_electricidad":0,"pct_agua_red":91,"pct_alcantarillado":0,"pct_camara_septica":0,"pct_pozo_ciego":55,"pct_sin_desague":27,"pct_gas_red":0,"pct_gas_garrafa":55,"pct_lena_guano":55,"pct_basura_formal":0,"pct_basura_quema":100,"pct_basura_informal":0,"pct_internet":82,"pct_celular":82,"pct_televisor":73}},{"type":"Feature","geometry":{"type":"Polygon","coordinates":[[[-65.93788,-17.61754],[-65.93748,-17.61643],[-65.93675,-17.61675],[-65.93681,-17.61736],[-65.93654,-17.61856],[-65.93797,-17.61857],[-65.93788,-17.61754]]]},"properties":{"n":"CRUZ PATA","p":21,"personas_x_ha":8,"masculinidad":62,"pct_menor20":29,"pct_60mas":29,"pct_migrante":76,"dependencia_econ":24,"pct_empleados":47,"pct_cuentapropia":41,"pct_agricultura":71,"pct_comercio":0,"pct_manufactura":0,"pct_construccion":6,"pct_transporte":0,"pct_alojamiento":0,"pct_sin_educacion":13,"pct_educ_superior":27,"brecha_educ":22,"pct_sin_seguro":14,"pct_sus":33,"pct_seguro_privado":0,"brecha_seguro":-3,"pct_salud_publica":12,"pct_med_tradicional":9,"pct_automedicacion":23,"pct_remedios_caseros":26,"pct_viv_desocupada":12,"pct_alquiler":0,"pct_electricidad":100,"pct_sin_electricidad":0,"pct_agua_red":100,"pct_alcantarillado":100,"pct_camara_septica":0,"pct_pozo_ciego":0,"pct_sin_desague":0,"pct_gas_red":0,"pct_gas_garrafa":67,"pct_lena_guano":67,"pct_basura_formal":17,"pct_basura_quema":33,"pct_basura_informal":0,"pct_internet":50,"pct_celular":83,"pct_televisor":100}},{"type":"Feature","geometry":{"type":"Polygon","coordinates":[[[-65.93682,-17.61468],[-65.93667,-17.6146],[-65.93656,-17.61476],[-65.93662,-17.61493],[-65.93763,-17.6165],[-65.93836,-17.61635],[-65.93829,-17.61599],[-65.93849,-17.61593],[-65.93853,-17.61583],[-65.93825,-17.61546],[-65.93685,-17.61485],[-65.93682,-17.61468]]]},"properties":{"n":"CRUZ PATA","p":56,"personas_x_ha":31,"masculinidad":75,"pct_menor20":30,"pct_60mas":7,"pct_migrante":12,"dependencia_econ":44,"pct_empleados":31,"pct_cuentapropia":44,"pct_agricultura":18,"pct_comercio":28,"pct_manufactura":3,"pct_construccion":28,"pct_transporte":0,"pct_alojamiento":3,"pct_sin_educacion":3,"pct_educ_superior":33,"brecha_educ":-23,"pct_sin_seguro":31,"pct_sus":69,"pct_seguro_privado":0,"brecha_seguro":-1,"pct_salud_publica":28,"pct_med_tradicional":7,"pct_automedicacion":20,"pct_remedios_caseros":22,"pct_viv_desocupada":0,"pct_alquiler":0,"pct_electricidad":100,"pct_sin_electricidad":0,"pct_agua_red":100,"pct_alcantarillado":33,"pct_camara_septica":0,"pct_pozo_ciego":60,"pct_sin_desague":7,"pct_gas_red":0,"pct_gas_garrafa":87,"pct_lena_guano":87,"pct_basura_formal":80,"pct_basura_quema":20,"pct_basura_informal":0,"pct_internet":80,"pct_celular":100,"pct_televisor":80}},{"type":"Feature","geometry":{"type":"Polygon","coordinates":[[[-65.94057,-17.61389],[-65.94066,-17.61383],[-65.94074,-17.61327],[-65.94093,-17.6127],[-65.94213,-17.61218],[-65.9422,-17.61153],[-65.94214,-17.61145],[-65.9404,-17.61139],[-65.93975,-17.61146],[-65.94,-17.61241],[-65.94057,-17.61389]]]},"properties":{"n":"CRUZ PATA","p":26,"personas_x_ha":7,"masculinidad":117,"pct_menor20":12,"pct_60mas":31,"pct_migrante":15,"dependencia_econ":40,"pct_empleados":27,"pct_cuentapropia":47,"pct_agricultura":67,"pct_comercio":13,"pct_manufactura":7,"pct_construccion":7,"pct_transporte":0,"pct_alojamiento":0,"pct_sin_educacion":5,"pct_educ_superior":21,"brecha_educ":-17,"pct_sin_seguro":37,"pct_sus":63,"pct_seguro_privado":0,"brecha_seguro":20,"pct_salud_publica":24,"pct_med_tradicional":8,"pct_automedicacion":21,"pct_remedios_caseros":32,"pct_viv_desocupada":0,"pct_alquiler":0,"pct_electricidad":100,"pct_sin_electricidad":0,"pct_agua_red":78,"pct_alcantarillado":67,"pct_camara_septica":0,"pct_pozo_ciego":11,"pct_sin_desague":22,"pct_gas_red":56,"pct_gas_garrafa":33,"pct_lena_guano":33,"pct_basura_formal":89,"pct_basura_quema":11,"pct_basura_informal":0,"pct_internet":56,"pct_celular":56,"pct_televisor":78}},{"type":"Feature","geometry":{"type":"Polygon","coordinates":[[[-65.93794,-17.61757],[-65.93764,-17.61657],[-65.93835,-17.6164],[-65.93838,-17.61662],[-65.93933,-17.61668],[-65.93966,-17.61687],[-65.94005,-17.61736],[-65.94012,-17.61764],[-65.94006,-17.61848],[-65.93803,-17.61857],[-65.93794,-17.61757]]]},"properties":{"n":"CRUZ PATA","p":27,"personas_x_ha":6,"masculinidad":69,"pct_menor20":33,"pct_60mas":19,"pct_migrante":22,"dependencia_econ":80,"pct_empleados":27,"pct_cuentapropia":53,"pct_agricultura":60,"pct_comercio":7,"pct_manufactura":7,"pct_construccion":0,"pct_transporte":7,"pct_alojamiento":7,"pct_sin_educacion":6,"pct_educ_superior":11,"brecha_educ":35,"pct_sin_seguro":0,"pct_sus":100,"pct_seguro_privado":0,"brecha_seguro":0,"pct_salud_publica":81,"pct_med_tradicional":3,"pct_automedicacion":6,"pct_remedios_caseros":6,"pct_viv_desocupada":8,"pct_alquiler":0,"pct_electricidad":100,"pct_sin_electricidad":0,"pct_agua_red":12,"pct_alcantarillado":12,"pct_camara_septica":0,"pct_pozo_ciego":75,"pct_sin_desague":12,"pct_gas_red":0,"pct_gas_garrafa":100,"pct_lena_guano":100,"pct_basura_formal":100,"pct_basura_quema":0,"pct_basura_informal":0,"pct_internet":38,"pct_celular":88,"pct_televisor":75}},{"type":"Feature","geometry":{"type":"Polygon","coordinates":[[[-65.93683,-17.61463],[-65.93824,-17.6139],[-65.93826,-17.61381],[-65.93778,-17.61314],[-65.93754,-17.61296],[-65.93645,-17.61315],[-65.93669,-17.6143],[-65.93668,-17.61458],[-65.93683,-17.61463]]]},"properties":{"n":"CRUZ PATA","p":27,"personas_x_ha":12,"masculinidad":108,"pct_menor20":4,"pct_60mas":41,"pct_migrante":4,"dependencia_econ":145,"pct_empleados":36,"pct_cuentapropia":36,"pct_agricultura":64,"pct_comercio":0,"pct_manufactura":27,"pct_construccion":9,"pct_transporte":0,"pct_alojamiento":0,"pct_sin_educacion":0,"pct_educ_superior":19,"brecha_educ":-37,"pct_sin_seguro":37,"pct_sus":59,"pct_seguro_privado":4,"brecha_seguro":12,"pct_salud_publica":22,"pct_med_tradicional":17,"pct_automedicacion":21,"pct_remedios_caseros":19,"pct_viv_desocupada":0,"pct_alquiler":0,"pct_electricidad":100,"pct_sin_electricidad":0,"pct_agua_red":100,"pct_alcantarillado":56,"pct_camara_septica":11,"pct_pozo_ciego":11,"pct_sin_desague":22,"pct_gas_red":0,"pct_gas_garrafa":67,"pct_lena_guano":67,"pct_basura_formal":78,"pct_basura_quema":22,"pct_basura_informal":0,"pct_internet":44,"pct_celular":67,"pct_televisor":78}},{"type":"Feature","geometry":{"type":"Polygon","coordinates":[[[-65.93966,-17.61152],[-65.94047,-17.61403],[-65.94017,-17.61475],[-65.9401,-17.61522],[-65.93963,-17.61519],[-65.93833,-17.61395],[-65.93955,-17.61338],[-65.93888,-17.6119],[-65.9393,-17.61179],[-65.93927,-17.61158],[-65.93966,-17.61152]]]},"properties":{"n":"CRUZ PATA","p":43,"personas_x_ha":10,"masculinidad":139,"pct_menor20":30,"pct_60mas":28,"pct_migrante":28,"dependencia_econ":65,"pct_empleados":35,"pct_cuentapropia":54,"pct_agricultura":65,"pct_comercio":4,"pct_manufactura":0,"pct_construccion":8,"pct_transporte":0,"pct_alojamiento":0,"pct_sin_educacion":3,"pct_educ_superior":60,"brecha_educ":0,"pct_sin_seguro":28,"pct_sus":37,"pct_seguro_privado":0,"brecha_seguro":19,"pct_salud_publica":19,"pct_med_tradicional":3,"pct_automedicacion":23,"pct_remedios_caseros":22,"pct_viv_desocupada":0,"pct_alquiler":0,"pct_electricidad":94,"pct_sin_electricidad":6,"pct_agua_red":94,"pct_alcantarillado":88,"pct_camara_septica":0,"pct_pozo_ciego":6,"pct_sin_desague":6,"pct_gas_red":75,"pct_gas_garrafa":12,"pct_lena_guano":12,"pct_basura_formal":94,"pct_basura_quema":6,"pct_basura_informal":0,"pct_internet":75,"pct_celular":81,"pct_televisor":81}},{"type":"Feature","geometry":{"type":"Polygon","coordinates":[[[-65.93662,-17.61443],[-65.93645,-17.61362],[-65.93634,-17.61405],[-65.93625,-17.61421],[-65.93615,-17.61421],[-65.93606,-17.6147],[-65.93594,-17.61472],[-65.93594,-17.61491],[-65.936,-17.61532],[-65.93614,-17.61556],[-65.93668,-17.61607],[-65.93675,-17.61664],[-65.93744,-17.61634],[-65.93649,-17.61486],[-65.93662,-17.61443]]]},"properties":{"n":"CRUZ PATA","p":76,"personas_x_ha":41,"masculinidad":105,"pct_menor20":33,"pct_60mas":14,"pct_migrante":22,"dependencia_econ":63,"pct_empleados":26,"pct_cuentapropia":65,"pct_agricultura":52,"pct_comercio":13,"pct_manufactura":0,"pct_construccion":7,"pct_transporte":0,"pct_alojamiento":0,"pct_sin_educacion":8,"pct_educ_superior":27,"brecha_educ":-15,"pct_sin_seguro":8,"pct_sus":85,"pct_seguro_privado":1,"brecha_seguro":0,"pct_salud_publica":28,"pct_med_tradicional":15,"pct_automedicacion":23,"pct_remedios_caseros":20,"pct_viv_desocupada":0,"pct_alquiler":0,"pct_electricidad":100,"pct_sin_electricidad":0,"pct_agua_red":90,"pct_alcantarillado":75,"pct_camara_septica":5,"pct_pozo_ciego":20,"pct_sin_desague":0,"pct_gas_red":0,"pct_gas_garrafa":90,"pct_lena_guano":90,"pct_basura_formal":95,"pct_basura_quema":0,"pct_basura_informal":10,"pct_internet":75,"pct_celular":85,"pct_televisor":80}},{"type":"Feature","geometry":{"type":"Polygon","coordinates":[[[-65.93831,-17.61392],[-65.93951,-17.61337],[-65.93884,-17.61188],[-65.93927,-17.61177],[-65.93923,-17.61156],[-65.93965,-17.6115],[-65.93956,-17.61109],[-65.9391,-17.60998],[-65.93849,-17.61027],[-65.93858,-17.61057],[-65.93815,-17.61099],[-65.93764,-17.61214],[-65.9376,-17.61295],[-65.93781,-17.61311],[-65.93831,-17.61381],[-65.93831,-17.61392]]]},"properties":{"n":"CRUZ PATA","p":30,"personas_x_ha":5,"masculinidad":131,"pct_menor20":23,"pct_60mas":27,"pct_migrante":33,"dependencia_econ":65,"pct_empleados":41,"pct_cuentapropia":47,"pct_agricultura":24,"pct_comercio":24,"pct_manufactura":29,"pct_construccion":6,"pct_transporte":6,"pct_alojamiento":6,"pct_sin_educacion":0,"pct_educ_superior":14,"brecha_educ":-19,"pct_sin_seguro":19,"pct_sus":81,"pct_seguro_privado":0,"brecha_seguro":18,"pct_salud_publica":23,"pct_med_tradicional":12,"pct_automedicacion":21,"pct_remedios_caseros":22,"pct_viv_desocupada":0,"pct_alquiler":0,"pct_electricidad":91,"pct_sin_electricidad":0,"pct_agua_red":64,"pct_alcantarillado":64,"pct_camara_septica":9,"pct_pozo_ciego":18,"pct_sin_desague":9,"pct_gas_red":45,"pct_gas_garrafa":55,"pct_lena_guano":55,"pct_basura_formal":91,"pct_basura_quema":0,"pct_basura_informal":0,"pct_internet":45,"pct_celular":82,"pct_televisor":73}},{"type":"Feature","geometry":{"type":"Polygon","coordinates":[[[-65.92705,-17.63361],[-65.92695,-17.63325],[-65.92649,-17.63396],[-65.9268,-17.6342],[-65.9278,-17.63446],[-65.92835,-17.63437],[-65.92937,-17.63436],[-65.92935,-17.6341],[-65.92857,-17.63411],[-65.92803,-17.63427],[-65.92766,-17.63417],[-65.92758,-17.63398],[-65.92705,-17.63361]]]},"properties":{"n":"TOCO QUINTO","p":17,"personas_x_ha":14,"masculinidad":143,"pct_menor20":29,"pct_60mas":41,"pct_migrante":12,"dependencia_econ":70,"pct_empleados":20,"pct_cuentapropia":50,"pct_agricultura":90,"pct_comercio":10,"pct_manufactura":0,"pct_construccion":0,"pct_transporte":0,"pct_alojamiento":0,"pct_sin_educacion":0,"pct_educ_superior":0,"brecha_educ":0,"pct_sin_seguro":6,"pct_sus":88,"pct_seguro_privado":6,"brecha_seguro":10,"pct_salud_publica":57,"pct_med_tradicional":0,"pct_automedicacion":10,"pct_remedios_caseros":7,"pct_viv_desocupada":0,"pct_alquiler":0,"pct_electricidad":100,"pct_sin_electricidad":0,"pct_agua_red":86,"pct_alcantarillado":86,"pct_camara_septica":0,"pct_pozo_ciego":0,"pct_sin_desague":14,"pct_gas_red":43,"pct_gas_garrafa":57,"pct_lena_guano":57,"pct_basura_formal":86,"pct_basura_quema":14,"pct_basura_informal":0,"pct_internet":57,"pct_celular":86,"pct_televisor":100}},{"type":"Feature","geometry":{"type":"Polygon","coordinates":[[[-65.93428,-17.63632],[-65.93388,-17.63611],[-65.9338,-17.63573],[-65.93367,-17.63569],[-65.93378,-17.63577],[-65.93386,-17.63614],[-65.93424,-17.63632],[-65.93417,-17.63649],[-65.93418,-17.63674],[-65.93398,-17.63675],[-65.93341,-17.63635],[-65.93326,-17.63577],[-65.93327,-17.63553],[-65.9332,-17.63545],[-65.93335,-17.63509],[-65.9333,-17.63495],[-65.9333,-17.63517],[-65.93317,-17.63544],[-65.93332,-17.63632],[-65.93251,-17.63592],[-65.93017,-17.63521],[-65.92954,-17.63445],[-65.93,-17.63451],[-65.93121,-17.63446],[-65.93213,-17.63468],[-65.93323,-17.63476],[-65.93431,-17.6356],[-65.93504,-17.63587],[-65.93521,-17.63624],[-65.93523,-17.63675],[-65.93483,-17.63692],[-65.93421,-17.63679],[-65.93428,-17.63632]]]},"properties":{"n":"TOCO QUINTO","p":33,"personas_x_ha":5,"masculinidad":136,"pct_menor20":39,"pct_60mas":15,"pct_migrante":42,"dependencia_econ":74,"pct_empleados":26,"pct_cuentapropia":58,"pct_agricultura":68,"pct_comercio":11,"pct_manufactura":5,"pct_construccion":5,"pct_transporte":0,"pct_alojamiento":0,"pct_sin_educacion":5,"pct_educ_superior":10,"brecha_educ":-12,"pct_sin_seguro":3,"pct_sus":97,"pct_seguro_privado":0,"brecha_seguro":6,"pct_salud_publica":54,"pct_med_tradicional":8,"pct_automedicacion":22,"pct_remedios_caseros":5,"pct_viv_desocupada":0,"pct_alquiler":0,"pct_electricidad":77,"pct_sin_electricidad":23,"pct_agua_red":77,"pct_alcantarillado":0,"pct_camara_septica":0,"pct_pozo_ciego":46,"pct_sin_desague":46,"pct_gas_red":0,"pct_gas_garrafa":77,"pct_lena_guano":77,"pct_basura_formal":0,"pct_basura_quema":85,"pct_basura_informal":15,"pct_internet":77,"pct_celular":92,"pct_televisor":69}},{"type":"Feature","geometry":{"type":"Polygon","coordinates":[[[-65.9276,-17.62547],[-65.92734,-17.6249],[-65.92681,-17.62519],[-65.92703,-17.62573],[-65.9276,-17.62547]]]},"properties":{"n":"TOKO","p":21,"personas_x_ha":47,"masculinidad":162,"pct_menor20":29,"pct_60mas":29,"pct_migrante":57,"dependencia_econ":75,"pct_empleados":25,"pct_cuentapropia":58,"pct_agricultura":25,"pct_comercio":8,"pct_manufactura":8,"pct_construccion":8,"pct_transporte":8,"pct_alojamiento":17,"pct_sin_educacion":0,"pct_educ_superior":33,"brecha_educ":-17,"pct_sin_seguro":14,"pct_sus":71,"pct_seguro_privado":0,"brecha_seguro":3,"pct_salud_publica":19,"pct_med_tradicional":18,"pct_automedicacion":22,"pct_remedios_caseros":21,"pct_viv_desocupada":0,"pct_alquiler":0,"pct_electricidad":100,"pct_sin_electricidad":0,"pct_agua_red":100,"pct_alcantarillado":86,"pct_camara_septica":0,"pct_pozo_ciego":0,"pct_sin_desague":14,"pct_gas_red":43,"pct_gas_garrafa":57,"pct_lena_guano":57,"pct_basura_formal":100,"pct_basura_quema":0,"pct_basura_informal":0,"pct_internet":86,"pct_celular":86,"pct_televisor":86}},{"type":"Feature","geometry":{"type":"Polygon","coordinates":[[[-65.91244,-17.61304],[-65.91248,-17.61284],[-65.91032,-17.61132],[-65.91028,-17.61206],[-65.91091,-17.61217],[-65.91085,-17.61296],[-65.91244,-17.61304]]]},"properties":{"n":"TOKO","p":21,"personas_x_ha":12,"masculinidad":50,"pct_menor20":29,"pct_60mas":29,"pct_migrante":19,"dependencia_econ":75,"pct_empleados":17,"pct_cuentapropia":50,"pct_agricultura":83,"pct_comercio":0,"pct_manufactura":0,"pct_construccion":0,"pct_transporte":8,"pct_alojamiento":0,"pct_sin_educacion":0,"pct_educ_superior":20,"brecha_educ":-20,"pct_sin_seguro":5,"pct_sus":90,"pct_seguro_privado":0,"brecha_seguro":14,"pct_salud_publica":38,"pct_med_tradicional":0,"pct_automedicacion":21,"pct_remedios_caseros":38,"pct_viv_desocupada":0,"pct_alquiler":0,"pct_electricidad":100,"pct_sin_electricidad":0,"pct_agua_red":14,"pct_alcantarillado":100,"pct_camara_septica":0,"pct_pozo_ciego":0,"pct_sin_desague":0,"pct_gas_red":100,"pct_gas_garrafa":0,"pct_lena_guano":0,"pct_basura_formal":86,"pct_basura_quema":14,"pct_basura_informal":0,"pct_internet":71,"pct_celular":86,"pct_televisor":100}},{"type":"Feature","geometry":{"type":"Polygon","coordinates":[[[-65.91766,-17.61724],[-65.91834,-17.6175],[-65.92022,-17.61881],[-65.92,-17.61939],[-65.91755,-17.61922],[-65.91766,-17.61724]]]},"properties":{"n":"TOKO","p":15,"personas_x_ha":4,"masculinidad":50,"pct_menor20":33,"pct_60mas":40,"pct_migrante":33,"dependencia_econ":114,"pct_empleados":0,"pct_cuentapropia":14,"pct_agricultura":86,"pct_comercio":14,"pct_manufactura":0,"pct_construccion":0,"pct_transporte":0,"pct_alojamiento":0,"pct_sin_educacion":18,"pct_educ_superior":9,"brecha_educ":-21,"pct_sin_seguro":54,"pct_sus":46,"pct_seguro_privado":0,"brecha_seguro":-6,"pct_salud_publica":37,"pct_med_tradicional":16,"pct_automedicacion":11,"pct_remedios_caseros":16,"pct_viv_desocupada":0,"pct_alquiler":0,"pct_electricidad":86,"pct_sin_electricidad":14,"pct_agua_red":0,"pct_alcantarillado":57,"pct_camara_septica":14,"pct_pozo_ciego":29,"pct_sin_desague":0,"pct_gas_red":43,"pct_gas_garrafa":57,"pct_lena_guano":57,"pct_basura_formal":71,"pct_basura_quema":29,"pct_basura_informal":0,"pct_internet":43,"pct_celular":71,"pct_televisor":71}},{"type":"Feature","geometry":{"type":"Polygon","coordinates":[[[-65.91496,-17.61477],[-65.91343,-17.61361],[-65.91305,-17.61373],[-65.91252,-17.61356],[-65.91245,-17.61428],[-65.91276,-17.61427],[-65.91275,-17.61449],[-65.91343,-17.61476],[-65.91341,-17.61508],[-65.91403,-17.61511],[-65.914,-17.61556],[-65.91437,-17.6156],[-65.91437,-17.61551],[-65.91472,-17.61562],[-65.91496,-17.61477]]]},"properties":{"n":"TOKO","p":19,"personas_x_ha":6,"masculinidad":90,"pct_menor20":11,"pct_60mas":21,"pct_migrante":42,"dependencia_econ":90,"pct_empleados":10,"pct_cuentapropia":50,"pct_agricultura":80,"pct_comercio":0,"pct_manufactura":0,"pct_construccion":10,"pct_transporte":0,"pct_alojamiento":0,"pct_sin_educacion":6,"pct_educ_superior":44,"brecha_educ":-28,"pct_sin_seguro":5,"pct_sus":89,"pct_seguro_privado":0,"brecha_seguro":11,"pct_salud_publica":31,"pct_med_tradicional":13,"pct_automedicacion":31,"pct_remedios_caseros":21,"pct_viv_desocupada":0,"pct_alquiler":0,"pct_electricidad":83,"pct_sin_electricidad":0,"pct_agua_red":33,"pct_alcantarillado":67,"pct_camara_septica":0,"pct_pozo_ciego":0,"pct_sin_desague":17,"pct_gas_red":67,"pct_gas_garrafa":33,"pct_lena_guano":33,"pct_basura_formal":67,"pct_basura_quema":33,"pct_basura_informal":0,"pct_internet":83,"pct_celular":83,"pct_televisor":83}},{"type":"Feature","geometry":{"type":"Polygon","coordinates":[[[-65.92712,-17.63305],[-65.92801,-17.63158],[-65.92883,-17.63112],[-65.92841,-17.62967],[-65.92826,-17.62942],[-65.92809,-17.6293],[-65.92705,-17.6295],[-65.92686,-17.63065],[-65.92683,-17.63143],[-65.92686,-17.63262],[-65.92697,-17.63311],[-65.92712,-17.63305]]]},"properties":{"n":"TOKO","p":41,"personas_x_ha":8,"masculinidad":105,"pct_menor20":39,"pct_60mas":20,"pct_migrante":39,"dependencia_econ":122,"pct_empleados":28,"pct_cuentapropia":61,"pct_agricultura":44,"pct_comercio":0,"pct_manufactura":0,"pct_construccion":6,"pct_transporte":6,"pct_alojamiento":0,"pct_sin_educacion":12,"pct_educ_superior":24,"brecha_educ":-21,"pct_sin_seguro":0,"pct_sus":98,"pct_seguro_privado":0,"brecha_seguro":0,"pct_salud_publica":41,"pct_med_tradicional":10,"pct_automedicacion":18,"pct_remedios_caseros":15,"pct_viv_desocupada":0,"pct_alquiler":0,"pct_electricidad":100,"pct_sin_electricidad":0,"pct_agua_red":92,"pct_alcantarillado":100,"pct_camara_septica":0,"pct_pozo_ciego":0,"pct_sin_desague":0,"pct_gas_red":33,"pct_gas_garrafa":42,"pct_lena_guano":42,"pct_basura_formal":100,"pct_basura_quema":0,"pct_basura_informal":0,"pct_internet":83,"pct_celular":92,"pct_televisor":75}},{"type":"Feature","geometry":{"type":"Polygon","coordinates":[[[-65.92573,-17.62636],[-65.92598,-17.62688],[-65.92399,-17.62768],[-65.9238,-17.62723],[-65.92573,-17.62636]]]},"properties":{"n":"TOKO","p":45,"personas_x_ha":34,"masculinidad":96,"pct_menor20":44,"pct_60mas":13,"pct_migrante":49,"dependencia_econ":61,"pct_empleados":11,"pct_cuentapropia":43,"pct_agricultura":54,"pct_comercio":4,"pct_manufactura":14,"pct_construccion":7,"pct_transporte":4,"pct_alojamiento":0,"pct_sin_educacion":11,"pct_educ_superior":30,"brecha_educ":14,"pct_sin_seguro":4,"pct_sus":84,"pct_seguro_privado":0,"brecha_seguro":9,"pct_salud_publica":32,"pct_med_tradicional":5,"pct_automedicacion":17,"pct_remedios_caseros":21,"pct_viv_desocupada":7,"pct_alquiler":8,"pct_electricidad":100,"pct_sin_electricidad":0,"pct_agua_red":69,"pct_alcantarillado":100,"pct_camara_septica":0,"pct_pozo_ciego":0,"pct_sin_desague":0,"pct_gas_red":38,"pct_gas_garrafa":62,"pct_lena_guano":62,"pct_basura_formal":92,"pct_basura_quema":8,"pct_basura_informal":0,"pct_internet":77,"pct_celular":92,"pct_televisor":77}},{"type":"Feature","geometry":{"type":"Polygon","coordinates":[[[-65.9262,-17.63435],[-65.92487,-17.63424],[-65.9252,-17.63613],[-65.92585,-17.63508],[-65.9262,-17.63435]]]},"properties":{"n":"TOKO","p":26,"personas_x_ha":16,"masculinidad":62,"pct_menor20":38,"pct_60mas":19,"pct_migrante":38,"dependencia_econ":189,"pct_empleados":0,"pct_cuentapropia":100,"pct_agricultura":44,"pct_comercio":22,"pct_manufactura":0,"pct_construccion":22,"pct_transporte":0,"pct_alojamiento":0,"pct_sin_educacion":0,"pct_educ_superior":19,"brecha_educ":-73,"pct_sin_seguro":4,"pct_sus":88,"pct_seguro_privado":0,"brecha_seguro":-6,"pct_salud_publica":25,"pct_med_tradicional":17,"pct_automedicacion":22,"pct_remedios_caseros":24,"pct_viv_desocupada":33,"pct_alquiler":0,"pct_electricidad":100,"pct_sin_electricidad":0,"pct_agua_red":100,"pct_alcantarillado":62,"pct_camara_septica":12,"pct_pozo_ciego":25,"pct_sin_desague":0,"pct_gas_red":0,"pct_gas_garrafa":100,"pct_lena_guano":100,"pct_basura_formal":0,"pct_basura_quema":100,"pct_basura_informal":0,"pct_internet":38,"pct_celular":62,"pct_televisor":50}},{"type":"Feature","geometry":{"type":"Polygon","coordinates":[[[-65.92644,-17.63385],[-65.92594,-17.63349],[-65.92626,-17.63309],[-65.92652,-17.63369],[-65.92644,-17.63385]]]},"properties":{"n":"TOKO","p":17,"personas_x_ha":71,"masculinidad":70,"pct_menor20":18,"pct_60mas":24,"pct_migrante":12,"dependencia_econ":55,"pct_empleados":9,"pct_cuentapropia":73,"pct_agricultura":27,"pct_comercio":9,"pct_manufactura":9,"pct_construccion":27,"pct_transporte":0,"pct_alojamiento":0,"pct_sin_educacion":7,"pct_educ_superior":7,"brecha_educ":-57,"pct_sin_seguro":0,"pct_sus":100,"pct_seguro_privado":0,"brecha_seguro":0,"pct_salud_publica":100,"pct_med_tradicional":0,"pct_automedicacion":0,"pct_remedios_caseros":0,"pct_viv_desocupada":0,"pct_alquiler":0,"pct_electricidad":100,"pct_sin_electricidad":0,"pct_agua_red":71,"pct_alcantarillado":86,"pct_camara_septica":0,"pct_pozo_ciego":14,"pct_sin_desague":0,"pct_gas_red":0,"pct_gas_garrafa":86,"pct_lena_guano":86,"pct_basura_formal":100,"pct_basura_quema":0,"pct_basura_informal":0,"pct_internet":71,"pct_celular":71,"pct_televisor":71}},{"type":"Feature","geometry":{"type":"Polygon","coordinates":[[[-65.92816,-17.62669],[-65.9279,-17.62613],[-65.92731,-17.62638],[-65.92757,-17.62694],[-65.92816,-17.62669]]]},"properties":{"n":"TOKO","p":21,"personas_x_ha":45,"masculinidad":133,"pct_menor20":19,"pct_60mas":29,"pct_migrante":57,"dependencia_econ":133,"pct_empleados":33,"pct_cuentapropia":44,"pct_agricultura":33,"pct_comercio":33,"pct_manufactura":0,"pct_construccion":11,"pct_transporte":0,"pct_alojamiento":0,"pct_sin_educacion":0,"pct_educ_superior":56,"brecha_educ":-15,"pct_sin_seguro":14,"pct_sus":52,"pct_seguro_privado":0,"brecha_seguro":6,"pct_salud_publica":23,"pct_med_tradicional":5,"pct_automedicacion":27,"pct_remedios_caseros":23,"pct_viv_desocupada":0,"pct_alquiler":0,"pct_electricidad":100,"pct_sin_electricidad":0,"pct_agua_red":88,"pct_alcantarillado":75,"pct_camara_septica":12,"pct_pozo_ciego":0,"pct_sin_desague":12,"pct_gas_red":38,"pct_gas_garrafa":62,"pct_lena_guano":62,"pct_basura_formal":100,"pct_basura_quema":0,"pct_basura_informal":0,"pct_internet":62,"pct_celular":75,"pct_televisor":62}},{"type":"Feature","geometry":{"type":"Polygon","coordinates":[[[-65.9275,-17.62853],[-65.92721,-17.62788],[-65.92664,-17.62808],[-65.92697,-17.62876],[-65.9275,-17.62853]]]},"properties":{"n":"TOKO","p":19,"personas_x_ha":36,"masculinidad":90,"pct_menor20":21,"pct_60mas":11,"pct_migrante":68,"dependencia_econ":46,"pct_empleados":77,"pct_cuentapropia":15,"pct_agricultura":0,"pct_comercio":8,"pct_manufactura":8,"pct_construccion":8,"pct_transporte":8,"pct_alojamiento":0,"pct_sin_educacion":6,"pct_educ_superior":44,"brecha_educ":0,"pct_sin_seguro":11,"pct_sus":84,"pct_seguro_privado":0,"brecha_seguro":1,"pct_salud_publica":40,"pct_med_tradicional":5,"pct_automedicacion":10,"pct_remedios_caseros":18,"pct_viv_desocupada":25,"pct_alquiler":0,"pct_electricidad":100,"pct_sin_electricidad":0,"pct_agua_red":50,"pct_alcantarillado":83,"pct_camara_septica":0,"pct_pozo_ciego":17,"pct_sin_desague":0,"pct_gas_red":33,"pct_gas_garrafa":67,"pct_lena_guano":67,"pct_basura_formal":100,"pct_basura_quema":0,"pct_basura_informal":0,"pct_internet":67,"pct_celular":100,"pct_televisor":67}},{"type":"Feature","geometry":{"type":"Polygon","coordinates":[[[-65.92714,-17.62935],[-65.92783,-17.62924],[-65.92755,-17.62863],[-65.92699,-17.62883],[-65.92714,-17.62935]]]},"properties":{"n":"TOKO","p":20,"personas_x_ha":43,"masculinidad":54,"pct_menor20":30,"pct_60mas":20,"pct_migrante":40,"dependencia_econ":82,"pct_empleados":18,"pct_cuentapropia":73,"pct_agricultura":18,"pct_comercio":9,"pct_manufactura":0,"pct_construccion":0,"pct_transporte":18,"pct_alojamiento":18,"pct_sin_educacion":29,"pct_educ_superior":36,"brecha_educ":-50,"pct_sin_seguro":5,"pct_sus":95,"pct_seguro_privado":0,"brecha_seguro":14,"pct_salud_publica":87,"pct_med_tradicional":0,"pct_automedicacion":0,"pct_remedios_caseros":0,"pct_viv_desocupada":0,"pct_alquiler":0,"pct_electricidad":100,"pct_sin_electricidad":0,"pct_agua_red":0,"pct_alcantarillado":86,"pct_camara_septica":0,"pct_pozo_ciego":0,"pct_sin_desague":14,"pct_gas_red":43,"pct_gas_garrafa":57,"pct_lena_guano":57,"pct_basura_formal":100,"pct_basura_quema":0,"pct_basura_informal":0,"pct_internet":71,"pct_celular":100,"pct_televisor":100}},{"type":"Feature","geometry":{"type":"Polygon","coordinates":[[[-65.92428,-17.62532],[-65.92437,-17.62556],[-65.9245,-17.62561],[-65.92509,-17.62534],[-65.92522,-17.62535],[-65.92571,-17.62629],[-65.92384,-17.62712],[-65.92381,-17.6258],[-65.92393,-17.62526],[-65.92428,-17.62532]]]},"properties":{"n":"TOKO","p":17,"personas_x_ha":6,"masculinidad":70,"pct_menor20":24,"pct_60mas":24,"pct_migrante":35,"dependencia_econ":42,"pct_empleados":42,"pct_cuentapropia":33,"pct_agricultura":67,"pct_comercio":8,"pct_manufactura":0,"pct_construccion":0,"pct_transporte":8,"pct_alojamiento":0,"pct_sin_educacion":21,"pct_educ_superior":29,"brecha_educ":-47,"pct_sin_seguro":29,"pct_sus":65,"pct_seguro_privado":0,"brecha_seguro":23,"pct_salud_publica":26,"pct_med_tradicional":0,"pct_automedicacion":24,"pct_remedios_caseros":28,"pct_viv_desocupada":0,"pct_alquiler":29,"pct_electricidad":100,"pct_sin_electricidad":0,"pct_agua_red":100,"pct_alcantarillado":29,"pct_camara_septica":0,"pct_pozo_ciego":43,"pct_sin_desague":29,"pct_gas_red":0,"pct_gas_garrafa":71,"pct_lena_guano":71,"pct_basura_formal":29,"pct_basura_quema":71,"pct_basura_informal":0,"pct_internet":14,"pct_celular":57,"pct_televisor":71}},{"type":"Feature","geometry":{"type":"Polygon","coordinates":[[[-65.92671,-17.6252],[-65.92697,-17.62575],[-65.92639,-17.626],[-65.92614,-17.62546],[-65.92671,-17.6252]]]},"properties":{"n":"TOKO","p":31,"personas_x_ha":69,"masculinidad":72,"pct_menor20":39,"pct_60mas":19,"pct_migrante":26,"dependencia_econ":94,"pct_empleados":0,"pct_cuentapropia":100,"pct_agricultura":38,"pct_comercio":38,"pct_manufactura":0,"pct_construccion":0,"pct_transporte":19,"pct_alojamiento":6,"pct_sin_educacion":11,"pct_educ_superior":11,"brecha_educ":-7,"pct_sin_seguro":6,"pct_sus":90,"pct_seguro_privado":3,"brecha_seguro":15,"pct_salud_publica":36,"pct_med_tradicional":1,"pct_automedicacion":23,"pct_remedios_caseros":28,"pct_viv_desocupada":8,"pct_alquiler":25,"pct_electricidad":100,"pct_sin_electricidad":0,"pct_agua_red":83,"pct_alcantarillado":100,"pct_camara_septica":0,"pct_pozo_ciego":0,"pct_sin_desague":0,"pct_gas_red":42,"pct_gas_garrafa":58,"pct_lena_guano":58,"pct_basura_formal":100,"pct_basura_quema":0,"pct_basura_informal":0,"pct_internet":67,"pct_celular":100,"pct_televisor":83}},{"type":"Feature","geometry":{"type":"Polygon","coordinates":[[[-65.91663,-17.61619],[-65.91601,-17.61617],[-65.91599,-17.61711],[-65.91678,-17.61714],[-65.91679,-17.6169],[-65.91821,-17.61735],[-65.91663,-17.61619]]]},"properties":{"n":"TOKO","p":19,"personas_x_ha":14,"masculinidad":58,"pct_menor20":26,"pct_60mas":26,"pct_migrante":21,"dependencia_econ":111,"pct_empleados":0,"pct_cuentapropia":100,"pct_agricultura":56,"pct_comercio":0,"pct_manufactura":0,"pct_construccion":0,"pct_transporte":0,"pct_alojamiento":0,"pct_sin_educacion":29,"pct_educ_superior":29,"brecha_educ":-36,"pct_sin_seguro":0,"pct_sus":100,"pct_seguro_privado":0,"brecha_seguro":0,"pct_salud_publica":22,"pct_med_tradicional":22,"pct_automedicacion":16,"pct_remedios_caseros":22,"pct_viv_desocupada":0,"pct_alquiler":22,"pct_electricidad":100,"pct_sin_electricidad":0,"pct_agua_red":33,"pct_alcantarillado":89,"pct_camara_septica":0,"pct_pozo_ciego":0,"pct_sin_desague":11,"pct_gas_red":44,"pct_gas_garrafa":56,"pct_lena_guano":56,"pct_basura_formal":78,"pct_basura_quema":22,"pct_basura_informal":0,"pct_internet":67,"pct_celular":89,"pct_televisor":100}},{"type":"Feature","geometry":{"type":"Polygon","coordinates":[[[-65.92761,-17.62699],[-65.92817,-17.62675],[-65.92841,-17.6273],[-65.92785,-17.62753],[-65.92761,-17.62699]]]},"properties":{"n":"TOKO","p":16,"personas_x_ha":37,"masculinidad":167,"pct_menor20":31,"pct_60mas":31,"pct_migrante":50,"dependencia_econ":167,"pct_empleados":17,"pct_cuentapropia":83,"pct_agricultura":33,"pct_comercio":33,"pct_manufactura":0,"pct_construccion":17,"pct_transporte":0,"pct_alojamiento":17,"pct_sin_educacion":0,"pct_educ_superior":45,"brecha_educ":4,"pct_sin_seguro":25,"pct_sus":75,"pct_seguro_privado":0,"brecha_seguro":13,"pct_salud_publica":33,"pct_med_tradicional":2,"pct_automedicacion":22,"pct_remedios_caseros":24,"pct_viv_desocupada":0,"pct_alquiler":17,"pct_electricidad":100,"pct_sin_electricidad":0,"pct_agua_red":83,"pct_alcantarillado":100,"pct_camara_septica":0,"pct_pozo_ciego":0,"pct_sin_desague":0,"pct_gas_red":33,"pct_gas_garrafa":67,"pct_lena_guano":67,"pct_basura_formal":100,"pct_basura_quema":0,"pct_basura_informal":0,"pct_internet":67,"pct_celular":100,"pct_televisor":100}},{"type":"Feature","geometry":{"type":"Polygon","coordinates":[[[-65.91253,-17.61274],[-65.91121,-17.61182],[-65.91115,-17.61117],[-65.91271,-17.61249],[-65.91253,-17.61274]]]},"properties":{"n":"TOKO","p":24,"personas_x_ha":27,"masculinidad":100,"pct_menor20":33,"pct_60mas":12,"pct_migrante":0,"dependencia_econ":44,"pct_empleados":0,"pct_cuentapropia":81,"pct_agricultura":94,"pct_comercio":0,"pct_manufactura":0,"pct_construccion":0,"pct_transporte":6,"pct_alojamiento":0,"pct_sin_educacion":12,"pct_educ_superior":24,"brecha_educ":-44,"pct_sin_seguro":5,"pct_sus":86,"pct_seguro_privado":0,"brecha_seguro":9,"pct_salud_publica":33,"pct_med_tradicional":0,"pct_automedicacion":31,"pct_remedios_caseros":33,"pct_viv_desocupada":0,"pct_alquiler":0,"pct_electricidad":100,"pct_sin_electricidad":0,"pct_agua_red":29,"pct_alcantarillado":100,"pct_camara_septica":0,"pct_pozo_ciego":0,"pct_sin_desague":0,"pct_gas_red":71,"pct_gas_garrafa":29,"pct_lena_guano":29,"pct_basura_formal":100,"pct_basura_quema":0,"pct_basura_informal":0,"pct_internet":57,"pct_celular":100,"pct_televisor":100}},{"type":"Feature","geometry":{"type":"Polygon","coordinates":[[[-65.92724,-17.62635],[-65.92699,-17.62582],[-65.92641,-17.62607],[-65.92666,-17.6266],[-65.92724,-17.62635]]]},"properties":{"n":"TOKO","p":19,"personas_x_ha":44,"masculinidad":111,"pct_menor20":26,"pct_60mas":37,"pct_migrante":42,"dependencia_econ":58,"pct_empleados":8,"pct_cuentapropia":67,"pct_agricultura":17,"pct_comercio":58,"pct_manufactura":0,"pct_construccion":0,"pct_transporte":0,"pct_alojamiento":17,"pct_sin_educacion":0,"pct_educ_superior":7,"brecha_educ":-57,"pct_sin_seguro":21,"pct_sus":74,"pct_seguro_privado":0,"brecha_seguro":19,"pct_salud_publica":28,"pct_med_tradicional":8,"pct_automedicacion":26,"pct_remedios_caseros":25,"pct_viv_desocupada":33,"pct_alquiler":12,"pct_electricidad":100,"pct_sin_electricidad":0,"pct_agua_red":100,"pct_alcantarillado":100,"pct_camara_septica":0,"pct_pozo_ciego":0,"pct_sin_desague":0,"pct_gas_red":100,"pct_gas_garrafa":0,"pct_lena_guano":0,"pct_basura_formal":100,"pct_basura_quema":0,"pct_basura_informal":0,"pct_internet":88,"pct_celular":88,"pct_televisor":88}},{"type":"Feature","geometry":{"type":"Polygon","coordinates":[[[-65.91662,-17.61337],[-65.91626,-17.61043],[-65.91571,-17.60996],[-65.91539,-17.61038],[-65.9158,-17.61337],[-65.91662,-17.61337]]]},"properties":{"n":"TOKO","p":18,"personas_x_ha":6,"masculinidad":80,"pct_menor20":44,"pct_60mas":28,"pct_migrante":78,"dependencia_econ":125,"pct_empleados":38,"pct_cuentapropia":38,"pct_agricultura":75,"pct_comercio":0,"pct_manufactura":0,"pct_construccion":12,"pct_transporte":0,"pct_alojamiento":0,"pct_sin_educacion":30,"pct_educ_superior":10,"brecha_educ":0,"pct_sin_seguro":6,"pct_sus":56,"pct_seguro_privado":0,"brecha_seguro":12,"pct_salud_publica":26,"pct_med_tradicional":3,"pct_automedicacion":17,"pct_remedios_caseros":26,"pct_viv_desocupada":0,"pct_alquiler":17,"pct_electricidad":100,"pct_sin_electricidad":0,"pct_agua_red":0,"pct_alcantarillado":0,"pct_camara_septica":0,"pct_pozo_ciego":100,"pct_sin_desague":0,"pct_gas_red":0,"pct_gas_garrafa":50,"pct_lena_guano":50,"pct_basura_formal":0,"pct_basura_quema":83,"pct_basura_informal":0,"pct_internet":50,"pct_celular":67,"pct_televisor":83}},{"type":"Feature","geometry":{"type":"Polygon","coordinates":[[[-65.92629,-17.62753],[-65.92697,-17.62906],[-65.92675,-17.63039],[-65.92526,-17.63039],[-65.92484,-17.6305],[-65.92475,-17.63074],[-65.92443,-17.63035],[-65.92472,-17.62823],[-65.92629,-17.62753]]]},"properties":{"n":"TOKO","p":21,"personas_x_ha":3,"masculinidad":162,"pct_menor20":19,"pct_60mas":29,"pct_migrante":33,"dependencia_econ":50,"pct_empleados":29,"pct_cuentapropia":57,"pct_agricultura":50,"pct_comercio":14,"pct_manufactura":7,"pct_construccion":0,"pct_transporte":0,"pct_alojamiento":7,"pct_sin_educacion":18,"pct_educ_superior":6,"brecha_educ":-20,"pct_sin_seguro":0,"pct_sus":86,"pct_seguro_privado":14,"brecha_seguro":0,"pct_salud_publica":31,"pct_med_tradicional":5,"pct_automedicacion":19,"pct_remedios_caseros":22,"pct_viv_desocupada":8,"pct_alquiler":11,"pct_electricidad":89,"pct_sin_electricidad":11,"pct_agua_red":56,"pct_alcantarillado":89,"pct_camara_septica":11,"pct_pozo_ciego":0,"pct_sin_desague":0,"pct_gas_red":44,"pct_gas_garrafa":44,"pct_lena_guano":44,"pct_basura_formal":100,"pct_basura_quema":0,"pct_basura_informal":0,"pct_internet":56,"pct_celular":78,"pct_televisor":78}},{"type":"Feature","geometry":{"type":"Polygon","coordinates":[[[-65.92449,-17.62553],[-65.92515,-17.62522],[-65.92493,-17.62411],[-65.92511,-17.62375],[-65.9248,-17.62298],[-65.92336,-17.6212],[-65.92327,-17.62125],[-65.92298,-17.62069],[-65.92165,-17.61988],[-65.92044,-17.61902],[-65.91987,-17.62015],[-65.91903,-17.62219],[-65.921,-17.62307],[-65.92137,-17.62334],[-65.92142,-17.62361],[-65.92276,-17.62446],[-65.92334,-17.62515],[-65.92443,-17.62526],[-65.92449,-17.62553]]]},"properties":{"n":"TOKO","p":141,"personas_x_ha":6,"masculinidad":91,"pct_menor20":37,"pct_60mas":14,"pct_migrante":28,"dependencia_econ":101,"pct_empleados":23,"pct_cuentapropia":57,"pct_agricultura":57,"pct_comercio":11,"pct_manufactura":1,"pct_construccion":7,"pct_transporte":7,"pct_alojamiento":3,"pct_sin_educacion":6,"pct_educ_superior":15,"brecha_educ":-38,"pct_sin_seguro":7,"pct_sus":90,"pct_seguro_privado":0,"brecha_seguro":4,"pct_salud_publica":40,"pct_med_tradicional":5,"pct_automedicacion":16,"pct_remedios_caseros":25,"pct_viv_desocupada":4,"pct_alquiler":0,"pct_electricidad":96,"pct_sin_electricidad":4,"pct_agua_red":40,"pct_alcantarillado":62,"pct_camara_septica":0,"pct_pozo_ciego":29,"pct_sin_desague":7,"pct_gas_red":20,"pct_gas_garrafa":73,"pct_lena_guano":73,"pct_basura_formal":58,"pct_basura_quema":29,"pct_basura_informal":18,"pct_internet":56,"pct_celular":82,"pct_televisor":87}},{"type":"Feature","geometry":{"type":"Polygon","coordinates":[[[-65.91982,-17.61725],[-65.91988,-17.61791],[-65.91963,-17.61827],[-65.91796,-17.61701],[-65.91766,-17.61429],[-65.91859,-17.61472],[-65.91886,-17.61721],[-65.91982,-17.61725]]]},"properties":{"n":"TOKO","p":18,"personas_x_ha":5,"masculinidad":38,"pct_menor20":33,"pct_60mas":17,"pct_migrante":33,"dependencia_econ":100,"pct_empleados":22,"pct_cuentapropia":67,"pct_agricultura":44,"pct_comercio":0,"pct_manufactura":11,"pct_construccion":0,"pct_transporte":11,"pct_alojamiento":11,"pct_sin_educacion":0,"pct_educ_superior":42,"brecha_educ":12,"pct_sin_seguro":11,"pct_sus":89,"pct_seguro_privado":0,"brecha_seguro":-15,"pct_salud_publica":42,"pct_med_tradicional":9,"pct_automedicacion":12,"pct_remedios_caseros":21,"pct_viv_desocupada":0,"pct_alquiler":20,"pct_electricidad":100,"pct_sin_electricidad":0,"pct_agua_red":0,"pct_alcantarillado":80,"pct_camara_septica":0,"pct_pozo_ciego":20,"pct_sin_desague":0,"pct_gas_red":20,"pct_gas_garrafa":80,"pct_lena_guano":80,"pct_basura_formal":80,"pct_basura_quema":20,"pct_basura_informal":0,"pct_internet":100,"pct_celular":100,"pct_televisor":100}},{"type":"Feature","geometry":{"type":"Polygon","coordinates":[[[-65.92692,-17.62728],[-65.92716,-17.6278],[-65.92661,-17.62802],[-65.92636,-17.62751],[-65.92692,-17.62728]]]},"properties":{"n":"TOKO","p":16,"personas_x_ha":40,"masculinidad":129,"pct_menor20":25,"pct_60mas":25,"pct_migrante":31,"dependencia_econ":45,"pct_empleados":9,"pct_cuentapropia":73,"pct_agricultura":45,"pct_comercio":0,"pct_manufactura":0,"pct_construccion":27,"pct_transporte":0,"pct_alojamiento":9,"pct_sin_educacion":0,"pct_educ_superior":42,"brecha_educ":-26,"pct_sin_seguro":0,"pct_sus":88,"pct_seguro_privado":0,"brecha_seguro":0,"pct_salud_publica":31,"pct_med_tradicional":16,"pct_automedicacion":16,"pct_remedios_caseros":16,"pct_viv_desocupada":8,"pct_alquiler":0,"pct_electricidad":100,"pct_sin_electricidad":0,"pct_agua_red":25,"pct_alcantarillado":100,"pct_camara_septica":0,"pct_pozo_ciego":0,"pct_sin_desague":0,"pct_gas_red":25,"pct_gas_garrafa":75,"pct_lena_guano":75,"pct_basura_formal":100,"pct_basura_quema":0,"pct_basura_informal":0,"pct_internet":62,"pct_celular":100,"pct_televisor":100}},{"type":"Feature","geometry":{"type":"Polygon","coordinates":[[[-65.92843,-17.62737],[-65.92788,-17.62759],[-65.9283,-17.6285],[-65.92885,-17.62831],[-65.92843,-17.62737]]]},"properties":{"n":"TOKO","p":20,"personas_x_ha":28,"masculinidad":67,"pct_menor20":45,"pct_60mas":15,"pct_migrante":40,"dependencia_econ":54,"pct_empleados":23,"pct_cuentapropia":69,"pct_agricultura":46,"pct_comercio":23,"pct_manufactura":0,"pct_construccion":8,"pct_transporte":0,"pct_alojamiento":0,"pct_sin_educacion":0,"pct_educ_superior":27,"brecha_educ":7,"pct_sin_seguro":30,"pct_sus":55,"pct_seguro_privado":10,"brecha_seguro":-29,"pct_salud_publica":21,"pct_med_tradicional":23,"pct_automedicacion":21,"pct_remedios_caseros":24,"pct_viv_desocupada":14,"pct_alquiler":0,"pct_electricidad":100,"pct_sin_electricidad":0,"pct_agua_red":40,"pct_alcantarillado":80,"pct_camara_septica":0,"pct_pozo_ciego":0,"pct_sin_desague":20,"pct_gas_red":20,"pct_gas_garrafa":60,"pct_lena_guano":60,"pct_basura_formal":60,"pct_basura_quema":40,"pct_basura_informal":0,"pct_internet":80,"pct_celular":100,"pct_televisor":100}},{"type":"Feature","geometry":{"type":"Polygon","coordinates":[[[-65.92518,-17.62383],[-65.92499,-17.62404],[-65.92522,-17.62522],[-65.92554,-17.6257],[-65.92607,-17.62546],[-65.92518,-17.62383]]]},"properties":{"n":"TOKO","p":17,"personas_x_ha":17,"masculinidad":70,"pct_menor20":24,"pct_60mas":29,"pct_migrante":41,"dependencia_econ":143,"pct_empleados":29,"pct_cuentapropia":57,"pct_agricultura":14,"pct_comercio":29,"pct_manufactura":0,"pct_construccion":0,"pct_transporte":29,"pct_alojamiento":0,"pct_sin_educacion":31,"pct_educ_superior":23,"brecha_educ":-22,"pct_sin_seguro":0,"pct_sus":81,"pct_seguro_privado":0,"brecha_seguro":0,"pct_salud_publica":38,"pct_med_tradicional":7,"pct_automedicacion":0,"pct_remedios_caseros":33,"pct_viv_desocupada":0,"pct_alquiler":17,"pct_electricidad":100,"pct_sin_electricidad":0,"pct_agua_red":83,"pct_alcantarillado":100,"pct_camara_septica":0,"pct_pozo_ciego":0,"pct_sin_desague":0,"pct_gas_red":33,"pct_gas_garrafa":67,"pct_lena_guano":67,"pct_basura_formal":100,"pct_basura_quema":0,"pct_basura_informal":0,"pct_internet":83,"pct_celular":83,"pct_televisor":100}},{"type":"Feature","geometry":{"type":"Polygon","coordinates":[[[-65.92607,-17.62685],[-65.9258,-17.62632],[-65.92635,-17.62609],[-65.9266,-17.62662],[-65.92607,-17.62685]]]},"properties":{"n":"TOKO","p":23,"personas_x_ha":55,"masculinidad":92,"pct_menor20":30,"pct_60mas":35,"pct_migrante":52,"dependencia_econ":109,"pct_empleados":27,"pct_cuentapropia":64,"pct_agricultura":9,"pct_comercio":27,"pct_manufactura":0,"pct_construccion":27,"pct_transporte":18,"pct_alojamiento":9,"pct_sin_educacion":12,"pct_educ_superior":12,"brecha_educ":-27,"pct_sin_seguro":26,"pct_sus":65,"pct_seguro_privado":0,"brecha_seguro":20,"pct_salud_publica":23,"pct_med_tradicional":8,"pct_automedicacion":16,"pct_remedios_caseros":18,"pct_viv_desocupada":10,"pct_alquiler":0,"pct_electricidad":100,"pct_sin_electricidad":0,"pct_agua_red":88,"pct_alcantarillado":100,"pct_camara_septica":0,"pct_pozo_ciego":0,"pct_sin_desague":0,"pct_gas_red":62,"pct_gas_garrafa":38,"pct_lena_guano":38,"pct_basura_formal":100,"pct_basura_quema":0,"pct_basura_informal":0,"pct_internet":75,"pct_celular":88,"pct_televisor":88}},{"type":"Feature","geometry":{"type":"Polygon","coordinates":[[[-65.92895,-17.62848],[-65.92881,-17.62841],[-65.92835,-17.6286],[-65.9285,-17.6289],[-65.92855,-17.62967],[-65.92887,-17.6298],[-65.92908,-17.63028],[-65.92895,-17.63103],[-65.92916,-17.63159],[-65.93043,-17.63154],[-65.93041,-17.63145],[-65.93133,-17.63128],[-65.93115,-17.63054],[-65.93086,-17.63064],[-65.93084,-17.63008],[-65.93066,-17.62964],[-65.92988,-17.62901],[-65.92931,-17.62878],[-65.92903,-17.62875],[-65.92895,-17.62848]]]},"properties":{"n":"TOKO","p":36,"personas_x_ha":6,"masculinidad":71,"pct_menor20":31,"pct_60mas":14,"pct_migrante":33,"dependencia_econ":71,"pct_empleados":24,"pct_cuentapropia":67,"pct_agricultura":38,"pct_comercio":29,"pct_manufactura":5,"pct_construccion":10,"pct_transporte":0,"pct_alojamiento":5,"pct_sin_educacion":4,"pct_educ_superior":24,"brecha_educ":-3,"pct_sin_seguro":0,"pct_sus":97,"pct_seguro_privado":0,"brecha_seguro":0,"pct_salud_publica":40,"pct_med_tradicional":1,"pct_automedicacion":23,"pct_remedios_caseros":20,"pct_viv_desocupada":7,"pct_alquiler":7,"pct_electricidad":86,"pct_sin_electricidad":14,"pct_agua_red":43,"pct_alcantarillado":29,"pct_camara_septica":0,"pct_pozo_ciego":29,"pct_sin_desague":43,"pct_gas_red":0,"pct_gas_garrafa":71,"pct_lena_guano":71,"pct_basura_formal":71,"pct_basura_quema":14,"pct_basura_informal":14,"pct_internet":43,"pct_celular":79,"pct_televisor":64}},{"type":"Feature","geometry":{"type":"Polygon","coordinates":[[[-65.91355,-17.61357],[-65.91478,-17.61448],[-65.91597,-17.61556],[-65.91569,-17.61343],[-65.91477,-17.61355],[-65.91471,-17.61323],[-65.9141,-17.61334],[-65.91355,-17.61357]]]},"properties":{"n":"TOKO","p":18,"personas_x_ha":6,"masculinidad":80,"pct_menor20":39,"pct_60mas":11,"pct_migrante":44,"dependencia_econ":38,"pct_empleados":46,"pct_cuentapropia":15,"pct_agricultura":54,"pct_comercio":0,"pct_manufactura":0,"pct_construccion":23,"pct_transporte":0,"pct_alojamiento":0,"pct_sin_educacion":0,"pct_educ_superior":36,"brecha_educ":-30,"pct_sin_seguro":17,"pct_sus":83,"pct_seguro_privado":0,"brecha_seguro":15,"pct_salud_publica":29,"pct_med_tradicional":4,"pct_automedicacion":19,"pct_remedios_caseros":19,"pct_viv_desocupada":0,"pct_alquiler":0,"pct_electricidad":100,"pct_sin_electricidad":0,"pct_agua_red":0,"pct_alcantarillado":29,"pct_camara_septica":29,"pct_pozo_ciego":43,"pct_sin_desague":0,"pct_gas_red":43,"pct_gas_garrafa":43,"pct_lena_guano":43,"pct_basura_formal":0,"pct_basura_quema":43,"pct_basura_informal":114,"pct_internet":71,"pct_celular":86,"pct_televisor":71}},{"type":"Feature","geometry":{"type":"Polygon","coordinates":[[[-65.9229,-17.62052],[-65.92173,-17.6198],[-65.92052,-17.61887],[-65.92093,-17.61784],[-65.9215,-17.61803],[-65.92177,-17.61841],[-65.92201,-17.61905],[-65.92268,-17.61961],[-65.92277,-17.62003],[-65.92295,-17.62019],[-65.9229,-17.62052]]]},"properties":{"n":"TOKO","p":41,"personas_x_ha":14,"masculinidad":78,"pct_menor20":24,"pct_60mas":29,"pct_migrante":29,"dependencia_econ":24,"pct_empleados":18,"pct_cuentapropia":58,"pct_agricultura":61,"pct_comercio":15,"pct_manufactura":3,"pct_construccion":3,"pct_transporte":3,"pct_alojamiento":0,"pct_sin_educacion":10,"pct_educ_superior":23,"brecha_educ":-10,"pct_sin_seguro":10,"pct_sus":87,"pct_seguro_privado":0,"brecha_seguro":13,"pct_salud_publica":26,"pct_med_tradicional":7,"pct_automedicacion":24,"pct_remedios_caseros":25,"pct_viv_desocupada":0,"pct_alquiler":0,"pct_electricidad":100,"pct_sin_electricidad":0,"pct_agua_red":67,"pct_alcantarillado":72,"pct_camara_septica":11,"pct_pozo_ciego":17,"pct_sin_desague":0,"pct_gas_red":33,"pct_gas_garrafa":50,"pct_lena_guano":50,"pct_basura_formal":50,"pct_basura_quema":44,"pct_basura_informal":11,"pct_internet":67,"pct_celular":72,"pct_televisor":89}},{"type":"Feature","geometry":{"type":"Polygon","coordinates":[[[-65.92322,-17.63285],[-65.92321,-17.63211],[-65.92302,-17.63207],[-65.92222,-17.63219],[-65.92043,-17.63266],[-65.92017,-17.63291],[-65.92322,-17.63285]]]},"properties":{"n":"TOKO","p":16,"personas_x_ha":9,"masculinidad":167,"pct_menor20":25,"pct_60mas":25,"pct_migrante":12,"dependencia_econ":50,"pct_empleados":10,"pct_cuentapropia":80,"pct_agricultura":90,"pct_comercio":0,"pct_manufactura":0,"pct_construccion":0,"pct_transporte":0,"pct_alojamiento":0,"pct_sin_educacion":0,"pct_educ_superior":17,"brecha_educ":-3,"pct_sin_seguro":0,"pct_sus":100,"pct_seguro_privado":0,"brecha_seguro":0,"pct_salud_publica":33,"pct_med_tradicional":2,"pct_automedicacion":33,"pct_remedios_caseros":33,"pct_viv_desocupada":0,"pct_alquiler":43,"pct_electricidad":100,"pct_sin_electricidad":0,"pct_agua_red":100,"pct_alcantarillado":0,"pct_camara_septica":0,"pct_pozo_ciego":71,"pct_sin_desague":29,"pct_gas_red":0,"pct_gas_garrafa":100,"pct_lena_guano":100,"pct_basura_formal":0,"pct_basura_quema":100,"pct_basura_informal":0,"pct_internet":71,"pct_celular":100,"pct_televisor":100}},{"type":"Feature","geometry":{"type":"Polygon","coordinates":[[[-65.92842,-17.62233],[-65.92545,-17.62136],[-65.92523,-17.62359],[-65.92614,-17.62539],[-65.92804,-17.62438],[-65.92842,-17.62233]]]},"properties":{"n":"TOKO","p":39,"personas_x_ha":4,"masculinidad":70,"pct_menor20":41,"pct_60mas":21,"pct_migrante":38,"dependencia_econ":56,"pct_empleados":8,"pct_cuentapropia":44,"pct_agricultura":40,"pct_comercio":12,"pct_manufactura":4,"pct_construccion":4,"pct_transporte":20,"pct_alojamiento":8,"pct_sin_educacion":9,"pct_educ_superior":17,"brecha_educ":2,"pct_sin_seguro":8,"pct_sus":84,"pct_seguro_privado":0,"brecha_seguro":8,"pct_salud_publica":72,"pct_med_tradicional":6,"pct_automedicacion":0,"pct_remedios_caseros":19,"pct_viv_desocupada":28,"pct_alquiler":0,"pct_electricidad":100,"pct_sin_electricidad":0,"pct_agua_red":58,"pct_alcantarillado":50,"pct_camara_septica":8,"pct_pozo_ciego":33,"pct_sin_desague":8,"pct_gas_red":83,"pct_gas_garrafa":17,"pct_lena_guano":17,"pct_basura_formal":100,"pct_basura_quema":0,"pct_basura_informal":0,"pct_internet":75,"pct_celular":100,"pct_televisor":100}},{"type":"Feature","geometry":{"type":"Polygon","coordinates":[[[-65.92779,-17.62755],[-65.92754,-17.62701],[-65.92698,-17.62725],[-65.92722,-17.62778],[-65.92779,-17.62755]]]},"properties":{"n":"TOKO","p":19,"personas_x_ha":45,"masculinidad":138,"pct_menor20":16,"pct_60mas":32,"pct_migrante":37,"dependencia_econ":36,"pct_empleados":43,"pct_cuentapropia":57,"pct_agricultura":29,"pct_comercio":0,"pct_manufactura":7,"pct_construccion":14,"pct_transporte":14,"pct_alojamiento":0,"pct_sin_educacion":0,"pct_educ_superior":31,"brecha_educ":-25,"pct_sin_seguro":17,"pct_sus":67,"pct_seguro_privado":0,"brecha_seguro":7,"pct_salud_publica":28,"pct_med_tradicional":6,"pct_automedicacion":19,"pct_remedios_caseros":22,"pct_viv_desocupada":25,"pct_alquiler":0,"pct_electricidad":100,"pct_sin_electricidad":0,"pct_agua_red":78,"pct_alcantarillado":89,"pct_camara_septica":0,"pct_pozo_ciego":0,"pct_sin_desague":11,"pct_gas_red":33,"pct_gas_garrafa":44,"pct_lena_guano":44,"pct_basura_formal":100,"pct_basura_quema":0,"pct_basura_informal":0,"pct_internet":67,"pct_celular":78,"pct_televisor":67}}]}