{"type":"FeatureCollection","features":[{"type":"Feature","geometry":{"type":"Polygon","coordinates":[[[-64.67517,-18.32042],[-64.67571,-18.32104],[-64.67588,-18.32094],[-64.6764,-18.32032],[-64.6757,-18.31984],[-64.67517,-18.32042]]]},"properties":{"n":"PASORAPA","p":44,"personas_x_ha":47,"masculinidad":110,"pct_menor20":14,"pct_60mas":14,"pct_migrante":27,"dependencia_econ":69,"pct_empleados":46,"pct_cuentapropia":46,"pct_agricultura":38,"pct_comercio":4,"pct_manufactura":8,"pct_construccion":4,"pct_transporte":8,"pct_alojamiento":4,"pct_sin_educacion":3,"pct_educ_superior":50,"brecha_educ":4,"pct_sin_seguro":9,"pct_sus":74,"pct_seguro_privado":0,"brecha_seguro":8,"pct_salud_publica":25,"pct_med_tradicional":13,"pct_automedicacion":17,"pct_remedios_caseros":27,"pct_viv_desocupada":0,"pct_alquiler":10,"pct_electricidad":100,"pct_sin_electricidad":0,"pct_agua_red":100,"pct_alcantarillado":90,"pct_camara_septica":0,"pct_pozo_ciego":10,"pct_sin_desague":0,"pct_gas_red":0,"pct_gas_garrafa":80,"pct_lena_guano":80,"pct_basura_formal":70,"pct_basura_quema":30,"pct_basura_informal":0,"pct_internet":70,"pct_celular":100,"pct_televisor":90}},{"type":"Feature","geometry":{"type":"Polygon","coordinates":[[[-64.67158,-18.32506],[-64.67189,-18.32536],[-64.67251,-18.32484],[-64.67224,-18.32451],[-64.67158,-18.32506]]]},"properties":{"n":"PASORAPA","p":18,"personas_x_ha":39,"masculinidad":200,"pct_menor20":11,"pct_60mas":28,"pct_migrante":11,"dependencia_econ":50,"pct_empleados":25,"pct_cuentapropia":50,"pct_agricultura":50,"pct_comercio":0,"pct_manufactura":0,"pct_construccion":8,"pct_transporte":8,"pct_alojamiento":8,"pct_sin_educacion":6,"pct_educ_superior":6,"brecha_educ":-40,"pct_sin_seguro":6,"pct_sus":83,"pct_seguro_privado":0,"brecha_seguro":8,"pct_salud_publica":51,"pct_med_tradicional":0,"pct_automedicacion":0,"pct_remedios_caseros":49,"pct_viv_desocupada":38,"pct_alquiler":0,"pct_electricidad":100,"pct_sin_electricidad":0,"pct_agua_red":100,"pct_alcantarillado":100,"pct_camara_septica":0,"pct_pozo_ciego":0,"pct_sin_desague":0,"pct_gas_red":0,"pct_gas_garrafa":80,"pct_lena_guano":80,"pct_basura_formal":80,"pct_basura_quema":0,"pct_basura_informal":0,"pct_internet":60,"pct_celular":60,"pct_televisor":80}},{"type":"Feature","geometry":{"type":"Polygon","coordinates":[[[-64.67477,-18.32377],[-64.67415,-18.32468],[-64.67378,-18.32539],[-64.67414,-18.32549],[-64.67508,-18.32396],[-64.67477,-18.32377]]]},"properties":{"n":"PASORAPA","p":30,"personas_x_ha":35,"masculinidad":100,"pct_menor20":30,"pct_60mas":20,"pct_migrante":37,"dependencia_econ":114,"pct_empleados":64,"pct_cuentapropia":36,"pct_agricultura":14,"pct_comercio":0,"pct_manufactura":36,"pct_construccion":14,"pct_transporte":0,"pct_alojamiento":0,"pct_sin_educacion":5,"pct_educ_superior":23,"brecha_educ":-9,"pct_sin_seguro":7,"pct_sus":67,"pct_seguro_privado":0,"brecha_seguro":0,"pct_salud_publica":26,"pct_med_tradicional":14,"pct_automedicacion":23,"pct_remedios_caseros":25,"pct_viv_desocupada":0,"pct_alquiler":12,"pct_electricidad":100,"pct_sin_electricidad":0,"pct_agua_red":100,"pct_alcantarillado":88,"pct_camara_septica":0,"pct_pozo_ciego":12,"pct_sin_desague":0,"pct_gas_red":0,"pct_gas_garrafa":88,"pct_lena_guano":88,"pct_basura_formal":100,"pct_basura_quema":0,"pct_basura_informal":0,"pct_internet":88,"pct_celular":100,"pct_televisor":75}},{"type":"Feature","geometry":{"type":"Polygon","coordinates":[[[-64.68254,-18.32074],[-64.68106,-18.32053],[-64.68091,-18.32098],[-64.68234,-18.32119],[-64.68251,-18.32114],[-64.68254,-18.32074]]]},"properties":{"n":"PASORAPA","p":47,"personas_x_ha":53,"masculinidad":88,"pct_menor20":30,"pct_60mas":11,"pct_migrante":6,"dependencia_econ":77,"pct_empleados":42,"pct_cuentapropia":19,"pct_agricultura":54,"pct_comercio":0,"pct_manufactura":8,"pct_construccion":8,"pct_transporte":4,"pct_alojamiento":0,"pct_sin_educacion":19,"pct_educ_superior":41,"brecha_educ":-30,"pct_sin_seguro":26,"pct_sus":74,"pct_seguro_privado":0,"brecha_seguro":31,"pct_salud_publica":36,"pct_med_tradicional":8,"pct_automedicacion":20,"pct_remedios_caseros":31,"pct_viv_desocupada":0,"pct_alquiler":8,"pct_electricidad":100,"pct_sin_electricidad":0,"pct_agua_red":100,"pct_alcantarillado":42,"pct_camara_septica":8,"pct_pozo_ciego":42,"pct_sin_desague":8,"pct_gas_red":0,"pct_gas_garrafa":75,"pct_lena_guano":75,"pct_basura_formal":83,"pct_basura_quema":0,"pct_basura_informal":33,"pct_internet":67,"pct_celular":75,"pct_televisor":50}},{"type":"Feature","geometry":{"type":"Polygon","coordinates":[[[-64.67557,-18.32196],[-64.6761,-18.3216],[-64.67585,-18.32128],[-64.6753,-18.32164],[-64.67557,-18.32196]]]},"properties":{"n":"PASORAPA","p":33,"personas_x_ha":101,"masculinidad":120,"pct_menor20":21,"pct_60mas":27,"pct_migrante":21,"dependencia_econ":154,"pct_empleados":15,"pct_cuentapropia":54,"pct_agricultura":85,"pct_comercio":0,"pct_manufactura":0,"pct_construccion":0,"pct_transporte":0,"pct_alojamiento":0,"pct_sin_educacion":8,"pct_educ_superior":35,"brecha_educ":-31,"pct_sin_seguro":52,"pct_sus":48,"pct_seguro_privado":0,"brecha_seguro":21,"pct_salud_publica":33,"pct_med_tradicional":8,"pct_automedicacion":13,"pct_remedios_caseros":35,"pct_viv_desocupada":0,"pct_alquiler":0,"pct_electricidad":100,"pct_sin_electricidad":0,"pct_agua_red":100,"pct_alcantarillado":88,"pct_camara_septica":0,"pct_pozo_ciego":0,"pct_sin_desague":12,"pct_gas_red":0,"pct_gas_garrafa":88,"pct_lena_guano":88,"pct_basura_formal":100,"pct_basura_quema":0,"pct_basura_informal":0,"pct_internet":75,"pct_celular":75,"pct_televisor":75}},{"type":"Feature","geometry":{"type":"Polygon","coordinates":[[[-64.67582,-18.31681],[-64.67498,-18.31717],[-64.67535,-18.31797],[-64.67619,-18.31762],[-64.67582,-18.31681]]]},"properties":{"n":"PASORAPA","p":47,"personas_x_ha":47,"masculinidad":52,"pct_menor20":51,"pct_60mas":9,"pct_migrante":43,"dependencia_econ":176,"pct_empleados":35,"pct_cuentapropia":41,"pct_agricultura":35,"pct_comercio":35,"pct_manufactura":0,"pct_construccion":6,"pct_transporte":0,"pct_alojamiento":12,"pct_sin_educacion":0,"pct_educ_superior":26,"brecha_educ":16,"pct_sin_seguro":15,"pct_sus":83,"pct_seguro_privado":0,"brecha_seguro":6,"pct_salud_publica":37,"pct_med_tradicional":4,"pct_automedicacion":20,"pct_remedios_caseros":26,"pct_viv_desocupada":0,"pct_alquiler":11,"pct_electricidad":100,"pct_sin_electricidad":0,"pct_agua_red":100,"pct_alcantarillado":33,"pct_camara_septica":0,"pct_pozo_ciego":67,"pct_sin_desague":0,"pct_gas_red":0,"pct_gas_garrafa":100,"pct_lena_guano":100,"pct_basura_formal":100,"pct_basura_quema":0,"pct_basura_informal":0,"pct_internet":89,"pct_celular":100,"pct_televisor":100}},{"type":"Feature","geometry":{"type":"Polygon","coordinates":[[[-64.67658,-18.31955],[-64.67708,-18.3194],[-64.67665,-18.31862],[-64.67638,-18.31874],[-64.67658,-18.31955]]]},"properties":{"n":"PASORAPA","p":22,"personas_x_ha":49,"masculinidad":100,"pct_menor20":14,"pct_60mas":36,"pct_migrante":45,"dependencia_econ":100,"pct_empleados":10,"pct_cuentapropia":70,"pct_agricultura":50,"pct_comercio":0,"pct_manufactura":10,"pct_construccion":0,"pct_transporte":0,"pct_alojamiento":0,"pct_sin_educacion":5,"pct_educ_superior":37,"brecha_educ":-1,"pct_sin_seguro":15,"pct_sus":60,"pct_seguro_privado":0,"brecha_seguro":7,"pct_salud_publica":24,"pct_med_tradicional":9,"pct_automedicacion":19,"pct_remedios_caseros":27,"pct_viv_desocupada":0,"pct_alquiler":14,"pct_electricidad":100,"pct_sin_electricidad":0,"pct_agua_red":100,"pct_alcantarillado":100,"pct_camara_septica":0,"pct_pozo_ciego":0,"pct_sin_desague":0,"pct_gas_red":0,"pct_gas_garrafa":100,"pct_lena_guano":100,"pct_basura_formal":100,"pct_basura_quema":0,"pct_basura_informal":0,"pct_internet":71,"pct_celular":100,"pct_televisor":100}},{"type":"Feature","geometry":{"type":"Polygon","coordinates":[[[-64.67795,-18.31947],[-64.67775,-18.31908],[-64.67725,-18.31732],[-64.67643,-18.31763],[-64.67735,-18.31969],[-64.67765,-18.3199],[-64.67795,-18.31947]]]},"properties":{"n":"PASORAPA","p":53,"personas_x_ha":25,"masculinidad":96,"pct_menor20":17,"pct_60mas":13,"pct_migrante":17,"dependencia_econ":29,"pct_empleados":24,"pct_cuentapropia":51,"pct_agricultura":68,"pct_comercio":0,"pct_manufactura":7,"pct_construccion":0,"pct_transporte":0,"pct_alojamiento":0,"pct_sin_educacion":2,"pct_educ_superior":45,"brecha_educ":-6,"pct_sin_seguro":17,"pct_sus":58,"pct_seguro_privado":2,"brecha_seguro":20,"pct_salud_publica":28,"pct_med_tradicional":6,"pct_automedicacion":21,"pct_remedios_caseros":23,"pct_viv_desocupada":10,"pct_alquiler":29,"pct_electricidad":100,"pct_sin_electricidad":0,"pct_agua_red":100,"pct_alcantarillado":94,"pct_camara_septica":0,"pct_pozo_ciego":6,"pct_sin_desague":0,"pct_gas_red":0,"pct_gas_garrafa":82,"pct_lena_guano":82,"pct_basura_formal":94,"pct_basura_quema":6,"pct_basura_informal":0,"pct_internet":88,"pct_celular":94,"pct_televisor":59}},{"type":"Feature","geometry":{"type":"Polygon","coordinates":[[[-64.68067,-18.32134],[-64.68035,-18.32109],[-64.67945,-18.32102],[-64.67941,-18.32124],[-64.68065,-18.32146],[-64.68067,-18.32134]]]},"properties":{"n":"PASORAPA","p":29,"personas_x_ha":78,"masculinidad":81,"pct_menor20":38,"pct_60mas":10,"pct_migrante":45,"dependencia_econ":107,"pct_empleados":0,"pct_cuentapropia":79,"pct_agricultura":71,"pct_comercio":21,"pct_manufactura":0,"pct_construccion":0,"pct_transporte":0,"pct_alojamiento":7,"pct_sin_educacion":6,"pct_educ_superior":6,"brecha_educ":11,"pct_sin_seguro":3,"pct_sus":97,"pct_seguro_privado":0,"brecha_seguro":8,"pct_salud_publica":36,"pct_med_tradicional":9,"pct_automedicacion":18,"pct_remedios_caseros":19,"pct_viv_desocupada":0,"pct_alquiler":0,"pct_electricidad":100,"pct_sin_electricidad":0,"pct_agua_red":100,"pct_alcantarillado":100,"pct_camara_septica":0,"pct_pozo_ciego":0,"pct_sin_desague":0,"pct_gas_red":0,"pct_gas_garrafa":89,"pct_lena_guano":89,"pct_basura_formal":56,"pct_basura_quema":33,"pct_basura_informal":0,"pct_internet":56,"pct_celular":67,"pct_televisor":78}},{"type":"Feature","geometry":{"type":"Polygon","coordinates":[[[-64.68213,-18.32155],[-64.68073,-18.32126],[-64.68055,-18.32108],[-64.68057,-18.321],[-64.6822,-18.32125],[-64.68213,-18.32155]]]},"properties":{"n":"PASORAPA","p":62,"personas_x_ha":123,"masculinidad":158,"pct_menor20":19,"pct_60mas":8,"pct_migrante":23,"dependencia_econ":32,"pct_empleados":23,"pct_cuentapropia":57,"pct_agricultura":32,"pct_comercio":17,"pct_manufactura":11,"pct_construccion":4,"pct_transporte":2,"pct_alojamiento":4,"pct_sin_educacion":12,"pct_educ_superior":33,"brecha_educ":1,"pct_sin_seguro":10,"pct_sus":85,"pct_seguro_privado":0,"brecha_seguro":9,"pct_salud_publica":32,"pct_med_tradicional":6,"pct_automedicacion":23,"pct_remedios_caseros":29,"pct_viv_desocupada":0,"pct_alquiler":0,"pct_electricidad":100,"pct_sin_electricidad":0,"pct_agua_red":100,"pct_alcantarillado":45,"pct_camara_septica":0,"pct_pozo_ciego":45,"pct_sin_desague":9,"pct_gas_red":0,"pct_gas_garrafa":100,"pct_lena_guano":100,"pct_basura_formal":91,"pct_basura_quema":9,"pct_basura_informal":0,"pct_internet":73,"pct_celular":91,"pct_televisor":64}},{"type":"Feature","geometry":{"type":"Polygon","coordinates":[[[-64.67839,-18.32143],[-64.67828,-18.3212],[-64.67782,-18.32145],[-64.67812,-18.32168],[-64.67839,-18.32143]]]},"properties":{"n":"PASORAPA","p":33,"personas_x_ha":192,"masculinidad":154,"pct_menor20":30,"pct_60mas":9,"pct_migrante":45,"dependencia_econ":38,"pct_empleados":8,"pct_cuentapropia":62,"pct_agricultura":29,"pct_comercio":12,"pct_manufactura":12,"pct_construccion":8,"pct_transporte":0,"pct_alojamiento":0,"pct_sin_educacion":4,"pct_educ_superior":52,"brecha_educ":-10,"pct_sin_seguro":19,"pct_sus":81,"pct_seguro_privado":0,"brecha_seguro":-33,"pct_salud_publica":22,"pct_med_tradicional":4,"pct_automedicacion":18,"pct_remedios_caseros":21,"pct_viv_desocupada":0,"pct_alquiler":14,"pct_electricidad":100,"pct_sin_electricidad":0,"pct_agua_red":100,"pct_alcantarillado":100,"pct_camara_septica":0,"pct_pozo_ciego":0,"pct_sin_desague":0,"pct_gas_red":0,"pct_gas_garrafa":100,"pct_lena_guano":100,"pct_basura_formal":100,"pct_basura_quema":0,"pct_basura_informal":0,"pct_internet":86,"pct_celular":100,"pct_televisor":71}},{"type":"Feature","geometry":{"type":"Polygon","coordinates":[[[-64.67152,-18.32493],[-64.6713,-18.32472],[-64.67172,-18.32394],[-64.67218,-18.32445],[-64.67152,-18.32493]]]},"properties":{"n":"PASORAPA","p":34,"personas_x_ha":65,"masculinidad":62,"pct_menor20":29,"pct_60mas":15,"pct_migrante":15,"dependencia_econ":89,"pct_empleados":39,"pct_cuentapropia":50,"pct_agricultura":44,"pct_comercio":17,"pct_manufactura":0,"pct_construccion":6,"pct_transporte":0,"pct_alojamiento":0,"pct_sin_educacion":4,"pct_educ_superior":50,"brecha_educ":-16,"pct_sin_seguro":0,"pct_sus":97,"pct_seguro_privado":0,"brecha_seguro":0,"pct_salud_publica":29,"pct_med_tradicional":21,"pct_automedicacion":16,"pct_remedios_caseros":21,"pct_viv_desocupada":0,"pct_alquiler":17,"pct_electricidad":100,"pct_sin_electricidad":0,"pct_agua_red":100,"pct_alcantarillado":100,"pct_camara_septica":0,"pct_pozo_ciego":0,"pct_sin_desague":0,"pct_gas_red":0,"pct_gas_garrafa":83,"pct_lena_guano":83,"pct_basura_formal":100,"pct_basura_quema":0,"pct_basura_informal":0,"pct_internet":83,"pct_celular":83,"pct_televisor":67}},{"type":"Feature","geometry":{"type":"Polygon","coordinates":[[[-64.67254,-18.32416],[-64.67229,-18.32389],[-64.67272,-18.32357],[-64.67229,-18.32318],[-64.672,-18.32341],[-64.67172,-18.32379],[-64.67225,-18.32438],[-64.67254,-18.32416]]]},"properties":{"n":"PASORAPA","p":36,"personas_x_ha":52,"masculinidad":112,"pct_menor20":25,"pct_60mas":19,"pct_migrante":25,"dependencia_econ":80,"pct_empleados":10,"pct_cuentapropia":50,"pct_agricultura":55,"pct_comercio":15,"pct_manufactura":0,"pct_construccion":5,"pct_transporte":0,"pct_alojamiento":20,"pct_sin_educacion":4,"pct_educ_superior":39,"brecha_educ":-3,"pct_sin_seguro":6,"pct_sus":83,"pct_seguro_privado":0,"brecha_seguro":-1,"pct_salud_publica":30,"pct_med_tradicional":14,"pct_automedicacion":17,"pct_remedios_caseros":27,"pct_viv_desocupada":0,"pct_alquiler":0,"pct_electricidad":100,"pct_sin_electricidad":0,"pct_agua_red":100,"pct_alcantarillado":62,"pct_camara_septica":0,"pct_pozo_ciego":12,"pct_sin_desague":25,"pct_gas_red":0,"pct_gas_garrafa":75,"pct_lena_guano":75,"pct_basura_formal":88,"pct_basura_quema":12,"pct_basura_informal":0,"pct_internet":75,"pct_celular":88,"pct_televisor":62}},{"type":"Feature","geometry":{"type":"Polygon","coordinates":[[[-64.67295,-18.3271],[-64.67379,-18.32744],[-64.67386,-18.32739],[-64.67397,-18.32649],[-64.67338,-18.32621],[-64.67295,-18.3271]]]},"properties":{"n":"PASORAPA","p":32,"personas_x_ha":35,"masculinidad":60,"pct_menor20":41,"pct_60mas":0,"pct_migrante":47,"dependencia_econ":78,"pct_empleados":33,"pct_cuentapropia":50,"pct_agricultura":61,"pct_comercio":0,"pct_manufactura":17,"pct_construccion":11,"pct_transporte":0,"pct_alojamiento":6,"pct_sin_educacion":5,"pct_educ_superior":10,"brecha_educ":21,"pct_sin_seguro":19,"pct_sus":66,"pct_seguro_privado":0,"brecha_seguro":-3,"pct_salud_publica":25,"pct_med_tradicional":10,"pct_automedicacion":28,"pct_remedios_caseros":28,"pct_viv_desocupada":0,"pct_alquiler":0,"pct_electricidad":100,"pct_sin_electricidad":0,"pct_agua_red":100,"pct_alcantarillado":100,"pct_camara_septica":0,"pct_pozo_ciego":0,"pct_sin_desague":0,"pct_gas_red":0,"pct_gas_garrafa":83,"pct_lena_guano":83,"pct_basura_formal":67,"pct_basura_quema":33,"pct_basura_informal":0,"pct_internet":83,"pct_celular":83,"pct_televisor":100}},{"type":"Feature","geometry":{"type":"Polygon","coordinates":[[[-64.67565,-18.32198],[-64.67617,-18.32163],[-64.67634,-18.32185],[-64.67594,-18.32229],[-64.67565,-18.32198]]]},"properties":{"n":"PASORAPA","p":41,"personas_x_ha":153,"masculinidad":128,"pct_menor20":20,"pct_60mas":20,"pct_migrante":37,"dependencia_econ":242,"pct_empleados":92,"pct_cuentapropia":8,"pct_agricultura":17,"pct_comercio":17,"pct_manufactura":8,"pct_construccion":0,"pct_transporte":8,"pct_alojamiento":8,"pct_sin_educacion":0,"pct_educ_superior":56,"brecha_educ":-4,"pct_sin_seguro":8,"pct_sus":75,"pct_seguro_privado":0,"brecha_seguro":3,"pct_salud_publica":32,"pct_med_tradicional":5,"pct_automedicacion":13,"pct_remedios_caseros":33,"pct_viv_desocupada":0,"pct_alquiler":11,"pct_electricidad":100,"pct_sin_electricidad":0,"pct_agua_red":100,"pct_alcantarillado":100,"pct_camara_septica":0,"pct_pozo_ciego":0,"pct_sin_desague":0,"pct_gas_red":0,"pct_gas_garrafa":89,"pct_lena_guano":89,"pct_basura_formal":100,"pct_basura_quema":0,"pct_basura_informal":0,"pct_internet":67,"pct_celular":78,"pct_televisor":67}},{"type":"Feature","geometry":{"type":"Polygon","coordinates":[[[-64.67383,-18.32323],[-64.67305,-18.32272],[-64.67239,-18.32313],[-64.67307,-18.32379],[-64.67383,-18.32323]]]},"properties":{"n":"PASORAPA","p":70,"personas_x_ha":74,"masculinidad":150,"pct_menor20":14,"pct_60mas":31,"pct_migrante":0,"dependencia_econ":68,"pct_empleados":2,"pct_cuentapropia":46,"pct_agricultura":80,"pct_comercio":2,"pct_manufactura":0,"pct_construccion":2,"pct_transporte":0,"pct_alojamiento":0,"pct_sin_educacion":2,"pct_educ_superior":8,"brecha_educ":23,"pct_sin_seguro":3,"pct_sus":88,"pct_seguro_privado":0,"brecha_seguro":-1,"pct_salud_publica":40,"pct_med_tradicional":5,"pct_automedicacion":15,"pct_remedios_caseros":35,"pct_viv_desocupada":0,"pct_alquiler":6,"pct_electricidad":100,"pct_sin_electricidad":0,"pct_agua_red":100,"pct_alcantarillado":100,"pct_camara_septica":0,"pct_pozo_ciego":0,"pct_sin_desague":0,"pct_gas_red":0,"pct_gas_garrafa":88,"pct_lena_guano":88,"pct_basura_formal":81,"pct_basura_quema":19,"pct_basura_informal":0,"pct_internet":69,"pct_celular":94,"pct_televisor":81}},{"type":"Feature","geometry":{"type":"Polygon","coordinates":[[[-64.67694,-18.32239],[-64.67666,-18.32215],[-64.67625,-18.32257],[-64.67644,-18.32273],[-64.67694,-18.32239]]]},"properties":{"n":"PASORAPA","p":41,"personas_x_ha":182,"masculinidad":71,"pct_menor20":24,"pct_60mas":7,"pct_migrante":5,"dependencia_econ":52,"pct_empleados":30,"pct_cuentapropia":33,"pct_agricultura":44,"pct_comercio":15,"pct_manufactura":4,"pct_construccion":4,"pct_transporte":4,"pct_alojamiento":0,"pct_sin_educacion":0,"pct_educ_superior":53,"brecha_educ":-5,"pct_sin_seguro":15,"pct_sus":49,"pct_seguro_privado":0,"brecha_seguro":18,"pct_salud_publica":28,"pct_med_tradicional":19,"pct_automedicacion":13,"pct_remedios_caseros":23,"pct_viv_desocupada":0,"pct_alquiler":12,"pct_electricidad":100,"pct_sin_electricidad":0,"pct_agua_red":100,"pct_alcantarillado":100,"pct_camara_septica":0,"pct_pozo_ciego":0,"pct_sin_desague":0,"pct_gas_red":0,"pct_gas_garrafa":100,"pct_lena_guano":100,"pct_basura_formal":100,"pct_basura_quema":0,"pct_basura_informal":0,"pct_internet":62,"pct_celular":88,"pct_televisor":88}},{"type":"Feature","geometry":{"type":"Polygon","coordinates":[[[-64.67765,-18.32091],[-64.67747,-18.32038],[-64.67703,-18.32037],[-64.67674,-18.32048],[-64.67743,-18.32094],[-64.67765,-18.32091]]]},"properties":{"n":"PASORAPA","p":52,"personas_x_ha":145,"masculinidad":148,"pct_menor20":8,"pct_60mas":23,"pct_migrante":38,"dependencia_econ":58,"pct_empleados":21,"pct_cuentapropia":70,"pct_agricultura":67,"pct_comercio":0,"pct_manufactura":0,"pct_construccion":3,"pct_transporte":6,"pct_alojamiento":3,"pct_sin_educacion":2,"pct_educ_superior":39,"brecha_educ":-3,"pct_sin_seguro":31,"pct_sus":48,"pct_seguro_privado":0,"brecha_seguro":4,"pct_salud_publica":20,"pct_med_tradicional":7,"pct_automedicacion":25,"pct_remedios_caseros":26,"pct_viv_desocupada":0,"pct_alquiler":27,"pct_electricidad":100,"pct_sin_electricidad":0,"pct_agua_red":100,"pct_alcantarillado":100,"pct_camara_septica":0,"pct_pozo_ciego":0,"pct_sin_desague":0,"pct_gas_red":0,"pct_gas_garrafa":91,"pct_lena_guano":91,"pct_basura_formal":100,"pct_basura_quema":0,"pct_basura_informal":0,"pct_internet":100,"pct_celular":100,"pct_televisor":82}},{"type":"Feature","geometry":{"type":"Polygon","coordinates":[[[-64.67736,-18.32272],[-64.67779,-18.32216],[-64.67765,-18.32206],[-64.67704,-18.32242],[-64.67736,-18.32272]]]},"properties":{"n":"PASORAPA","p":25,"personas_x_ha":98,"masculinidad":400,"pct_menor20":4,"pct_60mas":28,"pct_migrante":12,"dependencia_econ":150,"pct_empleados":40,"pct_cuentapropia":60,"pct_agricultura":30,"pct_comercio":20,"pct_manufactura":10,"pct_construccion":10,"pct_transporte":20,"pct_alojamiento":0,"pct_sin_educacion":0,"pct_educ_superior":46,"brecha_educ":-4,"pct_sin_seguro":20,"pct_sus":80,"pct_seguro_privado":0,"brecha_seguro":0,"pct_salud_publica":55,"pct_med_tradicional":0,"pct_automedicacion":20,"pct_remedios_caseros":16,"pct_viv_desocupada":0,"pct_alquiler":14,"pct_electricidad":100,"pct_sin_electricidad":0,"pct_agua_red":86,"pct_alcantarillado":100,"pct_camara_septica":0,"pct_pozo_ciego":0,"pct_sin_desague":0,"pct_gas_red":0,"pct_gas_garrafa":100,"pct_lena_guano":100,"pct_basura_formal":71,"pct_basura_quema":29,"pct_basura_informal":0,"pct_internet":100,"pct_celular":100,"pct_televisor":100}},{"type":"Feature","geometry":{"type":"Polygon","coordinates":[[[-64.67733,-18.32282],[-64.67699,-18.32244],[-64.67648,-18.32276],[-64.67705,-18.32329],[-64.67733,-18.32282]]]},"properties":{"n":"PASORAPA","p":18,"personas_x_ha":40,"masculinidad":125,"pct_menor20":22,"pct_60mas":28,"pct_migrante":22,"dependencia_econ":125,"pct_empleados":0,"pct_cuentapropia":50,"pct_agricultura":75,"pct_comercio":0,"pct_manufactura":0,"pct_construccion":12,"pct_transporte":0,"pct_alojamiento":0,"pct_sin_educacion":7,"pct_educ_superior":29,"brecha_educ":-18,"pct_sin_seguro":17,"pct_sus":72,"pct_seguro_privado":6,"brecha_seguro":7,"pct_salud_publica":26,"pct_med_tradicional":7,"pct_automedicacion":21,"pct_remedios_caseros":23,"pct_viv_desocupada":0,"pct_alquiler":25,"pct_electricidad":100,"pct_sin_electricidad":0,"pct_agua_red":100,"pct_alcantarillado":100,"pct_camara_septica":0,"pct_pozo_ciego":0,"pct_sin_desague":0,"pct_gas_red":0,"pct_gas_garrafa":62,"pct_lena_guano":62,"pct_basura_formal":88,"pct_basura_quema":0,"pct_basura_informal":0,"pct_internet":25,"pct_celular":62,"pct_televisor":62}},{"type":"Feature","geometry":{"type":"Polygon","coordinates":[[[-64.67359,-18.32548],[-64.67252,-18.32499],[-64.67196,-18.32544],[-64.67331,-18.32608],[-64.67359,-18.32548]]]},"properties":{"n":"PASORAPA","p":40,"personas_x_ha":37,"masculinidad":74,"pct_menor20":35,"pct_60mas":12,"pct_migrante":8,"dependencia_econ":111,"pct_empleados":32,"pct_cuentapropia":68,"pct_agricultura":53,"pct_comercio":0,"pct_manufactura":16,"pct_construccion":11,"pct_transporte":0,"pct_alojamiento":0,"pct_sin_educacion":0,"pct_educ_superior":27,"brecha_educ":23,"pct_sin_seguro":0,"pct_sus":85,"pct_seguro_privado":0,"brecha_seguro":0,"pct_salud_publica":30,"pct_med_tradicional":16,"pct_automedicacion":17,"pct_remedios_caseros":25,"pct_viv_desocupada":0,"pct_alquiler":9,"pct_electricidad":100,"pct_sin_electricidad":0,"pct_agua_red":100,"pct_alcantarillado":100,"pct_camara_septica":0,"pct_pozo_ciego":0,"pct_sin_desague":0,"pct_gas_red":0,"pct_gas_garrafa":73,"pct_lena_guano":73,"pct_basura_formal":100,"pct_basura_quema":0,"pct_basura_informal":0,"pct_internet":91,"pct_celular":100,"pct_televisor":91}},{"type":"Feature","geometry":{"type":"Polygon","coordinates":[[[-64.67385,-18.32454],[-64.67397,-18.32456],[-64.67408,-18.32447],[-64.67468,-18.32373],[-64.67391,-18.32326],[-64.67313,-18.32383],[-64.67385,-18.32454]]]},"properties":{"n":"PASORAPA","p":155,"personas_x_ha":121,"masculinidad":150,"pct_menor20":31,"pct_60mas":14,"pct_migrante":13,"dependencia_econ":137,"pct_empleados":18,"pct_cuentapropia":51,"pct_agricultura":66,"pct_comercio":11,"pct_manufactura":8,"pct_construccion":0,"pct_transporte":0,"pct_alojamiento":0,"pct_sin_educacion":6,"pct_educ_superior":20,"brecha_educ":-1,"pct_sin_seguro":13,"pct_sus":80,"pct_seguro_privado":1,"brecha_seguro":-5,"pct_salud_publica":31,"pct_med_tradicional":10,"pct_automedicacion":21,"pct_remedios_caseros":26,"pct_viv_desocupada":0,"pct_alquiler":7,"pct_electricidad":100,"pct_sin_electricidad":0,"pct_agua_red":100,"pct_alcantarillado":97,"pct_camara_septica":0,"pct_pozo_ciego":3,"pct_sin_desague":0,"pct_gas_red":0,"pct_gas_garrafa":97,"pct_lena_guano":97,"pct_basura_formal":87,"pct_basura_quema":13,"pct_basura_informal":0,"pct_internet":87,"pct_celular":90,"pct_televisor":73}},{"type":"Feature","geometry":{"type":"Polygon","coordinates":[[[-64.67742,-18.32017],[-64.67728,-18.31979],[-64.67654,-18.32002],[-64.67658,-18.32033],[-64.67742,-18.32017]]]},"properties":{"n":"PASORAPA","p":48,"personas_x_ha":141,"masculinidad":109,"pct_menor20":25,"pct_60mas":21,"pct_migrante":0,"dependencia_econ":78,"pct_empleados":19,"pct_cuentapropia":52,"pct_agricultura":41,"pct_comercio":26,"pct_manufactura":4,"pct_construccion":7,"pct_transporte":0,"pct_alojamiento":4,"pct_sin_educacion":5,"pct_educ_superior":50,"brecha_educ":0,"pct_sin_seguro":9,"pct_sus":79,"pct_seguro_privado":2,"brecha_seguro":0,"pct_salud_publica":29,"pct_med_tradicional":12,"pct_automedicacion":21,"pct_remedios_caseros":30,"pct_viv_desocupada":0,"pct_alquiler":0,"pct_electricidad":100,"pct_sin_electricidad":0,"pct_agua_red":100,"pct_alcantarillado":86,"pct_camara_septica":0,"pct_pozo_ciego":14,"pct_sin_desague":0,"pct_gas_red":0,"pct_gas_garrafa":100,"pct_lena_guano":100,"pct_basura_formal":100,"pct_basura_quema":0,"pct_basura_informal":0,"pct_internet":100,"pct_celular":100,"pct_televisor":100}},{"type":"Feature","geometry":{"type":"Polygon","coordinates":[[[-64.67716,-18.32163],[-64.67671,-18.3221],[-64.67705,-18.32238],[-64.67757,-18.32202],[-64.67716,-18.32163]]]},"properties":{"n":"PASORAPA","p":50,"personas_x_ha":123,"masculinidad":127,"pct_menor20":8,"pct_60mas":24,"pct_migrante":30,"dependencia_econ":39,"pct_empleados":31,"pct_cuentapropia":58,"pct_agricultura":53,"pct_comercio":17,"pct_manufactura":11,"pct_construccion":3,"pct_transporte":0,"pct_alojamiento":3,"pct_sin_educacion":0,"pct_educ_superior":48,"brecha_educ":6,"pct_sin_seguro":10,"pct_sus":88,"pct_seguro_privado":0,"brecha_seguro":2,"pct_salud_publica":36,"pct_med_tradicional":15,"pct_automedicacion":8,"pct_remedios_caseros":28,"pct_viv_desocupada":0,"pct_alquiler":18,"pct_electricidad":100,"pct_sin_electricidad":0,"pct_agua_red":64,"pct_alcantarillado":91,"pct_camara_septica":0,"pct_pozo_ciego":9,"pct_sin_desague":0,"pct_gas_red":0,"pct_gas_garrafa":100,"pct_lena_guano":100,"pct_basura_formal":100,"pct_basura_quema":0,"pct_basura_informal":0,"pct_internet":64,"pct_celular":73,"pct_televisor":64}},{"type":"Feature","geometry":{"type":"Polygon","coordinates":[[[-64.6748,-18.32371],[-64.67512,-18.32389],[-64.67574,-18.32301],[-64.67552,-18.32282],[-64.6748,-18.32371]]]},"properties":{"n":"PASORAPA","p":57,"personas_x_ha":132,"masculinidad":217,"pct_menor20":18,"pct_60mas":18,"pct_migrante":11,"dependencia_econ":46,"pct_empleados":44,"pct_cuentapropia":51,"pct_agricultura":59,"pct_comercio":5,"pct_manufactura":3,"pct_construccion":8,"pct_transporte":18,"pct_alojamiento":0,"pct_sin_educacion":2,"pct_educ_superior":17,"brecha_educ":-4,"pct_sin_seguro":27,"pct_sus":71,"pct_seguro_privado":0,"brecha_seguro":5,"pct_salud_publica":40,"pct_med_tradicional":6,"pct_automedicacion":16,"pct_remedios_caseros":24,"pct_viv_desocupada":0,"pct_alquiler":21,"pct_electricidad":93,"pct_sin_electricidad":0,"pct_agua_red":93,"pct_alcantarillado":93,"pct_camara_septica":0,"pct_pozo_ciego":0,"pct_sin_desague":7,"pct_gas_red":0,"pct_gas_garrafa":79,"pct_lena_guano":79,"pct_basura_formal":93,"pct_basura_quema":0,"pct_basura_informal":0,"pct_internet":86,"pct_celular":93,"pct_televisor":71}},{"type":"Feature","geometry":{"type":"Polygon","coordinates":[[[-64.6759,-18.32317],[-64.67648,-18.32368],[-64.67585,-18.32433],[-64.6754,-18.32406],[-64.67552,-18.32355],[-64.6759,-18.32317]]]},"properties":{"n":"PASORAPA","p":40,"personas_x_ha":49,"masculinidad":135,"pct_menor20":48,"pct_60mas":10,"pct_migrante":45,"dependencia_econ":150,"pct_empleados":38,"pct_cuentapropia":44,"pct_agricultura":25,"pct_comercio":19,"pct_manufactura":6,"pct_construccion":12,"pct_transporte":6,"pct_alojamiento":6,"pct_sin_educacion":5,"pct_educ_superior":14,"brecha_educ":-9,"pct_sin_seguro":25,"pct_sus":62,"pct_seguro_privado":0,"brecha_seguro":43,"pct_salud_publica":35,"pct_med_tradicional":4,"pct_automedicacion":15,"pct_remedios_caseros":34,"pct_viv_desocupada":6,"pct_alquiler":0,"pct_electricidad":91,"pct_sin_electricidad":9,"pct_agua_red":91,"pct_alcantarillado":73,"pct_camara_septica":0,"pct_pozo_ciego":27,"pct_sin_desague":0,"pct_gas_red":0,"pct_gas_garrafa":82,"pct_lena_guano":82,"pct_basura_formal":100,"pct_basura_quema":0,"pct_basura_informal":0,"pct_internet":82,"pct_celular":91,"pct_televisor":73}},{"type":"Feature","geometry":{"type":"Polygon","coordinates":[[[-64.67458,-18.32196],[-64.67312,-18.32267],[-64.67312,-18.3227],[-64.67392,-18.32317],[-64.67502,-18.32237],[-64.67458,-18.32196]]]},"properties":{"n":"PASORAPA","p":46,"personas_x_ha":37,"masculinidad":77,"pct_menor20":20,"pct_60mas":15,"pct_migrante":26,"dependencia_econ":59,"pct_empleados":17,"pct_cuentapropia":62,"pct_agricultura":38,"pct_comercio":7,"pct_manufactura":21,"pct_construccion":0,"pct_transporte":0,"pct_alojamiento":10,"pct_sin_educacion":0,"pct_educ_superior":18,"brecha_educ":11,"pct_sin_seguro":29,"pct_sus":60,"pct_seguro_privado":0,"brecha_seguro":20,"pct_salud_publica":34,"pct_med_tradicional":11,"pct_automedicacion":19,"pct_remedios_caseros":23,"pct_viv_desocupada":11,"pct_alquiler":0,"pct_electricidad":87,"pct_sin_electricidad":13,"pct_agua_red":100,"pct_alcantarillado":93,"pct_camara_septica":0,"pct_pozo_ciego":0,"pct_sin_desague":7,"pct_gas_red":0,"pct_gas_garrafa":53,"pct_lena_guano":53,"pct_basura_formal":80,"pct_basura_quema":7,"pct_basura_informal":0,"pct_internet":67,"pct_celular":87,"pct_televisor":47}},{"type":"Feature","geometry":{"type":"Polygon","coordinates":[[[-64.67678,-18.32115],[-64.67712,-18.32081],[-64.67675,-18.32057],[-64.67646,-18.32082],[-64.67678,-18.32115]]]},"properties":{"n":"PASORAPA","p":55,"personas_x_ha":226,"masculinidad":53,"pct_menor20":40,"pct_60mas":15,"pct_migrante":38,"dependencia_econ":150,"pct_empleados":32,"pct_cuentapropia":50,"pct_agricultura":27,"pct_comercio":23,"pct_manufactura":5,"pct_construccion":9,"pct_transporte":5,"pct_alojamiento":5,"pct_sin_educacion":3,"pct_educ_superior":69,"brecha_educ":-9,"pct_sin_seguro":15,"pct_sus":58,"pct_seguro_privado":0,"brecha_seguro":-14,"pct_salud_publica":28,"pct_med_tradicional":4,"pct_automedicacion":25,"pct_remedios_caseros":27,"pct_viv_desocupada":0,"pct_alquiler":31,"pct_electricidad":100,"pct_sin_electricidad":0,"pct_agua_red":100,"pct_alcantarillado":85,"pct_camara_septica":0,"pct_pozo_ciego":15,"pct_sin_desague":0,"pct_gas_red":0,"pct_gas_garrafa":100,"pct_lena_guano":100,"pct_basura_formal":100,"pct_basura_quema":0,"pct_basura_informal":0,"pct_internet":92,"pct_celular":92,"pct_televisor":77}},{"type":"Feature","geometry":{"type":"Polygon","coordinates":[[[-64.67551,-18.32273],[-64.67588,-18.32232],[-64.6756,-18.32204],[-64.67513,-18.32239],[-64.67551,-18.32273]]]},"properties":{"n":"PASORAPA","p":28,"personas_x_ha":87,"masculinidad":75,"pct_menor20":25,"pct_60mas":29,"pct_migrante":43,"dependencia_econ":100,"pct_empleados":21,"pct_cuentapropia":50,"pct_agricultura":36,"pct_comercio":29,"pct_manufactura":14,"pct_construccion":0,"pct_transporte":0,"pct_alojamiento":0,"pct_sin_educacion":14,"pct_educ_superior":43,"brecha_educ":-38,"pct_sin_seguro":4,"pct_sus":79,"pct_seguro_privado":0,"brecha_seguro":8,"pct_salud_publica":31,"pct_med_tradicional":4,"pct_automedicacion":21,"pct_remedios_caseros":26,"pct_viv_desocupada":9,"pct_alquiler":20,"pct_electricidad":100,"pct_sin_electricidad":0,"pct_agua_red":100,"pct_alcantarillado":100,"pct_camara_septica":0,"pct_pozo_ciego":0,"pct_sin_desague":0,"pct_gas_red":20,"pct_gas_garrafa":80,"pct_lena_guano":80,"pct_basura_formal":90,"pct_basura_quema":0,"pct_basura_informal":0,"pct_internet":90,"pct_celular":100,"pct_televisor":70}},{"type":"Feature","geometry":{"type":"Polygon","coordinates":[[[-64.67613,-18.32155],[-64.67674,-18.32118],[-64.67642,-18.32084],[-64.67587,-18.32124],[-64.67613,-18.32155]]]},"properties":{"n":"PASORAPA","p":60,"personas_x_ha":161,"masculinidad":107,"pct_menor20":37,"pct_60mas":20,"pct_migrante":30,"dependencia_econ":131,"pct_empleados":46,"pct_cuentapropia":42,"pct_agricultura":19,"pct_comercio":23,"pct_manufactura":12,"pct_construccion":8,"pct_transporte":4,"pct_alojamiento":4,"pct_sin_educacion":2,"pct_educ_superior":42,"brecha_educ":-2,"pct_sin_seguro":26,"pct_sus":57,"pct_seguro_privado":2,"brecha_seguro":7,"pct_salud_publica":37,"pct_med_tradicional":8,"pct_automedicacion":8,"pct_remedios_caseros":36,"pct_viv_desocupada":0,"pct_alquiler":25,"pct_electricidad":100,"pct_sin_electricidad":0,"pct_agua_red":100,"pct_alcantarillado":100,"pct_camara_septica":0,"pct_pozo_ciego":0,"pct_sin_desague":0,"pct_gas_red":0,"pct_gas_garrafa":100,"pct_lena_guano":100,"pct_basura_formal":100,"pct_basura_quema":0,"pct_basura_informal":0,"pct_internet":100,"pct_celular":100,"pct_televisor":100}},{"type":"Feature","geometry":{"type":"Polygon","coordinates":[[[-64.67367,-18.32131],[-64.67335,-18.32096],[-64.67203,-18.32172],[-64.67236,-18.32216],[-64.67367,-18.32131]]]},"properties":{"n":"PASORAPA","p":46,"personas_x_ha":51,"masculinidad":70,"pct_menor20":37,"pct_60mas":7,"pct_migrante":24,"dependencia_econ":188,"pct_empleados":44,"pct_cuentapropia":19,"pct_agricultura":19,"pct_comercio":6,"pct_manufactura":0,"pct_construccion":25,"pct_transporte":0,"pct_alojamiento":0,"pct_sin_educacion":10,"pct_educ_superior":55,"brecha_educ":-16,"pct_sin_seguro":18,"pct_sus":69,"pct_seguro_privado":4,"brecha_seguro":7,"pct_salud_publica":36,"pct_med_tradicional":7,"pct_automedicacion":10,"pct_remedios_caseros":35,"pct_viv_desocupada":0,"pct_alquiler":0,"pct_electricidad":100,"pct_sin_electricidad":0,"pct_agua_red":100,"pct_alcantarillado":100,"pct_camara_septica":0,"pct_pozo_ciego":0,"pct_sin_desague":0,"pct_gas_red":9,"pct_gas_garrafa":91,"pct_lena_guano":91,"pct_basura_formal":82,"pct_basura_quema":9,"pct_basura_informal":0,"pct_internet":45,"pct_celular":73,"pct_televisor":73}},{"type":"Feature","geometry":{"type":"Polygon","coordinates":[[[-64.67798,-18.32032],[-64.67755,-18.32036],[-64.67771,-18.3209],[-64.67862,-18.32098],[-64.67865,-18.32088],[-64.67798,-18.32032]]]},"properties":{"n":"PASORAPA","p":25,"personas_x_ha":47,"masculinidad":150,"pct_menor20":8,"pct_60mas":44,"pct_migrante":8,"dependencia_econ":127,"pct_empleados":27,"pct_cuentapropia":64,"pct_agricultura":73,"pct_comercio":0,"pct_manufactura":0,"pct_construccion":0,"pct_transporte":0,"pct_alojamiento":0,"pct_sin_educacion":13,"pct_educ_superior":30,"brecha_educ":-29,"pct_sin_seguro":16,"pct_sus":68,"pct_seguro_privado":0,"brecha_seguro":27,"pct_salud_publica":28,"pct_med_tradicional":14,"pct_automedicacion":27,"pct_remedios_caseros":27,"pct_viv_desocupada":0,"pct_alquiler":0,"pct_electricidad":100,"pct_sin_electricidad":0,"pct_agua_red":100,"pct_alcantarillado":100,"pct_camara_septica":0,"pct_pozo_ciego":0,"pct_sin_desague":0,"pct_gas_red":0,"pct_gas_garrafa":100,"pct_lena_guano":100,"pct_basura_formal":89,"pct_basura_quema":0,"pct_basura_informal":0,"pct_internet":78,"pct_celular":100,"pct_televisor":100}},{"type":"Feature","geometry":{"type":"Polygon","coordinates":[[[-64.67634,-18.31754],[-64.67596,-18.31671],[-64.67691,-18.31631],[-64.67726,-18.31718],[-64.67634,-18.31754]]]},"properties":{"n":"PASORAPA","p":53,"personas_x_ha":48,"masculinidad":96,"pct_menor20":34,"pct_60mas":9,"pct_migrante":43,"dependencia_econ":130,"pct_empleados":48,"pct_cuentapropia":48,"pct_agricultura":43,"pct_comercio":17,"pct_manufactura":9,"pct_construccion":0,"pct_transporte":4,"pct_alojamiento":4,"pct_sin_educacion":6,"pct_educ_superior":40,"brecha_educ":-12,"pct_sin_seguro":28,"pct_sus":43,"pct_seguro_privado":0,"brecha_seguro":-10,"pct_salud_publica":33,"pct_med_tradicional":4,"pct_automedicacion":19,"pct_remedios_caseros":29,"pct_viv_desocupada":0,"pct_alquiler":42,"pct_electricidad":100,"pct_sin_electricidad":0,"pct_agua_red":100,"pct_alcantarillado":25,"pct_camara_septica":0,"pct_pozo_ciego":75,"pct_sin_desague":0,"pct_gas_red":0,"pct_gas_garrafa":83,"pct_lena_guano":83,"pct_basura_formal":92,"pct_basura_quema":0,"pct_basura_informal":0,"pct_internet":75,"pct_celular":92,"pct_televisor":67}},{"type":"Feature","geometry":{"type":"Polygon","coordinates":[[[-64.67326,-18.3262],[-64.67185,-18.32556],[-64.67122,-18.32639],[-64.67283,-18.32705],[-64.67326,-18.3262]]]},"properties":{"n":"PASORAPA","p":31,"personas_x_ha":16,"masculinidad":138,"pct_menor20":45,"pct_60mas":3,"pct_migrante":19,"dependencia_econ":107,"pct_empleados":47,"pct_cuentapropia":40,"pct_agricultura":33,"pct_comercio":7,"pct_manufactura":0,"pct_construccion":27,"pct_transporte":0,"pct_alojamiento":13,"pct_sin_educacion":0,"pct_educ_superior":29,"brecha_educ":11,"pct_sin_seguro":0,"pct_sus":94,"pct_seguro_privado":0,"brecha_seguro":0,"pct_salud_publica":36,"pct_med_tradicional":5,"pct_automedicacion":14,"pct_remedios_caseros":33,"pct_viv_desocupada":0,"pct_alquiler":11,"pct_electricidad":89,"pct_sin_electricidad":11,"pct_agua_red":89,"pct_alcantarillado":67,"pct_camara_septica":0,"pct_pozo_ciego":11,"pct_sin_desague":22,"pct_gas_red":0,"pct_gas_garrafa":78,"pct_lena_guano":78,"pct_basura_formal":78,"pct_basura_quema":22,"pct_basura_informal":0,"pct_internet":78,"pct_celular":89,"pct_televisor":78}},{"type":"Feature","geometry":{"type":"Polygon","coordinates":[[[-64.67229,-18.32222],[-64.67176,-18.32257],[-64.67141,-18.3221],[-64.67196,-18.32178],[-64.67229,-18.32222]]]},"properties":{"n":"PASORAPA","p":25,"personas_x_ha":57,"masculinidad":108,"pct_menor20":36,"pct_60mas":12,"pct_migrante":20,"dependencia_econ":178,"pct_empleados":33,"pct_cuentapropia":11,"pct_agricultura":44,"pct_comercio":0,"pct_manufactura":11,"pct_construccion":0,"pct_transporte":11,"pct_alojamiento":0,"pct_sin_educacion":6,"pct_educ_superior":18,"brecha_educ":-8,"pct_sin_seguro":0,"pct_sus":92,"pct_seguro_privado":0,"brecha_seguro":0,"pct_salud_publica":32,"pct_med_tradicional":10,"pct_automedicacion":24,"pct_remedios_caseros":28,"pct_viv_desocupada":0,"pct_alquiler":14,"pct_electricidad":86,"pct_sin_electricidad":14,"pct_agua_red":100,"pct_alcantarillado":57,"pct_camara_septica":43,"pct_pozo_ciego":0,"pct_sin_desague":0,"pct_gas_red":0,"pct_gas_garrafa":86,"pct_lena_guano":86,"pct_basura_formal":100,"pct_basura_quema":0,"pct_basura_informal":0,"pct_internet":100,"pct_celular":100,"pct_televisor":100}},{"type":"Feature","geometry":{"type":"Polygon","coordinates":[[[-64.67017,-18.32441],[-64.66997,-18.32447],[-64.66971,-18.32479],[-64.67122,-18.32548],[-64.67126,-18.32493],[-64.67017,-18.32441]]]},"properties":{"n":"PASORAPA","p":31,"personas_x_ha":32,"masculinidad":63,"pct_menor20":48,"pct_60mas":10,"pct_migrante":10,"dependencia_econ":244,"pct_empleados":33,"pct_cuentapropia":67,"pct_agricultura":22,"pct_comercio":0,"pct_manufactura":22,"pct_construccion":33,"pct_transporte":0,"pct_alojamiento":0,"pct_sin_educacion":0,"pct_educ_superior":35,"brecha_educ":-30,"pct_sin_seguro":7,"pct_sus":70,"pct_seguro_privado":0,"brecha_seguro":17,"pct_salud_publica":32,"pct_med_tradicional":14,"pct_automedicacion":15,"pct_remedios_caseros":32,"pct_viv_desocupada":0,"pct_alquiler":0,"pct_electricidad":100,"pct_sin_electricidad":0,"pct_agua_red":100,"pct_alcantarillado":100,"pct_camara_septica":0,"pct_pozo_ciego":0,"pct_sin_desague":0,"pct_gas_red":0,"pct_gas_garrafa":67,"pct_lena_guano":67,"pct_basura_formal":67,"pct_basura_quema":33,"pct_basura_informal":0,"pct_internet":44,"pct_celular":100,"pct_televisor":78}},{"type":"Feature","geometry":{"type":"Polygon","coordinates":[[[-64.67724,-18.31976],[-64.6771,-18.31946],[-64.67658,-18.31961],[-64.67654,-18.31993],[-64.67724,-18.31976]]]},"properties":{"n":"PASORAPA","p":42,"personas_x_ha":164,"masculinidad":282,"pct_menor20":19,"pct_60mas":29,"pct_migrante":31,"dependencia_econ":68,"pct_empleados":28,"pct_cuentapropia":68,"pct_agricultura":60,"pct_comercio":20,"pct_manufactura":0,"pct_construccion":4,"pct_transporte":4,"pct_alojamiento":0,"pct_sin_educacion":0,"pct_educ_superior":35,"brecha_educ":2,"pct_sin_seguro":0,"pct_sus":85,"pct_seguro_privado":0,"brecha_seguro":0,"pct_salud_publica":22,"pct_med_tradicional":19,"pct_automedicacion":22,"pct_remedios_caseros":22,"pct_viv_desocupada":0,"pct_alquiler":57,"pct_electricidad":100,"pct_sin_electricidad":0,"pct_agua_red":100,"pct_alcantarillado":100,"pct_camara_septica":0,"pct_pozo_ciego":0,"pct_sin_desague":0,"pct_gas_red":0,"pct_gas_garrafa":100,"pct_lena_guano":100,"pct_basura_formal":100,"pct_basura_quema":0,"pct_basura_informal":0,"pct_internet":86,"pct_celular":86,"pct_televisor":57}},{"type":"Feature","geometry":{"type":"Polygon","coordinates":[[[-64.67125,-18.32207],[-64.67076,-18.32142],[-64.66915,-18.32207],[-64.66968,-18.323],[-64.67125,-18.32207]]]},"properties":{"n":"PASORAPA","p":80,"personas_x_ha":40,"masculinidad":105,"pct_menor20":54,"pct_60mas":1,"pct_migrante":44,"dependencia_econ":111,"pct_empleados":24,"pct_cuentapropia":58,"pct_agricultura":34,"pct_comercio":3,"pct_manufactura":5,"pct_construccion":8,"pct_transporte":5,"pct_alojamiento":16,"pct_sin_educacion":2,"pct_educ_superior":28,"brecha_educ":14,"pct_sin_seguro":12,"pct_sus":85,"pct_seguro_privado":0,"brecha_seguro":13,"pct_salud_publica":39,"pct_med_tradicional":6,"pct_automedicacion":21,"pct_remedios_caseros":28,"pct_viv_desocupada":0,"pct_alquiler":0,"pct_electricidad":81,"pct_sin_electricidad":19,"pct_agua_red":90,"pct_alcantarillado":24,"pct_camara_septica":33,"pct_pozo_ciego":38,"pct_sin_desague":5,"pct_gas_red":0,"pct_gas_garrafa":100,"pct_lena_guano":100,"pct_basura_formal":100,"pct_basura_quema":0,"pct_basura_informal":0,"pct_internet":67,"pct_celular":76,"pct_televisor":52}},{"type":"Feature","geometry":{"type":"Polygon","coordinates":[[[-64.67717,-18.32086],[-64.67749,-18.32117],[-64.67715,-18.32145],[-64.67684,-18.32118],[-64.67717,-18.32086]]]},"properties":{"n":"PASORAPA","p":38,"personas_x_ha":156,"masculinidad":111,"pct_menor20":29,"pct_60mas":21,"pct_migrante":39,"dependencia_econ":111,"pct_empleados":22,"pct_cuentapropia":61,"pct_agricultura":28,"pct_comercio":6,"pct_manufactura":11,"pct_construccion":6,"pct_transporte":11,"pct_alojamiento":0,"pct_sin_educacion":4,"pct_educ_superior":57,"brecha_educ":7,"pct_sin_seguro":5,"pct_sus":79,"pct_seguro_privado":11,"brecha_seguro":-1,"pct_salud_publica":29,"pct_med_tradicional":7,"pct_automedicacion":14,"pct_remedios_caseros":30,"pct_viv_desocupada":0,"pct_alquiler":9,"pct_electricidad":100,"pct_sin_electricidad":0,"pct_agua_red":100,"pct_alcantarillado":100,"pct_camara_septica":0,"pct_pozo_ciego":0,"pct_sin_desague":0,"pct_gas_red":0,"pct_gas_garrafa":100,"pct_lena_guano":100,"pct_basura_formal":100,"pct_basura_quema":0,"pct_basura_informal":0,"pct_internet":82,"pct_celular":91,"pct_televisor":82}},{"type":"Feature","geometry":{"type":"Polygon","coordinates":[[[-64.67628,-18.31871],[-64.67621,-18.31825],[-64.6761,-18.31777],[-64.67594,-18.31784],[-64.67574,-18.31866],[-64.67576,-18.31889],[-64.67628,-18.31871]]]},"properties":{"n":"PASORAPA","p":26,"personas_x_ha":58,"masculinidad":160,"pct_menor20":31,"pct_60mas":8,"pct_migrante":42,"dependencia_econ":73,"pct_empleados":0,"pct_cuentapropia":67,"pct_agricultura":73,"pct_comercio":7,"pct_manufactura":0,"pct_construccion":0,"pct_transporte":7,"pct_alojamiento":0,"pct_sin_educacion":5,"pct_educ_superior":26,"brecha_educ":-9,"pct_sin_seguro":4,"pct_sus":77,"pct_seguro_privado":0,"brecha_seguro":6,"pct_salud_publica":39,"pct_med_tradicional":0,"pct_automedicacion":3,"pct_remedios_caseros":39,"pct_viv_desocupada":0,"pct_alquiler":0,"pct_electricidad":100,"pct_sin_electricidad":0,"pct_agua_red":100,"pct_alcantarillado":86,"pct_camara_septica":14,"pct_pozo_ciego":0,"pct_sin_desague":0,"pct_gas_red":0,"pct_gas_garrafa":100,"pct_lena_guano":100,"pct_basura_formal":100,"pct_basura_quema":0,"pct_basura_informal":0,"pct_internet":100,"pct_celular":100,"pct_televisor":100}},{"type":"Feature","geometry":{"type":"Polygon","coordinates":[[[-64.67594,-18.32311],[-64.67654,-18.32364],[-64.67699,-18.32333],[-64.67642,-18.32279],[-64.67594,-18.32311]]]},"properties":{"n":"PASORAPA","p":28,"personas_x_ha":53,"masculinidad":115,"pct_menor20":39,"pct_60mas":4,"pct_migrante":32,"dependencia_econ":300,"pct_empleados":29,"pct_cuentapropia":71,"pct_agricultura":43,"pct_comercio":0,"pct_manufactura":14,"pct_construccion":29,"pct_transporte":0,"pct_alojamiento":0,"pct_sin_educacion":6,"pct_educ_superior":29,"brecha_educ":-38,"pct_sin_seguro":0,"pct_sus":100,"pct_seguro_privado":0,"brecha_seguro":0,"pct_salud_publica":43,"pct_med_tradicional":8,"pct_automedicacion":20,"pct_remedios_caseros":10,"pct_viv_desocupada":0,"pct_alquiler":12,"pct_electricidad":100,"pct_sin_electricidad":0,"pct_agua_red":100,"pct_alcantarillado":100,"pct_camara_septica":0,"pct_pozo_ciego":0,"pct_sin_desague":0,"pct_gas_red":0,"pct_gas_garrafa":100,"pct_lena_guano":100,"pct_basura_formal":100,"pct_basura_quema":0,"pct_basura_informal":0,"pct_internet":50,"pct_celular":75,"pct_televisor":88}},{"type":"Feature","geometry":{"type":"Polygon","coordinates":[[[-64.6765,-18.32474],[-64.67762,-18.32387],[-64.67753,-18.32341],[-64.67727,-18.3232],[-64.6765,-18.32377],[-64.67597,-18.32437],[-64.6765,-18.32474]]]},"properties":{"n":"PASORAPA","p":48,"personas_x_ha":33,"masculinidad":66,"pct_menor20":54,"pct_60mas":2,"pct_migrante":19,"dependencia_econ":243,"pct_empleados":36,"pct_cuentapropia":57,"pct_agricultura":36,"pct_comercio":14,"pct_manufactura":14,"pct_construccion":14,"pct_transporte":0,"pct_alojamiento":0,"pct_sin_educacion":17,"pct_educ_superior":26,"brecha_educ":3,"pct_sin_seguro":2,"pct_sus":88,"pct_seguro_privado":0,"brecha_seguro":-3,"pct_salud_publica":27,"pct_med_tradicional":14,"pct_automedicacion":14,"pct_remedios_caseros":17,"pct_viv_desocupada":0,"pct_alquiler":9,"pct_electricidad":100,"pct_sin_electricidad":0,"pct_agua_red":100,"pct_alcantarillado":45,"pct_camara_septica":0,"pct_pozo_ciego":55,"pct_sin_desague":0,"pct_gas_red":0,"pct_gas_garrafa":64,"pct_lena_guano":64,"pct_basura_formal":100,"pct_basura_quema":0,"pct_basura_informal":0,"pct_internet":64,"pct_celular":82,"pct_televisor":73}},{"type":"Feature","geometry":{"type":"Polygon","coordinates":[[[-64.67864,-18.32019],[-64.67856,-18.31997],[-64.67836,-18.31988],[-64.67797,-18.31949],[-64.67768,-18.3199],[-64.67854,-18.32033],[-64.67864,-18.32019]]]},"properties":{"n":"PASORAPA","p":19,"personas_x_ha":50,"masculinidad":73,"pct_menor20":32,"pct_60mas":11,"pct_migrante":16,"dependencia_econ":73,"pct_empleados":18,"pct_cuentapropia":55,"pct_agricultura":73,"pct_comercio":9,"pct_manufactura":0,"pct_construccion":9,"pct_transporte":0,"pct_alojamiento":0,"pct_sin_educacion":0,"pct_educ_superior":21,"brecha_educ":20,"pct_sin_seguro":0,"pct_sus":95,"pct_seguro_privado":0,"brecha_seguro":0,"pct_salud_publica":95,"pct_med_tradicional":0,"pct_automedicacion":0,"pct_remedios_caseros":0,"pct_viv_desocupada":0,"pct_alquiler":20,"pct_electricidad":100,"pct_sin_electricidad":0,"pct_agua_red":100,"pct_alcantarillado":100,"pct_camara_septica":0,"pct_pozo_ciego":0,"pct_sin_desague":0,"pct_gas_red":0,"pct_gas_garrafa":100,"pct_lena_guano":100,"pct_basura_formal":100,"pct_basura_quema":0,"pct_basura_informal":0,"pct_internet":80,"pct_celular":100,"pct_televisor":60}},{"type":"Feature","geometry":{"type":"Polygon","coordinates":[[[-64.67791,-18.32129],[-64.67851,-18.32106],[-64.67851,-18.32104],[-64.67771,-18.32098],[-64.67791,-18.32129]]]},"properties":{"n":"PASORAPA","p":33,"personas_x_ha":185,"masculinidad":136,"pct_menor20":18,"pct_60mas":18,"pct_migrante":9,"dependencia_econ":230,"pct_empleados":10,"pct_cuentapropia":80,"pct_agricultura":50,"pct_comercio":30,"pct_manufactura":0,"pct_construccion":10,"pct_transporte":0,"pct_alojamiento":0,"pct_sin_educacion":4,"pct_educ_superior":30,"brecha_educ":-9,"pct_sin_seguro":0,"pct_sus":100,"pct_seguro_privado":0,"brecha_seguro":0,"pct_salud_publica":45,"pct_med_tradicional":8,"pct_automedicacion":18,"pct_remedios_caseros":14,"pct_viv_desocupada":0,"pct_alquiler":0,"pct_electricidad":100,"pct_sin_electricidad":0,"pct_agua_red":100,"pct_alcantarillado":100,"pct_camara_septica":0,"pct_pozo_ciego":0,"pct_sin_desague":0,"pct_gas_red":0,"pct_gas_garrafa":86,"pct_lena_guano":86,"pct_basura_formal":100,"pct_basura_quema":0,"pct_basura_informal":0,"pct_internet":14,"pct_celular":29,"pct_televisor":43}},{"type":"Feature","geometry":{"type":"Polygon","coordinates":[[[-64.67533,-18.31907],[-64.67565,-18.31893],[-64.67529,-18.31815],[-64.67462,-18.31839],[-64.67533,-18.31907]]]},"properties":{"n":"PASORAPA","p":17,"personas_x_ha":30,"masculinidad":183,"pct_menor20":24,"pct_60mas":6,"pct_migrante":41,"dependencia_econ":42,"pct_empleados":67,"pct_cuentapropia":33,"pct_agricultura":25,"pct_comercio":0,"pct_manufactura":0,"pct_construccion":17,"pct_transporte":0,"pct_alojamiento":0,"pct_sin_educacion":15,"pct_educ_superior":69,"brecha_educ":-7,"pct_sin_seguro":0,"pct_sus":94,"pct_seguro_privado":0,"brecha_seguro":0,"pct_salud_publica":23,"pct_med_tradicional":11,"pct_automedicacion":18,"pct_remedios_caseros":26,"pct_viv_desocupada":0,"pct_alquiler":33,"pct_electricidad":83,"pct_sin_electricidad":17,"pct_agua_red":83,"pct_alcantarillado":83,"pct_camara_septica":0,"pct_pozo_ciego":0,"pct_sin_desague":17,"pct_gas_red":0,"pct_gas_garrafa":83,"pct_lena_guano":83,"pct_basura_formal":83,"pct_basura_quema":17,"pct_basura_informal":0,"pct_internet":67,"pct_celular":67,"pct_televisor":67}},{"type":"Feature","geometry":{"type":"Polygon","coordinates":[[[-64.67548,-18.32278],[-64.67508,-18.3224],[-64.67399,-18.32323],[-64.67475,-18.32365],[-64.67548,-18.32278]]]},"properties":{"n":"PASORAPA","p":95,"personas_x_ha":93,"masculinidad":121,"pct_menor20":29,"pct_60mas":15,"pct_migrante":47,"dependencia_econ":83,"pct_empleados":23,"pct_cuentapropia":62,"pct_agricultura":42,"pct_comercio":15,"pct_manufactura":6,"pct_construccion":6,"pct_transporte":2,"pct_alojamiento":2,"pct_sin_educacion":6,"pct_educ_superior":46,"brecha_educ":8,"pct_sin_seguro":11,"pct_sus":78,"pct_seguro_privado":0,"brecha_seguro":2,"pct_salud_publica":32,"pct_med_tradicional":11,"pct_automedicacion":17,"pct_remedios_caseros":29,"pct_viv_desocupada":8,"pct_alquiler":5,"pct_electricidad":95,"pct_sin_electricidad":5,"pct_agua_red":100,"pct_alcantarillado":91,"pct_camara_septica":5,"pct_pozo_ciego":0,"pct_sin_desague":5,"pct_gas_red":0,"pct_gas_garrafa":86,"pct_lena_guano":86,"pct_basura_formal":91,"pct_basura_quema":5,"pct_basura_informal":9,"pct_internet":86,"pct_celular":100,"pct_televisor":82}},{"type":"Feature","geometry":{"type":"Polygon","coordinates":[[[-64.67553,-18.32198],[-64.67524,-18.32166],[-64.67465,-18.32194],[-64.67508,-18.32233],[-64.67553,-18.32198]]]},"properties":{"n":"PASORAPA","p":20,"personas_x_ha":53,"masculinidad":150,"pct_menor20":35,"pct_60mas":30,"pct_migrante":30,"dependencia_econ":100,"pct_empleados":0,"pct_cuentapropia":10,"pct_agricultura":70,"pct_comercio":0,"pct_manufactura":0,"pct_construccion":0,"pct_transporte":0,"pct_alojamiento":0,"pct_sin_educacion":0,"pct_educ_superior":31,"brecha_educ":0,"pct_sin_seguro":0,"pct_sus":70,"pct_seguro_privado":0,"brecha_seguro":0,"pct_salud_publica":24,"pct_med_tradicional":14,"pct_automedicacion":20,"pct_remedios_caseros":21,"pct_viv_desocupada":0,"pct_alquiler":20,"pct_electricidad":80,"pct_sin_electricidad":0,"pct_agua_red":100,"pct_alcantarillado":100,"pct_camara_septica":0,"pct_pozo_ciego":0,"pct_sin_desague":0,"pct_gas_red":0,"pct_gas_garrafa":100,"pct_lena_guano":100,"pct_basura_formal":100,"pct_basura_quema":0,"pct_basura_informal":0,"pct_internet":60,"pct_celular":100,"pct_televisor":80}},{"type":"Feature","geometry":{"type":"Polygon","coordinates":[[[-64.67314,-18.32516],[-64.67379,-18.32457],[-64.67305,-18.3239],[-64.67233,-18.32447],[-64.67276,-18.32498],[-64.67314,-18.32516]]]},"properties":{"n":"PASORAPA","p":58,"personas_x_ha":49,"masculinidad":107,"pct_menor20":26,"pct_60mas":12,"pct_migrante":19,"dependencia_econ":62,"pct_empleados":6,"pct_cuentapropia":91,"pct_agricultura":59,"pct_comercio":18,"pct_manufactura":0,"pct_construccion":0,"pct_transporte":3,"pct_alojamiento":9,"pct_sin_educacion":7,"pct_educ_superior":21,"brecha_educ":2,"pct_sin_seguro":24,"pct_sus":70,"pct_seguro_privado":0,"brecha_seguro":17,"pct_salud_publica":37,"pct_med_tradicional":13,"pct_automedicacion":18,"pct_remedios_caseros":24,"pct_viv_desocupada":0,"pct_alquiler":14,"pct_electricidad":100,"pct_sin_electricidad":0,"pct_agua_red":100,"pct_alcantarillado":93,"pct_camara_septica":0,"pct_pozo_ciego":7,"pct_sin_desague":0,"pct_gas_red":0,"pct_gas_garrafa":71,"pct_lena_guano":71,"pct_basura_formal":93,"pct_basura_quema":7,"pct_basura_informal":0,"pct_internet":50,"pct_celular":71,"pct_televisor":71}},{"type":"Feature","geometry":{"type":"Polygon","coordinates":[[[-64.41949,-18.48709],[-64.4201,-18.48625],[-64.42136,-18.48747],[-64.4214,-18.48768],[-64.42088,-18.48789],[-64.42067,-18.48783],[-64.42036,-18.48762],[-64.42048,-18.48746],[-64.4205,-18.48732],[-64.42042,-18.48723],[-64.42024,-18.48735],[-64.42039,-18.48726],[-64.42046,-18.48732],[-64.42034,-18.4876],[-64.4201,-18.48745],[-64.41979,-18.48738],[-64.41949,-18.48709]]]},"properties":{"n":"PUCARICITO","p":25,"personas_x_ha":14,"masculinidad":56,"pct_menor20":48,"pct_60mas":12,"pct_migrante":12,"dependencia_econ":92,"pct_empleados":8,"pct_cuentapropia":25,"pct_agricultura":83,"pct_comercio":0,"pct_manufactura":0,"pct_construccion":0,"pct_transporte":0,"pct_alojamiento":0,"pct_sin_educacion":8,"pct_educ_superior":17,"brecha_educ":-12,"pct_sin_seguro":0,"pct_sus":87,"pct_seguro_privado":0,"brecha_seguro":0,"pct_salud_publica":34,"pct_med_tradicional":3,"pct_automedicacion":18,"pct_remedios_caseros":19,"pct_viv_desocupada":0,"pct_alquiler":0,"pct_electricidad":0,"pct_sin_electricidad":25,"pct_agua_red":88,"pct_alcantarillado":0,"pct_camara_septica":12,"pct_pozo_ciego":88,"pct_sin_desague":0,"pct_gas_red":0,"pct_gas_garrafa":25,"pct_lena_guano":25,"pct_basura_formal":0,"pct_basura_quema":50,"pct_basura_informal":100,"pct_internet":88,"pct_celular":100,"pct_televisor":12}}]}