{"type":"FeatureCollection","features":[{"type":"Feature","geometry":{"type":"Polygon","coordinates":[[[-66.34848,-17.793],[-66.34822,-17.79279],[-66.34777,-17.79341],[-66.3482,-17.79372],[-66.34829,-17.79332],[-66.34848,-17.793]]]},"properties":{"n":"HIGUERANI","p":15,"personas_x_ha":41,"masculinidad":88,"pct_menor20":20,"pct_60mas":27,"pct_migrante":7,"dependencia_econ":36,"pct_empleados":0,"pct_cuentapropia":73,"pct_agricultura":64,"pct_comercio":36,"pct_manufactura":0,"pct_construccion":0,"pct_transporte":0,"pct_alojamiento":0,"pct_sin_educacion":17,"pct_educ_superior":17,"brecha_educ":-33,"pct_sin_seguro":20,"pct_sus":60,"pct_seguro_privado":0,"brecha_seguro":43,"pct_salud_publica":31,"pct_med_tradicional":6,"pct_automedicacion":0,"pct_remedios_caseros":43,"pct_viv_desocupada":36,"pct_alquiler":14,"pct_electricidad":100,"pct_sin_electricidad":0,"pct_agua_red":100,"pct_alcantarillado":0,"pct_camara_septica":14,"pct_pozo_ciego":0,"pct_sin_desague":86,"pct_gas_red":0,"pct_gas_garrafa":43,"pct_lena_guano":57,"pct_basura_formal":0,"pct_basura_quema":71,"pct_basura_informal":29,"pct_internet":57,"pct_celular":71,"pct_televisor":57}},{"type":"Feature","geometry":{"type":"Polygon","coordinates":[[[-66.34723,-17.79405],[-66.34776,-17.79444],[-66.3482,-17.7938],[-66.34771,-17.79345],[-66.34723,-17.79405]]]},"properties":{"n":"HIGUERANI","p":38,"personas_x_ha":66,"masculinidad":81,"pct_menor20":53,"pct_60mas":16,"pct_migrante":11,"dependencia_econ":100,"pct_empleados":16,"pct_cuentapropia":68,"pct_agricultura":74,"pct_comercio":5,"pct_manufactura":0,"pct_construccion":5,"pct_transporte":0,"pct_alojamiento":11,"pct_sin_educacion":5,"pct_educ_superior":0,"brecha_educ":-3,"pct_sin_seguro":5,"pct_sus":95,"pct_seguro_privado":0,"brecha_seguro":1,"pct_salud_publica":33,"pct_med_tradicional":12,"pct_automedicacion":13,"pct_remedios_caseros":36,"pct_viv_desocupada":0,"pct_alquiler":8,"pct_electricidad":100,"pct_sin_electricidad":0,"pct_agua_red":100,"pct_alcantarillado":0,"pct_camara_septica":8,"pct_pozo_ciego":31,"pct_sin_desague":62,"pct_gas_red":0,"pct_gas_garrafa":69,"pct_lena_guano":31,"pct_basura_formal":0,"pct_basura_quema":100,"pct_basura_informal":0,"pct_internet":46,"pct_celular":92,"pct_televisor":54}},{"type":"Feature","geometry":{"type":"Polygon","coordinates":[[[-66.34677,-17.79373],[-66.34666,-17.79341],[-66.34703,-17.79297],[-66.34761,-17.79339],[-66.34713,-17.79399],[-66.34677,-17.79373]]]},"properties":{"n":"HIGUERANI","p":22,"personas_x_ha":35,"masculinidad":100,"pct_menor20":55,"pct_60mas":23,"pct_migrante":0,"dependencia_econ":144,"pct_empleados":33,"pct_cuentapropia":56,"pct_agricultura":67,"pct_comercio":11,"pct_manufactura":0,"pct_construccion":0,"pct_transporte":0,"pct_alojamiento":0,"pct_sin_educacion":10,"pct_educ_superior":0,"brecha_educ":-86,"pct_sin_seguro":5,"pct_sus":95,"pct_seguro_privado":0,"brecha_seguro":-9,"pct_salud_publica":30,"pct_med_tradicional":3,"pct_automedicacion":30,"pct_remedios_caseros":31,"pct_viv_desocupada":0,"pct_alquiler":0,"pct_electricidad":100,"pct_sin_electricidad":0,"pct_agua_red":100,"pct_alcantarillado":0,"pct_camara_septica":0,"pct_pozo_ciego":71,"pct_sin_desague":29,"pct_gas_red":0,"pct_gas_garrafa":57,"pct_lena_guano":43,"pct_basura_formal":0,"pct_basura_quema":100,"pct_basura_informal":0,"pct_internet":57,"pct_celular":100,"pct_televisor":57}},{"type":"Feature","geometry":{"type":"Polygon","coordinates":[[[-66.34766,-17.79333],[-66.34814,-17.79273],[-66.34775,-17.79243],[-66.34718,-17.7927],[-66.34708,-17.79291],[-66.34766,-17.79333]]]},"properties":{"n":"HIGUERANI","p":31,"personas_x_ha":51,"masculinidad":72,"pct_menor20":29,"pct_60mas":16,"pct_migrante":45,"dependencia_econ":63,"pct_empleados":5,"pct_cuentapropia":63,"pct_agricultura":63,"pct_comercio":21,"pct_manufactura":0,"pct_construccion":5,"pct_transporte":0,"pct_alojamiento":0,"pct_sin_educacion":12,"pct_educ_superior":0,"brecha_educ":-13,"pct_sin_seguro":3,"pct_sus":97,"pct_seguro_privado":0,"brecha_seguro":-6,"pct_salud_publica":34,"pct_med_tradicional":10,"pct_automedicacion":11,"pct_remedios_caseros":35,"pct_viv_desocupada":12,"pct_alquiler":14,"pct_electricidad":86,"pct_sin_electricidad":14,"pct_agua_red":86,"pct_alcantarillado":0,"pct_camara_septica":43,"pct_pozo_ciego":0,"pct_sin_desague":57,"pct_gas_red":0,"pct_gas_garrafa":86,"pct_lena_guano":14,"pct_basura_formal":0,"pct_basura_quema":86,"pct_basura_informal":0,"pct_internet":71,"pct_celular":86,"pct_televisor":43}},{"type":"Feature","geometry":{"type":"Polygon","coordinates":[[[-66.34452,-17.77326],[-66.34427,-17.77313],[-66.34381,-17.77306],[-66.34385,-17.77353],[-66.34411,-17.77351],[-66.34388,-17.77357],[-66.34382,-17.77394],[-66.344,-17.77447],[-66.34485,-17.77417],[-66.34486,-17.77337],[-66.34461,-17.77327],[-66.34459,-17.77358],[-66.34452,-17.77357],[-66.34452,-17.77326]]]},"properties":{"n":"KARA KARA","p":56,"personas_x_ha":43,"masculinidad":107,"pct_menor20":52,"pct_60mas":7,"pct_migrante":59,"dependencia_econ":180,"pct_empleados":40,"pct_cuentapropia":45,"pct_agricultura":30,"pct_comercio":0,"pct_manufactura":15,"pct_construccion":10,"pct_transporte":5,"pct_alojamiento":0,"pct_sin_educacion":0,"pct_educ_superior":14,"brecha_educ":6,"pct_sin_seguro":25,"pct_sus":62,"pct_seguro_privado":0,"brecha_seguro":-2,"pct_salud_publica":23,"pct_med_tradicional":11,"pct_automedicacion":22,"pct_remedios_caseros":18,"pct_viv_desocupada":6,"pct_alquiler":13,"pct_electricidad":80,"pct_sin_electricidad":20,"pct_agua_red":40,"pct_alcantarillado":7,"pct_camara_septica":0,"pct_pozo_ciego":53,"pct_sin_desague":33,"pct_gas_red":0,"pct_gas_garrafa":87,"pct_lena_guano":13,"pct_basura_formal":0,"pct_basura_quema":100,"pct_basura_informal":0,"pct_internet":53,"pct_celular":87,"pct_televisor":80}},{"type":"Feature","geometry":{"type":"Polygon","coordinates":[[[-66.34399,-17.77691],[-66.34412,-17.77716],[-66.34401,-17.77743],[-66.34406,-17.77746],[-66.34417,-17.77725],[-66.34428,-17.7774],[-66.34391,-17.77815],[-66.34382,-17.7781],[-66.34376,-17.77811],[-66.34386,-17.77817],[-66.34361,-17.77864],[-66.34355,-17.77863],[-66.34324,-17.77849],[-66.34399,-17.77691]]]},"properties":{"n":"KARA KARA","p":88,"personas_x_ha":106,"masculinidad":115,"pct_menor20":30,"pct_60mas":9,"pct_migrante":40,"dependencia_econ":40,"pct_empleados":11,"pct_cuentapropia":74,"pct_agricultura":79,"pct_comercio":5,"pct_manufactura":2,"pct_construccion":3,"pct_transporte":0,"pct_alojamiento":3,"pct_sin_educacion":6,"pct_educ_superior":11,"brecha_educ":-28,"pct_sin_seguro":11,"pct_sus":83,"pct_seguro_privado":0,"brecha_seguro":1,"pct_salud_publica":30,"pct_med_tradicional":9,"pct_automedicacion":18,"pct_remedios_caseros":27,"pct_viv_desocupada":0,"pct_alquiler":12,"pct_electricidad":81,"pct_sin_electricidad":19,"pct_agua_red":66,"pct_alcantarillado":3,"pct_camara_septica":0,"pct_pozo_ciego":47,"pct_sin_desague":44,"pct_gas_red":0,"pct_gas_garrafa":78,"pct_lena_guano":22,"pct_basura_formal":0,"pct_basura_quema":88,"pct_basura_informal":12,"pct_internet":59,"pct_celular":84,"pct_televisor":59}},{"type":"Feature","geometry":{"type":"Polygon","coordinates":[[[-66.34351,-17.77363],[-66.34363,-17.77419],[-66.3434,-17.77445],[-66.34343,-17.77459],[-66.34387,-17.77449],[-66.34363,-17.77328],[-66.34363,-17.77251],[-66.34356,-17.77249],[-66.34351,-17.77363]]]},"properties":{"n":"KARA KARA","p":17,"personas_x_ha":43,"masculinidad":55,"pct_menor20":47,"pct_60mas":12,"pct_migrante":59,"dependencia_econ":70,"pct_empleados":30,"pct_cuentapropia":70,"pct_agricultura":50,"pct_comercio":10,"pct_manufactura":0,"pct_construccion":0,"pct_transporte":10,"pct_alojamiento":0,"pct_sin_educacion":0,"pct_educ_superior":22,"brecha_educ":33,"pct_sin_seguro":6,"pct_sus":94,"pct_seguro_privado":0,"brecha_seguro":-9,"pct_salud_publica":20,"pct_med_tradicional":19,"pct_automedicacion":16,"pct_remedios_caseros":19,"pct_viv_desocupada":0,"pct_alquiler":14,"pct_electricidad":71,"pct_sin_electricidad":29,"pct_agua_red":57,"pct_alcantarillado":0,"pct_camara_septica":0,"pct_pozo_ciego":57,"pct_sin_desague":43,"pct_gas_red":0,"pct_gas_garrafa":100,"pct_lena_guano":0,"pct_basura_formal":0,"pct_basura_quema":100,"pct_basura_informal":0,"pct_internet":71,"pct_celular":100,"pct_televisor":57}},{"type":"Feature","geometry":{"type":"Polygon","coordinates":[[[-66.34422,-17.779],[-66.34367,-17.77873],[-66.34382,-17.77842],[-66.34456,-17.77877],[-66.34464,-17.7789],[-66.3446,-17.77908],[-66.34424,-17.77895],[-66.34422,-17.779]]]},"properties":{"n":"KARA KARA","p":41,"personas_x_ha":112,"masculinidad":156,"pct_menor20":54,"pct_60mas":2,"pct_migrante":24,"dependencia_econ":193,"pct_empleados":7,"pct_cuentapropia":57,"pct_agricultura":71,"pct_comercio":0,"pct_manufactura":7,"pct_construccion":0,"pct_transporte":7,"pct_alojamiento":0,"pct_sin_educacion":5,"pct_educ_superior":0,"brecha_educ":26,"pct_sin_seguro":12,"pct_sus":88,"pct_seguro_privado":0,"brecha_seguro":-11,"pct_salud_publica":32,"pct_med_tradicional":14,"pct_automedicacion":25,"pct_remedios_caseros":21,"pct_viv_desocupada":9,"pct_alquiler":10,"pct_electricidad":90,"pct_sin_electricidad":10,"pct_agua_red":80,"pct_alcantarillado":0,"pct_camara_septica":0,"pct_pozo_ciego":70,"pct_sin_desague":30,"pct_gas_red":0,"pct_gas_garrafa":100,"pct_lena_guano":0,"pct_basura_formal":0,"pct_basura_quema":100,"pct_basura_informal":0,"pct_internet":60,"pct_celular":100,"pct_televisor":50}},{"type":"Feature","geometry":{"type":"Polygon","coordinates":[[[-66.34301,-17.77937],[-66.34326,-17.77964],[-66.34348,-17.77936],[-66.34318,-17.77915],[-66.34301,-17.77937]]]},"properties":{"n":"KARA KARA","p":31,"personas_x_ha":215,"masculinidad":138,"pct_menor20":65,"pct_60mas":0,"pct_migrante":55,"dependencia_econ":182,"pct_empleados":9,"pct_cuentapropia":36,"pct_agricultura":73,"pct_comercio":0,"pct_manufactura":0,"pct_construccion":18,"pct_transporte":9,"pct_alojamiento":0,"pct_sin_educacion":25,"pct_educ_superior":8,"brecha_educ":0,"pct_sin_seguro":0,"pct_sus":100,"pct_seguro_privado":0,"brecha_seguro":0,"pct_salud_publica":29,"pct_med_tradicional":6,"pct_automedicacion":18,"pct_remedios_caseros":21,"pct_viv_desocupada":14,"pct_alquiler":0,"pct_electricidad":100,"pct_sin_electricidad":0,"pct_agua_red":100,"pct_alcantarillado":0,"pct_camara_septica":17,"pct_pozo_ciego":33,"pct_sin_desague":50,"pct_gas_red":0,"pct_gas_garrafa":100,"pct_lena_guano":0,"pct_basura_formal":0,"pct_basura_quema":100,"pct_basura_informal":0,"pct_internet":50,"pct_celular":100,"pct_televisor":100}},{"type":"Feature","geometry":{"type":"Polygon","coordinates":[[[-66.34296,-17.77868],[-66.34284,-17.7786],[-66.34321,-17.77782],[-66.34332,-17.77795],[-66.34296,-17.77868]]]},"properties":{"n":"KARA KARA","p":30,"personas_x_ha":175,"masculinidad":88,"pct_menor20":40,"pct_60mas":3,"pct_migrante":57,"dependencia_econ":114,"pct_empleados":36,"pct_cuentapropia":57,"pct_agricultura":50,"pct_comercio":0,"pct_manufactura":0,"pct_construccion":0,"pct_transporte":21,"pct_alojamiento":7,"pct_sin_educacion":0,"pct_educ_superior":39,"brecha_educ":-15,"pct_sin_seguro":13,"pct_sus":83,"pct_seguro_privado":0,"brecha_seguro":-12,"pct_salud_publica":25,"pct_med_tradicional":9,"pct_automedicacion":21,"pct_remedios_caseros":25,"pct_viv_desocupada":0,"pct_alquiler":25,"pct_electricidad":100,"pct_sin_electricidad":0,"pct_agua_red":100,"pct_alcantarillado":0,"pct_camara_septica":0,"pct_pozo_ciego":50,"pct_sin_desague":50,"pct_gas_red":0,"pct_gas_garrafa":100,"pct_lena_guano":0,"pct_basura_formal":0,"pct_basura_quema":88,"pct_basura_informal":0,"pct_internet":88,"pct_celular":100,"pct_televisor":75}},{"type":"Feature","geometry":{"type":"Polygon","coordinates":[[[-66.34369,-17.77675],[-66.34278,-17.77684],[-66.34297,-17.77787],[-66.34346,-17.7777],[-66.34391,-17.7768],[-66.34369,-17.77675]]]},"properties":{"n":"KARA KARA","p":24,"personas_x_ha":25,"masculinidad":60,"pct_menor20":54,"pct_60mas":4,"pct_migrante":0,"dependencia_econ":140,"pct_empleados":20,"pct_cuentapropia":60,"pct_agricultura":70,"pct_comercio":0,"pct_manufactura":0,"pct_construccion":0,"pct_transporte":0,"pct_alojamiento":0,"pct_sin_educacion":18,"pct_educ_superior":27,"brecha_educ":33,"pct_sin_seguro":42,"pct_sus":58,"pct_seguro_privado":0,"brecha_seguro":4,"pct_salud_publica":20,"pct_med_tradicional":3,"pct_automedicacion":32,"pct_remedios_caseros":32,"pct_viv_desocupada":38,"pct_alquiler":0,"pct_electricidad":100,"pct_sin_electricidad":0,"pct_agua_red":60,"pct_alcantarillado":0,"pct_camara_septica":0,"pct_pozo_ciego":40,"pct_sin_desague":60,"pct_gas_red":0,"pct_gas_garrafa":60,"pct_lena_guano":40,"pct_basura_formal":0,"pct_basura_quema":100,"pct_basura_informal":0,"pct_internet":80,"pct_celular":100,"pct_televisor":40}},{"type":"Feature","geometry":{"type":"Polygon","coordinates":[[[-66.3443,-17.77747],[-66.34446,-17.77781],[-66.34426,-17.77854],[-66.34384,-17.77836],[-66.34395,-17.77818],[-66.344,-17.77821],[-66.3443,-17.77747]]]},"properties":{"n":"KARA KARA","p":27,"personas_x_ha":77,"masculinidad":69,"pct_menor20":44,"pct_60mas":7,"pct_migrante":48,"dependencia_econ":59,"pct_empleados":12,"pct_cuentapropia":82,"pct_agricultura":71,"pct_comercio":0,"pct_manufactura":12,"pct_construccion":6,"pct_transporte":6,"pct_alojamiento":6,"pct_sin_educacion":19,"pct_educ_superior":19,"brecha_educ":-30,"pct_sin_seguro":7,"pct_sus":89,"pct_seguro_privado":4,"brecha_seguro":18,"pct_salud_publica":22,"pct_med_tradicional":20,"pct_automedicacion":19,"pct_remedios_caseros":23,"pct_viv_desocupada":9,"pct_alquiler":0,"pct_electricidad":90,"pct_sin_electricidad":10,"pct_agua_red":100,"pct_alcantarillado":10,"pct_camara_septica":0,"pct_pozo_ciego":30,"pct_sin_desague":60,"pct_gas_red":0,"pct_gas_garrafa":100,"pct_lena_guano":0,"pct_basura_formal":0,"pct_basura_quema":40,"pct_basura_informal":50,"pct_internet":80,"pct_celular":80,"pct_televisor":50}},{"type":"Feature","geometry":{"type":"Polygon","coordinates":[[[-66.34341,-17.77923],[-66.34353,-17.77934],[-66.34377,-17.77905],[-66.34352,-17.77882],[-66.3434,-17.77889],[-66.34327,-17.77915],[-66.34338,-17.77922],[-66.34352,-17.77904],[-66.34341,-17.77923]]]},"properties":{"n":"KARA KARA","p":22,"personas_x_ha":139,"masculinidad":144,"pct_menor20":68,"pct_60mas":0,"pct_migrante":59,"dependencia_econ":214,"pct_empleados":0,"pct_cuentapropia":71,"pct_agricultura":100,"pct_comercio":0,"pct_manufactura":0,"pct_construccion":0,"pct_transporte":0,"pct_alojamiento":0,"pct_sin_educacion":57,"pct_educ_superior":0,"brecha_educ":-50,"pct_sin_seguro":5,"pct_sus":95,"pct_seguro_privado":0,"brecha_seguro":8,"pct_salud_publica":24,"pct_med_tradicional":3,"pct_automedicacion":6,"pct_remedios_caseros":6,"pct_viv_desocupada":0,"pct_alquiler":0,"pct_electricidad":75,"pct_sin_electricidad":0,"pct_agua_red":75,"pct_alcantarillado":12,"pct_camara_septica":0,"pct_pozo_ciego":12,"pct_sin_desague":75,"pct_gas_red":0,"pct_gas_garrafa":88,"pct_lena_guano":12,"pct_basura_formal":0,"pct_basura_quema":100,"pct_basura_informal":0,"pct_internet":75,"pct_celular":62,"pct_televisor":38}},{"type":"Feature","geometry":{"type":"Polygon","coordinates":[[[-66.35466,-17.75098],[-66.35389,-17.75054],[-66.35353,-17.75107],[-66.35433,-17.75148],[-66.35466,-17.75098]]]},"properties":{"n":"ORCOMA","p":46,"personas_x_ha":70,"masculinidad":100,"pct_menor20":46,"pct_60mas":2,"pct_migrante":7,"dependencia_econ":77,"pct_empleados":46,"pct_cuentapropia":42,"pct_agricultura":50,"pct_comercio":12,"pct_manufactura":4,"pct_construccion":12,"pct_transporte":4,"pct_alojamiento":0,"pct_sin_educacion":12,"pct_educ_superior":4,"brecha_educ":-28,"pct_sin_seguro":0,"pct_sus":67,"pct_seguro_privado":0,"brecha_seguro":0,"pct_salud_publica":29,"pct_med_tradicional":4,"pct_automedicacion":26,"pct_remedios_caseros":27,"pct_viv_desocupada":0,"pct_alquiler":0,"pct_electricidad":92,"pct_sin_electricidad":8,"pct_agua_red":54,"pct_alcantarillado":85,"pct_camara_septica":0,"pct_pozo_ciego":8,"pct_sin_desague":8,"pct_gas_red":0,"pct_gas_garrafa":85,"pct_lena_guano":15,"pct_basura_formal":0,"pct_basura_quema":100,"pct_basura_informal":0,"pct_internet":62,"pct_celular":85,"pct_televisor":62}},{"type":"Feature","geometry":{"type":"Polygon","coordinates":[[[-66.35559,-17.75097],[-66.35549,-17.75073],[-66.35525,-17.75052],[-66.35494,-17.75097],[-66.35577,-17.75161],[-66.35599,-17.75132],[-66.35559,-17.75097]]]},"properties":{"n":"ORCOMA","p":28,"personas_x_ha":51,"masculinidad":65,"pct_menor20":57,"pct_60mas":4,"pct_migrante":14,"dependencia_econ":367,"pct_empleados":17,"pct_cuentapropia":50,"pct_agricultura":83,"pct_comercio":0,"pct_manufactura":0,"pct_construccion":0,"pct_transporte":0,"pct_alojamiento":0,"pct_sin_educacion":17,"pct_educ_superior":0,"brecha_educ":11,"pct_sin_seguro":4,"pct_sus":96,"pct_seguro_privado":0,"brecha_seguro":9,"pct_salud_publica":25,"pct_med_tradicional":3,"pct_automedicacion":18,"pct_remedios_caseros":21,"pct_viv_desocupada":0,"pct_alquiler":0,"pct_electricidad":75,"pct_sin_electricidad":12,"pct_agua_red":12,"pct_alcantarillado":50,"pct_camara_septica":0,"pct_pozo_ciego":0,"pct_sin_desague":50,"pct_gas_red":0,"pct_gas_garrafa":62,"pct_lena_guano":38,"pct_basura_formal":0,"pct_basura_quema":100,"pct_basura_informal":0,"pct_internet":38,"pct_celular":88,"pct_televisor":88}},{"type":"Feature","geometry":{"type":"Polygon","coordinates":[[[-66.35376,-17.74907],[-66.35283,-17.75058],[-66.35293,-17.75065],[-66.35409,-17.74917],[-66.35376,-17.74907]]]},"properties":{"n":"ORCOMA","p":59,"personas_x_ha":101,"masculinidad":103,"pct_menor20":42,"pct_60mas":10,"pct_migrante":32,"dependencia_econ":146,"pct_empleados":25,"pct_cuentapropia":62,"pct_agricultura":46,"pct_comercio":8,"pct_manufactura":0,"pct_construccion":0,"pct_transporte":8,"pct_alojamiento":4,"pct_sin_educacion":12,"pct_educ_superior":12,"brecha_educ":-8,"pct_sin_seguro":0,"pct_sus":73,"pct_seguro_privado":0,"brecha_seguro":0,"pct_salud_publica":25,"pct_med_tradicional":11,"pct_automedicacion":17,"pct_remedios_caseros":26,"pct_viv_desocupada":0,"pct_alquiler":0,"pct_electricidad":100,"pct_sin_electricidad":0,"pct_agua_red":50,"pct_alcantarillado":93,"pct_camara_septica":0,"pct_pozo_ciego":7,"pct_sin_desague":0,"pct_gas_red":0,"pct_gas_garrafa":93,"pct_lena_guano":7,"pct_basura_formal":0,"pct_basura_quema":86,"pct_basura_informal":0,"pct_internet":57,"pct_celular":100,"pct_televisor":93}},{"type":"Feature","geometry":{"type":"Polygon","coordinates":[[[-66.35405,-17.74641],[-66.35393,-17.74581],[-66.35123,-17.74626],[-66.35145,-17.74689],[-66.35135,-17.74757],[-66.35183,-17.7477],[-66.35134,-17.74761],[-66.3512,-17.74823],[-66.35221,-17.74849],[-66.35281,-17.74855],[-66.35301,-17.74814],[-66.35285,-17.74855],[-66.35351,-17.74862],[-66.35404,-17.7473],[-66.35405,-17.74641]]]},"properties":{"n":"ORCOMA","p":38,"personas_x_ha":5,"masculinidad":81,"pct_menor20":32,"pct_60mas":18,"pct_migrante":29,"dependencia_econ":61,"pct_empleados":4,"pct_cuentapropia":70,"pct_agricultura":70,"pct_comercio":22,"pct_manufactura":4,"pct_construccion":4,"pct_transporte":0,"pct_alojamiento":0,"pct_sin_educacion":19,"pct_educ_superior":8,"brecha_educ":8,"pct_sin_seguro":6,"pct_sus":91,"pct_seguro_privado":0,"brecha_seguro":2,"pct_salud_publica":44,"pct_med_tradicional":4,"pct_automedicacion":9,"pct_remedios_caseros":25,"pct_viv_desocupada":0,"pct_alquiler":0,"pct_electricidad":86,"pct_sin_electricidad":7,"pct_agua_red":43,"pct_alcantarillado":79,"pct_camara_septica":0,"pct_pozo_ciego":0,"pct_sin_desague":21,"pct_gas_red":0,"pct_gas_garrafa":93,"pct_lena_guano":7,"pct_basura_formal":0,"pct_basura_quema":86,"pct_basura_informal":7,"pct_internet":36,"pct_celular":64,"pct_televisor":14}},{"type":"Feature","geometry":{"type":"Polygon","coordinates":[[[-66.35144,-17.75434],[-66.35017,-17.75493],[-66.35045,-17.75542],[-66.35175,-17.75467],[-66.35144,-17.75434]]]},"properties":{"n":"ORCOMA","p":53,"personas_x_ha":62,"masculinidad":121,"pct_menor20":49,"pct_60mas":6,"pct_migrante":32,"dependencia_econ":121,"pct_empleados":21,"pct_cuentapropia":62,"pct_agricultura":54,"pct_comercio":0,"pct_manufactura":4,"pct_construccion":4,"pct_transporte":8,"pct_alojamiento":0,"pct_sin_educacion":4,"pct_educ_superior":4,"brecha_educ":-34,"pct_sin_seguro":8,"pct_sus":83,"pct_seguro_privado":0,"brecha_seguro":-1,"pct_salud_publica":32,"pct_med_tradicional":5,"pct_automedicacion":23,"pct_remedios_caseros":33,"pct_viv_desocupada":0,"pct_alquiler":22,"pct_electricidad":78,"pct_sin_electricidad":22,"pct_agua_red":89,"pct_alcantarillado":6,"pct_camara_septica":0,"pct_pozo_ciego":61,"pct_sin_desague":33,"pct_gas_red":0,"pct_gas_garrafa":67,"pct_lena_guano":33,"pct_basura_formal":0,"pct_basura_quema":94,"pct_basura_informal":0,"pct_internet":83,"pct_celular":94,"pct_televisor":56}},{"type":"Feature","geometry":{"type":"Polygon","coordinates":[[[-66.35424,-17.74434],[-66.35393,-17.74421],[-66.35418,-17.74441],[-66.35396,-17.74463],[-66.35343,-17.74413],[-66.35363,-17.74419],[-66.35369,-17.74416],[-66.35341,-17.74409],[-66.35319,-17.7438],[-66.35429,-17.74378],[-66.35424,-17.74434]]]},"properties":{"n":"ORCOMA","p":16,"personas_x_ha":24,"masculinidad":167,"pct_menor20":38,"pct_60mas":0,"pct_migrante":31,"dependencia_econ":60,"pct_empleados":0,"pct_cuentapropia":80,"pct_agricultura":50,"pct_comercio":0,"pct_manufactura":10,"pct_construccion":0,"pct_transporte":20,"pct_alojamiento":10,"pct_sin_educacion":0,"pct_educ_superior":10,"brecha_educ":-33,"pct_sin_seguro":12,"pct_sus":81,"pct_seguro_privado":0,"brecha_seguro":-7,"pct_salud_publica":88,"pct_med_tradicional":0,"pct_automedicacion":0,"pct_remedios_caseros":0,"pct_viv_desocupada":12,"pct_alquiler":0,"pct_electricidad":86,"pct_sin_electricidad":0,"pct_agua_red":43,"pct_alcantarillado":71,"pct_camara_septica":0,"pct_pozo_ciego":0,"pct_sin_desague":29,"pct_gas_red":0,"pct_gas_garrafa":100,"pct_lena_guano":0,"pct_basura_formal":0,"pct_basura_quema":100,"pct_basura_informal":0,"pct_internet":86,"pct_celular":100,"pct_televisor":86}},{"type":"Feature","geometry":{"type":"Polygon","coordinates":[[[-66.3543,-17.74747],[-66.35427,-17.74699],[-66.35444,-17.747],[-66.35449,-17.74723],[-66.35443,-17.74667],[-66.35452,-17.74667],[-66.35481,-17.74717],[-66.35536,-17.74776],[-66.35505,-17.74787],[-66.3549,-17.74786],[-66.35488,-17.74779],[-66.35489,-17.74786],[-66.3543,-17.74747]]]},"properties":{"n":"ORCOMA","p":16,"personas_x_ha":22,"masculinidad":167,"pct_menor20":6,"pct_60mas":25,"pct_migrante":25,"dependencia_econ":129,"pct_empleados":0,"pct_cuentapropia":43,"pct_agricultura":71,"pct_comercio":0,"pct_manufactura":0,"pct_construccion":0,"pct_transporte":0,"pct_alojamiento":0,"pct_sin_educacion":0,"pct_educ_superior":33,"brecha_educ":-10,"pct_sin_seguro":19,"pct_sus":38,"pct_seguro_privado":19,"brecha_seguro":30,"pct_salud_publica":23,"pct_med_tradicional":12,"pct_automedicacion":14,"pct_remedios_caseros":25,"pct_viv_desocupada":33,"pct_alquiler":14,"pct_electricidad":100,"pct_sin_electricidad":0,"pct_agua_red":86,"pct_alcantarillado":86,"pct_camara_septica":0,"pct_pozo_ciego":14,"pct_sin_desague":0,"pct_gas_red":0,"pct_gas_garrafa":100,"pct_lena_guano":0,"pct_basura_formal":14,"pct_basura_quema":71,"pct_basura_informal":14,"pct_internet":86,"pct_celular":71,"pct_televisor":71}},{"type":"Feature","geometry":{"type":"Polygon","coordinates":[[[-66.35262,-17.74963],[-66.35322,-17.74867],[-66.35346,-17.74879],[-66.35241,-17.75039],[-66.35231,-17.75042],[-66.35205,-17.75031],[-66.35227,-17.74993],[-66.35262,-17.74963]]]},"properties":{"n":"ORCOMA","p":28,"personas_x_ha":39,"masculinidad":87,"pct_menor20":29,"pct_60mas":21,"pct_migrante":32,"dependencia_econ":115,"pct_empleados":15,"pct_cuentapropia":85,"pct_agricultura":38,"pct_comercio":8,"pct_manufactura":8,"pct_construccion":8,"pct_transporte":0,"pct_alojamiento":0,"pct_sin_educacion":10,"pct_educ_superior":20,"brecha_educ":-10,"pct_sin_seguro":7,"pct_sus":93,"pct_seguro_privado":0,"brecha_seguro":1,"pct_salud_publica":26,"pct_med_tradicional":15,"pct_automedicacion":18,"pct_remedios_caseros":25,"pct_viv_desocupada":0,"pct_alquiler":0,"pct_electricidad":82,"pct_sin_electricidad":9,"pct_agua_red":91,"pct_alcantarillado":82,"pct_camara_septica":0,"pct_pozo_ciego":9,"pct_sin_desague":9,"pct_gas_red":0,"pct_gas_garrafa":73,"pct_lena_guano":27,"pct_basura_formal":0,"pct_basura_quema":100,"pct_basura_informal":0,"pct_internet":73,"pct_celular":82,"pct_televisor":55}},{"type":"Feature","geometry":{"type":"Polygon","coordinates":[[[-66.35532,-17.75191],[-66.35458,-17.75154],[-66.35487,-17.75107],[-66.35557,-17.75159],[-66.35532,-17.75191]]]},"properties":{"n":"ORCOMA","p":32,"personas_x_ha":64,"masculinidad":129,"pct_menor20":38,"pct_60mas":12,"pct_migrante":22,"dependencia_econ":68,"pct_empleados":5,"pct_cuentapropia":84,"pct_agricultura":47,"pct_comercio":0,"pct_manufactura":5,"pct_construccion":11,"pct_transporte":0,"pct_alojamiento":0,"pct_sin_educacion":19,"pct_educ_superior":10,"brecha_educ":-21,"pct_sin_seguro":6,"pct_sus":69,"pct_seguro_privado":0,"brecha_seguro":-2,"pct_salud_publica":38,"pct_med_tradicional":7,"pct_automedicacion":22,"pct_remedios_caseros":11,"pct_viv_desocupada":0,"pct_alquiler":0,"pct_electricidad":60,"pct_sin_electricidad":40,"pct_agua_red":40,"pct_alcantarillado":100,"pct_camara_septica":0,"pct_pozo_ciego":0,"pct_sin_desague":0,"pct_gas_red":0,"pct_gas_garrafa":60,"pct_lena_guano":40,"pct_basura_formal":0,"pct_basura_quema":100,"pct_basura_informal":0,"pct_internet":40,"pct_celular":80,"pct_televisor":50}},{"type":"Feature","geometry":{"type":"Polygon","coordinates":[[[-66.35104,-17.754],[-66.35132,-17.75429],[-66.35026,-17.75481],[-66.35011,-17.75453],[-66.35104,-17.754]]]},"properties":{"n":"ORCOMA","p":17,"personas_x_ha":36,"masculinidad":55,"pct_menor20":41,"pct_60mas":12,"pct_migrante":24,"dependencia_econ":55,"pct_empleados":9,"pct_cuentapropia":82,"pct_agricultura":64,"pct_comercio":0,"pct_manufactura":0,"pct_construccion":9,"pct_transporte":0,"pct_alojamiento":9,"pct_sin_educacion":0,"pct_educ_superior":0,"brecha_educ":-13,"pct_sin_seguro":0,"pct_sus":100,"pct_seguro_privado":0,"brecha_seguro":0,"pct_salud_publica":24,"pct_med_tradicional":24,"pct_automedicacion":19,"pct_remedios_caseros":27,"pct_viv_desocupada":0,"pct_alquiler":0,"pct_electricidad":57,"pct_sin_electricidad":43,"pct_agua_red":71,"pct_alcantarillado":14,"pct_camara_septica":0,"pct_pozo_ciego":29,"pct_sin_desague":57,"pct_gas_red":0,"pct_gas_garrafa":43,"pct_lena_guano":43,"pct_basura_formal":0,"pct_basura_quema":86,"pct_basura_informal":14,"pct_internet":57,"pct_celular":57,"pct_televisor":29}},{"type":"Feature","geometry":{"type":"Polygon","coordinates":[[[-66.35484,-17.745],[-66.35481,-17.74465],[-66.35446,-17.74455],[-66.3541,-17.74462],[-66.35398,-17.74479],[-66.35413,-17.74568],[-66.35465,-17.74548],[-66.35464,-17.74508],[-66.35467,-17.7454],[-66.35473,-17.7454],[-66.35484,-17.745]]]},"properties":{"n":"ORCOMA","p":17,"personas_x_ha":20,"masculinidad":143,"pct_menor20":24,"pct_60mas":29,"pct_migrante":29,"dependencia_econ":112,"pct_empleados":25,"pct_cuentapropia":62,"pct_agricultura":38,"pct_comercio":25,"pct_manufactura":0,"pct_construccion":0,"pct_transporte":25,"pct_alojamiento":0,"pct_sin_educacion":15,"pct_educ_superior":8,"brecha_educ":-55,"pct_sin_seguro":18,"pct_sus":82,"pct_seguro_privado":0,"brecha_seguro":6,"pct_salud_publica":22,"pct_med_tradicional":9,"pct_automedicacion":19,"pct_remedios_caseros":22,"pct_viv_desocupada":0,"pct_alquiler":0,"pct_electricidad":89,"pct_sin_electricidad":11,"pct_agua_red":89,"pct_alcantarillado":56,"pct_camara_septica":11,"pct_pozo_ciego":0,"pct_sin_desague":33,"pct_gas_red":0,"pct_gas_garrafa":78,"pct_lena_guano":0,"pct_basura_formal":0,"pct_basura_quema":100,"pct_basura_informal":0,"pct_internet":56,"pct_celular":89,"pct_televisor":56}},{"type":"Feature","geometry":{"type":"Polygon","coordinates":[[[-66.35522,-17.75016],[-66.35463,-17.74949],[-66.3544,-17.74981],[-66.35514,-17.75032],[-66.35522,-17.75016]]]},"properties":{"n":"ORCOMA","p":22,"personas_x_ha":78,"masculinidad":57,"pct_menor20":55,"pct_60mas":5,"pct_migrante":27,"dependencia_econ":100,"pct_empleados":45,"pct_cuentapropia":36,"pct_agricultura":27,"pct_comercio":0,"pct_manufactura":9,"pct_construccion":0,"pct_transporte":9,"pct_alojamiento":18,"pct_sin_educacion":0,"pct_educ_superior":36,"brecha_educ":-18,"pct_sin_seguro":5,"pct_sus":95,"pct_seguro_privado":0,"brecha_seguro":-7,"pct_salud_publica":36,"pct_med_tradicional":10,"pct_automedicacion":10,"pct_remedios_caseros":17,"pct_viv_desocupada":0,"pct_alquiler":0,"pct_electricidad":100,"pct_sin_electricidad":0,"pct_agua_red":57,"pct_alcantarillado":71,"pct_camara_septica":0,"pct_pozo_ciego":14,"pct_sin_desague":14,"pct_gas_red":0,"pct_gas_garrafa":100,"pct_lena_guano":0,"pct_basura_formal":0,"pct_basura_quema":100,"pct_basura_informal":0,"pct_internet":100,"pct_celular":100,"pct_televisor":57}},{"type":"Feature","geometry":{"type":"Polygon","coordinates":[[[-66.35457,-17.74665],[-66.35497,-17.74721],[-66.35479,-17.74606],[-66.35447,-17.74565],[-66.35418,-17.74577],[-66.35434,-17.7463],[-66.35456,-17.74624],[-66.35449,-17.74598],[-66.35466,-17.74645],[-66.35458,-17.74627],[-66.35434,-17.74633],[-66.35443,-17.74663],[-66.35457,-17.74665]]]},"properties":{"n":"ORCOMA","p":59,"personas_x_ha":97,"masculinidad":127,"pct_menor20":59,"pct_60mas":5,"pct_migrante":12,"dependencia_econ":119,"pct_empleados":26,"pct_cuentapropia":59,"pct_agricultura":67,"pct_comercio":4,"pct_manufactura":4,"pct_construccion":4,"pct_transporte":4,"pct_alojamiento":0,"pct_sin_educacion":15,"pct_educ_superior":8,"brecha_educ":-55,"pct_sin_seguro":0,"pct_sus":100,"pct_seguro_privado":0,"brecha_seguro":0,"pct_salud_publica":41,"pct_med_tradicional":8,"pct_automedicacion":18,"pct_remedios_caseros":24,"pct_viv_desocupada":7,"pct_alquiler":0,"pct_electricidad":92,"pct_sin_electricidad":8,"pct_agua_red":92,"pct_alcantarillado":92,"pct_camara_septica":0,"pct_pozo_ciego":0,"pct_sin_desague":8,"pct_gas_red":0,"pct_gas_garrafa":100,"pct_lena_guano":0,"pct_basura_formal":0,"pct_basura_quema":92,"pct_basura_informal":8,"pct_internet":67,"pct_celular":75,"pct_televisor":75}},{"type":"Feature","geometry":{"type":"Polygon","coordinates":[[[-66.35482,-17.75094],[-66.3552,-17.7504],[-66.35435,-17.74987],[-66.35395,-17.75045],[-66.35482,-17.75094]]]},"properties":{"n":"ORCOMA","p":43,"personas_x_ha":53,"masculinidad":126,"pct_menor20":42,"pct_60mas":14,"pct_migrante":9,"dependencia_econ":65,"pct_empleados":0,"pct_cuentapropia":77,"pct_agricultura":85,"pct_comercio":4,"pct_manufactura":4,"pct_construccion":0,"pct_transporte":0,"pct_alojamiento":0,"pct_sin_educacion":12,"pct_educ_superior":0,"brecha_educ":-29,"pct_sin_seguro":5,"pct_sus":78,"pct_seguro_privado":0,"brecha_seguro":9,"pct_salud_publica":28,"pct_med_tradicional":9,"pct_automedicacion":8,"pct_remedios_caseros":35,"pct_viv_desocupada":0,"pct_alquiler":0,"pct_electricidad":92,"pct_sin_electricidad":8,"pct_agua_red":85,"pct_alcantarillado":54,"pct_camara_septica":0,"pct_pozo_ciego":0,"pct_sin_desague":31,"pct_gas_red":0,"pct_gas_garrafa":77,"pct_lena_guano":23,"pct_basura_formal":0,"pct_basura_quema":100,"pct_basura_informal":0,"pct_internet":46,"pct_celular":54,"pct_televisor":69}},{"type":"Feature","geometry":{"type":"Polygon","coordinates":[[[-66.33404,-17.78754],[-66.33371,-17.78798],[-66.33399,-17.78816],[-66.33432,-17.78776],[-66.33404,-17.78754]]]},"properties":{"n":"PANTEON PAMPA","p":17,"personas_x_ha":72,"masculinidad":70,"pct_menor20":47,"pct_60mas":6,"pct_migrante":29,"dependencia_econ":55,"pct_empleados":0,"pct_cuentapropia":100,"pct_agricultura":91,"pct_comercio":0,"pct_manufactura":0,"pct_construccion":9,"pct_transporte":0,"pct_alojamiento":0,"pct_sin_educacion":11,"pct_educ_superior":0,"brecha_educ":5,"pct_sin_seguro":6,"pct_sus":94,"pct_seguro_privado":0,"brecha_seguro":-10,"pct_salud_publica":25,"pct_med_tradicional":13,"pct_automedicacion":20,"pct_remedios_caseros":23,"pct_viv_desocupada":14,"pct_alquiler":0,"pct_electricidad":100,"pct_sin_electricidad":0,"pct_agua_red":100,"pct_alcantarillado":100,"pct_camara_septica":0,"pct_pozo_ciego":0,"pct_sin_desague":0,"pct_gas_red":0,"pct_gas_garrafa":75,"pct_lena_guano":25,"pct_basura_formal":0,"pct_basura_quema":100,"pct_basura_informal":0,"pct_internet":50,"pct_celular":100,"pct_televisor":100}},{"type":"Feature","geometry":{"type":"Polygon","coordinates":[[[-66.33403,-17.80332],[-66.33427,-17.80328],[-66.33467,-17.80307],[-66.33521,-17.80203],[-66.33429,-17.80191],[-66.33398,-17.80302],[-66.33395,-17.80325],[-66.33403,-17.80332]]]},"properties":{"n":"SICAYA","p":24,"personas_x_ha":19,"masculinidad":118,"pct_menor20":25,"pct_60mas":12,"pct_migrante":29,"dependencia_econ":118,"pct_empleados":27,"pct_cuentapropia":73,"pct_agricultura":36,"pct_comercio":27,"pct_manufactura":9,"pct_construccion":0,"pct_transporte":9,"pct_alojamiento":0,"pct_sin_educacion":0,"pct_educ_superior":39,"brecha_educ":-22,"pct_sin_seguro":4,"pct_sus":65,"pct_seguro_privado":0,"brecha_seguro":8,"pct_salud_publica":20,"pct_med_tradicional":15,"pct_automedicacion":17,"pct_remedios_caseros":23,"pct_viv_desocupada":0,"pct_alquiler":0,"pct_electricidad":100,"pct_sin_electricidad":0,"pct_agua_red":100,"pct_alcantarillado":38,"pct_camara_septica":0,"pct_pozo_ciego":12,"pct_sin_desague":50,"pct_gas_red":0,"pct_gas_garrafa":62,"pct_lena_guano":38,"pct_basura_formal":0,"pct_basura_quema":88,"pct_basura_informal":0,"pct_internet":75,"pct_celular":100,"pct_televisor":62}},{"type":"Feature","geometry":{"type":"Polygon","coordinates":[[[-66.33476,-17.79944],[-66.33485,-17.79891],[-66.33427,-17.79884],[-66.33418,-17.79934],[-66.33476,-17.79944]]]},"properties":{"n":"SICAYA","p":20,"personas_x_ha":54,"masculinidad":67,"pct_menor20":30,"pct_60mas":15,"pct_migrante":0,"dependencia_econ":43,"pct_empleados":7,"pct_cuentapropia":71,"pct_agricultura":57,"pct_comercio":29,"pct_manufactura":0,"pct_construccion":0,"pct_transporte":0,"pct_alojamiento":0,"pct_sin_educacion":7,"pct_educ_superior":0,"brecha_educ":-27,"pct_sin_seguro":5,"pct_sus":95,"pct_seguro_privado":0,"brecha_seguro":-8,"pct_salud_publica":32,"pct_med_tradicional":8,"pct_automedicacion":20,"pct_remedios_caseros":20,"pct_viv_desocupada":0,"pct_alquiler":11,"pct_electricidad":67,"pct_sin_electricidad":33,"pct_agua_red":78,"pct_alcantarillado":44,"pct_camara_septica":0,"pct_pozo_ciego":11,"pct_sin_desague":44,"pct_gas_red":0,"pct_gas_garrafa":78,"pct_lena_guano":22,"pct_basura_formal":0,"pct_basura_quema":100,"pct_basura_informal":0,"pct_internet":89,"pct_celular":89,"pct_televisor":67}},{"type":"Feature","geometry":{"type":"Polygon","coordinates":[[[-66.33408,-17.79941],[-66.33345,-17.79928],[-66.33334,-17.79981],[-66.33389,-17.79991],[-66.33408,-17.79941]]]},"properties":{"n":"SICAYA","p":26,"personas_x_ha":66,"masculinidad":117,"pct_menor20":27,"pct_60mas":15,"pct_migrante":4,"dependencia_econ":73,"pct_empleados":0,"pct_cuentapropia":93,"pct_agricultura":67,"pct_comercio":13,"pct_manufactura":0,"pct_construccion":7,"pct_transporte":7,"pct_alojamiento":0,"pct_sin_educacion":5,"pct_educ_superior":16,"brecha_educ":14,"pct_sin_seguro":20,"pct_sus":76,"pct_seguro_privado":0,"brecha_seguro":-29,"pct_salud_publica":33,"pct_med_tradicional":12,"pct_automedicacion":13,"pct_remedios_caseros":34,"pct_viv_desocupada":0,"pct_alquiler":0,"pct_electricidad":100,"pct_sin_electricidad":0,"pct_agua_red":100,"pct_alcantarillado":86,"pct_camara_septica":0,"pct_pozo_ciego":14,"pct_sin_desague":0,"pct_gas_red":0,"pct_gas_garrafa":86,"pct_lena_guano":14,"pct_basura_formal":0,"pct_basura_quema":71,"pct_basura_informal":29,"pct_internet":100,"pct_celular":100,"pct_televisor":57}},{"type":"Feature","geometry":{"type":"Polygon","coordinates":[[[-66.3342,-17.79883],[-66.33357,-17.79871],[-66.33348,-17.79919],[-66.33409,-17.79932],[-66.3342,-17.79883]]]},"properties":{"n":"SICAYA","p":34,"personas_x_ha":89,"masculinidad":100,"pct_menor20":38,"pct_60mas":9,"pct_migrante":9,"dependencia_econ":60,"pct_empleados":10,"pct_cuentapropia":65,"pct_agricultura":90,"pct_comercio":0,"pct_manufactura":0,"pct_construccion":0,"pct_transporte":0,"pct_alojamiento":0,"pct_sin_educacion":5,"pct_educ_superior":19,"brecha_educ":-55,"pct_sin_seguro":3,"pct_sus":81,"pct_seguro_privado":0,"brecha_seguro":7,"pct_salud_publica":32,"pct_med_tradicional":13,"pct_automedicacion":14,"pct_remedios_caseros":26,"pct_viv_desocupada":0,"pct_alquiler":0,"pct_electricidad":100,"pct_sin_electricidad":0,"pct_agua_red":56,"pct_alcantarillado":89,"pct_camara_septica":11,"pct_pozo_ciego":0,"pct_sin_desague":0,"pct_gas_red":0,"pct_gas_garrafa":89,"pct_lena_guano":11,"pct_basura_formal":0,"pct_basura_quema":78,"pct_basura_informal":22,"pct_internet":67,"pct_celular":78,"pct_televisor":56}},{"type":"Feature","geometry":{"type":"Polygon","coordinates":[[[-66.33316,-17.80019],[-66.33264,-17.80008],[-66.33255,-17.80048],[-66.33308,-17.80059],[-66.33316,-17.80019]]]},"properties":{"n":"SICAYA","p":23,"personas_x_ha":85,"masculinidad":64,"pct_menor20":22,"pct_60mas":26,"pct_migrante":4,"dependencia_econ":77,"pct_empleados":0,"pct_cuentapropia":54,"pct_agricultura":38,"pct_comercio":46,"pct_manufactura":0,"pct_construccion":0,"pct_transporte":8,"pct_alojamiento":0,"pct_sin_educacion":0,"pct_educ_superior":22,"brecha_educ":-17,"pct_sin_seguro":9,"pct_sus":83,"pct_seguro_privado":0,"brecha_seguro":4,"pct_salud_publica":78,"pct_med_tradicional":0,"pct_automedicacion":11,"pct_remedios_caseros":4,"pct_viv_desocupada":0,"pct_alquiler":0,"pct_electricidad":86,"pct_sin_electricidad":14,"pct_agua_red":86,"pct_alcantarillado":29,"pct_camara_septica":0,"pct_pozo_ciego":0,"pct_sin_desague":71,"pct_gas_red":0,"pct_gas_garrafa":100,"pct_lena_guano":0,"pct_basura_formal":0,"pct_basura_quema":71,"pct_basura_informal":14,"pct_internet":57,"pct_celular":71,"pct_televisor":43}},{"type":"Feature","geometry":{"type":"Polygon","coordinates":[[[-66.33274,-17.79911],[-66.33234,-17.79905],[-66.33216,-17.79992],[-66.33257,-17.80001],[-66.33274,-17.79911]]]},"properties":{"n":"SICAYA","p":30,"personas_x_ha":67,"masculinidad":173,"pct_menor20":37,"pct_60mas":7,"pct_migrante":17,"dependencia_econ":56,"pct_empleados":22,"pct_cuentapropia":56,"pct_agricultura":67,"pct_comercio":17,"pct_manufactura":6,"pct_construccion":6,"pct_transporte":0,"pct_alojamiento":0,"pct_sin_educacion":0,"pct_educ_superior":0,"brecha_educ":-10,"pct_sin_seguro":7,"pct_sus":93,"pct_seguro_privado":0,"brecha_seguro":-4,"pct_salud_publica":27,"pct_med_tradicional":20,"pct_automedicacion":19,"pct_remedios_caseros":24,"pct_viv_desocupada":0,"pct_alquiler":10,"pct_electricidad":90,"pct_sin_electricidad":10,"pct_agua_red":100,"pct_alcantarillado":70,"pct_camara_septica":0,"pct_pozo_ciego":0,"pct_sin_desague":30,"pct_gas_red":0,"pct_gas_garrafa":90,"pct_lena_guano":10,"pct_basura_formal":0,"pct_basura_quema":80,"pct_basura_informal":20,"pct_internet":80,"pct_celular":90,"pct_televisor":60}},{"type":"Feature","geometry":{"type":"Polygon","coordinates":[[[-66.33144,-17.8047],[-66.3319,-17.80437],[-66.3315,-17.80405],[-66.33114,-17.80446],[-66.33144,-17.8047]]]},"properties":{"n":"SICAYA","p":29,"personas_x_ha":99,"masculinidad":81,"pct_menor20":55,"pct_60mas":7,"pct_migrante":3,"dependencia_econ":115,"pct_empleados":0,"pct_cuentapropia":62,"pct_agricultura":92,"pct_comercio":0,"pct_manufactura":8,"pct_construccion":0,"pct_transporte":0,"pct_alojamiento":0,"pct_sin_educacion":0,"pct_educ_superior":7,"brecha_educ":-16,"pct_sin_seguro":4,"pct_sus":96,"pct_seguro_privado":0,"brecha_seguro":8,"pct_salud_publica":82,"pct_med_tradicional":0,"pct_automedicacion":12,"pct_remedios_caseros":6,"pct_viv_desocupada":0,"pct_alquiler":0,"pct_electricidad":86,"pct_sin_electricidad":14,"pct_agua_red":14,"pct_alcantarillado":0,"pct_camara_septica":0,"pct_pozo_ciego":86,"pct_sin_desague":14,"pct_gas_red":0,"pct_gas_garrafa":86,"pct_lena_guano":14,"pct_basura_formal":0,"pct_basura_quema":100,"pct_basura_informal":0,"pct_internet":100,"pct_celular":100,"pct_televisor":86}},{"type":"Feature","geometry":{"type":"Polygon","coordinates":[[[-66.33023,-17.80363],[-66.32999,-17.80388],[-66.33057,-17.80416],[-66.33098,-17.80452],[-66.33146,-17.8039],[-66.33127,-17.80378],[-66.33023,-17.80363]]]},"properties":{"n":"SICAYA","p":24,"personas_x_ha":32,"masculinidad":118,"pct_menor20":33,"pct_60mas":12,"pct_migrante":0,"dependencia_econ":50,"pct_empleados":6,"pct_cuentapropia":75,"pct_agricultura":50,"pct_comercio":0,"pct_manufactura":6,"pct_construccion":12,"pct_transporte":0,"pct_alojamiento":6,"pct_sin_educacion":6,"pct_educ_superior":0,"brecha_educ":-35,"pct_sin_seguro":4,"pct_sus":96,"pct_seguro_privado":0,"brecha_seguro":-10,"pct_salud_publica":32,"pct_med_tradicional":12,"pct_automedicacion":11,"pct_remedios_caseros":30,"pct_viv_desocupada":0,"pct_alquiler":0,"pct_electricidad":100,"pct_sin_electricidad":0,"pct_agua_red":56,"pct_alcantarillado":56,"pct_camara_septica":11,"pct_pozo_ciego":22,"pct_sin_desague":11,"pct_gas_red":0,"pct_gas_garrafa":78,"pct_lena_guano":22,"pct_basura_formal":11,"pct_basura_quema":89,"pct_basura_informal":0,"pct_internet":67,"pct_celular":78,"pct_televisor":56}},{"type":"Feature","geometry":{"type":"Polygon","coordinates":[[[-66.33273,-17.80283],[-66.33275,-17.80238],[-66.33314,-17.80224],[-66.33319,-17.80207],[-66.33312,-17.80198],[-66.33382,-17.80195],[-66.33373,-17.80322],[-66.33382,-17.80331],[-66.33363,-17.80348],[-66.33235,-17.80411],[-66.33214,-17.80418],[-66.33188,-17.80414],[-66.33162,-17.80382],[-66.33195,-17.80322],[-66.33205,-17.80315],[-66.33207,-17.80359],[-66.33222,-17.80359],[-66.3321,-17.80356],[-66.33206,-17.80314],[-66.33223,-17.80342],[-66.3321,-17.80311],[-66.33273,-17.80283]]]},"properties":{"n":"SICAYA","p":46,"personas_x_ha":15,"masculinidad":119,"pct_menor20":39,"pct_60mas":4,"pct_migrante":17,"dependencia_econ":64,"pct_empleados":21,"pct_cuentapropia":57,"pct_agricultura":68,"pct_comercio":0,"pct_manufactura":4,"pct_construccion":11,"pct_transporte":14,"pct_alojamiento":0,"pct_sin_educacion":0,"pct_educ_superior":0,"brecha_educ":-17,"pct_sin_seguro":4,"pct_sus":96,"pct_seguro_privado":0,"brecha_seguro":8,"pct_salud_publica":24,"pct_med_tradicional":15,"pct_automedicacion":17,"pct_remedios_caseros":19,"pct_viv_desocupada":0,"pct_alquiler":7,"pct_electricidad":80,"pct_sin_electricidad":13,"pct_agua_red":47,"pct_alcantarillado":7,"pct_camara_septica":0,"pct_pozo_ciego":33,"pct_sin_desague":53,"pct_gas_red":0,"pct_gas_garrafa":93,"pct_lena_guano":7,"pct_basura_formal":0,"pct_basura_quema":100,"pct_basura_informal":0,"pct_internet":80,"pct_celular":93,"pct_televisor":67}},{"type":"Feature","geometry":{"type":"Polygon","coordinates":[[[-66.33421,-17.80198],[-66.33445,-17.80099],[-66.33416,-17.8009],[-66.33392,-17.80112],[-66.33385,-17.80195],[-66.33421,-17.80198]]]},"properties":{"n":"SICAYA","p":44,"personas_x_ha":82,"masculinidad":132,"pct_menor20":52,"pct_60mas":0,"pct_migrante":39,"dependencia_econ":159,"pct_empleados":47,"pct_cuentapropia":29,"pct_agricultura":35,"pct_comercio":6,"pct_manufactura":12,"pct_construccion":24,"pct_transporte":0,"pct_alojamiento":12,"pct_sin_educacion":5,"pct_educ_superior":19,"brecha_educ":-14,"pct_sin_seguro":9,"pct_sus":75,"pct_seguro_privado":2,"brecha_seguro":7,"pct_salud_publica":42,"pct_med_tradicional":3,"pct_automedicacion":10,"pct_remedios_caseros":37,"pct_viv_desocupada":0,"pct_alquiler":10,"pct_electricidad":80,"pct_sin_electricidad":20,"pct_agua_red":90,"pct_alcantarillado":70,"pct_camara_septica":0,"pct_pozo_ciego":0,"pct_sin_desague":30,"pct_gas_red":0,"pct_gas_garrafa":100,"pct_lena_guano":0,"pct_basura_formal":0,"pct_basura_quema":100,"pct_basura_informal":0,"pct_internet":90,"pct_celular":90,"pct_televisor":60}},{"type":"Feature","geometry":{"type":"Polygon","coordinates":[[[-66.33389,-17.80027],[-66.33453,-17.80039],[-66.33462,-17.80007],[-66.33395,-17.79999],[-66.33389,-17.80027]]]},"properties":{"n":"SICAYA","p":21,"personas_x_ha":84,"masculinidad":91,"pct_menor20":38,"pct_60mas":14,"pct_migrante":57,"dependencia_econ":91,"pct_empleados":9,"pct_cuentapropia":0,"pct_agricultura":55,"pct_comercio":9,"pct_manufactura":18,"pct_construccion":0,"pct_transporte":0,"pct_alojamiento":9,"pct_sin_educacion":0,"pct_educ_superior":0,"brecha_educ":-29,"pct_sin_seguro":10,"pct_sus":81,"pct_seguro_privado":0,"brecha_seguro":20,"pct_salud_publica":35,"pct_med_tradicional":0,"pct_automedicacion":25,"pct_remedios_caseros":27,"pct_viv_desocupada":0,"pct_alquiler":0,"pct_electricidad":83,"pct_sin_electricidad":17,"pct_agua_red":100,"pct_alcantarillado":100,"pct_camara_septica":0,"pct_pozo_ciego":0,"pct_sin_desague":0,"pct_gas_red":0,"pct_gas_garrafa":67,"pct_lena_guano":33,"pct_basura_formal":0,"pct_basura_quema":67,"pct_basura_informal":33,"pct_internet":83,"pct_celular":100,"pct_televisor":67}},{"type":"Feature","geometry":{"type":"Polygon","coordinates":[[[-66.33454,-17.80044],[-66.33407,-17.80034],[-66.33401,-17.80077],[-66.33448,-17.80087],[-66.33454,-17.80044]]]},"properties":{"n":"SICAYA","p":25,"personas_x_ha":100,"masculinidad":150,"pct_menor20":36,"pct_60mas":16,"pct_migrante":24,"dependencia_econ":257,"pct_empleados":29,"pct_cuentapropia":71,"pct_agricultura":14,"pct_comercio":29,"pct_manufactura":0,"pct_construccion":0,"pct_transporte":14,"pct_alojamiento":0,"pct_sin_educacion":6,"pct_educ_superior":29,"brecha_educ":-39,"pct_sin_seguro":12,"pct_sus":72,"pct_seguro_privado":0,"brecha_seguro":3,"pct_salud_publica":26,"pct_med_tradicional":10,"pct_automedicacion":20,"pct_remedios_caseros":27,"pct_viv_desocupada":0,"pct_alquiler":0,"pct_electricidad":100,"pct_sin_electricidad":0,"pct_agua_red":100,"pct_alcantarillado":100,"pct_camara_septica":0,"pct_pozo_ciego":0,"pct_sin_desague":0,"pct_gas_red":0,"pct_gas_garrafa":100,"pct_lena_guano":0,"pct_basura_formal":0,"pct_basura_quema":29,"pct_basura_informal":71,"pct_internet":86,"pct_celular":100,"pct_televisor":71}},{"type":"Feature","geometry":{"type":"Polygon","coordinates":[[[-66.33272,-17.79971],[-66.33326,-17.79979],[-66.33338,-17.79925],[-66.33283,-17.79914],[-66.33272,-17.79971]]]},"properties":{"n":"SICAYA","p":37,"personas_x_ha":97,"masculinidad":147,"pct_menor20":43,"pct_60mas":5,"pct_migrante":16,"dependencia_econ":95,"pct_empleados":0,"pct_cuentapropia":63,"pct_agricultura":100,"pct_comercio":0,"pct_manufactura":0,"pct_construccion":0,"pct_transporte":0,"pct_alojamiento":0,"pct_sin_educacion":14,"pct_educ_superior":0,"brecha_educ":0,"pct_sin_seguro":11,"pct_sus":89,"pct_seguro_privado":0,"brecha_seguro":19,"pct_salud_publica":31,"pct_med_tradicional":11,"pct_automedicacion":23,"pct_remedios_caseros":30,"pct_viv_desocupada":0,"pct_alquiler":33,"pct_electricidad":100,"pct_sin_electricidad":0,"pct_agua_red":100,"pct_alcantarillado":67,"pct_camara_septica":0,"pct_pozo_ciego":0,"pct_sin_desague":33,"pct_gas_red":0,"pct_gas_garrafa":89,"pct_lena_guano":11,"pct_basura_formal":0,"pct_basura_quema":100,"pct_basura_informal":0,"pct_internet":100,"pct_celular":100,"pct_televisor":67}},{"type":"Feature","geometry":{"type":"Polygon","coordinates":[[[-66.33339,-17.79919],[-66.3335,-17.79868],[-66.33295,-17.7986],[-66.33285,-17.79907],[-66.33339,-17.79919]]]},"properties":{"n":"SICAYA","p":23,"personas_x_ha":69,"masculinidad":92,"pct_menor20":43,"pct_60mas":9,"pct_migrante":35,"dependencia_econ":64,"pct_empleados":7,"pct_cuentapropia":93,"pct_agricultura":71,"pct_comercio":7,"pct_manufactura":0,"pct_construccion":7,"pct_transporte":0,"pct_alojamiento":0,"pct_sin_educacion":8,"pct_educ_superior":8,"brecha_educ":-10,"pct_sin_seguro":4,"pct_sus":91,"pct_seguro_privado":0,"brecha_seguro":9,"pct_salud_publica":29,"pct_med_tradicional":15,"pct_automedicacion":10,"pct_remedios_caseros":29,"pct_viv_desocupada":10,"pct_alquiler":0,"pct_electricidad":100,"pct_sin_electricidad":0,"pct_agua_red":100,"pct_alcantarillado":71,"pct_camara_septica":0,"pct_pozo_ciego":0,"pct_sin_desague":29,"pct_gas_red":0,"pct_gas_garrafa":71,"pct_lena_guano":29,"pct_basura_formal":0,"pct_basura_quema":100,"pct_basura_informal":0,"pct_internet":57,"pct_celular":100,"pct_televisor":86}}]}