{"type":"FeatureCollection","features":[{"type":"Feature","geometry":{"type":"Polygon","coordinates":[[[-65.86628,-17.60049],[-65.86628,-17.59995],[-65.86548,-17.59993],[-65.86548,-17.60048],[-65.86628,-17.60049]]]},"properties":{"n":"ARAMASI","p":33,"personas_x_ha":64,"masculinidad":83,"pct_menor20":39,"pct_60mas":12,"pct_migrante":79,"dependencia_econ":200,"pct_empleados":27,"pct_cuentapropia":55,"pct_agricultura":64,"pct_comercio":0,"pct_manufactura":0,"pct_construccion":36,"pct_transporte":0,"pct_alojamiento":0,"pct_educ_superior":5,"brecha_educ":-34,"pct_sin_seguro":27,"pct_seguro_privado":0,"brecha_seguro":-10,"pct_med_tradicional":4,"pct_automedicacion":19,"pct_remedios_caseros":38,"pct_viv_desocupada":0,"pct_alquiler":0,"pct_electricidad":100,"pct_agua_red":100,"pct_alcantarillado":36,"pct_gas_red":0,"pct_gas_garrafa":100,"pct_lena_guano":100,"pct_basura_formal":0,"pct_basura_quema":93,"pct_basura_informal":0,"pct_internet":36,"pct_celular":50,"pct_televisor":29}},{"type":"Feature","geometry":{"type":"Polygon","coordinates":[[[-65.87273,-17.60184],[-65.87248,-17.60069],[-65.87195,-17.6008],[-65.87216,-17.60195],[-65.87273,-17.60184]]]},"properties":{"n":"ARAMASI","p":32,"personas_x_ha":41,"masculinidad":100,"pct_menor20":56,"pct_60mas":3,"pct_migrante":75,"dependencia_econ":244,"pct_empleados":22,"pct_cuentapropia":67,"pct_agricultura":11,"pct_comercio":11,"pct_manufactura":11,"pct_construccion":11,"pct_transporte":44,"pct_alojamiento":0,"pct_educ_superior":13,"brecha_educ":-34,"pct_sin_seguro":19,"pct_seguro_privado":0,"brecha_seguro":14,"pct_med_tradicional":9,"pct_automedicacion":25,"pct_remedios_caseros":25,"pct_viv_desocupada":47,"pct_alquiler":0,"pct_electricidad":100,"pct_agua_red":57,"pct_alcantarillado":0,"pct_gas_red":14,"pct_gas_garrafa":86,"pct_lena_guano":86,"pct_basura_formal":29,"pct_basura_quema":71,"pct_basura_informal":0,"pct_internet":71,"pct_celular":86,"pct_televisor":100}},{"type":"Feature","geometry":{"type":"Polygon","coordinates":[[[-65.88225,-17.603],[-65.88168,-17.60306],[-65.88193,-17.60465],[-65.88249,-17.60456],[-65.88225,-17.603]]]},"properties":{"n":"ARAMASI","p":40,"personas_x_ha":37,"masculinidad":90,"pct_menor20":40,"pct_60mas":5,"pct_migrante":85,"dependencia_econ":90,"pct_empleados":52,"pct_cuentapropia":43,"pct_agricultura":24,"pct_comercio":19,"pct_manufactura":24,"pct_construccion":19,"pct_transporte":0,"pct_alojamiento":5,"pct_educ_superior":25,"brecha_educ":-20,"pct_sin_seguro":10,"pct_seguro_privado":0,"brecha_seguro":-19,"pct_med_tradicional":8,"pct_automedicacion":25,"pct_remedios_caseros":16,"pct_viv_desocupada":4,"pct_alquiler":5,"pct_electricidad":95,"pct_agua_red":60,"pct_alcantarillado":0,"pct_gas_red":30,"pct_gas_garrafa":60,"pct_lena_guano":60,"pct_basura_formal":20,"pct_basura_quema":75,"pct_basura_informal":10,"pct_internet":70,"pct_celular":95,"pct_televisor":70}},{"type":"Feature","geometry":{"type":"Polygon","coordinates":[[[-65.8715,-17.59932],[-65.8713,-17.59818],[-65.8707,-17.59815],[-65.87095,-17.59942],[-65.8715,-17.59932]]]},"properties":{"n":"ARAMASI","p":34,"personas_x_ha":41,"masculinidad":89,"pct_menor20":38,"pct_60mas":9,"pct_migrante":68,"dependencia_econ":57,"pct_empleados":19,"pct_cuentapropia":52,"pct_agricultura":24,"pct_comercio":10,"pct_manufactura":5,"pct_construccion":33,"pct_transporte":14,"pct_alojamiento":0,"pct_educ_superior":39,"brecha_educ":-17,"pct_sin_seguro":0,"pct_seguro_privado":0,"brecha_seguro":0,"pct_med_tradicional":8,"pct_automedicacion":18,"pct_remedios_caseros":26,"pct_viv_desocupada":25,"pct_alquiler":0,"pct_electricidad":80,"pct_agua_red":47,"pct_alcantarillado":0,"pct_gas_red":33,"pct_gas_garrafa":67,"pct_lena_guano":67,"pct_basura_formal":33,"pct_basura_quema":60,"pct_basura_informal":0,"pct_internet":100,"pct_celular":100,"pct_televisor":73}},{"type":"Feature","geometry":{"type":"Polygon","coordinates":[[[-65.86408,-17.60045],[-65.86536,-17.60047],[-65.86538,-17.59993],[-65.86409,-17.59989],[-65.86408,-17.60045]]]},"properties":{"n":"ARAMASI","p":49,"personas_x_ha":59,"masculinidad":104,"pct_menor20":55,"pct_60mas":6,"pct_migrante":82,"dependencia_econ":96,"pct_empleados":28,"pct_cuentapropia":72,"pct_agricultura":20,"pct_comercio":20,"pct_manufactura":20,"pct_construccion":8,"pct_transporte":8,"pct_alojamiento":8,"pct_educ_superior":5,"brecha_educ":-36,"pct_sin_seguro":12,"pct_seguro_privado":0,"brecha_seguro":8,"pct_med_tradicional":5,"pct_automedicacion":21,"pct_remedios_caseros":35,"pct_viv_desocupada":0,"pct_alquiler":0,"pct_electricidad":100,"pct_agua_red":16,"pct_alcantarillado":0,"pct_gas_red":0,"pct_gas_garrafa":95,"pct_lena_guano":95,"pct_basura_formal":11,"pct_basura_quema":89,"pct_basura_informal":0,"pct_internet":68,"pct_celular":89,"pct_televisor":58}},{"type":"Feature","geometry":{"type":"Polygon","coordinates":[[[-65.88045,-17.60486],[-65.88021,-17.60338],[-65.87966,-17.60348],[-65.87989,-17.60495],[-65.88045,-17.60486]]]},"properties":{"n":"ARAMASI","p":31,"personas_x_ha":31,"masculinidad":107,"pct_menor20":52,"pct_60mas":6,"pct_migrante":65,"dependencia_econ":131,"pct_empleados":23,"pct_cuentapropia":46,"pct_agricultura":62,"pct_comercio":8,"pct_manufactura":15,"pct_construccion":23,"pct_transporte":0,"pct_alojamiento":0,"pct_educ_superior":7,"brecha_educ":-27,"pct_sin_seguro":23,"pct_seguro_privado":0,"brecha_seguro":-10,"pct_med_tradicional":10,"pct_automedicacion":19,"pct_remedios_caseros":28,"pct_viv_desocupada":16,"pct_alquiler":0,"pct_electricidad":92,"pct_agua_red":42,"pct_alcantarillado":25,"pct_gas_red":0,"pct_gas_garrafa":92,"pct_lena_guano":92,"pct_basura_formal":8,"pct_basura_quema":92,"pct_basura_informal":0,"pct_internet":83,"pct_celular":92,"pct_televisor":33}},{"type":"Feature","geometry":{"type":"Polygon","coordinates":[[[-65.86175,-17.59765],[-65.86098,-17.59763],[-65.86107,-17.59828],[-65.86174,-17.59829],[-65.86175,-17.59765]]]},"properties":{"n":"ARAMASI","p":19,"personas_x_ha":35,"masculinidad":90,"pct_menor20":42,"pct_60mas":5,"pct_migrante":89,"dependencia_econ":171,"pct_empleados":43,"pct_cuentapropia":57,"pct_agricultura":14,"pct_comercio":71,"pct_manufactura":0,"pct_construccion":0,"pct_transporte":29,"pct_alojamiento":0,"pct_educ_superior":17,"brecha_educ":-38,"pct_sin_seguro":16,"pct_seguro_privado":0,"brecha_seguro":12,"pct_med_tradicional":3,"pct_automedicacion":15,"pct_remedios_caseros":18,"pct_viv_desocupada":0,"pct_alquiler":0,"pct_electricidad":86,"pct_agua_red":86,"pct_alcantarillado":0,"pct_gas_red":0,"pct_gas_garrafa":100,"pct_lena_guano":100,"pct_basura_formal":43,"pct_basura_quema":57,"pct_basura_informal":0,"pct_internet":29,"pct_celular":100,"pct_televisor":71}},{"type":"Feature","geometry":{"type":"Polygon","coordinates":[[[-65.87711,-17.6024],[-65.87687,-17.60125],[-65.8763,-17.60135],[-65.87654,-17.60251],[-65.87711,-17.6024]]]},"properties":{"n":"ARAMASI","p":18,"personas_x_ha":22,"masculinidad":80,"pct_menor20":61,"pct_60mas":11,"pct_migrante":39,"dependencia_econ":100,"pct_empleados":22,"pct_cuentapropia":33,"pct_agricultura":44,"pct_comercio":0,"pct_manufactura":33,"pct_construccion":0,"pct_transporte":22,"pct_alojamiento":0,"pct_educ_superior":0,"brecha_educ":-25,"pct_sin_seguro":11,"pct_seguro_privado":0,"brecha_seguro":25,"pct_med_tradicional":10,"pct_automedicacion":22,"pct_remedios_caseros":24,"pct_viv_desocupada":65,"pct_alquiler":14,"pct_electricidad":100,"pct_agua_red":14,"pct_alcantarillado":0,"pct_gas_red":0,"pct_gas_garrafa":100,"pct_lena_guano":100,"pct_basura_formal":14,"pct_basura_quema":71,"pct_basura_informal":29,"pct_internet":57,"pct_celular":71,"pct_televisor":57}},{"type":"Feature","geometry":{"type":"Polygon","coordinates":[[[-65.86408,-17.59778],[-65.8628,-17.59771],[-65.86278,-17.59833],[-65.86404,-17.59837],[-65.86408,-17.59778]]]},"properties":{"n":"ARAMASI","p":25,"personas_x_ha":28,"masculinidad":79,"pct_menor20":32,"pct_60mas":8,"pct_migrante":76,"dependencia_econ":108,"pct_empleados":42,"pct_cuentapropia":42,"pct_agricultura":17,"pct_comercio":0,"pct_manufactura":17,"pct_construccion":0,"pct_transporte":33,"pct_alojamiento":25,"pct_educ_superior":16,"brecha_educ":-17,"pct_sin_seguro":0,"pct_seguro_privado":0,"brecha_seguro":0,"pct_med_tradicional":6,"pct_automedicacion":21,"pct_remedios_caseros":27,"pct_viv_desocupada":0,"pct_alquiler":0,"pct_electricidad":85,"pct_agua_red":77,"pct_alcantarillado":0,"pct_gas_red":0,"pct_gas_garrafa":92,"pct_lena_guano":92,"pct_basura_formal":15,"pct_basura_quema":77,"pct_basura_informal":0,"pct_internet":62,"pct_celular":77,"pct_televisor":69}},{"type":"Feature","geometry":{"type":"Polygon","coordinates":[[[-65.87551,-17.60426],[-65.87575,-17.60549],[-65.87632,-17.6054],[-65.87609,-17.60414],[-65.87551,-17.60426]]]},"properties":{"n":"ARAMASI","p":18,"personas_x_ha":21,"masculinidad":157,"pct_menor20":22,"pct_60mas":0,"pct_migrante":72,"dependencia_econ":42,"pct_empleados":42,"pct_cuentapropia":58,"pct_agricultura":17,"pct_comercio":8,"pct_manufactura":25,"pct_construccion":25,"pct_transporte":0,"pct_alojamiento":25,"pct_educ_superior":8,"brecha_educ":-20,"pct_sin_seguro":25,"pct_seguro_privado":0,"brecha_seguro":7,"pct_med_tradicional":25,"pct_automedicacion":23,"pct_remedios_caseros":13,"pct_viv_desocupada":50,"pct_alquiler":0,"pct_electricidad":78,"pct_agua_red":100,"pct_alcantarillado":22,"pct_gas_red":0,"pct_gas_garrafa":33,"pct_lena_guano":33,"pct_basura_formal":0,"pct_basura_quema":67,"pct_basura_informal":0,"pct_internet":67,"pct_celular":78,"pct_televisor":22}},{"type":"Feature","geometry":{"type":"Polygon","coordinates":[[[-65.87684,-17.60386],[-65.87739,-17.60378],[-65.87712,-17.60257],[-65.87657,-17.60267],[-65.87684,-17.60386]]]},"properties":{"n":"ARAMASI","p":18,"personas_x_ha":22,"masculinidad":80,"pct_menor20":44,"pct_60mas":6,"pct_migrante":61,"dependencia_econ":100,"pct_empleados":33,"pct_cuentapropia":56,"pct_agricultura":67,"pct_comercio":0,"pct_manufactura":11,"pct_construccion":0,"pct_transporte":0,"pct_alojamiento":0,"pct_educ_superior":10,"brecha_educ":17,"pct_sin_seguro":11,"pct_seguro_privado":0,"brecha_seguro":3,"pct_med_tradicional":6,"pct_automedicacion":21,"pct_remedios_caseros":24,"pct_viv_desocupada":36,"pct_alquiler":12,"pct_electricidad":75,"pct_agua_red":100,"pct_alcantarillado":0,"pct_gas_red":0,"pct_gas_garrafa":100,"pct_lena_guano":100,"pct_basura_formal":0,"pct_basura_quema":100,"pct_basura_informal":0,"pct_internet":100,"pct_celular":100,"pct_televisor":12}},{"type":"Feature","geometry":{"type":"Polygon","coordinates":[[[-65.8733,-17.60054],[-65.87355,-17.60173],[-65.87411,-17.60163],[-65.8739,-17.60044],[-65.8733,-17.60054]]]},"properties":{"n":"ARAMASI","p":15,"personas_x_ha":17,"masculinidad":150,"pct_menor20":33,"pct_60mas":7,"pct_migrante":60,"dependencia_econ":400,"pct_empleados":0,"pct_cuentapropia":100,"pct_agricultura":67,"pct_comercio":0,"pct_manufactura":0,"pct_construccion":33,"pct_transporte":0,"pct_alojamiento":33,"pct_educ_superior":30,"brecha_educ":-57,"pct_sin_seguro":36,"pct_seguro_privado":0,"brecha_seguro":-25,"pct_med_tradicional":19,"pct_automedicacion":17,"pct_remedios_caseros":21,"pct_viv_desocupada":17,"pct_alquiler":0,"pct_electricidad":90,"pct_agua_red":10,"pct_alcantarillado":0,"pct_gas_red":0,"pct_gas_garrafa":80,"pct_lena_guano":80,"pct_basura_formal":0,"pct_basura_quema":70,"pct_basura_informal":40,"pct_internet":70,"pct_celular":70,"pct_televisor":50}},{"type":"Feature","geometry":{"type":"Polygon","coordinates":[[[-65.88581,-17.59955],[-65.88525,-17.59966],[-65.88549,-17.6008],[-65.88605,-17.60072],[-65.88581,-17.59955]]]},"properties":{"n":"ARAMASI","p":39,"personas_x_ha":49,"masculinidad":160,"pct_menor20":41,"pct_60mas":5,"pct_migrante":97,"dependencia_econ":179,"pct_empleados":43,"pct_cuentapropia":57,"pct_agricultura":57,"pct_comercio":21,"pct_manufactura":14,"pct_construccion":14,"pct_transporte":7,"pct_alojamiento":7,"pct_educ_superior":17,"brecha_educ":-51,"pct_sin_seguro":13,"pct_seguro_privado":0,"brecha_seguro":-1,"pct_med_tradicional":9,"pct_automedicacion":21,"pct_remedios_caseros":24,"pct_viv_desocupada":0,"pct_alquiler":11,"pct_electricidad":100,"pct_agua_red":53,"pct_alcantarillado":0,"pct_gas_red":11,"pct_gas_garrafa":84,"pct_lena_guano":84,"pct_basura_formal":5,"pct_basura_quema":89,"pct_basura_informal":0,"pct_internet":68,"pct_celular":95,"pct_televisor":58}},{"type":"Feature","geometry":{"type":"Polygon","coordinates":[[[-65.86541,-17.59854],[-65.86414,-17.59851],[-65.86413,-17.59907],[-65.86538,-17.59912],[-65.86541,-17.59854]]]},"properties":{"n":"ARAMASI","p":23,"personas_x_ha":27,"masculinidad":92,"pct_menor20":30,"pct_60mas":4,"pct_migrante":87,"dependencia_econ":44,"pct_empleados":50,"pct_cuentapropia":44,"pct_agricultura":56,"pct_comercio":0,"pct_manufactura":12,"pct_construccion":19,"pct_transporte":6,"pct_alojamiento":6,"pct_educ_superior":6,"brecha_educ":17,"pct_sin_seguro":0,"pct_seguro_privado":0,"brecha_seguro":0,"pct_med_tradicional":8,"pct_automedicacion":21,"pct_remedios_caseros":23,"pct_viv_desocupada":55,"pct_alquiler":0,"pct_electricidad":90,"pct_agua_red":0,"pct_alcantarillado":0,"pct_gas_red":0,"pct_gas_garrafa":90,"pct_lena_guano":90,"pct_basura_formal":0,"pct_basura_quema":90,"pct_basura_informal":0,"pct_internet":60,"pct_celular":100,"pct_televisor":70}},{"type":"Feature","geometry":{"type":"Polygon","coordinates":[[[-65.87575,-17.59867],[-65.87599,-17.59987],[-65.87656,-17.59977],[-65.87633,-17.59859],[-65.87575,-17.59867]]]},"properties":{"n":"ARAMASI","p":33,"personas_x_ha":40,"masculinidad":94,"pct_menor20":52,"pct_60mas":0,"pct_migrante":97,"dependencia_econ":120,"pct_empleados":53,"pct_cuentapropia":33,"pct_agricultura":53,"pct_comercio":13,"pct_manufactura":7,"pct_construccion":20,"pct_transporte":0,"pct_alojamiento":40,"pct_educ_superior":6,"brecha_educ":-8,"pct_sin_seguro":0,"pct_seguro_privado":0,"brecha_seguro":0,"pct_med_tradicional":0,"pct_automedicacion":0,"pct_remedios_caseros":0,"pct_viv_desocupada":29,"pct_alquiler":0,"pct_electricidad":83,"pct_agua_red":0,"pct_alcantarillado":8,"pct_gas_red":0,"pct_gas_garrafa":83,"pct_lena_guano":83,"pct_basura_formal":0,"pct_basura_quema":100,"pct_basura_informal":0,"pct_internet":58,"pct_celular":92,"pct_televisor":58}},{"type":"Feature","geometry":{"type":"Polygon","coordinates":[[[-65.87009,-17.59882],[-65.87021,-17.59955],[-65.87079,-17.59946],[-65.87064,-17.59871],[-65.87009,-17.59882]]]},"properties":{"n":"ARAMASI","p":18,"personas_x_ha":35,"masculinidad":80,"pct_menor20":39,"pct_60mas":0,"pct_migrante":61,"dependencia_econ":55,"pct_empleados":64,"pct_cuentapropia":18,"pct_agricultura":18,"pct_comercio":9,"pct_manufactura":9,"pct_construccion":18,"pct_transporte":0,"pct_alojamiento":9,"pct_educ_superior":27,"brecha_educ":11,"pct_sin_seguro":6,"pct_seguro_privado":0,"brecha_seguro":14,"pct_med_tradicional":18,"pct_automedicacion":25,"pct_remedios_caseros":12,"pct_viv_desocupada":21,"pct_alquiler":10,"pct_electricidad":100,"pct_agua_red":100,"pct_alcantarillado":0,"pct_gas_red":40,"pct_gas_garrafa":50,"pct_lena_guano":50,"pct_basura_formal":10,"pct_basura_quema":60,"pct_basura_informal":0,"pct_internet":70,"pct_celular":100,"pct_televisor":60}},{"type":"Feature","geometry":{"type":"Polygon","coordinates":[[[-65.8759,-17.6028],[-65.87614,-17.604],[-65.87672,-17.60389],[-65.87649,-17.6027],[-65.8759,-17.6028]]]},"properties":{"n":"ARAMASI","p":20,"personas_x_ha":23,"masculinidad":100,"pct_menor20":35,"pct_60mas":5,"pct_migrante":70,"dependencia_econ":67,"pct_empleados":17,"pct_cuentapropia":83,"pct_agricultura":17,"pct_comercio":42,"pct_manufactura":8,"pct_construccion":17,"pct_transporte":0,"pct_alojamiento":8,"pct_educ_superior":15,"brecha_educ":-25,"pct_sin_seguro":20,"pct_seguro_privado":0,"brecha_seguro":0,"pct_med_tradicional":15,"pct_automedicacion":23,"pct_remedios_caseros":29,"pct_viv_desocupada":21,"pct_alquiler":0,"pct_electricidad":80,"pct_agua_red":10,"pct_alcantarillado":0,"pct_gas_red":0,"pct_gas_garrafa":80,"pct_lena_guano":80,"pct_basura_formal":10,"pct_basura_quema":90,"pct_basura_informal":0,"pct_internet":70,"pct_celular":90,"pct_televisor":30}},{"type":"Feature","geometry":{"type":"Polygon","coordinates":[[[-65.88497,-17.60231],[-65.88473,-17.60112],[-65.88418,-17.60123],[-65.88441,-17.60242],[-65.88497,-17.60231]]]},"properties":{"n":"ARAMASI","p":32,"personas_x_ha":39,"masculinidad":88,"pct_menor20":47,"pct_60mas":3,"pct_migrante":81,"dependencia_econ":88,"pct_empleados":12,"pct_cuentapropia":75,"pct_agricultura":12,"pct_comercio":6,"pct_manufactura":6,"pct_construccion":38,"pct_transporte":6,"pct_alojamiento":6,"pct_educ_superior":12,"brecha_educ":-20,"pct_sin_seguro":31,"pct_seguro_privado":0,"brecha_seguro":36,"pct_med_tradicional":9,"pct_automedicacion":18,"pct_remedios_caseros":23,"pct_viv_desocupada":0,"pct_alquiler":0,"pct_electricidad":93,"pct_agua_red":53,"pct_alcantarillado":7,"pct_gas_red":27,"pct_gas_garrafa":73,"pct_lena_guano":73,"pct_basura_formal":33,"pct_basura_quema":60,"pct_basura_informal":0,"pct_internet":73,"pct_celular":87,"pct_televisor":80}},{"type":"Feature","geometry":{"type":"Polygon","coordinates":[[[-65.87898,-17.60361],[-65.87921,-17.60502],[-65.87978,-17.60495],[-65.87955,-17.6035],[-65.87898,-17.60361]]]},"properties":{"n":"ARAMASI","p":43,"personas_x_ha":44,"masculinidad":105,"pct_menor20":49,"pct_60mas":0,"pct_migrante":72,"dependencia_econ":207,"pct_empleados":36,"pct_cuentapropia":43,"pct_agricultura":36,"pct_comercio":14,"pct_manufactura":21,"pct_construccion":14,"pct_transporte":7,"pct_alojamiento":7,"pct_educ_superior":23,"brecha_educ":-7,"pct_sin_seguro":30,"pct_seguro_privado":0,"brecha_seguro":31,"pct_med_tradicional":1,"pct_automedicacion":38,"pct_remedios_caseros":29,"pct_viv_desocupada":0,"pct_alquiler":0,"pct_electricidad":81,"pct_agua_red":75,"pct_alcantarillado":0,"pct_gas_red":0,"pct_gas_garrafa":88,"pct_lena_guano":88,"pct_basura_formal":6,"pct_basura_quema":94,"pct_basura_informal":0,"pct_internet":75,"pct_celular":88,"pct_televisor":44}},{"type":"Feature","geometry":{"type":"Polygon","coordinates":[[[-65.87484,-17.60162],[-65.8743,-17.60172],[-65.87455,-17.60288],[-65.87509,-17.60277],[-65.87484,-17.60162]]]},"properties":{"n":"ARAMASI","p":32,"personas_x_ha":41,"masculinidad":45,"pct_menor20":41,"pct_60mas":3,"pct_migrante":28,"dependencia_econ":167,"pct_empleados":33,"pct_cuentapropia":58,"pct_agricultura":17,"pct_comercio":0,"pct_manufactura":8,"pct_construccion":17,"pct_transporte":8,"pct_alojamiento":0,"pct_educ_superior":16,"brecha_educ":-38,"pct_sin_seguro":12,"pct_seguro_privado":0,"brecha_seguro":25,"pct_med_tradicional":19,"pct_automedicacion":22,"pct_remedios_caseros":23,"pct_viv_desocupada":5,"pct_alquiler":0,"pct_electricidad":71,"pct_agua_red":71,"pct_alcantarillado":7,"pct_gas_red":0,"pct_gas_garrafa":100,"pct_lena_guano":100,"pct_basura_formal":0,"pct_basura_quema":93,"pct_basura_informal":0,"pct_internet":57,"pct_celular":79,"pct_televisor":36}},{"type":"Feature","geometry":{"type":"Polygon","coordinates":[[[-65.87265,-17.60065],[-65.87287,-17.60185],[-65.87343,-17.60175],[-65.87319,-17.60056],[-65.87265,-17.60065]]]},"properties":{"n":"ARAMASI","p":22,"personas_x_ha":27,"masculinidad":144,"pct_menor20":41,"pct_60mas":5,"pct_migrante":82,"dependencia_econ":83,"pct_empleados":17,"pct_cuentapropia":83,"pct_agricultura":33,"pct_comercio":25,"pct_manufactura":8,"pct_construccion":25,"pct_transporte":8,"pct_alojamiento":0,"pct_educ_superior":8,"brecha_educ":-50,"pct_sin_seguro":5,"pct_seguro_privado":5,"brecha_seguro":-11,"pct_med_tradicional":9,"pct_automedicacion":22,"pct_remedios_caseros":29,"pct_viv_desocupada":13,"pct_alquiler":0,"pct_electricidad":83,"pct_agua_red":100,"pct_alcantarillado":0,"pct_gas_red":0,"pct_gas_garrafa":92,"pct_lena_guano":92,"pct_basura_formal":0,"pct_basura_quema":92,"pct_basura_informal":0,"pct_internet":67,"pct_celular":92,"pct_televisor":33}},{"type":"Feature","geometry":{"type":"Polygon","coordinates":[[[-65.88377,-17.60267],[-65.88403,-17.60432],[-65.8846,-17.60425],[-65.88432,-17.60259],[-65.88377,-17.60267]]]},"properties":{"n":"ARAMASI","p":55,"personas_x_ha":49,"masculinidad":62,"pct_menor20":42,"pct_60mas":4,"pct_migrante":84,"dependencia_econ":130,"pct_empleados":22,"pct_cuentapropia":70,"pct_agricultura":61,"pct_comercio":22,"pct_manufactura":0,"pct_construccion":9,"pct_transporte":0,"pct_alojamiento":13,"pct_educ_superior":16,"brecha_educ":-26,"pct_sin_seguro":4,"pct_seguro_privado":0,"brecha_seguro":-6,"pct_med_tradicional":7,"pct_automedicacion":23,"pct_remedios_caseros":24,"pct_viv_desocupada":17,"pct_alquiler":8,"pct_electricidad":96,"pct_agua_red":83,"pct_alcantarillado":0,"pct_gas_red":54,"pct_gas_garrafa":38,"pct_lena_guano":38,"pct_basura_formal":17,"pct_basura_quema":79,"pct_basura_informal":0,"pct_internet":96,"pct_celular":96,"pct_televisor":75}},{"type":"Feature","geometry":{"type":"Polygon","coordinates":[[[-65.86529,-17.60181],[-65.86536,-17.6006],[-65.86477,-17.60058],[-65.86475,-17.6018],[-65.86529,-17.60181]]]},"properties":{"n":"ARAMASI","p":20,"personas_x_ha":25,"masculinidad":122,"pct_menor20":55,"pct_60mas":0,"pct_migrante":80,"dependencia_econ":138,"pct_empleados":50,"pct_cuentapropia":50,"pct_agricultura":25,"pct_comercio":0,"pct_manufactura":12,"pct_construccion":12,"pct_transporte":0,"pct_alojamiento":38,"pct_educ_superior":12,"brecha_educ":27,"pct_sin_seguro":26,"pct_seguro_privado":0,"brecha_seguro":8,"pct_med_tradicional":0,"pct_automedicacion":10,"pct_remedios_caseros":34,"pct_viv_desocupada":0,"pct_alquiler":0,"pct_electricidad":100,"pct_agua_red":29,"pct_alcantarillado":0,"pct_gas_red":0,"pct_gas_garrafa":100,"pct_lena_guano":100,"pct_basura_formal":0,"pct_basura_quema":100,"pct_basura_informal":0,"pct_internet":86,"pct_celular":100,"pct_televisor":57}},{"type":"Feature","geometry":{"type":"Polygon","coordinates":[[[-65.86531,-17.6045],[-65.86527,-17.60313],[-65.86461,-17.60314],[-65.86467,-17.60453],[-65.86531,-17.6045]]]},"properties":{"n":"ARAMASI","p":29,"personas_x_ha":27,"masculinidad":93,"pct_menor20":38,"pct_60mas":10,"pct_migrante":72,"dependencia_econ":142,"pct_empleados":42,"pct_cuentapropia":42,"pct_agricultura":42,"pct_comercio":25,"pct_manufactura":17,"pct_construccion":33,"pct_transporte":8,"pct_alojamiento":0,"pct_educ_superior":11,"brecha_educ":26,"pct_sin_seguro":10,"pct_seguro_privado":3,"brecha_seguro":8,"pct_med_tradicional":9,"pct_automedicacion":23,"pct_remedios_caseros":23,"pct_viv_desocupada":18,"pct_alquiler":8,"pct_electricidad":83,"pct_agua_red":50,"pct_alcantarillado":17,"pct_gas_red":0,"pct_gas_garrafa":67,"pct_lena_guano":67,"pct_basura_formal":8,"pct_basura_quema":67,"pct_basura_informal":0,"pct_internet":75,"pct_celular":83,"pct_televisor":75}},{"type":"Feature","geometry":{"type":"Polygon","coordinates":[[[-65.8714,-17.59818],[-65.87163,-17.59928],[-65.87219,-17.59918],[-65.87198,-17.5982],[-65.8714,-17.59818]]]},"properties":{"n":"ARAMASI","p":18,"personas_x_ha":25,"masculinidad":64,"pct_menor20":39,"pct_60mas":0,"pct_migrante":44,"dependencia_econ":100,"pct_empleados":0,"pct_cuentapropia":100,"pct_agricultura":11,"pct_comercio":33,"pct_manufactura":11,"pct_construccion":33,"pct_transporte":11,"pct_alojamiento":0,"pct_educ_superior":9,"brecha_educ":63,"pct_sin_seguro":11,"pct_seguro_privado":0,"brecha_seguro":5,"pct_med_tradicional":12,"pct_automedicacion":29,"pct_remedios_caseros":17,"pct_viv_desocupada":38,"pct_alquiler":0,"pct_electricidad":80,"pct_agua_red":70,"pct_alcantarillado":0,"pct_gas_red":0,"pct_gas_garrafa":90,"pct_lena_guano":90,"pct_basura_formal":0,"pct_basura_quema":70,"pct_basura_informal":0,"pct_internet":100,"pct_celular":100,"pct_televisor":80}},{"type":"Feature","geometry":{"type":"Polygon","coordinates":[[[-65.87647,-17.60538],[-65.87619,-17.60414],[-65.87676,-17.60404],[-65.877,-17.60529],[-65.87647,-17.60538]]]},"properties":{"n":"ARAMASI","p":35,"personas_x_ha":41,"masculinidad":94,"pct_menor20":43,"pct_60mas":6,"pct_migrante":46,"dependencia_econ":94,"pct_empleados":6,"pct_cuentapropia":83,"pct_agricultura":17,"pct_comercio":39,"pct_manufactura":0,"pct_construccion":17,"pct_transporte":0,"pct_alojamiento":6,"pct_educ_superior":30,"brecha_educ":-10,"pct_sin_seguro":6,"pct_seguro_privado":0,"brecha_seguro":0,"pct_med_tradicional":6,"pct_automedicacion":27,"pct_remedios_caseros":24,"pct_viv_desocupada":26,"pct_alquiler":7,"pct_electricidad":64,"pct_agua_red":7,"pct_alcantarillado":0,"pct_gas_red":0,"pct_gas_garrafa":64,"pct_lena_guano":64,"pct_basura_formal":14,"pct_basura_quema":79,"pct_basura_informal":0,"pct_internet":79,"pct_celular":86,"pct_televisor":50}},{"type":"Feature","geometry":{"type":"Polygon","coordinates":[[[-65.8767,-17.59989],[-65.87696,-17.60109],[-65.87755,-17.60097],[-65.87724,-17.59978],[-65.8767,-17.59989]]]},"properties":{"n":"ARAMASI","p":31,"personas_x_ha":37,"masculinidad":63,"pct_menor20":55,"pct_60mas":3,"pct_migrante":74,"dependencia_econ":210,"pct_empleados":50,"pct_cuentapropia":40,"pct_agricultura":10,"pct_comercio":50,"pct_manufactura":10,"pct_construccion":0,"pct_transporte":0,"pct_alojamiento":20,"pct_educ_superior":13,"brecha_educ":17,"pct_sin_seguro":6,"pct_seguro_privado":0,"brecha_seguro":-11,"pct_med_tradicional":9,"pct_automedicacion":26,"pct_remedios_caseros":26,"pct_viv_desocupada":31,"pct_alquiler":0,"pct_electricidad":91,"pct_agua_red":0,"pct_alcantarillado":9,"pct_gas_red":0,"pct_gas_garrafa":82,"pct_lena_guano":82,"pct_basura_formal":0,"pct_basura_quema":100,"pct_basura_informal":0,"pct_internet":73,"pct_celular":82,"pct_televisor":55}},{"type":"Feature","geometry":{"type":"Polygon","coordinates":[[[-65.86536,-17.59978],[-65.8654,-17.59923],[-65.86412,-17.59919],[-65.86409,-17.59975],[-65.86536,-17.59978]]]},"properties":{"n":"ARAMASI","p":33,"personas_x_ha":40,"masculinidad":106,"pct_menor20":45,"pct_60mas":0,"pct_migrante":61,"dependencia_econ":136,"pct_empleados":43,"pct_cuentapropia":36,"pct_agricultura":21,"pct_comercio":14,"pct_manufactura":14,"pct_construccion":14,"pct_transporte":0,"pct_alojamiento":0,"pct_educ_superior":39,"brecha_educ":-28,"pct_sin_seguro":0,"pct_seguro_privado":0,"brecha_seguro":0,"pct_med_tradicional":18,"pct_automedicacion":18,"pct_remedios_caseros":19,"pct_viv_desocupada":26,"pct_alquiler":0,"pct_electricidad":100,"pct_agua_red":50,"pct_alcantarillado":0,"pct_gas_red":0,"pct_gas_garrafa":100,"pct_lena_guano":100,"pct_basura_formal":0,"pct_basura_quema":100,"pct_basura_informal":0,"pct_internet":92,"pct_celular":100,"pct_televisor":75}},{"type":"Feature","geometry":{"type":"Polygon","coordinates":[[[-65.87152,-17.60212],[-65.87127,-17.60095],[-65.87181,-17.60082],[-65.87206,-17.602],[-65.87152,-17.60212]]]},"properties":{"n":"ARAMASI","p":20,"personas_x_ha":25,"masculinidad":150,"pct_menor20":50,"pct_60mas":0,"pct_migrante":75,"dependencia_econ":82,"pct_empleados":9,"pct_cuentapropia":73,"pct_agricultura":9,"pct_comercio":36,"pct_manufactura":0,"pct_construccion":27,"pct_transporte":9,"pct_alojamiento":9,"pct_educ_superior":50,"brecha_educ":-26,"pct_sin_seguro":15,"pct_seguro_privado":0,"brecha_seguro":4,"pct_med_tradicional":7,"pct_automedicacion":22,"pct_remedios_caseros":25,"pct_viv_desocupada":43,"pct_alquiler":0,"pct_electricidad":88,"pct_agua_red":75,"pct_alcantarillado":0,"pct_gas_red":0,"pct_gas_garrafa":100,"pct_lena_guano":100,"pct_basura_formal":38,"pct_basura_quema":62,"pct_basura_informal":0,"pct_internet":88,"pct_celular":100,"pct_televisor":75}},{"type":"Feature","geometry":{"type":"Polygon","coordinates":[[[-65.87429,-17.59883],[-65.87419,-17.59834],[-65.87355,-17.59829],[-65.8737,-17.59894],[-65.87429,-17.59883]]]},"properties":{"n":"ARAMASI","p":18,"personas_x_ha":43,"masculinidad":125,"pct_menor20":33,"pct_60mas":0,"pct_migrante":83,"dependencia_econ":80,"pct_empleados":30,"pct_cuentapropia":60,"pct_agricultura":60,"pct_comercio":0,"pct_manufactura":20,"pct_construccion":10,"pct_transporte":10,"pct_alojamiento":0,"pct_educ_superior":17,"brecha_educ":-38,"pct_sin_seguro":12,"pct_seguro_privado":0,"brecha_seguro":20,"pct_med_tradicional":21,"pct_automedicacion":26,"pct_remedios_caseros":26,"pct_viv_desocupada":0,"pct_alquiler":0,"pct_electricidad":89,"pct_agua_red":100,"pct_alcantarillado":0,"pct_gas_red":0,"pct_gas_garrafa":89,"pct_lena_guano":89,"pct_basura_formal":11,"pct_basura_quema":89,"pct_basura_informal":0,"pct_internet":22,"pct_celular":22,"pct_televisor":11}},{"type":"Feature","geometry":{"type":"Polygon","coordinates":[[[-65.88317,-17.60446],[-65.88292,-17.60287],[-65.88236,-17.60297],[-65.8826,-17.60453],[-65.88317,-17.60446]]]},"properties":{"n":"ARAMASI","p":49,"personas_x_ha":45,"masculinidad":81,"pct_menor20":61,"pct_60mas":0,"pct_migrante":65,"dependencia_econ":227,"pct_empleados":20,"pct_cuentapropia":67,"pct_agricultura":33,"pct_comercio":53,"pct_manufactura":7,"pct_construccion":7,"pct_transporte":7,"pct_alojamiento":0,"pct_educ_superior":18,"brecha_educ":-20,"pct_sin_seguro":13,"pct_seguro_privado":0,"brecha_seguro":-6,"pct_med_tradicional":5,"pct_automedicacion":30,"pct_remedios_caseros":27,"pct_viv_desocupada":8,"pct_alquiler":20,"pct_electricidad":100,"pct_agua_red":100,"pct_alcantarillado":15,"pct_gas_red":50,"pct_gas_garrafa":45,"pct_lena_guano":45,"pct_basura_formal":15,"pct_basura_quema":80,"pct_basura_informal":10,"pct_internet":65,"pct_celular":70,"pct_televisor":45}},{"type":"Feature","geometry":{"type":"Polygon","coordinates":[[[-65.86995,-17.59815],[-65.87004,-17.59871],[-65.87062,-17.5986],[-65.87052,-17.59817],[-65.86995,-17.59815]]]},"properties":{"n":"ARAMASI","p":16,"personas_x_ha":47,"masculinidad":60,"pct_menor20":62,"pct_60mas":6,"pct_migrante":62,"dependencia_econ":700,"pct_empleados":100,"pct_cuentapropia":0,"pct_agricultura":50,"pct_comercio":0,"pct_manufactura":0,"pct_construccion":50,"pct_transporte":0,"pct_alojamiento":0,"pct_educ_superior":17,"brecha_educ":-40,"pct_sin_seguro":0,"pct_seguro_privado":0,"brecha_seguro":0,"pct_med_tradicional":13,"pct_automedicacion":21,"pct_remedios_caseros":27,"pct_viv_desocupada":43,"pct_alquiler":0,"pct_electricidad":75,"pct_agua_red":100,"pct_alcantarillado":0,"pct_gas_red":0,"pct_gas_garrafa":100,"pct_lena_guano":100,"pct_basura_formal":0,"pct_basura_quema":100,"pct_basura_informal":0,"pct_internet":75,"pct_celular":75,"pct_televisor":50}},{"type":"Feature","geometry":{"type":"Polygon","coordinates":[[[-65.87507,-17.59881],[-65.87532,-17.60001],[-65.8759,-17.5999],[-65.87565,-17.5987],[-65.87507,-17.59881]]]},"properties":{"n":"ARAMASI","p":17,"personas_x_ha":20,"masculinidad":143,"pct_menor20":47,"pct_60mas":6,"pct_migrante":71,"dependencia_econ":23,"pct_empleados":15,"pct_cuentapropia":77,"pct_agricultura":85,"pct_comercio":0,"pct_manufactura":0,"pct_construccion":8,"pct_transporte":0,"pct_alojamiento":0,"pct_educ_superior":0,"brecha_educ":-20,"pct_sin_seguro":19,"pct_seguro_privado":0,"brecha_seguro":8,"pct_med_tradicional":18,"pct_automedicacion":21,"pct_remedios_caseros":21,"pct_viv_desocupada":0,"pct_alquiler":11,"pct_electricidad":78,"pct_agua_red":0,"pct_alcantarillado":0,"pct_gas_red":0,"pct_gas_garrafa":89,"pct_lena_guano":89,"pct_basura_formal":0,"pct_basura_quema":100,"pct_basura_informal":0,"pct_internet":78,"pct_celular":89,"pct_televisor":67}},{"type":"Feature","geometry":{"type":"Polygon","coordinates":[[[-65.8847,-17.60099],[-65.88445,-17.59978],[-65.8839,-17.59987],[-65.88414,-17.60109],[-65.8847,-17.60099]]]},"properties":{"n":"ARAMASI","p":47,"personas_x_ha":57,"masculinidad":88,"pct_menor20":40,"pct_60mas":4,"pct_migrante":91,"dependencia_econ":147,"pct_empleados":21,"pct_cuentapropia":74,"pct_agricultura":16,"pct_comercio":5,"pct_manufactura":0,"pct_construccion":11,"pct_transporte":11,"pct_alojamiento":37,"pct_educ_superior":14,"brecha_educ":-18,"pct_sin_seguro":11,"pct_seguro_privado":0,"brecha_seguro":-11,"pct_med_tradicional":14,"pct_automedicacion":11,"pct_remedios_caseros":21,"pct_viv_desocupada":0,"pct_alquiler":5,"pct_electricidad":100,"pct_agua_red":84,"pct_alcantarillado":5,"pct_gas_red":11,"pct_gas_garrafa":89,"pct_lena_guano":89,"pct_basura_formal":5,"pct_basura_quema":84,"pct_basura_informal":11,"pct_internet":42,"pct_celular":79,"pct_televisor":63}},{"type":"Feature","geometry":{"type":"Polygon","coordinates":[[[-65.87374,-17.59907],[-65.87398,-17.60026],[-65.87454,-17.60015],[-65.87429,-17.59897],[-65.87374,-17.59907]]]},"properties":{"n":"ARAMASI","p":19,"personas_x_ha":24,"masculinidad":58,"pct_menor20":42,"pct_60mas":5,"pct_migrante":63,"dependencia_econ":138,"pct_empleados":62,"pct_cuentapropia":38,"pct_agricultura":50,"pct_comercio":0,"pct_manufactura":0,"pct_construccion":12,"pct_transporte":0,"pct_alojamiento":12,"pct_educ_superior":18,"brecha_educ":30,"pct_sin_seguro":11,"pct_seguro_privado":5,"brecha_seguro":29,"pct_med_tradicional":5,"pct_automedicacion":22,"pct_remedios_caseros":25,"pct_viv_desocupada":44,"pct_alquiler":0,"pct_electricidad":90,"pct_agua_red":40,"pct_alcantarillado":0,"pct_gas_red":0,"pct_gas_garrafa":80,"pct_lena_guano":80,"pct_basura_formal":20,"pct_basura_quema":80,"pct_basura_informal":0,"pct_internet":70,"pct_celular":80,"pct_televisor":50}},{"type":"Feature","geometry":{"type":"Polygon","coordinates":[[[-65.88517,-17.6036],[-65.885,-17.60251],[-65.88445,-17.60258],[-65.88473,-17.60423],[-65.88516,-17.60418],[-65.88517,-17.6036]]]},"properties":{"n":"ARAMASI","p":67,"personas_x_ha":63,"masculinidad":97,"pct_menor20":36,"pct_60mas":4,"pct_migrante":87,"dependencia_econ":116,"pct_empleados":42,"pct_cuentapropia":48,"pct_agricultura":29,"pct_comercio":32,"pct_manufactura":3,"pct_construccion":10,"pct_transporte":13,"pct_alojamiento":3,"pct_educ_superior":9,"brecha_educ":-22,"pct_sin_seguro":6,"pct_seguro_privado":0,"brecha_seguro":0,"pct_med_tradicional":8,"pct_automedicacion":15,"pct_remedios_caseros":22,"pct_viv_desocupada":10,"pct_alquiler":4,"pct_electricidad":100,"pct_agua_red":58,"pct_alcantarillado":4,"pct_gas_red":27,"pct_gas_garrafa":73,"pct_lena_guano":73,"pct_basura_formal":12,"pct_basura_quema":77,"pct_basura_informal":0,"pct_internet":58,"pct_celular":77,"pct_televisor":73}},{"type":"Feature","geometry":{"type":"Polygon","coordinates":[[[-65.86645,-17.60051],[-65.86733,-17.60056],[-65.86792,-17.60018],[-65.86775,-17.59999],[-65.86644,-17.59996],[-65.86645,-17.60051]]]},"properties":{"n":"ARAMASI","p":24,"personas_x_ha":28,"masculinidad":71,"pct_menor20":42,"pct_60mas":8,"pct_migrante":75,"dependencia_econ":162,"pct_empleados":100,"pct_cuentapropia":0,"pct_agricultura":12,"pct_comercio":12,"pct_manufactura":25,"pct_construccion":25,"pct_transporte":12,"pct_alojamiento":0,"pct_educ_superior":15,"brecha_educ":-26,"pct_sin_seguro":5,"pct_seguro_privado":0,"brecha_seguro":10,"pct_med_tradicional":10,"pct_automedicacion":28,"pct_remedios_caseros":25,"pct_viv_desocupada":8,"pct_alquiler":0,"pct_electricidad":90,"pct_agua_red":20,"pct_alcantarillado":0,"pct_gas_red":10,"pct_gas_garrafa":80,"pct_lena_guano":80,"pct_basura_formal":20,"pct_basura_quema":80,"pct_basura_informal":0,"pct_internet":60,"pct_celular":70,"pct_televisor":70}},{"type":"Feature","geometry":{"type":"Polygon","coordinates":[[[-65.87286,-17.59906],[-65.8727,-17.59823],[-65.87212,-17.5982],[-65.87232,-17.59917],[-65.87286,-17.59906]]]},"properties":{"n":"ARAMASI","p":21,"personas_x_ha":35,"masculinidad":91,"pct_menor20":52,"pct_60mas":5,"pct_migrante":90,"dependencia_econ":162,"pct_empleados":25,"pct_cuentapropia":62,"pct_agricultura":0,"pct_comercio":12,"pct_manufactura":12,"pct_construccion":0,"pct_transporte":25,"pct_alojamiento":12,"pct_educ_superior":40,"brecha_educ":0,"pct_sin_seguro":20,"pct_seguro_privado":0,"brecha_seguro":-40,"pct_med_tradicional":25,"pct_automedicacion":20,"pct_remedios_caseros":26,"pct_viv_desocupada":40,"pct_alquiler":17,"pct_electricidad":83,"pct_agua_red":100,"pct_alcantarillado":0,"pct_gas_red":0,"pct_gas_garrafa":100,"pct_lena_guano":100,"pct_basura_formal":0,"pct_basura_quema":100,"pct_basura_informal":0,"pct_internet":83,"pct_celular":100,"pct_televisor":50}},{"type":"Feature","geometry":{"type":"Polygon","coordinates":[[[-65.86631,-17.59927],[-65.86553,-17.59926],[-65.86551,-17.5998],[-65.86629,-17.59982],[-65.86631,-17.59927]]]},"properties":{"n":"ARAMASI","p":29,"personas_x_ha":58,"masculinidad":123,"pct_menor20":34,"pct_60mas":0,"pct_migrante":69,"dependencia_econ":79,"pct_empleados":21,"pct_cuentapropia":57,"pct_agricultura":14,"pct_comercio":36,"pct_manufactura":7,"pct_construccion":36,"pct_transporte":0,"pct_alojamiento":0,"pct_educ_superior":6,"brecha_educ":-39,"pct_sin_seguro":56,"pct_seguro_privado":0,"brecha_seguro":19,"pct_med_tradicional":18,"pct_automedicacion":18,"pct_remedios_caseros":16,"pct_viv_desocupada":21,"pct_alquiler":0,"pct_electricidad":73,"pct_agua_red":91,"pct_alcantarillado":9,"pct_gas_red":0,"pct_gas_garrafa":82,"pct_lena_guano":82,"pct_basura_formal":9,"pct_basura_quema":55,"pct_basura_informal":36,"pct_internet":82,"pct_celular":100,"pct_televisor":64}},{"type":"Feature","geometry":{"type":"Polygon","coordinates":[[[-65.88385,-17.60434],[-65.8836,-17.60269],[-65.88305,-17.60279],[-65.88329,-17.60445],[-65.88385,-17.60434]]]},"properties":{"n":"ARAMASI","p":84,"personas_x_ha":74,"masculinidad":87,"pct_menor20":57,"pct_60mas":2,"pct_migrante":77,"dependencia_econ":196,"pct_empleados":43,"pct_cuentapropia":54,"pct_agricultura":29,"pct_comercio":29,"pct_manufactura":4,"pct_construccion":11,"pct_transporte":7,"pct_alojamiento":0,"pct_educ_superior":24,"brecha_educ":-28,"pct_sin_seguro":7,"pct_seguro_privado":0,"brecha_seguro":1,"pct_med_tradicional":4,"pct_automedicacion":31,"pct_remedios_caseros":18,"pct_viv_desocupada":0,"pct_alquiler":0,"pct_electricidad":100,"pct_agua_red":97,"pct_alcantarillado":0,"pct_gas_red":38,"pct_gas_garrafa":62,"pct_lena_guano":62,"pct_basura_formal":10,"pct_basura_quema":86,"pct_basura_informal":0,"pct_internet":79,"pct_celular":100,"pct_televisor":66}},{"type":"Feature","geometry":{"type":"Polygon","coordinates":[[[-65.86275,-17.59903],[-65.86403,-17.59907],[-65.86405,-17.59851],[-65.86277,-17.59847],[-65.86275,-17.59903]]]},"properties":{"n":"ARAMASI","p":32,"personas_x_ha":38,"masculinidad":45,"pct_menor20":47,"pct_60mas":6,"pct_migrante":84,"dependencia_econ":256,"pct_empleados":0,"pct_cuentapropia":100,"pct_agricultura":33,"pct_comercio":11,"pct_manufactura":0,"pct_construccion":11,"pct_transporte":11,"pct_alojamiento":22,"pct_educ_superior":17,"brecha_educ":8,"pct_sin_seguro":0,"pct_seguro_privado":0,"brecha_seguro":0,"pct_med_tradicional":4,"pct_automedicacion":30,"pct_remedios_caseros":34,"pct_viv_desocupada":0,"pct_alquiler":0,"pct_electricidad":80,"pct_agua_red":100,"pct_alcantarillado":0,"pct_gas_red":0,"pct_gas_garrafa":80,"pct_lena_guano":80,"pct_basura_formal":10,"pct_basura_quema":90,"pct_basura_informal":0,"pct_internet":60,"pct_celular":70,"pct_televisor":50}},{"type":"Feature","geometry":{"type":"Polygon","coordinates":[[[-65.86636,-17.60137],[-65.86663,-17.60171],[-65.86682,-17.60174],[-65.86766,-17.60118],[-65.86729,-17.60075],[-65.86636,-17.60137]]]},"properties":{"n":"ARAMASI","p":23,"personas_x_ha":31,"masculinidad":109,"pct_menor20":22,"pct_60mas":13,"pct_migrante":100,"dependencia_econ":77,"pct_empleados":38,"pct_cuentapropia":62,"pct_agricultura":0,"pct_comercio":46,"pct_manufactura":15,"pct_construccion":23,"pct_transporte":0,"pct_alojamiento":8,"pct_educ_superior":16,"brecha_educ":-28,"pct_sin_seguro":4,"pct_seguro_privado":0,"brecha_seguro":8,"pct_med_tradicional":5,"pct_automedicacion":16,"pct_remedios_caseros":16,"pct_viv_desocupada":31,"pct_alquiler":0,"pct_electricidad":89,"pct_agua_red":89,"pct_alcantarillado":0,"pct_gas_red":0,"pct_gas_garrafa":78,"pct_lena_guano":78,"pct_basura_formal":44,"pct_basura_quema":0,"pct_basura_informal":67,"pct_internet":100,"pct_celular":100,"pct_televisor":78}},{"type":"Feature","geometry":{"type":"Polygon","coordinates":[[[-65.88699,-17.60192],[-65.88676,-17.60072],[-65.8862,-17.60083],[-65.88644,-17.60204],[-65.88699,-17.60192]]]},"properties":{"n":"ARAMASI","p":40,"personas_x_ha":49,"masculinidad":100,"pct_menor20":48,"pct_60mas":8,"pct_migrante":95,"dependencia_econ":264,"pct_empleados":73,"pct_cuentapropia":27,"pct_agricultura":18,"pct_comercio":0,"pct_manufactura":36,"pct_construccion":9,"pct_transporte":27,"pct_alojamiento":27,"pct_educ_superior":5,"brecha_educ":-27,"pct_sin_seguro":12,"pct_seguro_privado":0,"brecha_seguro":-5,"pct_med_tradicional":2,"pct_automedicacion":20,"pct_remedios_caseros":31,"pct_viv_desocupada":5,"pct_alquiler":15,"pct_electricidad":95,"pct_agua_red":60,"pct_alcantarillado":0,"pct_gas_red":15,"pct_gas_garrafa":70,"pct_lena_guano":70,"pct_basura_formal":0,"pct_basura_quema":95,"pct_basura_informal":0,"pct_internet":55,"pct_celular":80,"pct_televisor":75}},{"type":"Feature","geometry":{"type":"Polygon","coordinates":[[[-65.87237,-17.6035],[-65.87181,-17.60357],[-65.87203,-17.60478],[-65.87264,-17.60466],[-65.87237,-17.6035]]]},"properties":{"n":"ARAMASI","p":20,"personas_x_ha":23,"masculinidad":82,"pct_menor20":55,"pct_60mas":0,"pct_migrante":75,"dependencia_econ":100,"pct_empleados":70,"pct_cuentapropia":10,"pct_agricultura":70,"pct_comercio":0,"pct_manufactura":0,"pct_construccion":10,"pct_transporte":0,"pct_alojamiento":20,"pct_educ_superior":10,"brecha_educ":-42,"pct_sin_seguro":0,"pct_seguro_privado":0,"brecha_seguro":0,"pct_med_tradicional":11,"pct_automedicacion":13,"pct_remedios_caseros":24,"pct_viv_desocupada":42,"pct_alquiler":0,"pct_electricidad":100,"pct_agua_red":100,"pct_alcantarillado":20,"pct_gas_red":0,"pct_gas_garrafa":100,"pct_lena_guano":100,"pct_basura_formal":0,"pct_basura_quema":100,"pct_basura_informal":0,"pct_internet":40,"pct_celular":40,"pct_televisor":60}},{"type":"Feature","geometry":{"type":"Polygon","coordinates":[[[-65.88683,-17.60059],[-65.88715,-17.60053],[-65.88713,-17.59912],[-65.88681,-17.59917],[-65.88657,-17.59934],[-65.88683,-17.60059]]]},"properties":{"n":"ARAMASI","p":20,"personas_x_ha":27,"masculinidad":150,"pct_menor20":60,"pct_60mas":0,"pct_migrante":100,"dependencia_econ":100,"pct_empleados":30,"pct_cuentapropia":40,"pct_agricultura":20,"pct_comercio":50,"pct_manufactura":20,"pct_construccion":20,"pct_transporte":0,"pct_alojamiento":0,"pct_educ_superior":12,"brecha_educ":-50,"pct_sin_seguro":5,"pct_seguro_privado":0,"brecha_seguro":9,"pct_med_tradicional":0,"pct_automedicacion":0,"pct_remedios_caseros":0,"pct_viv_desocupada":0,"pct_alquiler":14,"pct_electricidad":29,"pct_agua_red":86,"pct_alcantarillado":0,"pct_gas_red":0,"pct_gas_garrafa":86,"pct_lena_guano":86,"pct_basura_formal":29,"pct_basura_quema":71,"pct_basura_informal":0,"pct_internet":71,"pct_celular":71,"pct_televisor":57}},{"type":"Feature","geometry":{"type":"Polygon","coordinates":[[[-65.86551,-17.59911],[-65.86633,-17.59913],[-65.86634,-17.59858],[-65.86553,-17.59855],[-65.86551,-17.59911]]]},"properties":{"n":"ARAMASI","p":20,"personas_x_ha":38,"masculinidad":186,"pct_menor20":40,"pct_60mas":10,"pct_migrante":95,"dependencia_econ":67,"pct_empleados":67,"pct_cuentapropia":33,"pct_agricultura":25,"pct_comercio":8,"pct_manufactura":8,"pct_construccion":33,"pct_transporte":8,"pct_alojamiento":0,"pct_educ_superior":15,"brecha_educ":-35,"pct_sin_seguro":0,"pct_seguro_privado":0,"brecha_seguro":0,"pct_med_tradicional":23,"pct_automedicacion":21,"pct_remedios_caseros":23,"pct_viv_desocupada":23,"pct_alquiler":0,"pct_electricidad":100,"pct_agua_red":100,"pct_alcantarillado":0,"pct_gas_red":0,"pct_gas_garrafa":100,"pct_lena_guano":100,"pct_basura_formal":22,"pct_basura_quema":78,"pct_basura_informal":0,"pct_internet":89,"pct_celular":89,"pct_televisor":67}},{"type":"Feature","geometry":{"type":"Polygon","coordinates":[[[-65.86417,-17.59837],[-65.86544,-17.59841],[-65.86545,-17.59786],[-65.86418,-17.59783],[-65.86417,-17.59837]]]},"properties":{"n":"ARAMASI","p":29,"personas_x_ha":35,"masculinidad":71,"pct_menor20":59,"pct_60mas":0,"pct_migrante":86,"dependencia_econ":142,"pct_empleados":50,"pct_cuentapropia":33,"pct_agricultura":33,"pct_comercio":42,"pct_manufactura":0,"pct_construccion":25,"pct_transporte":0,"pct_alojamiento":8,"pct_educ_superior":0,"brecha_educ":6,"pct_sin_seguro":17,"pct_seguro_privado":0,"brecha_seguro":-1,"pct_med_tradicional":16,"pct_automedicacion":26,"pct_remedios_caseros":24,"pct_viv_desocupada":37,"pct_alquiler":0,"pct_electricidad":83,"pct_agua_red":100,"pct_alcantarillado":0,"pct_gas_red":0,"pct_gas_garrafa":83,"pct_lena_guano":83,"pct_basura_formal":0,"pct_basura_quema":92,"pct_basura_informal":0,"pct_internet":75,"pct_celular":83,"pct_televisor":42}},{"type":"Feature","geometry":{"type":"Polygon","coordinates":[[[-65.86938,-17.59896],[-65.86954,-17.5997],[-65.87011,-17.59959],[-65.86996,-17.59885],[-65.86938,-17.59896]]]},"properties":{"n":"ARAMASI","p":31,"personas_x_ha":59,"masculinidad":94,"pct_menor20":52,"pct_60mas":3,"pct_migrante":61,"dependencia_econ":158,"pct_empleados":42,"pct_cuentapropia":58,"pct_agricultura":25,"pct_comercio":17,"pct_manufactura":25,"pct_construccion":17,"pct_transporte":0,"pct_alojamiento":0,"pct_educ_superior":20,"brecha_educ":7,"pct_sin_seguro":0,"pct_seguro_privado":0,"brecha_seguro":0,"pct_med_tradicional":13,"pct_automedicacion":13,"pct_remedios_caseros":28,"pct_viv_desocupada":0,"pct_alquiler":9,"pct_electricidad":91,"pct_agua_red":91,"pct_alcantarillado":9,"pct_gas_red":45,"pct_gas_garrafa":45,"pct_lena_guano":45,"pct_basura_formal":9,"pct_basura_quema":91,"pct_basura_informal":0,"pct_internet":73,"pct_celular":100,"pct_televisor":73}},{"type":"Feature","geometry":{"type":"Polygon","coordinates":[[[-65.88552,-17.60094],[-65.88576,-17.60214],[-65.88632,-17.60203],[-65.88608,-17.60086],[-65.88552,-17.60094]]]},"properties":{"n":"ARAMASI","p":62,"personas_x_ha":76,"masculinidad":88,"pct_menor20":50,"pct_60mas":3,"pct_migrante":76,"dependencia_econ":130,"pct_empleados":44,"pct_cuentapropia":52,"pct_agricultura":30,"pct_comercio":19,"pct_manufactura":11,"pct_construccion":15,"pct_transporte":11,"pct_alojamiento":4,"pct_educ_superior":12,"brecha_educ":-5,"pct_sin_seguro":0,"pct_seguro_privado":0,"brecha_seguro":0,"pct_med_tradicional":15,"pct_automedicacion":18,"pct_remedios_caseros":27,"pct_viv_desocupada":0,"pct_alquiler":5,"pct_electricidad":100,"pct_agua_red":100,"pct_alcantarillado":9,"pct_gas_red":45,"pct_gas_garrafa":50,"pct_lena_guano":50,"pct_basura_formal":0,"pct_basura_quema":86,"pct_basura_informal":0,"pct_internet":55,"pct_celular":91,"pct_televisor":77}},{"type":"Feature","geometry":{"type":"Polygon","coordinates":[[[-65.87616,-17.60123],[-65.87592,-17.60005],[-65.87536,-17.60016],[-65.87559,-17.60132],[-65.87616,-17.60123]]]},"properties":{"n":"ARAMASI","p":15,"personas_x_ha":18,"masculinidad":114,"pct_menor20":33,"pct_60mas":0,"pct_migrante":73,"dependencia_econ":67,"pct_empleados":22,"pct_cuentapropia":67,"pct_agricultura":22,"pct_comercio":22,"pct_manufactura":11,"pct_construccion":33,"pct_transporte":0,"pct_alojamiento":11,"pct_educ_superior":18,"brecha_educ":-27,"pct_sin_seguro":43,"pct_seguro_privado":0,"brecha_seguro":57,"pct_med_tradicional":0,"pct_automedicacion":20,"pct_remedios_caseros":20,"pct_viv_desocupada":50,"pct_alquiler":11,"pct_electricidad":89,"pct_agua_red":89,"pct_alcantarillado":0,"pct_gas_red":0,"pct_gas_garrafa":89,"pct_lena_guano":89,"pct_basura_formal":22,"pct_basura_quema":56,"pct_basura_informal":0,"pct_internet":56,"pct_celular":56,"pct_televisor":44}},{"type":"Feature","geometry":{"type":"Polygon","coordinates":[[[-65.87165,-17.59947],[-65.87192,-17.60066],[-65.87247,-17.60055],[-65.87223,-17.59936],[-65.87165,-17.59947]]]},"properties":{"n":"ARAMASI","p":25,"personas_x_ha":30,"masculinidad":79,"pct_menor20":36,"pct_60mas":16,"pct_migrante":48,"dependencia_econ":500,"pct_empleados":50,"pct_cuentapropia":50,"pct_agricultura":25,"pct_comercio":0,"pct_manufactura":0,"pct_construccion":0,"pct_transporte":0,"pct_alojamiento":25,"pct_educ_superior":12,"brecha_educ":-33,"pct_sin_seguro":9,"pct_seguro_privado":5,"brecha_seguro":-15,"pct_med_tradicional":3,"pct_automedicacion":11,"pct_remedios_caseros":16,"pct_viv_desocupada":0,"pct_alquiler":0,"pct_electricidad":80,"pct_agua_red":27,"pct_alcantarillado":33,"pct_gas_red":7,"pct_gas_garrafa":87,"pct_lena_guano":87,"pct_basura_formal":20,"pct_basura_quema":80,"pct_basura_informal":0,"pct_internet":47,"pct_celular":40,"pct_televisor":33}},{"type":"Feature","geometry":{"type":"Polygon","coordinates":[[[-65.88564,-17.60218],[-65.88541,-17.60096],[-65.88484,-17.60109],[-65.88508,-17.60229],[-65.88564,-17.60218]]]},"properties":{"n":"ARAMASI","p":53,"personas_x_ha":63,"masculinidad":104,"pct_menor20":49,"pct_60mas":0,"pct_migrante":68,"dependencia_econ":165,"pct_empleados":50,"pct_cuentapropia":35,"pct_agricultura":20,"pct_comercio":20,"pct_manufactura":35,"pct_construccion":15,"pct_transporte":15,"pct_alojamiento":5,"pct_educ_superior":14,"brecha_educ":-2,"pct_sin_seguro":4,"pct_seguro_privado":0,"brecha_seguro":8,"pct_med_tradicional":12,"pct_automedicacion":22,"pct_remedios_caseros":18,"pct_viv_desocupada":0,"pct_alquiler":5,"pct_electricidad":100,"pct_agua_red":86,"pct_alcantarillado":10,"pct_gas_red":19,"pct_gas_garrafa":81,"pct_lena_guano":81,"pct_basura_formal":0,"pct_basura_quema":100,"pct_basura_informal":0,"pct_internet":86,"pct_celular":95,"pct_televisor":67}},{"type":"Feature","geometry":{"type":"Polygon","coordinates":[[[-65.88648,-17.59941],[-65.88592,-17.59951],[-65.88616,-17.60071],[-65.88671,-17.60062],[-65.88648,-17.59941]]]},"properties":{"n":"ARAMASI","p":36,"personas_x_ha":44,"masculinidad":200,"pct_menor20":42,"pct_60mas":6,"pct_migrante":89,"dependencia_econ":227,"pct_empleados":55,"pct_cuentapropia":36,"pct_agricultura":73,"pct_comercio":0,"pct_manufactura":18,"pct_construccion":27,"pct_transporte":18,"pct_alojamiento":0,"pct_educ_superior":4,"brecha_educ":-34,"pct_sin_seguro":14,"pct_seguro_privado":0,"brecha_seguro":8,"pct_med_tradicional":0,"pct_automedicacion":20,"pct_remedios_caseros":28,"pct_viv_desocupada":0,"pct_alquiler":6,"pct_electricidad":89,"pct_agua_red":100,"pct_alcantarillado":0,"pct_gas_red":11,"pct_gas_garrafa":72,"pct_lena_guano":72,"pct_basura_formal":0,"pct_basura_quema":100,"pct_basura_informal":0,"pct_internet":72,"pct_celular":72,"pct_televisor":39}},{"type":"Feature","geometry":{"type":"Polygon","coordinates":[[[-65.87469,-17.60445],[-65.87414,-17.60452],[-65.87437,-17.60564],[-65.87443,-17.60567],[-65.87494,-17.60556],[-65.87469,-17.60445]]]},"properties":{"n":"ARAMASI","p":25,"personas_x_ha":32,"masculinidad":67,"pct_menor20":60,"pct_60mas":4,"pct_migrante":64,"dependencia_econ":178,"pct_empleados":44,"pct_cuentapropia":56,"pct_agricultura":67,"pct_comercio":22,"pct_manufactura":0,"pct_construccion":0,"pct_transporte":0,"pct_alojamiento":0,"pct_educ_superior":30,"brecha_educ":-12,"pct_sin_seguro":4,"pct_seguro_privado":0,"brecha_seguro":-7,"pct_med_tradicional":0,"pct_automedicacion":15,"pct_remedios_caseros":21,"pct_viv_desocupada":31,"pct_alquiler":0,"pct_electricidad":89,"pct_agua_red":56,"pct_alcantarillado":0,"pct_gas_red":0,"pct_gas_garrafa":67,"pct_lena_guano":67,"pct_basura_formal":0,"pct_basura_quema":89,"pct_basura_informal":0,"pct_internet":56,"pct_celular":89,"pct_televisor":44}},{"type":"Feature","geometry":{"type":"Polygon","coordinates":[[[-65.86268,-17.59773],[-65.8619,-17.59769],[-65.86188,-17.59831],[-65.86267,-17.59832],[-65.86268,-17.59773]]]},"properties":{"n":"ARAMASI","p":15,"personas_x_ha":27,"masculinidad":25,"pct_menor20":60,"pct_60mas":7,"pct_migrante":80,"dependencia_econ":400,"pct_empleados":33,"pct_cuentapropia":0,"pct_agricultura":100,"pct_comercio":0,"pct_manufactura":0,"pct_construccion":33,"pct_transporte":0,"pct_alojamiento":0,"pct_educ_superior":0,"brecha_educ":null,"pct_sin_seguro":13,"pct_seguro_privado":0,"brecha_seguro":25,"pct_med_tradicional":0,"pct_automedicacion":20,"pct_remedios_caseros":25,"pct_viv_desocupada":0,"pct_alquiler":0,"pct_electricidad":100,"pct_agua_red":100,"pct_alcantarillado":0,"pct_gas_red":0,"pct_gas_garrafa":100,"pct_lena_guano":100,"pct_basura_formal":0,"pct_basura_quema":100,"pct_basura_informal":0,"pct_internet":88,"pct_celular":100,"pct_televisor":62}},{"type":"Feature","geometry":{"type":"Polygon","coordinates":[[[-65.883,-17.60266],[-65.88357,-17.60255],[-65.88332,-17.60138],[-65.88276,-17.60149],[-65.883,-17.60266]]]},"properties":{"n":"ARAMASI","p":36,"personas_x_ha":44,"masculinidad":100,"pct_menor20":28,"pct_60mas":6,"pct_migrante":97,"dependencia_econ":106,"pct_empleados":41,"pct_cuentapropia":53,"pct_agricultura":24,"pct_comercio":24,"pct_manufactura":0,"pct_construccion":24,"pct_transporte":12,"pct_alojamiento":12,"pct_educ_superior":42,"brecha_educ":-2,"pct_sin_seguro":3,"pct_seguro_privado":0,"brecha_seguro":6,"pct_med_tradicional":6,"pct_automedicacion":22,"pct_remedios_caseros":28,"pct_viv_desocupada":0,"pct_alquiler":6,"pct_electricidad":94,"pct_agua_red":100,"pct_alcantarillado":6,"pct_gas_red":39,"pct_gas_garrafa":61,"pct_lena_guano":61,"pct_basura_formal":11,"pct_basura_quema":78,"pct_basura_informal":0,"pct_internet":94,"pct_celular":94,"pct_televisor":72}},{"type":"Feature","geometry":{"type":"Polygon","coordinates":[[[-65.87542,-17.60432],[-65.87481,-17.6044],[-65.87507,-17.60557],[-65.87566,-17.6055],[-65.87542,-17.60432]]]},"properties":{"n":"ARAMASI","p":28,"personas_x_ha":32,"masculinidad":87,"pct_menor20":46,"pct_60mas":4,"pct_migrante":68,"dependencia_econ":211,"pct_empleados":0,"pct_cuentapropia":78,"pct_agricultura":78,"pct_comercio":22,"pct_manufactura":0,"pct_construccion":11,"pct_transporte":22,"pct_alojamiento":0,"pct_educ_superior":19,"brecha_educ":10,"pct_sin_seguro":21,"pct_seguro_privado":0,"brecha_seguro":17,"pct_med_tradicional":9,"pct_automedicacion":26,"pct_remedios_caseros":36,"pct_viv_desocupada":37,"pct_alquiler":0,"pct_electricidad":75,"pct_agua_red":92,"pct_alcantarillado":0,"pct_gas_red":0,"pct_gas_garrafa":67,"pct_lena_guano":67,"pct_basura_formal":8,"pct_basura_quema":83,"pct_basura_informal":0,"pct_internet":67,"pct_celular":92,"pct_televisor":58}},{"type":"Feature","geometry":{"type":"Polygon","coordinates":[[[-65.88453,-17.59964],[-65.88511,-17.59954],[-65.88504,-17.5991],[-65.88441,-17.59907],[-65.88453,-17.59964]]]},"properties":{"n":"ARAMASI","p":32,"personas_x_ha":87,"masculinidad":88,"pct_menor20":62,"pct_60mas":9,"pct_migrante":66,"dependencia_econ":520,"pct_empleados":40,"pct_cuentapropia":60,"pct_agricultura":20,"pct_comercio":20,"pct_manufactura":0,"pct_construccion":40,"pct_transporte":0,"pct_alojamiento":0,"pct_educ_superior":8,"brecha_educ":9,"pct_sin_seguro":3,"pct_seguro_privado":0,"brecha_seguro":7,"pct_med_tradicional":14,"pct_automedicacion":17,"pct_remedios_caseros":12,"pct_viv_desocupada":22,"pct_alquiler":0,"pct_electricidad":100,"pct_agua_red":100,"pct_alcantarillado":0,"pct_gas_red":14,"pct_gas_garrafa":86,"pct_lena_guano":86,"pct_basura_formal":0,"pct_basura_quema":100,"pct_basura_informal":0,"pct_internet":71,"pct_celular":86,"pct_televisor":71}},{"type":"Feature","geometry":{"type":"Polygon","coordinates":[[[-65.88373,-17.59902],[-65.88386,-17.59976],[-65.88442,-17.59966],[-65.8843,-17.59905],[-65.88373,-17.59902]]]},"properties":{"n":"ARAMASI","p":38,"personas_x_ha":82,"masculinidad":81,"pct_menor20":47,"pct_60mas":5,"pct_migrante":82,"dependencia_econ":138,"pct_empleados":38,"pct_cuentapropia":38,"pct_agricultura":12,"pct_comercio":12,"pct_manufactura":19,"pct_construccion":19,"pct_transporte":19,"pct_alojamiento":12,"pct_educ_superior":0,"brecha_educ":-41,"pct_sin_seguro":29,"pct_seguro_privado":0,"brecha_seguro":22,"pct_med_tradicional":7,"pct_automedicacion":21,"pct_remedios_caseros":28,"pct_viv_desocupada":0,"pct_alquiler":0,"pct_electricidad":100,"pct_agua_red":83,"pct_alcantarillado":0,"pct_gas_red":17,"pct_gas_garrafa":75,"pct_lena_guano":75,"pct_basura_formal":0,"pct_basura_quema":100,"pct_basura_informal":0,"pct_internet":67,"pct_celular":83,"pct_televisor":67}},{"type":"Feature","geometry":{"type":"Polygon","coordinates":[[[-65.87232,-17.60334],[-65.8721,-17.60216],[-65.87152,-17.60225],[-65.87176,-17.60345],[-65.87232,-17.60334]]]},"properties":{"n":"ARAMASI","p":29,"personas_x_ha":35,"masculinidad":107,"pct_menor20":45,"pct_60mas":0,"pct_migrante":66,"dependencia_econ":155,"pct_empleados":36,"pct_cuentapropia":55,"pct_agricultura":45,"pct_comercio":9,"pct_manufactura":0,"pct_construccion":18,"pct_transporte":18,"pct_alojamiento":9,"pct_educ_superior":25,"brecha_educ":-3,"pct_sin_seguro":14,"pct_seguro_privado":0,"brecha_seguro":14,"pct_med_tradicional":14,"pct_automedicacion":21,"pct_remedios_caseros":22,"pct_viv_desocupada":50,"pct_alquiler":11,"pct_electricidad":100,"pct_agua_red":56,"pct_alcantarillado":0,"pct_gas_red":0,"pct_gas_garrafa":89,"pct_lena_guano":89,"pct_basura_formal":11,"pct_basura_quema":78,"pct_basura_informal":0,"pct_internet":78,"pct_celular":89,"pct_televisor":33}},{"type":"Feature","geometry":{"type":"Polygon","coordinates":[[[-65.8696,-17.59987],[-65.86971,-17.6004],[-65.87086,-17.60017],[-65.87076,-17.59965],[-65.8696,-17.59987]]]},"properties":{"n":"ARAMASI","p":30,"personas_x_ha":40,"masculinidad":88,"pct_menor20":53,"pct_60mas":3,"pct_migrante":73,"dependencia_econ":200,"pct_empleados":20,"pct_cuentapropia":70,"pct_agricultura":30,"pct_comercio":10,"pct_manufactura":10,"pct_construccion":40,"pct_transporte":0,"pct_alojamiento":0,"pct_educ_superior":29,"brecha_educ":-54,"pct_sin_seguro":0,"pct_seguro_privado":0,"brecha_seguro":0,"pct_med_tradicional":2,"pct_automedicacion":14,"pct_remedios_caseros":16,"pct_viv_desocupada":5,"pct_alquiler":11,"pct_electricidad":56,"pct_agua_red":67,"pct_alcantarillado":0,"pct_gas_red":0,"pct_gas_garrafa":67,"pct_lena_guano":67,"pct_basura_formal":44,"pct_basura_quema":56,"pct_basura_informal":0,"pct_internet":44,"pct_celular":78,"pct_televisor":44}},{"type":"Feature","geometry":{"type":"Polygon","coordinates":[[[-65.87096,-17.60027],[-65.86971,-17.60051],[-65.86983,-17.60105],[-65.87106,-17.60082],[-65.87096,-17.60027]]]},"properties":{"n":"ARAMASI","p":29,"personas_x_ha":35,"masculinidad":93,"pct_menor20":48,"pct_60mas":10,"pct_migrante":83,"dependencia_econ":155,"pct_empleados":18,"pct_cuentapropia":82,"pct_agricultura":55,"pct_comercio":18,"pct_manufactura":0,"pct_construccion":18,"pct_transporte":0,"pct_alojamiento":0,"pct_educ_superior":21,"brecha_educ":-43,"pct_sin_seguro":0,"pct_seguro_privado":0,"brecha_seguro":0,"pct_med_tradicional":7,"pct_automedicacion":18,"pct_remedios_caseros":21,"pct_viv_desocupada":19,"pct_alquiler":0,"pct_electricidad":92,"pct_agua_red":58,"pct_alcantarillado":0,"pct_gas_red":0,"pct_gas_garrafa":92,"pct_lena_guano":92,"pct_basura_formal":33,"pct_basura_quema":67,"pct_basura_informal":0,"pct_internet":67,"pct_celular":92,"pct_televisor":42}},{"type":"Feature","geometry":{"type":"Polygon","coordinates":[[[-65.87525,-17.60291],[-65.87549,-17.60412],[-65.87606,-17.60401],[-65.87581,-17.60281],[-65.87525,-17.60291]]]},"properties":{"n":"ARAMASI","p":21,"personas_x_ha":25,"masculinidad":200,"pct_menor20":67,"pct_60mas":0,"pct_migrante":76,"dependencia_econ":200,"pct_empleados":29,"pct_cuentapropia":43,"pct_agricultura":100,"pct_comercio":0,"pct_manufactura":14,"pct_construccion":0,"pct_transporte":0,"pct_alojamiento":0,"pct_educ_superior":0,"brecha_educ":-25,"pct_sin_seguro":14,"pct_seguro_privado":0,"brecha_seguro":21,"pct_med_tradicional":5,"pct_automedicacion":21,"pct_remedios_caseros":28,"pct_viv_desocupada":30,"pct_alquiler":0,"pct_electricidad":67,"pct_agua_red":17,"pct_alcantarillado":0,"pct_gas_red":0,"pct_gas_garrafa":67,"pct_lena_guano":67,"pct_basura_formal":0,"pct_basura_quema":100,"pct_basura_informal":0,"pct_internet":100,"pct_celular":100,"pct_televisor":33}},{"type":"Feature","geometry":{"type":"Polygon","coordinates":[[[-65.87769,-17.60518],[-65.87744,-17.60392],[-65.87686,-17.60399],[-65.87712,-17.60527],[-65.87769,-17.60518]]]},"properties":{"n":"ARAMASI","p":28,"personas_x_ha":31,"masculinidad":87,"pct_menor20":57,"pct_60mas":0,"pct_migrante":75,"dependencia_econ":87,"pct_empleados":47,"pct_cuentapropia":53,"pct_agricultura":27,"pct_comercio":13,"pct_manufactura":13,"pct_construccion":20,"pct_transporte":7,"pct_alojamiento":7,"pct_educ_superior":14,"brecha_educ":-13,"pct_sin_seguro":7,"pct_seguro_privado":0,"brecha_seguro":15,"pct_med_tradicional":18,"pct_automedicacion":23,"pct_remedios_caseros":23,"pct_viv_desocupada":0,"pct_alquiler":9,"pct_electricidad":64,"pct_agua_red":9,"pct_alcantarillado":0,"pct_gas_red":0,"pct_gas_garrafa":82,"pct_lena_guano":82,"pct_basura_formal":9,"pct_basura_quema":73,"pct_basura_informal":18,"pct_internet":91,"pct_celular":100,"pct_televisor":73}},{"type":"Feature","geometry":{"type":"Polygon","coordinates":[[[-65.87386,-17.60028],[-65.87361,-17.5991],[-65.87304,-17.59921],[-65.87329,-17.60039],[-65.87386,-17.60028]]]},"properties":{"n":"ARAMASI","p":21,"personas_x_ha":25,"masculinidad":110,"pct_menor20":57,"pct_60mas":5,"pct_migrante":76,"dependencia_econ":110,"pct_empleados":20,"pct_cuentapropia":60,"pct_agricultura":50,"pct_comercio":10,"pct_manufactura":0,"pct_construccion":20,"pct_transporte":0,"pct_alojamiento":10,"pct_educ_superior":0,"brecha_educ":-100,"pct_sin_seguro":14,"pct_seguro_privado":0,"brecha_seguro":27,"pct_med_tradicional":5,"pct_automedicacion":22,"pct_remedios_caseros":25,"pct_viv_desocupada":50,"pct_alquiler":0,"pct_electricidad":71,"pct_agua_red":86,"pct_alcantarillado":0,"pct_gas_red":0,"pct_gas_garrafa":86,"pct_lena_guano":86,"pct_basura_formal":14,"pct_basura_quema":86,"pct_basura_informal":0,"pct_internet":71,"pct_celular":71,"pct_televisor":71}},{"type":"Feature","geometry":{"type":"Polygon","coordinates":[[[-65.86547,-17.60117],[-65.86624,-17.6012],[-65.86625,-17.60064],[-65.86548,-17.60061],[-65.86547,-17.60117]]]},"properties":{"n":"ARAMASI","p":26,"personas_x_ha":51,"masculinidad":53,"pct_menor20":54,"pct_60mas":4,"pct_migrante":88,"dependencia_econ":225,"pct_empleados":75,"pct_cuentapropia":25,"pct_agricultura":12,"pct_comercio":12,"pct_manufactura":25,"pct_construccion":12,"pct_transporte":12,"pct_alojamiento":0,"pct_educ_superior":25,"brecha_educ":12,"pct_sin_seguro":20,"pct_seguro_privado":0,"brecha_seguro":7,"pct_med_tradicional":9,"pct_automedicacion":5,"pct_remedios_caseros":37,"pct_viv_desocupada":9,"pct_alquiler":0,"pct_electricidad":78,"pct_agua_red":100,"pct_alcantarillado":22,"pct_gas_red":0,"pct_gas_garrafa":100,"pct_lena_guano":100,"pct_basura_formal":11,"pct_basura_quema":89,"pct_basura_informal":0,"pct_internet":67,"pct_celular":78,"pct_televisor":67}},{"type":"Feature","geometry":{"type":"Polygon","coordinates":[[[-65.88401,-17.60111],[-65.88379,-17.5999],[-65.88324,-17.6],[-65.88346,-17.6012],[-65.88401,-17.60111]]]},"properties":{"n":"ARAMASI","p":54,"personas_x_ha":66,"masculinidad":64,"pct_menor20":46,"pct_60mas":6,"pct_migrante":80,"dependencia_econ":100,"pct_empleados":44,"pct_cuentapropia":33,"pct_agricultura":33,"pct_comercio":22,"pct_manufactura":4,"pct_construccion":19,"pct_transporte":7,"pct_alojamiento":11,"pct_educ_superior":7,"brecha_educ":-11,"pct_sin_seguro":7,"pct_seguro_privado":0,"brecha_seguro":3,"pct_med_tradicional":13,"pct_automedicacion":28,"pct_remedios_caseros":21,"pct_viv_desocupada":0,"pct_alquiler":0,"pct_electricidad":100,"pct_agua_red":100,"pct_alcantarillado":0,"pct_gas_red":45,"pct_gas_garrafa":55,"pct_lena_guano":55,"pct_basura_formal":30,"pct_basura_quema":70,"pct_basura_informal":0,"pct_internet":80,"pct_celular":90,"pct_televisor":60}},{"type":"Feature","geometry":{"type":"Polygon","coordinates":[[[-65.88376,-17.60253],[-65.8835,-17.60133],[-65.88402,-17.60126],[-65.8843,-17.60246],[-65.88376,-17.60253]]]},"properties":{"n":"ARAMASI","p":41,"personas_x_ha":51,"masculinidad":116,"pct_menor20":32,"pct_60mas":10,"pct_migrante":93,"dependencia_econ":74,"pct_empleados":57,"pct_cuentapropia":39,"pct_agricultura":17,"pct_comercio":30,"pct_manufactura":0,"pct_construccion":30,"pct_transporte":9,"pct_alojamiento":9,"pct_educ_superior":7,"brecha_educ":-35,"pct_sin_seguro":10,"pct_seguro_privado":5,"brecha_seguro":-2,"pct_med_tradicional":11,"pct_automedicacion":22,"pct_remedios_caseros":18,"pct_viv_desocupada":0,"pct_alquiler":5,"pct_electricidad":89,"pct_agua_red":74,"pct_alcantarillado":0,"pct_gas_red":37,"pct_gas_garrafa":53,"pct_lena_guano":53,"pct_basura_formal":16,"pct_basura_quema":84,"pct_basura_informal":0,"pct_internet":89,"pct_celular":89,"pct_televisor":74}},{"type":"Feature","geometry":{"type":"Polygon","coordinates":[[[-65.88514,-17.59967],[-65.88456,-17.59972],[-65.88481,-17.60094],[-65.88537,-17.60082],[-65.88514,-17.59967]]]},"properties":{"n":"ARAMASI","p":37,"personas_x_ha":45,"masculinidad":95,"pct_menor20":51,"pct_60mas":0,"pct_migrante":84,"dependencia_econ":118,"pct_empleados":24,"pct_cuentapropia":59,"pct_agricultura":53,"pct_comercio":12,"pct_manufactura":0,"pct_construccion":24,"pct_transporte":6,"pct_alojamiento":0,"pct_educ_superior":11,"brecha_educ":-30,"pct_sin_seguro":14,"pct_seguro_privado":0,"brecha_seguro":6,"pct_med_tradicional":19,"pct_automedicacion":19,"pct_remedios_caseros":24,"pct_viv_desocupada":0,"pct_alquiler":0,"pct_electricidad":94,"pct_agua_red":72,"pct_alcantarillado":6,"pct_gas_red":33,"pct_gas_garrafa":56,"pct_lena_guano":56,"pct_basura_formal":11,"pct_basura_quema":89,"pct_basura_informal":0,"pct_internet":72,"pct_celular":89,"pct_televisor":61}},{"type":"Feature","geometry":{"type":"Polygon","coordinates":[[[-65.88375,-17.59977],[-65.88359,-17.59904],[-65.88301,-17.59899],[-65.88318,-17.59988],[-65.88375,-17.59977]]]},"properties":{"n":"ARAMASI","p":39,"personas_x_ha":70,"masculinidad":77,"pct_menor20":44,"pct_60mas":3,"pct_migrante":85,"dependencia_econ":111,"pct_empleados":56,"pct_cuentapropia":39,"pct_agricultura":22,"pct_comercio":22,"pct_manufactura":6,"pct_construccion":28,"pct_transporte":6,"pct_alojamiento":11,"pct_educ_superior":10,"brecha_educ":3,"pct_sin_seguro":13,"pct_seguro_privado":0,"brecha_seguro":10,"pct_med_tradicional":6,"pct_automedicacion":24,"pct_remedios_caseros":22,"pct_viv_desocupada":0,"pct_alquiler":0,"pct_electricidad":87,"pct_agua_red":100,"pct_alcantarillado":7,"pct_gas_red":13,"pct_gas_garrafa":80,"pct_lena_guano":80,"pct_basura_formal":7,"pct_basura_quema":80,"pct_basura_informal":0,"pct_internet":73,"pct_celular":80,"pct_televisor":53}},{"type":"Feature","geometry":{"type":"Polygon","coordinates":[[[-65.86874,-17.60057],[-65.86958,-17.60041],[-65.86949,-17.59988],[-65.86838,-17.60009],[-65.86874,-17.60057]]]},"properties":{"n":"ARAMASI","p":16,"personas_x_ha":25,"masculinidad":78,"pct_menor20":44,"pct_60mas":0,"pct_migrante":62,"dependencia_econ":100,"pct_empleados":38,"pct_cuentapropia":62,"pct_agricultura":38,"pct_comercio":0,"pct_manufactura":25,"pct_construccion":12,"pct_transporte":0,"pct_alojamiento":12,"pct_educ_superior":44,"brecha_educ":-40,"pct_sin_seguro":12,"pct_seguro_privado":0,"brecha_seguro":3,"pct_med_tradicional":0,"pct_automedicacion":0,"pct_remedios_caseros":0,"pct_viv_desocupada":10,"pct_alquiler":0,"pct_electricidad":83,"pct_agua_red":33,"pct_alcantarillado":0,"pct_gas_red":0,"pct_gas_garrafa":83,"pct_lena_guano":83,"pct_basura_formal":0,"pct_basura_quema":67,"pct_basura_informal":33,"pct_internet":83,"pct_celular":83,"pct_televisor":67}},{"type":"Feature","geometry":{"type":"Polygon","coordinates":[[[-65.82123,-17.61824],[-65.8213,-17.6186],[-65.82125,-17.61881],[-65.82246,-17.61925],[-65.82279,-17.61748],[-65.82309,-17.61749],[-65.82312,-17.61724],[-65.82154,-17.61711],[-65.82145,-17.61721],[-65.82048,-17.61746],[-65.81993,-17.61792],[-65.8195,-17.61847],[-65.81927,-17.61858],[-65.81919,-17.61876],[-65.8193,-17.61883],[-65.81928,-17.6189],[-65.81919,-17.61913],[-65.81903,-17.61912],[-65.81899,-17.6195],[-65.819,-17.61907],[-65.81918,-17.61908],[-65.81926,-17.61884],[-65.81916,-17.61878],[-65.81848,-17.61903],[-65.81827,-17.61926],[-65.81816,-17.61953],[-65.81958,-17.62073],[-65.82037,-17.61964],[-65.82028,-17.61917],[-65.82063,-17.61879],[-65.82082,-17.61874],[-65.8211,-17.61896],[-65.8212,-17.61881],[-65.82123,-17.61824]]]},"properties":{"n":"CENTRO OYADA","p":23,"personas_x_ha":3,"masculinidad":92,"pct_menor20":35,"pct_60mas":22,"pct_migrante":13,"dependencia_econ":109,"pct_empleados":36,"pct_cuentapropia":64,"pct_agricultura":27,"pct_comercio":18,"pct_manufactura":0,"pct_construccion":0,"pct_transporte":9,"pct_alojamiento":0,"pct_educ_superior":27,"brecha_educ":-23,"pct_sin_seguro":0,"pct_seguro_privado":0,"brecha_seguro":0,"pct_med_tradicional":9,"pct_automedicacion":22,"pct_remedios_caseros":21,"pct_viv_desocupada":25,"pct_alquiler":0,"pct_electricidad":100,"pct_agua_red":100,"pct_alcantarillado":0,"pct_gas_red":0,"pct_gas_garrafa":75,"pct_lena_guano":75,"pct_basura_formal":0,"pct_basura_quema":100,"pct_basura_informal":0,"pct_internet":50,"pct_celular":88,"pct_televisor":75}},{"type":"Feature","geometry":{"type":"Polygon","coordinates":[[[-65.82347,-17.61725],[-65.82304,-17.61717],[-65.82157,-17.61703],[-65.82165,-17.6168],[-65.82231,-17.61662],[-65.82258,-17.61643],[-65.82287,-17.61601],[-65.82318,-17.61579],[-65.824,-17.61576],[-65.8239,-17.6165],[-65.8236,-17.61648],[-65.82347,-17.61725]]]},"properties":{"n":"CENTRO OYADA","p":19,"personas_x_ha":9,"masculinidad":90,"pct_menor20":37,"pct_60mas":21,"pct_migrante":32,"dependencia_econ":171,"pct_empleados":71,"pct_cuentapropia":14,"pct_agricultura":14,"pct_comercio":14,"pct_manufactura":0,"pct_construccion":14,"pct_transporte":0,"pct_alojamiento":0,"pct_educ_superior":69,"brecha_educ":-12,"pct_sin_seguro":0,"pct_seguro_privado":0,"brecha_seguro":0,"pct_med_tradicional":13,"pct_automedicacion":9,"pct_remedios_caseros":22,"pct_viv_desocupada":14,"pct_alquiler":0,"pct_electricidad":100,"pct_agua_red":83,"pct_alcantarillado":0,"pct_gas_red":0,"pct_gas_garrafa":100,"pct_lena_guano":100,"pct_basura_formal":0,"pct_basura_quema":83,"pct_basura_informal":0,"pct_internet":83,"pct_celular":100,"pct_televisor":100}},{"type":"Feature","geometry":{"type":"Polygon","coordinates":[[[-65.81665,-17.61346],[-65.82139,-17.61271],[-65.82145,-17.6137],[-65.81643,-17.61449],[-65.81665,-17.61346]]]},"properties":{"n":"HOYADA","p":44,"personas_x_ha":8,"masculinidad":83,"pct_menor20":23,"pct_60mas":11,"pct_migrante":36,"dependencia_econ":38,"pct_empleados":16,"pct_cuentapropia":62,"pct_agricultura":59,"pct_comercio":9,"pct_manufactura":6,"pct_construccion":9,"pct_transporte":0,"pct_alojamiento":0,"pct_educ_superior":32,"brecha_educ":-26,"pct_sin_seguro":25,"pct_seguro_privado":0,"brecha_seguro":0,"pct_med_tradicional":6,"pct_automedicacion":20,"pct_remedios_caseros":34,"pct_viv_desocupada":11,"pct_alquiler":0,"pct_electricidad":100,"pct_agua_red":93,"pct_alcantarillado":7,"pct_gas_red":21,"pct_gas_garrafa":57,"pct_lena_guano":57,"pct_basura_formal":14,"pct_basura_quema":64,"pct_basura_informal":29,"pct_internet":64,"pct_celular":79,"pct_televisor":71}},{"type":"Feature","geometry":{"type":"Polygon","coordinates":[[[-65.82154,-17.61418],[-65.82135,-17.61462],[-65.8211,-17.61481],[-65.82059,-17.61494],[-65.82008,-17.61679],[-65.81738,-17.61582],[-65.8171,-17.61567],[-65.81668,-17.61515],[-65.81635,-17.61512],[-65.81632,-17.61463],[-65.81952,-17.61414],[-65.81958,-17.6151],[-65.81964,-17.6151],[-65.81958,-17.61413],[-65.82148,-17.61384],[-65.82154,-17.61418]]]},"properties":{"n":"HOYADA","p":32,"personas_x_ha":3,"masculinidad":146,"pct_menor20":19,"pct_60mas":25,"pct_migrante":31,"dependencia_econ":107,"pct_empleados":36,"pct_cuentapropia":21,"pct_agricultura":100,"pct_comercio":0,"pct_manufactura":0,"pct_construccion":0,"pct_transporte":0,"pct_alojamiento":0,"pct_educ_superior":42,"brecha_educ":-14,"pct_sin_seguro":14,"pct_seguro_privado":0,"brecha_seguro":9,"pct_med_tradicional":13,"pct_automedicacion":16,"pct_remedios_caseros":22,"pct_viv_desocupada":0,"pct_alquiler":0,"pct_electricidad":100,"pct_agua_red":73,"pct_alcantarillado":0,"pct_gas_red":55,"pct_gas_garrafa":45,"pct_lena_guano":45,"pct_basura_formal":9,"pct_basura_quema":73,"pct_basura_informal":36,"pct_internet":82,"pct_celular":82,"pct_televisor":100}},{"type":"Feature","geometry":{"type":"Polygon","coordinates":[[[-65.81873,-17.6183],[-65.8195,-17.61788],[-65.81957,-17.61772],[-65.81946,-17.61758],[-65.81702,-17.61846],[-65.8177,-17.6191],[-65.81796,-17.61887],[-65.81808,-17.6185],[-65.81873,-17.6183]]]},"properties":{"n":"HOYADA","p":24,"personas_x_ha":17,"masculinidad":60,"pct_menor20":33,"pct_60mas":4,"pct_migrante":50,"dependencia_econ":100,"pct_empleados":33,"pct_cuentapropia":58,"pct_agricultura":33,"pct_comercio":17,"pct_manufactura":0,"pct_construccion":17,"pct_transporte":0,"pct_alojamiento":0,"pct_educ_superior":31,"brecha_educ":-8,"pct_sin_seguro":17,"pct_seguro_privado":0,"brecha_seguro":9,"pct_med_tradicional":1,"pct_automedicacion":0,"pct_remedios_caseros":28,"pct_viv_desocupada":0,"pct_alquiler":0,"pct_electricidad":100,"pct_agua_red":57,"pct_alcantarillado":0,"pct_gas_red":0,"pct_gas_garrafa":100,"pct_lena_guano":100,"pct_basura_formal":0,"pct_basura_quema":71,"pct_basura_informal":0,"pct_internet":86,"pct_celular":100,"pct_televisor":71}},{"type":"Feature","geometry":{"type":"Polygon","coordinates":[[[-65.80806,-17.61142],[-65.80826,-17.61185],[-65.80744,-17.6125],[-65.80576,-17.61018],[-65.80653,-17.60959],[-65.80695,-17.60965],[-65.80777,-17.61019],[-65.80838,-17.61046],[-65.80879,-17.61054],[-65.80908,-17.61048],[-65.80942,-17.61093],[-65.8099,-17.61202],[-65.80893,-17.61241],[-65.80819,-17.61169],[-65.80806,-17.61142]]]},"properties":{"n":"MACHAY CUCHU","p":34,"personas_x_ha":5,"masculinidad":162,"pct_menor20":24,"pct_60mas":6,"pct_migrante":32,"dependencia_econ":55,"pct_empleados":18,"pct_cuentapropia":59,"pct_agricultura":59,"pct_comercio":9,"pct_manufactura":0,"pct_construccion":9,"pct_transporte":0,"pct_alojamiento":0,"pct_educ_superior":35,"brecha_educ":8,"pct_sin_seguro":29,"pct_seguro_privado":0,"brecha_seguro":10,"pct_med_tradicional":11,"pct_automedicacion":15,"pct_remedios_caseros":17,"pct_viv_desocupada":0,"pct_alquiler":0,"pct_electricidad":90,"pct_agua_red":90,"pct_alcantarillado":20,"pct_gas_red":0,"pct_gas_garrafa":70,"pct_lena_guano":70,"pct_basura_formal":20,"pct_basura_quema":60,"pct_basura_informal":0,"pct_internet":30,"pct_celular":70,"pct_televisor":60}},{"type":"Feature","geometry":{"type":"Polygon","coordinates":[[[-65.80836,-17.60916],[-65.80714,-17.60971],[-65.80775,-17.61013],[-65.80827,-17.61038],[-65.80881,-17.6105],[-65.80907,-17.61044],[-65.8086,-17.60975],[-65.80836,-17.60916]]]},"properties":{"n":"MACHAY CUCHU","p":28,"personas_x_ha":19,"masculinidad":155,"pct_menor20":29,"pct_60mas":14,"pct_migrante":4,"dependencia_econ":100,"pct_empleados":36,"pct_cuentapropia":50,"pct_agricultura":50,"pct_comercio":0,"pct_manufactura":0,"pct_construccion":29,"pct_transporte":0,"pct_alojamiento":0,"pct_educ_superior":15,"brecha_educ":-4,"pct_sin_seguro":30,"pct_seguro_privado":0,"brecha_seguro":15,"pct_med_tradicional":14,"pct_automedicacion":10,"pct_remedios_caseros":20,"pct_viv_desocupada":0,"pct_alquiler":0,"pct_electricidad":100,"pct_agua_red":75,"pct_alcantarillado":25,"pct_gas_red":0,"pct_gas_garrafa":100,"pct_lena_guano":100,"pct_basura_formal":12,"pct_basura_quema":62,"pct_basura_informal":25,"pct_internet":62,"pct_celular":75,"pct_televisor":75}},{"type":"Feature","geometry":{"type":"Polygon","coordinates":[[[-65.81433,-17.61141],[-65.81416,-17.61116],[-65.81406,-17.61067],[-65.81387,-17.61027],[-65.8134,-17.60955],[-65.81328,-17.60896],[-65.81513,-17.60883],[-65.81433,-17.61141]]]},"properties":{"n":"VILLA RIVERO","p":17,"personas_x_ha":6,"masculinidad":89,"pct_menor20":18,"pct_60mas":18,"pct_migrante":35,"dependencia_econ":70,"pct_empleados":60,"pct_cuentapropia":30,"pct_agricultura":40,"pct_comercio":20,"pct_manufactura":0,"pct_construccion":0,"pct_transporte":0,"pct_alojamiento":0,"pct_educ_superior":53,"brecha_educ":-36,"pct_sin_seguro":6,"pct_seguro_privado":0,"brecha_seguro":-11,"pct_med_tradicional":2,"pct_automedicacion":27,"pct_remedios_caseros":27,"pct_viv_desocupada":0,"pct_alquiler":0,"pct_electricidad":100,"pct_agua_red":88,"pct_alcantarillado":0,"pct_gas_red":100,"pct_gas_garrafa":0,"pct_lena_guano":0,"pct_basura_formal":100,"pct_basura_quema":0,"pct_basura_informal":0,"pct_internet":100,"pct_celular":100,"pct_televisor":100}},{"type":"Feature","geometry":{"type":"Polygon","coordinates":[[[-65.81038,-17.61562],[-65.80984,-17.61582],[-65.80962,-17.6155],[-65.80946,-17.6149],[-65.81088,-17.6135],[-65.81158,-17.61462],[-65.81182,-17.61549],[-65.81038,-17.61562]]]},"properties":{"n":"VILLA RIVERO","p":30,"personas_x_ha":8,"masculinidad":58,"pct_menor20":37,"pct_60mas":17,"pct_migrante":67,"dependencia_econ":200,"pct_empleados":30,"pct_cuentapropia":70,"pct_agricultura":20,"pct_comercio":20,"pct_manufactura":0,"pct_construccion":10,"pct_transporte":30,"pct_alojamiento":0,"pct_educ_superior":50,"brecha_educ":0,"pct_sin_seguro":30,"pct_seguro_privado":0,"brecha_seguro":10,"pct_med_tradicional":9,"pct_automedicacion":16,"pct_remedios_caseros":23,"pct_viv_desocupada":0,"pct_alquiler":9,"pct_electricidad":100,"pct_agua_red":91,"pct_alcantarillado":100,"pct_gas_red":45,"pct_gas_garrafa":55,"pct_lena_guano":55,"pct_basura_formal":100,"pct_basura_quema":0,"pct_basura_informal":0,"pct_internet":82,"pct_celular":91,"pct_televisor":91}},{"type":"Feature","geometry":{"type":"Polygon","coordinates":[[[-65.81354,-17.61958],[-65.81344,-17.61765],[-65.81212,-17.61778],[-65.81267,-17.62182],[-65.81288,-17.62203],[-65.81309,-17.62166],[-65.81341,-17.6214],[-65.81354,-17.61958]]]},"properties":{"n":"VILLA RIVERO","p":18,"personas_x_ha":4,"masculinidad":64,"pct_menor20":39,"pct_60mas":17,"pct_migrante":39,"dependencia_econ":157,"pct_empleados":29,"pct_cuentapropia":43,"pct_agricultura":100,"pct_comercio":0,"pct_manufactura":0,"pct_construccion":14,"pct_transporte":0,"pct_alojamiento":0,"pct_educ_superior":58,"brecha_educ":11,"pct_sin_seguro":11,"pct_seguro_privado":0,"brecha_seguro":-18,"pct_med_tradicional":10,"pct_automedicacion":26,"pct_remedios_caseros":26,"pct_viv_desocupada":25,"pct_alquiler":0,"pct_electricidad":100,"pct_agua_red":33,"pct_alcantarillado":78,"pct_gas_red":56,"pct_gas_garrafa":44,"pct_lena_guano":44,"pct_basura_formal":78,"pct_basura_quema":0,"pct_basura_informal":0,"pct_internet":67,"pct_celular":78,"pct_televisor":78}},{"type":"Feature","geometry":{"type":"Polygon","coordinates":[[[-65.8132,-17.61488],[-65.81391,-17.61257],[-65.81372,-17.6125],[-65.81183,-17.6131],[-65.81178,-17.61323],[-65.81223,-17.61409],[-65.8126,-17.61526],[-65.81284,-17.61519],[-65.81282,-17.61505],[-65.8131,-17.61499],[-65.8132,-17.61488]]]},"properties":{"n":"VILLA RIVERO","p":27,"personas_x_ha":7,"masculinidad":59,"pct_menor20":15,"pct_60mas":26,"pct_migrante":30,"dependencia_econ":69,"pct_empleados":31,"pct_cuentapropia":50,"pct_agricultura":25,"pct_comercio":38,"pct_manufactura":0,"pct_construccion":0,"pct_transporte":0,"pct_alojamiento":6,"pct_educ_superior":57,"brecha_educ":-10,"pct_sin_seguro":11,"pct_seguro_privado":0,"brecha_seguro":14,"pct_med_tradicional":11,"pct_automedicacion":16,"pct_remedios_caseros":23,"pct_viv_desocupada":7,"pct_alquiler":0,"pct_electricidad":100,"pct_agua_red":57,"pct_alcantarillado":100,"pct_gas_red":43,"pct_gas_garrafa":57,"pct_lena_guano":57,"pct_basura_formal":100,"pct_basura_quema":0,"pct_basura_informal":0,"pct_internet":57,"pct_celular":71,"pct_televisor":86}},{"type":"Feature","geometry":{"type":"Polygon","coordinates":[[[-65.81269,-17.61578],[-65.81191,-17.61594],[-65.81193,-17.61672],[-65.81286,-17.6166],[-65.81269,-17.61578]]]},"properties":{"n":"VILLA RIVERO","p":51,"personas_x_ha":59,"masculinidad":104,"pct_menor20":31,"pct_60mas":16,"pct_migrante":20,"dependencia_econ":129,"pct_empleados":33,"pct_cuentapropia":43,"pct_agricultura":38,"pct_comercio":29,"pct_manufactura":0,"pct_construccion":33,"pct_transporte":0,"pct_alojamiento":5,"pct_educ_superior":26,"brecha_educ":5,"pct_sin_seguro":22,"pct_seguro_privado":4,"brecha_seguro":17,"pct_med_tradicional":12,"pct_automedicacion":15,"pct_remedios_caseros":24,"pct_viv_desocupada":9,"pct_alquiler":21,"pct_electricidad":100,"pct_agua_red":64,"pct_alcantarillado":93,"pct_gas_red":57,"pct_gas_garrafa":43,"pct_lena_guano":43,"pct_basura_formal":93,"pct_basura_quema":7,"pct_basura_informal":0,"pct_internet":50,"pct_celular":71,"pct_televisor":64}},{"type":"Feature","geometry":{"type":"Polygon","coordinates":[[[-65.81158,-17.61442],[-65.81219,-17.61415],[-65.81256,-17.61531],[-65.81187,-17.61547],[-65.81179,-17.61498],[-65.81158,-17.61442]]]},"properties":{"n":"VILLA RIVERO","p":53,"personas_x_ha":57,"masculinidad":66,"pct_menor20":13,"pct_60mas":19,"pct_migrante":60,"dependencia_econ":41,"pct_empleados":68,"pct_cuentapropia":27,"pct_agricultura":8,"pct_comercio":8,"pct_manufactura":8,"pct_construccion":3,"pct_transporte":5,"pct_alojamiento":5,"pct_educ_superior":59,"brecha_educ":-12,"pct_sin_seguro":2,"pct_seguro_privado":2,"brecha_seguro":5,"pct_med_tradicional":8,"pct_automedicacion":14,"pct_remedios_caseros":20,"pct_viv_desocupada":5,"pct_alquiler":13,"pct_electricidad":93,"pct_agua_red":80,"pct_alcantarillado":93,"pct_gas_red":53,"pct_gas_garrafa":33,"pct_lena_guano":33,"pct_basura_formal":80,"pct_basura_quema":13,"pct_basura_informal":13,"pct_internet":73,"pct_celular":67,"pct_televisor":73}},{"type":"Feature","geometry":{"type":"Polygon","coordinates":[[[-65.81627,-17.61526],[-65.81626,-17.61465],[-65.81515,-17.61481],[-65.81506,-17.61525],[-65.81447,-17.61561],[-65.81406,-17.61613],[-65.81403,-17.61627],[-65.81405,-17.61656],[-65.8145,-17.61732],[-65.81562,-17.61771],[-65.81632,-17.61809],[-65.81709,-17.61578],[-65.8167,-17.61532],[-65.81627,-17.61526]]]},"properties":{"n":"VILLA RIVERO","p":28,"personas_x_ha":4,"masculinidad":87,"pct_menor20":36,"pct_60mas":11,"pct_migrante":29,"dependencia_econ":65,"pct_empleados":35,"pct_cuentapropia":53,"pct_agricultura":53,"pct_comercio":0,"pct_manufactura":0,"pct_construccion":12,"pct_transporte":0,"pct_alojamiento":6,"pct_educ_superior":42,"brecha_educ":-39,"pct_sin_seguro":14,"pct_seguro_privado":0,"brecha_seguro":-12,"pct_med_tradicional":6,"pct_automedicacion":24,"pct_remedios_caseros":29,"pct_viv_desocupada":9,"pct_alquiler":0,"pct_electricidad":100,"pct_agua_red":43,"pct_alcantarillado":14,"pct_gas_red":0,"pct_gas_garrafa":100,"pct_lena_guano":100,"pct_basura_formal":0,"pct_basura_quema":86,"pct_basura_informal":29,"pct_internet":100,"pct_celular":100,"pct_televisor":100}},{"type":"Feature","geometry":{"type":"Polygon","coordinates":[[[-65.81065,-17.61675],[-65.8114,-17.61686],[-65.81187,-17.61681],[-65.81206,-17.61816],[-65.80984,-17.61847],[-65.80946,-17.61813],[-65.80785,-17.61721],[-65.8078,-17.61655],[-65.80694,-17.61592],[-65.80629,-17.61524],[-65.80744,-17.61468],[-65.80781,-17.6151],[-65.80827,-17.61494],[-65.80902,-17.61592],[-65.80937,-17.61615],[-65.80985,-17.61617],[-65.80991,-17.61641],[-65.81012,-17.61643],[-65.8106,-17.61669],[-65.81038,-17.61684],[-65.81065,-17.61675]]]},"properties":{"n":"VILLA RIVERO","p":76,"personas_x_ha":7,"masculinidad":105,"pct_menor20":26,"pct_60mas":17,"pct_migrante":62,"dependencia_econ":100,"pct_empleados":47,"pct_cuentapropia":34,"pct_agricultura":34,"pct_comercio":0,"pct_manufactura":3,"pct_construccion":18,"pct_transporte":11,"pct_alojamiento":5,"pct_educ_superior":48,"brecha_educ":-30,"pct_sin_seguro":13,"pct_seguro_privado":0,"brecha_seguro":5,"pct_med_tradicional":9,"pct_automedicacion":21,"pct_remedios_caseros":23,"pct_viv_desocupada":6,"pct_alquiler":8,"pct_electricidad":100,"pct_agua_red":88,"pct_alcantarillado":58,"pct_gas_red":42,"pct_gas_garrafa":54,"pct_lena_guano":54,"pct_basura_formal":67,"pct_basura_quema":33,"pct_basura_informal":0,"pct_internet":83,"pct_celular":92,"pct_televisor":88}},{"type":"Feature","geometry":{"type":"Polygon","coordinates":[[[-65.81194,-17.6168],[-65.81205,-17.61771],[-65.81304,-17.6176],[-65.81286,-17.61668],[-65.81194,-17.6168]]]},"properties":{"n":"VILLA RIVERO","p":32,"personas_x_ha":30,"masculinidad":88,"pct_menor20":31,"pct_60mas":28,"pct_migrante":56,"dependencia_econ":88,"pct_empleados":65,"pct_cuentapropia":29,"pct_agricultura":0,"pct_comercio":12,"pct_manufactura":0,"pct_construccion":6,"pct_transporte":6,"pct_alojamiento":18,"pct_educ_superior":68,"brecha_educ":-29,"pct_sin_seguro":14,"pct_seguro_privado":0,"brecha_seguro":1,"pct_med_tradicional":17,"pct_automedicacion":11,"pct_remedios_caseros":25,"pct_viv_desocupada":9,"pct_alquiler":23,"pct_electricidad":100,"pct_agua_red":100,"pct_alcantarillado":100,"pct_gas_red":77,"pct_gas_garrafa":23,"pct_lena_guano":23,"pct_basura_formal":100,"pct_basura_quema":0,"pct_basura_informal":0,"pct_internet":69,"pct_celular":92,"pct_televisor":69}},{"type":"Feature","geometry":{"type":"Polygon","coordinates":[[[-65.81377,-17.61339],[-65.81325,-17.61498],[-65.8133,-17.61506],[-65.81457,-17.61477],[-65.81399,-17.61421],[-65.81388,-17.61376],[-65.81397,-17.61336],[-65.81377,-17.61339]]]},"properties":{"n":"VILLA RIVERO","p":41,"personas_x_ha":38,"masculinidad":58,"pct_menor20":32,"pct_60mas":17,"pct_migrante":41,"dependencia_econ":242,"pct_empleados":50,"pct_cuentapropia":42,"pct_agricultura":0,"pct_comercio":8,"pct_manufactura":0,"pct_construccion":0,"pct_transporte":0,"pct_alojamiento":25,"pct_educ_superior":77,"brecha_educ":0,"pct_sin_seguro":5,"pct_seguro_privado":0,"brecha_seguro":3,"pct_med_tradicional":6,"pct_automedicacion":13,"pct_remedios_caseros":22,"pct_viv_desocupada":18,"pct_alquiler":8,"pct_electricidad":100,"pct_agua_red":92,"pct_alcantarillado":92,"pct_gas_red":58,"pct_gas_garrafa":42,"pct_lena_guano":42,"pct_basura_formal":100,"pct_basura_quema":0,"pct_basura_informal":0,"pct_internet":92,"pct_celular":92,"pct_televisor":83}},{"type":"Feature","geometry":{"type":"Polygon","coordinates":[[[-65.80785,-17.6132],[-65.80922,-17.61462],[-65.80951,-17.61553],[-65.8098,-17.61594],[-65.80984,-17.61614],[-65.80938,-17.61612],[-65.80904,-17.61589],[-65.8083,-17.61491],[-65.80782,-17.61505],[-65.8071,-17.61412],[-65.8069,-17.61381],[-65.80745,-17.61366],[-65.80738,-17.61341],[-65.80785,-17.6132]]]},"properties":{"n":"VILLA RIVERO","p":19,"personas_x_ha":5,"masculinidad":90,"pct_menor20":32,"pct_60mas":11,"pct_migrante":37,"dependencia_econ":138,"pct_empleados":62,"pct_cuentapropia":38,"pct_agricultura":25,"pct_comercio":0,"pct_manufactura":0,"pct_construccion":0,"pct_transporte":0,"pct_alojamiento":0,"pct_educ_superior":46,"brecha_educ":-20,"pct_sin_seguro":11,"pct_seguro_privado":0,"brecha_seguro":22,"pct_med_tradicional":0,"pct_automedicacion":23,"pct_remedios_caseros":27,"pct_viv_desocupada":0,"pct_alquiler":0,"pct_electricidad":100,"pct_agua_red":100,"pct_alcantarillado":80,"pct_gas_red":60,"pct_gas_garrafa":40,"pct_lena_guano":40,"pct_basura_formal":40,"pct_basura_quema":40,"pct_basura_informal":0,"pct_internet":100,"pct_celular":100,"pct_televisor":80}},{"type":"Feature","geometry":{"type":"Polygon","coordinates":[[[-65.81407,-17.61539],[-65.81396,-17.615],[-65.81329,-17.61517],[-65.81339,-17.61554],[-65.81407,-17.61539]]]},"properties":{"n":"VILLA RIVERO","p":21,"personas_x_ha":63,"masculinidad":62,"pct_menor20":29,"pct_60mas":14,"pct_migrante":29,"dependencia_econ":62,"pct_empleados":77,"pct_cuentapropia":23,"pct_agricultura":8,"pct_comercio":0,"pct_manufactura":0,"pct_construccion":0,"pct_transporte":0,"pct_alojamiento":0,"pct_educ_superior":93,"brecha_educ":17,"pct_sin_seguro":0,"pct_seguro_privado":0,"brecha_seguro":0,"pct_med_tradicional":8,"pct_automedicacion":17,"pct_remedios_caseros":8,"pct_viv_desocupada":57,"pct_alquiler":0,"pct_electricidad":100,"pct_agua_red":83,"pct_alcantarillado":100,"pct_gas_red":83,"pct_gas_garrafa":17,"pct_lena_guano":17,"pct_basura_formal":100,"pct_basura_quema":0,"pct_basura_informal":0,"pct_internet":83,"pct_celular":100,"pct_televisor":100}},{"type":"Feature","geometry":{"type":"Polygon","coordinates":[[[-65.8118,-17.61557],[-65.81111,-17.61565],[-65.81118,-17.61604],[-65.81184,-17.61587],[-65.8118,-17.61557]]]},"properties":{"n":"VILLA RIVERO","p":18,"personas_x_ha":62,"masculinidad":80,"pct_menor20":22,"pct_60mas":17,"pct_migrante":33,"dependencia_econ":112,"pct_empleados":62,"pct_cuentapropia":12,"pct_agricultura":25,"pct_comercio":0,"pct_manufactura":0,"pct_construccion":0,"pct_transporte":12,"pct_alojamiento":0,"pct_educ_superior":60,"brecha_educ":-16,"pct_sin_seguro":12,"pct_seguro_privado":0,"brecha_seguro":-22,"pct_med_tradicional":11,"pct_automedicacion":20,"pct_remedios_caseros":27,"pct_viv_desocupada":0,"pct_alquiler":0,"pct_electricidad":100,"pct_agua_red":86,"pct_alcantarillado":100,"pct_gas_red":86,"pct_gas_garrafa":14,"pct_lena_guano":14,"pct_basura_formal":100,"pct_basura_quema":0,"pct_basura_informal":0,"pct_internet":86,"pct_celular":100,"pct_televisor":86}},{"type":"Feature","geometry":{"type":"Polygon","coordinates":[[[-65.81334,-17.61554],[-65.81274,-17.61569],[-65.81262,-17.61537],[-65.81324,-17.61516],[-65.81334,-17.61554]]]},"properties":{"n":"VILLA RIVERO","p":30,"personas_x_ha":101,"masculinidad":88,"pct_menor20":23,"pct_60mas":17,"pct_migrante":43,"dependencia_econ":87,"pct_empleados":33,"pct_cuentapropia":33,"pct_agricultura":53,"pct_comercio":7,"pct_manufactura":0,"pct_construccion":0,"pct_transporte":7,"pct_alojamiento":0,"pct_educ_superior":55,"brecha_educ":-8,"pct_sin_seguro":4,"pct_seguro_privado":0,"brecha_seguro":8,"pct_med_tradicional":12,"pct_automedicacion":12,"pct_remedios_caseros":28,"pct_viv_desocupada":21,"pct_alquiler":0,"pct_electricidad":100,"pct_agua_red":86,"pct_alcantarillado":86,"pct_gas_red":43,"pct_gas_garrafa":57,"pct_lena_guano":57,"pct_basura_formal":100,"pct_basura_quema":0,"pct_basura_informal":0,"pct_internet":86,"pct_celular":86,"pct_televisor":86}},{"type":"Feature","geometry":{"type":"Polygon","coordinates":[[[-65.81179,-17.61235],[-65.81403,-17.61073],[-65.81412,-17.61118],[-65.81429,-17.61149],[-65.81397,-17.6125],[-65.81362,-17.61246],[-65.81175,-17.61304],[-65.81155,-17.61268],[-65.81179,-17.61235]]]},"properties":{"n":"VILLA RIVERO","p":21,"personas_x_ha":6,"masculinidad":62,"pct_menor20":43,"pct_60mas":14,"pct_migrante":48,"dependencia_econ":110,"pct_empleados":30,"pct_cuentapropia":70,"pct_agricultura":20,"pct_comercio":50,"pct_manufactura":0,"pct_construccion":10,"pct_transporte":10,"pct_alojamiento":0,"pct_educ_superior":33,"brecha_educ":-9,"pct_sin_seguro":29,"pct_seguro_privado":0,"brecha_seguro":-26,"pct_med_tradicional":2,"pct_automedicacion":19,"pct_remedios_caseros":34,"pct_viv_desocupada":10,"pct_alquiler":0,"pct_electricidad":100,"pct_agua_red":43,"pct_alcantarillado":0,"pct_gas_red":43,"pct_gas_garrafa":57,"pct_lena_guano":57,"pct_basura_formal":100,"pct_basura_quema":0,"pct_basura_informal":0,"pct_internet":57,"pct_celular":86,"pct_televisor":100}},{"type":"Feature","geometry":{"type":"Polygon","coordinates":[[[-65.81274,-17.61574],[-65.81335,-17.61562],[-65.81356,-17.61651],[-65.81292,-17.61661],[-65.81274,-17.61574]]]},"properties":{"n":"VILLA RIVERO","p":43,"personas_x_ha":62,"masculinidad":87,"pct_menor20":19,"pct_60mas":30,"pct_migrante":28,"dependencia_econ":115,"pct_empleados":55,"pct_cuentapropia":30,"pct_agricultura":5,"pct_comercio":10,"pct_manufactura":10,"pct_construccion":0,"pct_transporte":0,"pct_alojamiento":10,"pct_educ_superior":56,"brecha_educ":-21,"pct_sin_seguro":2,"pct_seguro_privado":0,"brecha_seguro":5,"pct_med_tradicional":8,"pct_automedicacion":12,"pct_remedios_caseros":19,"pct_viv_desocupada":0,"pct_alquiler":0,"pct_electricidad":100,"pct_agua_red":92,"pct_alcantarillado":92,"pct_gas_red":77,"pct_gas_garrafa":23,"pct_lena_guano":23,"pct_basura_formal":100,"pct_basura_quema":0,"pct_basura_informal":0,"pct_internet":38,"pct_celular":77,"pct_televisor":85}},{"type":"Feature","geometry":{"type":"Polygon","coordinates":[[[-65.81489,-17.61417],[-65.81525,-17.61424],[-65.81617,-17.61414],[-65.8161,-17.61453],[-65.81495,-17.61471],[-65.81479,-17.61456],[-65.81489,-17.61417]]]},"properties":{"n":"VILLA RIVERO","p":28,"personas_x_ha":43,"masculinidad":87,"pct_menor20":43,"pct_60mas":4,"pct_migrante":21,"dependencia_econ":145,"pct_empleados":55,"pct_cuentapropia":36,"pct_agricultura":9,"pct_comercio":0,"pct_manufactura":0,"pct_construccion":0,"pct_transporte":0,"pct_alojamiento":0,"pct_educ_superior":82,"brecha_educ":0,"pct_sin_seguro":0,"pct_seguro_privado":0,"brecha_seguro":0,"pct_med_tradicional":10,"pct_automedicacion":12,"pct_remedios_caseros":12,"pct_viv_desocupada":0,"pct_alquiler":0,"pct_electricidad":100,"pct_agua_red":62,"pct_alcantarillado":75,"pct_gas_red":88,"pct_gas_garrafa":12,"pct_lena_guano":12,"pct_basura_formal":75,"pct_basura_quema":25,"pct_basura_informal":0,"pct_internet":88,"pct_celular":88,"pct_televisor":88}},{"type":"Feature","geometry":{"type":"Polygon","coordinates":[[[-65.81366,-17.61702],[-65.81356,-17.61658],[-65.81292,-17.61668],[-65.81316,-17.61759],[-65.81345,-17.61756],[-65.81366,-17.61702]]]},"properties":{"n":"VILLA RIVERO","p":22,"personas_x_ha":34,"masculinidad":175,"pct_menor20":18,"pct_60mas":18,"pct_migrante":73,"dependencia_econ":100,"pct_empleados":45,"pct_cuentapropia":55,"pct_agricultura":0,"pct_comercio":27,"pct_manufactura":9,"pct_construccion":18,"pct_transporte":9,"pct_alojamiento":0,"pct_educ_superior":56,"brecha_educ":-29,"pct_sin_seguro":5,"pct_seguro_privado":0,"brecha_seguro":7,"pct_med_tradicional":15,"pct_automedicacion":14,"pct_remedios_caseros":28,"pct_viv_desocupada":7,"pct_alquiler":0,"pct_electricidad":100,"pct_agua_red":100,"pct_alcantarillado":100,"pct_gas_red":70,"pct_gas_garrafa":30,"pct_lena_guano":30,"pct_basura_formal":100,"pct_basura_quema":0,"pct_basura_informal":0,"pct_internet":60,"pct_celular":60,"pct_televisor":60}},{"type":"Feature","geometry":{"type":"Polygon","coordinates":[[[-65.81186,-17.61594],[-65.81063,-17.61624],[-65.81045,-17.61633],[-65.81036,-17.61648],[-65.81077,-17.61672],[-65.81187,-17.61677],[-65.81186,-17.61594]]]},"properties":{"n":"VILLA RIVERO","p":42,"personas_x_ha":40,"masculinidad":62,"pct_menor20":29,"pct_60mas":19,"pct_migrante":74,"dependencia_econ":180,"pct_empleados":20,"pct_cuentapropia":27,"pct_agricultura":27,"pct_comercio":27,"pct_manufactura":0,"pct_construccion":0,"pct_transporte":7,"pct_alojamiento":0,"pct_educ_superior":67,"brecha_educ":-3,"pct_sin_seguro":29,"pct_seguro_privado":0,"brecha_seguro":45,"pct_med_tradicional":4,"pct_automedicacion":8,"pct_remedios_caseros":14,"pct_viv_desocupada":15,"pct_alquiler":0,"pct_electricidad":100,"pct_agua_red":100,"pct_alcantarillado":100,"pct_gas_red":70,"pct_gas_garrafa":30,"pct_lena_guano":30,"pct_basura_formal":100,"pct_basura_quema":0,"pct_basura_informal":0,"pct_internet":80,"pct_celular":100,"pct_televisor":100}}]}