{"type":"FeatureCollection","features":[{"type":"Feature","geometry":{"type":"Polygon","coordinates":[[[-65.28514,-17.66068],[-65.28411,-17.66084],[-65.28423,-17.66137],[-65.28525,-17.6611],[-65.28514,-17.66068]]]},"properties":{"n":"CHIMBOATA","p":16,"personas_x_ha":25,"masculinidad":220,"pct_menor20":25,"pct_60mas":25,"pct_migrante":31,"dependencia_econ":7,"pct_empleados":7,"pct_cuentapropia":73,"pct_agricultura":67,"pct_comercio":27,"pct_manufactura":0,"pct_construccion":0,"pct_transporte":0,"pct_alojamiento":0,"pct_sin_educacion":8,"pct_educ_superior":31,"brecha_educ":-28,"pct_sin_seguro":0,"pct_sus":87,"pct_seguro_privado":13,"brecha_seguro":0,"pct_salud_publica":29,"pct_med_tradicional":14,"pct_automedicacion":16,"pct_remedios_caseros":31,"pct_viv_desocupada":0,"pct_alquiler":0,"pct_electricidad":100,"pct_sin_electricidad":0,"pct_agua_red":100,"pct_alcantarillado":0,"pct_camara_septica":71,"pct_pozo_ciego":14,"pct_sin_desague":14,"pct_gas_red":0,"pct_gas_garrafa":86,"pct_lena_guano":14,"pct_basura_formal":0,"pct_basura_quema":29,"pct_basura_informal":57,"pct_internet":86,"pct_celular":100,"pct_televisor":100}},{"type":"Feature","geometry":{"type":"Polygon","coordinates":[[[-65.30161,-17.58384],[-65.30186,-17.58393],[-65.30224,-17.58292],[-65.30197,-17.58285],[-65.30161,-17.58384]]]},"properties":{"n":"MONTE PUNKU A","p":25,"personas_x_ha":69,"masculinidad":67,"pct_menor20":48,"pct_60mas":4,"pct_migrante":72,"dependencia_econ":92,"pct_empleados":15,"pct_cuentapropia":46,"pct_agricultura":62,"pct_comercio":8,"pct_manufactura":8,"pct_construccion":0,"pct_transporte":0,"pct_alojamiento":8,"pct_sin_educacion":7,"pct_educ_superior":20,"brecha_educ":0,"pct_sin_seguro":16,"pct_sus":84,"pct_seguro_privado":0,"brecha_seguro":7,"pct_salud_publica":24,"pct_med_tradicional":5,"pct_automedicacion":23,"pct_remedios_caseros":20,"pct_viv_desocupada":0,"pct_alquiler":57,"pct_electricidad":100,"pct_sin_electricidad":0,"pct_agua_red":86,"pct_alcantarillado":14,"pct_camara_septica":0,"pct_pozo_ciego":71,"pct_sin_desague":0,"pct_gas_red":0,"pct_gas_garrafa":100,"pct_lena_guano":0,"pct_basura_formal":0,"pct_basura_quema":100,"pct_basura_informal":0,"pct_internet":86,"pct_celular":86,"pct_televisor":71}},{"type":"Feature","geometry":{"type":"Polygon","coordinates":[[[-65.30153,-17.58668],[-65.30053,-17.58686],[-65.30036,-17.58697],[-65.30012,-17.58755],[-65.29971,-17.58683],[-65.30141,-17.58602],[-65.30154,-17.58604],[-65.30181,-17.58635],[-65.30232,-17.58629],[-65.30247,-17.58641],[-65.3019,-17.58687],[-65.30153,-17.58668]]]},"properties":{"n":"MONTE PUNKU A","p":15,"personas_x_ha":9,"masculinidad":150,"pct_menor20":20,"pct_60mas":0,"pct_migrante":60,"dependencia_econ":36,"pct_empleados":82,"pct_cuentapropia":18,"pct_agricultura":18,"pct_comercio":18,"pct_manufactura":0,"pct_construccion":64,"pct_transporte":0,"pct_alojamiento":0,"pct_sin_educacion":0,"pct_educ_superior":8,"brecha_educ":25,"pct_sin_seguro":13,"pct_sus":60,"pct_seguro_privado":0,"brecha_seguro":22,"pct_salud_publica":28,"pct_med_tradicional":8,"pct_automedicacion":21,"pct_remedios_caseros":23,"pct_viv_desocupada":11,"pct_alquiler":25,"pct_electricidad":100,"pct_sin_electricidad":0,"pct_agua_red":100,"pct_alcantarillado":25,"pct_camara_septica":50,"pct_pozo_ciego":0,"pct_sin_desague":0,"pct_gas_red":0,"pct_gas_garrafa":100,"pct_lena_guano":0,"pct_basura_formal":0,"pct_basura_quema":100,"pct_basura_informal":0,"pct_internet":75,"pct_celular":75,"pct_televisor":50}},{"type":"Feature","geometry":{"type":"Polygon","coordinates":[[[-65.30075,-17.58546],[-65.30028,-17.58567],[-65.30054,-17.5861],[-65.30106,-17.58587],[-65.30104,-17.58576],[-65.30075,-17.58546]]]},"properties":{"n":"MONTE PUNKU A","p":28,"personas_x_ha":81,"masculinidad":115,"pct_menor20":46,"pct_60mas":0,"pct_migrante":39,"dependencia_econ":87,"pct_empleados":20,"pct_cuentapropia":60,"pct_agricultura":47,"pct_comercio":20,"pct_manufactura":0,"pct_construccion":0,"pct_transporte":7,"pct_alojamiento":0,"pct_sin_educacion":0,"pct_educ_superior":13,"brecha_educ":-32,"pct_sin_seguro":14,"pct_sus":82,"pct_seguro_privado":4,"brecha_seguro":12,"pct_salud_publica":39,"pct_med_tradicional":0,"pct_automedicacion":19,"pct_remedios_caseros":33,"pct_viv_desocupada":11,"pct_alquiler":12,"pct_electricidad":100,"pct_sin_electricidad":0,"pct_agua_red":100,"pct_alcantarillado":0,"pct_camara_septica":0,"pct_pozo_ciego":12,"pct_sin_desague":0,"pct_gas_red":0,"pct_gas_garrafa":88,"pct_lena_guano":0,"pct_basura_formal":12,"pct_basura_quema":88,"pct_basura_informal":0,"pct_internet":88,"pct_celular":100,"pct_televisor":62}},{"type":"Feature","geometry":{"type":"Polygon","coordinates":[[[-65.30359,-17.58443],[-65.3033,-17.58461],[-65.30341,-17.58486],[-65.30502,-17.58405],[-65.30456,-17.58355],[-65.30344,-17.58409],[-65.30314,-17.58392],[-65.30285,-17.58344],[-65.30257,-17.58333],[-65.3023,-17.5842],[-65.30305,-17.5839],[-65.30229,-17.58423],[-65.3024,-17.58452],[-65.30309,-17.58424],[-65.30311,-17.58429],[-65.30247,-17.58458],[-65.30253,-17.58485],[-65.30359,-17.58443]]]},"properties":{"n":"MONTE PUNKU A","p":94,"personas_x_ha":38,"masculinidad":114,"pct_menor20":52,"pct_60mas":10,"pct_migrante":48,"dependencia_econ":185,"pct_empleados":27,"pct_cuentapropia":64,"pct_agricultura":91,"pct_comercio":6,"pct_manufactura":0,"pct_construccion":0,"pct_transporte":0,"pct_alojamiento":0,"pct_sin_educacion":15,"pct_educ_superior":11,"brecha_educ":-23,"pct_sin_seguro":2,"pct_sus":89,"pct_seguro_privado":0,"brecha_seguro":0,"pct_salud_publica":27,"pct_med_tradicional":11,"pct_automedicacion":22,"pct_remedios_caseros":24,"pct_viv_desocupada":4,"pct_alquiler":9,"pct_electricidad":94,"pct_sin_electricidad":6,"pct_agua_red":67,"pct_alcantarillado":3,"pct_camara_septica":9,"pct_pozo_ciego":79,"pct_sin_desague":6,"pct_gas_red":3,"pct_gas_garrafa":85,"pct_lena_guano":6,"pct_basura_formal":0,"pct_basura_quema":97,"pct_basura_informal":3,"pct_internet":88,"pct_celular":91,"pct_televisor":76}},{"type":"Feature","geometry":{"type":"Polygon","coordinates":[[[-65.3004,-17.58408],[-65.30055,-17.58403],[-65.30169,-17.58451],[-65.30208,-17.58513],[-65.30202,-17.58545],[-65.30169,-17.5857],[-65.30143,-17.58549],[-65.30106,-17.58559],[-65.30075,-17.58533],[-65.29996,-17.58496],[-65.29994,-17.58486],[-65.30017,-17.58468],[-65.30016,-17.5845],[-65.3004,-17.58408]]]},"properties":{"n":"MONTE PUNKU A","p":44,"personas_x_ha":18,"masculinidad":132,"pct_menor20":43,"pct_60mas":7,"pct_migrante":20,"dependencia_econ":91,"pct_empleados":4,"pct_cuentapropia":78,"pct_agricultura":83,"pct_comercio":4,"pct_manufactura":0,"pct_construccion":4,"pct_transporte":4,"pct_alojamiento":0,"pct_sin_educacion":0,"pct_educ_superior":8,"brecha_educ":6,"pct_sin_seguro":2,"pct_sus":98,"pct_seguro_privado":0,"brecha_seguro":-6,"pct_salud_publica":31,"pct_med_tradicional":13,"pct_automedicacion":10,"pct_remedios_caseros":28,"pct_viv_desocupada":5,"pct_alquiler":0,"pct_electricidad":100,"pct_sin_electricidad":0,"pct_agua_red":40,"pct_alcantarillado":13,"pct_camara_septica":0,"pct_pozo_ciego":67,"pct_sin_desague":20,"pct_gas_red":0,"pct_gas_garrafa":87,"pct_lena_guano":7,"pct_basura_formal":0,"pct_basura_quema":93,"pct_basura_informal":7,"pct_internet":87,"pct_celular":93,"pct_televisor":80}},{"type":"Feature","geometry":{"type":"Polygon","coordinates":[[[-65.30519,-17.58671],[-65.30458,-17.58681],[-65.30413,-17.58705],[-65.30396,-17.586],[-65.30426,-17.58593],[-65.30496,-17.58614],[-65.30486,-17.58642],[-65.30519,-17.58664],[-65.30519,-17.58671]]]},"properties":{"n":"MONTE PUNKU A","p":15,"personas_x_ha":15,"masculinidad":67,"pct_menor20":53,"pct_60mas":0,"pct_migrante":73,"dependencia_econ":67,"pct_empleados":0,"pct_cuentapropia":67,"pct_agricultura":67,"pct_comercio":33,"pct_manufactura":0,"pct_construccion":0,"pct_transporte":0,"pct_alojamiento":0,"pct_sin_educacion":0,"pct_educ_superior":0,"brecha_educ":-33,"pct_sin_seguro":40,"pct_sus":60,"pct_seguro_privado":0,"brecha_seguro":17,"pct_salud_publica":26,"pct_med_tradicional":7,"pct_automedicacion":13,"pct_remedios_caseros":28,"pct_viv_desocupada":11,"pct_alquiler":14,"pct_electricidad":71,"pct_sin_electricidad":29,"pct_agua_red":0,"pct_alcantarillado":14,"pct_camara_septica":0,"pct_pozo_ciego":43,"pct_sin_desague":43,"pct_gas_red":0,"pct_gas_garrafa":71,"pct_lena_guano":14,"pct_basura_formal":0,"pct_basura_quema":100,"pct_basura_informal":0,"pct_internet":71,"pct_celular":86,"pct_televisor":57}},{"type":"Feature","geometry":{"type":"Polygon","coordinates":[[[-65.30182,-17.58442],[-65.30207,-17.58468],[-65.30235,-17.5845],[-65.3022,-17.5842],[-65.30158,-17.5839],[-65.30144,-17.58386],[-65.30135,-17.58392],[-65.3012,-17.58416],[-65.30182,-17.58442]]]},"properties":{"n":"MONTE PUNKU A","p":25,"personas_x_ha":51,"masculinidad":108,"pct_menor20":60,"pct_60mas":0,"pct_migrante":20,"dependencia_econ":92,"pct_empleados":23,"pct_cuentapropia":69,"pct_agricultura":46,"pct_comercio":15,"pct_manufactura":0,"pct_construccion":0,"pct_transporte":0,"pct_alojamiento":8,"pct_sin_educacion":0,"pct_educ_superior":9,"brecha_educ":-3,"pct_sin_seguro":8,"pct_sus":88,"pct_seguro_privado":0,"brecha_seguro":15,"pct_salud_publica":26,"pct_med_tradicional":15,"pct_automedicacion":15,"pct_remedios_caseros":16,"pct_viv_desocupada":0,"pct_alquiler":0,"pct_electricidad":100,"pct_sin_electricidad":0,"pct_agua_red":38,"pct_alcantarillado":0,"pct_camara_septica":12,"pct_pozo_ciego":75,"pct_sin_desague":12,"pct_gas_red":0,"pct_gas_garrafa":100,"pct_lena_guano":0,"pct_basura_formal":0,"pct_basura_quema":88,"pct_basura_informal":12,"pct_internet":75,"pct_celular":100,"pct_televisor":100}},{"type":"Feature","geometry":{"type":"Polygon","coordinates":[[[-65.30392,-17.58703],[-65.3038,-17.58598],[-65.30314,-17.58602],[-65.30248,-17.58621],[-65.30267,-17.58687],[-65.30307,-17.58699],[-65.30326,-17.58715],[-65.30392,-17.58703]]]},"properties":{"n":"MONTE PUNKU A","p":34,"personas_x_ha":22,"masculinidad":89,"pct_menor20":62,"pct_60mas":0,"pct_migrante":68,"dependencia_econ":209,"pct_empleados":27,"pct_cuentapropia":36,"pct_agricultura":64,"pct_comercio":0,"pct_manufactura":0,"pct_construccion":0,"pct_transporte":9,"pct_alojamiento":18,"pct_sin_educacion":0,"pct_educ_superior":0,"brecha_educ":0,"pct_sin_seguro":9,"pct_sus":91,"pct_seguro_privado":0,"brecha_seguro":7,"pct_salud_publica":31,"pct_med_tradicional":15,"pct_automedicacion":17,"pct_remedios_caseros":17,"pct_viv_desocupada":25,"pct_alquiler":0,"pct_electricidad":78,"pct_sin_electricidad":22,"pct_agua_red":78,"pct_alcantarillado":0,"pct_camara_septica":0,"pct_pozo_ciego":56,"pct_sin_desague":44,"pct_gas_red":0,"pct_gas_garrafa":100,"pct_lena_guano":0,"pct_basura_formal":11,"pct_basura_quema":89,"pct_basura_informal":0,"pct_internet":89,"pct_celular":89,"pct_televisor":44}},{"type":"Feature","geometry":{"type":"Polygon","coordinates":[[[-65.4211,-17.67399],[-65.42039,-17.67363],[-65.42002,-17.67431],[-65.42073,-17.67461],[-65.4211,-17.67399]]]},"properties":{"n":"POCONA","p":21,"personas_x_ha":29,"masculinidad":62,"pct_menor20":19,"pct_60mas":24,"pct_migrante":67,"dependencia_econ":62,"pct_empleados":38,"pct_cuentapropia":46,"pct_agricultura":38,"pct_comercio":23,"pct_manufactura":0,"pct_construccion":0,"pct_transporte":0,"pct_alojamiento":8,"pct_sin_educacion":0,"pct_educ_superior":59,"brecha_educ":-8,"pct_sin_seguro":14,"pct_sus":57,"pct_seguro_privado":0,"brecha_seguro":-3,"pct_salud_publica":21,"pct_med_tradicional":16,"pct_automedicacion":19,"pct_remedios_caseros":28,"pct_viv_desocupada":0,"pct_alquiler":17,"pct_electricidad":100,"pct_sin_electricidad":0,"pct_agua_red":100,"pct_alcantarillado":0,"pct_camara_septica":33,"pct_pozo_ciego":50,"pct_sin_desague":17,"pct_gas_red":0,"pct_gas_garrafa":67,"pct_lena_guano":33,"pct_basura_formal":0,"pct_basura_quema":83,"pct_basura_informal":0,"pct_internet":100,"pct_celular":100,"pct_televisor":83}},{"type":"Feature","geometry":{"type":"Polygon","coordinates":[[[-65.41894,-17.67597],[-65.41952,-17.67503],[-65.41883,-17.67468],[-65.41827,-17.67561],[-65.41894,-17.67597]]]},"properties":{"n":"POCONA","p":25,"personas_x_ha":24,"masculinidad":127,"pct_menor20":44,"pct_60mas":24,"pct_migrante":64,"dependencia_econ":79,"pct_empleados":36,"pct_cuentapropia":43,"pct_agricultura":7,"pct_comercio":7,"pct_manufactura":0,"pct_construccion":21,"pct_transporte":14,"pct_alojamiento":14,"pct_sin_educacion":0,"pct_educ_superior":43,"brecha_educ":0,"pct_sin_seguro":12,"pct_sus":62,"pct_seguro_privado":0,"brecha_seguro":4,"pct_salud_publica":31,"pct_med_tradicional":19,"pct_automedicacion":14,"pct_remedios_caseros":16,"pct_viv_desocupada":0,"pct_alquiler":0,"pct_electricidad":100,"pct_sin_electricidad":0,"pct_agua_red":56,"pct_alcantarillado":33,"pct_camara_septica":33,"pct_pozo_ciego":33,"pct_sin_desague":0,"pct_gas_red":0,"pct_gas_garrafa":100,"pct_lena_guano":0,"pct_basura_formal":11,"pct_basura_quema":44,"pct_basura_informal":22,"pct_internet":44,"pct_celular":56,"pct_televisor":44}},{"type":"Feature","geometry":{"type":"Polygon","coordinates":[[[-65.41992,-17.67432],[-65.41923,-17.67397],[-65.41885,-17.67463],[-65.41956,-17.67498],[-65.41992,-17.67432]]]},"properties":{"n":"POCONA","p":18,"personas_x_ha":26,"masculinidad":100,"pct_menor20":11,"pct_60mas":28,"pct_migrante":44,"dependencia_econ":64,"pct_empleados":27,"pct_cuentapropia":73,"pct_agricultura":36,"pct_comercio":9,"pct_manufactura":0,"pct_construccion":9,"pct_transporte":27,"pct_alojamiento":0,"pct_sin_educacion":0,"pct_educ_superior":25,"brecha_educ":12,"pct_sin_seguro":0,"pct_sus":83,"pct_seguro_privado":11,"brecha_seguro":0,"pct_salud_publica":24,"pct_med_tradicional":16,"pct_automedicacion":19,"pct_remedios_caseros":24,"pct_viv_desocupada":0,"pct_alquiler":0,"pct_electricidad":100,"pct_sin_electricidad":0,"pct_agua_red":78,"pct_alcantarillado":11,"pct_camara_septica":11,"pct_pozo_ciego":78,"pct_sin_desague":0,"pct_gas_red":0,"pct_gas_garrafa":67,"pct_lena_guano":33,"pct_basura_formal":11,"pct_basura_quema":22,"pct_basura_informal":44,"pct_internet":89,"pct_celular":100,"pct_televisor":67}},{"type":"Feature","geometry":{"type":"Polygon","coordinates":[[[-65.423,-17.67491],[-65.42114,-17.67401],[-65.42077,-17.67466],[-65.42272,-17.67561],[-65.423,-17.67491]]]},"properties":{"n":"POCONA","p":17,"personas_x_ha":9,"masculinidad":143,"pct_menor20":47,"pct_60mas":6,"pct_migrante":47,"dependencia_econ":45,"pct_empleados":27,"pct_cuentapropia":45,"pct_agricultura":55,"pct_comercio":0,"pct_manufactura":0,"pct_construccion":0,"pct_transporte":0,"pct_alojamiento":9,"pct_sin_educacion":0,"pct_educ_superior":22,"brecha_educ":-15,"pct_sin_seguro":0,"pct_sus":100,"pct_seguro_privado":0,"brecha_seguro":0,"pct_salud_publica":42,"pct_med_tradicional":30,"pct_automedicacion":0,"pct_remedios_caseros":0,"pct_viv_desocupada":0,"pct_alquiler":0,"pct_electricidad":100,"pct_sin_electricidad":0,"pct_agua_red":40,"pct_alcantarillado":0,"pct_camara_septica":0,"pct_pozo_ciego":100,"pct_sin_desague":0,"pct_gas_red":0,"pct_gas_garrafa":100,"pct_lena_guano":0,"pct_basura_formal":0,"pct_basura_quema":100,"pct_basura_informal":0,"pct_internet":80,"pct_celular":80,"pct_televisor":80}},{"type":"Feature","geometry":{"type":"Polygon","coordinates":[[[-65.41821,-17.67558],[-65.41876,-17.67464],[-65.41805,-17.67431],[-65.41757,-17.67517],[-65.41821,-17.67558]]]},"properties":{"n":"POCONA","p":16,"personas_x_ha":17,"masculinidad":100,"pct_menor20":19,"pct_60mas":44,"pct_migrante":56,"dependencia_econ":88,"pct_empleados":0,"pct_cuentapropia":75,"pct_agricultura":50,"pct_comercio":12,"pct_manufactura":12,"pct_construccion":0,"pct_transporte":0,"pct_alojamiento":0,"pct_sin_educacion":17,"pct_educ_superior":17,"brecha_educ":-3,"pct_sin_seguro":13,"pct_sus":60,"pct_seguro_privado":0,"brecha_seguro":-25,"pct_salud_publica":19,"pct_med_tradicional":17,"pct_automedicacion":17,"pct_remedios_caseros":24,"pct_viv_desocupada":0,"pct_alquiler":0,"pct_electricidad":100,"pct_sin_electricidad":0,"pct_agua_red":62,"pct_alcantarillado":0,"pct_camara_septica":50,"pct_pozo_ciego":38,"pct_sin_desague":12,"pct_gas_red":0,"pct_gas_garrafa":75,"pct_lena_guano":25,"pct_basura_formal":0,"pct_basura_quema":62,"pct_basura_informal":25,"pct_internet":50,"pct_celular":75,"pct_televisor":75}},{"type":"Feature","geometry":{"type":"Polygon","coordinates":[[[-65.4188,-17.67459],[-65.41917,-17.67394],[-65.41847,-17.67358],[-65.41809,-17.67425],[-65.4188,-17.67459]]]},"properties":{"n":"POCONA","p":41,"personas_x_ha":58,"masculinidad":71,"pct_menor20":46,"pct_60mas":17,"pct_migrante":39,"dependencia_econ":128,"pct_empleados":11,"pct_cuentapropia":78,"pct_agricultura":50,"pct_comercio":33,"pct_manufactura":0,"pct_construccion":0,"pct_transporte":0,"pct_alojamiento":11,"pct_sin_educacion":4,"pct_educ_superior":13,"brecha_educ":-13,"pct_sin_seguro":2,"pct_sus":95,"pct_seguro_privado":0,"brecha_seguro":6,"pct_salud_publica":30,"pct_med_tradicional":11,"pct_automedicacion":17,"pct_remedios_caseros":27,"pct_viv_desocupada":0,"pct_alquiler":7,"pct_electricidad":100,"pct_sin_electricidad":0,"pct_agua_red":47,"pct_alcantarillado":0,"pct_camara_septica":7,"pct_pozo_ciego":87,"pct_sin_desague":7,"pct_gas_red":0,"pct_gas_garrafa":53,"pct_lena_guano":47,"pct_basura_formal":0,"pct_basura_quema":93,"pct_basura_informal":7,"pct_internet":53,"pct_celular":80,"pct_televisor":60}}]}