{"type":"FeatureCollection","features":[{"type":"Feature","geometry":{"type":"Polygon","coordinates":[[[-64.89398,-17.84812],[-64.89481,-17.8469],[-64.89504,-17.84643],[-64.8948,-17.84618],[-64.89458,-17.84644],[-64.89414,-17.84643],[-64.89378,-17.84607],[-64.89367,-17.84573],[-64.89345,-17.84552],[-64.89304,-17.84593],[-64.8928,-17.84675],[-64.89248,-17.84712],[-64.89278,-17.84758],[-64.89271,-17.84779],[-64.8928,-17.8482],[-64.89308,-17.84842],[-64.89337,-17.84845],[-64.89398,-17.84812]]]},"properties":{"n":"CHALLHUANI","p":20,"personas_x_ha":4,"masculinidad":122,"pct_menor20":40,"pct_60mas":5,"pct_migrante":30,"dependencia_econ":67,"pct_empleados":0,"pct_cuentapropia":50,"pct_agricultura":75,"pct_comercio":8,"pct_manufactura":8,"pct_construccion":0,"pct_transporte":0,"pct_alojamiento":0,"pct_sin_educacion":0,"pct_educ_superior":0,"brecha_educ":-17,"pct_sin_seguro":20,"pct_sus":80,"pct_seguro_privado":0,"brecha_seguro":16,"pct_salud_publica":34,"pct_med_tradicional":7,"pct_automedicacion":27,"pct_remedios_caseros":29,"pct_viv_desocupada":9,"pct_alquiler":0,"pct_electricidad":75,"pct_sin_electricidad":12,"pct_agua_red":12,"pct_alcantarillado":12,"pct_camara_septica":0,"pct_pozo_ciego":62,"pct_sin_desague":25,"pct_gas_red":0,"pct_gas_garrafa":100,"pct_lena_guano":0,"pct_basura_formal":12,"pct_basura_quema":88,"pct_basura_informal":0,"pct_internet":75,"pct_celular":75,"pct_televisor":62}},{"type":"Feature","geometry":{"type":"Polygon","coordinates":[[[-64.89681,-17.84383],[-64.89749,-17.84303],[-64.89753,-17.84247],[-64.89777,-17.84172],[-64.89713,-17.84223],[-64.89704,-17.84259],[-64.89707,-17.84278],[-64.89703,-17.84292],[-64.89709,-17.84307],[-64.89702,-17.84293],[-64.89702,-17.84286],[-64.89704,-17.84251],[-64.89712,-17.84223],[-64.89688,-17.84235],[-64.89668,-17.8426],[-64.89668,-17.84329],[-64.89681,-17.84383]]]},"properties":{"n":"CHALLHUANI","p":58,"personas_x_ha":46,"masculinidad":123,"pct_menor20":50,"pct_60mas":0,"pct_migrante":14,"dependencia_econ":71,"pct_empleados":9,"pct_cuentapropia":68,"pct_agricultura":76,"pct_comercio":3,"pct_manufactura":3,"pct_construccion":6,"pct_transporte":3,"pct_alojamiento":3,"pct_sin_educacion":0,"pct_educ_superior":13,"brecha_educ":-1,"pct_sin_seguro":18,"pct_sus":81,"pct_seguro_privado":0,"brecha_seguro":-3,"pct_salud_publica":29,"pct_med_tradicional":9,"pct_automedicacion":25,"pct_remedios_caseros":30,"pct_viv_desocupada":7,"pct_alquiler":0,"pct_electricidad":83,"pct_sin_electricidad":8,"pct_agua_red":83,"pct_alcantarillado":0,"pct_camara_septica":8,"pct_pozo_ciego":67,"pct_sin_desague":25,"pct_gas_red":8,"pct_gas_garrafa":83,"pct_lena_guano":8,"pct_basura_formal":8,"pct_basura_quema":92,"pct_basura_informal":0,"pct_internet":92,"pct_celular":92,"pct_televisor":92}},{"type":"Feature","geometry":{"type":"Polygon","coordinates":[[[-64.89606,-17.84193],[-64.89617,-17.84166],[-64.89653,-17.84168],[-64.89653,-17.84167],[-64.89617,-17.84166],[-64.89622,-17.84151],[-64.89657,-17.8415],[-64.89622,-17.84151],[-64.89628,-17.84136],[-64.89681,-17.84137],[-64.8968,-17.84151],[-64.89659,-17.84164],[-64.89655,-17.84184],[-64.89601,-17.84246],[-64.89606,-17.84193]]]},"properties":{"n":"CHALLHUANI","p":42,"personas_x_ha":88,"masculinidad":100,"pct_menor20":43,"pct_60mas":10,"pct_migrante":0,"dependencia_econ":56,"pct_empleados":11,"pct_cuentapropia":63,"pct_agricultura":93,"pct_comercio":0,"pct_manufactura":0,"pct_construccion":4,"pct_transporte":0,"pct_alojamiento":0,"pct_sin_educacion":8,"pct_educ_superior":0,"brecha_educ":13,"pct_sin_seguro":10,"pct_sus":90,"pct_seguro_privado":0,"brecha_seguro":0,"pct_salud_publica":35,"pct_med_tradicional":2,"pct_automedicacion":28,"pct_remedios_caseros":32,"pct_viv_desocupada":0,"pct_alquiler":0,"pct_electricidad":100,"pct_sin_electricidad":0,"pct_agua_red":91,"pct_alcantarillado":0,"pct_camara_septica":0,"pct_pozo_ciego":91,"pct_sin_desague":0,"pct_gas_red":0,"pct_gas_garrafa":100,"pct_lena_guano":0,"pct_basura_formal":45,"pct_basura_quema":55,"pct_basura_informal":0,"pct_internet":82,"pct_celular":64,"pct_televisor":73}},{"type":"Feature","geometry":{"type":"Polygon","coordinates":[[[-64.89354,-17.84106],[-64.89349,-17.84113],[-64.89368,-17.8415],[-64.89396,-17.84152],[-64.89418,-17.84161],[-64.89396,-17.84153],[-64.89368,-17.84151],[-64.89385,-17.84188],[-64.89392,-17.84248],[-64.89409,-17.84237],[-64.89429,-17.84239],[-64.89409,-17.84237],[-64.89392,-17.84248],[-64.89393,-17.84261],[-64.89375,-17.84279],[-64.89374,-17.84297],[-64.89423,-17.84322],[-64.89455,-17.84383],[-64.89507,-17.84406],[-64.89539,-17.84352],[-64.89541,-17.8432],[-64.89534,-17.84302],[-64.89544,-17.84299],[-64.89485,-17.84215],[-64.89467,-17.84133],[-64.8939,-17.84102],[-64.89354,-17.84106]]]},"properties":{"n":"CHALLHUANI","p":30,"personas_x_ha":8,"masculinidad":76,"pct_menor20":33,"pct_60mas":20,"pct_migrante":37,"dependencia_econ":75,"pct_empleados":12,"pct_cuentapropia":62,"pct_agricultura":69,"pct_comercio":0,"pct_manufactura":0,"pct_construccion":0,"pct_transporte":0,"pct_alojamiento":0,"pct_sin_educacion":22,"pct_educ_superior":17,"brecha_educ":15,"pct_sin_seguro":11,"pct_sus":89,"pct_seguro_privado":0,"brecha_seguro":9,"pct_salud_publica":27,"pct_med_tradicional":9,"pct_automedicacion":13,"pct_remedios_caseros":22,"pct_viv_desocupada":47,"pct_alquiler":7,"pct_electricidad":93,"pct_sin_electricidad":7,"pct_agua_red":53,"pct_alcantarillado":0,"pct_camara_septica":0,"pct_pozo_ciego":67,"pct_sin_desague":27,"pct_gas_red":0,"pct_gas_garrafa":87,"pct_lena_guano":13,"pct_basura_formal":53,"pct_basura_quema":47,"pct_basura_informal":0,"pct_internet":47,"pct_celular":80,"pct_televisor":53}},{"type":"Feature","geometry":{"type":"Polygon","coordinates":[[[-64.89541,-17.84548],[-64.89566,-17.84568],[-64.89639,-17.84533],[-64.89652,-17.84514],[-64.8962,-17.84499],[-64.89597,-17.84514],[-64.89569,-17.84519],[-64.89541,-17.84548]]]},"properties":{"n":"CHALLHUANI","p":15,"personas_x_ha":36,"masculinidad":67,"pct_menor20":40,"pct_60mas":27,"pct_migrante":53,"dependencia_econ":114,"pct_empleados":0,"pct_cuentapropia":43,"pct_agricultura":43,"pct_comercio":29,"pct_manufactura":29,"pct_construccion":0,"pct_transporte":0,"pct_alojamiento":0,"pct_sin_educacion":0,"pct_educ_superior":0,"brecha_educ":-35,"pct_sin_seguro":20,"pct_sus":80,"pct_seguro_privado":0,"brecha_seguro":22,"pct_salud_publica":94,"pct_med_tradicional":0,"pct_automedicacion":0,"pct_remedios_caseros":0,"pct_viv_desocupada":50,"pct_alquiler":25,"pct_electricidad":100,"pct_sin_electricidad":0,"pct_agua_red":75,"pct_alcantarillado":25,"pct_camara_septica":0,"pct_pozo_ciego":75,"pct_sin_desague":0,"pct_gas_red":0,"pct_gas_garrafa":100,"pct_lena_guano":0,"pct_basura_formal":100,"pct_basura_quema":0,"pct_basura_informal":0,"pct_internet":75,"pct_celular":100,"pct_televisor":100}},{"type":"Feature","geometry":{"type":"Polygon","coordinates":[[[-64.89706,-17.84442],[-64.89717,-17.84477],[-64.8975,-17.84522],[-64.89737,-17.84531],[-64.89685,-17.84468],[-64.89652,-17.84402],[-64.8969,-17.84385],[-64.89713,-17.84429],[-64.89706,-17.84442]]]},"properties":{"n":"CHALLHUANI","p":33,"personas_x_ha":60,"masculinidad":136,"pct_menor20":36,"pct_60mas":12,"pct_migrante":6,"dependencia_econ":59,"pct_empleados":0,"pct_cuentapropia":76,"pct_agricultura":47,"pct_comercio":41,"pct_manufactura":0,"pct_construccion":0,"pct_transporte":0,"pct_alojamiento":6,"pct_sin_educacion":0,"pct_educ_superior":0,"brecha_educ":-36,"pct_sin_seguro":7,"pct_sus":93,"pct_seguro_privado":0,"brecha_seguro":-6,"pct_salud_publica":25,"pct_med_tradicional":10,"pct_automedicacion":17,"pct_remedios_caseros":21,"pct_viv_desocupada":8,"pct_alquiler":11,"pct_electricidad":100,"pct_sin_electricidad":0,"pct_agua_red":89,"pct_alcantarillado":11,"pct_camara_septica":0,"pct_pozo_ciego":89,"pct_sin_desague":0,"pct_gas_red":0,"pct_gas_garrafa":89,"pct_lena_guano":11,"pct_basura_formal":56,"pct_basura_quema":44,"pct_basura_informal":0,"pct_internet":78,"pct_celular":78,"pct_televisor":56}},{"type":"Feature","geometry":{"type":"Polygon","coordinates":[[[-64.89629,-17.84498],[-64.89655,-17.84509],[-64.89644,-17.84451],[-64.89627,-17.8442],[-64.89559,-17.84365],[-64.8955,-17.84314],[-64.89545,-17.84315],[-64.89543,-17.84358],[-64.89513,-17.84409],[-64.89555,-17.84414],[-64.89562,-17.84439],[-64.89593,-17.84451],[-64.89618,-17.84472],[-64.89629,-17.84498]]]},"properties":{"n":"CHALLHUANI","p":16,"personas_x_ha":17,"masculinidad":78,"pct_menor20":31,"pct_60mas":31,"pct_migrante":12,"dependencia_econ":45,"pct_empleados":0,"pct_cuentapropia":82,"pct_agricultura":64,"pct_comercio":27,"pct_manufactura":0,"pct_construccion":0,"pct_transporte":0,"pct_alojamiento":0,"pct_sin_educacion":9,"pct_educ_superior":0,"brecha_educ":0,"pct_sin_seguro":19,"pct_sus":81,"pct_seguro_privado":0,"brecha_seguro":-8,"pct_salud_publica":24,"pct_med_tradicional":0,"pct_automedicacion":28,"pct_remedios_caseros":28,"pct_viv_desocupada":27,"pct_alquiler":0,"pct_electricidad":100,"pct_sin_electricidad":0,"pct_agua_red":0,"pct_alcantarillado":0,"pct_camara_septica":0,"pct_pozo_ciego":100,"pct_sin_desague":0,"pct_gas_red":0,"pct_gas_garrafa":57,"pct_lena_guano":43,"pct_basura_formal":57,"pct_basura_quema":43,"pct_basura_informal":0,"pct_internet":43,"pct_celular":100,"pct_televisor":57}},{"type":"Feature","geometry":{"type":"Polygon","coordinates":[[[-64.70455,-17.70401],[-64.7044,-17.70392],[-64.70414,-17.70404],[-64.70354,-17.70468],[-64.70416,-17.70503],[-64.70478,-17.70441],[-64.70558,-17.70493],[-64.70632,-17.70366],[-64.70572,-17.70335],[-64.70455,-17.70401]]]},"properties":{"n":"DIAMPAMPA B","p":30,"personas_x_ha":12,"masculinidad":150,"pct_menor20":43,"pct_60mas":10,"pct_migrante":30,"dependencia_econ":58,"pct_empleados":26,"pct_cuentapropia":37,"pct_agricultura":74,"pct_comercio":16,"pct_manufactura":5,"pct_construccion":0,"pct_transporte":0,"pct_alojamiento":5,"pct_sin_educacion":12,"pct_educ_superior":0,"brecha_educ":11,"pct_sin_seguro":20,"pct_sus":67,"pct_seguro_privado":0,"brecha_seguro":19,"pct_salud_publica":31,"pct_med_tradicional":0,"pct_automedicacion":21,"pct_remedios_caseros":21,"pct_viv_desocupada":0,"pct_alquiler":10,"pct_electricidad":100,"pct_sin_electricidad":0,"pct_agua_red":20,"pct_alcantarillado":10,"pct_camara_septica":0,"pct_pozo_ciego":70,"pct_sin_desague":20,"pct_gas_red":0,"pct_gas_garrafa":100,"pct_lena_guano":0,"pct_basura_formal":0,"pct_basura_quema":90,"pct_basura_informal":10,"pct_internet":90,"pct_celular":90,"pct_televisor":90}},{"type":"Feature","geometry":{"type":"Polygon","coordinates":[[[-64.70502,-17.70235],[-64.70392,-17.70332],[-64.70455,-17.70395],[-64.70565,-17.70329],[-64.70514,-17.70257],[-64.7049,-17.70272],[-64.70512,-17.70255],[-64.70502,-17.70235]]]},"properties":{"n":"DIAMPAMPA B","p":22,"personas_x_ha":13,"masculinidad":69,"pct_menor20":59,"pct_60mas":5,"pct_migrante":59,"dependencia_econ":83,"pct_empleados":33,"pct_cuentapropia":50,"pct_agricultura":92,"pct_comercio":0,"pct_manufactura":0,"pct_construccion":8,"pct_transporte":0,"pct_alojamiento":0,"pct_sin_educacion":22,"pct_educ_superior":0,"brecha_educ":-33,"pct_sin_seguro":10,"pct_sus":90,"pct_seguro_privado":0,"brecha_seguro":3,"pct_salud_publica":35,"pct_med_tradicional":0,"pct_automedicacion":25,"pct_remedios_caseros":23,"pct_viv_desocupada":0,"pct_alquiler":0,"pct_electricidad":100,"pct_sin_electricidad":0,"pct_agua_red":22,"pct_alcantarillado":0,"pct_camara_septica":11,"pct_pozo_ciego":89,"pct_sin_desague":0,"pct_gas_red":0,"pct_gas_garrafa":78,"pct_lena_guano":22,"pct_basura_formal":0,"pct_basura_quema":100,"pct_basura_informal":0,"pct_internet":78,"pct_celular":100,"pct_televisor":89}},{"type":"Feature","geometry":{"type":"Polygon","coordinates":[[[-64.70324,-17.70384],[-64.7029,-17.70355],[-64.70322,-17.70321],[-64.70365,-17.70352],[-64.70324,-17.70384]]]},"properties":{"n":"DIAMPAMPA B","p":28,"personas_x_ha":94,"masculinidad":27,"pct_menor20":71,"pct_60mas":0,"pct_migrante":54,"dependencia_econ":155,"pct_empleados":55,"pct_cuentapropia":36,"pct_agricultura":82,"pct_comercio":18,"pct_manufactura":0,"pct_construccion":0,"pct_transporte":0,"pct_alojamiento":0,"pct_sin_educacion":30,"pct_educ_superior":10,"brecha_educ":-56,"pct_sin_seguro":0,"pct_sus":100,"pct_seguro_privado":0,"brecha_seguro":0,"pct_salud_publica":29,"pct_med_tradicional":1,"pct_automedicacion":27,"pct_remedios_caseros":29,"pct_viv_desocupada":0,"pct_alquiler":0,"pct_electricidad":100,"pct_sin_electricidad":0,"pct_agua_red":11,"pct_alcantarillado":44,"pct_camara_septica":22,"pct_pozo_ciego":33,"pct_sin_desague":0,"pct_gas_red":0,"pct_gas_garrafa":78,"pct_lena_guano":22,"pct_basura_formal":0,"pct_basura_quema":89,"pct_basura_informal":11,"pct_internet":67,"pct_celular":67,"pct_televisor":44}},{"type":"Feature","geometry":{"type":"Polygon","coordinates":[[[-64.70371,-17.70433],[-64.70346,-17.70463],[-64.70256,-17.70401],[-64.7028,-17.70389],[-64.70316,-17.70391],[-64.70371,-17.70433]]]},"properties":{"n":"DIAMPAMPA B","p":16,"personas_x_ha":33,"masculinidad":60,"pct_menor20":62,"pct_60mas":6,"pct_migrante":56,"dependencia_econ":100,"pct_empleados":25,"pct_cuentapropia":50,"pct_agricultura":75,"pct_comercio":0,"pct_manufactura":12,"pct_construccion":12,"pct_transporte":0,"pct_alojamiento":0,"pct_sin_educacion":0,"pct_educ_superior":17,"brecha_educ":0,"pct_sin_seguro":25,"pct_sus":75,"pct_seguro_privado":0,"brecha_seguro":13,"pct_salud_publica":42,"pct_med_tradicional":3,"pct_automedicacion":14,"pct_remedios_caseros":17,"pct_viv_desocupada":0,"pct_alquiler":0,"pct_electricidad":100,"pct_sin_electricidad":0,"pct_agua_red":40,"pct_alcantarillado":0,"pct_camara_septica":20,"pct_pozo_ciego":80,"pct_sin_desague":0,"pct_gas_red":0,"pct_gas_garrafa":100,"pct_lena_guano":0,"pct_basura_formal":0,"pct_basura_quema":100,"pct_basura_informal":0,"pct_internet":100,"pct_celular":100,"pct_televisor":80}},{"type":"Feature","geometry":{"type":"Polygon","coordinates":[[[-65.01863,-17.78677],[-65.01884,-17.78679],[-65.01914,-17.78664],[-65.01939,-17.78662],[-65.01965,-17.7863],[-65.01994,-17.78618],[-65.0199,-17.78598],[-65.01916,-17.78543],[-65.0187,-17.78595],[-65.01795,-17.78658],[-65.01799,-17.78666],[-65.01845,-17.78674],[-65.01855,-17.78654],[-65.01846,-17.78675],[-65.01862,-17.78677],[-65.01887,-17.78662],[-65.01881,-17.78661],[-65.01869,-17.78653],[-65.01887,-17.78662],[-65.01902,-17.78648],[-65.01907,-17.78645],[-65.01939,-17.78639],[-65.01907,-17.78646],[-65.0189,-17.78662],[-65.01863,-17.78677]]]},"properties":{"n":"DURAZNILLO","p":29,"personas_x_ha":18,"masculinidad":107,"pct_menor20":52,"pct_60mas":7,"pct_migrante":0,"dependencia_econ":107,"pct_empleados":14,"pct_cuentapropia":79,"pct_agricultura":100,"pct_comercio":0,"pct_manufactura":0,"pct_construccion":0,"pct_transporte":0,"pct_alojamiento":0,"pct_sin_educacion":0,"pct_educ_superior":0,"brecha_educ":0,"pct_sin_seguro":0,"pct_sus":100,"pct_seguro_privado":0,"brecha_seguro":0,"pct_salud_publica":17,"pct_med_tradicional":2,"pct_automedicacion":20,"pct_remedios_caseros":47,"pct_viv_desocupada":40,"pct_alquiler":0,"pct_electricidad":86,"pct_sin_electricidad":0,"pct_agua_red":0,"pct_alcantarillado":0,"pct_camara_septica":0,"pct_pozo_ciego":0,"pct_sin_desague":100,"pct_gas_red":0,"pct_gas_garrafa":43,"pct_lena_guano":57,"pct_basura_formal":0,"pct_basura_quema":100,"pct_basura_informal":0,"pct_internet":71,"pct_celular":71,"pct_televisor":29}},{"type":"Feature","geometry":{"type":"Polygon","coordinates":[[[-64.7445,-17.73708],[-64.74472,-17.73631],[-64.74462,-17.73629],[-64.74409,-17.73652],[-64.7437,-17.73701],[-64.74366,-17.73736],[-64.74408,-17.73755],[-64.7445,-17.73708]]]},"properties":{"n":"KARA HUASI","p":16,"personas_x_ha":18,"masculinidad":78,"pct_menor20":62,"pct_60mas":6,"pct_migrante":69,"dependencia_econ":220,"pct_empleados":40,"pct_cuentapropia":40,"pct_agricultura":40,"pct_comercio":0,"pct_manufactura":0,"pct_construccion":40,"pct_transporte":20,"pct_alojamiento":0,"pct_sin_educacion":17,"pct_educ_superior":0,"brecha_educ":-25,"pct_sin_seguro":6,"pct_sus":94,"pct_seguro_privado":0,"brecha_seguro":-11,"pct_salud_publica":27,"pct_med_tradicional":2,"pct_automedicacion":23,"pct_remedios_caseros":32,"pct_viv_desocupada":0,"pct_alquiler":0,"pct_electricidad":100,"pct_sin_electricidad":0,"pct_agua_red":75,"pct_alcantarillado":0,"pct_camara_septica":0,"pct_pozo_ciego":75,"pct_sin_desague":25,"pct_gas_red":0,"pct_gas_garrafa":75,"pct_lena_guano":25,"pct_basura_formal":0,"pct_basura_quema":100,"pct_basura_informal":0,"pct_internet":100,"pct_celular":100,"pct_televisor":75}},{"type":"Feature","geometry":{"type":"Polygon","coordinates":[[[-64.74383,-17.74072],[-64.74268,-17.74043],[-64.74262,-17.73992],[-64.74312,-17.73929],[-64.744,-17.73957],[-64.74421,-17.73985],[-64.74425,-17.7402],[-64.74393,-17.74047],[-64.74383,-17.74072]]]},"properties":{"n":"KARA HUASI","p":19,"personas_x_ha":10,"masculinidad":90,"pct_menor20":53,"pct_60mas":16,"pct_migrante":47,"dependencia_econ":58,"pct_empleados":0,"pct_cuentapropia":83,"pct_agricultura":75,"pct_comercio":25,"pct_manufactura":0,"pct_construccion":0,"pct_transporte":0,"pct_alojamiento":0,"pct_sin_educacion":30,"pct_educ_superior":10,"brecha_educ":29,"pct_sin_seguro":0,"pct_sus":100,"pct_seguro_privado":0,"brecha_seguro":0,"pct_salud_publica":29,"pct_med_tradicional":8,"pct_automedicacion":21,"pct_remedios_caseros":26,"pct_viv_desocupada":17,"pct_alquiler":0,"pct_electricidad":100,"pct_sin_electricidad":0,"pct_agua_red":100,"pct_alcantarillado":12,"pct_camara_septica":0,"pct_pozo_ciego":50,"pct_sin_desague":25,"pct_gas_red":0,"pct_gas_garrafa":100,"pct_lena_guano":0,"pct_basura_formal":0,"pct_basura_quema":75,"pct_basura_informal":12,"pct_internet":75,"pct_celular":100,"pct_televisor":62}},{"type":"Feature","geometry":{"type":"Polygon","coordinates":[[[-64.74332,-17.73831],[-64.74378,-17.73849],[-64.74404,-17.73764],[-64.74364,-17.73745],[-64.74327,-17.73821],[-64.74332,-17.73831]]]},"properties":{"n":"KARA HUASI","p":22,"personas_x_ha":41,"masculinidad":214,"pct_menor20":68,"pct_60mas":0,"pct_migrante":64,"dependencia_econ":120,"pct_empleados":40,"pct_cuentapropia":40,"pct_agricultura":60,"pct_comercio":0,"pct_manufactura":0,"pct_construccion":10,"pct_transporte":0,"pct_alojamiento":20,"pct_sin_educacion":0,"pct_educ_superior":29,"brecha_educ":-17,"pct_sin_seguro":5,"pct_sus":68,"pct_seguro_privado":0,"brecha_seguro":7,"pct_salud_publica":36,"pct_med_tradicional":11,"pct_automedicacion":11,"pct_remedios_caseros":18,"pct_viv_desocupada":0,"pct_alquiler":0,"pct_electricidad":100,"pct_sin_electricidad":0,"pct_agua_red":43,"pct_alcantarillado":14,"pct_camara_septica":29,"pct_pozo_ciego":57,"pct_sin_desague":0,"pct_gas_red":0,"pct_gas_garrafa":71,"pct_lena_guano":29,"pct_basura_formal":0,"pct_basura_quema":100,"pct_basura_informal":0,"pct_internet":57,"pct_celular":100,"pct_televisor":57}},{"type":"Feature","geometry":{"type":"Polygon","coordinates":[[[-64.74279,-17.73958],[-64.74306,-17.73925],[-64.7423,-17.7388],[-64.74188,-17.74005],[-64.74228,-17.7405],[-64.74258,-17.74045],[-64.74253,-17.73991],[-64.74278,-17.73959],[-64.74261,-17.73952],[-64.74236,-17.73955],[-64.74261,-17.73951],[-64.74279,-17.73958]]]},"properties":{"n":"KARA HUASI","p":23,"personas_x_ha":19,"masculinidad":92,"pct_menor20":57,"pct_60mas":9,"pct_migrante":52,"dependencia_econ":156,"pct_empleados":33,"pct_cuentapropia":67,"pct_agricultura":67,"pct_comercio":11,"pct_manufactura":11,"pct_construccion":11,"pct_transporte":0,"pct_alojamiento":0,"pct_sin_educacion":10,"pct_educ_superior":0,"brecha_educ":-17,"pct_sin_seguro":22,"pct_sus":78,"pct_seguro_privado":0,"brecha_seguro":11,"pct_salud_publica":34,"pct_med_tradicional":2,"pct_automedicacion":33,"pct_remedios_caseros":25,"pct_viv_desocupada":23,"pct_alquiler":0,"pct_electricidad":78,"pct_sin_electricidad":22,"pct_agua_red":100,"pct_alcantarillado":11,"pct_camara_septica":11,"pct_pozo_ciego":67,"pct_sin_desague":11,"pct_gas_red":0,"pct_gas_garrafa":100,"pct_lena_guano":0,"pct_basura_formal":0,"pct_basura_quema":89,"pct_basura_informal":11,"pct_internet":78,"pct_celular":89,"pct_televisor":67}},{"type":"Feature","geometry":{"type":"Polygon","coordinates":[[[-64.96594,-17.74075],[-64.96601,-17.74072],[-64.96611,-17.74086],[-64.96615,-17.74138],[-64.96633,-17.74185],[-64.96615,-17.74198],[-64.96549,-17.74195],[-64.96557,-17.74128],[-64.96594,-17.74075],[-64.96597,-17.74112],[-64.96587,-17.74165],[-64.96588,-17.74149],[-64.96597,-17.74112],[-64.96599,-17.74095],[-64.96594,-17.74075]]]},"properties":{"n":"NARANJOS","p":20,"personas_x_ha":24,"masculinidad":150,"pct_menor20":55,"pct_60mas":10,"pct_migrante":0,"dependencia_econ":54,"pct_empleados":23,"pct_cuentapropia":69,"pct_agricultura":54,"pct_comercio":15,"pct_manufactura":8,"pct_construccion":0,"pct_transporte":0,"pct_alojamiento":0,"pct_sin_educacion":10,"pct_educ_superior":40,"brecha_educ":0,"pct_sin_seguro":10,"pct_sus":90,"pct_seguro_privado":0,"brecha_seguro":17,"pct_salud_publica":45,"pct_med_tradicional":10,"pct_automedicacion":30,"pct_remedios_caseros":10,"pct_viv_desocupada":0,"pct_alquiler":0,"pct_electricidad":100,"pct_sin_electricidad":0,"pct_agua_red":60,"pct_alcantarillado":0,"pct_camara_septica":0,"pct_pozo_ciego":0,"pct_sin_desague":100,"pct_gas_red":0,"pct_gas_garrafa":20,"pct_lena_guano":80,"pct_basura_formal":0,"pct_basura_quema":100,"pct_basura_informal":0,"pct_internet":20,"pct_celular":80,"pct_televisor":60}},{"type":"Feature","geometry":{"type":"Polygon","coordinates":[[[-64.97662,-17.70487],[-64.97713,-17.70456],[-64.97743,-17.70418],[-64.97759,-17.70416],[-64.97775,-17.70425],[-64.97777,-17.70438],[-64.9776,-17.7045],[-64.97764,-17.7047],[-64.97626,-17.70542],[-64.97586,-17.7053],[-64.9757,-17.7051],[-64.97573,-17.70501],[-64.97618,-17.70473],[-64.97645,-17.70489],[-64.97662,-17.70487]]]},"properties":{"n":"PALCA","p":18,"personas_x_ha":17,"masculinidad":125,"pct_menor20":50,"pct_60mas":6,"pct_migrante":17,"dependencia_econ":157,"pct_empleados":14,"pct_cuentapropia":86,"pct_agricultura":86,"pct_comercio":14,"pct_manufactura":0,"pct_construccion":0,"pct_transporte":0,"pct_alojamiento":0,"pct_sin_educacion":9,"pct_educ_superior":9,"brecha_educ":10,"pct_sin_seguro":6,"pct_sus":94,"pct_seguro_privado":0,"brecha_seguro":-12,"pct_salud_publica":27,"pct_med_tradicional":5,"pct_automedicacion":24,"pct_remedios_caseros":27,"pct_viv_desocupada":33,"pct_alquiler":0,"pct_electricidad":100,"pct_sin_electricidad":0,"pct_agua_red":0,"pct_alcantarillado":0,"pct_camara_septica":14,"pct_pozo_ciego":71,"pct_sin_desague":14,"pct_gas_red":0,"pct_gas_garrafa":71,"pct_lena_guano":29,"pct_basura_formal":43,"pct_basura_quema":57,"pct_basura_informal":0,"pct_internet":57,"pct_celular":86,"pct_televisor":57}},{"type":"Feature","geometry":{"type":"Polygon","coordinates":[[[-64.9773,-17.70355],[-64.97714,-17.70331],[-64.97672,-17.70364],[-64.9769,-17.70385],[-64.9773,-17.70355]]]},"properties":{"n":"PALCA","p":31,"personas_x_ha":179,"masculinidad":63,"pct_menor20":48,"pct_60mas":6,"pct_migrante":0,"dependencia_econ":107,"pct_empleados":0,"pct_cuentapropia":80,"pct_agricultura":100,"pct_comercio":0,"pct_manufactura":0,"pct_construccion":0,"pct_transporte":0,"pct_alojamiento":0,"pct_sin_educacion":0,"pct_educ_superior":0,"brecha_educ":21,"pct_sin_seguro":6,"pct_sus":94,"pct_seguro_privado":0,"brecha_seguro":3,"pct_salud_publica":33,"pct_med_tradicional":18,"pct_automedicacion":20,"pct_remedios_caseros":22,"pct_viv_desocupada":0,"pct_alquiler":0,"pct_electricidad":100,"pct_sin_electricidad":0,"pct_agua_red":11,"pct_alcantarillado":0,"pct_camara_septica":0,"pct_pozo_ciego":100,"pct_sin_desague":0,"pct_gas_red":0,"pct_gas_garrafa":78,"pct_lena_guano":22,"pct_basura_formal":78,"pct_basura_quema":22,"pct_basura_informal":0,"pct_internet":89,"pct_celular":100,"pct_televisor":67}},{"type":"Feature","geometry":{"type":"Polygon","coordinates":[[[-64.97572,-17.70493],[-64.97624,-17.7046],[-64.97597,-17.70411],[-64.9755,-17.70441],[-64.9755,-17.70455],[-64.97572,-17.70493]]]},"properties":{"n":"PALCA","p":19,"personas_x_ha":44,"masculinidad":90,"pct_menor20":47,"pct_60mas":5,"pct_migrante":32,"dependencia_econ":73,"pct_empleados":18,"pct_cuentapropia":64,"pct_agricultura":55,"pct_comercio":27,"pct_manufactura":0,"pct_construccion":9,"pct_transporte":0,"pct_alojamiento":0,"pct_sin_educacion":10,"pct_educ_superior":50,"brecha_educ":-20,"pct_sin_seguro":5,"pct_sus":95,"pct_seguro_privado":0,"brecha_seguro":11,"pct_salud_publica":21,"pct_med_tradicional":13,"pct_automedicacion":17,"pct_remedios_caseros":23,"pct_viv_desocupada":17,"pct_alquiler":14,"pct_electricidad":86,"pct_sin_electricidad":14,"pct_agua_red":71,"pct_alcantarillado":29,"pct_camara_septica":0,"pct_pozo_ciego":71,"pct_sin_desague":0,"pct_gas_red":0,"pct_gas_garrafa":86,"pct_lena_guano":14,"pct_basura_formal":29,"pct_basura_quema":71,"pct_basura_informal":0,"pct_internet":100,"pct_celular":100,"pct_televisor":29}},{"type":"Feature","geometry":{"type":"Polygon","coordinates":[[[-64.97629,-17.70454],[-64.976,-17.70409],[-64.97669,-17.70366],[-64.97686,-17.70387],[-64.97629,-17.70454]]]},"properties":{"n":"PALCA","p":20,"personas_x_ha":49,"masculinidad":82,"pct_menor20":50,"pct_60mas":0,"pct_migrante":30,"dependencia_econ":54,"pct_empleados":15,"pct_cuentapropia":62,"pct_agricultura":100,"pct_comercio":0,"pct_manufactura":0,"pct_construccion":0,"pct_transporte":0,"pct_alojamiento":0,"pct_sin_educacion":0,"pct_educ_superior":0,"brecha_educ":30,"pct_sin_seguro":25,"pct_sus":75,"pct_seguro_privado":0,"brecha_seguro":15,"pct_salud_publica":19,"pct_med_tradicional":17,"pct_automedicacion":20,"pct_remedios_caseros":32,"pct_viv_desocupada":0,"pct_alquiler":17,"pct_electricidad":100,"pct_sin_electricidad":0,"pct_agua_red":83,"pct_alcantarillado":17,"pct_camara_septica":0,"pct_pozo_ciego":83,"pct_sin_desague":0,"pct_gas_red":0,"pct_gas_garrafa":100,"pct_lena_guano":0,"pct_basura_formal":100,"pct_basura_quema":0,"pct_basura_informal":0,"pct_internet":100,"pct_celular":100,"pct_televisor":50}},{"type":"Feature","geometry":{"type":"Polygon","coordinates":[[[-64.98041,-17.70293],[-64.98008,-17.70313],[-64.98021,-17.70307],[-64.98041,-17.70293],[-64.98029,-17.70266],[-64.98014,-17.70261],[-64.97994,-17.70267],[-64.97971,-17.70295],[-64.9799,-17.70336],[-64.98045,-17.70311],[-64.98041,-17.70293]]]},"properties":{"n":"PALCA","p":52,"personas_x_ha":122,"masculinidad":86,"pct_menor20":60,"pct_60mas":2,"pct_migrante":33,"dependencia_econ":126,"pct_empleados":0,"pct_cuentapropia":87,"pct_agricultura":96,"pct_comercio":4,"pct_manufactura":0,"pct_construccion":0,"pct_transporte":0,"pct_alojamiento":0,"pct_sin_educacion":0,"pct_educ_superior":4,"brecha_educ":1,"pct_sin_seguro":2,"pct_sus":98,"pct_seguro_privado":0,"brecha_seguro":4,"pct_salud_publica":28,"pct_med_tradicional":21,"pct_automedicacion":15,"pct_remedios_caseros":22,"pct_viv_desocupada":15,"pct_alquiler":9,"pct_electricidad":91,"pct_sin_electricidad":9,"pct_agua_red":0,"pct_alcantarillado":0,"pct_camara_septica":0,"pct_pozo_ciego":82,"pct_sin_desague":9,"pct_gas_red":18,"pct_gas_garrafa":82,"pct_lena_guano":0,"pct_basura_formal":73,"pct_basura_quema":27,"pct_basura_informal":0,"pct_internet":100,"pct_celular":91,"pct_televisor":91}},{"type":"Feature","geometry":{"type":"Polygon","coordinates":[[[-64.97692,-17.70393],[-64.97628,-17.70467],[-64.9764,-17.70482],[-64.97655,-17.70485],[-64.9768,-17.70472],[-64.97725,-17.70435],[-64.97692,-17.70393]]]},"properties":{"n":"PALCA","p":16,"personas_x_ha":32,"masculinidad":45,"pct_menor20":56,"pct_60mas":6,"pct_migrante":19,"dependencia_econ":100,"pct_empleados":0,"pct_cuentapropia":50,"pct_agricultura":62,"pct_comercio":12,"pct_manufactura":0,"pct_construccion":0,"pct_transporte":0,"pct_alojamiento":0,"pct_sin_educacion":0,"pct_educ_superior":14,"brecha_educ":-8,"pct_sin_seguro":6,"pct_sus":94,"pct_seguro_privado":0,"brecha_seguro":20,"pct_salud_publica":22,"pct_med_tradicional":12,"pct_automedicacion":14,"pct_remedios_caseros":23,"pct_viv_desocupada":17,"pct_alquiler":17,"pct_electricidad":100,"pct_sin_electricidad":0,"pct_agua_red":83,"pct_alcantarillado":17,"pct_camara_septica":0,"pct_pozo_ciego":83,"pct_sin_desague":0,"pct_gas_red":0,"pct_gas_garrafa":83,"pct_lena_guano":17,"pct_basura_formal":67,"pct_basura_quema":33,"pct_basura_informal":0,"pct_internet":83,"pct_celular":83,"pct_televisor":67}},{"type":"Feature","geometry":{"type":"Polygon","coordinates":[[[-64.97821,-17.70367],[-64.97811,-17.70324],[-64.97791,-17.70318],[-64.97695,-17.70393],[-64.97727,-17.70432],[-64.97748,-17.70412],[-64.97782,-17.70422],[-64.97806,-17.70407],[-64.97821,-17.70367]]]},"properties":{"n":"PALCA","p":18,"personas_x_ha":19,"masculinidad":80,"pct_menor20":33,"pct_60mas":17,"pct_migrante":6,"dependencia_econ":64,"pct_empleados":0,"pct_cuentapropia":91,"pct_agricultura":82,"pct_comercio":18,"pct_manufactura":0,"pct_construccion":0,"pct_transporte":0,"pct_alojamiento":0,"pct_sin_educacion":0,"pct_educ_superior":23,"brecha_educ":22,"pct_sin_seguro":22,"pct_sus":78,"pct_seguro_privado":0,"brecha_seguro":5,"pct_salud_publica":33,"pct_med_tradicional":12,"pct_automedicacion":18,"pct_remedios_caseros":29,"pct_viv_desocupada":10,"pct_alquiler":0,"pct_electricidad":100,"pct_sin_electricidad":0,"pct_agua_red":50,"pct_alcantarillado":17,"pct_camara_septica":0,"pct_pozo_ciego":67,"pct_sin_desague":17,"pct_gas_red":0,"pct_gas_garrafa":33,"pct_lena_guano":67,"pct_basura_formal":67,"pct_basura_quema":33,"pct_basura_informal":0,"pct_internet":83,"pct_celular":100,"pct_televisor":67}},{"type":"Feature","geometry":{"type":"Polygon","coordinates":[[[-64.97829,-17.70392],[-64.97896,-17.70427],[-64.9793,-17.70401],[-64.9801,-17.70391],[-64.97961,-17.70274],[-64.97873,-17.70292],[-64.97837,-17.70311],[-64.9783,-17.70342],[-64.97839,-17.70361],[-64.97829,-17.70392]]]},"properties":{"n":"PALCA","p":28,"personas_x_ha":13,"masculinidad":115,"pct_menor20":39,"pct_60mas":14,"pct_migrante":0,"dependencia_econ":56,"pct_empleados":17,"pct_cuentapropia":39,"pct_agricultura":100,"pct_comercio":0,"pct_manufactura":0,"pct_construccion":0,"pct_transporte":0,"pct_alojamiento":0,"pct_sin_educacion":6,"pct_educ_superior":0,"brecha_educ":-19,"pct_sin_seguro":4,"pct_sus":96,"pct_seguro_privado":0,"brecha_seguro":8,"pct_salud_publica":39,"pct_med_tradicional":3,"pct_automedicacion":20,"pct_remedios_caseros":37,"pct_viv_desocupada":8,"pct_alquiler":0,"pct_electricidad":100,"pct_sin_electricidad":0,"pct_agua_red":0,"pct_alcantarillado":0,"pct_camara_septica":56,"pct_pozo_ciego":44,"pct_sin_desague":0,"pct_gas_red":0,"pct_gas_garrafa":89,"pct_lena_guano":11,"pct_basura_formal":78,"pct_basura_quema":22,"pct_basura_informal":0,"pct_internet":100,"pct_celular":100,"pct_televisor":78}},{"type":"Feature","geometry":{"type":"Polygon","coordinates":[[[-64.98218,-17.70279],[-64.98222,-17.7021],[-64.9812,-17.70252],[-64.98032,-17.7026],[-64.98051,-17.70313],[-64.98073,-17.70341],[-64.98091,-17.70346],[-64.98117,-17.7034],[-64.98156,-17.70291],[-64.98218,-17.70279]]]},"properties":{"n":"PALCA","p":16,"personas_x_ha":10,"masculinidad":129,"pct_menor20":50,"pct_60mas":6,"pct_migrante":25,"dependencia_econ":100,"pct_empleados":25,"pct_cuentapropia":75,"pct_agricultura":88,"pct_comercio":0,"pct_manufactura":0,"pct_construccion":12,"pct_transporte":0,"pct_alojamiento":0,"pct_sin_educacion":0,"pct_educ_superior":0,"brecha_educ":7,"pct_sin_seguro":6,"pct_sus":94,"pct_seguro_privado":0,"brecha_seguro":11,"pct_salud_publica":37,"pct_med_tradicional":2,"pct_automedicacion":33,"pct_remedios_caseros":28,"pct_viv_desocupada":0,"pct_alquiler":0,"pct_electricidad":100,"pct_sin_electricidad":0,"pct_agua_red":0,"pct_alcantarillado":0,"pct_camara_septica":0,"pct_pozo_ciego":100,"pct_sin_desague":0,"pct_gas_red":0,"pct_gas_garrafa":100,"pct_lena_guano":0,"pct_basura_formal":100,"pct_basura_quema":0,"pct_basura_informal":0,"pct_internet":100,"pct_celular":100,"pct_televisor":100}},{"type":"Feature","geometry":{"type":"Polygon","coordinates":[[[-64.86598,-17.75545],[-64.86593,-17.75635],[-64.86514,-17.75634],[-64.86513,-17.75555],[-64.86598,-17.75545]]]},"properties":{"n":"POJO","p":19,"personas_x_ha":22,"masculinidad":138,"pct_menor20":26,"pct_60mas":11,"pct_migrante":32,"dependencia_econ":46,"pct_empleados":8,"pct_cuentapropia":69,"pct_agricultura":38,"pct_comercio":15,"pct_manufactura":15,"pct_construccion":0,"pct_transporte":0,"pct_alojamiento":8,"pct_sin_educacion":14,"pct_educ_superior":43,"brecha_educ":0,"pct_sin_seguro":0,"pct_sus":100,"pct_seguro_privado":0,"brecha_seguro":0,"pct_salud_publica":32,"pct_med_tradicional":4,"pct_automedicacion":26,"pct_remedios_caseros":23,"pct_viv_desocupada":12,"pct_alquiler":20,"pct_electricidad":100,"pct_sin_electricidad":0,"pct_agua_red":60,"pct_alcantarillado":100,"pct_camara_septica":0,"pct_pozo_ciego":0,"pct_sin_desague":0,"pct_gas_red":0,"pct_gas_garrafa":80,"pct_lena_guano":20,"pct_basura_formal":80,"pct_basura_quema":0,"pct_basura_informal":0,"pct_internet":60,"pct_celular":80,"pct_televisor":60}},{"type":"Feature","geometry":{"type":"Polygon","coordinates":[[[-64.86599,-17.75636],[-64.86725,-17.7563],[-64.86756,-17.75503],[-64.86758,-17.75467],[-64.86743,-17.75465],[-64.86605,-17.75543],[-64.86599,-17.75636]]]},"properties":{"n":"POJO","p":29,"personas_x_ha":14,"masculinidad":93,"pct_menor20":28,"pct_60mas":7,"pct_migrante":34,"dependencia_econ":56,"pct_empleados":17,"pct_cuentapropia":67,"pct_agricultura":61,"pct_comercio":11,"pct_manufactura":6,"pct_construccion":0,"pct_transporte":0,"pct_alojamiento":11,"pct_sin_educacion":0,"pct_educ_superior":14,"brecha_educ":12,"pct_sin_seguro":36,"pct_sus":57,"pct_seguro_privado":0,"brecha_seguro":0,"pct_salud_publica":24,"pct_med_tradicional":16,"pct_automedicacion":15,"pct_remedios_caseros":20,"pct_viv_desocupada":0,"pct_alquiler":50,"pct_electricidad":100,"pct_sin_electricidad":0,"pct_agua_red":62,"pct_alcantarillado":75,"pct_camara_septica":0,"pct_pozo_ciego":12,"pct_sin_desague":12,"pct_gas_red":0,"pct_gas_garrafa":100,"pct_lena_guano":0,"pct_basura_formal":88,"pct_basura_quema":12,"pct_basura_informal":0,"pct_internet":75,"pct_celular":62,"pct_televisor":50}},{"type":"Feature","geometry":{"type":"Polygon","coordinates":[[[-64.86265,-17.75771],[-64.86336,-17.75775],[-64.86326,-17.75845],[-64.86262,-17.75842],[-64.86265,-17.75771]]]},"properties":{"n":"POJO","p":24,"personas_x_ha":41,"masculinidad":100,"pct_menor20":21,"pct_60mas":25,"pct_migrante":46,"dependencia_econ":50,"pct_empleados":19,"pct_cuentapropia":69,"pct_agricultura":25,"pct_comercio":12,"pct_manufactura":0,"pct_construccion":0,"pct_transporte":12,"pct_alojamiento":25,"pct_sin_educacion":5,"pct_educ_superior":20,"brecha_educ":-20,"pct_sin_seguro":46,"pct_sus":54,"pct_seguro_privado":0,"brecha_seguro":25,"pct_salud_publica":31,"pct_med_tradicional":9,"pct_automedicacion":21,"pct_remedios_caseros":26,"pct_viv_desocupada":0,"pct_alquiler":25,"pct_electricidad":100,"pct_sin_electricidad":0,"pct_agua_red":100,"pct_alcantarillado":100,"pct_camara_septica":0,"pct_pozo_ciego":0,"pct_sin_desague":0,"pct_gas_red":0,"pct_gas_garrafa":100,"pct_lena_guano":0,"pct_basura_formal":88,"pct_basura_quema":0,"pct_basura_informal":12,"pct_internet":88,"pct_celular":100,"pct_televisor":75}},{"type":"Feature","geometry":{"type":"Polygon","coordinates":[[[-64.86409,-17.75851],[-64.86414,-17.75783],[-64.8634,-17.75778],[-64.86334,-17.75848],[-64.86409,-17.75851]]]},"properties":{"n":"POJO","p":20,"personas_x_ha":32,"masculinidad":100,"pct_menor20":20,"pct_60mas":20,"pct_migrante":45,"dependencia_econ":64,"pct_empleados":9,"pct_cuentapropia":73,"pct_agricultura":36,"pct_comercio":27,"pct_manufactura":0,"pct_construccion":0,"pct_transporte":9,"pct_alojamiento":9,"pct_sin_educacion":7,"pct_educ_superior":7,"brecha_educ":29,"pct_sin_seguro":6,"pct_sus":94,"pct_seguro_privado":0,"brecha_seguro":12,"pct_salud_publica":25,"pct_med_tradicional":13,"pct_automedicacion":22,"pct_remedios_caseros":22,"pct_viv_desocupada":0,"pct_alquiler":27,"pct_electricidad":100,"pct_sin_electricidad":0,"pct_agua_red":55,"pct_alcantarillado":100,"pct_camara_septica":0,"pct_pozo_ciego":0,"pct_sin_desague":0,"pct_gas_red":0,"pct_gas_garrafa":100,"pct_lena_guano":0,"pct_basura_formal":100,"pct_basura_quema":0,"pct_basura_informal":0,"pct_internet":82,"pct_celular":82,"pct_televisor":73}},{"type":"Feature","geometry":{"type":"Polygon","coordinates":[[[-64.86178,-17.75836],[-64.86062,-17.75821],[-64.86059,-17.75773],[-64.86092,-17.75762],[-64.86186,-17.75766],[-64.86178,-17.75836]]]},"properties":{"n":"POJO","p":24,"personas_x_ha":26,"masculinidad":118,"pct_menor20":33,"pct_60mas":29,"pct_migrante":12,"dependencia_econ":60,"pct_empleados":47,"pct_cuentapropia":47,"pct_agricultura":47,"pct_comercio":13,"pct_manufactura":0,"pct_construccion":0,"pct_transporte":0,"pct_alojamiento":20,"pct_sin_educacion":0,"pct_educ_superior":44,"brecha_educ":-19,"pct_sin_seguro":54,"pct_sus":38,"pct_seguro_privado":0,"brecha_seguro":-1,"pct_salud_publica":38,"pct_med_tradicional":6,"pct_automedicacion":6,"pct_remedios_caseros":35,"pct_viv_desocupada":17,"pct_alquiler":25,"pct_electricidad":100,"pct_sin_electricidad":0,"pct_agua_red":75,"pct_alcantarillado":75,"pct_camara_septica":12,"pct_pozo_ciego":0,"pct_sin_desague":0,"pct_gas_red":0,"pct_gas_garrafa":100,"pct_lena_guano":0,"pct_basura_formal":100,"pct_basura_quema":0,"pct_basura_informal":0,"pct_internet":50,"pct_celular":88,"pct_televisor":88}},{"type":"Feature","geometry":{"type":"Polygon","coordinates":[[[-64.87183,-17.75533],[-64.87188,-17.75426],[-64.87238,-17.75436],[-64.87235,-17.75526],[-64.87183,-17.75533]]]},"properties":{"n":"POJO","p":18,"personas_x_ha":29,"masculinidad":157,"pct_menor20":33,"pct_60mas":0,"pct_migrante":28,"dependencia_econ":70,"pct_empleados":30,"pct_cuentapropia":70,"pct_agricultura":60,"pct_comercio":0,"pct_manufactura":0,"pct_construccion":10,"pct_transporte":10,"pct_alojamiento":0,"pct_sin_educacion":0,"pct_educ_superior":27,"brecha_educ":0,"pct_sin_seguro":12,"pct_sus":88,"pct_seguro_privado":0,"brecha_seguro":18,"pct_salud_publica":22,"pct_med_tradicional":10,"pct_automedicacion":19,"pct_remedios_caseros":21,"pct_viv_desocupada":11,"pct_alquiler":14,"pct_electricidad":43,"pct_sin_electricidad":57,"pct_agua_red":43,"pct_alcantarillado":0,"pct_camara_septica":29,"pct_pozo_ciego":14,"pct_sin_desague":57,"pct_gas_red":0,"pct_gas_garrafa":100,"pct_lena_guano":0,"pct_basura_formal":86,"pct_basura_quema":14,"pct_basura_informal":0,"pct_internet":100,"pct_celular":100,"pct_televisor":29}},{"type":"Feature","geometry":{"type":"Polygon","coordinates":[[[-64.87076,-17.75397],[-64.87032,-17.75393],[-64.87023,-17.7555],[-64.87047,-17.75551],[-64.87076,-17.75397]]]},"properties":{"n":"POJO","p":18,"personas_x_ha":27,"masculinidad":80,"pct_menor20":28,"pct_60mas":6,"pct_migrante":6,"dependencia_econ":160,"pct_empleados":40,"pct_cuentapropia":60,"pct_agricultura":60,"pct_comercio":0,"pct_manufactura":20,"pct_construccion":20,"pct_transporte":0,"pct_alojamiento":0,"pct_sin_educacion":12,"pct_educ_superior":0,"brecha_educ":0,"pct_sin_seguro":46,"pct_sus":54,"pct_seguro_privado":0,"brecha_seguro":38,"pct_salud_publica":30,"pct_med_tradicional":11,"pct_automedicacion":24,"pct_remedios_caseros":24,"pct_viv_desocupada":0,"pct_alquiler":0,"pct_electricidad":100,"pct_sin_electricidad":0,"pct_agua_red":80,"pct_alcantarillado":60,"pct_camara_septica":0,"pct_pozo_ciego":40,"pct_sin_desague":0,"pct_gas_red":0,"pct_gas_garrafa":100,"pct_lena_guano":0,"pct_basura_formal":60,"pct_basura_quema":20,"pct_basura_informal":0,"pct_internet":80,"pct_celular":100,"pct_televisor":80}},{"type":"Feature","geometry":{"type":"Polygon","coordinates":[[[-64.86191,-17.75691],[-64.86162,-17.75704],[-64.86142,-17.75706],[-64.8613,-17.75684],[-64.86059,-17.75637],[-64.85996,-17.75669],[-64.86017,-17.7571],[-64.86013,-17.75752],[-64.86186,-17.7576],[-64.86191,-17.75691]]]},"properties":{"n":"POJO","p":21,"personas_x_ha":12,"masculinidad":75,"pct_menor20":33,"pct_60mas":14,"pct_migrante":38,"dependencia_econ":40,"pct_empleados":20,"pct_cuentapropia":67,"pct_agricultura":47,"pct_comercio":13,"pct_manufactura":7,"pct_construccion":0,"pct_transporte":7,"pct_alojamiento":0,"pct_sin_educacion":29,"pct_educ_superior":36,"brecha_educ":0,"pct_sin_seguro":14,"pct_sus":86,"pct_seguro_privado":0,"brecha_seguro":14,"pct_salud_publica":34,"pct_med_tradicional":19,"pct_automedicacion":13,"pct_remedios_caseros":23,"pct_viv_desocupada":7,"pct_alquiler":40,"pct_electricidad":100,"pct_sin_electricidad":0,"pct_agua_red":0,"pct_alcantarillado":90,"pct_camara_septica":0,"pct_pozo_ciego":0,"pct_sin_desague":10,"pct_gas_red":0,"pct_gas_garrafa":80,"pct_lena_guano":20,"pct_basura_formal":70,"pct_basura_quema":30,"pct_basura_informal":0,"pct_internet":50,"pct_celular":80,"pct_televisor":40}},{"type":"Feature","geometry":{"type":"Polygon","coordinates":[[[-64.86574,-17.75863],[-64.86579,-17.75797],[-64.86502,-17.75794],[-64.86499,-17.75857],[-64.86574,-17.75863]]]},"properties":{"n":"POJO","p":15,"personas_x_ha":24,"masculinidad":88,"pct_menor20":47,"pct_60mas":20,"pct_migrante":40,"dependencia_econ":114,"pct_empleados":57,"pct_cuentapropia":29,"pct_agricultura":57,"pct_comercio":14,"pct_manufactura":0,"pct_construccion":29,"pct_transporte":0,"pct_alojamiento":0,"pct_sin_educacion":0,"pct_educ_superior":0,"brecha_educ":0,"pct_sin_seguro":7,"pct_sus":93,"pct_seguro_privado":0,"brecha_seguro":-12,"pct_salud_publica":28,"pct_med_tradicional":4,"pct_automedicacion":22,"pct_remedios_caseros":24,"pct_viv_desocupada":0,"pct_alquiler":0,"pct_electricidad":100,"pct_sin_electricidad":0,"pct_agua_red":100,"pct_alcantarillado":100,"pct_camara_septica":0,"pct_pozo_ciego":0,"pct_sin_desague":0,"pct_gas_red":0,"pct_gas_garrafa":100,"pct_lena_guano":0,"pct_basura_formal":100,"pct_basura_quema":0,"pct_basura_informal":0,"pct_internet":100,"pct_celular":100,"pct_televisor":100}},{"type":"Feature","geometry":{"type":"Polygon","coordinates":[[[-64.85732,-17.75599],[-64.85766,-17.75598],[-64.85803,-17.75684],[-64.85774,-17.75704],[-64.85721,-17.75718],[-64.85718,-17.75644],[-64.85709,-17.75609],[-64.85732,-17.75599]]]},"properties":{"n":"POJO","p":26,"personas_x_ha":28,"masculinidad":73,"pct_menor20":35,"pct_60mas":0,"pct_migrante":15,"dependencia_econ":30,"pct_empleados":0,"pct_cuentapropia":95,"pct_agricultura":75,"pct_comercio":15,"pct_manufactura":5,"pct_construccion":5,"pct_transporte":0,"pct_alojamiento":0,"pct_sin_educacion":0,"pct_educ_superior":17,"brecha_educ":10,"pct_sin_seguro":4,"pct_sus":96,"pct_seguro_privado":0,"brecha_seguro":9,"pct_salud_publica":24,"pct_med_tradicional":26,"pct_automedicacion":21,"pct_remedios_caseros":25,"pct_viv_desocupada":0,"pct_alquiler":0,"pct_electricidad":86,"pct_sin_electricidad":14,"pct_agua_red":57,"pct_alcantarillado":0,"pct_camara_septica":0,"pct_pozo_ciego":29,"pct_sin_desague":71,"pct_gas_red":0,"pct_gas_garrafa":57,"pct_lena_guano":29,"pct_basura_formal":29,"pct_basura_quema":71,"pct_basura_informal":0,"pct_internet":57,"pct_celular":71,"pct_televisor":57}},{"type":"Feature","geometry":{"type":"Polygon","coordinates":[[[-64.86457,-17.75442],[-64.86406,-17.75444],[-64.86372,-17.75465],[-64.86369,-17.7557],[-64.86444,-17.75558],[-64.86457,-17.75442]]]},"properties":{"n":"POJO","p":33,"personas_x_ha":30,"masculinidad":83,"pct_menor20":30,"pct_60mas":15,"pct_migrante":42,"dependencia_econ":43,"pct_empleados":4,"pct_cuentapropia":87,"pct_agricultura":52,"pct_comercio":22,"pct_manufactura":13,"pct_construccion":4,"pct_transporte":0,"pct_alojamiento":0,"pct_sin_educacion":0,"pct_educ_superior":38,"brecha_educ":-24,"pct_sin_seguro":33,"pct_sus":58,"pct_seguro_privado":9,"brecha_seguro":0,"pct_salud_publica":21,"pct_med_tradicional":9,"pct_automedicacion":19,"pct_remedios_caseros":19,"pct_viv_desocupada":6,"pct_alquiler":20,"pct_electricidad":100,"pct_sin_electricidad":0,"pct_agua_red":60,"pct_alcantarillado":67,"pct_camara_septica":0,"pct_pozo_ciego":13,"pct_sin_desague":20,"pct_gas_red":0,"pct_gas_garrafa":100,"pct_lena_guano":0,"pct_basura_formal":87,"pct_basura_quema":0,"pct_basura_informal":7,"pct_internet":80,"pct_celular":87,"pct_televisor":93}},{"type":"Feature","geometry":{"type":"Polygon","coordinates":[[[-64.86258,-17.75773],[-64.86252,-17.75842],[-64.86184,-17.75836],[-64.86192,-17.75766],[-64.86258,-17.75773]]]},"properties":{"n":"POJO","p":25,"personas_x_ha":44,"masculinidad":92,"pct_menor20":40,"pct_60mas":12,"pct_migrante":20,"dependencia_econ":212,"pct_empleados":38,"pct_cuentapropia":38,"pct_agricultura":62,"pct_comercio":0,"pct_manufactura":0,"pct_construccion":25,"pct_transporte":0,"pct_alojamiento":0,"pct_sin_educacion":0,"pct_educ_superior":6,"brecha_educ":-10,"pct_sin_seguro":60,"pct_sus":32,"pct_seguro_privado":0,"brecha_seguro":-3,"pct_salud_publica":44,"pct_med_tradicional":9,"pct_automedicacion":15,"pct_remedios_caseros":9,"pct_viv_desocupada":13,"pct_alquiler":0,"pct_electricidad":100,"pct_sin_electricidad":0,"pct_agua_red":71,"pct_alcantarillado":86,"pct_camara_septica":0,"pct_pozo_ciego":0,"pct_sin_desague":14,"pct_gas_red":0,"pct_gas_garrafa":100,"pct_lena_guano":0,"pct_basura_formal":100,"pct_basura_quema":0,"pct_basura_informal":0,"pct_internet":57,"pct_celular":100,"pct_televisor":43}},{"type":"Feature","geometry":{"type":"Polygon","coordinates":[[[-64.86497,-17.7579],[-64.86419,-17.75785],[-64.86417,-17.7585],[-64.86492,-17.75856],[-64.86497,-17.7579]]]},"properties":{"n":"POJO","p":30,"personas_x_ha":49,"masculinidad":131,"pct_menor20":27,"pct_60mas":20,"pct_migrante":60,"dependencia_econ":50,"pct_empleados":45,"pct_cuentapropia":45,"pct_agricultura":35,"pct_comercio":0,"pct_manufactura":5,"pct_construccion":10,"pct_transporte":0,"pct_alojamiento":0,"pct_sin_educacion":5,"pct_educ_superior":55,"brecha_educ":-3,"pct_sin_seguro":13,"pct_sus":73,"pct_seguro_privado":0,"brecha_seguro":10,"pct_salud_publica":22,"pct_med_tradicional":18,"pct_automedicacion":18,"pct_remedios_caseros":19,"pct_viv_desocupada":0,"pct_alquiler":22,"pct_electricidad":100,"pct_sin_electricidad":0,"pct_agua_red":89,"pct_alcantarillado":89,"pct_camara_septica":0,"pct_pozo_ciego":0,"pct_sin_desague":11,"pct_gas_red":0,"pct_gas_garrafa":100,"pct_lena_guano":0,"pct_basura_formal":100,"pct_basura_quema":0,"pct_basura_informal":0,"pct_internet":89,"pct_celular":100,"pct_televisor":78}},{"type":"Feature","geometry":{"type":"Polygon","coordinates":[[[-64.86724,-17.75468],[-64.86711,-17.7544],[-64.86638,-17.75455],[-64.8662,-17.75408],[-64.86569,-17.75362],[-64.86451,-17.75353],[-64.86464,-17.75458],[-64.86451,-17.75558],[-64.86599,-17.7554],[-64.8661,-17.75536],[-64.86609,-17.75528],[-64.86724,-17.75468]]]},"properties":{"n":"POJO","p":41,"personas_x_ha":10,"masculinidad":78,"pct_menor20":32,"pct_60mas":17,"pct_migrante":46,"dependencia_econ":86,"pct_empleados":41,"pct_cuentapropia":45,"pct_agricultura":23,"pct_comercio":27,"pct_manufactura":0,"pct_construccion":9,"pct_transporte":9,"pct_alojamiento":0,"pct_sin_educacion":0,"pct_educ_superior":21,"brecha_educ":-4,"pct_sin_seguro":12,"pct_sus":66,"pct_seguro_privado":0,"brecha_seguro":-2,"pct_salud_publica":21,"pct_med_tradicional":17,"pct_automedicacion":21,"pct_remedios_caseros":21,"pct_viv_desocupada":4,"pct_alquiler":8,"pct_electricidad":100,"pct_sin_electricidad":0,"pct_agua_red":83,"pct_alcantarillado":92,"pct_camara_septica":0,"pct_pozo_ciego":8,"pct_sin_desague":0,"pct_gas_red":0,"pct_gas_garrafa":100,"pct_lena_guano":0,"pct_basura_formal":92,"pct_basura_quema":8,"pct_basura_informal":0,"pct_internet":92,"pct_celular":100,"pct_televisor":83}},{"type":"Feature","geometry":{"type":"Polygon","coordinates":[[[-64.86251,-17.75849],[-64.86247,-17.75923],[-64.86169,-17.75921],[-64.86184,-17.75842],[-64.86251,-17.75849]]]},"properties":{"n":"POJO","p":18,"personas_x_ha":27,"masculinidad":157,"pct_menor20":39,"pct_60mas":0,"pct_migrante":78,"dependencia_econ":112,"pct_empleados":38,"pct_cuentapropia":38,"pct_agricultura":12,"pct_comercio":25,"pct_manufactura":0,"pct_construccion":0,"pct_transporte":0,"pct_alojamiento":0,"pct_sin_educacion":0,"pct_educ_superior":60,"brecha_educ":0,"pct_sin_seguro":47,"pct_sus":24,"pct_seguro_privado":0,"brecha_seguro":-5,"pct_salud_publica":9,"pct_med_tradicional":5,"pct_automedicacion":29,"pct_remedios_caseros":26,"pct_viv_desocupada":0,"pct_alquiler":0,"pct_electricidad":100,"pct_sin_electricidad":0,"pct_agua_red":17,"pct_alcantarillado":100,"pct_camara_septica":0,"pct_pozo_ciego":0,"pct_sin_desague":0,"pct_gas_red":0,"pct_gas_garrafa":100,"pct_lena_guano":0,"pct_basura_formal":100,"pct_basura_quema":0,"pct_basura_informal":0,"pct_internet":83,"pct_celular":100,"pct_televisor":100}},{"type":"Feature","geometry":{"type":"Polygon","coordinates":[[[-64.86355,-17.75461],[-64.8645,-17.75427],[-64.86439,-17.75394],[-64.86409,-17.754],[-64.86358,-17.75359],[-64.86342,-17.75357],[-64.86311,-17.75377],[-64.86309,-17.7539],[-64.86355,-17.75461]]]},"properties":{"n":"POJO","p":52,"personas_x_ha":56,"masculinidad":108,"pct_menor20":44,"pct_60mas":0,"pct_migrante":12,"dependencia_econ":126,"pct_empleados":17,"pct_cuentapropia":57,"pct_agricultura":52,"pct_comercio":30,"pct_manufactura":0,"pct_construccion":0,"pct_transporte":9,"pct_alojamiento":4,"pct_sin_educacion":0,"pct_educ_superior":19,"brecha_educ":-20,"pct_sin_seguro":8,"pct_sus":79,"pct_seguro_privado":0,"brecha_seguro":-8,"pct_salud_publica":22,"pct_med_tradicional":5,"pct_automedicacion":21,"pct_remedios_caseros":18,"pct_viv_desocupada":0,"pct_alquiler":12,"pct_electricidad":88,"pct_sin_electricidad":12,"pct_agua_red":50,"pct_alcantarillado":25,"pct_camara_septica":0,"pct_pozo_ciego":50,"pct_sin_desague":25,"pct_gas_red":0,"pct_gas_garrafa":75,"pct_lena_guano":25,"pct_basura_formal":50,"pct_basura_quema":50,"pct_basura_informal":0,"pct_internet":75,"pct_celular":88,"pct_televisor":75}},{"type":"Feature","geometry":{"type":"Polygon","coordinates":[[[-64.8586,-17.75857],[-64.85826,-17.75823],[-64.85804,-17.75841],[-64.85761,-17.75838],[-64.85739,-17.75892],[-64.85739,-17.75938],[-64.8582,-17.75949],[-64.85862,-17.75868],[-64.8586,-17.75857]]]},"properties":{"n":"POJO","p":26,"personas_x_ha":19,"masculinidad":136,"pct_menor20":27,"pct_60mas":15,"pct_migrante":15,"dependencia_econ":44,"pct_empleados":28,"pct_cuentapropia":50,"pct_agricultura":89,"pct_comercio":6,"pct_manufactura":0,"pct_construccion":0,"pct_transporte":0,"pct_alojamiento":6,"pct_sin_educacion":5,"pct_educ_superior":5,"brecha_educ":-10,"pct_sin_seguro":32,"pct_sus":68,"pct_seguro_privado":0,"brecha_seguro":25,"pct_salud_publica":35,"pct_med_tradicional":8,"pct_automedicacion":8,"pct_remedios_caseros":33,"pct_viv_desocupada":0,"pct_alquiler":0,"pct_electricidad":67,"pct_sin_electricidad":33,"pct_agua_red":0,"pct_alcantarillado":0,"pct_camara_septica":0,"pct_pozo_ciego":56,"pct_sin_desague":44,"pct_gas_red":0,"pct_gas_garrafa":56,"pct_lena_guano":33,"pct_basura_formal":22,"pct_basura_quema":67,"pct_basura_informal":0,"pct_internet":44,"pct_celular":67,"pct_televisor":44}},{"type":"Feature","geometry":{"type":"Polygon","coordinates":[[[-64.87006,-17.75597],[-64.87007,-17.7573],[-64.86958,-17.75728],[-64.86933,-17.75688],[-64.86883,-17.7552],[-64.86938,-17.7551],[-64.87011,-17.75525],[-64.87006,-17.75597]]]},"properties":{"n":"POJO","p":22,"personas_x_ha":9,"masculinidad":69,"pct_menor20":32,"pct_60mas":9,"pct_migrante":18,"dependencia_econ":47,"pct_empleados":47,"pct_cuentapropia":27,"pct_agricultura":33,"pct_comercio":13,"pct_manufactura":27,"pct_construccion":7,"pct_transporte":0,"pct_alojamiento":13,"pct_sin_educacion":13,"pct_educ_superior":0,"brecha_educ":-30,"pct_sin_seguro":23,"pct_sus":77,"pct_seguro_privado":0,"brecha_seguro":-1,"pct_salud_publica":29,"pct_med_tradicional":14,"pct_automedicacion":23,"pct_remedios_caseros":23,"pct_viv_desocupada":0,"pct_alquiler":0,"pct_electricidad":100,"pct_sin_electricidad":0,"pct_agua_red":25,"pct_alcantarillado":25,"pct_camara_septica":0,"pct_pozo_ciego":75,"pct_sin_desague":0,"pct_gas_red":0,"pct_gas_garrafa":100,"pct_lena_guano":0,"pct_basura_formal":50,"pct_basura_quema":50,"pct_basura_informal":0,"pct_internet":75,"pct_celular":75,"pct_televisor":62}},{"type":"Feature","geometry":{"type":"Polygon","coordinates":[[[-64.86422,-17.75711],[-64.8635,-17.75707],[-64.86341,-17.75772],[-64.86413,-17.75778],[-64.86422,-17.75711]]]},"properties":{"n":"POJO","p":23,"personas_x_ha":41,"masculinidad":77,"pct_menor20":39,"pct_60mas":4,"pct_migrante":57,"dependencia_econ":92,"pct_empleados":17,"pct_cuentapropia":83,"pct_agricultura":58,"pct_comercio":25,"pct_manufactura":0,"pct_construccion":0,"pct_transporte":0,"pct_alojamiento":8,"pct_sin_educacion":0,"pct_educ_superior":53,"brecha_educ":-28,"pct_sin_seguro":4,"pct_sus":87,"pct_seguro_privado":0,"brecha_seguro":10,"pct_salud_publica":28,"pct_med_tradicional":1,"pct_automedicacion":20,"pct_remedios_caseros":26,"pct_viv_desocupada":10,"pct_alquiler":25,"pct_electricidad":100,"pct_sin_electricidad":0,"pct_agua_red":25,"pct_alcantarillado":100,"pct_camara_septica":0,"pct_pozo_ciego":0,"pct_sin_desague":0,"pct_gas_red":0,"pct_gas_garrafa":100,"pct_lena_guano":0,"pct_basura_formal":100,"pct_basura_quema":0,"pct_basura_informal":0,"pct_internet":50,"pct_celular":100,"pct_televisor":100}},{"type":"Feature","geometry":{"type":"Polygon","coordinates":[[[-64.86362,-17.75625],[-64.86436,-17.75629],[-64.86444,-17.75567],[-64.86371,-17.75575],[-64.86362,-17.75625]]]},"properties":{"n":"POJO","p":40,"personas_x_ha":81,"masculinidad":100,"pct_menor20":22,"pct_60mas":10,"pct_migrante":28,"dependencia_econ":70,"pct_empleados":0,"pct_cuentapropia":95,"pct_agricultura":45,"pct_comercio":15,"pct_manufactura":20,"pct_construccion":0,"pct_transporte":0,"pct_alojamiento":10,"pct_sin_educacion":8,"pct_educ_superior":31,"brecha_educ":-8,"pct_sin_seguro":47,"pct_sus":38,"pct_seguro_privado":0,"brecha_seguro":12,"pct_salud_publica":32,"pct_med_tradicional":8,"pct_automedicacion":21,"pct_remedios_caseros":21,"pct_viv_desocupada":8,"pct_alquiler":0,"pct_electricidad":100,"pct_sin_electricidad":0,"pct_agua_red":90,"pct_alcantarillado":90,"pct_camara_septica":0,"pct_pozo_ciego":0,"pct_sin_desague":10,"pct_gas_red":0,"pct_gas_garrafa":80,"pct_lena_guano":0,"pct_basura_formal":100,"pct_basura_quema":0,"pct_basura_informal":0,"pct_internet":70,"pct_celular":80,"pct_televisor":60}},{"type":"Feature","geometry":{"type":"Polygon","coordinates":[[[-64.85974,-17.76032],[-64.85913,-17.76025],[-64.85917,-17.75996],[-64.85927,-17.75983],[-64.85998,-17.75954],[-64.86014,-17.75986],[-64.85974,-17.76032]]]},"properties":{"n":"POJO","p":20,"personas_x_ha":35,"masculinidad":186,"pct_menor20":45,"pct_60mas":20,"pct_migrante":10,"dependencia_econ":67,"pct_empleados":17,"pct_cuentapropia":83,"pct_agricultura":83,"pct_comercio":17,"pct_manufactura":0,"pct_construccion":0,"pct_transporte":0,"pct_alojamiento":0,"pct_sin_educacion":9,"pct_educ_superior":0,"brecha_educ":-43,"pct_sin_seguro":0,"pct_sus":100,"pct_seguro_privado":0,"brecha_seguro":0,"pct_salud_publica":25,"pct_med_tradicional":25,"pct_automedicacion":0,"pct_remedios_caseros":25,"pct_viv_desocupada":12,"pct_alquiler":0,"pct_electricidad":100,"pct_sin_electricidad":0,"pct_agua_red":40,"pct_alcantarillado":0,"pct_camara_septica":0,"pct_pozo_ciego":60,"pct_sin_desague":40,"pct_gas_red":0,"pct_gas_garrafa":40,"pct_lena_guano":60,"pct_basura_formal":0,"pct_basura_quema":80,"pct_basura_informal":20,"pct_internet":60,"pct_celular":100,"pct_televisor":80}},{"type":"Feature","geometry":{"type":"Polygon","coordinates":[[[-64.86505,-17.75711],[-64.86505,-17.75639],[-64.86441,-17.75636],[-64.86431,-17.75703],[-64.86505,-17.75711]]]},"properties":{"n":"POJO","p":58,"personas_x_ha":100,"masculinidad":164,"pct_menor20":76,"pct_60mas":5,"pct_migrante":66,"dependencia_econ":205,"pct_empleados":16,"pct_cuentapropia":58,"pct_agricultura":53,"pct_comercio":5,"pct_manufactura":0,"pct_construccion":5,"pct_transporte":0,"pct_alojamiento":0,"pct_sin_educacion":0,"pct_educ_superior":29,"brecha_educ":12,"pct_sin_seguro":38,"pct_sus":55,"pct_seguro_privado":3,"brecha_seguro":-12,"pct_salud_publica":36,"pct_med_tradicional":4,"pct_automedicacion":30,"pct_remedios_caseros":19,"pct_viv_desocupada":9,"pct_alquiler":17,"pct_electricidad":100,"pct_sin_electricidad":0,"pct_agua_red":50,"pct_alcantarillado":83,"pct_camara_septica":0,"pct_pozo_ciego":17,"pct_sin_desague":0,"pct_gas_red":0,"pct_gas_garrafa":100,"pct_lena_guano":0,"pct_basura_formal":83,"pct_basura_quema":0,"pct_basura_informal":17,"pct_internet":83,"pct_celular":100,"pct_televisor":67}},{"type":"Feature","geometry":{"type":"Polygon","coordinates":[[[-64.87022,-17.75389],[-64.86979,-17.75383],[-64.86957,-17.75415],[-64.86929,-17.75437],[-64.86915,-17.7547],[-64.86929,-17.75504],[-64.87011,-17.75517],[-64.87022,-17.75389]]]},"properties":{"n":"POJO","p":15,"personas_x_ha":13,"masculinidad":88,"pct_menor20":33,"pct_60mas":7,"pct_migrante":20,"dependencia_econ":88,"pct_empleados":38,"pct_cuentapropia":62,"pct_agricultura":62,"pct_comercio":0,"pct_manufactura":0,"pct_construccion":0,"pct_transporte":0,"pct_alojamiento":12,"pct_sin_educacion":0,"pct_educ_superior":20,"brecha_educ":8,"pct_sin_seguro":27,"pct_sus":73,"pct_seguro_privado":0,"brecha_seguro":4,"pct_salud_publica":37,"pct_med_tradicional":12,"pct_automedicacion":27,"pct_remedios_caseros":22,"pct_viv_desocupada":0,"pct_alquiler":0,"pct_electricidad":100,"pct_sin_electricidad":0,"pct_agua_red":33,"pct_alcantarillado":0,"pct_camara_septica":17,"pct_pozo_ciego":50,"pct_sin_desague":33,"pct_gas_red":0,"pct_gas_garrafa":100,"pct_lena_guano":0,"pct_basura_formal":67,"pct_basura_quema":33,"pct_basura_informal":0,"pct_internet":83,"pct_celular":100,"pct_televisor":67}},{"type":"Feature","geometry":{"type":"Polygon","coordinates":[[[-64.6836,-17.71321],[-64.68293,-17.71316],[-64.68309,-17.71244],[-64.68377,-17.71247],[-64.6836,-17.71321]]]},"properties":{"n":"RIO GRANDE","p":17,"personas_x_ha":28,"masculinidad":55,"pct_menor20":53,"pct_60mas":12,"pct_migrante":41,"dependencia_econ":112,"pct_empleados":0,"pct_cuentapropia":38,"pct_agricultura":88,"pct_comercio":12,"pct_manufactura":0,"pct_construccion":0,"pct_transporte":0,"pct_alojamiento":0,"pct_sin_educacion":22,"pct_educ_superior":0,"brecha_educ":50,"pct_sin_seguro":12,"pct_sus":88,"pct_seguro_privado":0,"brecha_seguro":40,"pct_salud_publica":46,"pct_med_tradicional":6,"pct_automedicacion":3,"pct_remedios_caseros":40,"pct_viv_desocupada":0,"pct_alquiler":0,"pct_electricidad":83,"pct_sin_electricidad":17,"pct_agua_red":83,"pct_alcantarillado":17,"pct_camara_septica":17,"pct_pozo_ciego":67,"pct_sin_desague":0,"pct_gas_red":0,"pct_gas_garrafa":33,"pct_lena_guano":67,"pct_basura_formal":0,"pct_basura_quema":100,"pct_basura_informal":0,"pct_internet":83,"pct_celular":83,"pct_televisor":67}},{"type":"Feature","geometry":{"type":"Polygon","coordinates":[[[-64.6811,-17.71273],[-64.68122,-17.71202],[-64.68005,-17.71186],[-64.6799,-17.71261],[-64.6811,-17.71273]]]},"properties":{"n":"RIO GRANDE","p":17,"personas_x_ha":16,"masculinidad":325,"pct_menor20":18,"pct_60mas":6,"pct_migrante":82,"dependencia_econ":42,"pct_empleados":0,"pct_cuentapropia":83,"pct_agricultura":100,"pct_comercio":0,"pct_manufactura":0,"pct_construccion":0,"pct_transporte":0,"pct_alojamiento":0,"pct_sin_educacion":0,"pct_educ_superior":7,"brecha_educ":-50,"pct_sin_seguro":6,"pct_sus":94,"pct_seguro_privado":0,"brecha_seguro":-25,"pct_salud_publica":44,"pct_med_tradicional":0,"pct_automedicacion":12,"pct_remedios_caseros":32,"pct_viv_desocupada":20,"pct_alquiler":0,"pct_electricidad":100,"pct_sin_electricidad":0,"pct_agua_red":0,"pct_alcantarillado":0,"pct_camara_septica":0,"pct_pozo_ciego":67,"pct_sin_desague":33,"pct_gas_red":0,"pct_gas_garrafa":50,"pct_lena_guano":50,"pct_basura_formal":0,"pct_basura_quema":100,"pct_basura_informal":0,"pct_internet":100,"pct_celular":100,"pct_televisor":67}},{"type":"Feature","geometry":{"type":"Polygon","coordinates":[[[-64.68303,-17.71247],[-64.68233,-17.71223],[-64.68217,-17.713],[-64.68286,-17.71313],[-64.68303,-17.71247]]]},"properties":{"n":"RIO GRANDE","p":33,"personas_x_ha":51,"masculinidad":83,"pct_menor20":45,"pct_60mas":0,"pct_migrante":18,"dependencia_econ":48,"pct_empleados":5,"pct_cuentapropia":57,"pct_agricultura":81,"pct_comercio":0,"pct_manufactura":0,"pct_construccion":0,"pct_transporte":5,"pct_alojamiento":0,"pct_sin_educacion":6,"pct_educ_superior":0,"brecha_educ":-28,"pct_sin_seguro":59,"pct_sus":41,"pct_seguro_privado":0,"brecha_seguro":-8,"pct_salud_publica":56,"pct_med_tradicional":10,"pct_automedicacion":4,"pct_remedios_caseros":24,"pct_viv_desocupada":0,"pct_alquiler":0,"pct_electricidad":100,"pct_sin_electricidad":0,"pct_agua_red":12,"pct_alcantarillado":12,"pct_camara_septica":0,"pct_pozo_ciego":75,"pct_sin_desague":12,"pct_gas_red":0,"pct_gas_garrafa":100,"pct_lena_guano":0,"pct_basura_formal":0,"pct_basura_quema":88,"pct_basura_informal":12,"pct_internet":75,"pct_celular":88,"pct_televisor":75}},{"type":"Feature","geometry":{"type":"Polygon","coordinates":[[[-64.68597,-17.71335],[-64.6872,-17.71377],[-64.68721,-17.71344],[-64.68691,-17.71323],[-64.68643,-17.71226],[-64.68449,-17.71205],[-64.68437,-17.71143],[-64.6837,-17.7115],[-64.68395,-17.71177],[-64.68394,-17.71248],[-64.68471,-17.71298],[-64.68533,-17.71323],[-64.68597,-17.71335]]]},"properties":{"n":"RIO GRANDE","p":23,"personas_x_ha":6,"masculinidad":109,"pct_menor20":48,"pct_60mas":9,"pct_migrante":52,"dependencia_econ":109,"pct_empleados":0,"pct_cuentapropia":73,"pct_agricultura":100,"pct_comercio":0,"pct_manufactura":0,"pct_construccion":0,"pct_transporte":0,"pct_alojamiento":0,"pct_sin_educacion":25,"pct_educ_superior":0,"brecha_educ":-50,"pct_sin_seguro":22,"pct_sus":78,"pct_seguro_privado":0,"brecha_seguro":7,"pct_salud_publica":38,"pct_med_tradicional":10,"pct_automedicacion":12,"pct_remedios_caseros":27,"pct_viv_desocupada":0,"pct_alquiler":0,"pct_electricidad":100,"pct_sin_electricidad":0,"pct_agua_red":43,"pct_alcantarillado":0,"pct_camara_septica":0,"pct_pozo_ciego":86,"pct_sin_desague":0,"pct_gas_red":0,"pct_gas_garrafa":57,"pct_lena_guano":43,"pct_basura_formal":0,"pct_basura_quema":100,"pct_basura_informal":0,"pct_internet":100,"pct_celular":100,"pct_televisor":71}},{"type":"Feature","geometry":{"type":"Polygon","coordinates":[[[-64.85844,-17.88705],[-64.8586,-17.88641],[-64.85847,-17.88618],[-64.85854,-17.88604],[-64.85891,-17.88638],[-64.85912,-17.88704],[-64.85904,-17.88722],[-64.85889,-17.8873],[-64.85841,-17.88725],[-64.85843,-17.88705],[-64.85868,-17.88707],[-64.85844,-17.88705]]]},"properties":{"n":"SALTO Y VIÑA","p":20,"personas_x_ha":30,"masculinidad":122,"pct_menor20":40,"pct_60mas":15,"pct_migrante":15,"dependencia_econ":100,"pct_empleados":0,"pct_cuentapropia":80,"pct_agricultura":80,"pct_comercio":10,"pct_manufactura":0,"pct_construccion":0,"pct_transporte":0,"pct_alojamiento":0,"pct_sin_educacion":7,"pct_educ_superior":36,"brecha_educ":0,"pct_sin_seguro":0,"pct_sus":100,"pct_seguro_privado":0,"brecha_seguro":0,"pct_salud_publica":28,"pct_med_tradicional":11,"pct_automedicacion":20,"pct_remedios_caseros":20,"pct_viv_desocupada":0,"pct_alquiler":20,"pct_electricidad":100,"pct_sin_electricidad":0,"pct_agua_red":100,"pct_alcantarillado":0,"pct_camara_septica":20,"pct_pozo_ciego":40,"pct_sin_desague":40,"pct_gas_red":0,"pct_gas_garrafa":80,"pct_lena_guano":20,"pct_basura_formal":0,"pct_basura_quema":100,"pct_basura_informal":0,"pct_internet":100,"pct_celular":100,"pct_televisor":80}},{"type":"Feature","geometry":{"type":"Polygon","coordinates":[[[-64.85597,-17.88943],[-64.85557,-17.88898],[-64.85526,-17.88932],[-64.85572,-17.88969],[-64.85597,-17.88943]]]},"properties":{"n":"SUB CHALLHUANI","p":16,"personas_x_ha":52,"masculinidad":129,"pct_menor20":50,"pct_60mas":12,"pct_migrante":6,"dependencia_econ":220,"pct_empleados":0,"pct_cuentapropia":80,"pct_agricultura":100,"pct_comercio":0,"pct_manufactura":0,"pct_construccion":0,"pct_transporte":0,"pct_alojamiento":0,"pct_sin_educacion":0,"pct_educ_superior":0,"brecha_educ":0,"pct_sin_seguro":0,"pct_sus":100,"pct_seguro_privado":0,"brecha_seguro":0,"pct_salud_publica":34,"pct_med_tradicional":19,"pct_automedicacion":2,"pct_remedios_caseros":32,"pct_viv_desocupada":29,"pct_alquiler":0,"pct_electricidad":100,"pct_sin_electricidad":0,"pct_agua_red":100,"pct_alcantarillado":25,"pct_camara_septica":0,"pct_pozo_ciego":25,"pct_sin_desague":50,"pct_gas_red":0,"pct_gas_garrafa":100,"pct_lena_guano":0,"pct_basura_formal":0,"pct_basura_quema":75,"pct_basura_informal":0,"pct_internet":50,"pct_celular":25,"pct_televisor":100}},{"type":"Feature","geometry":{"type":"Polygon","coordinates":[[[-64.85454,-17.88999],[-64.85439,-17.89],[-64.85411,-17.88966],[-64.85429,-17.88938],[-64.85491,-17.88879],[-64.85531,-17.88917],[-64.85454,-17.88999]]]},"properties":{"n":"SUB CHALLHUANI","p":27,"personas_x_ha":31,"masculinidad":125,"pct_menor20":56,"pct_60mas":4,"pct_migrante":19,"dependencia_econ":93,"pct_empleados":0,"pct_cuentapropia":50,"pct_agricultura":100,"pct_comercio":0,"pct_manufactura":0,"pct_construccion":0,"pct_transporte":0,"pct_alojamiento":0,"pct_sin_educacion":7,"pct_educ_superior":0,"brecha_educ":-8,"pct_sin_seguro":0,"pct_sus":100,"pct_seguro_privado":0,"brecha_seguro":0,"pct_salud_publica":36,"pct_med_tradicional":8,"pct_automedicacion":12,"pct_remedios_caseros":33,"pct_viv_desocupada":22,"pct_alquiler":0,"pct_electricidad":86,"pct_sin_electricidad":14,"pct_agua_red":100,"pct_alcantarillado":0,"pct_camara_septica":0,"pct_pozo_ciego":14,"pct_sin_desague":43,"pct_gas_red":0,"pct_gas_garrafa":57,"pct_lena_guano":43,"pct_basura_formal":0,"pct_basura_quema":100,"pct_basura_informal":0,"pct_internet":86,"pct_celular":100,"pct_televisor":86}},{"type":"Feature","geometry":{"type":"Polygon","coordinates":[[[-64.85505,-17.88856],[-64.85467,-17.88818],[-64.85417,-17.88811],[-64.85345,-17.88868],[-64.85398,-17.8893],[-64.8542,-17.88942],[-64.85505,-17.88856]]]},"properties":{"n":"SUB CHALLHUANI","p":34,"personas_x_ha":25,"masculinidad":100,"pct_menor20":56,"pct_60mas":3,"pct_migrante":0,"dependencia_econ":94,"pct_empleados":6,"pct_cuentapropia":65,"pct_agricultura":88,"pct_comercio":0,"pct_manufactura":0,"pct_construccion":0,"pct_transporte":0,"pct_alojamiento":0,"pct_sin_educacion":13,"pct_educ_superior":0,"brecha_educ":-2,"pct_sin_seguro":3,"pct_sus":97,"pct_seguro_privado":0,"brecha_seguro":7,"pct_salud_publica":37,"pct_med_tradicional":2,"pct_automedicacion":15,"pct_remedios_caseros":37,"pct_viv_desocupada":0,"pct_alquiler":0,"pct_electricidad":78,"pct_sin_electricidad":11,"pct_agua_red":100,"pct_alcantarillado":11,"pct_camara_septica":0,"pct_pozo_ciego":11,"pct_sin_desague":78,"pct_gas_red":0,"pct_gas_garrafa":44,"pct_lena_guano":56,"pct_basura_formal":0,"pct_basura_quema":100,"pct_basura_informal":0,"pct_internet":89,"pct_celular":89,"pct_televisor":78}},{"type":"Feature","geometry":{"type":"Polygon","coordinates":[[[-64.85609,-17.89018],[-64.8557,-17.88983],[-64.85478,-17.89044],[-64.85493,-17.89078],[-64.85483,-17.89091],[-64.8549,-17.89108],[-64.85501,-17.89119],[-64.85511,-17.89118],[-64.85543,-17.89083],[-64.85548,-17.89062],[-64.85596,-17.89042],[-64.85609,-17.89029],[-64.85609,-17.89018]]]},"properties":{"n":"SUB CHALLHUANI","p":24,"personas_x_ha":24,"masculinidad":100,"pct_menor20":50,"pct_60mas":0,"pct_migrante":4,"dependencia_econ":71,"pct_empleados":0,"pct_cuentapropia":50,"pct_agricultura":86,"pct_comercio":0,"pct_manufactura":7,"pct_construccion":0,"pct_transporte":0,"pct_alojamiento":0,"pct_sin_educacion":14,"pct_educ_superior":7,"brecha_educ":14,"pct_sin_seguro":0,"pct_sus":100,"pct_seguro_privado":0,"brecha_seguro":0,"pct_salud_publica":71,"pct_med_tradicional":6,"pct_automedicacion":0,"pct_remedios_caseros":12,"pct_viv_desocupada":50,"pct_alquiler":0,"pct_electricidad":100,"pct_sin_electricidad":0,"pct_agua_red":50,"pct_alcantarillado":17,"pct_camara_septica":0,"pct_pozo_ciego":50,"pct_sin_desague":33,"pct_gas_red":17,"pct_gas_garrafa":83,"pct_lena_guano":0,"pct_basura_formal":0,"pct_basura_quema":83,"pct_basura_informal":0,"pct_internet":0,"pct_celular":67,"pct_televisor":83}},{"type":"Feature","geometry":{"type":"Polygon","coordinates":[[[-64.89133,-17.85008],[-64.89023,-17.85184],[-64.88958,-17.85224],[-64.88982,-17.85269],[-64.89042,-17.85212],[-64.89112,-17.85125],[-64.89117,-17.85103],[-64.89157,-17.85064],[-64.89168,-17.85025],[-64.89133,-17.85008]]]},"properties":{"n":"SUNCHUPAMPA","p":40,"personas_x_ha":29,"masculinidad":90,"pct_menor20":48,"pct_60mas":5,"pct_migrante":15,"dependencia_econ":54,"pct_empleados":23,"pct_cuentapropia":35,"pct_agricultura":73,"pct_comercio":12,"pct_manufactura":0,"pct_construccion":4,"pct_transporte":0,"pct_alojamiento":4,"pct_sin_educacion":4,"pct_educ_superior":0,"brecha_educ":-5,"pct_sin_seguro":20,"pct_sus":80,"pct_seguro_privado":0,"brecha_seguro":2,"pct_salud_publica":29,"pct_med_tradicional":8,"pct_automedicacion":21,"pct_remedios_caseros":27,"pct_viv_desocupada":0,"pct_alquiler":0,"pct_electricidad":100,"pct_sin_electricidad":0,"pct_agua_red":36,"pct_alcantarillado":0,"pct_camara_septica":9,"pct_pozo_ciego":73,"pct_sin_desague":18,"pct_gas_red":0,"pct_gas_garrafa":82,"pct_lena_guano":18,"pct_basura_formal":82,"pct_basura_quema":18,"pct_basura_informal":0,"pct_internet":82,"pct_celular":100,"pct_televisor":64}},{"type":"Feature","geometry":{"type":"Polygon","coordinates":[[[-64.89003,-17.85368],[-64.89028,-17.85337],[-64.89005,-17.85295],[-64.8909,-17.85287],[-64.89121,-17.85287],[-64.89131,-17.85294],[-64.89133,-17.8535],[-64.89118,-17.85376],[-64.89071,-17.85423],[-64.89056,-17.85474],[-64.89003,-17.8546],[-64.88995,-17.85391],[-64.89003,-17.85368]]]},"properties":{"n":"SUNCHUPAMPA","p":17,"personas_x_ha":8,"masculinidad":143,"pct_menor20":41,"pct_60mas":12,"pct_migrante":24,"dependencia_econ":42,"pct_empleados":8,"pct_cuentapropia":58,"pct_agricultura":58,"pct_comercio":8,"pct_manufactura":0,"pct_construccion":0,"pct_transporte":8,"pct_alojamiento":8,"pct_sin_educacion":0,"pct_educ_superior":27,"brecha_educ":-10,"pct_sin_seguro":12,"pct_sus":82,"pct_seguro_privado":0,"brecha_seguro":-4,"pct_salud_publica":25,"pct_med_tradicional":11,"pct_automedicacion":21,"pct_remedios_caseros":23,"pct_viv_desocupada":43,"pct_alquiler":14,"pct_electricidad":86,"pct_sin_electricidad":14,"pct_agua_red":29,"pct_alcantarillado":0,"pct_camara_septica":0,"pct_pozo_ciego":57,"pct_sin_desague":43,"pct_gas_red":14,"pct_gas_garrafa":71,"pct_lena_guano":14,"pct_basura_formal":14,"pct_basura_quema":57,"pct_basura_informal":14,"pct_internet":86,"pct_celular":86,"pct_televisor":57}},{"type":"Feature","geometry":{"type":"Polygon","coordinates":[[[-64.89108,-17.85201],[-64.89079,-17.85179],[-64.88992,-17.85277],[-64.89004,-17.85291],[-64.89126,-17.85282],[-64.89133,-17.85273],[-64.89127,-17.85261],[-64.89187,-17.85198],[-64.89171,-17.85177],[-64.89128,-17.85154],[-64.89116,-17.85133],[-64.8908,-17.85179],[-64.89108,-17.85201]]]},"properties":{"n":"SUNCHUPAMPA","p":28,"personas_x_ha":16,"masculinidad":87,"pct_menor20":46,"pct_60mas":11,"pct_migrante":11,"dependencia_econ":75,"pct_empleados":6,"pct_cuentapropia":50,"pct_agricultura":94,"pct_comercio":0,"pct_manufactura":0,"pct_construccion":0,"pct_transporte":0,"pct_alojamiento":0,"pct_sin_educacion":20,"pct_educ_superior":0,"brecha_educ":30,"pct_sin_seguro":0,"pct_sus":100,"pct_seguro_privado":0,"brecha_seguro":0,"pct_salud_publica":33,"pct_med_tradicional":4,"pct_automedicacion":26,"pct_remedios_caseros":27,"pct_viv_desocupada":8,"pct_alquiler":0,"pct_electricidad":89,"pct_sin_electricidad":11,"pct_agua_red":89,"pct_alcantarillado":0,"pct_camara_septica":0,"pct_pozo_ciego":67,"pct_sin_desague":22,"pct_gas_red":0,"pct_gas_garrafa":89,"pct_lena_guano":11,"pct_basura_formal":11,"pct_basura_quema":78,"pct_basura_informal":11,"pct_internet":89,"pct_celular":89,"pct_televisor":56}},{"type":"Feature","geometry":{"type":"Polygon","coordinates":[[[-64.91196,-17.84208],[-64.91172,-17.84206],[-64.91165,-17.84222],[-64.9117,-17.8425],[-64.912,-17.8425],[-64.912,-17.84273],[-64.91265,-17.84282],[-64.91276,-17.84267],[-64.91292,-17.84267],[-64.91292,-17.84255],[-64.91217,-17.84227],[-64.91196,-17.84208]]]},"properties":{"n":"TIERRAS NUEVAS GRANDE","p":28,"personas_x_ha":49,"masculinidad":115,"pct_menor20":61,"pct_60mas":4,"pct_migrante":7,"dependencia_econ":75,"pct_empleados":0,"pct_cuentapropia":31,"pct_agricultura":81,"pct_comercio":0,"pct_manufactura":0,"pct_construccion":6,"pct_transporte":0,"pct_alojamiento":0,"pct_sin_educacion":18,"pct_educ_superior":0,"brecha_educ":-3,"pct_sin_seguro":5,"pct_sus":90,"pct_seguro_privado":5,"brecha_seguro":-12,"pct_salud_publica":34,"pct_med_tradicional":6,"pct_automedicacion":27,"pct_remedios_caseros":34,"pct_viv_desocupada":0,"pct_alquiler":0,"pct_electricidad":100,"pct_sin_electricidad":0,"pct_agua_red":83,"pct_alcantarillado":33,"pct_camara_septica":0,"pct_pozo_ciego":50,"pct_sin_desague":17,"pct_gas_red":0,"pct_gas_garrafa":83,"pct_lena_guano":17,"pct_basura_formal":0,"pct_basura_quema":100,"pct_basura_informal":0,"pct_internet":33,"pct_celular":50,"pct_televisor":17}},{"type":"Feature","geometry":{"type":"Polygon","coordinates":[[[-64.89638,-17.72154],[-64.89605,-17.72155],[-64.89571,-17.72142],[-64.89548,-17.72181],[-64.8958,-17.72195],[-64.8957,-17.72212],[-64.89614,-17.72229],[-64.89645,-17.72187],[-64.89638,-17.72154]]]},"properties":{"n":"VALLE AGRARIO VALLE HERMOSO","p":26,"personas_x_ha":44,"masculinidad":86,"pct_menor20":35,"pct_60mas":0,"pct_migrante":0,"dependencia_econ":86,"pct_empleados":7,"pct_cuentapropia":86,"pct_agricultura":86,"pct_comercio":7,"pct_manufactura":7,"pct_construccion":0,"pct_transporte":0,"pct_alojamiento":0,"pct_sin_educacion":0,"pct_educ_superior":11,"brecha_educ":3,"pct_sin_seguro":27,"pct_sus":69,"pct_seguro_privado":4,"brecha_seguro":12,"pct_salud_publica":29,"pct_med_tradicional":4,"pct_automedicacion":29,"pct_remedios_caseros":25,"pct_viv_desocupada":25,"pct_alquiler":0,"pct_electricidad":100,"pct_sin_electricidad":0,"pct_agua_red":80,"pct_alcantarillado":40,"pct_camara_septica":0,"pct_pozo_ciego":60,"pct_sin_desague":0,"pct_gas_red":0,"pct_gas_garrafa":100,"pct_lena_guano":0,"pct_basura_formal":40,"pct_basura_quema":60,"pct_basura_informal":0,"pct_internet":40,"pct_celular":80,"pct_televisor":60}},{"type":"Feature","geometry":{"type":"Polygon","coordinates":[[[-64.89623,-17.72338],[-64.89636,-17.72355],[-64.89692,-17.72309],[-64.89671,-17.72288],[-64.89623,-17.72338]]]},"properties":{"n":"VALLE AGRARIO VALLE HERMOSO","p":25,"personas_x_ha":116,"masculinidad":108,"pct_menor20":48,"pct_60mas":12,"pct_migrante":12,"dependencia_econ":108,"pct_empleados":17,"pct_cuentapropia":67,"pct_agricultura":92,"pct_comercio":0,"pct_manufactura":0,"pct_construccion":0,"pct_transporte":8,"pct_alojamiento":0,"pct_sin_educacion":7,"pct_educ_superior":0,"brecha_educ":-14,"pct_sin_seguro":24,"pct_sus":76,"pct_seguro_privado":0,"brecha_seguro":-2,"pct_salud_publica":26,"pct_med_tradicional":6,"pct_automedicacion":24,"pct_remedios_caseros":26,"pct_viv_desocupada":0,"pct_alquiler":0,"pct_electricidad":78,"pct_sin_electricidad":22,"pct_agua_red":78,"pct_alcantarillado":0,"pct_camara_septica":0,"pct_pozo_ciego":89,"pct_sin_desague":11,"pct_gas_red":0,"pct_gas_garrafa":100,"pct_lena_guano":0,"pct_basura_formal":44,"pct_basura_quema":56,"pct_basura_informal":0,"pct_internet":67,"pct_celular":78,"pct_televisor":56}},{"type":"Feature","geometry":{"type":"Polygon","coordinates":[[[-64.8959,-17.72378],[-64.89608,-17.72383],[-64.89629,-17.72354],[-64.89617,-17.72343],[-64.8959,-17.72378]]]},"properties":{"n":"VALLE AGRARIO VALLE HERMOSO","p":34,"personas_x_ha":372,"masculinidad":79,"pct_menor20":68,"pct_60mas":0,"pct_migrante":32,"dependencia_econ":100,"pct_empleados":12,"pct_cuentapropia":82,"pct_agricultura":94,"pct_comercio":6,"pct_manufactura":0,"pct_construccion":0,"pct_transporte":0,"pct_alojamiento":0,"pct_sin_educacion":0,"pct_educ_superior":0,"brecha_educ":-33,"pct_sin_seguro":9,"pct_sus":91,"pct_seguro_privado":0,"brecha_seguro":20,"pct_salud_publica":28,"pct_med_tradicional":21,"pct_automedicacion":19,"pct_remedios_caseros":23,"pct_viv_desocupada":0,"pct_alquiler":0,"pct_electricidad":100,"pct_sin_electricidad":0,"pct_agua_red":67,"pct_alcantarillado":0,"pct_camara_septica":0,"pct_pozo_ciego":100,"pct_sin_desague":0,"pct_gas_red":0,"pct_gas_garrafa":100,"pct_lena_guano":0,"pct_basura_formal":83,"pct_basura_quema":17,"pct_basura_informal":0,"pct_internet":100,"pct_celular":100,"pct_televisor":100}},{"type":"Feature","geometry":{"type":"Polygon","coordinates":[[[-64.8972,-17.72207],[-64.8971,-17.72181],[-64.89719,-17.72133],[-64.89756,-17.72161],[-64.8972,-17.72207]]]},"properties":{"n":"VALLE AGRARIO VALLE HERMOSO","p":15,"personas_x_ha":70,"masculinidad":200,"pct_menor20":13,"pct_60mas":40,"pct_migrante":33,"dependencia_econ":67,"pct_empleados":33,"pct_cuentapropia":67,"pct_agricultura":67,"pct_comercio":0,"pct_manufactura":22,"pct_construccion":0,"pct_transporte":11,"pct_alojamiento":0,"pct_sin_educacion":23,"pct_educ_superior":0,"brecha_educ":-18,"pct_sin_seguro":40,"pct_sus":60,"pct_seguro_privado":0,"brecha_seguro":60,"pct_salud_publica":28,"pct_med_tradicional":0,"pct_automedicacion":28,"pct_remedios_caseros":28,"pct_viv_desocupada":0,"pct_alquiler":14,"pct_electricidad":100,"pct_sin_electricidad":0,"pct_agua_red":14,"pct_alcantarillado":0,"pct_camara_septica":0,"pct_pozo_ciego":100,"pct_sin_desague":0,"pct_gas_red":0,"pct_gas_garrafa":100,"pct_lena_guano":0,"pct_basura_formal":43,"pct_basura_quema":14,"pct_basura_informal":0,"pct_internet":71,"pct_celular":86,"pct_televisor":57}},{"type":"Feature","geometry":{"type":"Polygon","coordinates":[[[-64.89498,-17.72241],[-64.89607,-17.72327],[-64.89609,-17.72312],[-64.89612,-17.723],[-64.89615,-17.72296],[-64.89608,-17.72327],[-64.89618,-17.72334],[-64.89688,-17.72269],[-64.89685,-17.72263],[-64.89638,-17.72275],[-64.89576,-17.72251],[-64.89566,-17.72258],[-64.89509,-17.72228],[-64.89498,-17.72241]]]},"properties":{"n":"VALLE AGRARIO VALLE HERMOSO","p":49,"personas_x_ha":61,"masculinidad":133,"pct_menor20":45,"pct_60mas":4,"pct_migrante":35,"dependencia_econ":81,"pct_empleados":26,"pct_cuentapropia":63,"pct_agricultura":59,"pct_comercio":19,"pct_manufactura":4,"pct_construccion":7,"pct_transporte":4,"pct_alojamiento":4,"pct_sin_educacion":0,"pct_educ_superior":11,"brecha_educ":-10,"pct_sin_seguro":35,"pct_sus":52,"pct_seguro_privado":2,"brecha_seguro":-5,"pct_salud_publica":30,"pct_med_tradicional":3,"pct_automedicacion":24,"pct_remedios_caseros":31,"pct_viv_desocupada":6,"pct_alquiler":0,"pct_electricidad":100,"pct_sin_electricidad":0,"pct_agua_red":64,"pct_alcantarillado":0,"pct_camara_septica":0,"pct_pozo_ciego":93,"pct_sin_desague":7,"pct_gas_red":0,"pct_gas_garrafa":100,"pct_lena_guano":0,"pct_basura_formal":71,"pct_basura_quema":21,"pct_basura_informal":7,"pct_internet":93,"pct_celular":93,"pct_televisor":79}},{"type":"Feature","geometry":{"type":"Polygon","coordinates":[[[-64.89707,-17.72211],[-64.89653,-17.72181],[-64.89646,-17.72164],[-64.8967,-17.72157],[-64.89695,-17.72127],[-64.89712,-17.72134],[-64.89706,-17.72191],[-64.89687,-17.72167],[-64.89706,-17.72192],[-64.89707,-17.72211]]]},"properties":{"n":"VALLE AGRARIO VALLE HERMOSO","p":21,"personas_x_ha":61,"masculinidad":91,"pct_menor20":33,"pct_60mas":5,"pct_migrante":14,"dependencia_econ":40,"pct_empleados":7,"pct_cuentapropia":80,"pct_agricultura":60,"pct_comercio":0,"pct_manufactura":0,"pct_construccion":0,"pct_transporte":7,"pct_alojamiento":0,"pct_sin_educacion":7,"pct_educ_superior":7,"brecha_educ":14,"pct_sin_seguro":30,"pct_sus":70,"pct_seguro_privado":0,"brecha_seguro":46,"pct_salud_publica":22,"pct_med_tradicional":10,"pct_automedicacion":26,"pct_remedios_caseros":25,"pct_viv_desocupada":10,"pct_alquiler":0,"pct_electricidad":86,"pct_sin_electricidad":14,"pct_agua_red":71,"pct_alcantarillado":29,"pct_camara_septica":0,"pct_pozo_ciego":71,"pct_sin_desague":0,"pct_gas_red":0,"pct_gas_garrafa":86,"pct_lena_guano":14,"pct_basura_formal":57,"pct_basura_quema":43,"pct_basura_informal":0,"pct_internet":29,"pct_celular":43,"pct_televisor":43}},{"type":"Feature","geometry":{"type":"Polygon","coordinates":[[[-64.89745,-17.72309],[-64.89731,-17.72304],[-64.89667,-17.72354],[-64.89658,-17.72348],[-64.8972,-17.72294],[-64.89752,-17.72289],[-64.8976,-17.72297],[-64.89745,-17.72309]]]},"properties":{"n":"VALLE AGRARIO VALLE HERMOSO","p":21,"personas_x_ha":119,"masculinidad":162,"pct_menor20":48,"pct_60mas":0,"pct_migrante":38,"dependencia_econ":91,"pct_empleados":27,"pct_cuentapropia":64,"pct_agricultura":55,"pct_comercio":27,"pct_manufactura":0,"pct_construccion":0,"pct_transporte":0,"pct_alojamiento":0,"pct_sin_educacion":0,"pct_educ_superior":9,"brecha_educ":-27,"pct_sin_seguro":24,"pct_sus":76,"pct_seguro_privado":0,"brecha_seguro":18,"pct_salud_publica":29,"pct_med_tradicional":14,"pct_automedicacion":21,"pct_remedios_caseros":22,"pct_viv_desocupada":0,"pct_alquiler":0,"pct_electricidad":100,"pct_sin_electricidad":0,"pct_agua_red":80,"pct_alcantarillado":0,"pct_camara_septica":0,"pct_pozo_ciego":100,"pct_sin_desague":0,"pct_gas_red":0,"pct_gas_garrafa":100,"pct_lena_guano":0,"pct_basura_formal":40,"pct_basura_quema":60,"pct_basura_informal":0,"pct_internet":100,"pct_celular":100,"pct_televisor":60}},{"type":"Feature","geometry":{"type":"Polygon","coordinates":[[[-64.87325,-17.72913],[-64.87402,-17.72859],[-64.87425,-17.72854],[-64.87403,-17.729],[-64.87325,-17.72913]]]},"properties":{"n":"VILLA ESPERANZA","p":35,"personas_x_ha":128,"masculinidad":106,"pct_menor20":49,"pct_60mas":11,"pct_migrante":40,"dependencia_econ":106,"pct_empleados":18,"pct_cuentapropia":76,"pct_agricultura":47,"pct_comercio":29,"pct_manufactura":0,"pct_construccion":6,"pct_transporte":0,"pct_alojamiento":18,"pct_sin_educacion":0,"pct_educ_superior":15,"brecha_educ":8,"pct_sin_seguro":23,"pct_sus":77,"pct_seguro_privado":0,"brecha_seguro":-1,"pct_salud_publica":25,"pct_med_tradicional":6,"pct_automedicacion":26,"pct_remedios_caseros":28,"pct_viv_desocupada":0,"pct_alquiler":17,"pct_electricidad":100,"pct_sin_electricidad":0,"pct_agua_red":50,"pct_alcantarillado":0,"pct_camara_septica":17,"pct_pozo_ciego":67,"pct_sin_desague":0,"pct_gas_red":0,"pct_gas_garrafa":100,"pct_lena_guano":0,"pct_basura_formal":100,"pct_basura_quema":0,"pct_basura_informal":0,"pct_internet":100,"pct_celular":100,"pct_televisor":67}},{"type":"Feature","geometry":{"type":"Polygon","coordinates":[[[-64.87607,-17.73],[-64.87596,-17.72947],[-64.87434,-17.7303],[-64.87432,-17.73038],[-64.87471,-17.73076],[-64.87495,-17.73056],[-64.87607,-17.73]]]},"properties":{"n":"VILLA ESPERANZA","p":31,"personas_x_ha":28,"masculinidad":107,"pct_menor20":55,"pct_60mas":0,"pct_migrante":35,"dependencia_econ":182,"pct_empleados":45,"pct_cuentapropia":36,"pct_agricultura":64,"pct_comercio":9,"pct_manufactura":0,"pct_construccion":9,"pct_transporte":0,"pct_alojamiento":9,"pct_sin_educacion":0,"pct_educ_superior":20,"brecha_educ":6,"pct_sin_seguro":45,"pct_sus":52,"pct_seguro_privado":3,"brecha_seguro":-3,"pct_salud_publica":24,"pct_med_tradicional":8,"pct_automedicacion":18,"pct_remedios_caseros":25,"pct_viv_desocupada":0,"pct_alquiler":29,"pct_electricidad":86,"pct_sin_electricidad":14,"pct_agua_red":57,"pct_alcantarillado":0,"pct_camara_septica":0,"pct_pozo_ciego":86,"pct_sin_desague":14,"pct_gas_red":0,"pct_gas_garrafa":100,"pct_lena_guano":0,"pct_basura_formal":29,"pct_basura_quema":71,"pct_basura_informal":0,"pct_internet":86,"pct_celular":100,"pct_televisor":71}},{"type":"Feature","geometry":{"type":"Polygon","coordinates":[[[-64.8752,-17.7274],[-64.87635,-17.72724],[-64.87607,-17.72661],[-64.8759,-17.72647],[-64.8757,-17.72645],[-64.87519,-17.72663],[-64.8752,-17.7274]]]},"properties":{"n":"VILLA ESPERANZA","p":43,"personas_x_ha":44,"masculinidad":59,"pct_menor20":58,"pct_60mas":7,"pct_migrante":35,"dependencia_econ":79,"pct_empleados":8,"pct_cuentapropia":58,"pct_agricultura":75,"pct_comercio":12,"pct_manufactura":0,"pct_construccion":4,"pct_transporte":4,"pct_alojamiento":0,"pct_sin_educacion":16,"pct_educ_superior":5,"brecha_educ":-6,"pct_sin_seguro":31,"pct_sus":69,"pct_seguro_privado":0,"brecha_seguro":14,"pct_salud_publica":28,"pct_med_tradicional":10,"pct_automedicacion":16,"pct_remedios_caseros":29,"pct_viv_desocupada":0,"pct_alquiler":0,"pct_electricidad":100,"pct_sin_electricidad":0,"pct_agua_red":75,"pct_alcantarillado":8,"pct_camara_septica":0,"pct_pozo_ciego":92,"pct_sin_desague":0,"pct_gas_red":0,"pct_gas_garrafa":100,"pct_lena_guano":0,"pct_basura_formal":33,"pct_basura_quema":58,"pct_basura_informal":8,"pct_internet":75,"pct_celular":100,"pct_televisor":92}},{"type":"Feature","geometry":{"type":"Polygon","coordinates":[[[-64.87334,-17.72921],[-64.87316,-17.72933],[-64.87428,-17.73023],[-64.87451,-17.73012],[-64.87397,-17.72911],[-64.87334,-17.72921]]]},"properties":{"n":"VILLA ESPERANZA","p":27,"personas_x_ha":35,"masculinidad":69,"pct_menor20":44,"pct_60mas":0,"pct_migrante":22,"dependencia_econ":145,"pct_empleados":0,"pct_cuentapropia":64,"pct_agricultura":91,"pct_comercio":9,"pct_manufactura":0,"pct_construccion":0,"pct_transporte":0,"pct_alojamiento":0,"pct_sin_educacion":0,"pct_educ_superior":0,"brecha_educ":40,"pct_sin_seguro":11,"pct_sus":85,"pct_seguro_privado":0,"brecha_seguro":27,"pct_salud_publica":30,"pct_med_tradicional":7,"pct_automedicacion":23,"pct_remedios_caseros":28,"pct_viv_desocupada":0,"pct_alquiler":17,"pct_electricidad":100,"pct_sin_electricidad":0,"pct_agua_red":83,"pct_alcantarillado":0,"pct_camara_septica":0,"pct_pozo_ciego":67,"pct_sin_desague":0,"pct_gas_red":0,"pct_gas_garrafa":83,"pct_lena_guano":17,"pct_basura_formal":17,"pct_basura_quema":83,"pct_basura_informal":0,"pct_internet":83,"pct_celular":100,"pct_televisor":83}},{"type":"Feature","geometry":{"type":"Polygon","coordinates":[[[-64.8777,-17.72747],[-64.87645,-17.728],[-64.87518,-17.72803],[-64.87526,-17.72787],[-64.87524,-17.72749],[-64.87557,-17.7274],[-64.87698,-17.72718],[-64.8777,-17.72738],[-64.8777,-17.72747]]]},"properties":{"n":"VILLA ESPERANZA","p":53,"personas_x_ha":32,"masculinidad":104,"pct_menor20":43,"pct_60mas":9,"pct_migrante":13,"dependencia_econ":61,"pct_empleados":9,"pct_cuentapropia":42,"pct_agricultura":79,"pct_comercio":6,"pct_manufactura":3,"pct_construccion":3,"pct_transporte":6,"pct_alojamiento":0,"pct_sin_educacion":3,"pct_educ_superior":6,"brecha_educ":-36,"pct_sin_seguro":34,"pct_sus":66,"pct_seguro_privado":0,"brecha_seguro":12,"pct_salud_publica":24,"pct_med_tradicional":13,"pct_automedicacion":22,"pct_remedios_caseros":27,"pct_viv_desocupada":11,"pct_alquiler":25,"pct_electricidad":100,"pct_sin_electricidad":0,"pct_agua_red":12,"pct_alcantarillado":6,"pct_camara_septica":0,"pct_pozo_ciego":88,"pct_sin_desague":6,"pct_gas_red":6,"pct_gas_garrafa":88,"pct_lena_guano":6,"pct_basura_formal":31,"pct_basura_quema":56,"pct_basura_informal":6,"pct_internet":88,"pct_celular":88,"pct_televisor":81}},{"type":"Feature","geometry":{"type":"Polygon","coordinates":[[[-64.8751,-17.72803],[-64.87517,-17.72784],[-64.87513,-17.72729],[-64.87484,-17.72741],[-64.87358,-17.72826],[-64.87377,-17.72854],[-64.8751,-17.72803]]]},"properties":{"n":"VILLA ESPERANZA","p":26,"personas_x_ha":27,"masculinidad":73,"pct_menor20":27,"pct_60mas":19,"pct_migrante":23,"dependencia_econ":62,"pct_empleados":25,"pct_cuentapropia":50,"pct_agricultura":69,"pct_comercio":19,"pct_manufactura":6,"pct_construccion":0,"pct_transporte":0,"pct_alojamiento":6,"pct_sin_educacion":20,"pct_educ_superior":5,"brecha_educ":-60,"pct_sin_seguro":42,"pct_sus":54,"pct_seguro_privado":0,"brecha_seguro":-10,"pct_salud_publica":27,"pct_med_tradicional":6,"pct_automedicacion":19,"pct_remedios_caseros":17,"pct_viv_desocupada":5,"pct_alquiler":0,"pct_electricidad":91,"pct_sin_electricidad":9,"pct_agua_red":45,"pct_alcantarillado":18,"pct_camara_septica":9,"pct_pozo_ciego":45,"pct_sin_desague":27,"pct_gas_red":0,"pct_gas_garrafa":91,"pct_lena_guano":0,"pct_basura_formal":45,"pct_basura_quema":45,"pct_basura_informal":9,"pct_internet":73,"pct_celular":73,"pct_televisor":55}},{"type":"Feature","geometry":{"type":"Polygon","coordinates":[[[-64.87539,-17.7287],[-64.87511,-17.72863],[-64.8744,-17.7288],[-64.87447,-17.72846],[-64.87502,-17.72832],[-64.87561,-17.72829],[-64.87539,-17.7287]]]},"properties":{"n":"VILLA ESPERANZA","p":32,"personas_x_ha":72,"masculinidad":113,"pct_menor20":44,"pct_60mas":0,"pct_migrante":41,"dependencia_econ":45,"pct_empleados":23,"pct_cuentapropia":64,"pct_agricultura":32,"pct_comercio":23,"pct_manufactura":0,"pct_construccion":0,"pct_transporte":14,"pct_alojamiento":27,"pct_sin_educacion":0,"pct_educ_superior":22,"brecha_educ":-20,"pct_sin_seguro":16,"pct_sus":78,"pct_seguro_privado":0,"brecha_seguro":-8,"pct_salud_publica":20,"pct_med_tradicional":11,"pct_automedicacion":28,"pct_remedios_caseros":21,"pct_viv_desocupada":0,"pct_alquiler":20,"pct_electricidad":100,"pct_sin_electricidad":0,"pct_agua_red":100,"pct_alcantarillado":0,"pct_camara_septica":0,"pct_pozo_ciego":90,"pct_sin_desague":10,"pct_gas_red":0,"pct_gas_garrafa":100,"pct_lena_guano":0,"pct_basura_formal":100,"pct_basura_quema":0,"pct_basura_informal":0,"pct_internet":90,"pct_celular":90,"pct_televisor":90}},{"type":"Feature","geometry":{"type":"Polygon","coordinates":[[[-64.87338,-17.73032],[-64.87274,-17.72998],[-64.87238,-17.73069],[-64.87179,-17.73158],[-64.87244,-17.7316],[-64.87338,-17.73032]]]},"properties":{"n":"VILLA ESPERANZA","p":37,"personas_x_ha":30,"masculinidad":61,"pct_menor20":49,"pct_60mas":5,"pct_migrante":19,"dependencia_econ":118,"pct_empleados":24,"pct_cuentapropia":59,"pct_agricultura":53,"pct_comercio":12,"pct_manufactura":6,"pct_construccion":0,"pct_transporte":0,"pct_alojamiento":6,"pct_sin_educacion":11,"pct_educ_superior":21,"brecha_educ":-14,"pct_sin_seguro":17,"pct_sus":83,"pct_seguro_privado":0,"brecha_seguro":19,"pct_salud_publica":28,"pct_med_tradicional":9,"pct_automedicacion":23,"pct_remedios_caseros":30,"pct_viv_desocupada":11,"pct_alquiler":12,"pct_electricidad":100,"pct_sin_electricidad":0,"pct_agua_red":0,"pct_alcantarillado":12,"pct_camara_septica":0,"pct_pozo_ciego":12,"pct_sin_desague":75,"pct_gas_red":0,"pct_gas_garrafa":75,"pct_lena_guano":25,"pct_basura_formal":38,"pct_basura_quema":38,"pct_basura_informal":25,"pct_internet":50,"pct_celular":75,"pct_televisor":25}},{"type":"Feature","geometry":{"type":"Polygon","coordinates":[[[-64.99196,-17.74838],[-64.99233,-17.7483],[-64.99248,-17.74816],[-64.99285,-17.7476],[-64.99303,-17.74773],[-64.99253,-17.74838],[-64.99197,-17.7485],[-64.99196,-17.74838]]]},"properties":{"n":"YUTHUPAMPA","p":24,"personas_x_ha":82,"masculinidad":71,"pct_menor20":21,"pct_60mas":21,"pct_migrante":29,"dependencia_econ":41,"pct_empleados":0,"pct_cuentapropia":65,"pct_agricultura":53,"pct_comercio":24,"pct_manufactura":0,"pct_construccion":0,"pct_transporte":6,"pct_alojamiento":12,"pct_sin_educacion":11,"pct_educ_superior":11,"brecha_educ":-1,"pct_sin_seguro":30,"pct_sus":65,"pct_seguro_privado":0,"brecha_seguro":23,"pct_salud_publica":22,"pct_med_tradicional":10,"pct_automedicacion":15,"pct_remedios_caseros":27,"pct_viv_desocupada":6,"pct_alquiler":0,"pct_electricidad":100,"pct_sin_electricidad":0,"pct_agua_red":20,"pct_alcantarillado":10,"pct_camara_septica":10,"pct_pozo_ciego":10,"pct_sin_desague":70,"pct_gas_red":0,"pct_gas_garrafa":90,"pct_lena_guano":10,"pct_basura_formal":100,"pct_basura_quema":0,"pct_basura_informal":0,"pct_internet":70,"pct_celular":90,"pct_televisor":80}},{"type":"Feature","geometry":{"type":"Polygon","coordinates":[[[-64.99159,-17.74794],[-64.99143,-17.74786],[-64.99124,-17.74758],[-64.99146,-17.74749],[-64.99169,-17.74759],[-64.99184,-17.74748],[-64.99213,-17.74716],[-64.99219,-17.74685],[-64.99229,-17.74673],[-64.99229,-17.74665],[-64.99207,-17.74661],[-64.99205,-17.74651],[-64.99248,-17.74647],[-64.99251,-17.74663],[-64.99237,-17.74664],[-64.99228,-17.74661],[-64.99235,-17.74661],[-64.99237,-17.74664],[-64.99251,-17.74664],[-64.99259,-17.74683],[-64.99251,-17.74701],[-64.99198,-17.74755],[-64.99194,-17.7475],[-64.99194,-17.74751],[-64.99198,-17.74755],[-64.9917,-17.74782],[-64.99162,-17.74772],[-64.9917,-17.74783],[-64.99159,-17.74794]]]},"properties":{"n":"YUTHUPAMPA","p":29,"personas_x_ha":50,"masculinidad":164,"pct_menor20":21,"pct_60mas":24,"pct_migrante":38,"dependencia_econ":56,"pct_empleados":6,"pct_cuentapropia":61,"pct_agricultura":72,"pct_comercio":17,"pct_manufactura":0,"pct_construccion":0,"pct_transporte":0,"pct_alojamiento":0,"pct_sin_educacion":27,"pct_educ_superior":0,"brecha_educ":-10,"pct_sin_seguro":11,"pct_sus":78,"pct_seguro_privado":0,"brecha_seguro":18,"pct_salud_publica":35,"pct_med_tradicional":8,"pct_automedicacion":8,"pct_remedios_caseros":33,"pct_viv_desocupada":0,"pct_alquiler":0,"pct_electricidad":89,"pct_sin_electricidad":11,"pct_agua_red":33,"pct_alcantarillado":11,"pct_camara_septica":0,"pct_pozo_ciego":11,"pct_sin_desague":78,"pct_gas_red":0,"pct_gas_garrafa":100,"pct_lena_guano":0,"pct_basura_formal":67,"pct_basura_quema":0,"pct_basura_informal":22,"pct_internet":67,"pct_celular":89,"pct_televisor":56}},{"type":"Feature","geometry":{"type":"Polygon","coordinates":[[[-64.9931,-17.74627],[-64.99343,-17.74622],[-64.99333,-17.74669],[-64.99312,-17.74712],[-64.99267,-17.74752],[-64.9925,-17.74735],[-64.99263,-17.74691],[-64.9928,-17.74658],[-64.99307,-17.74629],[-64.99325,-17.74637],[-64.9931,-17.74627]]]},"properties":{"n":"YUTHUPAMPA","p":29,"personas_x_ha":41,"masculinidad":61,"pct_menor20":55,"pct_60mas":7,"pct_migrante":14,"dependencia_econ":142,"pct_empleados":25,"pct_cuentapropia":75,"pct_agricultura":83,"pct_comercio":0,"pct_manufactura":0,"pct_construccion":0,"pct_transporte":8,"pct_alojamiento":0,"pct_sin_educacion":0,"pct_educ_superior":7,"brecha_educ":-12,"pct_sin_seguro":11,"pct_sus":81,"pct_seguro_privado":0,"brecha_seguro":-3,"pct_salud_publica":50,"pct_med_tradicional":0,"pct_automedicacion":18,"pct_remedios_caseros":27,"pct_viv_desocupada":0,"pct_alquiler":0,"pct_electricidad":57,"pct_sin_electricidad":29,"pct_agua_red":14,"pct_alcantarillado":0,"pct_camara_septica":0,"pct_pozo_ciego":14,"pct_sin_desague":86,"pct_gas_red":0,"pct_gas_garrafa":86,"pct_lena_guano":0,"pct_basura_formal":43,"pct_basura_quema":57,"pct_basura_informal":0,"pct_internet":100,"pct_celular":86,"pct_televisor":57}}]}