{"type":"FeatureCollection","features":[{"type":"Feature","geometry":{"type":"Polygon","coordinates":[[[-65.9307,-17.78167],[-65.93116,-17.78146],[-65.93097,-17.78113],[-65.93048,-17.78138],[-65.92978,-17.78159],[-65.92993,-17.78247],[-65.9302,-17.78273],[-65.9307,-17.78167]]]},"properties":{"n":"ANZALDO","p":18,"personas_x_ha":17,"masculinidad":12,"pct_menor20":44,"pct_60mas":17,"pct_migrante":33,"dependencia_econ":80,"pct_empleados":40,"pct_cuentapropia":50,"pct_agricultura":20,"pct_comercio":0,"pct_manufactura":20,"pct_construccion":0,"pct_transporte":10,"pct_alojamiento":0,"pct_sin_educacion":20,"pct_educ_superior":60,"brecha_educ":-38,"pct_sin_seguro":13,"pct_sus":73,"pct_seguro_privado":7,"brecha_seguro":-15,"pct_salud_publica":23,"pct_med_tradicional":11,"pct_automedicacion":19,"pct_remedios_caseros":26,"pct_viv_desocupada":33,"pct_alquiler":0,"pct_electricidad":100,"pct_sin_electricidad":0,"pct_agua_red":43,"pct_alcantarillado":100,"pct_camara_septica":0,"pct_pozo_ciego":0,"pct_sin_desague":0,"pct_gas_red":0,"pct_gas_garrafa":100,"pct_lena_guano":0,"pct_basura_formal":100,"pct_basura_quema":0,"pct_basura_informal":0,"pct_internet":43,"pct_celular":86,"pct_televisor":43}},{"type":"Feature","geometry":{"type":"Polygon","coordinates":[[[-65.93536,-17.77901],[-65.93495,-17.77862],[-65.93464,-17.77846],[-65.93444,-17.77845],[-65.93443,-17.77898],[-65.93536,-17.77901]]]},"properties":{"n":"ANZALDO","p":16,"personas_x_ha":40,"masculinidad":78,"pct_menor20":44,"pct_60mas":12,"pct_migrante":6,"dependencia_econ":78,"pct_empleados":0,"pct_cuentapropia":67,"pct_agricultura":78,"pct_comercio":0,"pct_manufactura":0,"pct_construccion":0,"pct_transporte":11,"pct_alojamiento":0,"pct_sin_educacion":11,"pct_educ_superior":22,"brecha_educ":-67,"pct_sin_seguro":7,"pct_sus":93,"pct_seguro_privado":0,"brecha_seguro":-11,"pct_salud_publica":33,"pct_med_tradicional":5,"pct_automedicacion":19,"pct_remedios_caseros":26,"pct_viv_desocupada":10,"pct_alquiler":17,"pct_electricidad":83,"pct_sin_electricidad":17,"pct_agua_red":67,"pct_alcantarillado":67,"pct_camara_septica":0,"pct_pozo_ciego":0,"pct_sin_desague":33,"pct_gas_red":0,"pct_gas_garrafa":67,"pct_lena_guano":33,"pct_basura_formal":100,"pct_basura_quema":0,"pct_basura_informal":0,"pct_internet":50,"pct_celular":83,"pct_televisor":33}},{"type":"Feature","geometry":{"type":"Polygon","coordinates":[[[-65.93219,-17.77863],[-65.93207,-17.77785],[-65.93167,-17.77785],[-65.93181,-17.77865],[-65.93219,-17.77863]]]},"properties":{"n":"ANZALDO","p":15,"personas_x_ha":40,"masculinidad":67,"pct_menor20":7,"pct_60mas":47,"pct_migrante":33,"dependencia_econ":56,"pct_empleados":22,"pct_cuentapropia":56,"pct_agricultura":33,"pct_comercio":11,"pct_manufactura":11,"pct_construccion":0,"pct_transporte":0,"pct_alojamiento":0,"pct_sin_educacion":15,"pct_educ_superior":54,"brecha_educ":-8,"pct_sin_seguro":21,"pct_sus":50,"pct_seguro_privado":0,"brecha_seguro":29,"pct_salud_publica":23,"pct_med_tradicional":7,"pct_automedicacion":7,"pct_remedios_caseros":10,"pct_viv_desocupada":0,"pct_alquiler":27,"pct_electricidad":93,"pct_sin_electricidad":7,"pct_agua_red":60,"pct_alcantarillado":93,"pct_camara_septica":0,"pct_pozo_ciego":0,"pct_sin_desague":7,"pct_gas_red":0,"pct_gas_garrafa":93,"pct_lena_guano":7,"pct_basura_formal":93,"pct_basura_quema":7,"pct_basura_informal":0,"pct_internet":67,"pct_celular":60,"pct_televisor":47}},{"type":"Feature","geometry":{"type":"Polygon","coordinates":[[[-65.93254,-17.78423],[-65.93174,-17.78372],[-65.9313,-17.78409],[-65.93213,-17.78459],[-65.93254,-17.78423]]]},"properties":{"n":"ANZALDO","p":26,"personas_x_ha":44,"masculinidad":37,"pct_menor20":50,"pct_60mas":0,"pct_migrante":15,"dependencia_econ":136,"pct_empleados":18,"pct_cuentapropia":55,"pct_agricultura":45,"pct_comercio":9,"pct_manufactura":0,"pct_construccion":18,"pct_transporte":0,"pct_alojamiento":9,"pct_sin_educacion":8,"pct_educ_superior":23,"brecha_educ":-18,"pct_sin_seguro":0,"pct_sus":100,"pct_seguro_privado":0,"brecha_seguro":0,"pct_salud_publica":28,"pct_med_tradicional":12,"pct_automedicacion":19,"pct_remedios_caseros":23,"pct_viv_desocupada":0,"pct_alquiler":0,"pct_electricidad":75,"pct_sin_electricidad":0,"pct_agua_red":0,"pct_alcantarillado":8,"pct_camara_septica":0,"pct_pozo_ciego":17,"pct_sin_desague":67,"pct_gas_red":0,"pct_gas_garrafa":100,"pct_lena_guano":0,"pct_basura_formal":100,"pct_basura_quema":0,"pct_basura_informal":0,"pct_internet":67,"pct_celular":67,"pct_televisor":42}},{"type":"Feature","geometry":{"type":"Polygon","coordinates":[[[-65.93398,-17.78152],[-65.93388,-17.78082],[-65.9334,-17.78086],[-65.93355,-17.78162],[-65.93398,-17.78152]]]},"properties":{"n":"ANZALDO","p":41,"personas_x_ha":94,"masculinidad":105,"pct_menor20":49,"pct_60mas":7,"pct_migrante":32,"dependencia_econ":105,"pct_empleados":15,"pct_cuentapropia":35,"pct_agricultura":20,"pct_comercio":20,"pct_manufactura":5,"pct_construccion":15,"pct_transporte":5,"pct_alojamiento":15,"pct_sin_educacion":0,"pct_educ_superior":23,"brecha_educ":-22,"pct_sin_seguro":7,"pct_sus":80,"pct_seguro_privado":0,"brecha_seguro":-5,"pct_salud_publica":29,"pct_med_tradicional":17,"pct_automedicacion":19,"pct_remedios_caseros":21,"pct_viv_desocupada":0,"pct_alquiler":8,"pct_electricidad":100,"pct_sin_electricidad":0,"pct_agua_red":100,"pct_alcantarillado":92,"pct_camara_septica":0,"pct_pozo_ciego":0,"pct_sin_desague":8,"pct_gas_red":0,"pct_gas_garrafa":92,"pct_lena_guano":8,"pct_basura_formal":83,"pct_basura_quema":0,"pct_basura_informal":8,"pct_internet":75,"pct_celular":92,"pct_televisor":75}},{"type":"Feature","geometry":{"type":"Polygon","coordinates":[[[-65.93209,-17.78548],[-65.93201,-17.7848],[-65.93144,-17.78523],[-65.93173,-17.78586],[-65.93205,-17.78574],[-65.93209,-17.78548]]]},"properties":{"n":"ANZALDO","p":18,"personas_x_ha":38,"masculinidad":157,"pct_menor20":28,"pct_60mas":0,"pct_migrante":11,"dependencia_econ":38,"pct_empleados":31,"pct_cuentapropia":31,"pct_agricultura":46,"pct_comercio":8,"pct_manufactura":8,"pct_construccion":15,"pct_transporte":0,"pct_alojamiento":8,"pct_sin_educacion":8,"pct_educ_superior":0,"brecha_educ":-21,"pct_sin_seguro":0,"pct_sus":100,"pct_seguro_privado":0,"brecha_seguro":0,"pct_salud_publica":34,"pct_med_tradicional":16,"pct_automedicacion":20,"pct_remedios_caseros":22,"pct_viv_desocupada":0,"pct_alquiler":0,"pct_electricidad":82,"pct_sin_electricidad":18,"pct_agua_red":27,"pct_alcantarillado":0,"pct_camara_septica":27,"pct_pozo_ciego":18,"pct_sin_desague":45,"pct_gas_red":0,"pct_gas_garrafa":73,"pct_lena_guano":27,"pct_basura_formal":91,"pct_basura_quema":9,"pct_basura_informal":0,"pct_internet":73,"pct_celular":100,"pct_televisor":73}},{"type":"Feature","geometry":{"type":"Polygon","coordinates":[[[-65.93256,-17.78052],[-65.93216,-17.78061],[-65.93233,-17.78122],[-65.93271,-17.78189],[-65.9329,-17.78183],[-65.93256,-17.78052]]]},"properties":{"n":"ANZALDO","p":31,"personas_x_ha":55,"masculinidad":72,"pct_menor20":29,"pct_60mas":29,"pct_migrante":6,"dependencia_econ":55,"pct_empleados":20,"pct_cuentapropia":65,"pct_agricultura":50,"pct_comercio":5,"pct_manufactura":0,"pct_construccion":10,"pct_transporte":5,"pct_alojamiento":5,"pct_sin_educacion":18,"pct_educ_superior":36,"brecha_educ":-13,"pct_sin_seguro":6,"pct_sus":94,"pct_seguro_privado":0,"brecha_seguro":2,"pct_salud_publica":37,"pct_med_tradicional":13,"pct_automedicacion":11,"pct_remedios_caseros":32,"pct_viv_desocupada":12,"pct_alquiler":7,"pct_electricidad":100,"pct_sin_electricidad":0,"pct_agua_red":100,"pct_alcantarillado":100,"pct_camara_septica":0,"pct_pozo_ciego":0,"pct_sin_desague":0,"pct_gas_red":0,"pct_gas_garrafa":100,"pct_lena_guano":0,"pct_basura_formal":100,"pct_basura_quema":0,"pct_basura_informal":0,"pct_internet":60,"pct_celular":73,"pct_televisor":60}},{"type":"Feature","geometry":{"type":"Polygon","coordinates":[[[-65.93145,-17.78064],[-65.93136,-17.78096],[-65.93175,-17.78164],[-65.93199,-17.78188],[-65.93271,-17.7821],[-65.93233,-17.78137],[-65.93211,-17.7806],[-65.93145,-17.78064]]]},"properties":{"n":"ANZALDO","p":38,"personas_x_ha":32,"masculinidad":100,"pct_menor20":39,"pct_60mas":21,"pct_migrante":45,"dependencia_econ":58,"pct_empleados":38,"pct_cuentapropia":42,"pct_agricultura":21,"pct_comercio":21,"pct_manufactura":8,"pct_construccion":12,"pct_transporte":4,"pct_alojamiento":4,"pct_sin_educacion":21,"pct_educ_superior":21,"brecha_educ":-33,"pct_sin_seguro":21,"pct_sus":66,"pct_seguro_privado":0,"brecha_seguro":-11,"pct_salud_publica":22,"pct_med_tradicional":13,"pct_automedicacion":18,"pct_remedios_caseros":23,"pct_viv_desocupada":0,"pct_alquiler":31,"pct_electricidad":100,"pct_sin_electricidad":0,"pct_agua_red":100,"pct_alcantarillado":100,"pct_camara_septica":0,"pct_pozo_ciego":0,"pct_sin_desague":0,"pct_gas_red":0,"pct_gas_garrafa":100,"pct_lena_guano":0,"pct_basura_formal":92,"pct_basura_quema":8,"pct_basura_informal":0,"pct_internet":62,"pct_celular":69,"pct_televisor":46}},{"type":"Feature","geometry":{"type":"Polygon","coordinates":[[[-65.93373,-17.77811],[-65.93333,-17.77766],[-65.93264,-17.77773],[-65.9328,-17.77855],[-65.93364,-17.77846],[-65.93373,-17.77811]]]},"properties":{"n":"ANZALDO","p":20,"personas_x_ha":23,"masculinidad":82,"pct_menor20":45,"pct_60mas":35,"pct_migrante":10,"dependencia_econ":433,"pct_empleados":0,"pct_cuentapropia":67,"pct_agricultura":67,"pct_comercio":0,"pct_manufactura":33,"pct_construccion":0,"pct_transporte":0,"pct_alojamiento":0,"pct_sin_educacion":20,"pct_educ_superior":40,"brecha_educ":-20,"pct_sin_seguro":7,"pct_sus":87,"pct_seguro_privado":7,"brecha_seguro":17,"pct_salud_publica":45,"pct_med_tradicional":3,"pct_automedicacion":18,"pct_remedios_caseros":3,"pct_viv_desocupada":31,"pct_alquiler":12,"pct_electricidad":100,"pct_sin_electricidad":0,"pct_agua_red":62,"pct_alcantarillado":100,"pct_camara_septica":0,"pct_pozo_ciego":0,"pct_sin_desague":0,"pct_gas_red":0,"pct_gas_garrafa":100,"pct_lena_guano":0,"pct_basura_formal":100,"pct_basura_quema":0,"pct_basura_informal":0,"pct_internet":62,"pct_celular":100,"pct_televisor":25}},{"type":"Feature","geometry":{"type":"Polygon","coordinates":[[[-65.93542,-17.77981],[-65.93498,-17.77959],[-65.93497,-17.77934],[-65.93453,-17.77941],[-65.93454,-17.77955],[-65.93482,-17.77996],[-65.93542,-17.77981]]]},"properties":{"n":"ANZALDO","p":17,"personas_x_ha":53,"masculinidad":89,"pct_menor20":47,"pct_60mas":24,"pct_migrante":12,"dependencia_econ":112,"pct_empleados":50,"pct_cuentapropia":25,"pct_agricultura":25,"pct_comercio":0,"pct_manufactura":0,"pct_construccion":38,"pct_transporte":0,"pct_alojamiento":0,"pct_sin_educacion":20,"pct_educ_superior":0,"brecha_educ":-17,"pct_sin_seguro":0,"pct_sus":100,"pct_seguro_privado":0,"brecha_seguro":0,"pct_salud_publica":35,"pct_med_tradicional":2,"pct_automedicacion":0,"pct_remedios_caseros":35,"pct_viv_desocupada":0,"pct_alquiler":12,"pct_electricidad":88,"pct_sin_electricidad":0,"pct_agua_red":88,"pct_alcantarillado":88,"pct_camara_septica":0,"pct_pozo_ciego":0,"pct_sin_desague":12,"pct_gas_red":0,"pct_gas_garrafa":100,"pct_lena_guano":0,"pct_basura_formal":100,"pct_basura_quema":0,"pct_basura_informal":0,"pct_internet":75,"pct_celular":88,"pct_televisor":25}},{"type":"Feature","geometry":{"type":"Polygon","coordinates":[[[-65.93584,-17.77984],[-65.93608,-17.77982],[-65.93562,-17.77932],[-65.93503,-17.77932],[-65.93504,-17.77956],[-65.93521,-17.77967],[-65.93584,-17.77984]]]},"properties":{"n":"ANZALDO","p":16,"personas_x_ha":37,"masculinidad":33,"pct_menor20":19,"pct_60mas":12,"pct_migrante":6,"dependencia_econ":23,"pct_empleados":31,"pct_cuentapropia":62,"pct_agricultura":46,"pct_comercio":8,"pct_manufactura":0,"pct_construccion":8,"pct_transporte":0,"pct_alojamiento":8,"pct_sin_educacion":8,"pct_educ_superior":15,"brecha_educ":-27,"pct_sin_seguro":6,"pct_sus":94,"pct_seguro_privado":0,"brecha_seguro":-8,"pct_salud_publica":19,"pct_med_tradicional":21,"pct_automedicacion":17,"pct_remedios_caseros":22,"pct_viv_desocupada":0,"pct_alquiler":0,"pct_electricidad":100,"pct_sin_electricidad":0,"pct_agua_red":100,"pct_alcantarillado":100,"pct_camara_septica":0,"pct_pozo_ciego":0,"pct_sin_desague":0,"pct_gas_red":0,"pct_gas_garrafa":100,"pct_lena_guano":0,"pct_basura_formal":90,"pct_basura_quema":0,"pct_basura_informal":0,"pct_internet":60,"pct_celular":90,"pct_televisor":50}},{"type":"Feature","geometry":{"type":"Polygon","coordinates":[[[-65.93389,-17.78293],[-65.93359,-17.78169],[-65.93423,-17.78157],[-65.93448,-17.78201],[-65.93419,-17.78206],[-65.93432,-17.78288],[-65.93389,-17.78293]]]},"properties":{"n":"ANZALDO","p":21,"personas_x_ha":25,"masculinidad":110,"pct_menor20":33,"pct_60mas":0,"pct_migrante":52,"dependencia_econ":40,"pct_empleados":53,"pct_cuentapropia":33,"pct_agricultura":20,"pct_comercio":0,"pct_manufactura":0,"pct_construccion":7,"pct_transporte":0,"pct_alojamiento":0,"pct_sin_educacion":0,"pct_educ_superior":56,"brecha_educ":0,"pct_sin_seguro":0,"pct_sus":52,"pct_seguro_privado":5,"brecha_seguro":0,"pct_salud_publica":19,"pct_med_tradicional":15,"pct_automedicacion":14,"pct_remedios_caseros":17,"pct_viv_desocupada":0,"pct_alquiler":14,"pct_electricidad":100,"pct_sin_electricidad":0,"pct_agua_red":57,"pct_alcantarillado":86,"pct_camara_septica":0,"pct_pozo_ciego":14,"pct_sin_desague":0,"pct_gas_red":0,"pct_gas_garrafa":100,"pct_lena_guano":0,"pct_basura_formal":86,"pct_basura_quema":14,"pct_basura_informal":0,"pct_internet":100,"pct_celular":100,"pct_televisor":57}},{"type":"Feature","geometry":{"type":"Polygon","coordinates":[[[-65.93158,-17.77781],[-65.93144,-17.77695],[-65.93088,-17.77681],[-65.93101,-17.7779],[-65.93158,-17.77781]]]},"properties":{"n":"ANZALDO","p":19,"personas_x_ha":28,"masculinidad":58,"pct_menor20":21,"pct_60mas":37,"pct_migrante":26,"dependencia_econ":90,"pct_empleados":10,"pct_cuentapropia":90,"pct_agricultura":10,"pct_comercio":20,"pct_manufactura":0,"pct_construccion":0,"pct_transporte":30,"pct_alojamiento":10,"pct_sin_educacion":0,"pct_educ_superior":60,"brecha_educ":-23,"pct_sin_seguro":0,"pct_sus":84,"pct_seguro_privado":0,"brecha_seguro":0,"pct_salud_publica":30,"pct_med_tradicional":11,"pct_automedicacion":17,"pct_remedios_caseros":26,"pct_viv_desocupada":14,"pct_alquiler":0,"pct_electricidad":90,"pct_sin_electricidad":10,"pct_agua_red":80,"pct_alcantarillado":100,"pct_camara_septica":0,"pct_pozo_ciego":0,"pct_sin_desague":0,"pct_gas_red":0,"pct_gas_garrafa":70,"pct_lena_guano":30,"pct_basura_formal":100,"pct_basura_quema":0,"pct_basura_informal":0,"pct_internet":50,"pct_celular":100,"pct_televisor":70}},{"type":"Feature","geometry":{"type":"Polygon","coordinates":[[[-65.93122,-17.7787],[-65.93174,-17.77866],[-65.93159,-17.77787],[-65.93102,-17.77794],[-65.93109,-17.7785],[-65.93122,-17.7787]]]},"properties":{"n":"ANZALDO","p":32,"personas_x_ha":59,"masculinidad":88,"pct_menor20":28,"pct_60mas":38,"pct_migrante":31,"dependencia_econ":94,"pct_empleados":31,"pct_cuentapropia":50,"pct_agricultura":38,"pct_comercio":6,"pct_manufactura":0,"pct_construccion":0,"pct_transporte":0,"pct_alojamiento":12,"pct_sin_educacion":5,"pct_educ_superior":32,"brecha_educ":-27,"pct_sin_seguro":7,"pct_sus":77,"pct_seguro_privado":7,"brecha_seguro":1,"pct_salud_publica":31,"pct_med_tradicional":10,"pct_automedicacion":14,"pct_remedios_caseros":26,"pct_viv_desocupada":13,"pct_alquiler":0,"pct_electricidad":100,"pct_sin_electricidad":0,"pct_agua_red":94,"pct_alcantarillado":100,"pct_camara_septica":0,"pct_pozo_ciego":0,"pct_sin_desague":0,"pct_gas_red":0,"pct_gas_garrafa":82,"pct_lena_guano":18,"pct_basura_formal":94,"pct_basura_quema":0,"pct_basura_informal":0,"pct_internet":53,"pct_celular":94,"pct_televisor":35}},{"type":"Feature","geometry":{"type":"Polygon","coordinates":[[[-65.93476,-17.77998],[-65.93447,-17.7794],[-65.93372,-17.77956],[-65.93382,-17.78015],[-65.93476,-17.77998]]]},"properties":{"n":"ANZALDO","p":15,"personas_x_ha":24,"masculinidad":67,"pct_menor20":0,"pct_60mas":47,"pct_migrante":40,"dependencia_econ":50,"pct_empleados":40,"pct_cuentapropia":60,"pct_agricultura":0,"pct_comercio":20,"pct_manufactura":10,"pct_construccion":0,"pct_transporte":30,"pct_alojamiento":0,"pct_sin_educacion":0,"pct_educ_superior":40,"brecha_educ":-44,"pct_sin_seguro":7,"pct_sus":93,"pct_seguro_privado":0,"brecha_seguro":-11,"pct_salud_publica":16,"pct_med_tradicional":9,"pct_automedicacion":13,"pct_remedios_caseros":31,"pct_viv_desocupada":0,"pct_alquiler":0,"pct_electricidad":100,"pct_sin_electricidad":0,"pct_agua_red":100,"pct_alcantarillado":100,"pct_camara_septica":0,"pct_pozo_ciego":0,"pct_sin_desague":0,"pct_gas_red":0,"pct_gas_garrafa":100,"pct_lena_guano":0,"pct_basura_formal":100,"pct_basura_quema":0,"pct_basura_informal":0,"pct_internet":50,"pct_celular":62,"pct_televisor":50}},{"type":"Feature","geometry":{"type":"Polygon","coordinates":[[[-65.93263,-17.78051],[-65.93295,-17.7818],[-65.93349,-17.78167],[-65.9332,-17.7804],[-65.93263,-17.78051]]]},"properties":{"n":"ANZALDO","p":67,"personas_x_ha":73,"masculinidad":109,"pct_menor20":34,"pct_60mas":24,"pct_migrante":18,"dependencia_econ":63,"pct_empleados":27,"pct_cuentapropia":44,"pct_agricultura":34,"pct_comercio":2,"pct_manufactura":10,"pct_construccion":10,"pct_transporte":5,"pct_alojamiento":5,"pct_sin_educacion":20,"pct_educ_superior":20,"brecha_educ":-23,"pct_sin_seguro":9,"pct_sus":80,"pct_seguro_privado":0,"brecha_seguro":18,"pct_salud_publica":30,"pct_med_tradicional":10,"pct_automedicacion":15,"pct_remedios_caseros":19,"pct_viv_desocupada":5,"pct_alquiler":3,"pct_electricidad":100,"pct_sin_electricidad":0,"pct_agua_red":90,"pct_alcantarillado":100,"pct_camara_septica":0,"pct_pozo_ciego":0,"pct_sin_desague":0,"pct_gas_red":0,"pct_gas_garrafa":93,"pct_lena_guano":7,"pct_basura_formal":100,"pct_basura_quema":0,"pct_basura_informal":0,"pct_internet":41,"pct_celular":62,"pct_televisor":76}},{"type":"Feature","geometry":{"type":"Polygon","coordinates":[[[-65.93371,-17.77762],[-65.93313,-17.77709],[-65.93277,-17.77612],[-65.93255,-17.77595],[-65.93147,-17.77551],[-65.93121,-17.77552],[-65.93079,-17.77538],[-65.93069,-17.77538],[-65.93032,-17.77572],[-65.93091,-17.77657],[-65.93121,-17.77583],[-65.93095,-17.7766],[-65.93104,-17.77666],[-65.93371,-17.77762]]]},"properties":{"n":"ANZALDO","p":62,"personas_x_ha":17,"masculinidad":59,"pct_menor20":35,"pct_60mas":10,"pct_migrante":35,"dependencia_econ":63,"pct_empleados":26,"pct_cuentapropia":42,"pct_agricultura":39,"pct_comercio":13,"pct_manufactura":0,"pct_construccion":3,"pct_transporte":8,"pct_alojamiento":13,"pct_sin_educacion":15,"pct_educ_superior":32,"brecha_educ":-43,"pct_sin_seguro":3,"pct_sus":83,"pct_seguro_privado":0,"brecha_seguro":2,"pct_salud_publica":26,"pct_med_tradicional":14,"pct_automedicacion":20,"pct_remedios_caseros":26,"pct_viv_desocupada":4,"pct_alquiler":5,"pct_electricidad":100,"pct_sin_electricidad":0,"pct_agua_red":91,"pct_alcantarillado":95,"pct_camara_septica":0,"pct_pozo_ciego":0,"pct_sin_desague":5,"pct_gas_red":0,"pct_gas_garrafa":95,"pct_lena_guano":5,"pct_basura_formal":95,"pct_basura_quema":5,"pct_basura_informal":0,"pct_internet":68,"pct_celular":86,"pct_televisor":50}},{"type":"Feature","geometry":{"type":"Polygon","coordinates":[[[-65.93275,-17.77857],[-65.93258,-17.77775],[-65.93212,-17.7778],[-65.93226,-17.77863],[-65.93275,-17.77857]]]},"properties":{"n":"ANZALDO","p":34,"personas_x_ha":72,"masculinidad":62,"pct_menor20":38,"pct_60mas":21,"pct_migrante":21,"dependencia_econ":209,"pct_empleados":64,"pct_cuentapropia":18,"pct_agricultura":0,"pct_comercio":9,"pct_manufactura":0,"pct_construccion":0,"pct_transporte":9,"pct_alojamiento":18,"pct_sin_educacion":10,"pct_educ_superior":52,"brecha_educ":-40,"pct_sin_seguro":9,"pct_sus":74,"pct_seguro_privado":0,"brecha_seguro":-2,"pct_salud_publica":24,"pct_med_tradicional":19,"pct_automedicacion":22,"pct_remedios_caseros":22,"pct_viv_desocupada":0,"pct_alquiler":20,"pct_electricidad":100,"pct_sin_electricidad":0,"pct_agua_red":100,"pct_alcantarillado":90,"pct_camara_septica":10,"pct_pozo_ciego":0,"pct_sin_desague":0,"pct_gas_red":0,"pct_gas_garrafa":100,"pct_lena_guano":0,"pct_basura_formal":100,"pct_basura_quema":0,"pct_basura_informal":0,"pct_internet":70,"pct_celular":100,"pct_televisor":80}},{"type":"Feature","geometry":{"type":"Polygon","coordinates":[[[-65.93378,-17.77849],[-65.93382,-17.77886],[-65.93402,-17.77887],[-65.93405,-17.779],[-65.93439,-17.77898],[-65.93439,-17.77844],[-65.93378,-17.77849]]]},"properties":{"n":"ANZALDO","p":17,"personas_x_ha":49,"masculinidad":112,"pct_menor20":18,"pct_60mas":6,"pct_migrante":35,"dependencia_econ":14,"pct_empleados":21,"pct_cuentapropia":36,"pct_agricultura":50,"pct_comercio":14,"pct_manufactura":0,"pct_construccion":7,"pct_transporte":7,"pct_alojamiento":0,"pct_sin_educacion":0,"pct_educ_superior":31,"brecha_educ":-26,"pct_sin_seguro":20,"pct_sus":60,"pct_seguro_privado":0,"brecha_seguro":-11,"pct_salud_publica":28,"pct_med_tradicional":0,"pct_automedicacion":27,"pct_remedios_caseros":27,"pct_viv_desocupada":0,"pct_alquiler":0,"pct_electricidad":100,"pct_sin_electricidad":0,"pct_agua_red":88,"pct_alcantarillado":100,"pct_camara_septica":0,"pct_pozo_ciego":0,"pct_sin_desague":0,"pct_gas_red":0,"pct_gas_garrafa":100,"pct_lena_guano":0,"pct_basura_formal":100,"pct_basura_quema":0,"pct_basura_informal":0,"pct_internet":62,"pct_celular":88,"pct_televisor":75}},{"type":"Feature","geometry":{"type":"Polygon","coordinates":[[[-65.93652,-17.77675],[-65.9365,-17.77625],[-65.93593,-17.77606],[-65.93577,-17.77653],[-65.93652,-17.77675]]]},"properties":{"n":"ANZALDO","p":33,"personas_x_ha":81,"masculinidad":120,"pct_menor20":39,"pct_60mas":9,"pct_migrante":6,"dependencia_econ":83,"pct_empleados":50,"pct_cuentapropia":28,"pct_agricultura":39,"pct_comercio":6,"pct_manufactura":0,"pct_construccion":17,"pct_transporte":6,"pct_alojamiento":6,"pct_sin_educacion":15,"pct_educ_superior":5,"brecha_educ":-30,"pct_sin_seguro":0,"pct_sus":100,"pct_seguro_privado":0,"brecha_seguro":0,"pct_salud_publica":42,"pct_med_tradicional":8,"pct_automedicacion":16,"pct_remedios_caseros":27,"pct_viv_desocupada":0,"pct_alquiler":0,"pct_electricidad":81,"pct_sin_electricidad":19,"pct_agua_red":88,"pct_alcantarillado":25,"pct_camara_septica":6,"pct_pozo_ciego":31,"pct_sin_desague":38,"pct_gas_red":0,"pct_gas_garrafa":75,"pct_lena_guano":25,"pct_basura_formal":75,"pct_basura_quema":25,"pct_basura_informal":0,"pct_internet":56,"pct_celular":75,"pct_televisor":44}},{"type":"Feature","geometry":{"type":"Polygon","coordinates":[[[-65.93366,-17.77903],[-65.93372,-17.7795],[-65.93449,-17.77935],[-65.93435,-17.77904],[-65.93366,-17.77903]]]},"properties":{"n":"ANZALDO","p":16,"personas_x_ha":46,"masculinidad":129,"pct_menor20":25,"pct_60mas":25,"pct_migrante":25,"dependencia_econ":60,"pct_empleados":40,"pct_cuentapropia":30,"pct_agricultura":30,"pct_comercio":30,"pct_manufactura":0,"pct_construccion":10,"pct_transporte":10,"pct_alojamiento":10,"pct_sin_educacion":8,"pct_educ_superior":8,"brecha_educ":0,"pct_sin_seguro":0,"pct_sus":88,"pct_seguro_privado":0,"brecha_seguro":0,"pct_salud_publica":23,"pct_med_tradicional":17,"pct_automedicacion":21,"pct_remedios_caseros":23,"pct_viv_desocupada":0,"pct_alquiler":0,"pct_electricidad":100,"pct_sin_electricidad":0,"pct_agua_red":89,"pct_alcantarillado":100,"pct_camara_septica":0,"pct_pozo_ciego":0,"pct_sin_desague":0,"pct_gas_red":0,"pct_gas_garrafa":89,"pct_lena_guano":11,"pct_basura_formal":100,"pct_basura_quema":0,"pct_basura_informal":0,"pct_internet":44,"pct_celular":56,"pct_televisor":44}},{"type":"Feature","geometry":{"type":"Polygon","coordinates":[[[-65.93584,-17.77696],[-65.93561,-17.77689],[-65.93545,-17.7773],[-65.93573,-17.77735],[-65.93584,-17.77696]]]},"properties":{"n":"ANZALDO","p":15,"personas_x_ha":107,"masculinidad":88,"pct_menor20":40,"pct_60mas":13,"pct_migrante":27,"dependencia_econ":25,"pct_empleados":33,"pct_cuentapropia":42,"pct_agricultura":25,"pct_comercio":0,"pct_manufactura":17,"pct_construccion":8,"pct_transporte":8,"pct_alojamiento":0,"pct_sin_educacion":20,"pct_educ_superior":10,"brecha_educ":-83,"pct_sin_seguro":0,"pct_sus":100,"pct_seguro_privado":0,"brecha_seguro":0,"pct_salud_publica":23,"pct_med_tradicional":20,"pct_automedicacion":16,"pct_remedios_caseros":22,"pct_viv_desocupada":11,"pct_alquiler":0,"pct_electricidad":100,"pct_sin_electricidad":0,"pct_agua_red":100,"pct_alcantarillado":0,"pct_camara_septica":0,"pct_pozo_ciego":100,"pct_sin_desague":0,"pct_gas_red":0,"pct_gas_garrafa":100,"pct_lena_guano":0,"pct_basura_formal":100,"pct_basura_quema":0,"pct_basura_informal":0,"pct_internet":57,"pct_celular":100,"pct_televisor":57}},{"type":"Feature","geometry":{"type":"Polygon","coordinates":[[[-65.93284,-17.78355],[-65.93256,-17.78409],[-65.93185,-17.78362],[-65.9323,-17.78323],[-65.93284,-17.78355]]]},"properties":{"n":"ANZALDO","p":18,"personas_x_ha":34,"masculinidad":50,"pct_menor20":50,"pct_60mas":11,"pct_migrante":17,"dependencia_econ":125,"pct_empleados":25,"pct_cuentapropia":25,"pct_agricultura":88,"pct_comercio":12,"pct_manufactura":0,"pct_construccion":0,"pct_transporte":0,"pct_alojamiento":0,"pct_sin_educacion":22,"pct_educ_superior":33,"brecha_educ":33,"pct_sin_seguro":0,"pct_sus":100,"pct_seguro_privado":0,"brecha_seguro":0,"pct_salud_publica":36,"pct_med_tradicional":19,"pct_automedicacion":17,"pct_remedios_caseros":21,"pct_viv_desocupada":0,"pct_alquiler":0,"pct_electricidad":100,"pct_sin_electricidad":0,"pct_agua_red":12,"pct_alcantarillado":12,"pct_camara_septica":12,"pct_pozo_ciego":25,"pct_sin_desague":50,"pct_gas_red":0,"pct_gas_garrafa":88,"pct_lena_guano":0,"pct_basura_formal":100,"pct_basura_quema":0,"pct_basura_informal":0,"pct_internet":38,"pct_celular":62,"pct_televisor":50}},{"type":"Feature","geometry":{"type":"Polygon","coordinates":[[[-65.93575,-17.77878],[-65.93584,-17.77808],[-65.93498,-17.77806],[-65.93488,-17.7783],[-65.93575,-17.77878]]]},"properties":{"n":"ANZALDO","p":15,"personas_x_ha":28,"masculinidad":67,"pct_menor20":60,"pct_60mas":7,"pct_migrante":7,"dependencia_econ":50,"pct_empleados":40,"pct_cuentapropia":30,"pct_agricultura":30,"pct_comercio":30,"pct_manufactura":10,"pct_construccion":20,"pct_transporte":0,"pct_alojamiento":0,"pct_sin_educacion":33,"pct_educ_superior":0,"brecha_educ":20,"pct_sin_seguro":0,"pct_sus":100,"pct_seguro_privado":0,"brecha_seguro":0,"pct_salud_publica":33,"pct_med_tradicional":19,"pct_automedicacion":14,"pct_remedios_caseros":26,"pct_viv_desocupada":0,"pct_alquiler":0,"pct_electricidad":100,"pct_sin_electricidad":0,"pct_agua_red":80,"pct_alcantarillado":60,"pct_camara_septica":0,"pct_pozo_ciego":40,"pct_sin_desague":0,"pct_gas_red":0,"pct_gas_garrafa":80,"pct_lena_guano":20,"pct_basura_formal":100,"pct_basura_quema":0,"pct_basura_informal":0,"pct_internet":40,"pct_celular":100,"pct_televisor":40}},{"type":"Feature","geometry":{"type":"Polygon","coordinates":[[[-65.93255,-17.78043],[-65.93242,-17.77984],[-65.932,-17.77993],[-65.93215,-17.78055],[-65.93255,-17.78043]]]},"properties":{"n":"ANZALDO","p":17,"personas_x_ha":53,"masculinidad":112,"pct_menor20":12,"pct_60mas":24,"pct_migrante":18,"dependencia_econ":112,"pct_empleados":25,"pct_cuentapropia":75,"pct_agricultura":12,"pct_comercio":25,"pct_manufactura":0,"pct_construccion":25,"pct_transporte":38,"pct_alojamiento":0,"pct_sin_educacion":20,"pct_educ_superior":20,"brecha_educ":-34,"pct_sin_seguro":18,"pct_sus":82,"pct_seguro_privado":0,"brecha_seguro":10,"pct_salud_publica":100,"pct_med_tradicional":0,"pct_automedicacion":0,"pct_remedios_caseros":0,"pct_viv_desocupada":25,"pct_alquiler":0,"pct_electricidad":100,"pct_sin_electricidad":0,"pct_agua_red":100,"pct_alcantarillado":78,"pct_camara_septica":0,"pct_pozo_ciego":0,"pct_sin_desague":22,"pct_gas_red":11,"pct_gas_garrafa":89,"pct_lena_guano":0,"pct_basura_formal":100,"pct_basura_quema":0,"pct_basura_informal":0,"pct_internet":67,"pct_celular":67,"pct_televisor":44}},{"type":"Feature","geometry":{"type":"Polygon","coordinates":[[[-65.93675,-17.77935],[-65.93618,-17.77959],[-65.93634,-17.7799],[-65.93692,-17.77976],[-65.93675,-17.77935]]]},"properties":{"n":"ANZALDO","p":15,"personas_x_ha":50,"masculinidad":88,"pct_menor20":40,"pct_60mas":27,"pct_migrante":13,"dependencia_econ":88,"pct_empleados":50,"pct_cuentapropia":25,"pct_agricultura":38,"pct_comercio":0,"pct_manufactura":0,"pct_construccion":0,"pct_transporte":25,"pct_alojamiento":12,"pct_sin_educacion":11,"pct_educ_superior":22,"brecha_educ":-17,"pct_sin_seguro":13,"pct_sus":87,"pct_seguro_privado":0,"brecha_seguro":29,"pct_salud_publica":30,"pct_med_tradicional":7,"pct_automedicacion":30,"pct_remedios_caseros":30,"pct_viv_desocupada":10,"pct_alquiler":0,"pct_electricidad":100,"pct_sin_electricidad":0,"pct_agua_red":100,"pct_alcantarillado":67,"pct_camara_septica":0,"pct_pozo_ciego":0,"pct_sin_desague":33,"pct_gas_red":0,"pct_gas_garrafa":67,"pct_lena_guano":33,"pct_basura_formal":100,"pct_basura_quema":0,"pct_basura_informal":0,"pct_internet":50,"pct_celular":67,"pct_televisor":33}},{"type":"Feature","geometry":{"type":"Polygon","coordinates":[[[-65.93248,-17.77977],[-65.93301,-17.77965],[-65.93289,-17.77918],[-65.93237,-17.77929],[-65.93248,-17.77977]]]},"properties":{"n":"ANZALDO","p":55,"personas_x_ha":172,"masculinidad":53,"pct_menor20":31,"pct_60mas":22,"pct_migrante":55,"dependencia_econ":104,"pct_empleados":37,"pct_cuentapropia":41,"pct_agricultura":19,"pct_comercio":19,"pct_manufactura":0,"pct_construccion":7,"pct_transporte":7,"pct_alojamiento":4,"pct_sin_educacion":5,"pct_educ_superior":64,"brecha_educ":-21,"pct_sin_seguro":2,"pct_sus":58,"pct_seguro_privado":4,"brecha_seguro":-3,"pct_salud_publica":31,"pct_med_tradicional":10,"pct_automedicacion":12,"pct_remedios_caseros":19,"pct_viv_desocupada":0,"pct_alquiler":10,"pct_electricidad":100,"pct_sin_electricidad":0,"pct_agua_red":95,"pct_alcantarillado":95,"pct_camara_septica":0,"pct_pozo_ciego":0,"pct_sin_desague":5,"pct_gas_red":0,"pct_gas_garrafa":100,"pct_lena_guano":0,"pct_basura_formal":100,"pct_basura_quema":0,"pct_basura_informal":0,"pct_internet":60,"pct_celular":75,"pct_televisor":70}},{"type":"Feature","geometry":{"type":"Polygon","coordinates":[[[-65.93367,-17.77953],[-65.93357,-17.77905],[-65.93295,-17.77919],[-65.93306,-17.77966],[-65.93367,-17.77953]]]},"properties":{"n":"ANZALDO","p":29,"personas_x_ha":79,"masculinidad":61,"pct_menor20":28,"pct_60mas":28,"pct_migrante":41,"dependencia_econ":164,"pct_empleados":18,"pct_cuentapropia":64,"pct_agricultura":18,"pct_comercio":36,"pct_manufactura":0,"pct_construccion":0,"pct_transporte":9,"pct_alojamiento":9,"pct_sin_educacion":5,"pct_educ_superior":48,"brecha_educ":-3,"pct_sin_seguro":3,"pct_sus":66,"pct_seguro_privado":0,"brecha_seguro":-6,"pct_salud_publica":19,"pct_med_tradicional":12,"pct_automedicacion":17,"pct_remedios_caseros":27,"pct_viv_desocupada":0,"pct_alquiler":0,"pct_electricidad":100,"pct_sin_electricidad":0,"pct_agua_red":82,"pct_alcantarillado":100,"pct_camara_septica":0,"pct_pozo_ciego":0,"pct_sin_desague":0,"pct_gas_red":0,"pct_gas_garrafa":100,"pct_lena_guano":0,"pct_basura_formal":100,"pct_basura_quema":0,"pct_basura_informal":0,"pct_internet":91,"pct_celular":91,"pct_televisor":91}},{"type":"Feature","geometry":{"type":"Polygon","coordinates":[[[-65.93206,-17.77776],[-65.93196,-17.77713],[-65.93155,-17.77698],[-65.93163,-17.77782],[-65.93206,-17.77776]]]},"properties":{"n":"ANZALDO","p":21,"personas_x_ha":56,"masculinidad":133,"pct_menor20":19,"pct_60mas":19,"pct_migrante":14,"dependencia_econ":75,"pct_empleados":17,"pct_cuentapropia":50,"pct_agricultura":25,"pct_comercio":0,"pct_manufactura":0,"pct_construccion":17,"pct_transporte":8,"pct_alojamiento":8,"pct_sin_educacion":12,"pct_educ_superior":35,"brecha_educ":-48,"pct_sin_seguro":19,"pct_sus":81,"pct_seguro_privado":0,"brecha_seguro":14,"pct_salud_publica":38,"pct_med_tradicional":4,"pct_automedicacion":15,"pct_remedios_caseros":23,"pct_viv_desocupada":0,"pct_alquiler":10,"pct_electricidad":100,"pct_sin_electricidad":0,"pct_agua_red":90,"pct_alcantarillado":100,"pct_camara_septica":0,"pct_pozo_ciego":0,"pct_sin_desague":0,"pct_gas_red":10,"pct_gas_garrafa":80,"pct_lena_guano":10,"pct_basura_formal":100,"pct_basura_quema":0,"pct_basura_informal":0,"pct_internet":50,"pct_celular":90,"pct_televisor":50}},{"type":"Feature","geometry":{"type":"Polygon","coordinates":[[[-65.93262,-17.78047],[-65.93318,-17.78035],[-65.93301,-17.77973],[-65.93248,-17.77984],[-65.93262,-17.78047]]]},"properties":{"n":"ANZALDO","p":37,"personas_x_ha":84,"masculinidad":85,"pct_menor20":35,"pct_60mas":22,"pct_migrante":19,"dependencia_econ":147,"pct_empleados":27,"pct_cuentapropia":33,"pct_agricultura":40,"pct_comercio":0,"pct_manufactura":0,"pct_construccion":27,"pct_transporte":13,"pct_alojamiento":0,"pct_sin_educacion":12,"pct_educ_superior":20,"brecha_educ":-16,"pct_sin_seguro":6,"pct_sus":94,"pct_seguro_privado":0,"brecha_seguro":12,"pct_salud_publica":29,"pct_med_tradicional":21,"pct_automedicacion":9,"pct_remedios_caseros":24,"pct_viv_desocupada":0,"pct_alquiler":0,"pct_electricidad":100,"pct_sin_electricidad":0,"pct_agua_red":92,"pct_alcantarillado":100,"pct_camara_septica":0,"pct_pozo_ciego":0,"pct_sin_desague":0,"pct_gas_red":0,"pct_gas_garrafa":92,"pct_lena_guano":8,"pct_basura_formal":100,"pct_basura_quema":0,"pct_basura_informal":0,"pct_internet":69,"pct_celular":92,"pct_televisor":85}},{"type":"Feature","geometry":{"type":"Polygon","coordinates":[[[-65.93172,-17.78061],[-65.9321,-17.78056],[-65.93196,-17.77993],[-65.93159,-17.78],[-65.93172,-17.78061]]]},"properties":{"n":"ANZALDO","p":15,"personas_x_ha":51,"masculinidad":88,"pct_menor20":40,"pct_60mas":13,"pct_migrante":47,"dependencia_econ":88,"pct_empleados":25,"pct_cuentapropia":75,"pct_agricultura":25,"pct_comercio":12,"pct_manufactura":25,"pct_construccion":0,"pct_transporte":12,"pct_alojamiento":0,"pct_sin_educacion":11,"pct_educ_superior":44,"brecha_educ":5,"pct_sin_seguro":7,"pct_sus":87,"pct_seguro_privado":7,"brecha_seguro":14,"pct_salud_publica":42,"pct_med_tradicional":3,"pct_automedicacion":12,"pct_remedios_caseros":15,"pct_viv_desocupada":7,"pct_alquiler":0,"pct_electricidad":100,"pct_sin_electricidad":0,"pct_agua_red":100,"pct_alcantarillado":83,"pct_camara_septica":17,"pct_pozo_ciego":0,"pct_sin_desague":0,"pct_gas_red":0,"pct_gas_garrafa":83,"pct_lena_guano":0,"pct_basura_formal":100,"pct_basura_quema":0,"pct_basura_informal":0,"pct_internet":83,"pct_celular":83,"pct_televisor":67}},{"type":"Feature","geometry":{"type":"Polygon","coordinates":[[[-65.93769,-17.77987],[-65.93667,-17.78025],[-65.93643,-17.77997],[-65.93758,-17.77958],[-65.93769,-17.77987]]]},"properties":{"n":"ANZALDO","p":20,"personas_x_ha":43,"masculinidad":54,"pct_menor20":55,"pct_60mas":10,"pct_migrante":35,"dependencia_econ":122,"pct_empleados":11,"pct_cuentapropia":78,"pct_agricultura":67,"pct_comercio":11,"pct_manufactura":0,"pct_construccion":11,"pct_transporte":0,"pct_alojamiento":0,"pct_sin_educacion":18,"pct_educ_superior":0,"brecha_educ":-10,"pct_sin_seguro":32,"pct_sus":68,"pct_seguro_privado":0,"brecha_seguro":40,"pct_salud_publica":32,"pct_med_tradicional":19,"pct_automedicacion":6,"pct_remedios_caseros":23,"pct_viv_desocupada":7,"pct_alquiler":0,"pct_electricidad":100,"pct_sin_electricidad":0,"pct_agua_red":33,"pct_alcantarillado":67,"pct_camara_septica":0,"pct_pozo_ciego":17,"pct_sin_desague":17,"pct_gas_red":0,"pct_gas_garrafa":100,"pct_lena_guano":0,"pct_basura_formal":100,"pct_basura_quema":0,"pct_basura_informal":0,"pct_internet":83,"pct_celular":83,"pct_televisor":33}},{"type":"Feature","geometry":{"type":"Polygon","coordinates":[[[-65.93115,-17.7805],[-65.93078,-17.78014],[-65.93067,-17.78023],[-65.93048,-17.78077],[-65.92976,-17.78123],[-65.92937,-17.7817],[-65.9307,-17.78121],[-65.93111,-17.78085],[-65.93119,-17.78065],[-65.93115,-17.7805]]]},"properties":{"n":"ANZALDO","p":21,"personas_x_ha":20,"masculinidad":24,"pct_menor20":38,"pct_60mas":19,"pct_migrante":24,"dependencia_econ":100,"pct_empleados":30,"pct_cuentapropia":50,"pct_agricultura":60,"pct_comercio":0,"pct_manufactura":10,"pct_construccion":0,"pct_transporte":0,"pct_alojamiento":10,"pct_sin_educacion":8,"pct_educ_superior":15,"brecha_educ":-17,"pct_sin_seguro":5,"pct_sus":85,"pct_seguro_privado":0,"brecha_seguro":-6,"pct_salud_publica":33,"pct_med_tradicional":12,"pct_automedicacion":21,"pct_remedios_caseros":24,"pct_viv_desocupada":13,"pct_alquiler":0,"pct_electricidad":70,"pct_sin_electricidad":30,"pct_agua_red":20,"pct_alcantarillado":70,"pct_camara_septica":0,"pct_pozo_ciego":0,"pct_sin_desague":30,"pct_gas_red":0,"pct_gas_garrafa":80,"pct_lena_guano":20,"pct_basura_formal":80,"pct_basura_quema":0,"pct_basura_informal":20,"pct_internet":60,"pct_celular":80,"pct_televisor":60}},{"type":"Feature","geometry":{"type":"Polygon","coordinates":[[[-65.93619,-17.7802],[-65.9361,-17.77993],[-65.93556,-17.77991],[-65.93385,-17.78024],[-65.93405,-17.78149],[-65.93424,-17.78152],[-65.93462,-17.78177],[-65.93468,-17.78173],[-65.9346,-17.78147],[-65.93466,-17.78115],[-65.93505,-17.78097],[-65.93508,-17.78076],[-65.93605,-17.78045],[-65.93619,-17.7802]]]},"properties":{"n":"ANZALDO","p":23,"personas_x_ha":9,"masculinidad":92,"pct_menor20":35,"pct_60mas":22,"pct_migrante":48,"dependencia_econ":77,"pct_empleados":23,"pct_cuentapropia":31,"pct_agricultura":15,"pct_comercio":0,"pct_manufactura":0,"pct_construccion":15,"pct_transporte":8,"pct_alojamiento":0,"pct_sin_educacion":6,"pct_educ_superior":44,"brecha_educ":0,"pct_sin_seguro":13,"pct_sus":61,"pct_seguro_privado":4,"brecha_seguro":10,"pct_salud_publica":44,"pct_med_tradicional":0,"pct_automedicacion":4,"pct_remedios_caseros":0,"pct_viv_desocupada":8,"pct_alquiler":0,"pct_electricidad":100,"pct_sin_electricidad":0,"pct_agua_red":100,"pct_alcantarillado":100,"pct_camara_septica":0,"pct_pozo_ciego":0,"pct_sin_desague":0,"pct_gas_red":0,"pct_gas_garrafa":100,"pct_lena_guano":0,"pct_basura_formal":100,"pct_basura_quema":0,"pct_basura_informal":0,"pct_internet":33,"pct_celular":67,"pct_televisor":33}},{"type":"Feature","geometry":{"type":"Polygon","coordinates":[[[-65.92943,-17.73061],[-65.92969,-17.73019],[-65.92968,-17.72993],[-65.92952,-17.72969],[-65.92935,-17.72976],[-65.92899,-17.72967],[-65.92889,-17.73085],[-65.92899,-17.73109],[-65.92896,-17.73149],[-65.92912,-17.73189],[-65.92939,-17.7319],[-65.92943,-17.73061]]]},"properties":{"n":"BLANCO RANCHO","p":18,"personas_x_ha":13,"masculinidad":64,"pct_menor20":39,"pct_60mas":11,"pct_migrante":6,"dependencia_econ":38,"pct_empleados":15,"pct_cuentapropia":62,"pct_agricultura":69,"pct_comercio":8,"pct_manufactura":0,"pct_construccion":0,"pct_transporte":15,"pct_alojamiento":0,"pct_sin_educacion":9,"pct_educ_superior":0,"brecha_educ":-27,"pct_sin_seguro":0,"pct_sus":100,"pct_seguro_privado":0,"brecha_seguro":0,"pct_salud_publica":20,"pct_med_tradicional":15,"pct_automedicacion":15,"pct_remedios_caseros":15,"pct_viv_desocupada":20,"pct_alquiler":0,"pct_electricidad":88,"pct_sin_electricidad":12,"pct_agua_red":100,"pct_alcantarillado":0,"pct_camara_septica":0,"pct_pozo_ciego":12,"pct_sin_desague":88,"pct_gas_red":0,"pct_gas_garrafa":0,"pct_lena_guano":100,"pct_basura_formal":0,"pct_basura_quema":100,"pct_basura_informal":0,"pct_internet":75,"pct_celular":88,"pct_televisor":0}},{"type":"Feature","geometry":{"type":"Polygon","coordinates":[[[-65.92885,-17.73052],[-65.92838,-17.73057],[-65.92845,-17.72905],[-65.92852,-17.72888],[-65.9289,-17.72943],[-65.92885,-17.73052]]]},"properties":{"n":"BLANCO RANCHO","p":27,"personas_x_ha":33,"masculinidad":170,"pct_menor20":48,"pct_60mas":11,"pct_migrante":4,"dependencia_econ":238,"pct_empleados":12,"pct_cuentapropia":75,"pct_agricultura":75,"pct_comercio":0,"pct_manufactura":0,"pct_construccion":0,"pct_transporte":12,"pct_alojamiento":0,"pct_sin_educacion":0,"pct_educ_superior":7,"brecha_educ":-45,"pct_sin_seguro":0,"pct_sus":100,"pct_seguro_privado":0,"brecha_seguro":0,"pct_salud_publica":24,"pct_med_tradicional":24,"pct_automedicacion":21,"pct_remedios_caseros":24,"pct_viv_desocupada":0,"pct_alquiler":0,"pct_electricidad":64,"pct_sin_electricidad":0,"pct_agua_red":55,"pct_alcantarillado":0,"pct_camara_septica":0,"pct_pozo_ciego":18,"pct_sin_desague":82,"pct_gas_red":0,"pct_gas_garrafa":18,"pct_lena_guano":82,"pct_basura_formal":0,"pct_basura_quema":100,"pct_basura_informal":0,"pct_internet":82,"pct_celular":100,"pct_televisor":9}},{"type":"Feature","geometry":{"type":"Polygon","coordinates":[[[-65.92891,-17.73109],[-65.92884,-17.73063],[-65.92844,-17.73071],[-65.92798,-17.73151],[-65.92777,-17.73141],[-65.92736,-17.73154],[-65.92683,-17.73189],[-65.9269,-17.73203],[-65.92749,-17.73195],[-65.92767,-17.73204],[-65.92783,-17.73236],[-65.92794,-17.73295],[-65.92841,-17.73257],[-65.92816,-17.73229],[-65.92811,-17.73205],[-65.92818,-17.73228],[-65.92842,-17.73255],[-65.9288,-17.73173],[-65.92891,-17.73109]]]},"properties":{"n":"BLANCO RANCHO","p":29,"personas_x_ha":12,"masculinidad":107,"pct_menor20":45,"pct_60mas":34,"pct_migrante":7,"dependencia_econ":142,"pct_empleados":8,"pct_cuentapropia":33,"pct_agricultura":83,"pct_comercio":8,"pct_manufactura":0,"pct_construccion":8,"pct_transporte":0,"pct_alojamiento":0,"pct_sin_educacion":29,"pct_educ_superior":6,"brecha_educ":-65,"pct_sin_seguro":4,"pct_sus":89,"pct_seguro_privado":0,"brecha_seguro":7,"pct_salud_publica":36,"pct_med_tradicional":9,"pct_automedicacion":13,"pct_remedios_caseros":29,"pct_viv_desocupada":20,"pct_alquiler":0,"pct_electricidad":80,"pct_sin_electricidad":20,"pct_agua_red":70,"pct_alcantarillado":0,"pct_camara_septica":0,"pct_pozo_ciego":70,"pct_sin_desague":20,"pct_gas_red":0,"pct_gas_garrafa":20,"pct_lena_guano":80,"pct_basura_formal":20,"pct_basura_quema":80,"pct_basura_informal":0,"pct_internet":40,"pct_celular":80,"pct_televisor":20}},{"type":"Feature","geometry":{"type":"Polygon","coordinates":[[[-65.94678,-17.70323],[-65.94633,-17.70268],[-65.94599,-17.70249],[-65.94579,-17.70288],[-65.94529,-17.7035],[-65.94552,-17.70367],[-65.94528,-17.70353],[-65.94521,-17.70404],[-65.94572,-17.70443],[-65.94585,-17.7043],[-65.94562,-17.70408],[-65.94589,-17.70427],[-65.94678,-17.70323]]]},"properties":{"n":"PAJCHA PATA LUX","p":49,"personas_x_ha":26,"masculinidad":75,"pct_menor20":31,"pct_60mas":14,"pct_migrante":12,"dependencia_econ":123,"pct_empleados":27,"pct_cuentapropia":45,"pct_agricultura":91,"pct_comercio":5,"pct_manufactura":0,"pct_construccion":0,"pct_transporte":0,"pct_alojamiento":0,"pct_sin_educacion":3,"pct_educ_superior":11,"brecha_educ":12,"pct_sin_seguro":8,"pct_sus":90,"pct_seguro_privado":0,"brecha_seguro":-6,"pct_salud_publica":42,"pct_med_tradicional":4,"pct_automedicacion":7,"pct_remedios_caseros":36,"pct_viv_desocupada":12,"pct_alquiler":0,"pct_electricidad":75,"pct_sin_electricidad":25,"pct_agua_red":0,"pct_alcantarillado":0,"pct_camara_septica":0,"pct_pozo_ciego":30,"pct_sin_desague":65,"pct_gas_red":0,"pct_gas_garrafa":20,"pct_lena_guano":65,"pct_basura_formal":0,"pct_basura_quema":65,"pct_basura_informal":35,"pct_internet":65,"pct_celular":65,"pct_televisor":30}},{"type":"Feature","geometry":{"type":"Polygon","coordinates":[[[-65.94489,-17.70252],[-65.94484,-17.70271],[-65.94544,-17.70311],[-65.94571,-17.70284],[-65.94582,-17.70254],[-65.94563,-17.70241],[-65.94586,-17.70249],[-65.9462,-17.70206],[-65.94595,-17.70178],[-65.94581,-17.70188],[-65.94593,-17.70174],[-65.94578,-17.70161],[-65.94489,-17.70252]]]},"properties":{"n":"PAJCHA PATA LUX","p":18,"personas_x_ha":16,"masculinidad":50,"pct_menor20":33,"pct_60mas":17,"pct_migrante":6,"dependencia_econ":157,"pct_empleados":0,"pct_cuentapropia":71,"pct_agricultura":43,"pct_comercio":29,"pct_manufactura":0,"pct_construccion":14,"pct_transporte":0,"pct_alojamiento":0,"pct_sin_educacion":0,"pct_educ_superior":17,"brecha_educ":-17,"pct_sin_seguro":29,"pct_sus":65,"pct_seguro_privado":0,"brecha_seguro":-20,"pct_salud_publica":46,"pct_med_tradicional":23,"pct_automedicacion":3,"pct_remedios_caseros":13,"pct_viv_desocupada":10,"pct_alquiler":11,"pct_electricidad":56,"pct_sin_electricidad":44,"pct_agua_red":0,"pct_alcantarillado":0,"pct_camara_septica":0,"pct_pozo_ciego":11,"pct_sin_desague":89,"pct_gas_red":0,"pct_gas_garrafa":56,"pct_lena_guano":44,"pct_basura_formal":0,"pct_basura_quema":100,"pct_basura_informal":0,"pct_internet":22,"pct_celular":89,"pct_televisor":11}},{"type":"Feature","geometry":{"type":"Polygon","coordinates":[[[-65.96179,-17.77314],[-65.96164,-17.77323],[-65.96174,-17.77343],[-65.9613,-17.7737],[-65.96147,-17.77418],[-65.96234,-17.77381],[-65.96202,-17.77355],[-65.96179,-17.77314]]]},"properties":{"n":"TIJRASKA","p":24,"personas_x_ha":40,"masculinidad":167,"pct_menor20":46,"pct_60mas":0,"pct_migrante":8,"dependencia_econ":85,"pct_empleados":0,"pct_cuentapropia":92,"pct_agricultura":69,"pct_comercio":8,"pct_manufactura":0,"pct_construccion":15,"pct_transporte":0,"pct_alojamiento":0,"pct_sin_educacion":0,"pct_educ_superior":15,"brecha_educ":-3,"pct_sin_seguro":0,"pct_sus":96,"pct_seguro_privado":0,"brecha_seguro":0,"pct_salud_publica":37,"pct_med_tradicional":5,"pct_automedicacion":15,"pct_remedios_caseros":35,"pct_viv_desocupada":0,"pct_alquiler":11,"pct_electricidad":89,"pct_sin_electricidad":11,"pct_agua_red":0,"pct_alcantarillado":0,"pct_camara_septica":0,"pct_pozo_ciego":44,"pct_sin_desague":56,"pct_gas_red":0,"pct_gas_garrafa":89,"pct_lena_guano":11,"pct_basura_formal":100,"pct_basura_quema":0,"pct_basura_informal":0,"pct_internet":78,"pct_celular":89,"pct_televisor":33}},{"type":"Feature","geometry":{"type":"Polygon","coordinates":[[[-65.96316,-17.77342],[-65.96277,-17.77256],[-65.96244,-17.77274],[-65.96278,-17.77361],[-65.96316,-17.77342]]]},"properties":{"n":"TIJRASKA","p":43,"personas_x_ha":95,"masculinidad":48,"pct_menor20":53,"pct_60mas":5,"pct_migrante":2,"dependencia_econ":116,"pct_empleados":5,"pct_cuentapropia":63,"pct_agricultura":74,"pct_comercio":5,"pct_manufactura":0,"pct_construccion":5,"pct_transporte":5,"pct_alojamiento":0,"pct_sin_educacion":5,"pct_educ_superior":18,"brecha_educ":-32,"pct_sin_seguro":41,"pct_sus":56,"pct_seguro_privado":0,"brecha_seguro":-9,"pct_salud_publica":29,"pct_med_tradicional":14,"pct_automedicacion":18,"pct_remedios_caseros":27,"pct_viv_desocupada":5,"pct_alquiler":0,"pct_electricidad":100,"pct_sin_electricidad":0,"pct_agua_red":44,"pct_alcantarillado":0,"pct_camara_septica":0,"pct_pozo_ciego":50,"pct_sin_desague":50,"pct_gas_red":0,"pct_gas_garrafa":81,"pct_lena_guano":19,"pct_basura_formal":44,"pct_basura_quema":44,"pct_basura_informal":12,"pct_internet":31,"pct_celular":81,"pct_televisor":62}},{"type":"Feature","geometry":{"type":"Polygon","coordinates":[[[-65.96341,-17.77436],[-65.96317,-17.77351],[-65.96358,-17.77328],[-65.96379,-17.77403],[-65.96341,-17.77436]]]},"properties":{"n":"TIJRASKA","p":46,"personas_x_ha":99,"masculinidad":84,"pct_menor20":46,"pct_60mas":2,"pct_migrante":7,"dependencia_econ":53,"pct_empleados":17,"pct_cuentapropia":50,"pct_agricultura":83,"pct_comercio":7,"pct_manufactura":0,"pct_construccion":7,"pct_transporte":0,"pct_alojamiento":0,"pct_sin_educacion":0,"pct_educ_superior":8,"brecha_educ":-45,"pct_sin_seguro":7,"pct_sus":91,"pct_seguro_privado":0,"brecha_seguro":5,"pct_salud_publica":27,"pct_med_tradicional":11,"pct_automedicacion":17,"pct_remedios_caseros":24,"pct_viv_desocupada":0,"pct_alquiler":6,"pct_electricidad":65,"pct_sin_electricidad":29,"pct_agua_red":41,"pct_alcantarillado":12,"pct_camara_septica":0,"pct_pozo_ciego":0,"pct_sin_desague":82,"pct_gas_red":0,"pct_gas_garrafa":59,"pct_lena_guano":41,"pct_basura_formal":71,"pct_basura_quema":12,"pct_basura_informal":12,"pct_internet":82,"pct_celular":94,"pct_televisor":35}},{"type":"Feature","geometry":{"type":"Polygon","coordinates":[[[-65.96203,-17.77177],[-65.96173,-17.77184],[-65.96171,-17.77206],[-65.96145,-17.77236],[-65.9619,-17.773],[-65.9623,-17.77276],[-65.96203,-17.77177]]]},"properties":{"n":"TIJRASKA","p":23,"personas_x_ha":32,"masculinidad":35,"pct_menor20":48,"pct_60mas":26,"pct_migrante":4,"dependencia_econ":130,"pct_empleados":10,"pct_cuentapropia":40,"pct_agricultura":60,"pct_comercio":10,"pct_manufactura":0,"pct_construccion":10,"pct_transporte":0,"pct_alojamiento":0,"pct_sin_educacion":17,"pct_educ_superior":0,"brecha_educ":0,"pct_sin_seguro":0,"pct_sus":100,"pct_seguro_privado":0,"brecha_seguro":0,"pct_salud_publica":55,"pct_med_tradicional":38,"pct_automedicacion":5,"pct_remedios_caseros":0,"pct_viv_desocupada":8,"pct_alquiler":0,"pct_electricidad":89,"pct_sin_electricidad":11,"pct_agua_red":67,"pct_alcantarillado":0,"pct_camara_septica":22,"pct_pozo_ciego":0,"pct_sin_desague":78,"pct_gas_red":0,"pct_gas_garrafa":89,"pct_lena_guano":11,"pct_basura_formal":11,"pct_basura_quema":78,"pct_basura_informal":11,"pct_internet":11,"pct_celular":56,"pct_televisor":44}},{"type":"Feature","geometry":{"type":"Polygon","coordinates":[[[-65.96336,-17.77579],[-65.96365,-17.7758],[-65.96367,-17.77562],[-65.96374,-17.77563],[-65.96374,-17.77538],[-65.96358,-17.77538],[-65.96388,-17.77534],[-65.96401,-17.77523],[-65.96376,-17.77496],[-65.96348,-17.77512],[-65.96334,-17.77459],[-65.96312,-17.77464],[-65.96336,-17.77579]]]},"properties":{"n":"TIJRASKA","p":26,"personas_x_ha":45,"masculinidad":86,"pct_menor20":54,"pct_60mas":8,"pct_migrante":4,"dependencia_econ":117,"pct_empleados":0,"pct_cuentapropia":83,"pct_agricultura":75,"pct_comercio":0,"pct_manufactura":0,"pct_construccion":8,"pct_transporte":8,"pct_alojamiento":0,"pct_sin_educacion":0,"pct_educ_superior":8,"brecha_educ":-33,"pct_sin_seguro":12,"pct_sus":84,"pct_seguro_privado":0,"brecha_seguro":-5,"pct_salud_publica":22,"pct_med_tradicional":25,"pct_automedicacion":16,"pct_remedios_caseros":19,"pct_viv_desocupada":0,"pct_alquiler":0,"pct_electricidad":71,"pct_sin_electricidad":29,"pct_agua_red":57,"pct_alcantarillado":0,"pct_camara_septica":0,"pct_pozo_ciego":14,"pct_sin_desague":71,"pct_gas_red":0,"pct_gas_garrafa":86,"pct_lena_guano":14,"pct_basura_formal":71,"pct_basura_quema":14,"pct_basura_informal":0,"pct_internet":71,"pct_celular":86,"pct_televisor":71}},{"type":"Feature","geometry":{"type":"Polygon","coordinates":[[[-65.96322,-17.77339],[-65.96364,-17.77316],[-65.96325,-17.77228],[-65.96283,-17.7725],[-65.96322,-17.77339]]]},"properties":{"n":"TIJRASKA","p":29,"personas_x_ha":53,"masculinidad":61,"pct_menor20":34,"pct_60mas":28,"pct_migrante":14,"dependencia_econ":61,"pct_empleados":28,"pct_cuentapropia":22,"pct_agricultura":72,"pct_comercio":0,"pct_manufactura":6,"pct_construccion":6,"pct_transporte":0,"pct_alojamiento":0,"pct_sin_educacion":47,"pct_educ_superior":0,"brecha_educ":-6,"pct_sin_seguro":32,"pct_sus":68,"pct_seguro_privado":0,"brecha_seguro":-3,"pct_salud_publica":23,"pct_med_tradicional":14,"pct_automedicacion":23,"pct_remedios_caseros":23,"pct_viv_desocupada":0,"pct_alquiler":0,"pct_electricidad":77,"pct_sin_electricidad":23,"pct_agua_red":69,"pct_alcantarillado":0,"pct_camara_septica":0,"pct_pozo_ciego":23,"pct_sin_desague":69,"pct_gas_red":0,"pct_gas_garrafa":77,"pct_lena_guano":23,"pct_basura_formal":31,"pct_basura_quema":46,"pct_basura_informal":15,"pct_internet":46,"pct_celular":62,"pct_televisor":46}},{"type":"Feature","geometry":{"type":"Polygon","coordinates":[[[-65.96348,-17.77233],[-65.96337,-17.77241],[-65.9637,-17.77314],[-65.96404,-17.773],[-65.96391,-17.77272],[-65.96348,-17.77233]]]},"properties":{"n":"TIJRASKA","p":15,"personas_x_ha":54,"masculinidad":50,"pct_menor20":60,"pct_60mas":7,"pct_migrante":20,"dependencia_econ":50,"pct_empleados":20,"pct_cuentapropia":80,"pct_agricultura":60,"pct_comercio":10,"pct_manufactura":0,"pct_construccion":10,"pct_transporte":0,"pct_alojamiento":10,"pct_sin_educacion":0,"pct_educ_superior":14,"brecha_educ":-80,"pct_sin_seguro":0,"pct_sus":100,"pct_seguro_privado":0,"brecha_seguro":0,"pct_salud_publica":26,"pct_med_tradicional":17,"pct_automedicacion":13,"pct_remedios_caseros":24,"pct_viv_desocupada":0,"pct_alquiler":0,"pct_electricidad":57,"pct_sin_electricidad":43,"pct_agua_red":86,"pct_alcantarillado":0,"pct_camara_septica":0,"pct_pozo_ciego":14,"pct_sin_desague":57,"pct_gas_red":0,"pct_gas_garrafa":57,"pct_lena_guano":43,"pct_basura_formal":57,"pct_basura_quema":43,"pct_basura_informal":0,"pct_internet":86,"pct_celular":100,"pct_televisor":29}},{"type":"Feature","geometry":{"type":"Polygon","coordinates":[[[-65.88611,-17.80466],[-65.88671,-17.80395],[-65.88639,-17.80373],[-65.8858,-17.80444],[-65.88611,-17.80466]]]},"properties":{"n":"TORANCALI","p":24,"personas_x_ha":56,"masculinidad":100,"pct_menor20":29,"pct_60mas":8,"pct_migrante":17,"dependencia_econ":41,"pct_empleados":0,"pct_cuentapropia":76,"pct_agricultura":82,"pct_comercio":0,"pct_manufactura":0,"pct_construccion":12,"pct_transporte":0,"pct_alojamiento":0,"pct_sin_educacion":17,"pct_educ_superior":6,"brecha_educ":-44,"pct_sin_seguro":71,"pct_sus":29,"pct_seguro_privado":0,"brecha_seguro":-42,"pct_salud_publica":100,"pct_med_tradicional":0,"pct_automedicacion":0,"pct_remedios_caseros":0,"pct_viv_desocupada":0,"pct_alquiler":0,"pct_electricidad":100,"pct_sin_electricidad":0,"pct_agua_red":40,"pct_alcantarillado":20,"pct_camara_septica":0,"pct_pozo_ciego":0,"pct_sin_desague":30,"pct_gas_red":0,"pct_gas_garrafa":90,"pct_lena_guano":10,"pct_basura_formal":0,"pct_basura_quema":60,"pct_basura_informal":0,"pct_internet":20,"pct_celular":50,"pct_televisor":0}},{"type":"Feature","geometry":{"type":"Polygon","coordinates":[[[-65.88672,-17.80341],[-65.88658,-17.80307],[-65.88569,-17.80346],[-65.88572,-17.80387],[-65.88672,-17.80341]]]},"properties":{"n":"TORANCALI","p":27,"personas_x_ha":58,"masculinidad":108,"pct_menor20":63,"pct_60mas":0,"pct_migrante":15,"dependencia_econ":200,"pct_empleados":0,"pct_cuentapropia":56,"pct_agricultura":78,"pct_comercio":0,"pct_manufactura":0,"pct_construccion":0,"pct_transporte":0,"pct_alojamiento":11,"pct_sin_educacion":0,"pct_educ_superior":20,"brecha_educ":0,"pct_sin_seguro":0,"pct_sus":96,"pct_seguro_privado":0,"brecha_seguro":0,"pct_salud_publica":35,"pct_med_tradicional":19,"pct_automedicacion":17,"pct_remedios_caseros":24,"pct_viv_desocupada":0,"pct_alquiler":0,"pct_electricidad":38,"pct_sin_electricidad":50,"pct_agua_red":0,"pct_alcantarillado":0,"pct_camara_septica":0,"pct_pozo_ciego":0,"pct_sin_desague":50,"pct_gas_red":0,"pct_gas_garrafa":50,"pct_lena_guano":50,"pct_basura_formal":0,"pct_basura_quema":100,"pct_basura_informal":0,"pct_internet":88,"pct_celular":88,"pct_televisor":25}}]}