{"type":"FeatureCollection","features":[{"type":"Feature","geometry":{"type":"Polygon","coordinates":[[[-65.59608,-17.5664],[-65.59578,-17.56579],[-65.59682,-17.5653],[-65.59709,-17.56582],[-65.59608,-17.5664]]]},"properties":{"n":"CHAULLA MAYU","p":19,"personas_x_ha":21,"masculinidad":73,"pct_menor20":21,"pct_60mas":16,"pct_migrante":16,"dependencia_econ":36,"pct_empleados":57,"pct_cuentapropia":29,"pct_agricultura":21,"pct_comercio":7,"pct_manufactura":7,"pct_construccion":7,"pct_transporte":7,"pct_alojamiento":7,"pct_sin_educacion":6,"pct_educ_superior":56,"brecha_educ":-30,"pct_sin_seguro":16,"pct_sus":37,"pct_seguro_privado":0,"brecha_seguro":-27,"pct_salud_publica":15,"pct_med_tradicional":12,"pct_automedicacion":20,"pct_remedios_caseros":24,"pct_viv_desocupada":0,"pct_alquiler":0,"pct_electricidad":89,"pct_sin_electricidad":11,"pct_agua_red":89,"pct_alcantarillado":56,"pct_camara_septica":0,"pct_pozo_ciego":44,"pct_sin_desague":0,"pct_gas_red":0,"pct_gas_garrafa":78,"pct_lena_guano":22,"pct_basura_formal":0,"pct_basura_quema":67,"pct_basura_informal":11,"pct_internet":89,"pct_celular":89,"pct_televisor":44}},{"type":"Feature","geometry":{"type":"Polygon","coordinates":[[[-65.59626,-17.56543],[-65.59598,-17.56471],[-65.59518,-17.5649],[-65.59555,-17.56574],[-65.59626,-17.56543]]]},"properties":{"n":"CHAULLA MAYU","p":31,"personas_x_ha":39,"masculinidad":121,"pct_menor20":16,"pct_60mas":6,"pct_migrante":6,"dependencia_econ":55,"pct_empleados":30,"pct_cuentapropia":50,"pct_agricultura":40,"pct_comercio":10,"pct_manufactura":5,"pct_construccion":0,"pct_transporte":0,"pct_alojamiento":15,"pct_sin_educacion":4,"pct_educ_superior":50,"brecha_educ":-23,"pct_sin_seguro":0,"pct_sus":97,"pct_seguro_privado":0,"brecha_seguro":0,"pct_salud_publica":31,"pct_med_tradicional":14,"pct_automedicacion":14,"pct_remedios_caseros":32,"pct_viv_desocupada":21,"pct_alquiler":0,"pct_electricidad":91,"pct_sin_electricidad":9,"pct_agua_red":82,"pct_alcantarillado":91,"pct_camara_septica":0,"pct_pozo_ciego":0,"pct_sin_desague":9,"pct_gas_red":0,"pct_gas_garrafa":100,"pct_lena_guano":0,"pct_basura_formal":0,"pct_basura_quema":91,"pct_basura_informal":0,"pct_internet":91,"pct_celular":91,"pct_televisor":91}},{"type":"Feature","geometry":{"type":"Polygon","coordinates":[[[-65.59891,-17.56472],[-65.59872,-17.56443],[-65.59688,-17.56528],[-65.59716,-17.56577],[-65.59891,-17.56472]]]},"properties":{"n":"CHAULLA MAYU","p":38,"personas_x_ha":34,"masculinidad":124,"pct_menor20":34,"pct_60mas":21,"pct_migrante":45,"dependencia_econ":100,"pct_empleados":21,"pct_cuentapropia":74,"pct_agricultura":42,"pct_comercio":16,"pct_manufactura":0,"pct_construccion":0,"pct_transporte":16,"pct_alojamiento":0,"pct_sin_educacion":16,"pct_educ_superior":32,"brecha_educ":-29,"pct_sin_seguro":8,"pct_sus":68,"pct_seguro_privado":0,"brecha_seguro":-7,"pct_salud_publica":20,"pct_med_tradicional":25,"pct_automedicacion":11,"pct_remedios_caseros":26,"pct_viv_desocupada":13,"pct_alquiler":0,"pct_electricidad":92,"pct_sin_electricidad":0,"pct_agua_red":92,"pct_alcantarillado":58,"pct_camara_septica":25,"pct_pozo_ciego":17,"pct_sin_desague":0,"pct_gas_red":0,"pct_gas_garrafa":92,"pct_lena_guano":8,"pct_basura_formal":0,"pct_basura_quema":92,"pct_basura_informal":8,"pct_internet":67,"pct_celular":83,"pct_televisor":67}},{"type":"Feature","geometry":{"type":"Polygon","coordinates":[[[-65.59513,-17.56493],[-65.59433,-17.56519],[-65.59458,-17.5662],[-65.5955,-17.56577],[-65.59513,-17.56493]]]},"properties":{"n":"CHAULLA MAYU","p":34,"personas_x_ha":32,"masculinidad":89,"pct_menor20":41,"pct_60mas":15,"pct_migrante":35,"dependencia_econ":89,"pct_empleados":11,"pct_cuentapropia":61,"pct_agricultura":56,"pct_comercio":17,"pct_manufactura":0,"pct_construccion":11,"pct_transporte":0,"pct_alojamiento":0,"pct_sin_educacion":0,"pct_educ_superior":33,"brecha_educ":9,"pct_sin_seguro":3,"pct_sus":82,"pct_seguro_privado":0,"brecha_seguro":6,"pct_salud_publica":25,"pct_med_tradicional":13,"pct_automedicacion":19,"pct_remedios_caseros":26,"pct_viv_desocupada":0,"pct_alquiler":0,"pct_electricidad":92,"pct_sin_electricidad":8,"pct_agua_red":100,"pct_alcantarillado":67,"pct_camara_septica":8,"pct_pozo_ciego":17,"pct_sin_desague":8,"pct_gas_red":0,"pct_gas_garrafa":83,"pct_lena_guano":17,"pct_basura_formal":0,"pct_basura_quema":100,"pct_basura_informal":0,"pct_internet":58,"pct_celular":83,"pct_televisor":50}},{"type":"Feature","geometry":{"type":"Polygon","coordinates":[[[-65.59363,-17.56305],[-65.59376,-17.56303],[-65.59361,-17.56228],[-65.59352,-17.5622],[-65.59276,-17.56234],[-65.59293,-17.5634],[-65.59339,-17.56345],[-65.59363,-17.56305]]]},"properties":{"n":"CHAULLA MAYU","p":20,"personas_x_ha":19,"masculinidad":122,"pct_menor20":40,"pct_60mas":10,"pct_migrante":25,"dependencia_econ":67,"pct_empleados":42,"pct_cuentapropia":25,"pct_agricultura":33,"pct_comercio":25,"pct_manufactura":0,"pct_construccion":0,"pct_transporte":0,"pct_alojamiento":0,"pct_sin_educacion":0,"pct_educ_superior":75,"brecha_educ":-33,"pct_sin_seguro":0,"pct_sus":40,"pct_seguro_privado":0,"brecha_seguro":0,"pct_salud_publica":14,"pct_med_tradicional":17,"pct_automedicacion":16,"pct_remedios_caseros":14,"pct_viv_desocupada":0,"pct_alquiler":0,"pct_electricidad":100,"pct_sin_electricidad":0,"pct_agua_red":86,"pct_alcantarillado":57,"pct_camara_septica":0,"pct_pozo_ciego":14,"pct_sin_desague":29,"pct_gas_red":0,"pct_gas_garrafa":100,"pct_lena_guano":0,"pct_basura_formal":0,"pct_basura_quema":86,"pct_basura_informal":0,"pct_internet":71,"pct_celular":71,"pct_televisor":43}},{"type":"Feature","geometry":{"type":"Polygon","coordinates":[[[-65.59202,-17.56881],[-65.59596,-17.56644],[-65.59571,-17.56582],[-65.59376,-17.56671],[-65.59306,-17.56714],[-65.59184,-17.56857],[-65.59202,-17.56881]]]},"properties":{"n":"CHAULLA MAYU","p":35,"personas_x_ha":8,"masculinidad":75,"pct_menor20":26,"pct_60mas":17,"pct_migrante":20,"dependencia_econ":46,"pct_empleados":33,"pct_cuentapropia":46,"pct_agricultura":42,"pct_comercio":17,"pct_manufactura":4,"pct_construccion":0,"pct_transporte":4,"pct_alojamiento":4,"pct_sin_educacion":8,"pct_educ_superior":23,"brecha_educ":-33,"pct_sin_seguro":9,"pct_sus":86,"pct_seguro_privado":6,"brecha_seguro":-3,"pct_salud_publica":25,"pct_med_tradicional":22,"pct_automedicacion":8,"pct_remedios_caseros":25,"pct_viv_desocupada":21,"pct_alquiler":7,"pct_electricidad":100,"pct_sin_electricidad":0,"pct_agua_red":100,"pct_alcantarillado":73,"pct_camara_septica":0,"pct_pozo_ciego":20,"pct_sin_desague":7,"pct_gas_red":0,"pct_gas_garrafa":100,"pct_lena_guano":0,"pct_basura_formal":0,"pct_basura_quema":87,"pct_basura_informal":7,"pct_internet":53,"pct_celular":87,"pct_televisor":73}},{"type":"Feature","geometry":{"type":"Polygon","coordinates":[[[-65.59343,-17.56347],[-65.59325,-17.5641],[-65.59324,-17.56473],[-65.59343,-17.5652],[-65.59348,-17.56573],[-65.59339,-17.56602],[-65.59305,-17.56635],[-65.59322,-17.5668],[-65.59446,-17.56627],[-65.59377,-17.56307],[-65.59366,-17.56309],[-65.59343,-17.56347]]]},"properties":{"n":"CHAULLA MAYU","p":19,"personas_x_ha":6,"masculinidad":171,"pct_menor20":26,"pct_60mas":16,"pct_migrante":26,"dependencia_econ":36,"pct_empleados":57,"pct_cuentapropia":29,"pct_agricultura":21,"pct_comercio":7,"pct_manufactura":14,"pct_construccion":0,"pct_transporte":0,"pct_alojamiento":0,"pct_sin_educacion":0,"pct_educ_superior":64,"brecha_educ":-4,"pct_sin_seguro":0,"pct_sus":39,"pct_seguro_privado":0,"brecha_seguro":0,"pct_salud_publica":15,"pct_med_tradicional":16,"pct_automedicacion":16,"pct_remedios_caseros":21,"pct_viv_desocupada":23,"pct_alquiler":0,"pct_electricidad":88,"pct_sin_electricidad":12,"pct_agua_red":50,"pct_alcantarillado":75,"pct_camara_septica":0,"pct_pozo_ciego":12,"pct_sin_desague":12,"pct_gas_red":0,"pct_gas_garrafa":100,"pct_lena_guano":0,"pct_basura_formal":0,"pct_basura_quema":100,"pct_basura_informal":0,"pct_internet":62,"pct_celular":62,"pct_televisor":62}},{"type":"Feature","geometry":{"type":"Polygon","coordinates":[[[-65.59693,-17.56515],[-65.59633,-17.56542],[-65.59605,-17.56472],[-65.59664,-17.56462],[-65.59693,-17.56515]]]},"properties":{"n":"CHAULLA MAYU","p":15,"personas_x_ha":30,"masculinidad":114,"pct_menor20":33,"pct_60mas":13,"pct_migrante":40,"dependencia_econ":67,"pct_empleados":56,"pct_cuentapropia":33,"pct_agricultura":33,"pct_comercio":0,"pct_manufactura":11,"pct_construccion":0,"pct_transporte":11,"pct_alojamiento":33,"pct_sin_educacion":0,"pct_educ_superior":27,"brecha_educ":-13,"pct_sin_seguro":0,"pct_sus":93,"pct_seguro_privado":0,"brecha_seguro":0,"pct_salud_publica":24,"pct_med_tradicional":19,"pct_automedicacion":15,"pct_remedios_caseros":21,"pct_viv_desocupada":12,"pct_alquiler":0,"pct_electricidad":100,"pct_sin_electricidad":0,"pct_agua_red":100,"pct_alcantarillado":100,"pct_camara_septica":0,"pct_pozo_ciego":0,"pct_sin_desague":0,"pct_gas_red":0,"pct_gas_garrafa":100,"pct_lena_guano":0,"pct_basura_formal":0,"pct_basura_quema":100,"pct_basura_informal":0,"pct_internet":100,"pct_celular":100,"pct_televisor":83}},{"type":"Feature","geometry":{"type":"Polygon","coordinates":[[[-65.59638,-17.5641],[-65.59611,-17.56401],[-65.59551,-17.56416],[-65.59471,-17.56349],[-65.59461,-17.56332],[-65.5945,-17.56336],[-65.59516,-17.56485],[-65.59658,-17.56456],[-65.59638,-17.5641]]]},"properties":{"n":"CHAULLA MAYU","p":26,"personas_x_ha":19,"masculinidad":225,"pct_menor20":50,"pct_60mas":8,"pct_migrante":8,"dependencia_econ":86,"pct_empleados":43,"pct_cuentapropia":43,"pct_agricultura":36,"pct_comercio":14,"pct_manufactura":0,"pct_construccion":7,"pct_transporte":14,"pct_alojamiento":14,"pct_sin_educacion":8,"pct_educ_superior":31,"brecha_educ":-21,"pct_sin_seguro":0,"pct_sus":88,"pct_seguro_privado":0,"brecha_seguro":0,"pct_salud_publica":25,"pct_med_tradicional":21,"pct_automedicacion":13,"pct_remedios_caseros":30,"pct_viv_desocupada":8,"pct_alquiler":0,"pct_electricidad":78,"pct_sin_electricidad":22,"pct_agua_red":100,"pct_alcantarillado":33,"pct_camara_septica":0,"pct_pozo_ciego":11,"pct_sin_desague":56,"pct_gas_red":0,"pct_gas_garrafa":100,"pct_lena_guano":0,"pct_basura_formal":11,"pct_basura_quema":89,"pct_basura_informal":0,"pct_internet":67,"pct_celular":78,"pct_televisor":67}},{"type":"Feature","geometry":{"type":"Polygon","coordinates":[[[-65.54305,-17.60988],[-65.54337,-17.60971],[-65.54367,-17.60916],[-65.54401,-17.60899],[-65.54463,-17.60918],[-65.54519,-17.60917],[-65.54562,-17.60946],[-65.54576,-17.6094],[-65.54578,-17.60931],[-65.54465,-17.60784],[-65.54248,-17.60929],[-65.54283,-17.60958],[-65.54305,-17.60988]]]},"properties":{"n":"PAREDONES","p":28,"personas_x_ha":9,"masculinidad":100,"pct_menor20":39,"pct_60mas":21,"pct_migrante":4,"dependencia_econ":56,"pct_empleados":11,"pct_cuentapropia":72,"pct_agricultura":78,"pct_comercio":6,"pct_manufactura":0,"pct_construccion":0,"pct_transporte":6,"pct_alojamiento":11,"pct_sin_educacion":24,"pct_educ_superior":6,"brecha_educ":-26,"pct_sin_seguro":4,"pct_sus":96,"pct_seguro_privado":0,"brecha_seguro":7,"pct_salud_publica":38,"pct_med_tradicional":1,"pct_automedicacion":12,"pct_remedios_caseros":25,"pct_viv_desocupada":24,"pct_alquiler":0,"pct_electricidad":90,"pct_sin_electricidad":10,"pct_agua_red":90,"pct_alcantarillado":10,"pct_camara_septica":10,"pct_pozo_ciego":30,"pct_sin_desague":50,"pct_gas_red":0,"pct_gas_garrafa":90,"pct_lena_guano":10,"pct_basura_formal":50,"pct_basura_quema":40,"pct_basura_informal":10,"pct_internet":60,"pct_celular":80,"pct_televisor":30}},{"type":"Feature","geometry":{"type":"Polygon","coordinates":[[[-65.54653,-17.60574],[-65.54588,-17.60524],[-65.54543,-17.60558],[-65.54615,-17.60624],[-65.54653,-17.60574]]]},"properties":{"n":"PAREDONES","p":21,"personas_x_ha":34,"masculinidad":133,"pct_menor20":33,"pct_60mas":14,"pct_migrante":19,"dependencia_econ":50,"pct_empleados":21,"pct_cuentapropia":64,"pct_agricultura":64,"pct_comercio":7,"pct_manufactura":7,"pct_construccion":0,"pct_transporte":0,"pct_alojamiento":0,"pct_sin_educacion":29,"pct_educ_superior":21,"brecha_educ":-33,"pct_sin_seguro":5,"pct_sus":86,"pct_seguro_privado":0,"brecha_seguro":8,"pct_salud_publica":26,"pct_med_tradicional":16,"pct_automedicacion":19,"pct_remedios_caseros":16,"pct_viv_desocupada":0,"pct_alquiler":0,"pct_electricidad":67,"pct_sin_electricidad":33,"pct_agua_red":44,"pct_alcantarillado":0,"pct_camara_septica":11,"pct_pozo_ciego":44,"pct_sin_desague":44,"pct_gas_red":0,"pct_gas_garrafa":78,"pct_lena_guano":22,"pct_basura_formal":33,"pct_basura_quema":67,"pct_basura_informal":0,"pct_internet":56,"pct_celular":78,"pct_televisor":56}},{"type":"Feature","geometry":{"type":"Polygon","coordinates":[[[-65.54135,-17.60993],[-65.54113,-17.60981],[-65.54068,-17.60753],[-65.54145,-17.60742],[-65.54156,-17.60759],[-65.54144,-17.60783],[-65.54147,-17.60823],[-65.54166,-17.60861],[-65.54195,-17.60865],[-65.54235,-17.60924],[-65.54135,-17.60993]]]},"properties":{"n":"PAREDONES","p":20,"personas_x_ha":8,"masculinidad":82,"pct_menor20":50,"pct_60mas":25,"pct_migrante":55,"dependencia_econ":150,"pct_empleados":25,"pct_cuentapropia":62,"pct_agricultura":38,"pct_comercio":25,"pct_manufactura":12,"pct_construccion":0,"pct_transporte":0,"pct_alojamiento":12,"pct_sin_educacion":18,"pct_educ_superior":45,"brecha_educ":-40,"pct_sin_seguro":11,"pct_sus":74,"pct_seguro_privado":0,"brecha_seguro":3,"pct_salud_publica":27,"pct_med_tradicional":2,"pct_automedicacion":31,"pct_remedios_caseros":29,"pct_viv_desocupada":0,"pct_alquiler":0,"pct_electricidad":90,"pct_sin_electricidad":10,"pct_agua_red":80,"pct_alcantarillado":10,"pct_camara_septica":0,"pct_pozo_ciego":70,"pct_sin_desague":20,"pct_gas_red":0,"pct_gas_garrafa":50,"pct_lena_guano":50,"pct_basura_formal":40,"pct_basura_quema":40,"pct_basura_informal":10,"pct_internet":80,"pct_celular":90,"pct_televisor":70}},{"type":"Feature","geometry":{"type":"Polygon","coordinates":[[[-65.54394,-17.60798],[-65.54347,-17.6079],[-65.54301,-17.60758],[-65.54245,-17.60753],[-65.54212,-17.60764],[-65.54172,-17.60744],[-65.54154,-17.60793],[-65.54169,-17.60852],[-65.54203,-17.60861],[-65.54241,-17.6092],[-65.54404,-17.6081],[-65.54394,-17.60798]]]},"properties":{"n":"PAREDONES","p":15,"personas_x_ha":5,"masculinidad":67,"pct_menor20":53,"pct_60mas":20,"pct_migrante":7,"dependencia_econ":50,"pct_empleados":0,"pct_cuentapropia":90,"pct_agricultura":80,"pct_comercio":0,"pct_manufactura":0,"pct_construccion":0,"pct_transporte":10,"pct_alojamiento":10,"pct_sin_educacion":12,"pct_educ_superior":12,"brecha_educ":-50,"pct_sin_seguro":8,"pct_sus":92,"pct_seguro_privado":0,"brecha_seguro":20,"pct_salud_publica":21,"pct_med_tradicional":15,"pct_automedicacion":21,"pct_remedios_caseros":23,"pct_viv_desocupada":20,"pct_alquiler":0,"pct_electricidad":75,"pct_sin_electricidad":25,"pct_agua_red":50,"pct_alcantarillado":0,"pct_camara_septica":25,"pct_pozo_ciego":50,"pct_sin_desague":25,"pct_gas_red":0,"pct_gas_garrafa":75,"pct_lena_guano":12,"pct_basura_formal":38,"pct_basura_quema":50,"pct_basura_informal":12,"pct_internet":75,"pct_celular":100,"pct_televisor":50}},{"type":"Feature","geometry":{"type":"Polygon","coordinates":[[[-65.63495,-17.62379],[-65.63662,-17.62397],[-65.63545,-17.62187],[-65.63499,-17.62236],[-65.63484,-17.62282],[-65.63479,-17.6235],[-65.63495,-17.62379]]]},"properties":{"n":"RODEO","p":22,"personas_x_ha":9,"masculinidad":175,"pct_menor20":27,"pct_60mas":23,"pct_migrante":5,"dependencia_econ":75,"pct_empleados":8,"pct_cuentapropia":67,"pct_agricultura":50,"pct_comercio":8,"pct_manufactura":17,"pct_construccion":8,"pct_transporte":8,"pct_alojamiento":0,"pct_sin_educacion":12,"pct_educ_superior":6,"brecha_educ":5,"pct_sin_seguro":24,"pct_sus":76,"pct_seguro_privado":0,"brecha_seguro":36,"pct_salud_publica":15,"pct_med_tradicional":17,"pct_automedicacion":17,"pct_remedios_caseros":18,"pct_viv_desocupada":33,"pct_alquiler":0,"pct_electricidad":100,"pct_sin_electricidad":0,"pct_agua_red":100,"pct_alcantarillado":0,"pct_camara_septica":17,"pct_pozo_ciego":50,"pct_sin_desague":33,"pct_gas_red":0,"pct_gas_garrafa":0,"pct_lena_guano":100,"pct_basura_formal":0,"pct_basura_quema":100,"pct_basura_informal":0,"pct_internet":83,"pct_celular":83,"pct_televisor":33}},{"type":"Feature","geometry":{"type":"Polygon","coordinates":[[[-65.63845,-17.62448],[-65.6385,-17.62412],[-65.63837,-17.62373],[-65.6382,-17.62356],[-65.63782,-17.62342],[-65.63742,-17.6235],[-65.63727,-17.62345],[-65.63707,-17.6232],[-65.6366,-17.62284],[-65.63667,-17.62269],[-65.63655,-17.6226],[-65.63651,-17.62325],[-65.63642,-17.62341],[-65.63731,-17.62497],[-65.63845,-17.62448]]]},"properties":{"n":"RODEO","p":18,"personas_x_ha":6,"masculinidad":125,"pct_menor20":22,"pct_60mas":11,"pct_migrante":6,"dependencia_econ":21,"pct_empleados":7,"pct_cuentapropia":86,"pct_agricultura":86,"pct_comercio":7,"pct_manufactura":0,"pct_construccion":0,"pct_transporte":0,"pct_alojamiento":0,"pct_sin_educacion":8,"pct_educ_superior":0,"brecha_educ":-44,"pct_sin_seguro":7,"pct_sus":93,"pct_seguro_privado":0,"brecha_seguro":12,"pct_salud_publica":93,"pct_med_tradicional":0,"pct_automedicacion":0,"pct_remedios_caseros":7,"pct_viv_desocupada":22,"pct_alquiler":0,"pct_electricidad":86,"pct_sin_electricidad":14,"pct_agua_red":0,"pct_alcantarillado":0,"pct_camara_septica":0,"pct_pozo_ciego":43,"pct_sin_desague":57,"pct_gas_red":0,"pct_gas_garrafa":29,"pct_lena_guano":71,"pct_basura_formal":0,"pct_basura_quema":100,"pct_basura_informal":0,"pct_internet":86,"pct_celular":100,"pct_televisor":71}},{"type":"Feature","geometry":{"type":"Polygon","coordinates":[[[-65.63345,-17.63305],[-65.63337,-17.63305],[-65.63219,-17.63074],[-65.63215,-17.63047],[-65.6323,-17.62995],[-65.63215,-17.62986],[-65.63249,-17.62929],[-65.63252,-17.62893],[-65.63599,-17.62865],[-65.63631,-17.62972],[-65.63623,-17.63003],[-65.63635,-17.63036],[-65.63615,-17.63072],[-65.63458,-17.63198],[-65.63376,-17.63248],[-65.63351,-17.63278],[-65.63345,-17.63305]]]},"properties":{"n":"RODEO","p":19,"personas_x_ha":1,"masculinidad":58,"pct_menor20":37,"pct_60mas":21,"pct_migrante":11,"dependencia_econ":46,"pct_empleados":31,"pct_cuentapropia":15,"pct_agricultura":62,"pct_comercio":15,"pct_manufactura":8,"pct_construccion":8,"pct_transporte":0,"pct_alojamiento":8,"pct_sin_educacion":7,"pct_educ_superior":0,"brecha_educ":-20,"pct_sin_seguro":5,"pct_sus":95,"pct_seguro_privado":0,"brecha_seguro":-8,"pct_salud_publica":36,"pct_med_tradicional":26,"pct_automedicacion":4,"pct_remedios_caseros":30,"pct_viv_desocupada":0,"pct_alquiler":0,"pct_electricidad":100,"pct_sin_electricidad":0,"pct_agua_red":67,"pct_alcantarillado":0,"pct_camara_septica":0,"pct_pozo_ciego":17,"pct_sin_desague":83,"pct_gas_red":0,"pct_gas_garrafa":33,"pct_lena_guano":67,"pct_basura_formal":0,"pct_basura_quema":100,"pct_basura_informal":0,"pct_internet":67,"pct_celular":100,"pct_televisor":50}},{"type":"Feature","geometry":{"type":"Polygon","coordinates":[[[-65.63636,-17.62986],[-65.63651,-17.6304],[-65.63658,-17.6304],[-65.63691,-17.62983],[-65.63814,-17.62887],[-65.63812,-17.62848],[-65.63621,-17.62865],[-65.63645,-17.62976],[-65.63636,-17.62986]]]},"properties":{"n":"RODEO","p":15,"personas_x_ha":7,"masculinidad":114,"pct_menor20":7,"pct_60mas":33,"pct_migrante":7,"dependencia_econ":25,"pct_empleados":8,"pct_cuentapropia":75,"pct_agricultura":83,"pct_comercio":8,"pct_manufactura":0,"pct_construccion":8,"pct_transporte":0,"pct_alojamiento":0,"pct_sin_educacion":53,"pct_educ_superior":7,"brecha_educ":-23,"pct_sin_seguro":50,"pct_sus":50,"pct_seguro_privado":0,"brecha_seguro":-29,"pct_salud_publica":24,"pct_med_tradicional":8,"pct_automedicacion":8,"pct_remedios_caseros":48,"pct_viv_desocupada":0,"pct_alquiler":0,"pct_electricidad":88,"pct_sin_electricidad":12,"pct_agua_red":100,"pct_alcantarillado":0,"pct_camara_septica":0,"pct_pozo_ciego":75,"pct_sin_desague":25,"pct_gas_red":0,"pct_gas_garrafa":62,"pct_lena_guano":38,"pct_basura_formal":0,"pct_basura_quema":25,"pct_basura_informal":62,"pct_internet":50,"pct_celular":88,"pct_televisor":50}},{"type":"Feature","geometry":{"type":"Polygon","coordinates":[[[-65.64293,-17.62485],[-65.64254,-17.62407],[-65.64184,-17.6242],[-65.64157,-17.62354],[-65.64131,-17.62342],[-65.63884,-17.62457],[-65.63873,-17.62471],[-65.63888,-17.62527],[-65.6391,-17.62544],[-65.63912,-17.62581],[-65.63924,-17.62604],[-65.63982,-17.62623],[-65.63986,-17.62632],[-65.63974,-17.6269],[-65.63997,-17.62741],[-65.6409,-17.6267],[-65.64293,-17.62485]]]},"properties":{"n":"RODEO","p":20,"personas_x_ha":2,"masculinidad":82,"pct_menor20":25,"pct_60mas":25,"pct_migrante":0,"dependencia_econ":43,"pct_empleados":0,"pct_cuentapropia":100,"pct_agricultura":79,"pct_comercio":14,"pct_manufactura":0,"pct_construccion":7,"pct_transporte":0,"pct_alojamiento":0,"pct_sin_educacion":20,"pct_educ_superior":13,"brecha_educ":-46,"pct_sin_seguro":15,"pct_sus":85,"pct_seguro_privado":0,"brecha_seguro":13,"pct_salud_publica":22,"pct_med_tradicional":12,"pct_automedicacion":23,"pct_remedios_caseros":26,"pct_viv_desocupada":7,"pct_alquiler":0,"pct_electricidad":78,"pct_sin_electricidad":22,"pct_agua_red":78,"pct_alcantarillado":0,"pct_camara_septica":0,"pct_pozo_ciego":22,"pct_sin_desague":67,"pct_gas_red":0,"pct_gas_garrafa":11,"pct_lena_guano":89,"pct_basura_formal":0,"pct_basura_quema":89,"pct_basura_informal":0,"pct_internet":67,"pct_celular":89,"pct_televisor":44}},{"type":"Feature","geometry":{"type":"Polygon","coordinates":[[[-65.63547,-17.62751],[-65.63538,-17.62662],[-65.63609,-17.62586],[-65.63731,-17.6252],[-65.63795,-17.62636],[-65.63794,-17.62646],[-65.63675,-17.6266],[-65.63792,-17.6265],[-65.63797,-17.62709],[-65.63718,-17.62727],[-65.63719,-17.62732],[-65.63798,-17.62717],[-65.63809,-17.62831],[-65.6361,-17.62853],[-65.63547,-17.62751]]]},"properties":{"n":"RODEO","p":23,"personas_x_ha":3,"masculinidad":92,"pct_menor20":30,"pct_60mas":30,"pct_migrante":22,"dependencia_econ":44,"pct_empleados":19,"pct_cuentapropia":75,"pct_agricultura":62,"pct_comercio":25,"pct_manufactura":6,"pct_construccion":0,"pct_transporte":0,"pct_alojamiento":0,"pct_sin_educacion":12,"pct_educ_superior":19,"brecha_educ":17,"pct_sin_seguro":5,"pct_sus":82,"pct_seguro_privado":0,"brecha_seguro":10,"pct_salud_publica":23,"pct_med_tradicional":20,"pct_automedicacion":22,"pct_remedios_caseros":28,"pct_viv_desocupada":38,"pct_alquiler":0,"pct_electricidad":83,"pct_sin_electricidad":17,"pct_agua_red":67,"pct_alcantarillado":0,"pct_camara_septica":0,"pct_pozo_ciego":67,"pct_sin_desague":33,"pct_gas_red":0,"pct_gas_garrafa":42,"pct_lena_guano":50,"pct_basura_formal":0,"pct_basura_quema":92,"pct_basura_informal":8,"pct_internet":75,"pct_celular":92,"pct_televisor":58}},{"type":"Feature","geometry":{"type":"Polygon","coordinates":[[[-65.64223,-17.62567],[-65.64037,-17.62722],[-65.64066,-17.62731],[-65.64119,-17.6273],[-65.64429,-17.62695],[-65.64494,-17.62672],[-65.64596,-17.62654],[-65.64451,-17.62359],[-65.64223,-17.62567]]]},"properties":{"n":"RODEO","p":18,"personas_x_ha":2,"masculinidad":100,"pct_menor20":17,"pct_60mas":11,"pct_migrante":11,"dependencia_econ":31,"pct_empleados":31,"pct_cuentapropia":38,"pct_agricultura":38,"pct_comercio":8,"pct_manufactura":46,"pct_construccion":0,"pct_transporte":8,"pct_alojamiento":0,"pct_sin_educacion":0,"pct_educ_superior":0,"brecha_educ":0,"pct_sin_seguro":47,"pct_sus":53,"pct_seguro_privado":0,"brecha_seguro":-42,"pct_salud_publica":27,"pct_med_tradicional":2,"pct_automedicacion":33,"pct_remedios_caseros":33,"pct_viv_desocupada":0,"pct_alquiler":0,"pct_electricidad":62,"pct_sin_electricidad":38,"pct_agua_red":75,"pct_alcantarillado":0,"pct_camara_septica":0,"pct_pozo_ciego":62,"pct_sin_desague":38,"pct_gas_red":0,"pct_gas_garrafa":62,"pct_lena_guano":38,"pct_basura_formal":0,"pct_basura_quema":88,"pct_basura_informal":12,"pct_internet":100,"pct_celular":100,"pct_televisor":25}},{"type":"Feature","geometry":{"type":"Polygon","coordinates":[[[-65.58055,-17.57226],[-65.57984,-17.5725],[-65.58007,-17.57321],[-65.5808,-17.57298],[-65.58055,-17.57226]]]},"properties":{"n":"VACAS","p":37,"personas_x_ha":53,"masculinidad":85,"pct_menor20":32,"pct_60mas":8,"pct_migrante":3,"dependencia_econ":75,"pct_empleados":25,"pct_cuentapropia":70,"pct_agricultura":35,"pct_comercio":15,"pct_manufactura":10,"pct_construccion":0,"pct_transporte":0,"pct_alojamiento":0,"pct_sin_educacion":0,"pct_educ_superior":35,"brecha_educ":-17,"pct_sin_seguro":0,"pct_sus":72,"pct_seguro_privado":0,"brecha_seguro":0,"pct_salud_publica":23,"pct_med_tradicional":15,"pct_automedicacion":23,"pct_remedios_caseros":25,"pct_viv_desocupada":23,"pct_alquiler":0,"pct_electricidad":100,"pct_sin_electricidad":0,"pct_agua_red":88,"pct_alcantarillado":88,"pct_camara_septica":0,"pct_pozo_ciego":0,"pct_sin_desague":12,"pct_gas_red":0,"pct_gas_garrafa":100,"pct_lena_guano":0,"pct_basura_formal":75,"pct_basura_quema":12,"pct_basura_informal":12,"pct_internet":88,"pct_celular":88,"pct_televisor":75}},{"type":"Feature","geometry":{"type":"Polygon","coordinates":[[[-65.58009,-17.5762],[-65.57972,-17.57517],[-65.58019,-17.57499],[-65.5805,-17.57593],[-65.58009,-17.5762]]]},"properties":{"n":"VACAS","p":25,"personas_x_ha":40,"masculinidad":108,"pct_menor20":24,"pct_60mas":32,"pct_migrante":4,"dependencia_econ":32,"pct_empleados":32,"pct_cuentapropia":42,"pct_agricultura":37,"pct_comercio":5,"pct_manufactura":0,"pct_construccion":11,"pct_transporte":5,"pct_alojamiento":16,"pct_sin_educacion":11,"pct_educ_superior":32,"brecha_educ":-23,"pct_sin_seguro":4,"pct_sus":56,"pct_seguro_privado":0,"brecha_seguro":8,"pct_salud_publica":24,"pct_med_tradicional":7,"pct_automedicacion":20,"pct_remedios_caseros":17,"pct_viv_desocupada":7,"pct_alquiler":0,"pct_electricidad":100,"pct_sin_electricidad":0,"pct_agua_red":100,"pct_alcantarillado":90,"pct_camara_septica":0,"pct_pozo_ciego":0,"pct_sin_desague":10,"pct_gas_red":50,"pct_gas_garrafa":50,"pct_lena_guano":0,"pct_basura_formal":90,"pct_basura_quema":0,"pct_basura_informal":10,"pct_internet":100,"pct_celular":100,"pct_televisor":80}},{"type":"Feature","geometry":{"type":"Polygon","coordinates":[[[-65.57969,-17.57511],[-65.58017,-17.57493],[-65.57985,-17.57395],[-65.57938,-17.5741],[-65.57969,-17.57511]]]},"properties":{"n":"VACAS","p":22,"personas_x_ha":36,"masculinidad":69,"pct_menor20":23,"pct_60mas":27,"pct_migrante":41,"dependencia_econ":69,"pct_empleados":23,"pct_cuentapropia":62,"pct_agricultura":31,"pct_comercio":23,"pct_manufactura":0,"pct_construccion":15,"pct_transporte":8,"pct_alojamiento":8,"pct_sin_educacion":12,"pct_educ_superior":24,"brecha_educ":-14,"pct_sin_seguro":9,"pct_sus":91,"pct_seguro_privado":0,"brecha_seguro":3,"pct_salud_publica":24,"pct_med_tradicional":12,"pct_automedicacion":18,"pct_remedios_caseros":21,"pct_viv_desocupada":17,"pct_alquiler":10,"pct_electricidad":100,"pct_sin_electricidad":0,"pct_agua_red":100,"pct_alcantarillado":90,"pct_camara_septica":0,"pct_pozo_ciego":10,"pct_sin_desague":0,"pct_gas_red":10,"pct_gas_garrafa":90,"pct_lena_guano":0,"pct_basura_formal":80,"pct_basura_quema":0,"pct_basura_informal":20,"pct_internet":30,"pct_celular":90,"pct_televisor":90}},{"type":"Feature","geometry":{"type":"Polygon","coordinates":[[[-65.58061,-17.57368],[-65.58137,-17.57449],[-65.58067,-17.57475],[-65.5803,-17.57379],[-65.58061,-17.57368]]]},"properties":{"n":"VACAS","p":32,"personas_x_ha":47,"masculinidad":78,"pct_menor20":22,"pct_60mas":22,"pct_migrante":6,"dependencia_econ":33,"pct_empleados":29,"pct_cuentapropia":46,"pct_agricultura":33,"pct_comercio":21,"pct_manufactura":4,"pct_construccion":8,"pct_transporte":0,"pct_alojamiento":4,"pct_sin_educacion":4,"pct_educ_superior":42,"brecha_educ":-27,"pct_sin_seguro":12,"pct_sus":84,"pct_seguro_privado":0,"brecha_seguro":16,"pct_salud_publica":30,"pct_med_tradicional":1,"pct_automedicacion":13,"pct_remedios_caseros":28,"pct_viv_desocupada":6,"pct_alquiler":0,"pct_electricidad":100,"pct_sin_electricidad":0,"pct_agua_red":100,"pct_alcantarillado":92,"pct_camara_septica":0,"pct_pozo_ciego":0,"pct_sin_desague":8,"pct_gas_red":50,"pct_gas_garrafa":50,"pct_lena_guano":0,"pct_basura_formal":75,"pct_basura_quema":8,"pct_basura_informal":17,"pct_internet":83,"pct_celular":92,"pct_televisor":83}},{"type":"Feature","geometry":{"type":"Polygon","coordinates":[[[-65.57802,-17.57378],[-65.57913,-17.5735],[-65.57893,-17.57282],[-65.57796,-17.57313],[-65.57793,-17.57342],[-65.57802,-17.57378]]]},"properties":{"n":"VACAS","p":23,"personas_x_ha":26,"masculinidad":109,"pct_menor20":43,"pct_60mas":4,"pct_migrante":30,"dependencia_econ":77,"pct_empleados":31,"pct_cuentapropia":46,"pct_agricultura":15,"pct_comercio":31,"pct_manufactura":8,"pct_construccion":15,"pct_transporte":0,"pct_alojamiento":15,"pct_sin_educacion":0,"pct_educ_superior":23,"brecha_educ":-3,"pct_sin_seguro":4,"pct_sus":87,"pct_seguro_privado":0,"brecha_seguro":8,"pct_salud_publica":34,"pct_med_tradicional":12,"pct_automedicacion":4,"pct_remedios_caseros":28,"pct_viv_desocupada":0,"pct_alquiler":12,"pct_electricidad":88,"pct_sin_electricidad":12,"pct_agua_red":88,"pct_alcantarillado":75,"pct_camara_septica":0,"pct_pozo_ciego":12,"pct_sin_desague":12,"pct_gas_red":12,"pct_gas_garrafa":75,"pct_lena_guano":0,"pct_basura_formal":88,"pct_basura_quema":12,"pct_basura_informal":0,"pct_internet":75,"pct_celular":75,"pct_televisor":62}},{"type":"Feature","geometry":{"type":"Polygon","coordinates":[[[-65.58174,-17.57383],[-65.58252,-17.57331],[-65.58292,-17.5736],[-65.58149,-17.57441],[-65.5811,-17.57353],[-65.58144,-17.57342],[-65.58174,-17.57383]]]},"properties":{"n":"VACAS","p":18,"personas_x_ha":19,"masculinidad":100,"pct_menor20":22,"pct_60mas":6,"pct_migrante":17,"dependencia_econ":80,"pct_empleados":30,"pct_cuentapropia":40,"pct_agricultura":40,"pct_comercio":0,"pct_manufactura":0,"pct_construccion":30,"pct_transporte":10,"pct_alojamiento":10,"pct_sin_educacion":7,"pct_educ_superior":14,"brecha_educ":-50,"pct_sin_seguro":39,"pct_sus":61,"pct_seguro_privado":0,"brecha_seguro":-11,"pct_salud_publica":29,"pct_med_tradicional":8,"pct_automedicacion":25,"pct_remedios_caseros":31,"pct_viv_desocupada":50,"pct_alquiler":0,"pct_electricidad":86,"pct_sin_electricidad":14,"pct_agua_red":100,"pct_alcantarillado":57,"pct_camara_septica":0,"pct_pozo_ciego":29,"pct_sin_desague":14,"pct_gas_red":14,"pct_gas_garrafa":57,"pct_lena_guano":29,"pct_basura_formal":86,"pct_basura_quema":14,"pct_basura_informal":0,"pct_internet":86,"pct_celular":86,"pct_televisor":43}},{"type":"Feature","geometry":{"type":"Polygon","coordinates":[[[-65.57976,-17.57253],[-65.57948,-17.57263],[-65.57972,-17.57333],[-65.58001,-17.57323],[-65.57976,-17.57253]]]},"properties":{"n":"VACAS","p":31,"personas_x_ha":118,"masculinidad":182,"pct_menor20":39,"pct_60mas":13,"pct_migrante":32,"dependencia_econ":72,"pct_empleados":28,"pct_cuentapropia":50,"pct_agricultura":39,"pct_comercio":28,"pct_manufactura":0,"pct_construccion":0,"pct_transporte":6,"pct_alojamiento":0,"pct_sin_educacion":0,"pct_educ_superior":33,"brecha_educ":-21,"pct_sin_seguro":6,"pct_sus":87,"pct_seguro_privado":0,"brecha_seguro":10,"pct_salud_publica":75,"pct_med_tradicional":2,"pct_automedicacion":5,"pct_remedios_caseros":12,"pct_viv_desocupada":15,"pct_alquiler":0,"pct_electricidad":100,"pct_sin_electricidad":0,"pct_agua_red":100,"pct_alcantarillado":88,"pct_camara_septica":0,"pct_pozo_ciego":0,"pct_sin_desague":12,"pct_gas_red":0,"pct_gas_garrafa":100,"pct_lena_guano":0,"pct_basura_formal":62,"pct_basura_quema":25,"pct_basura_informal":12,"pct_internet":62,"pct_celular":75,"pct_televisor":50}},{"type":"Feature","geometry":{"type":"Polygon","coordinates":[[[-65.58002,-17.57627],[-65.57823,-17.57771],[-65.57799,-17.57736],[-65.57791,-17.5771],[-65.57791,-17.576],[-65.57808,-17.57588],[-65.57966,-17.5752],[-65.58002,-17.57627]]]},"properties":{"n":"VACAS","p":63,"personas_x_ha":17,"masculinidad":110,"pct_menor20":33,"pct_60mas":22,"pct_migrante":17,"dependencia_econ":35,"pct_empleados":22,"pct_cuentapropia":35,"pct_agricultura":43,"pct_comercio":11,"pct_manufactura":2,"pct_construccion":2,"pct_transporte":4,"pct_alojamiento":11,"pct_sin_educacion":28,"pct_educ_superior":30,"brecha_educ":-18,"pct_sin_seguro":3,"pct_sus":71,"pct_seguro_privado":0,"brecha_seguro":0,"pct_salud_publica":28,"pct_med_tradicional":11,"pct_automedicacion":16,"pct_remedios_caseros":22,"pct_viv_desocupada":17,"pct_alquiler":0,"pct_electricidad":88,"pct_sin_electricidad":6,"pct_agua_red":71,"pct_alcantarillado":71,"pct_camara_septica":18,"pct_pozo_ciego":12,"pct_sin_desague":0,"pct_gas_red":47,"pct_gas_garrafa":53,"pct_lena_guano":0,"pct_basura_formal":53,"pct_basura_quema":35,"pct_basura_informal":12,"pct_internet":53,"pct_celular":76,"pct_televisor":71}},{"type":"Feature","geometry":{"type":"Polygon","coordinates":[[[-65.58224,-17.57315],[-65.58244,-17.57333],[-65.58172,-17.57378],[-65.58157,-17.57347],[-65.58224,-17.57315]]]},"properties":{"n":"VACAS","p":32,"personas_x_ha":107,"masculinidad":113,"pct_menor20":56,"pct_60mas":6,"pct_migrante":22,"dependencia_econ":100,"pct_empleados":19,"pct_cuentapropia":25,"pct_agricultura":25,"pct_comercio":31,"pct_manufactura":0,"pct_construccion":6,"pct_transporte":6,"pct_alojamiento":0,"pct_sin_educacion":7,"pct_educ_superior":33,"brecha_educ":-38,"pct_sin_seguro":3,"pct_sus":97,"pct_seguro_privado":0,"brecha_seguro":6,"pct_salud_publica":38,"pct_med_tradicional":15,"pct_automedicacion":6,"pct_remedios_caseros":17,"pct_viv_desocupada":29,"pct_alquiler":12,"pct_electricidad":100,"pct_sin_electricidad":0,"pct_agua_red":100,"pct_alcantarillado":0,"pct_camara_septica":0,"pct_pozo_ciego":50,"pct_sin_desague":38,"pct_gas_red":62,"pct_gas_garrafa":38,"pct_lena_guano":0,"pct_basura_formal":25,"pct_basura_quema":62,"pct_basura_informal":12,"pct_internet":88,"pct_celular":88,"pct_televisor":75}},{"type":"Feature","geometry":{"type":"Polygon","coordinates":[[[-65.58166,-17.57506],[-65.5814,-17.57456],[-65.58069,-17.5748],[-65.58098,-17.57553],[-65.58136,-17.57534],[-65.58166,-17.57506]]]},"properties":{"n":"VACAS","p":23,"personas_x_ha":36,"masculinidad":130,"pct_menor20":52,"pct_60mas":9,"pct_migrante":30,"dependencia_econ":92,"pct_empleados":25,"pct_cuentapropia":58,"pct_agricultura":50,"pct_comercio":17,"pct_manufactura":0,"pct_construccion":0,"pct_transporte":0,"pct_alojamiento":0,"pct_sin_educacion":0,"pct_educ_superior":50,"brecha_educ":29,"pct_sin_seguro":13,"pct_sus":65,"pct_seguro_privado":0,"brecha_seguro":5,"pct_salud_publica":19,"pct_med_tradicional":14,"pct_automedicacion":18,"pct_remedios_caseros":25,"pct_viv_desocupada":0,"pct_alquiler":11,"pct_electricidad":100,"pct_sin_electricidad":0,"pct_agua_red":100,"pct_alcantarillado":100,"pct_camara_septica":0,"pct_pozo_ciego":0,"pct_sin_desague":0,"pct_gas_red":44,"pct_gas_garrafa":56,"pct_lena_guano":0,"pct_basura_formal":100,"pct_basura_quema":0,"pct_basura_informal":0,"pct_internet":89,"pct_celular":100,"pct_televisor":78}},{"type":"Feature","geometry":{"type":"Polygon","coordinates":[[[-65.5808,-17.57777],[-65.58048,-17.57727],[-65.58007,-17.57638],[-65.57913,-17.57712],[-65.57958,-17.57883],[-65.5808,-17.57777]]]},"properties":{"n":"VACAS","p":36,"personas_x_ha":14,"masculinidad":140,"pct_menor20":31,"pct_60mas":22,"pct_migrante":8,"dependencia_econ":71,"pct_empleados":29,"pct_cuentapropia":48,"pct_agricultura":29,"pct_comercio":24,"pct_manufactura":0,"pct_construccion":5,"pct_transporte":10,"pct_alojamiento":14,"pct_sin_educacion":4,"pct_educ_superior":40,"brecha_educ":5,"pct_sin_seguro":3,"pct_sus":69,"pct_seguro_privado":0,"brecha_seguro":-7,"pct_salud_publica":27,"pct_med_tradicional":5,"pct_automedicacion":21,"pct_remedios_caseros":23,"pct_viv_desocupada":7,"pct_alquiler":0,"pct_electricidad":73,"pct_sin_electricidad":18,"pct_agua_red":100,"pct_alcantarillado":45,"pct_camara_septica":9,"pct_pozo_ciego":9,"pct_sin_desague":36,"pct_gas_red":9,"pct_gas_garrafa":91,"pct_lena_guano":0,"pct_basura_formal":82,"pct_basura_quema":18,"pct_basura_informal":0,"pct_internet":55,"pct_celular":82,"pct_televisor":73}},{"type":"Feature","geometry":{"type":"Polygon","coordinates":[[[-65.58004,-17.57331],[-65.57973,-17.57338],[-65.5799,-17.57389],[-65.58022,-17.57377],[-65.58004,-17.57331]]]},"properties":{"n":"VACAS","p":15,"personas_x_ha":74,"masculinidad":50,"pct_menor20":27,"pct_60mas":40,"pct_migrante":53,"dependencia_econ":88,"pct_empleados":50,"pct_cuentapropia":50,"pct_agricultura":38,"pct_comercio":0,"pct_manufactura":0,"pct_construccion":0,"pct_transporte":0,"pct_alojamiento":12,"pct_sin_educacion":18,"pct_educ_superior":18,"brecha_educ":-18,"pct_sin_seguro":20,"pct_sus":40,"pct_seguro_privado":0,"brecha_seguro":0,"pct_salud_publica":20,"pct_med_tradicional":9,"pct_automedicacion":18,"pct_remedios_caseros":18,"pct_viv_desocupada":0,"pct_alquiler":0,"pct_electricidad":100,"pct_sin_electricidad":0,"pct_agua_red":80,"pct_alcantarillado":100,"pct_camara_septica":0,"pct_pozo_ciego":0,"pct_sin_desague":0,"pct_gas_red":40,"pct_gas_garrafa":40,"pct_lena_guano":20,"pct_basura_formal":100,"pct_basura_quema":0,"pct_basura_informal":0,"pct_internet":60,"pct_celular":100,"pct_televisor":60}},{"type":"Feature","geometry":{"type":"Polygon","coordinates":[[[-65.58175,-17.57518],[-65.58211,-17.57573],[-65.58173,-17.57512],[-65.58273,-17.57393],[-65.58273,-17.57411],[-65.58254,-17.57453],[-65.58257,-17.57481],[-65.58285,-17.57532],[-65.58289,-17.57562],[-65.58307,-17.57585],[-65.58173,-17.57698],[-65.58102,-17.57572],[-65.58175,-17.57518]]]},"properties":{"n":"VACAS","p":26,"personas_x_ha":8,"masculinidad":100,"pct_menor20":38,"pct_60mas":12,"pct_migrante":12,"dependencia_econ":100,"pct_empleados":23,"pct_cuentapropia":62,"pct_agricultura":46,"pct_comercio":31,"pct_manufactura":0,"pct_construccion":0,"pct_transporte":0,"pct_alojamiento":0,"pct_sin_educacion":12,"pct_educ_superior":24,"brecha_educ":-3,"pct_sin_seguro":0,"pct_sus":58,"pct_seguro_privado":0,"brecha_seguro":0,"pct_salud_publica":27,"pct_med_tradicional":22,"pct_automedicacion":20,"pct_remedios_caseros":20,"pct_viv_desocupada":0,"pct_alquiler":0,"pct_electricidad":100,"pct_sin_electricidad":0,"pct_agua_red":83,"pct_alcantarillado":67,"pct_camara_septica":17,"pct_pozo_ciego":17,"pct_sin_desague":0,"pct_gas_red":0,"pct_gas_garrafa":100,"pct_lena_guano":0,"pct_basura_formal":33,"pct_basura_quema":33,"pct_basura_informal":33,"pct_internet":83,"pct_celular":100,"pct_televisor":83}},{"type":"Feature","geometry":{"type":"Polygon","coordinates":[[[-65.58012,-17.57637],[-65.58052,-17.57605],[-65.58104,-17.57755],[-65.58088,-17.57772],[-65.58054,-17.57724],[-65.58012,-17.57637]]]},"properties":{"n":"VACAS","p":25,"personas_x_ha":35,"masculinidad":92,"pct_menor20":40,"pct_60mas":8,"pct_migrante":4,"dependencia_econ":67,"pct_empleados":27,"pct_cuentapropia":60,"pct_agricultura":20,"pct_comercio":7,"pct_manufactura":13,"pct_construccion":13,"pct_transporte":0,"pct_alojamiento":7,"pct_sin_educacion":20,"pct_educ_superior":20,"brecha_educ":-9,"pct_sin_seguro":4,"pct_sus":72,"pct_seguro_privado":0,"brecha_seguro":8,"pct_salud_publica":29,"pct_med_tradicional":10,"pct_automedicacion":9,"pct_remedios_caseros":29,"pct_viv_desocupada":19,"pct_alquiler":9,"pct_electricidad":100,"pct_sin_electricidad":0,"pct_agua_red":100,"pct_alcantarillado":100,"pct_camara_septica":0,"pct_pozo_ciego":0,"pct_sin_desague":0,"pct_gas_red":0,"pct_gas_garrafa":82,"pct_lena_guano":18,"pct_basura_formal":82,"pct_basura_quema":9,"pct_basura_informal":9,"pct_internet":64,"pct_celular":100,"pct_televisor":82}},{"type":"Feature","geometry":{"type":"Polygon","coordinates":[[[-65.58155,-17.57694],[-65.58096,-17.57573],[-65.58058,-17.57601],[-65.58111,-17.57746],[-65.58153,-17.57712],[-65.58155,-17.57694]]]},"properties":{"n":"VACAS","p":46,"personas_x_ha":48,"masculinidad":100,"pct_menor20":54,"pct_60mas":2,"pct_migrante":11,"dependencia_econ":92,"pct_empleados":17,"pct_cuentapropia":75,"pct_agricultura":38,"pct_comercio":29,"pct_manufactura":0,"pct_construccion":17,"pct_transporte":12,"pct_alojamiento":4,"pct_sin_educacion":5,"pct_educ_superior":5,"brecha_educ":-40,"pct_sin_seguro":9,"pct_sus":89,"pct_seguro_privado":0,"brecha_seguro":17,"pct_salud_publica":27,"pct_med_tradicional":14,"pct_automedicacion":18,"pct_remedios_caseros":36,"pct_viv_desocupada":0,"pct_alquiler":7,"pct_electricidad":67,"pct_sin_electricidad":33,"pct_agua_red":80,"pct_alcantarillado":67,"pct_camara_septica":0,"pct_pozo_ciego":0,"pct_sin_desague":33,"pct_gas_red":0,"pct_gas_garrafa":100,"pct_lena_guano":0,"pct_basura_formal":73,"pct_basura_quema":13,"pct_basura_informal":13,"pct_internet":80,"pct_celular":87,"pct_televisor":80}},{"type":"Feature","geometry":{"type":"Polygon","coordinates":[[[-65.57841,-17.57448],[-65.57931,-17.57415],[-65.57965,-17.57514],[-65.57885,-17.5755],[-65.57874,-17.57532],[-65.57882,-17.57551],[-65.57793,-17.57582],[-65.57789,-17.57478],[-65.57841,-17.57448]]]},"properties":{"n":"VACAS","p":40,"personas_x_ha":18,"masculinidad":100,"pct_menor20":38,"pct_60mas":22,"pct_migrante":22,"dependencia_econ":76,"pct_empleados":38,"pct_cuentapropia":57,"pct_agricultura":62,"pct_comercio":5,"pct_manufactura":0,"pct_construccion":10,"pct_transporte":0,"pct_alojamiento":5,"pct_sin_educacion":28,"pct_educ_superior":20,"brecha_educ":-30,"pct_sin_seguro":3,"pct_sus":92,"pct_seguro_privado":0,"brecha_seguro":6,"pct_salud_publica":24,"pct_med_tradicional":14,"pct_automedicacion":23,"pct_remedios_caseros":26,"pct_viv_desocupada":0,"pct_alquiler":19,"pct_electricidad":76,"pct_sin_electricidad":24,"pct_agua_red":90,"pct_alcantarillado":67,"pct_camara_septica":10,"pct_pozo_ciego":5,"pct_sin_desague":19,"pct_gas_red":0,"pct_gas_garrafa":76,"pct_lena_guano":19,"pct_basura_formal":33,"pct_basura_quema":38,"pct_basura_informal":24,"pct_internet":67,"pct_celular":90,"pct_televisor":29}},{"type":"Feature","geometry":{"type":"Polygon","coordinates":[[[-65.58059,-17.57477],[-65.58023,-17.57382],[-65.57992,-17.57392],[-65.58023,-17.57491],[-65.58059,-17.57477]]]},"properties":{"n":"VACAS","p":16,"personas_x_ha":37,"masculinidad":100,"pct_menor20":12,"pct_60mas":25,"pct_migrante":50,"dependencia_econ":33,"pct_empleados":25,"pct_cuentapropia":67,"pct_agricultura":17,"pct_comercio":17,"pct_manufactura":0,"pct_construccion":0,"pct_transporte":0,"pct_alojamiento":8,"pct_sin_educacion":0,"pct_educ_superior":57,"brecha_educ":-29,"pct_sin_seguro":6,"pct_sus":50,"pct_seguro_privado":0,"brecha_seguro":12,"pct_salud_publica":20,"pct_med_tradicional":11,"pct_automedicacion":22,"pct_remedios_caseros":22,"pct_viv_desocupada":9,"pct_alquiler":14,"pct_electricidad":100,"pct_sin_electricidad":0,"pct_agua_red":100,"pct_alcantarillado":86,"pct_camara_septica":0,"pct_pozo_ciego":0,"pct_sin_desague":14,"pct_gas_red":14,"pct_gas_garrafa":86,"pct_lena_guano":0,"pct_basura_formal":86,"pct_basura_quema":0,"pct_basura_informal":14,"pct_internet":100,"pct_celular":100,"pct_televisor":86}},{"type":"Feature","geometry":{"type":"Polygon","coordinates":[[[-65.57793,-17.5731],[-65.57776,-17.57301],[-65.57756,-17.5725],[-65.57763,-17.57239],[-65.5788,-17.57218],[-65.57891,-17.57276],[-65.57793,-17.5731]]]},"properties":{"n":"VACAS","p":16,"personas_x_ha":16,"masculinidad":220,"pct_menor20":0,"pct_60mas":12,"pct_migrante":75,"dependencia_econ":0,"pct_empleados":81,"pct_cuentapropia":12,"pct_agricultura":6,"pct_comercio":0,"pct_manufactura":12,"pct_construccion":6,"pct_transporte":0,"pct_alojamiento":0,"pct_sin_educacion":0,"pct_educ_superior":88,"brecha_educ":-20,"pct_sin_seguro":7,"pct_sus":40,"pct_seguro_privado":0,"brecha_seguro":10,"pct_salud_publica":24,"pct_med_tradicional":7,"pct_automedicacion":21,"pct_remedios_caseros":24,"pct_viv_desocupada":0,"pct_alquiler":89,"pct_electricidad":100,"pct_sin_electricidad":0,"pct_agua_red":100,"pct_alcantarillado":100,"pct_camara_septica":0,"pct_pozo_ciego":0,"pct_sin_desague":0,"pct_gas_red":0,"pct_gas_garrafa":89,"pct_lena_guano":0,"pct_basura_formal":100,"pct_basura_quema":0,"pct_basura_informal":0,"pct_internet":89,"pct_celular":89,"pct_televisor":22}}]}