{"type":"FeatureCollection","features":[{"type":"Feature","geometry":{"type":"Polygon","coordinates":[[[-66.39537,-17.88323],[-66.39502,-17.88346],[-66.39495,-17.88323],[-66.39491,-17.88324],[-66.395,-17.88347],[-66.39454,-17.88354],[-66.39455,-17.88335],[-66.39453,-17.88354],[-66.39419,-17.88351],[-66.3941,-17.8832],[-66.39431,-17.88321],[-66.3945,-17.88299],[-66.39431,-17.8832],[-66.3941,-17.88319],[-66.39405,-17.883],[-66.39422,-17.88293],[-66.39405,-17.88299],[-66.39401,-17.88275],[-66.39412,-17.88266],[-66.39428,-17.88282],[-66.39437,-17.88277],[-66.39427,-17.88265],[-66.39465,-17.88242],[-66.39491,-17.88255],[-66.39525,-17.88254],[-66.39537,-17.88323]]]},"properties":{"n":"ABRA KHASA","p":69,"personas_x_ha":52,"masculinidad":109,"pct_menor20":51,"pct_60mas":6,"pct_migrante":12,"dependencia_econ":245,"pct_empleados":5,"pct_cuentapropia":80,"pct_agricultura":30,"pct_comercio":0,"pct_manufactura":0,"pct_construccion":0,"pct_transporte":0,"pct_alojamiento":0,"pct_sin_educacion":9,"pct_educ_superior":3,"brecha_educ":-24,"pct_sin_seguro":12,"pct_sus":51,"pct_seguro_privado":1,"brecha_seguro":0,"pct_salud_publica":67,"pct_med_tradicional":0,"pct_automedicacion":0,"pct_remedios_caseros":7,"pct_viv_desocupada":0,"pct_alquiler":0,"pct_electricidad":95,"pct_sin_electricidad":0,"pct_agua_red":57,"pct_alcantarillado":5,"pct_camara_septica":5,"pct_pozo_ciego":0,"pct_sin_desague":90,"pct_gas_red":0,"pct_gas_garrafa":48,"pct_lena_guano":52,"pct_basura_formal":0,"pct_basura_quema":76,"pct_basura_informal":10,"pct_internet":90,"pct_celular":90,"pct_televisor":76}},{"type":"Feature","geometry":{"type":"Polygon","coordinates":[[[-66.39364,-17.88345],[-66.39358,-17.88331],[-66.39351,-17.88306],[-66.39356,-17.88327],[-66.39348,-17.88329],[-66.39341,-17.88334],[-66.39298,-17.88271],[-66.39361,-17.88221],[-66.39376,-17.88222],[-66.39395,-17.88237],[-66.39388,-17.88293],[-66.39394,-17.88313],[-66.39374,-17.88361],[-66.39341,-17.88335],[-66.39348,-17.8833],[-66.39364,-17.88345]]]},"properties":{"n":"ABRA KHASA","p":22,"personas_x_ha":23,"masculinidad":69,"pct_menor20":27,"pct_60mas":14,"pct_migrante":27,"dependencia_econ":57,"pct_empleados":7,"pct_cuentapropia":71,"pct_agricultura":29,"pct_comercio":14,"pct_manufactura":0,"pct_construccion":0,"pct_transporte":0,"pct_alojamiento":7,"pct_sin_educacion":18,"pct_educ_superior":18,"brecha_educ":-21,"pct_sin_seguro":10,"pct_sus":57,"pct_seguro_privado":0,"brecha_seguro":3,"pct_salud_publica":37,"pct_med_tradicional":7,"pct_automedicacion":10,"pct_remedios_caseros":22,"pct_viv_desocupada":5,"pct_alquiler":0,"pct_electricidad":100,"pct_sin_electricidad":0,"pct_agua_red":58,"pct_alcantarillado":0,"pct_camara_septica":0,"pct_pozo_ciego":0,"pct_sin_desague":92,"pct_gas_red":0,"pct_gas_garrafa":75,"pct_lena_guano":25,"pct_basura_formal":0,"pct_basura_quema":83,"pct_basura_informal":8,"pct_internet":75,"pct_celular":92,"pct_televisor":67}},{"type":"Feature","geometry":{"type":"Polygon","coordinates":[[[-66.40374,-17.82101],[-66.40311,-17.82091],[-66.40334,-17.82036],[-66.40396,-17.82052],[-66.40374,-17.82101]]]},"properties":{"n":"ARQUE","p":29,"personas_x_ha":66,"masculinidad":142,"pct_menor20":34,"pct_60mas":14,"pct_migrante":31,"dependencia_econ":71,"pct_empleados":41,"pct_cuentapropia":35,"pct_agricultura":29,"pct_comercio":6,"pct_manufactura":0,"pct_construccion":6,"pct_transporte":6,"pct_alojamiento":12,"pct_sin_educacion":15,"pct_educ_superior":25,"brecha_educ":-12,"pct_sin_seguro":0,"pct_sus":55,"pct_seguro_privado":0,"brecha_seguro":0,"pct_salud_publica":27,"pct_med_tradicional":3,"pct_automedicacion":13,"pct_remedios_caseros":39,"pct_viv_desocupada":0,"pct_alquiler":10,"pct_electricidad":80,"pct_sin_electricidad":20,"pct_agua_red":100,"pct_alcantarillado":70,"pct_camara_septica":0,"pct_pozo_ciego":0,"pct_sin_desague":30,"pct_gas_red":0,"pct_gas_garrafa":40,"pct_lena_guano":60,"pct_basura_formal":10,"pct_basura_quema":90,"pct_basura_informal":0,"pct_internet":50,"pct_celular":50,"pct_televisor":20}},{"type":"Feature","geometry":{"type":"Polygon","coordinates":[[[-66.40266,-17.82208],[-66.40281,-17.82214],[-66.40315,-17.82157],[-66.40292,-17.82145],[-66.40268,-17.82145],[-66.40233,-17.8217],[-66.40266,-17.82208]]]},"properties":{"n":"ARQUE","p":24,"personas_x_ha":62,"masculinidad":71,"pct_menor20":29,"pct_60mas":29,"pct_migrante":29,"dependencia_econ":118,"pct_empleados":45,"pct_cuentapropia":27,"pct_agricultura":9,"pct_comercio":36,"pct_manufactura":9,"pct_construccion":0,"pct_transporte":9,"pct_alojamiento":0,"pct_sin_educacion":6,"pct_educ_superior":35,"brecha_educ":-14,"pct_sin_seguro":21,"pct_sus":50,"pct_seguro_privado":0,"brecha_seguro":16,"pct_salud_publica":22,"pct_med_tradicional":15,"pct_automedicacion":14,"pct_remedios_caseros":32,"pct_viv_desocupada":0,"pct_alquiler":29,"pct_electricidad":100,"pct_sin_electricidad":0,"pct_agua_red":100,"pct_alcantarillado":79,"pct_camara_septica":0,"pct_pozo_ciego":0,"pct_sin_desague":21,"pct_gas_red":0,"pct_gas_garrafa":79,"pct_lena_guano":7,"pct_basura_formal":21,"pct_basura_quema":7,"pct_basura_informal":29,"pct_internet":93,"pct_celular":100,"pct_televisor":43}},{"type":"Feature","geometry":{"type":"Polygon","coordinates":[[[-66.4044,-17.82214],[-66.4051,-17.82247],[-66.40519,-17.82229],[-66.40508,-17.82185],[-66.40456,-17.82164],[-66.4044,-17.82214]]]},"properties":{"n":"ARQUE","p":20,"personas_x_ha":42,"masculinidad":186,"pct_menor20":30,"pct_60mas":20,"pct_migrante":30,"dependencia_econ":67,"pct_empleados":17,"pct_cuentapropia":83,"pct_agricultura":17,"pct_comercio":0,"pct_manufactura":0,"pct_construccion":25,"pct_transporte":17,"pct_alojamiento":0,"pct_sin_educacion":7,"pct_educ_superior":43,"brecha_educ":-25,"pct_sin_seguro":5,"pct_sus":70,"pct_seguro_privado":0,"brecha_seguro":8,"pct_salud_publica":20,"pct_med_tradicional":8,"pct_automedicacion":18,"pct_remedios_caseros":31,"pct_viv_desocupada":15,"pct_alquiler":9,"pct_electricidad":100,"pct_sin_electricidad":0,"pct_agua_red":100,"pct_alcantarillado":73,"pct_camara_septica":0,"pct_pozo_ciego":9,"pct_sin_desague":18,"pct_gas_red":0,"pct_gas_garrafa":91,"pct_lena_guano":9,"pct_basura_formal":45,"pct_basura_quema":55,"pct_basura_informal":0,"pct_internet":100,"pct_celular":100,"pct_televisor":55}},{"type":"Feature","geometry":{"type":"Polygon","coordinates":[[[-66.40266,-17.82251],[-66.40329,-17.82275],[-66.40343,-17.82255],[-66.40284,-17.82221],[-66.40266,-17.82251]]]},"properties":{"n":"ARQUE","p":25,"personas_x_ha":99,"masculinidad":79,"pct_menor20":16,"pct_60mas":24,"pct_migrante":48,"dependencia_econ":39,"pct_empleados":39,"pct_cuentapropia":50,"pct_agricultura":6,"pct_comercio":17,"pct_manufactura":0,"pct_construccion":0,"pct_transporte":22,"pct_alojamiento":11,"pct_sin_educacion":0,"pct_educ_superior":33,"brecha_educ":-17,"pct_sin_seguro":4,"pct_sus":84,"pct_seguro_privado":0,"brecha_seguro":9,"pct_salud_publica":43,"pct_med_tradicional":16,"pct_automedicacion":12,"pct_remedios_caseros":10,"pct_viv_desocupada":0,"pct_alquiler":17,"pct_electricidad":83,"pct_sin_electricidad":17,"pct_agua_red":83,"pct_alcantarillado":75,"pct_camara_septica":0,"pct_pozo_ciego":0,"pct_sin_desague":25,"pct_gas_red":0,"pct_gas_garrafa":100,"pct_lena_guano":0,"pct_basura_formal":58,"pct_basura_quema":0,"pct_basura_informal":25,"pct_internet":25,"pct_celular":83,"pct_televisor":50}},{"type":"Feature","geometry":{"type":"Polygon","coordinates":[[[-66.40322,-17.82153],[-66.40384,-17.82184],[-66.40409,-17.82137],[-66.40345,-17.82115],[-66.40322,-17.82153]]]},"properties":{"n":"ARQUE","p":20,"personas_x_ha":48,"masculinidad":67,"pct_menor20":10,"pct_60mas":20,"pct_migrante":40,"dependencia_econ":11,"pct_empleados":22,"pct_cuentapropia":67,"pct_agricultura":22,"pct_comercio":6,"pct_manufactura":6,"pct_construccion":17,"pct_transporte":0,"pct_alojamiento":0,"pct_sin_educacion":6,"pct_educ_superior":61,"brecha_educ":10,"pct_sin_seguro":16,"pct_sus":47,"pct_seguro_privado":0,"brecha_seguro":-2,"pct_salud_publica":24,"pct_med_tradicional":5,"pct_automedicacion":7,"pct_remedios_caseros":27,"pct_viv_desocupada":0,"pct_alquiler":0,"pct_electricidad":100,"pct_sin_electricidad":0,"pct_agua_red":83,"pct_alcantarillado":100,"pct_camara_septica":0,"pct_pozo_ciego":0,"pct_sin_desague":0,"pct_gas_red":0,"pct_gas_garrafa":83,"pct_lena_guano":17,"pct_basura_formal":67,"pct_basura_quema":0,"pct_basura_informal":17,"pct_internet":50,"pct_celular":50,"pct_televisor":50}},{"type":"Feature","geometry":{"type":"Polygon","coordinates":[[[-66.40352,-17.82252],[-66.4042,-17.82284],[-66.40432,-17.82216],[-66.40383,-17.82194],[-66.40352,-17.82252]]]},"properties":{"n":"ARQUE","p":39,"personas_x_ha":74,"masculinidad":105,"pct_menor20":36,"pct_60mas":15,"pct_migrante":46,"dependencia_econ":90,"pct_empleados":55,"pct_cuentapropia":35,"pct_agricultura":15,"pct_comercio":0,"pct_manufactura":10,"pct_construccion":10,"pct_transporte":15,"pct_alojamiento":0,"pct_sin_educacion":4,"pct_educ_superior":44,"brecha_educ":12,"pct_sin_seguro":8,"pct_sus":69,"pct_seguro_privado":0,"brecha_seguro":-7,"pct_salud_publica":45,"pct_med_tradicional":3,"pct_automedicacion":11,"pct_remedios_caseros":21,"pct_viv_desocupada":9,"pct_alquiler":18,"pct_electricidad":94,"pct_sin_electricidad":6,"pct_agua_red":88,"pct_alcantarillado":76,"pct_camara_septica":12,"pct_pozo_ciego":0,"pct_sin_desague":6,"pct_gas_red":0,"pct_gas_garrafa":94,"pct_lena_guano":0,"pct_basura_formal":59,"pct_basura_quema":24,"pct_basura_informal":18,"pct_internet":65,"pct_celular":88,"pct_televisor":59}},{"type":"Feature","geometry":{"type":"Polygon","coordinates":[[[-66.40456,-17.82156],[-66.40496,-17.82175],[-66.40504,-17.82171],[-66.40478,-17.82107],[-66.40469,-17.82105],[-66.40456,-17.82156]]]},"properties":{"n":"ARQUE","p":21,"personas_x_ha":96,"masculinidad":133,"pct_menor20":38,"pct_60mas":19,"pct_migrante":14,"dependencia_econ":91,"pct_empleados":9,"pct_cuentapropia":64,"pct_agricultura":55,"pct_comercio":0,"pct_manufactura":0,"pct_construccion":27,"pct_transporte":9,"pct_alojamiento":0,"pct_sin_educacion":8,"pct_educ_superior":15,"brecha_educ":-68,"pct_sin_seguro":10,"pct_sus":57,"pct_seguro_privado":0,"brecha_seguro":-3,"pct_salud_publica":30,"pct_med_tradicional":3,"pct_automedicacion":30,"pct_remedios_caseros":32,"pct_viv_desocupada":0,"pct_alquiler":0,"pct_electricidad":86,"pct_sin_electricidad":14,"pct_agua_red":100,"pct_alcantarillado":71,"pct_camara_septica":0,"pct_pozo_ciego":0,"pct_sin_desague":29,"pct_gas_red":0,"pct_gas_garrafa":57,"pct_lena_guano":43,"pct_basura_formal":0,"pct_basura_quema":57,"pct_basura_informal":29,"pct_internet":43,"pct_celular":71,"pct_televisor":43}},{"type":"Feature","geometry":{"type":"Polygon","coordinates":[[[-66.40427,-17.8229],[-66.40482,-17.82312],[-66.40501,-17.8225],[-66.40439,-17.82221],[-66.40427,-17.8229]]]},"properties":{"n":"ARQUE","p":30,"personas_x_ha":58,"masculinidad":67,"pct_menor20":20,"pct_60mas":20,"pct_migrante":27,"dependencia_econ":53,"pct_empleados":47,"pct_cuentapropia":53,"pct_agricultura":16,"pct_comercio":11,"pct_manufactura":5,"pct_construccion":0,"pct_transporte":5,"pct_alojamiento":11,"pct_sin_educacion":8,"pct_educ_superior":46,"brecha_educ":-16,"pct_sin_seguro":0,"pct_sus":65,"pct_seguro_privado":0,"brecha_seguro":0,"pct_salud_publica":47,"pct_med_tradicional":2,"pct_automedicacion":15,"pct_remedios_caseros":11,"pct_viv_desocupada":10,"pct_alquiler":38,"pct_electricidad":100,"pct_sin_electricidad":0,"pct_agua_red":100,"pct_alcantarillado":81,"pct_camara_septica":0,"pct_pozo_ciego":0,"pct_sin_desague":19,"pct_gas_red":0,"pct_gas_garrafa":88,"pct_lena_guano":12,"pct_basura_formal":12,"pct_basura_quema":69,"pct_basura_informal":19,"pct_internet":44,"pct_celular":81,"pct_televisor":31}},{"type":"Feature","geometry":{"type":"Polygon","coordinates":[[[-66.40398,-17.82053],[-66.40375,-17.82105],[-66.40362,-17.82098],[-66.40356,-17.82109],[-66.40412,-17.82133],[-66.40444,-17.82074],[-66.40398,-17.82053]]]},"properties":{"n":"ARQUE","p":31,"personas_x_ha":76,"masculinidad":72,"pct_menor20":39,"pct_60mas":23,"pct_migrante":29,"dependencia_econ":138,"pct_empleados":31,"pct_cuentapropia":38,"pct_agricultura":15,"pct_comercio":0,"pct_manufactura":23,"pct_construccion":15,"pct_transporte":0,"pct_alojamiento":0,"pct_sin_educacion":11,"pct_educ_superior":32,"brecha_educ":-41,"pct_sin_seguro":3,"pct_sus":97,"pct_seguro_privado":0,"brecha_seguro":8,"pct_salud_publica":53,"pct_med_tradicional":7,"pct_automedicacion":10,"pct_remedios_caseros":15,"pct_viv_desocupada":0,"pct_alquiler":25,"pct_electricidad":83,"pct_sin_electricidad":17,"pct_agua_red":100,"pct_alcantarillado":92,"pct_camara_septica":0,"pct_pozo_ciego":0,"pct_sin_desague":8,"pct_gas_red":0,"pct_gas_garrafa":83,"pct_lena_guano":8,"pct_basura_formal":8,"pct_basura_quema":75,"pct_basura_informal":17,"pct_internet":67,"pct_celular":75,"pct_televisor":25}},{"type":"Feature","geometry":{"type":"Polygon","coordinates":[[[-66.40416,-17.82136],[-66.40451,-17.82154],[-66.40468,-17.82088],[-66.40449,-17.82077],[-66.40416,-17.82136]]]},"properties":{"n":"ARQUE","p":34,"personas_x_ha":136,"masculinidad":70,"pct_menor20":29,"pct_60mas":21,"pct_migrante":50,"dependencia_econ":112,"pct_empleados":50,"pct_cuentapropia":44,"pct_agricultura":12,"pct_comercio":12,"pct_manufactura":12,"pct_construccion":0,"pct_transporte":0,"pct_alojamiento":0,"pct_sin_educacion":17,"pct_educ_superior":33,"brecha_educ":-13,"pct_sin_seguro":9,"pct_sus":70,"pct_seguro_privado":0,"brecha_seguro":23,"pct_salud_publica":26,"pct_med_tradicional":9,"pct_automedicacion":18,"pct_remedios_caseros":30,"pct_viv_desocupada":0,"pct_alquiler":8,"pct_electricidad":85,"pct_sin_electricidad":8,"pct_agua_red":100,"pct_alcantarillado":62,"pct_camara_septica":0,"pct_pozo_ciego":0,"pct_sin_desague":38,"pct_gas_red":0,"pct_gas_garrafa":62,"pct_lena_guano":31,"pct_basura_formal":15,"pct_basura_quema":69,"pct_basura_informal":15,"pct_internet":85,"pct_celular":85,"pct_televisor":31}},{"type":"Feature","geometry":{"type":"Polygon","coordinates":[[[-66.40404,-17.82305],[-66.40418,-17.8229],[-66.4035,-17.82255],[-66.40335,-17.82279],[-66.40404,-17.82305]]]},"properties":{"n":"ARQUE","p":24,"personas_x_ha":104,"masculinidad":100,"pct_menor20":54,"pct_60mas":4,"pct_migrante":8,"dependencia_econ":140,"pct_empleados":40,"pct_cuentapropia":20,"pct_agricultura":30,"pct_comercio":20,"pct_manufactura":0,"pct_construccion":0,"pct_transporte":0,"pct_alojamiento":0,"pct_sin_educacion":0,"pct_educ_superior":45,"brecha_educ":3,"pct_sin_seguro":0,"pct_sus":100,"pct_seguro_privado":0,"brecha_seguro":0,"pct_salud_publica":39,"pct_med_tradicional":12,"pct_automedicacion":12,"pct_remedios_caseros":34,"pct_viv_desocupada":0,"pct_alquiler":10,"pct_electricidad":100,"pct_sin_electricidad":0,"pct_agua_red":100,"pct_alcantarillado":80,"pct_camara_septica":0,"pct_pozo_ciego":0,"pct_sin_desague":20,"pct_gas_red":0,"pct_gas_garrafa":100,"pct_lena_guano":0,"pct_basura_formal":0,"pct_basura_quema":20,"pct_basura_informal":70,"pct_internet":60,"pct_celular":100,"pct_televisor":80}},{"type":"Feature","geometry":{"type":"Polygon","coordinates":[[[-66.40387,-17.82189],[-66.40437,-17.82211],[-66.40451,-17.82159],[-66.40412,-17.82141],[-66.40387,-17.82189]]]},"properties":{"n":"ARQUE","p":28,"personas_x_ha":88,"masculinidad":133,"pct_menor20":32,"pct_60mas":21,"pct_migrante":25,"dependencia_econ":80,"pct_empleados":27,"pct_cuentapropia":40,"pct_agricultura":33,"pct_comercio":27,"pct_manufactura":0,"pct_construccion":13,"pct_transporte":0,"pct_alojamiento":0,"pct_sin_educacion":21,"pct_educ_superior":47,"brecha_educ":-23,"pct_sin_seguro":4,"pct_sus":74,"pct_seguro_privado":0,"brecha_seguro":7,"pct_salud_publica":28,"pct_med_tradicional":6,"pct_automedicacion":17,"pct_remedios_caseros":25,"pct_viv_desocupada":33,"pct_alquiler":15,"pct_electricidad":100,"pct_sin_electricidad":0,"pct_agua_red":92,"pct_alcantarillado":77,"pct_camara_septica":0,"pct_pozo_ciego":0,"pct_sin_desague":23,"pct_gas_red":0,"pct_gas_garrafa":92,"pct_lena_guano":8,"pct_basura_formal":62,"pct_basura_quema":31,"pct_basura_informal":8,"pct_internet":62,"pct_celular":92,"pct_televisor":38}},{"type":"Feature","geometry":{"type":"Polygon","coordinates":[[[-66.41861,-17.89042],[-66.41812,-17.89029],[-66.41798,-17.88996],[-66.4175,-17.89025],[-66.41785,-17.89074],[-66.41789,-17.89109],[-66.41816,-17.89159],[-66.41865,-17.89146],[-66.41874,-17.89138],[-66.41866,-17.89127],[-66.41874,-17.89137],[-66.419,-17.89125],[-66.41902,-17.89102],[-66.4189,-17.89079],[-66.4188,-17.89085],[-66.41868,-17.89066],[-66.41857,-17.89073],[-66.41855,-17.89097],[-66.41856,-17.89072],[-66.41868,-17.89065],[-66.4188,-17.89084],[-66.4189,-17.89078],[-66.41874,-17.8905],[-66.41861,-17.89042],[-66.41853,-17.89058],[-66.41844,-17.89046],[-66.41853,-17.89057],[-66.41861,-17.89042]]]},"properties":{"n":"BERENGUELA","p":29,"personas_x_ha":19,"masculinidad":93,"pct_menor20":28,"pct_60mas":24,"pct_migrante":24,"dependencia_econ":190,"pct_empleados":0,"pct_cuentapropia":70,"pct_agricultura":20,"pct_comercio":10,"pct_manufactura":10,"pct_construccion":10,"pct_transporte":0,"pct_alojamiento":0,"pct_sin_educacion":10,"pct_educ_superior":10,"brecha_educ":-33,"pct_sin_seguro":14,"pct_sus":82,"pct_seguro_privado":0,"brecha_seguro":-14,"pct_salud_publica":27,"pct_med_tradicional":4,"pct_automedicacion":21,"pct_remedios_caseros":35,"pct_viv_desocupada":4,"pct_alquiler":0,"pct_electricidad":89,"pct_sin_electricidad":6,"pct_agua_red":89,"pct_alcantarillado":0,"pct_camara_septica":0,"pct_pozo_ciego":11,"pct_sin_desague":89,"pct_gas_red":0,"pct_gas_garrafa":11,"pct_lena_guano":89,"pct_basura_formal":0,"pct_basura_quema":89,"pct_basura_informal":6,"pct_internet":72,"pct_celular":83,"pct_televisor":56}},{"type":"Feature","geometry":{"type":"Polygon","coordinates":[[[-66.4196,-17.89125],[-66.41909,-17.89138],[-66.41929,-17.8916],[-66.41942,-17.89163],[-66.41949,-17.89158],[-66.41941,-17.89155],[-66.41932,-17.89148],[-66.4195,-17.89157],[-66.4195,-17.89161],[-66.42009,-17.89136],[-66.42004,-17.89125],[-66.41982,-17.89128],[-66.41993,-17.89125],[-66.42004,-17.89125],[-66.41993,-17.89104],[-66.41975,-17.89104],[-66.4196,-17.89125]]]},"properties":{"n":"BERENGUELA","p":30,"personas_x_ha":90,"masculinidad":88,"pct_menor20":23,"pct_60mas":17,"pct_migrante":33,"dependencia_econ":36,"pct_empleados":27,"pct_cuentapropia":45,"pct_agricultura":59,"pct_comercio":9,"pct_manufactura":9,"pct_construccion":0,"pct_transporte":0,"pct_alojamiento":9,"pct_sin_educacion":4,"pct_educ_superior":30,"brecha_educ":-29,"pct_sin_seguro":0,"pct_sus":80,"pct_seguro_privado":3,"brecha_seguro":0,"pct_salud_publica":36,"pct_med_tradicional":7,"pct_automedicacion":8,"pct_remedios_caseros":16,"pct_viv_desocupada":0,"pct_alquiler":6,"pct_electricidad":62,"pct_sin_electricidad":31,"pct_agua_red":88,"pct_alcantarillado":0,"pct_camara_septica":0,"pct_pozo_ciego":6,"pct_sin_desague":94,"pct_gas_red":0,"pct_gas_garrafa":12,"pct_lena_guano":88,"pct_basura_formal":0,"pct_basura_quema":100,"pct_basura_informal":0,"pct_internet":81,"pct_celular":94,"pct_televisor":12}},{"type":"Feature","geometry":{"type":"Polygon","coordinates":[[[-66.41855,-17.8903],[-66.41854,-17.89017],[-66.41871,-17.89014],[-66.4195,-17.89019],[-66.41983,-17.89036],[-66.41955,-17.89119],[-66.41917,-17.89129],[-66.41911,-17.89093],[-66.41945,-17.89079],[-66.41944,-17.89054],[-66.41962,-17.89054],[-66.41962,-17.89053],[-66.41944,-17.89054],[-66.41943,-17.89038],[-66.4191,-17.8904],[-66.41903,-17.89073],[-66.41855,-17.8903]]]},"properties":{"n":"BERENGUELA","p":19,"personas_x_ha":25,"masculinidad":217,"pct_menor20":0,"pct_60mas":37,"pct_migrante":21,"dependencia_econ":19,"pct_empleados":44,"pct_cuentapropia":12,"pct_agricultura":19,"pct_comercio":12,"pct_manufactura":6,"pct_construccion":12,"pct_transporte":0,"pct_alojamiento":6,"pct_sin_educacion":16,"pct_educ_superior":37,"brecha_educ":-28,"pct_sin_seguro":17,"pct_sus":78,"pct_seguro_privado":0,"brecha_seguro":23,"pct_salud_publica":11,"pct_med_tradicional":10,"pct_automedicacion":24,"pct_remedios_caseros":23,"pct_viv_desocupada":7,"pct_alquiler":0,"pct_electricidad":83,"pct_sin_electricidad":17,"pct_agua_red":67,"pct_alcantarillado":17,"pct_camara_septica":0,"pct_pozo_ciego":0,"pct_sin_desague":83,"pct_gas_red":0,"pct_gas_garrafa":0,"pct_lena_guano":100,"pct_basura_formal":0,"pct_basura_quema":83,"pct_basura_informal":17,"pct_internet":58,"pct_celular":92,"pct_televisor":25}},{"type":"Feature","geometry":{"type":"Polygon","coordinates":[[[-66.4187,-17.85667],[-66.41843,-17.85727],[-66.41813,-17.85768],[-66.4179,-17.85754],[-66.41848,-17.85659],[-66.4187,-17.85667]]]},"properties":{"n":"COLCHA PUEBLO","p":15,"personas_x_ha":39,"masculinidad":114,"pct_menor20":47,"pct_60mas":20,"pct_migrante":20,"dependencia_econ":67,"pct_empleados":33,"pct_cuentapropia":33,"pct_agricultura":44,"pct_comercio":22,"pct_manufactura":0,"pct_construccion":0,"pct_transporte":0,"pct_alojamiento":0,"pct_sin_educacion":12,"pct_educ_superior":12,"brecha_educ":27,"pct_sin_seguro":0,"pct_sus":86,"pct_seguro_privado":0,"brecha_seguro":0,"pct_salud_publica":35,"pct_med_tradicional":0,"pct_automedicacion":2,"pct_remedios_caseros":35,"pct_viv_desocupada":0,"pct_alquiler":0,"pct_electricidad":67,"pct_sin_electricidad":33,"pct_agua_red":83,"pct_alcantarillado":0,"pct_camara_septica":0,"pct_pozo_ciego":0,"pct_sin_desague":100,"pct_gas_red":0,"pct_gas_garrafa":33,"pct_lena_guano":67,"pct_basura_formal":0,"pct_basura_quema":50,"pct_basura_informal":17,"pct_internet":50,"pct_celular":67,"pct_televisor":50}},{"type":"Feature","geometry":{"type":"Polygon","coordinates":[[[-66.39462,-17.82339],[-66.39396,-17.82323],[-66.39378,-17.82314],[-66.39364,-17.82293],[-66.39406,-17.82272],[-66.39446,-17.8229],[-66.39472,-17.82317],[-66.39494,-17.82327],[-66.39541,-17.82333],[-66.39613,-17.82314],[-66.39626,-17.82363],[-66.39596,-17.82368],[-66.39477,-17.82362],[-66.39462,-17.82339]]]},"properties":{"n":"KOCHI","p":26,"personas_x_ha":22,"masculinidad":100,"pct_menor20":31,"pct_60mas":12,"pct_migrante":35,"dependencia_econ":62,"pct_empleados":31,"pct_cuentapropia":50,"pct_agricultura":44,"pct_comercio":0,"pct_manufactura":0,"pct_construccion":19,"pct_transporte":6,"pct_alojamiento":6,"pct_sin_educacion":6,"pct_educ_superior":0,"brecha_educ":-18,"pct_sin_seguro":0,"pct_sus":100,"pct_seguro_privado":0,"brecha_seguro":0,"pct_salud_publica":34,"pct_med_tradicional":16,"pct_automedicacion":6,"pct_remedios_caseros":39,"pct_viv_desocupada":39,"pct_alquiler":0,"pct_electricidad":100,"pct_sin_electricidad":0,"pct_agua_red":82,"pct_alcantarillado":9,"pct_camara_septica":0,"pct_pozo_ciego":18,"pct_sin_desague":73,"pct_gas_red":0,"pct_gas_garrafa":82,"pct_lena_guano":18,"pct_basura_formal":0,"pct_basura_quema":82,"pct_basura_informal":18,"pct_internet":82,"pct_celular":100,"pct_televisor":45}},{"type":"Feature","geometry":{"type":"Polygon","coordinates":[[[-66.39646,-17.82229],[-66.39614,-17.82217],[-66.39581,-17.82223],[-66.39586,-17.82239],[-66.39583,-17.8223],[-66.39581,-17.82223],[-66.39581,-17.82219],[-66.3957,-17.82212],[-66.39561,-17.82217],[-66.39534,-17.82278],[-66.39499,-17.82312],[-66.39501,-17.82326],[-66.39548,-17.8233],[-66.39626,-17.82305],[-66.3961,-17.82268],[-66.39646,-17.82229]]]},"properties":{"n":"KOCHI","p":33,"personas_x_ha":29,"masculinidad":154,"pct_menor20":58,"pct_60mas":3,"pct_migrante":3,"dependencia_econ":191,"pct_empleados":18,"pct_cuentapropia":36,"pct_agricultura":36,"pct_comercio":18,"pct_manufactura":9,"pct_construccion":9,"pct_transporte":0,"pct_alojamiento":18,"pct_sin_educacion":7,"pct_educ_superior":29,"brecha_educ":12,"pct_sin_seguro":0,"pct_sus":100,"pct_seguro_privado":0,"brecha_seguro":0,"pct_salud_publica":67,"pct_med_tradicional":13,"pct_automedicacion":0,"pct_remedios_caseros":20,"pct_viv_desocupada":6,"pct_alquiler":0,"pct_electricidad":100,"pct_sin_electricidad":0,"pct_agua_red":100,"pct_alcantarillado":7,"pct_camara_septica":7,"pct_pozo_ciego":67,"pct_sin_desague":7,"pct_gas_red":0,"pct_gas_garrafa":80,"pct_lena_guano":13,"pct_basura_formal":0,"pct_basura_quema":93,"pct_basura_informal":0,"pct_internet":27,"pct_celular":73,"pct_televisor":60}},{"type":"Feature","geometry":{"type":"Polygon","coordinates":[[[-66.55257,-17.71248],[-66.55247,-17.71228],[-66.55213,-17.71209],[-66.55195,-17.71234],[-66.552,-17.7126],[-66.55187,-17.7128],[-66.55191,-17.7127],[-66.55183,-17.71257],[-66.55194,-17.71244],[-66.55188,-17.71235],[-66.5517,-17.7125],[-66.55172,-17.71266],[-66.55168,-17.71245],[-66.55138,-17.71256],[-66.55142,-17.71273],[-66.55158,-17.71266],[-66.55158,-17.71267],[-66.55142,-17.71273],[-66.55146,-17.71281],[-66.55167,-17.71297],[-66.55174,-17.71282],[-66.55171,-17.71286],[-66.55167,-17.71297],[-66.55221,-17.7134],[-66.55302,-17.71274],[-66.55257,-17.71263],[-66.55247,-17.71272],[-66.55232,-17.71267],[-66.55257,-17.71248]]]},"properties":{"n":"PONGO KASA","p":48,"personas_x_ha":42,"masculinidad":85,"pct_menor20":38,"pct_60mas":8,"pct_migrante":19,"dependencia_econ":55,"pct_empleados":32,"pct_cuentapropia":29,"pct_agricultura":77,"pct_comercio":3,"pct_manufactura":0,"pct_construccion":10,"pct_transporte":0,"pct_alojamiento":0,"pct_sin_educacion":25,"pct_educ_superior":12,"brecha_educ":6,"pct_sin_seguro":6,"pct_sus":94,"pct_seguro_privado":0,"brecha_seguro":-3,"pct_salud_publica":51,"pct_med_tradicional":14,"pct_automedicacion":0,"pct_remedios_caseros":31,"pct_viv_desocupada":42,"pct_alquiler":6,"pct_electricidad":89,"pct_sin_electricidad":11,"pct_agua_red":22,"pct_alcantarillado":0,"pct_camara_septica":0,"pct_pozo_ciego":22,"pct_sin_desague":67,"pct_gas_red":0,"pct_gas_garrafa":39,"pct_lena_guano":61,"pct_basura_formal":0,"pct_basura_quema":100,"pct_basura_informal":0,"pct_internet":83,"pct_celular":83,"pct_televisor":17}},{"type":"Feature","geometry":{"type":"Polygon","coordinates":[[[-66.55043,-17.71182],[-66.55066,-17.71192],[-66.55061,-17.71204],[-66.5507,-17.71193],[-66.55118,-17.71224],[-66.55137,-17.71274],[-66.55092,-17.71287],[-66.55084,-17.71244],[-66.55099,-17.71228],[-66.55109,-17.71237],[-66.55099,-17.71227],[-66.55083,-17.71244],[-66.55065,-17.71227],[-66.54943,-17.7117],[-66.54956,-17.71149],[-66.55021,-17.71174],[-66.55017,-17.71186],[-66.55021,-17.71174],[-66.55042,-17.71182],[-66.55039,-17.71191],[-66.55043,-17.71182]]]},"properties":{"n":"PONGO KASA","p":34,"personas_x_ha":40,"masculinidad":79,"pct_menor20":44,"pct_60mas":6,"pct_migrante":26,"dependencia_econ":70,"pct_empleados":10,"pct_cuentapropia":65,"pct_agricultura":70,"pct_comercio":0,"pct_manufactura":5,"pct_construccion":15,"pct_transporte":5,"pct_alojamiento":0,"pct_sin_educacion":21,"pct_educ_superior":21,"brecha_educ":-29,"pct_sin_seguro":3,"pct_sus":97,"pct_seguro_privado":0,"brecha_seguro":-6,"pct_salud_publica":21,"pct_med_tradicional":19,"pct_automedicacion":20,"pct_remedios_caseros":27,"pct_viv_desocupada":52,"pct_alquiler":8,"pct_electricidad":62,"pct_sin_electricidad":31,"pct_agua_red":62,"pct_alcantarillado":15,"pct_camara_septica":8,"pct_pozo_ciego":0,"pct_sin_desague":77,"pct_gas_red":0,"pct_gas_garrafa":38,"pct_lena_guano":62,"pct_basura_formal":0,"pct_basura_quema":100,"pct_basura_informal":0,"pct_internet":85,"pct_celular":92,"pct_televisor":31}},{"type":"Feature","geometry":{"type":"Polygon","coordinates":[[[-66.54849,-17.71015],[-66.54891,-17.71032],[-66.54984,-17.71114],[-66.55026,-17.71136],[-66.55014,-17.71161],[-66.54911,-17.71123],[-66.54838,-17.71083],[-66.54753,-17.71069],[-66.54762,-17.71029],[-66.54849,-17.71015]]]},"properties":{"n":"PONGO KASA","p":42,"personas_x_ha":24,"masculinidad":56,"pct_menor20":38,"pct_60mas":7,"pct_migrante":12,"dependencia_econ":52,"pct_empleados":7,"pct_cuentapropia":67,"pct_agricultura":93,"pct_comercio":0,"pct_manufactura":7,"pct_construccion":0,"pct_transporte":0,"pct_alojamiento":0,"pct_sin_educacion":16,"pct_educ_superior":0,"brecha_educ":-23,"pct_sin_seguro":10,"pct_sus":88,"pct_seguro_privado":0,"brecha_seguro":-4,"pct_salud_publica":69,"pct_med_tradicional":2,"pct_automedicacion":0,"pct_remedios_caseros":26,"pct_viv_desocupada":24,"pct_alquiler":0,"pct_electricidad":100,"pct_sin_electricidad":0,"pct_agua_red":32,"pct_alcantarillado":11,"pct_camara_septica":0,"pct_pozo_ciego":16,"pct_sin_desague":63,"pct_gas_red":0,"pct_gas_garrafa":37,"pct_lena_guano":63,"pct_basura_formal":0,"pct_basura_quema":95,"pct_basura_informal":0,"pct_internet":21,"pct_celular":58,"pct_televisor":42}},{"type":"Feature","geometry":{"type":"Polygon","coordinates":[[[-66.55212,-17.71345],[-66.55138,-17.71277],[-66.55126,-17.7128],[-66.55135,-17.71292],[-66.55126,-17.7128],[-66.55092,-17.7129],[-66.55202,-17.71357],[-66.55235,-17.71355],[-66.55236,-17.71345],[-66.55212,-17.71345]]]},"properties":{"n":"PONGO KASA","p":18,"personas_x_ha":45,"masculinidad":64,"pct_menor20":39,"pct_60mas":11,"pct_migrante":0,"dependencia_econ":60,"pct_empleados":0,"pct_cuentapropia":40,"pct_agricultura":100,"pct_comercio":0,"pct_manufactura":0,"pct_construccion":0,"pct_transporte":0,"pct_alojamiento":0,"pct_sin_educacion":60,"pct_educ_superior":0,"brecha_educ":0,"pct_sin_seguro":0,"pct_sus":100,"pct_seguro_privado":0,"brecha_seguro":0,"pct_salud_publica":41,"pct_med_tradicional":9,"pct_automedicacion":0,"pct_remedios_caseros":21,"pct_viv_desocupada":44,"pct_alquiler":11,"pct_electricidad":100,"pct_sin_electricidad":0,"pct_agua_red":11,"pct_alcantarillado":0,"pct_camara_septica":0,"pct_pozo_ciego":11,"pct_sin_desague":89,"pct_gas_red":0,"pct_gas_garrafa":78,"pct_lena_guano":11,"pct_basura_formal":0,"pct_basura_quema":100,"pct_basura_informal":0,"pct_internet":11,"pct_celular":78,"pct_televisor":11}},{"type":"Feature","geometry":{"type":"Polygon","coordinates":[[[-66.55131,-17.71186],[-66.55037,-17.7114],[-66.55027,-17.71163],[-66.55146,-17.71212],[-66.55155,-17.71196],[-66.55132,-17.71186],[-66.55127,-17.71194],[-66.55131,-17.71186]]]},"properties":{"n":"PONGO KASA","p":43,"personas_x_ha":127,"masculinidad":105,"pct_menor20":44,"pct_60mas":5,"pct_migrante":14,"dependencia_econ":95,"pct_empleados":9,"pct_cuentapropia":73,"pct_agricultura":50,"pct_comercio":14,"pct_manufactura":5,"pct_construccion":0,"pct_transporte":9,"pct_alojamiento":9,"pct_sin_educacion":12,"pct_educ_superior":0,"brecha_educ":-42,"pct_sin_seguro":2,"pct_sus":98,"pct_seguro_privado":0,"brecha_seguro":5,"pct_salud_publica":36,"pct_med_tradicional":16,"pct_automedicacion":13,"pct_remedios_caseros":29,"pct_viv_desocupada":30,"pct_alquiler":0,"pct_electricidad":92,"pct_sin_electricidad":8,"pct_agua_red":15,"pct_alcantarillado":8,"pct_camara_septica":0,"pct_pozo_ciego":8,"pct_sin_desague":69,"pct_gas_red":0,"pct_gas_garrafa":69,"pct_lena_guano":23,"pct_basura_formal":0,"pct_basura_quema":69,"pct_basura_informal":31,"pct_internet":54,"pct_celular":54,"pct_televisor":54}},{"type":"Feature","geometry":{"type":"Polygon","coordinates":[[[-66.40155,-17.9042],[-66.40254,-17.90359],[-66.40265,-17.90369],[-66.40247,-17.90395],[-66.40193,-17.90434],[-66.40177,-17.90441],[-66.40153,-17.90431],[-66.40155,-17.9042]]]},"properties":{"n":"TUJSUMA","p":16,"personas_x_ha":42,"masculinidad":60,"pct_menor20":31,"pct_60mas":25,"pct_migrante":31,"dependencia_econ":45,"pct_empleados":18,"pct_cuentapropia":64,"pct_agricultura":36,"pct_comercio":9,"pct_manufactura":0,"pct_construccion":0,"pct_transporte":0,"pct_alojamiento":0,"pct_sin_educacion":18,"pct_educ_superior":36,"brecha_educ":27,"pct_sin_seguro":0,"pct_sus":94,"pct_seguro_privado":0,"brecha_seguro":0,"pct_salud_publica":42,"pct_med_tradicional":9,"pct_automedicacion":0,"pct_remedios_caseros":39,"pct_viv_desocupada":0,"pct_alquiler":0,"pct_electricidad":100,"pct_sin_electricidad":0,"pct_agua_red":43,"pct_alcantarillado":14,"pct_camara_septica":14,"pct_pozo_ciego":29,"pct_sin_desague":43,"pct_gas_red":0,"pct_gas_garrafa":86,"pct_lena_guano":14,"pct_basura_formal":0,"pct_basura_quema":100,"pct_basura_informal":0,"pct_internet":86,"pct_celular":86,"pct_televisor":57}},{"type":"Feature","geometry":{"type":"Polygon","coordinates":[[[-66.46961,-17.71222],[-66.46933,-17.71178],[-66.46858,-17.71226],[-66.46889,-17.71268],[-66.46961,-17.71222]]]},"properties":{"n":"VILUYO ARQUE","p":30,"personas_x_ha":55,"masculinidad":100,"pct_menor20":53,"pct_60mas":3,"pct_migrante":7,"dependencia_econ":100,"pct_empleados":7,"pct_cuentapropia":60,"pct_agricultura":93,"pct_comercio":7,"pct_manufactura":0,"pct_construccion":0,"pct_transporte":0,"pct_alojamiento":0,"pct_sin_educacion":20,"pct_educ_superior":0,"brecha_educ":-30,"pct_sin_seguro":0,"pct_sus":100,"pct_seguro_privado":0,"brecha_seguro":0,"pct_salud_publica":36,"pct_med_tradicional":13,"pct_automedicacion":9,"pct_remedios_caseros":29,"pct_viv_desocupada":0,"pct_alquiler":0,"pct_electricidad":85,"pct_sin_electricidad":8,"pct_agua_red":8,"pct_alcantarillado":0,"pct_camara_septica":0,"pct_pozo_ciego":15,"pct_sin_desague":85,"pct_gas_red":0,"pct_gas_garrafa":92,"pct_lena_guano":8,"pct_basura_formal":0,"pct_basura_quema":100,"pct_basura_informal":0,"pct_internet":38,"pct_celular":69,"pct_televisor":31}},{"type":"Feature","geometry":{"type":"Polygon","coordinates":[[[-66.47049,-17.71135],[-66.47007,-17.71109],[-66.46938,-17.71175],[-66.46965,-17.71217],[-66.46993,-17.71202],[-66.47049,-17.71135]]]},"properties":{"n":"VILUYO ARQUE","p":17,"personas_x_ha":25,"masculinidad":70,"pct_menor20":59,"pct_60mas":6,"pct_migrante":0,"dependencia_econ":750,"pct_empleados":0,"pct_cuentapropia":100,"pct_agricultura":100,"pct_comercio":0,"pct_manufactura":0,"pct_construccion":0,"pct_transporte":0,"pct_alojamiento":0,"pct_sin_educacion":62,"pct_educ_superior":0,"brecha_educ":-86,"pct_sin_seguro":0,"pct_sus":100,"pct_seguro_privado":0,"brecha_seguro":0,"pct_salud_publica":40,"pct_med_tradicional":35,"pct_automedicacion":0,"pct_remedios_caseros":26,"pct_viv_desocupada":0,"pct_alquiler":0,"pct_electricidad":89,"pct_sin_electricidad":11,"pct_agua_red":89,"pct_alcantarillado":0,"pct_camara_septica":0,"pct_pozo_ciego":100,"pct_sin_desague":0,"pct_gas_red":0,"pct_gas_garrafa":56,"pct_lena_guano":44,"pct_basura_formal":0,"pct_basura_quema":89,"pct_basura_informal":0,"pct_internet":11,"pct_celular":78,"pct_televisor":33}},{"type":"Feature","geometry":{"type":"Polygon","coordinates":[[[-66.46797,-17.71342],[-66.46651,-17.71381],[-66.46638,-17.71477],[-66.46775,-17.71405],[-66.46797,-17.71342]]]},"properties":{"n":"VILUYO ARQUE","p":21,"personas_x_ha":17,"masculinidad":50,"pct_menor20":43,"pct_60mas":10,"pct_migrante":5,"dependencia_econ":62,"pct_empleados":0,"pct_cuentapropia":92,"pct_agricultura":100,"pct_comercio":0,"pct_manufactura":0,"pct_construccion":0,"pct_transporte":0,"pct_alojamiento":0,"pct_sin_educacion":25,"pct_educ_superior":0,"brecha_educ":38,"pct_sin_seguro":5,"pct_sus":95,"pct_seguro_privado":0,"brecha_seguro":-7,"pct_salud_publica":43,"pct_med_tradicional":17,"pct_automedicacion":0,"pct_remedios_caseros":22,"pct_viv_desocupada":0,"pct_alquiler":0,"pct_electricidad":46,"pct_sin_electricidad":46,"pct_agua_red":8,"pct_alcantarillado":0,"pct_camara_septica":0,"pct_pozo_ciego":15,"pct_sin_desague":85,"pct_gas_red":0,"pct_gas_garrafa":38,"pct_lena_guano":31,"pct_basura_formal":8,"pct_basura_quema":92,"pct_basura_informal":0,"pct_internet":15,"pct_celular":69,"pct_televisor":54}},{"type":"Feature","geometry":{"type":"Polygon","coordinates":[[[-66.46901,-17.71283],[-66.46927,-17.71323],[-66.46843,-17.71376],[-66.46817,-17.71336],[-66.46901,-17.71283]]]},"properties":{"n":"VILUYO ARQUE","p":15,"personas_x_ha":27,"masculinidad":67,"pct_menor20":67,"pct_60mas":7,"pct_migrante":7,"dependencia_econ":150,"pct_empleados":0,"pct_cuentapropia":17,"pct_agricultura":17,"pct_comercio":33,"pct_manufactura":17,"pct_construccion":0,"pct_transporte":0,"pct_alojamiento":0,"pct_sin_educacion":29,"pct_educ_superior":29,"brecha_educ":-33,"pct_sin_seguro":0,"pct_sus":100,"pct_seguro_privado":0,"brecha_seguro":0,"pct_salud_publica":56,"pct_med_tradicional":11,"pct_automedicacion":4,"pct_remedios_caseros":19,"pct_viv_desocupada":0,"pct_alquiler":0,"pct_electricidad":86,"pct_sin_electricidad":0,"pct_agua_red":71,"pct_alcantarillado":0,"pct_camara_septica":0,"pct_pozo_ciego":29,"pct_sin_desague":71,"pct_gas_red":0,"pct_gas_garrafa":43,"pct_lena_guano":57,"pct_basura_formal":0,"pct_basura_quema":100,"pct_basura_informal":0,"pct_internet":14,"pct_celular":29,"pct_televisor":57}},{"type":"Feature","geometry":{"type":"Polygon","coordinates":[[[-66.46885,-17.71271],[-66.4685,-17.71229],[-66.46776,-17.71276],[-66.4681,-17.7132],[-66.46885,-17.71271]]]},"properties":{"n":"VILUYO ARQUE","p":25,"personas_x_ha":42,"masculinidad":79,"pct_menor20":40,"pct_60mas":0,"pct_migrante":4,"dependencia_econ":108,"pct_empleados":8,"pct_cuentapropia":92,"pct_agricultura":83,"pct_comercio":0,"pct_manufactura":0,"pct_construccion":0,"pct_transporte":8,"pct_alojamiento":0,"pct_sin_educacion":7,"pct_educ_superior":7,"brecha_educ":-17,"pct_sin_seguro":0,"pct_sus":96,"pct_seguro_privado":4,"brecha_seguro":0,"pct_salud_publica":45,"pct_med_tradicional":15,"pct_automedicacion":0,"pct_remedios_caseros":38,"pct_viv_desocupada":0,"pct_alquiler":0,"pct_electricidad":90,"pct_sin_electricidad":10,"pct_agua_red":100,"pct_alcantarillado":0,"pct_camara_septica":0,"pct_pozo_ciego":0,"pct_sin_desague":100,"pct_gas_red":0,"pct_gas_garrafa":100,"pct_lena_guano":0,"pct_basura_formal":0,"pct_basura_quema":100,"pct_basura_informal":0,"pct_internet":0,"pct_celular":80,"pct_televisor":70}}]}