{"type":"FeatureCollection","features":[{"type":"Feature","geometry":{"type":"Polygon","coordinates":[[[-66.59584,-17.77089],[-66.59579,-17.77064],[-66.59561,-17.77052],[-66.59532,-17.7706],[-66.59559,-17.77102],[-66.59595,-17.77098],[-66.5959,-17.77087],[-66.59584,-17.77089]]]},"properties":{"n":"AQUERANA","p":19,"personas_x_ha":85,"masculinidad":171,"pct_menor20":47,"pct_60mas":5,"pct_migrante":11,"dependencia_econ":138,"pct_empleados":38,"pct_cuentapropia":50,"pct_agricultura":38,"pct_comercio":38,"pct_manufactura":12,"pct_construccion":0,"pct_transporte":0,"pct_alojamiento":0,"pct_sin_educacion":10,"pct_educ_superior":0,"brecha_educ":0,"pct_sin_seguro":5,"pct_sus":95,"pct_seguro_privado":0,"brecha_seguro":8,"pct_salud_publica":95,"pct_med_tradicional":0,"pct_automedicacion":0,"pct_remedios_caseros":5,"pct_viv_desocupada":0,"pct_alquiler":0,"pct_electricidad":86,"pct_sin_electricidad":14,"pct_agua_red":100,"pct_alcantarillado":14,"pct_camara_septica":0,"pct_pozo_ciego":14,"pct_sin_desague":57,"pct_gas_red":0,"pct_gas_garrafa":0,"pct_lena_guano":0,"pct_basura_formal":0,"pct_basura_quema":0,"pct_basura_informal":0,"pct_internet":0,"pct_celular":57,"pct_televisor":29}},{"type":"Feature","geometry":{"type":"Polygon","coordinates":[[[-66.59514,-17.77091],[-66.59497,-17.77065],[-66.59477,-17.77071],[-66.59484,-17.7709],[-66.59501,-17.77097],[-66.59514,-17.77091]]]},"properties":{"n":"AQUERANA","p":18,"personas_x_ha":212,"masculinidad":125,"pct_menor20":39,"pct_60mas":0,"pct_migrante":67,"dependencia_econ":260,"pct_empleados":20,"pct_cuentapropia":80,"pct_agricultura":80,"pct_comercio":0,"pct_manufactura":0,"pct_construccion":0,"pct_transporte":0,"pct_alojamiento":0,"pct_sin_educacion":8,"pct_educ_superior":8,"brecha_educ":-33,"pct_sin_seguro":0,"pct_sus":83,"pct_seguro_privado":0,"brecha_seguro":0,"pct_salud_publica":21,"pct_med_tradicional":2,"pct_automedicacion":33,"pct_remedios_caseros":29,"pct_viv_desocupada":14,"pct_alquiler":0,"pct_electricidad":67,"pct_sin_electricidad":33,"pct_agua_red":83,"pct_alcantarillado":0,"pct_camara_septica":0,"pct_pozo_ciego":0,"pct_sin_desague":100,"pct_gas_red":0,"pct_gas_garrafa":0,"pct_lena_guano":0,"pct_basura_formal":0,"pct_basura_quema":33,"pct_basura_informal":0,"pct_internet":67,"pct_celular":67,"pct_televisor":17}},{"type":"Feature","geometry":{"type":"Polygon","coordinates":[[[-66.5966,-17.7693],[-66.59603,-17.76928],[-66.59572,-17.76938],[-66.59565,-17.76948],[-66.59577,-17.76958],[-66.59608,-17.76963],[-66.59608,-17.76974],[-66.59627,-17.76977],[-66.59628,-17.76957],[-66.59655,-17.76968],[-66.5966,-17.7693]]]},"properties":{"n":"AQUERANA","p":19,"personas_x_ha":53,"masculinidad":111,"pct_menor20":26,"pct_60mas":11,"pct_migrante":32,"dependencia_econ":42,"pct_empleados":0,"pct_cuentapropia":92,"pct_agricultura":67,"pct_comercio":8,"pct_manufactura":25,"pct_construccion":0,"pct_transporte":0,"pct_alojamiento":0,"pct_sin_educacion":0,"pct_educ_superior":33,"brecha_educ":-3,"pct_sin_seguro":0,"pct_sus":100,"pct_seguro_privado":0,"brecha_seguro":0,"pct_salud_publica":78,"pct_med_tradicional":0,"pct_automedicacion":0,"pct_remedios_caseros":22,"pct_viv_desocupada":0,"pct_alquiler":0,"pct_electricidad":83,"pct_sin_electricidad":17,"pct_agua_red":100,"pct_alcantarillado":17,"pct_camara_septica":0,"pct_pozo_ciego":17,"pct_sin_desague":67,"pct_gas_red":0,"pct_gas_garrafa":0,"pct_lena_guano":0,"pct_basura_formal":0,"pct_basura_quema":33,"pct_basura_informal":0,"pct_internet":33,"pct_celular":50,"pct_televisor":67}},{"type":"Feature","geometry":{"type":"Polygon","coordinates":[[[-66.53738,-17.78219],[-66.53752,-17.78245],[-66.5369,-17.78276],[-66.53664,-17.78262],[-66.53661,-17.78255],[-66.53738,-17.78219]]]},"properties":{"n":"AUQUIKASA","p":54,"personas_x_ha":189,"masculinidad":80,"pct_menor20":56,"pct_60mas":6,"pct_migrante":9,"dependencia_econ":170,"pct_empleados":15,"pct_cuentapropia":45,"pct_agricultura":60,"pct_comercio":5,"pct_manufactura":20,"pct_construccion":10,"pct_transporte":5,"pct_alojamiento":0,"pct_sin_educacion":20,"pct_educ_superior":0,"brecha_educ":3,"pct_sin_seguro":4,"pct_sus":96,"pct_seguro_privado":0,"brecha_seguro":1,"pct_salud_publica":33,"pct_med_tradicional":29,"pct_automedicacion":3,"pct_remedios_caseros":31,"pct_viv_desocupada":20,"pct_alquiler":0,"pct_electricidad":67,"pct_sin_electricidad":17,"pct_agua_red":0,"pct_alcantarillado":0,"pct_camara_septica":8,"pct_pozo_ciego":33,"pct_sin_desague":58,"pct_gas_red":0,"pct_gas_garrafa":42,"pct_lena_guano":42,"pct_basura_formal":0,"pct_basura_quema":83,"pct_basura_informal":17,"pct_internet":8,"pct_celular":17,"pct_televisor":17}},{"type":"Feature","geometry":{"type":"Polygon","coordinates":[[[-66.53817,-17.78228],[-66.53817,-17.78248],[-66.53873,-17.78252],[-66.53883,-17.78237],[-66.53817,-17.78228]]]},"properties":{"n":"AUQUIKASA","p":32,"personas_x_ha":237,"masculinidad":220,"pct_menor20":38,"pct_60mas":6,"pct_migrante":0,"dependencia_econ":33,"pct_empleados":0,"pct_cuentapropia":71,"pct_agricultura":92,"pct_comercio":0,"pct_manufactura":0,"pct_construccion":4,"pct_transporte":4,"pct_alojamiento":0,"pct_sin_educacion":33,"pct_educ_superior":14,"brecha_educ":14,"pct_sin_seguro":3,"pct_sus":97,"pct_seguro_privado":0,"brecha_seguro":-10,"pct_salud_publica":47,"pct_med_tradicional":46,"pct_automedicacion":0,"pct_remedios_caseros":7,"pct_viv_desocupada":0,"pct_alquiler":0,"pct_electricidad":83,"pct_sin_electricidad":0,"pct_agua_red":0,"pct_alcantarillado":0,"pct_camara_septica":0,"pct_pozo_ciego":17,"pct_sin_desague":83,"pct_gas_red":0,"pct_gas_garrafa":67,"pct_lena_guano":67,"pct_basura_formal":0,"pct_basura_quema":100,"pct_basura_informal":0,"pct_internet":50,"pct_celular":50,"pct_televisor":33}},{"type":"Feature","geometry":{"type":"Polygon","coordinates":[[[-66.53805,-17.78339],[-66.53787,-17.78315],[-66.53742,-17.78339],[-66.53755,-17.78367],[-66.5378,-17.78376],[-66.53805,-17.78339]]]},"properties":{"n":"AUQUIKASA","p":34,"personas_x_ha":128,"masculinidad":127,"pct_menor20":56,"pct_60mas":6,"pct_migrante":3,"dependencia_econ":112,"pct_empleados":0,"pct_cuentapropia":62,"pct_agricultura":62,"pct_comercio":12,"pct_manufactura":19,"pct_construccion":0,"pct_transporte":0,"pct_alojamiento":0,"pct_sin_educacion":27,"pct_educ_superior":7,"brecha_educ":6,"pct_sin_seguro":3,"pct_sus":97,"pct_seguro_privado":0,"brecha_seguro":5,"pct_salud_publica":25,"pct_med_tradicional":20,"pct_automedicacion":15,"pct_remedios_caseros":23,"pct_viv_desocupada":11,"pct_alquiler":0,"pct_electricidad":88,"pct_sin_electricidad":12,"pct_agua_red":0,"pct_alcantarillado":0,"pct_camara_septica":0,"pct_pozo_ciego":88,"pct_sin_desague":12,"pct_gas_red":0,"pct_gas_garrafa":12,"pct_lena_guano":12,"pct_basura_formal":0,"pct_basura_quema":88,"pct_basura_informal":0,"pct_internet":75,"pct_celular":75,"pct_televisor":25}},{"type":"Feature","geometry":{"type":"Polygon","coordinates":[[[-66.68144,-17.91994],[-66.6808,-17.91955],[-66.68053,-17.91992],[-66.68118,-17.92031],[-66.68144,-17.91994]]]},"properties":{"n":"LLALLAGUA","p":31,"personas_x_ha":77,"masculinidad":158,"pct_menor20":35,"pct_60mas":13,"pct_migrante":19,"dependencia_econ":76,"pct_empleados":0,"pct_cuentapropia":82,"pct_agricultura":82,"pct_comercio":0,"pct_manufactura":0,"pct_construccion":6,"pct_transporte":0,"pct_alojamiento":0,"pct_sin_educacion":10,"pct_educ_superior":10,"brecha_educ":-10,"pct_sin_seguro":7,"pct_sus":87,"pct_seguro_privado":0,"brecha_seguro":11,"pct_salud_publica":77,"pct_med_tradicional":0,"pct_automedicacion":0,"pct_remedios_caseros":17,"pct_viv_desocupada":0,"pct_alquiler":0,"pct_electricidad":91,"pct_sin_electricidad":9,"pct_agua_red":91,"pct_alcantarillado":9,"pct_camara_septica":0,"pct_pozo_ciego":27,"pct_sin_desague":0,"pct_gas_red":0,"pct_gas_garrafa":0,"pct_lena_guano":0,"pct_basura_formal":0,"pct_basura_quema":64,"pct_basura_informal":0,"pct_internet":64,"pct_celular":91,"pct_televisor":27}},{"type":"Feature","geometry":{"type":"Polygon","coordinates":[[[-66.68011,-17.92037],[-66.67942,-17.91994],[-66.67917,-17.92034],[-66.67983,-17.92073],[-66.68011,-17.92037]]]},"properties":{"n":"LLALLAGUA","p":29,"personas_x_ha":68,"masculinidad":107,"pct_menor20":31,"pct_60mas":21,"pct_migrante":21,"dependencia_econ":61,"pct_empleados":6,"pct_cuentapropia":83,"pct_agricultura":67,"pct_comercio":0,"pct_manufactura":6,"pct_construccion":6,"pct_transporte":6,"pct_alojamiento":0,"pct_sin_educacion":10,"pct_educ_superior":5,"brecha_educ":-12,"pct_sin_seguro":29,"pct_sus":54,"pct_seguro_privado":0,"brecha_seguro":10,"pct_salud_publica":33,"pct_med_tradicional":20,"pct_automedicacion":10,"pct_remedios_caseros":26,"pct_viv_desocupada":0,"pct_alquiler":0,"pct_electricidad":70,"pct_sin_electricidad":30,"pct_agua_red":90,"pct_alcantarillado":0,"pct_camara_septica":40,"pct_pozo_ciego":10,"pct_sin_desague":50,"pct_gas_red":0,"pct_gas_garrafa":20,"pct_lena_guano":20,"pct_basura_formal":0,"pct_basura_quema":10,"pct_basura_informal":0,"pct_internet":70,"pct_celular":100,"pct_televisor":10}},{"type":"Feature","geometry":{"type":"Polygon","coordinates":[[[-66.681,-17.92028],[-66.68049,-17.91998],[-66.68021,-17.92034],[-66.68076,-17.92067],[-66.681,-17.92028]]]},"properties":{"n":"LLALLAGUA","p":25,"personas_x_ha":73,"masculinidad":257,"pct_menor20":40,"pct_60mas":12,"pct_migrante":28,"dependencia_econ":67,"pct_empleados":0,"pct_cuentapropia":73,"pct_agricultura":100,"pct_comercio":0,"pct_manufactura":0,"pct_construccion":0,"pct_transporte":0,"pct_alojamiento":0,"pct_sin_educacion":27,"pct_educ_superior":0,"brecha_educ":-45,"pct_sin_seguro":4,"pct_sus":96,"pct_seguro_privado":0,"brecha_seguro":6,"pct_salud_publica":40,"pct_med_tradicional":21,"pct_automedicacion":2,"pct_remedios_caseros":38,"pct_viv_desocupada":0,"pct_alquiler":0,"pct_electricidad":100,"pct_sin_electricidad":0,"pct_agua_red":100,"pct_alcantarillado":0,"pct_camara_septica":0,"pct_pozo_ciego":78,"pct_sin_desague":22,"pct_gas_red":0,"pct_gas_garrafa":11,"pct_lena_guano":11,"pct_basura_formal":0,"pct_basura_quema":78,"pct_basura_informal":0,"pct_internet":67,"pct_celular":100,"pct_televisor":11}},{"type":"Feature","geometry":{"type":"Polygon","coordinates":[[[-66.68044,-17.92108],[-66.67989,-17.92077],[-66.6802,-17.92039],[-66.6807,-17.92071],[-66.68044,-17.92108]]]},"properties":{"n":"LLALLAGUA","p":34,"personas_x_ha":99,"masculinidad":89,"pct_menor20":50,"pct_60mas":12,"pct_migrante":15,"dependencia_econ":100,"pct_empleados":12,"pct_cuentapropia":24,"pct_agricultura":71,"pct_comercio":0,"pct_manufactura":12,"pct_construccion":12,"pct_transporte":0,"pct_alojamiento":0,"pct_sin_educacion":12,"pct_educ_superior":0,"brecha_educ":-17,"pct_sin_seguro":0,"pct_sus":82,"pct_seguro_privado":0,"brecha_seguro":0,"pct_salud_publica":36,"pct_med_tradicional":1,"pct_automedicacion":22,"pct_remedios_caseros":34,"pct_viv_desocupada":0,"pct_alquiler":0,"pct_electricidad":78,"pct_sin_electricidad":22,"pct_agua_red":100,"pct_alcantarillado":0,"pct_camara_septica":11,"pct_pozo_ciego":89,"pct_sin_desague":0,"pct_gas_red":0,"pct_gas_garrafa":0,"pct_lena_guano":0,"pct_basura_formal":0,"pct_basura_quema":100,"pct_basura_informal":0,"pct_internet":56,"pct_celular":78,"pct_televisor":44}},{"type":"Feature","geometry":{"type":"Polygon","coordinates":[[[-66.68126,-17.92045],[-66.68178,-17.92074],[-66.6813,-17.9213],[-66.68083,-17.92098],[-66.68126,-17.92045]]]},"properties":{"n":"LLALLAGUA","p":33,"personas_x_ha":68,"masculinidad":371,"pct_menor20":58,"pct_60mas":6,"pct_migrante":21,"dependencia_econ":175,"pct_empleados":8,"pct_cuentapropia":58,"pct_agricultura":58,"pct_comercio":0,"pct_manufactura":8,"pct_construccion":17,"pct_transporte":8,"pct_alojamiento":0,"pct_sin_educacion":0,"pct_educ_superior":0,"brecha_educ":5,"pct_sin_seguro":18,"pct_sus":76,"pct_seguro_privado":0,"brecha_seguro":23,"pct_salud_publica":57,"pct_med_tradicional":0,"pct_automedicacion":0,"pct_remedios_caseros":39,"pct_viv_desocupada":0,"pct_alquiler":0,"pct_electricidad":100,"pct_sin_electricidad":0,"pct_agua_red":100,"pct_alcantarillado":0,"pct_camara_septica":30,"pct_pozo_ciego":50,"pct_sin_desague":10,"pct_gas_red":0,"pct_gas_garrafa":60,"pct_lena_guano":60,"pct_basura_formal":0,"pct_basura_quema":80,"pct_basura_informal":0,"pct_internet":50,"pct_celular":80,"pct_televisor":20}},{"type":"Feature","geometry":{"type":"Polygon","coordinates":[[[-66.6804,-17.92112],[-66.67988,-17.92082],[-66.67958,-17.92128],[-66.68018,-17.92145],[-66.6804,-17.92112]]]},"properties":{"n":"LLALLAGUA","p":27,"personas_x_ha":81,"masculinidad":145,"pct_menor20":30,"pct_60mas":7,"pct_migrante":0,"dependencia_econ":50,"pct_empleados":17,"pct_cuentapropia":56,"pct_agricultura":72,"pct_comercio":6,"pct_manufactura":0,"pct_construccion":17,"pct_transporte":0,"pct_alojamiento":0,"pct_sin_educacion":16,"pct_educ_superior":0,"brecha_educ":-13,"pct_sin_seguro":14,"pct_sus":86,"pct_seguro_privado":0,"brecha_seguro":21,"pct_salud_publica":16,"pct_med_tradicional":8,"pct_automedicacion":14,"pct_remedios_caseros":53,"pct_viv_desocupada":0,"pct_alquiler":0,"pct_electricidad":83,"pct_sin_electricidad":17,"pct_agua_red":100,"pct_alcantarillado":0,"pct_camara_septica":0,"pct_pozo_ciego":83,"pct_sin_desague":17,"pct_gas_red":0,"pct_gas_garrafa":0,"pct_lena_guano":0,"pct_basura_formal":0,"pct_basura_quema":17,"pct_basura_informal":0,"pct_internet":67,"pct_celular":83,"pct_televisor":0}},{"type":"Feature","geometry":{"type":"Polygon","coordinates":[[[-66.68211,-17.92034],[-66.68151,-17.91998],[-66.68124,-17.92035],[-66.68183,-17.92069],[-66.68211,-17.92034]]]},"properties":{"n":"LLALLAGUA","p":42,"personas_x_ha":113,"masculinidad":147,"pct_menor20":36,"pct_60mas":12,"pct_migrante":33,"dependencia_econ":100,"pct_empleados":10,"pct_cuentapropia":62,"pct_agricultura":62,"pct_comercio":0,"pct_manufactura":5,"pct_construccion":14,"pct_transporte":5,"pct_alojamiento":5,"pct_sin_educacion":17,"pct_educ_superior":14,"brecha_educ":-34,"pct_sin_seguro":0,"pct_sus":100,"pct_seguro_privado":0,"brecha_seguro":0,"pct_salud_publica":51,"pct_med_tradicional":9,"pct_automedicacion":0,"pct_remedios_caseros":40,"pct_viv_desocupada":0,"pct_alquiler":0,"pct_electricidad":86,"pct_sin_electricidad":7,"pct_agua_red":100,"pct_alcantarillado":0,"pct_camara_septica":0,"pct_pozo_ciego":79,"pct_sin_desague":14,"pct_gas_red":0,"pct_gas_garrafa":0,"pct_lena_guano":0,"pct_basura_formal":0,"pct_basura_quema":86,"pct_basura_informal":0,"pct_internet":50,"pct_celular":50,"pct_televisor":21}},{"type":"Feature","geometry":{"type":"Polygon","coordinates":[[[-66.62156,-17.81672],[-66.62173,-17.81641],[-66.62152,-17.81627],[-66.62129,-17.81653],[-66.6214,-17.81654],[-66.62156,-17.81672]]]},"properties":{"n":"LLUJCHI PAMPA","p":22,"personas_x_ha":203,"masculinidad":83,"pct_menor20":23,"pct_60mas":18,"pct_migrante":55,"dependencia_econ":69,"pct_empleados":38,"pct_cuentapropia":62,"pct_agricultura":54,"pct_comercio":23,"pct_manufactura":8,"pct_construccion":8,"pct_transporte":8,"pct_alojamiento":0,"pct_sin_educacion":11,"pct_educ_superior":0,"brecha_educ":-18,"pct_sin_seguro":0,"pct_sus":86,"pct_seguro_privado":14,"brecha_seguro":0,"pct_salud_publica":32,"pct_med_tradicional":5,"pct_automedicacion":25,"pct_remedios_caseros":31,"pct_viv_desocupada":12,"pct_alquiler":0,"pct_electricidad":29,"pct_sin_electricidad":71,"pct_agua_red":29,"pct_alcantarillado":0,"pct_camara_septica":0,"pct_pozo_ciego":0,"pct_sin_desague":100,"pct_gas_red":14,"pct_gas_garrafa":0,"pct_lena_guano":0,"pct_basura_formal":0,"pct_basura_quema":71,"pct_basura_informal":0,"pct_internet":0,"pct_celular":14,"pct_televisor":14}},{"type":"Feature","geometry":{"type":"Polygon","coordinates":[[[-66.70106,-17.86111],[-66.70124,-17.86026],[-66.70142,-17.8603],[-66.70143,-17.86003],[-66.7013,-17.85958],[-66.70109,-17.85957],[-66.70092,-17.8601],[-66.70084,-17.86006],[-66.7007,-17.86022],[-66.70066,-17.86099],[-66.70083,-17.86115],[-66.70106,-17.86111]]]},"properties":{"n":"MICAYANI GRANDE","p":53,"personas_x_ha":64,"masculinidad":121,"pct_menor20":40,"pct_60mas":13,"pct_migrante":25,"dependencia_econ":71,"pct_empleados":13,"pct_cuentapropia":58,"pct_agricultura":61,"pct_comercio":13,"pct_manufactura":0,"pct_construccion":6,"pct_transporte":6,"pct_alojamiento":3,"pct_sin_educacion":12,"pct_educ_superior":6,"brecha_educ":-27,"pct_sin_seguro":10,"pct_sus":90,"pct_seguro_privado":0,"brecha_seguro":9,"pct_salud_publica":28,"pct_med_tradicional":8,"pct_automedicacion":14,"pct_remedios_caseros":31,"pct_viv_desocupada":0,"pct_alquiler":0,"pct_electricidad":69,"pct_sin_electricidad":25,"pct_agua_red":88,"pct_alcantarillado":12,"pct_camara_septica":0,"pct_pozo_ciego":44,"pct_sin_desague":12,"pct_gas_red":0,"pct_gas_garrafa":38,"pct_lena_guano":38,"pct_basura_formal":0,"pct_basura_quema":62,"pct_basura_informal":12,"pct_internet":62,"pct_celular":75,"pct_televisor":6}},{"type":"Feature","geometry":{"type":"Polygon","coordinates":[[[-66.70082,-17.74858],[-66.70063,-17.74833],[-66.70054,-17.7484],[-66.70049,-17.74834],[-66.70032,-17.74846],[-66.70022,-17.74869],[-66.70024,-17.74879],[-66.70042,-17.74879],[-66.70058,-17.74859],[-66.70049,-17.74854],[-66.70054,-17.74851],[-66.70062,-17.74859],[-66.70043,-17.7488],[-66.70059,-17.74903],[-66.70085,-17.74892],[-66.70097,-17.74865],[-66.70086,-17.74856],[-66.70078,-17.74864],[-66.70082,-17.74858]]]},"properties":{"n":"MOLLE PAMPA","p":37,"personas_x_ha":108,"masculinidad":118,"pct_menor20":32,"pct_60mas":11,"pct_migrante":3,"dependencia_econ":37,"pct_empleados":0,"pct_cuentapropia":74,"pct_agricultura":63,"pct_comercio":0,"pct_manufactura":15,"pct_construccion":19,"pct_transporte":0,"pct_alojamiento":0,"pct_sin_educacion":15,"pct_educ_superior":4,"brecha_educ":-47,"pct_sin_seguro":0,"pct_sus":100,"pct_seguro_privado":0,"brecha_seguro":0,"pct_salud_publica":77,"pct_med_tradicional":4,"pct_automedicacion":9,"pct_remedios_caseros":11,"pct_viv_desocupada":8,"pct_alquiler":0,"pct_electricidad":27,"pct_sin_electricidad":73,"pct_agua_red":7,"pct_alcantarillado":0,"pct_camara_septica":0,"pct_pozo_ciego":20,"pct_sin_desague":7,"pct_gas_red":0,"pct_gas_garrafa":7,"pct_lena_guano":7,"pct_basura_formal":0,"pct_basura_quema":93,"pct_basura_informal":0,"pct_internet":7,"pct_celular":87,"pct_televisor":7}},{"type":"Feature","geometry":{"type":"Polygon","coordinates":[[[-66.68282,-17.74798],[-66.68218,-17.74817],[-66.68234,-17.74847],[-66.68246,-17.74851],[-66.68262,-17.74842],[-66.68282,-17.74798]]]},"properties":{"n":"MURMUNTANI GRANDE","p":18,"personas_x_ha":82,"masculinidad":100,"pct_menor20":50,"pct_60mas":11,"pct_migrante":0,"dependencia_econ":null,"pct_empleados":null,"pct_cuentapropia":null,"pct_agricultura":null,"pct_comercio":null,"pct_manufactura":null,"pct_construccion":null,"pct_transporte":null,"pct_alojamiento":null,"pct_sin_educacion":null,"pct_educ_superior":null,"brecha_educ":null,"pct_sin_seguro":null,"pct_sus":null,"pct_seguro_privado":null,"brecha_seguro":null,"pct_salud_publica":55,"pct_med_tradicional":0,"pct_automedicacion":0,"pct_remedios_caseros":45,"pct_viv_desocupada":14,"pct_alquiler":0,"pct_electricidad":100,"pct_sin_electricidad":0,"pct_agua_red":0,"pct_alcantarillado":0,"pct_camara_septica":0,"pct_pozo_ciego":100,"pct_sin_desague":0,"pct_gas_red":0,"pct_gas_garrafa":0,"pct_lena_guano":0,"pct_basura_formal":0,"pct_basura_quema":100,"pct_basura_informal":0,"pct_internet":100,"pct_celular":100,"pct_televisor":0}},{"type":"Feature","geometry":{"type":"Polygon","coordinates":[[[-66.53466,-17.83616],[-66.53566,-17.83575],[-66.53578,-17.83593],[-66.5359,-17.83586],[-66.53639,-17.83643],[-66.53505,-17.83643],[-66.53505,-17.83731],[-66.53469,-17.83728],[-66.53466,-17.83616]]]},"properties":{"n":"TACOPAYA","p":35,"personas_x_ha":28,"masculinidad":119,"pct_menor20":31,"pct_60mas":20,"pct_migrante":37,"dependencia_econ":70,"pct_empleados":35,"pct_cuentapropia":30,"pct_agricultura":35,"pct_comercio":20,"pct_manufactura":5,"pct_construccion":0,"pct_transporte":5,"pct_alojamiento":5,"pct_sin_educacion":4,"pct_educ_superior":25,"brecha_educ":-56,"pct_sin_seguro":3,"pct_sus":74,"pct_seguro_privado":0,"brecha_seguro":-6,"pct_salud_publica":24,"pct_med_tradicional":6,"pct_automedicacion":14,"pct_remedios_caseros":30,"pct_viv_desocupada":31,"pct_alquiler":6,"pct_electricidad":100,"pct_sin_electricidad":0,"pct_agua_red":67,"pct_alcantarillado":94,"pct_camara_septica":0,"pct_pozo_ciego":0,"pct_sin_desague":6,"pct_gas_red":0,"pct_gas_garrafa":89,"pct_lena_guano":89,"pct_basura_formal":6,"pct_basura_quema":83,"pct_basura_informal":0,"pct_internet":83,"pct_celular":83,"pct_televisor":72}},{"type":"Feature","geometry":{"type":"Polygon","coordinates":[[[-66.53567,-17.83571],[-66.53529,-17.83487],[-66.53616,-17.83448],[-66.53652,-17.83511],[-66.53567,-17.83571]]]},"properties":{"n":"TACOPAYA","p":21,"personas_x_ha":22,"masculinidad":91,"pct_menor20":29,"pct_60mas":19,"pct_migrante":38,"dependencia_econ":91,"pct_empleados":91,"pct_cuentapropia":9,"pct_agricultura":0,"pct_comercio":27,"pct_manufactura":9,"pct_construccion":18,"pct_transporte":0,"pct_alojamiento":9,"pct_sin_educacion":19,"pct_educ_superior":50,"brecha_educ":-56,"pct_sin_seguro":5,"pct_sus":67,"pct_seguro_privado":0,"brecha_seguro":-9,"pct_salud_publica":27,"pct_med_tradicional":18,"pct_automedicacion":15,"pct_remedios_caseros":22,"pct_viv_desocupada":6,"pct_alquiler":21,"pct_electricidad":86,"pct_sin_electricidad":14,"pct_agua_red":86,"pct_alcantarillado":86,"pct_camara_septica":0,"pct_pozo_ciego":7,"pct_sin_desague":7,"pct_gas_red":0,"pct_gas_garrafa":86,"pct_lena_guano":86,"pct_basura_formal":0,"pct_basura_quema":100,"pct_basura_informal":0,"pct_internet":93,"pct_celular":100,"pct_televisor":50}},{"type":"Feature","geometry":{"type":"Polygon","coordinates":[[[-66.53781,-17.83868],[-66.53751,-17.83877],[-66.53734,-17.83821],[-66.53749,-17.83813],[-66.53755,-17.83833],[-66.53771,-17.8383],[-66.53781,-17.83868]]]},"properties":{"n":"TACOPAYA","p":16,"personas_x_ha":83,"masculinidad":23,"pct_menor20":38,"pct_60mas":25,"pct_migrante":31,"dependencia_econ":129,"pct_empleados":14,"pct_cuentapropia":86,"pct_agricultura":57,"pct_comercio":0,"pct_manufactura":0,"pct_construccion":0,"pct_transporte":0,"pct_alojamiento":14,"pct_sin_educacion":40,"pct_educ_superior":20,"brecha_educ":-12,"pct_sin_seguro":6,"pct_sus":75,"pct_seguro_privado":0,"brecha_seguro":-8,"pct_salud_publica":38,"pct_med_tradicional":6,"pct_automedicacion":6,"pct_remedios_caseros":41,"pct_viv_desocupada":0,"pct_alquiler":10,"pct_electricidad":100,"pct_sin_electricidad":0,"pct_agua_red":100,"pct_alcantarillado":100,"pct_camara_septica":0,"pct_pozo_ciego":0,"pct_sin_desague":0,"pct_gas_red":0,"pct_gas_garrafa":50,"pct_lena_guano":50,"pct_basura_formal":0,"pct_basura_quema":100,"pct_basura_informal":0,"pct_internet":50,"pct_celular":70,"pct_televisor":20}},{"type":"Feature","geometry":{"type":"Polygon","coordinates":[[[-66.53444,-17.83624],[-66.53565,-17.83573],[-66.53539,-17.83527],[-66.53483,-17.83521],[-66.53483,-17.83555],[-66.53433,-17.83558],[-66.53444,-17.83624]]]},"properties":{"n":"TACOPAYA","p":18,"personas_x_ha":20,"masculinidad":125,"pct_menor20":11,"pct_60mas":28,"pct_migrante":50,"dependencia_econ":64,"pct_empleados":73,"pct_cuentapropia":18,"pct_agricultura":9,"pct_comercio":9,"pct_manufactura":9,"pct_construccion":0,"pct_transporte":0,"pct_alojamiento":0,"pct_sin_educacion":12,"pct_educ_superior":56,"brecha_educ":-35,"pct_sin_seguro":11,"pct_sus":61,"pct_seguro_privado":0,"brecha_seguro":-3,"pct_salud_publica":60,"pct_med_tradicional":0,"pct_automedicacion":12,"pct_remedios_caseros":8,"pct_viv_desocupada":10,"pct_alquiler":25,"pct_electricidad":100,"pct_sin_electricidad":0,"pct_agua_red":100,"pct_alcantarillado":50,"pct_camara_septica":0,"pct_pozo_ciego":12,"pct_sin_desague":38,"pct_gas_red":0,"pct_gas_garrafa":100,"pct_lena_guano":100,"pct_basura_formal":25,"pct_basura_quema":62,"pct_basura_informal":0,"pct_internet":62,"pct_celular":88,"pct_televisor":38}},{"type":"Feature","geometry":{"type":"Polygon","coordinates":[[[-66.5368,-17.83751],[-66.53775,-17.83757],[-66.53779,-17.83781],[-66.53762,-17.83797],[-66.53692,-17.83789],[-66.5368,-17.83751]]]},"properties":{"n":"TACOPAYA","p":26,"personas_x_ha":61,"masculinidad":73,"pct_menor20":54,"pct_60mas":12,"pct_migrante":12,"dependencia_econ":108,"pct_empleados":0,"pct_cuentapropia":42,"pct_agricultura":75,"pct_comercio":8,"pct_manufactura":0,"pct_construccion":0,"pct_transporte":0,"pct_alojamiento":0,"pct_sin_educacion":25,"pct_educ_superior":17,"brecha_educ":-22,"pct_sin_seguro":0,"pct_sus":100,"pct_seguro_privado":0,"brecha_seguro":0,"pct_salud_publica":53,"pct_med_tradicional":4,"pct_automedicacion":11,"pct_remedios_caseros":28,"pct_viv_desocupada":18,"pct_alquiler":7,"pct_electricidad":100,"pct_sin_electricidad":0,"pct_agua_red":57,"pct_alcantarillado":100,"pct_camara_septica":0,"pct_pozo_ciego":0,"pct_sin_desague":0,"pct_gas_red":0,"pct_gas_garrafa":71,"pct_lena_guano":71,"pct_basura_formal":14,"pct_basura_quema":64,"pct_basura_informal":0,"pct_internet":43,"pct_celular":79,"pct_televisor":43}},{"type":"Feature","geometry":{"type":"Polygon","coordinates":[[[-66.53683,-17.83792],[-66.53666,-17.83735],[-66.53633,-17.83739],[-66.53653,-17.83799],[-66.53683,-17.83792]]]},"properties":{"n":"TACOPAYA","p":19,"personas_x_ha":81,"masculinidad":111,"pct_menor20":37,"pct_60mas":16,"pct_migrante":21,"dependencia_econ":217,"pct_empleados":0,"pct_cuentapropia":50,"pct_agricultura":100,"pct_comercio":0,"pct_manufactura":0,"pct_construccion":0,"pct_transporte":0,"pct_alojamiento":0,"pct_sin_educacion":33,"pct_educ_superior":0,"brecha_educ":0,"pct_sin_seguro":5,"pct_sus":95,"pct_seguro_privado":0,"brecha_seguro":10,"pct_salud_publica":29,"pct_med_tradicional":18,"pct_automedicacion":23,"pct_remedios_caseros":26,"pct_viv_desocupada":0,"pct_alquiler":0,"pct_electricidad":91,"pct_sin_electricidad":9,"pct_agua_red":82,"pct_alcantarillado":91,"pct_camara_septica":0,"pct_pozo_ciego":0,"pct_sin_desague":9,"pct_gas_red":0,"pct_gas_garrafa":64,"pct_lena_guano":64,"pct_basura_formal":0,"pct_basura_quema":100,"pct_basura_informal":0,"pct_internet":55,"pct_celular":100,"pct_televisor":36}},{"type":"Feature","geometry":{"type":"Polygon","coordinates":[[[-66.53844,-17.83884],[-66.53825,-17.83806],[-66.53805,-17.83809],[-66.53802,-17.83795],[-66.53787,-17.83788],[-66.53752,-17.83813],[-66.53758,-17.8383],[-66.53772,-17.83828],[-66.53786,-17.83871],[-66.53805,-17.83872],[-66.53802,-17.83847],[-66.53811,-17.83876],[-66.53826,-17.83877],[-66.5383,-17.83888],[-66.53844,-17.83884]]]},"properties":{"n":"TACOPAYA","p":49,"personas_x_ha":87,"masculinidad":69,"pct_menor20":76,"pct_60mas":8,"pct_migrante":55,"dependencia_econ":167,"pct_empleados":0,"pct_cuentapropia":72,"pct_agricultura":89,"pct_comercio":0,"pct_manufactura":0,"pct_construccion":0,"pct_transporte":0,"pct_alojamiento":0,"pct_sin_educacion":21,"pct_educ_superior":7,"brecha_educ":4,"pct_sin_seguro":2,"pct_sus":96,"pct_seguro_privado":2,"brecha_seguro":-4,"pct_salud_publica":50,"pct_med_tradicional":7,"pct_automedicacion":17,"pct_remedios_caseros":24,"pct_viv_desocupada":0,"pct_alquiler":0,"pct_electricidad":91,"pct_sin_electricidad":9,"pct_agua_red":100,"pct_alcantarillado":100,"pct_camara_septica":0,"pct_pozo_ciego":0,"pct_sin_desague":0,"pct_gas_red":0,"pct_gas_garrafa":36,"pct_lena_guano":36,"pct_basura_formal":0,"pct_basura_quema":100,"pct_basura_informal":0,"pct_internet":45,"pct_celular":45,"pct_televisor":36}},{"type":"Feature","geometry":{"type":"Polygon","coordinates":[[[-66.61746,-17.88171],[-66.6168,-17.88166],[-66.61684,-17.88121],[-66.61706,-17.88114],[-66.61744,-17.88127],[-66.61746,-17.88171]]]},"properties":{"n":"TOTORA PAMPA","p":20,"personas_x_ha":55,"masculinidad":100,"pct_menor20":55,"pct_60mas":10,"pct_migrante":30,"dependencia_econ":150,"pct_empleados":0,"pct_cuentapropia":50,"pct_agricultura":75,"pct_comercio":0,"pct_manufactura":0,"pct_construccion":12,"pct_transporte":0,"pct_alojamiento":12,"pct_sin_educacion":22,"pct_educ_superior":11,"brecha_educ":15,"pct_sin_seguro":32,"pct_sus":68,"pct_seguro_privado":0,"brecha_seguro":3,"pct_salud_publica":67,"pct_med_tradicional":4,"pct_automedicacion":15,"pct_remedios_caseros":7,"pct_viv_desocupada":0,"pct_alquiler":14,"pct_electricidad":100,"pct_sin_electricidad":0,"pct_agua_red":43,"pct_alcantarillado":14,"pct_camara_septica":0,"pct_pozo_ciego":43,"pct_sin_desague":14,"pct_gas_red":0,"pct_gas_garrafa":14,"pct_lena_guano":14,"pct_basura_formal":14,"pct_basura_quema":86,"pct_basura_informal":0,"pct_internet":43,"pct_celular":57,"pct_televisor":71}},{"type":"Feature","geometry":{"type":"Polygon","coordinates":[[[-66.6178,-17.88499],[-66.61753,-17.88418],[-66.61691,-17.88426],[-66.61669,-17.88454],[-66.61669,-17.88487],[-66.61691,-17.88515],[-66.61729,-17.88523],[-66.6178,-17.88499]]]},"properties":{"n":"TOTORA PAMPA","p":18,"personas_x_ha":17,"masculinidad":80,"pct_menor20":33,"pct_60mas":22,"pct_migrante":6,"dependencia_econ":29,"pct_empleados":0,"pct_cuentapropia":29,"pct_agricultura":86,"pct_comercio":7,"pct_manufactura":0,"pct_construccion":7,"pct_transporte":0,"pct_alojamiento":0,"pct_sin_educacion":42,"pct_educ_superior":0,"brecha_educ":-12,"pct_sin_seguro":0,"pct_sus":100,"pct_seguro_privado":0,"brecha_seguro":0,"pct_salud_publica":82,"pct_med_tradicional":5,"pct_automedicacion":0,"pct_remedios_caseros":14,"pct_viv_desocupada":0,"pct_alquiler":0,"pct_electricidad":29,"pct_sin_electricidad":71,"pct_agua_red":0,"pct_alcantarillado":0,"pct_camara_septica":0,"pct_pozo_ciego":86,"pct_sin_desague":14,"pct_gas_red":0,"pct_gas_garrafa":14,"pct_lena_guano":43,"pct_basura_formal":0,"pct_basura_quema":71,"pct_basura_informal":0,"pct_internet":0,"pct_celular":57,"pct_televisor":71}},{"type":"Feature","geometry":{"type":"Polygon","coordinates":[[[-66.61615,-17.88249],[-66.61614,-17.88229],[-66.61647,-17.88222],[-66.61681,-17.88267],[-66.61645,-17.88287],[-66.61615,-17.88249]]]},"properties":{"n":"TOTORA PAMPA","p":22,"personas_x_ha":70,"masculinidad":83,"pct_menor20":32,"pct_60mas":14,"pct_migrante":5,"dependencia_econ":175,"pct_empleados":0,"pct_cuentapropia":88,"pct_agricultura":88,"pct_comercio":0,"pct_manufactura":0,"pct_construccion":0,"pct_transporte":12,"pct_alojamiento":0,"pct_sin_educacion":20,"pct_educ_superior":0,"brecha_educ":21,"pct_sin_seguro":0,"pct_sus":100,"pct_seguro_privado":0,"brecha_seguro":0,"pct_salud_publica":100,"pct_med_tradicional":0,"pct_automedicacion":0,"pct_remedios_caseros":0,"pct_viv_desocupada":8,"pct_alquiler":0,"pct_electricidad":75,"pct_sin_electricidad":25,"pct_agua_red":0,"pct_alcantarillado":0,"pct_camara_septica":0,"pct_pozo_ciego":25,"pct_sin_desague":12,"pct_gas_red":0,"pct_gas_garrafa":62,"pct_lena_guano":62,"pct_basura_formal":0,"pct_basura_quema":88,"pct_basura_informal":0,"pct_internet":88,"pct_celular":88,"pct_televisor":25}},{"type":"Feature","geometry":{"type":"Polygon","coordinates":[[[-66.61707,-17.88298],[-66.61733,-17.88382],[-66.61749,-17.88409],[-66.61719,-17.88412],[-66.61683,-17.88371],[-66.61652,-17.88362],[-66.61671,-17.88315],[-66.61707,-17.88298]]]},"properties":{"n":"TOTORA PAMPA","p":68,"personas_x_ha":111,"masculinidad":143,"pct_menor20":46,"pct_60mas":9,"pct_migrante":6,"dependencia_econ":119,"pct_empleados":0,"pct_cuentapropia":42,"pct_agricultura":94,"pct_comercio":0,"pct_manufactura":0,"pct_construccion":0,"pct_transporte":0,"pct_alojamiento":0,"pct_sin_educacion":15,"pct_educ_superior":23,"brecha_educ":2,"pct_sin_seguro":4,"pct_sus":93,"pct_seguro_privado":0,"brecha_seguro":-5,"pct_salud_publica":29,"pct_med_tradicional":23,"pct_automedicacion":8,"pct_remedios_caseros":37,"pct_viv_desocupada":0,"pct_alquiler":6,"pct_electricidad":94,"pct_sin_electricidad":6,"pct_agua_red":81,"pct_alcantarillado":19,"pct_camara_septica":0,"pct_pozo_ciego":81,"pct_sin_desague":0,"pct_gas_red":0,"pct_gas_garrafa":31,"pct_lena_guano":31,"pct_basura_formal":0,"pct_basura_quema":75,"pct_basura_informal":0,"pct_internet":12,"pct_celular":69,"pct_televisor":62}},{"type":"Feature","geometry":{"type":"Polygon","coordinates":[[[-66.61744,-17.88383],[-66.61717,-17.88313],[-66.61769,-17.88312],[-66.61793,-17.88321],[-66.61803,-17.88337],[-66.61798,-17.88377],[-66.61784,-17.88401],[-66.6177,-17.88412],[-66.61744,-17.88383]]]},"properties":{"n":"TOTORA PAMPA","p":24,"personas_x_ha":36,"masculinidad":85,"pct_menor20":29,"pct_60mas":38,"pct_migrante":29,"dependencia_econ":60,"pct_empleados":33,"pct_cuentapropia":47,"pct_agricultura":60,"pct_comercio":7,"pct_manufactura":0,"pct_construccion":27,"pct_transporte":0,"pct_alojamiento":0,"pct_sin_educacion":33,"pct_educ_superior":11,"brecha_educ":-12,"pct_sin_seguro":9,"pct_sus":83,"pct_seguro_privado":0,"brecha_seguro":18,"pct_salud_publica":72,"pct_med_tradicional":7,"pct_automedicacion":7,"pct_remedios_caseros":10,"pct_viv_desocupada":14,"pct_alquiler":0,"pct_electricidad":100,"pct_sin_electricidad":0,"pct_agua_red":12,"pct_alcantarillado":12,"pct_camara_septica":38,"pct_pozo_ciego":12,"pct_sin_desague":38,"pct_gas_red":0,"pct_gas_garrafa":12,"pct_lena_guano":12,"pct_basura_formal":0,"pct_basura_quema":100,"pct_basura_informal":0,"pct_internet":50,"pct_celular":75,"pct_televisor":50}},{"type":"Feature","geometry":{"type":"Polygon","coordinates":[[[-66.67079,-17.79378],[-66.67027,-17.79424],[-66.67028,-17.79429],[-66.67053,-17.79433],[-66.67078,-17.79416],[-66.67104,-17.79427],[-66.67118,-17.79401],[-66.67079,-17.79378]]]},"properties":{"n":"VENTILLA","p":15,"personas_x_ha":51,"masculinidad":88,"pct_menor20":13,"pct_60mas":33,"pct_migrante":0,"dependencia_econ":50,"pct_empleados":10,"pct_cuentapropia":70,"pct_agricultura":70,"pct_comercio":0,"pct_manufactura":0,"pct_construccion":10,"pct_transporte":0,"pct_alojamiento":0,"pct_sin_educacion":8,"pct_educ_superior":0,"brecha_educ":-5,"pct_sin_seguro":13,"pct_sus":87,"pct_seguro_privado":0,"brecha_seguro":29,"pct_salud_publica":38,"pct_med_tradicional":8,"pct_automedicacion":5,"pct_remedios_caseros":38,"pct_viv_desocupada":38,"pct_alquiler":0,"pct_electricidad":100,"pct_sin_electricidad":0,"pct_agua_red":100,"pct_alcantarillado":40,"pct_camara_septica":0,"pct_pozo_ciego":60,"pct_sin_desague":0,"pct_gas_red":0,"pct_gas_garrafa":0,"pct_lena_guano":0,"pct_basura_formal":0,"pct_basura_quema":60,"pct_basura_informal":0,"pct_internet":40,"pct_celular":60,"pct_televisor":0}},{"type":"Feature","geometry":{"type":"Polygon","coordinates":[[[-66.67384,-17.79414],[-66.67398,-17.79444],[-66.67386,-17.79448],[-66.67393,-17.7953],[-66.67382,-17.79557],[-66.6736,-17.79581],[-66.6735,-17.79574],[-66.67362,-17.7953],[-66.67348,-17.79429],[-66.67384,-17.79414]]]},"properties":{"n":"VENTILLA","p":17,"personas_x_ha":29,"masculinidad":183,"pct_menor20":24,"pct_60mas":29,"pct_migrante":0,"dependencia_econ":70,"pct_empleados":40,"pct_cuentapropia":50,"pct_agricultura":20,"pct_comercio":10,"pct_manufactura":0,"pct_construccion":40,"pct_transporte":0,"pct_alojamiento":0,"pct_sin_educacion":0,"pct_educ_superior":8,"brecha_educ":-28,"pct_sin_seguro":7,"pct_sus":73,"pct_seguro_privado":0,"brecha_seguro":11,"pct_salud_publica":82,"pct_med_tradicional":0,"pct_automedicacion":0,"pct_remedios_caseros":0,"pct_viv_desocupada":0,"pct_alquiler":0,"pct_electricidad":50,"pct_sin_electricidad":25,"pct_agua_red":25,"pct_alcantarillado":12,"pct_camara_septica":12,"pct_pozo_ciego":0,"pct_sin_desague":62,"pct_gas_red":0,"pct_gas_garrafa":50,"pct_lena_guano":50,"pct_basura_formal":0,"pct_basura_quema":88,"pct_basura_informal":0,"pct_internet":75,"pct_celular":88,"pct_televisor":0}},{"type":"Feature","geometry":{"type":"Polygon","coordinates":[[[-66.67133,-17.79695],[-66.67117,-17.79744],[-66.67099,-17.79728],[-66.67133,-17.79695]]]},"properties":{"n":"VENTILLA","p":22,"personas_x_ha":278,"masculinidad":120,"pct_menor20":50,"pct_60mas":14,"pct_migrante":5,"dependencia_econ":83,"pct_empleados":0,"pct_cuentapropia":83,"pct_agricultura":50,"pct_comercio":0,"pct_manufactura":8,"pct_construccion":8,"pct_transporte":8,"pct_alojamiento":8,"pct_sin_educacion":0,"pct_educ_superior":9,"brecha_educ":-63,"pct_sin_seguro":0,"pct_sus":95,"pct_seguro_privado":0,"brecha_seguro":0,"pct_salud_publica":39,"pct_med_tradicional":11,"pct_automedicacion":16,"pct_remedios_caseros":21,"pct_viv_desocupada":0,"pct_alquiler":0,"pct_electricidad":83,"pct_sin_electricidad":17,"pct_agua_red":33,"pct_alcantarillado":0,"pct_camara_septica":33,"pct_pozo_ciego":33,"pct_sin_desague":33,"pct_gas_red":0,"pct_gas_garrafa":0,"pct_lena_guano":0,"pct_basura_formal":0,"pct_basura_quema":83,"pct_basura_informal":0,"pct_internet":50,"pct_celular":67,"pct_televisor":17}}]}