{"type":"FeatureCollection","features":[{"type":"Feature","geometry":{"type":"Polygon","coordinates":[[[-66.55286,-17.01341],[-66.55228,-17.01326],[-66.55247,-17.01286],[-66.55266,-17.01276],[-66.55418,-17.01297],[-66.554,-17.01362],[-66.55372,-17.01363],[-66.55286,-17.01341],[-66.55294,-17.01311],[-66.55293,-17.01311],[-66.55286,-17.01341]]]},"properties":{"n":"CALIENTES","p":30,"personas_x_ha":23,"masculinidad":131,"pct_menor20":33,"pct_60mas":7,"pct_migrante":30,"dependencia_econ":93,"pct_empleados":20,"pct_cuentapropia":73,"pct_agricultura":67,"pct_comercio":0,"pct_manufactura":7,"pct_construccion":7,"pct_transporte":7,"pct_alojamiento":0,"pct_educ_superior":5,"brecha_educ":-6,"pct_sin_seguro":24,"pct_seguro_privado":0,"brecha_seguro":30,"pct_med_tradicional":11,"pct_automedicacion":4,"pct_remedios_caseros":24,"pct_viv_desocupada":0,"pct_alquiler":0,"pct_electricidad":57,"pct_agua_red":71,"pct_alcantarillado":14,"pct_gas_red":0,"pct_gas_garrafa":79,"pct_lena_guano":93,"pct_basura_formal":7,"pct_basura_quema":71,"pct_basura_informal":43,"pct_internet":43,"pct_celular":71,"pct_televisor":14}},{"type":"Feature","geometry":{"type":"Polygon","coordinates":[[[-66.55306,-17.01153],[-66.55276,-17.01271],[-66.55309,-17.01277],[-66.55315,-17.01259],[-66.5531,-17.01277],[-66.55449,-17.01299],[-66.55561,-17.01143],[-66.55461,-17.01096],[-66.55364,-17.01069],[-66.55306,-17.01153]]]},"properties":{"n":"CALIENTES","p":29,"personas_x_ha":6,"masculinidad":81,"pct_menor20":45,"pct_60mas":14,"pct_migrante":21,"dependencia_econ":87,"pct_empleados":7,"pct_cuentapropia":73,"pct_agricultura":93,"pct_comercio":0,"pct_manufactura":7,"pct_construccion":13,"pct_transporte":0,"pct_alojamiento":0,"pct_educ_superior":12,"brecha_educ":0,"pct_sin_seguro":4,"pct_seguro_privado":0,"brecha_seguro":8,"pct_med_tradicional":14,"pct_automedicacion":18,"pct_remedios_caseros":23,"pct_viv_desocupada":0,"pct_alquiler":0,"pct_electricidad":22,"pct_agua_red":22,"pct_alcantarillado":0,"pct_gas_red":0,"pct_gas_garrafa":56,"pct_lena_guano":89,"pct_basura_formal":0,"pct_basura_quema":78,"pct_basura_informal":22,"pct_internet":33,"pct_celular":56,"pct_televisor":22}},{"type":"Feature","geometry":{"type":"Polygon","coordinates":[[[-66.55126,-17.01203],[-66.55036,-17.01186],[-66.55028,-17.01239],[-66.55261,-17.01269],[-66.55273,-17.01255],[-66.55275,-17.01243],[-66.55215,-17.01233],[-66.55126,-17.01203]]]},"properties":{"n":"CALIENTES","p":16,"personas_x_ha":13,"masculinidad":100,"pct_menor20":19,"pct_60mas":6,"pct_migrante":38,"dependencia_econ":60,"pct_empleados":40,"pct_cuentapropia":40,"pct_agricultura":80,"pct_comercio":10,"pct_manufactura":0,"pct_construccion":0,"pct_transporte":0,"pct_alojamiento":0,"pct_educ_superior":15,"brecha_educ":38,"pct_sin_seguro":6,"pct_seguro_privado":0,"brecha_seguro":12,"pct_med_tradicional":15,"pct_automedicacion":24,"pct_remedios_caseros":25,"pct_viv_desocupada":0,"pct_alquiler":0,"pct_electricidad":62,"pct_agua_red":12,"pct_alcantarillado":0,"pct_gas_red":0,"pct_gas_garrafa":25,"pct_lena_guano":88,"pct_basura_formal":0,"pct_basura_quema":100,"pct_basura_informal":0,"pct_internet":62,"pct_celular":88,"pct_televisor":0}},{"type":"Feature","geometry":{"type":"Polygon","coordinates":[[[-66.55343,-17.01399],[-66.55347,-17.01357],[-66.55223,-17.0133],[-66.55264,-17.01417],[-66.55275,-17.0142],[-66.55299,-17.01396],[-66.55294,-17.01389],[-66.553,-17.01396],[-66.55276,-17.0142],[-66.55326,-17.01411],[-66.55343,-17.01399]]]},"properties":{"n":"CALIENTES","p":35,"personas_x_ha":41,"masculinidad":94,"pct_menor20":29,"pct_60mas":23,"pct_migrante":6,"dependencia_econ":52,"pct_empleados":0,"pct_cuentapropia":74,"pct_agricultura":65,"pct_comercio":22,"pct_manufactura":0,"pct_construccion":4,"pct_transporte":4,"pct_alojamiento":0,"pct_educ_superior":4,"brecha_educ":-19,"pct_sin_seguro":14,"pct_seguro_privado":0,"brecha_seguro":-5,"pct_med_tradicional":20,"pct_automedicacion":18,"pct_remedios_caseros":26,"pct_viv_desocupada":0,"pct_alquiler":0,"pct_electricidad":75,"pct_agua_red":50,"pct_alcantarillado":0,"pct_gas_red":0,"pct_gas_garrafa":56,"pct_lena_guano":81,"pct_basura_formal":0,"pct_basura_quema":75,"pct_basura_informal":0,"pct_internet":56,"pct_celular":81,"pct_televisor":38}},{"type":"Feature","geometry":{"type":"Polygon","coordinates":[[[-66.55116,-17.01316],[-66.55106,-17.01392],[-66.55152,-17.0141],[-66.55188,-17.01439],[-66.55208,-17.0142],[-66.55188,-17.0144],[-66.55206,-17.01462],[-66.55241,-17.01458],[-66.55271,-17.01437],[-66.55275,-17.01427],[-66.55255,-17.01427],[-66.55228,-17.01385],[-66.55205,-17.01332],[-66.55176,-17.01338],[-66.55175,-17.01353],[-66.55174,-17.0134],[-66.55177,-17.01337],[-66.55197,-17.01331],[-66.55116,-17.01316]]]},"properties":{"n":"CALIENTES","p":29,"personas_x_ha":19,"masculinidad":81,"pct_menor20":17,"pct_60mas":21,"pct_migrante":14,"dependencia_econ":32,"pct_empleados":9,"pct_cuentapropia":68,"pct_agricultura":68,"pct_comercio":18,"pct_manufactura":0,"pct_construccion":0,"pct_transporte":5,"pct_alojamiento":5,"pct_educ_superior":0,"brecha_educ":-24,"pct_sin_seguro":0,"pct_seguro_privado":0,"brecha_seguro":0,"pct_med_tradicional":8,"pct_automedicacion":10,"pct_remedios_caseros":33,"pct_viv_desocupada":0,"pct_alquiler":0,"pct_electricidad":50,"pct_agua_red":29,"pct_alcantarillado":7,"pct_gas_red":0,"pct_gas_garrafa":50,"pct_lena_guano":93,"pct_basura_formal":0,"pct_basura_quema":93,"pct_basura_informal":14,"pct_internet":36,"pct_celular":71,"pct_televisor":29}},{"type":"Feature","geometry":{"type":"Polygon","coordinates":[[[-66.55302,-17.01527],[-66.55306,-17.01491],[-66.553,-17.01463],[-66.55315,-17.01416],[-66.55285,-17.01424],[-66.5529,-17.01444],[-66.55277,-17.01484],[-66.55278,-17.01514],[-66.55302,-17.01527]]]},"properties":{"n":"CALIENTES","p":34,"personas_x_ha":110,"masculinidad":143,"pct_menor20":26,"pct_60mas":6,"pct_migrante":9,"dependencia_econ":28,"pct_empleados":20,"pct_cuentapropia":72,"pct_agricultura":28,"pct_comercio":24,"pct_manufactura":8,"pct_construccion":4,"pct_transporte":8,"pct_alojamiento":16,"pct_educ_superior":17,"brecha_educ":-56,"pct_sin_seguro":12,"pct_seguro_privado":0,"brecha_seguro":10,"pct_med_tradicional":18,"pct_automedicacion":4,"pct_remedios_caseros":34,"pct_viv_desocupada":0,"pct_alquiler":6,"pct_electricidad":59,"pct_agua_red":18,"pct_alcantarillado":6,"pct_gas_red":0,"pct_gas_garrafa":59,"pct_lena_guano":65,"pct_basura_formal":0,"pct_basura_quema":71,"pct_basura_informal":12,"pct_internet":88,"pct_celular":88,"pct_televisor":35}},{"type":"Feature","geometry":{"type":"Polygon","coordinates":[[[-66.55416,-17.01523],[-66.55397,-17.01395],[-66.5535,-17.01402],[-66.55339,-17.01411],[-66.55355,-17.01422],[-66.55338,-17.01411],[-66.55308,-17.0146],[-66.5531,-17.01526],[-66.55372,-17.01566],[-66.55416,-17.01523]]]},"properties":{"n":"CALIENTES","p":16,"personas_x_ha":10,"masculinidad":60,"pct_menor20":44,"pct_60mas":0,"pct_migrante":12,"dependencia_econ":45,"pct_empleados":27,"pct_cuentapropia":73,"pct_agricultura":55,"pct_comercio":0,"pct_manufactura":9,"pct_construccion":9,"pct_transporte":9,"pct_alojamiento":18,"pct_educ_superior":0,"brecha_educ":-35,"pct_sin_seguro":0,"pct_seguro_privado":0,"brecha_seguro":0,"pct_med_tradicional":17,"pct_automedicacion":17,"pct_remedios_caseros":23,"pct_viv_desocupada":25,"pct_alquiler":17,"pct_electricidad":33,"pct_agua_red":67,"pct_alcantarillado":0,"pct_gas_red":0,"pct_gas_garrafa":100,"pct_lena_guano":100,"pct_basura_formal":0,"pct_basura_quema":83,"pct_basura_informal":0,"pct_internet":67,"pct_celular":100,"pct_televisor":33}},{"type":"Feature","geometry":{"type":"Polygon","coordinates":[[[-66.65074,-16.79313],[-66.65021,-16.79376],[-66.6506,-16.79408],[-66.65123,-16.79354],[-66.65074,-16.79313]]]},"properties":{"n":"CHORO","p":17,"personas_x_ha":31,"masculinidad":112,"pct_menor20":24,"pct_60mas":18,"pct_migrante":18,"dependencia_econ":42,"pct_empleados":0,"pct_cuentapropia":100,"pct_agricultura":67,"pct_comercio":0,"pct_manufactura":0,"pct_construccion":0,"pct_transporte":8,"pct_alojamiento":8,"pct_educ_superior":8,"brecha_educ":-5,"pct_sin_seguro":12,"pct_seguro_privado":0,"brecha_seguro":-1,"pct_med_tradicional":10,"pct_automedicacion":10,"pct_remedios_caseros":21,"pct_viv_desocupada":22,"pct_alquiler":0,"pct_electricidad":86,"pct_agua_red":57,"pct_alcantarillado":14,"pct_gas_red":0,"pct_gas_garrafa":29,"pct_lena_guano":29,"pct_basura_formal":0,"pct_basura_quema":100,"pct_basura_informal":0,"pct_internet":100,"pct_celular":100,"pct_televisor":29}},{"type":"Feature","geometry":{"type":"Polygon","coordinates":[[[-66.65009,-16.79377],[-66.64972,-16.7935],[-66.64918,-16.79413],[-66.64956,-16.79441],[-66.65009,-16.79377]]]},"properties":{"n":"CHORO","p":25,"personas_x_ha":55,"masculinidad":67,"pct_menor20":48,"pct_60mas":8,"pct_migrante":28,"dependencia_econ":178,"pct_empleados":0,"pct_cuentapropia":78,"pct_agricultura":111,"pct_comercio":0,"pct_manufactura":0,"pct_construccion":0,"pct_transporte":0,"pct_alojamiento":0,"pct_educ_superior":8,"brecha_educ":-5,"pct_sin_seguro":0,"pct_seguro_privado":0,"brecha_seguro":0,"pct_med_tradicional":30,"pct_automedicacion":10,"pct_remedios_caseros":13,"pct_viv_desocupada":11,"pct_alquiler":0,"pct_electricidad":100,"pct_agua_red":0,"pct_alcantarillado":0,"pct_gas_red":0,"pct_gas_garrafa":75,"pct_lena_guano":75,"pct_basura_formal":0,"pct_basura_quema":100,"pct_basura_informal":0,"pct_internet":88,"pct_celular":88,"pct_televisor":62}},{"type":"Feature","geometry":{"type":"Polygon","coordinates":[[[-66.65074,-16.79535],[-66.65,-16.79469],[-66.65062,-16.79419],[-66.65125,-16.79472],[-66.65074,-16.79535]]]},"properties":{"n":"CHORO","p":29,"personas_x_ha":33,"masculinidad":93,"pct_menor20":38,"pct_60mas":3,"pct_migrante":38,"dependencia_econ":142,"pct_empleados":17,"pct_cuentapropia":75,"pct_agricultura":100,"pct_comercio":17,"pct_manufactura":0,"pct_construccion":0,"pct_transporte":0,"pct_alojamiento":0,"pct_educ_superior":11,"brecha_educ":-32,"pct_sin_seguro":0,"pct_seguro_privado":0,"brecha_seguro":0,"pct_med_tradicional":3,"pct_automedicacion":2,"pct_remedios_caseros":25,"pct_viv_desocupada":12,"pct_alquiler":0,"pct_electricidad":86,"pct_agua_red":0,"pct_alcantarillado":0,"pct_gas_red":0,"pct_gas_garrafa":14,"pct_lena_guano":14,"pct_basura_formal":0,"pct_basura_quema":100,"pct_basura_informal":0,"pct_internet":86,"pct_celular":100,"pct_televisor":57}},{"type":"Feature","geometry":{"type":"Polygon","coordinates":[[[-66.67003,-16.80216],[-66.66972,-16.80154],[-66.6692,-16.80178],[-66.66953,-16.8024],[-66.67003,-16.80216]]]},"properties":{"n":"COCAPATA","p":22,"personas_x_ha":45,"masculinidad":144,"pct_menor20":36,"pct_60mas":23,"pct_migrante":41,"dependencia_econ":69,"pct_empleados":23,"pct_cuentapropia":69,"pct_agricultura":54,"pct_comercio":8,"pct_manufactura":0,"pct_construccion":8,"pct_transporte":0,"pct_alojamiento":0,"pct_educ_superior":7,"brecha_educ":-30,"pct_sin_seguro":9,"pct_seguro_privado":0,"brecha_seguro":15,"pct_med_tradicional":0,"pct_automedicacion":5,"pct_remedios_caseros":44,"pct_viv_desocupada":22,"pct_alquiler":0,"pct_electricidad":86,"pct_agua_red":29,"pct_alcantarillado":86,"pct_gas_red":0,"pct_gas_garrafa":100,"pct_lena_guano":100,"pct_basura_formal":0,"pct_basura_quema":100,"pct_basura_informal":0,"pct_internet":86,"pct_celular":100,"pct_televisor":43}},{"type":"Feature","geometry":{"type":"Polygon","coordinates":[[[-66.66866,-16.80097],[-66.66832,-16.80032],[-66.66782,-16.80056],[-66.66817,-16.80121],[-66.66866,-16.80097]]]},"properties":{"n":"COCAPATA","p":18,"personas_x_ha":37,"masculinidad":80,"pct_menor20":33,"pct_60mas":11,"pct_migrante":61,"dependencia_econ":100,"pct_empleados":11,"pct_cuentapropia":89,"pct_agricultura":44,"pct_comercio":11,"pct_manufactura":0,"pct_construccion":11,"pct_transporte":22,"pct_alojamiento":0,"pct_educ_superior":0,"brecha_educ":-17,"pct_sin_seguro":11,"pct_seguro_privado":0,"brecha_seguro":-20,"pct_med_tradicional":32,"pct_automedicacion":0,"pct_remedios_caseros":32,"pct_viv_desocupada":0,"pct_alquiler":0,"pct_electricidad":86,"pct_agua_red":100,"pct_alcantarillado":86,"pct_gas_red":0,"pct_gas_garrafa":29,"pct_lena_guano":29,"pct_basura_formal":14,"pct_basura_quema":86,"pct_basura_informal":0,"pct_internet":86,"pct_celular":86,"pct_televisor":43}},{"type":"Feature","geometry":{"type":"Polygon","coordinates":[[[-66.6694,-16.79898],[-66.66897,-16.79815],[-66.66846,-16.79871],[-66.66876,-16.7993],[-66.6694,-16.79898]]]},"properties":{"n":"COCAPATA","p":25,"personas_x_ha":35,"masculinidad":92,"pct_menor20":28,"pct_60mas":28,"pct_migrante":24,"dependencia_econ":178,"pct_empleados":11,"pct_cuentapropia":89,"pct_agricultura":78,"pct_comercio":11,"pct_manufactura":0,"pct_construccion":11,"pct_transporte":0,"pct_alojamiento":11,"pct_educ_superior":0,"brecha_educ":-16,"pct_sin_seguro":8,"pct_seguro_privado":0,"brecha_seguro":1,"pct_med_tradicional":7,"pct_automedicacion":18,"pct_remedios_caseros":26,"pct_viv_desocupada":0,"pct_alquiler":0,"pct_electricidad":70,"pct_agua_red":100,"pct_alcantarillado":80,"pct_gas_red":0,"pct_gas_garrafa":60,"pct_lena_guano":60,"pct_basura_formal":0,"pct_basura_quema":80,"pct_basura_informal":20,"pct_internet":80,"pct_celular":90,"pct_televisor":50}},{"type":"Feature","geometry":{"type":"Polygon","coordinates":[[[-66.66948,-16.79909],[-66.66877,-16.79941],[-66.66919,-16.8002],[-66.66989,-16.79989],[-66.66948,-16.79909]]]},"properties":{"n":"COCAPATA","p":25,"personas_x_ha":30,"masculinidad":212,"pct_menor20":28,"pct_60mas":16,"pct_migrante":28,"dependencia_econ":118,"pct_empleados":0,"pct_cuentapropia":91,"pct_agricultura":55,"pct_comercio":18,"pct_manufactura":9,"pct_construccion":9,"pct_transporte":27,"pct_alojamiento":0,"pct_educ_superior":18,"brecha_educ":-41,"pct_sin_seguro":8,"pct_seguro_privado":0,"brecha_seguro":12,"pct_med_tradicional":7,"pct_automedicacion":19,"pct_remedios_caseros":20,"pct_viv_desocupada":0,"pct_alquiler":0,"pct_electricidad":100,"pct_agua_red":100,"pct_alcantarillado":92,"pct_gas_red":0,"pct_gas_garrafa":33,"pct_lena_guano":33,"pct_basura_formal":8,"pct_basura_quema":83,"pct_basura_informal":0,"pct_internet":100,"pct_celular":100,"pct_televisor":50}},{"type":"Feature","geometry":{"type":"Polygon","coordinates":[[[-66.6691,-16.80181],[-66.66861,-16.80205],[-66.66894,-16.80271],[-66.66943,-16.80246],[-66.6691,-16.80181]]]},"properties":{"n":"COCAPATA","p":24,"personas_x_ha":50,"masculinidad":60,"pct_menor20":38,"pct_60mas":12,"pct_migrante":54,"dependencia_econ":100,"pct_empleados":0,"pct_cuentapropia":92,"pct_agricultura":92,"pct_comercio":0,"pct_manufactura":8,"pct_construccion":0,"pct_transporte":0,"pct_alojamiento":0,"pct_educ_superior":0,"brecha_educ":10,"pct_sin_seguro":4,"pct_seguro_privado":0,"brecha_seguro":-7,"pct_med_tradicional":2,"pct_automedicacion":23,"pct_remedios_caseros":33,"pct_viv_desocupada":0,"pct_alquiler":12,"pct_electricidad":88,"pct_agua_red":62,"pct_alcantarillado":100,"pct_gas_red":0,"pct_gas_garrafa":38,"pct_lena_guano":38,"pct_basura_formal":0,"pct_basura_quema":88,"pct_basura_informal":25,"pct_internet":50,"pct_celular":100,"pct_televisor":38}},{"type":"Feature","geometry":{"type":"Polygon","coordinates":[[[-66.67078,-16.80188],[-66.67065,-16.80109],[-66.66988,-16.80145],[-66.67023,-16.8021],[-66.67078,-16.80188]]]},"properties":{"n":"COCAPATA","p":22,"personas_x_ha":33,"masculinidad":144,"pct_menor20":5,"pct_60mas":23,"pct_migrante":18,"dependencia_econ":10,"pct_empleados":0,"pct_cuentapropia":35,"pct_agricultura":75,"pct_comercio":20,"pct_manufactura":0,"pct_construccion":0,"pct_transporte":5,"pct_alojamiento":0,"pct_educ_superior":14,"brecha_educ":-47,"pct_sin_seguro":14,"pct_seguro_privado":0,"brecha_seguro":4,"pct_med_tradicional":0,"pct_automedicacion":0,"pct_remedios_caseros":4,"pct_viv_desocupada":0,"pct_alquiler":0,"pct_electricidad":100,"pct_agua_red":100,"pct_alcantarillado":100,"pct_gas_red":0,"pct_gas_garrafa":0,"pct_lena_guano":0,"pct_basura_formal":25,"pct_basura_quema":75,"pct_basura_informal":0,"pct_internet":75,"pct_celular":100,"pct_televisor":50}},{"type":"Feature","geometry":{"type":"Polygon","coordinates":[[[-66.67204,-16.80178],[-66.67141,-16.80135],[-66.67158,-16.80079],[-66.6725,-16.80114],[-66.67204,-16.80178]]]},"properties":{"n":"COCAPATA","p":18,"personas_x_ha":24,"masculinidad":157,"pct_menor20":39,"pct_60mas":17,"pct_migrante":11,"dependencia_econ":80,"pct_empleados":0,"pct_cuentapropia":70,"pct_agricultura":100,"pct_comercio":0,"pct_manufactura":0,"pct_construccion":0,"pct_transporte":0,"pct_alojamiento":0,"pct_educ_superior":9,"brecha_educ":-63,"pct_sin_seguro":0,"pct_seguro_privado":0,"brecha_seguro":0,"pct_med_tradicional":0,"pct_automedicacion":0,"pct_remedios_caseros":25,"pct_viv_desocupada":14,"pct_alquiler":0,"pct_electricidad":100,"pct_agua_red":100,"pct_alcantarillado":67,"pct_gas_red":0,"pct_gas_garrafa":17,"pct_lena_guano":17,"pct_basura_formal":17,"pct_basura_quema":83,"pct_basura_informal":0,"pct_internet":100,"pct_celular":100,"pct_televisor":17}},{"type":"Feature","geometry":{"type":"Polygon","coordinates":[[[-66.66777,-16.80044],[-66.66828,-16.80019],[-66.66781,-16.79937],[-66.66732,-16.79962],[-66.66777,-16.80044]]]},"properties":{"n":"COCAPATA","p":28,"personas_x_ha":42,"masculinidad":115,"pct_menor20":32,"pct_60mas":11,"pct_migrante":64,"dependencia_econ":133,"pct_empleados":67,"pct_cuentapropia":33,"pct_agricultura":25,"pct_comercio":8,"pct_manufactura":0,"pct_construccion":0,"pct_transporte":8,"pct_alojamiento":0,"pct_educ_superior":47,"brecha_educ":-19,"pct_sin_seguro":0,"pct_seguro_privado":4,"brecha_seguro":0,"pct_med_tradicional":17,"pct_automedicacion":11,"pct_remedios_caseros":26,"pct_viv_desocupada":5,"pct_alquiler":7,"pct_electricidad":86,"pct_agua_red":93,"pct_alcantarillado":86,"pct_gas_red":0,"pct_gas_garrafa":57,"pct_lena_guano":57,"pct_basura_formal":36,"pct_basura_quema":50,"pct_basura_informal":14,"pct_internet":86,"pct_celular":79,"pct_televisor":71}},{"type":"Feature","geometry":{"type":"Polygon","coordinates":[[[-66.87799,-15.88275],[-66.8777,-15.88363],[-66.87824,-15.88378],[-66.87836,-15.88345],[-66.87825,-15.88378],[-66.87877,-15.88392],[-66.8789,-15.8836],[-66.87889,-15.88344],[-66.87874,-15.88339],[-66.87889,-15.88343],[-66.87888,-15.883],[-66.87868,-15.88293],[-66.87847,-15.88307],[-66.87839,-15.88328],[-66.87829,-15.8833],[-66.87843,-15.88284],[-66.87799,-15.88275]]]},"properties":{"n":"COLORADO","p":54,"personas_x_ha":49,"masculinidad":50,"pct_menor20":59,"pct_60mas":2,"pct_migrante":76,"dependencia_econ":238,"pct_empleados":19,"pct_cuentapropia":81,"pct_agricultura":88,"pct_comercio":6,"pct_manufactura":0,"pct_construccion":0,"pct_transporte":0,"pct_alojamiento":0,"pct_educ_superior":9,"brecha_educ":-21,"pct_sin_seguro":21,"pct_seguro_privado":2,"brecha_seguro":2,"pct_med_tradicional":9,"pct_automedicacion":7,"pct_remedios_caseros":47,"pct_viv_desocupada":0,"pct_alquiler":7,"pct_electricidad":32,"pct_agua_red":0,"pct_alcantarillado":0,"pct_gas_red":0,"pct_gas_garrafa":57,"pct_lena_guano":57,"pct_basura_formal":0,"pct_basura_quema":86,"pct_basura_informal":0,"pct_internet":68,"pct_celular":82,"pct_televisor":18}},{"type":"Feature","geometry":{"type":"Polygon","coordinates":[[[-66.87833,-15.88505],[-66.87871,-15.88406],[-66.87826,-15.88392],[-66.87795,-15.8846],[-66.87782,-15.8852],[-66.87812,-15.88525],[-66.87833,-15.88505]]]},"properties":{"n":"COLORADO","p":20,"personas_x_ha":26,"masculinidad":150,"pct_menor20":45,"pct_60mas":5,"pct_migrante":85,"dependencia_econ":67,"pct_empleados":50,"pct_cuentapropia":50,"pct_agricultura":42,"pct_comercio":17,"pct_manufactura":0,"pct_construccion":33,"pct_transporte":0,"pct_alojamiento":0,"pct_educ_superior":0,"brecha_educ":17,"pct_sin_seguro":40,"pct_seguro_privado":0,"brecha_seguro":-38,"pct_med_tradicional":5,"pct_automedicacion":23,"pct_remedios_caseros":23,"pct_viv_desocupada":0,"pct_alquiler":0,"pct_electricidad":0,"pct_agua_red":0,"pct_alcantarillado":0,"pct_gas_red":0,"pct_gas_garrafa":33,"pct_lena_guano":33,"pct_basura_formal":0,"pct_basura_quema":89,"pct_basura_informal":22,"pct_internet":56,"pct_celular":67,"pct_televisor":11}},{"type":"Feature","geometry":{"type":"Polygon","coordinates":[[[-66.87889,-15.88416],[-66.87854,-15.88492],[-66.87898,-15.88492],[-66.87918,-15.88427],[-66.87889,-15.88416]]]},"properties":{"n":"COLORADO","p":16,"personas_x_ha":48,"masculinidad":100,"pct_menor20":69,"pct_60mas":0,"pct_migrante":31,"dependencia_econ":433,"pct_empleados":33,"pct_cuentapropia":67,"pct_agricultura":67,"pct_comercio":0,"pct_manufactura":33,"pct_construccion":0,"pct_transporte":0,"pct_alojamiento":0,"pct_educ_superior":0,"brecha_educ":25,"pct_sin_seguro":0,"pct_seguro_privado":0,"brecha_seguro":0,"pct_med_tradicional":0,"pct_automedicacion":24,"pct_remedios_caseros":29,"pct_viv_desocupada":0,"pct_alquiler":0,"pct_electricidad":67,"pct_agua_red":0,"pct_alcantarillado":0,"pct_gas_red":0,"pct_gas_garrafa":50,"pct_lena_guano":50,"pct_basura_formal":0,"pct_basura_quema":100,"pct_basura_informal":0,"pct_internet":67,"pct_celular":67,"pct_televisor":50}},{"type":"Feature","geometry":{"type":"Polygon","coordinates":[[[-66.87896,-15.88298],[-66.87913,-15.88302],[-66.87937,-15.88216],[-66.87871,-15.88198],[-66.87868,-15.88219],[-66.87896,-15.88298]]]},"properties":{"n":"COLORADO","p":21,"personas_x_ha":42,"masculinidad":91,"pct_menor20":57,"pct_60mas":0,"pct_migrante":76,"dependencia_econ":162,"pct_empleados":0,"pct_cuentapropia":100,"pct_agricultura":50,"pct_comercio":12,"pct_manufactura":12,"pct_construccion":0,"pct_transporte":25,"pct_alojamiento":0,"pct_educ_superior":0,"brecha_educ":-10,"pct_sin_seguro":14,"pct_seguro_privado":0,"brecha_seguro":-8,"pct_med_tradicional":4,"pct_automedicacion":22,"pct_remedios_caseros":29,"pct_viv_desocupada":0,"pct_alquiler":10,"pct_electricidad":70,"pct_agua_red":0,"pct_alcantarillado":0,"pct_gas_red":0,"pct_gas_garrafa":80,"pct_lena_guano":80,"pct_basura_formal":0,"pct_basura_quema":90,"pct_basura_informal":0,"pct_internet":70,"pct_celular":80,"pct_televisor":70}},{"type":"Feature","geometry":{"type":"Polygon","coordinates":[[[-66.42611,-17.08329],[-66.42582,-17.08361],[-66.42582,-17.08395],[-66.42633,-17.08497],[-66.42688,-17.08539],[-66.42643,-17.08479],[-66.42618,-17.08407],[-66.42623,-17.08348],[-66.42611,-17.08329]]]},"properties":{"n":"COLQUECHACA","p":23,"personas_x_ha":36,"masculinidad":109,"pct_menor20":30,"pct_60mas":13,"pct_migrante":30,"dependencia_econ":35,"pct_empleados":18,"pct_cuentapropia":76,"pct_agricultura":76,"pct_comercio":0,"pct_manufactura":0,"pct_construccion":6,"pct_transporte":6,"pct_alojamiento":0,"pct_educ_superior":12,"brecha_educ":-2,"pct_sin_seguro":13,"pct_seguro_privado":0,"brecha_seguro":8,"pct_med_tradicional":17,"pct_automedicacion":16,"pct_remedios_caseros":22,"pct_viv_desocupada":0,"pct_alquiler":0,"pct_electricidad":70,"pct_agua_red":80,"pct_alcantarillado":0,"pct_gas_red":0,"pct_gas_garrafa":60,"pct_lena_guano":80,"pct_basura_formal":0,"pct_basura_quema":90,"pct_basura_informal":0,"pct_internet":60,"pct_celular":80,"pct_televisor":20}},{"type":"Feature","geometry":{"type":"Polygon","coordinates":[[[-66.42673,-17.08351],[-66.42618,-17.08293],[-66.426,-17.08313],[-66.42623,-17.0833],[-66.42638,-17.08363],[-66.42648,-17.08369],[-66.42673,-17.08351]]]},"properties":{"n":"COLQUECHACA","p":18,"personas_x_ha":67,"masculinidad":157,"pct_menor20":44,"pct_60mas":11,"pct_migrante":44,"dependencia_econ":125,"pct_empleados":0,"pct_cuentapropia":88,"pct_agricultura":100,"pct_comercio":0,"pct_manufactura":0,"pct_construccion":0,"pct_transporte":0,"pct_alojamiento":0,"pct_educ_superior":10,"brecha_educ":5,"pct_sin_seguro":6,"pct_seguro_privado":0,"brecha_seguro":9,"pct_med_tradicional":18,"pct_automedicacion":11,"pct_remedios_caseros":24,"pct_viv_desocupada":0,"pct_alquiler":0,"pct_electricidad":88,"pct_agua_red":38,"pct_alcantarillado":0,"pct_gas_red":0,"pct_gas_garrafa":50,"pct_lena_guano":62,"pct_basura_formal":0,"pct_basura_quema":88,"pct_basura_informal":0,"pct_internet":25,"pct_celular":75,"pct_televisor":38}},{"type":"Feature","geometry":{"type":"Polygon","coordinates":[[[-66.42635,-17.08372],[-66.4267,-17.08498],[-66.42678,-17.08493],[-66.42702,-17.08444],[-66.42643,-17.08372],[-66.42635,-17.08372]]]},"properties":{"n":"COLQUECHACA","p":30,"personas_x_ha":68,"masculinidad":150,"pct_menor20":30,"pct_60mas":7,"pct_migrante":17,"dependencia_econ":222,"pct_empleados":0,"pct_cuentapropia":100,"pct_agricultura":156,"pct_comercio":0,"pct_manufactura":11,"pct_construccion":0,"pct_transporte":0,"pct_alojamiento":0,"pct_educ_superior":0,"brecha_educ":0,"pct_sin_seguro":0,"pct_seguro_privado":0,"brecha_seguro":0,"pct_med_tradicional":11,"pct_automedicacion":4,"pct_remedios_caseros":13,"pct_viv_desocupada":7,"pct_alquiler":0,"pct_electricidad":100,"pct_agua_red":100,"pct_alcantarillado":17,"pct_gas_red":0,"pct_gas_garrafa":75,"pct_lena_guano":75,"pct_basura_formal":0,"pct_basura_quema":42,"pct_basura_informal":83,"pct_internet":25,"pct_celular":75,"pct_televisor":33}},{"type":"Feature","geometry":{"type":"Polygon","coordinates":[[[-66.63097,-16.83805],[-66.63102,-16.83893],[-66.63152,-16.83911],[-66.63142,-16.83848],[-66.63205,-16.83747],[-66.63203,-16.8366],[-66.63156,-16.8365],[-66.6313,-16.83693],[-66.63097,-16.83805]]]},"properties":{"n":"FALSURI","p":22,"personas_x_ha":11,"masculinidad":100,"pct_menor20":55,"pct_60mas":14,"pct_migrante":32,"dependencia_econ":214,"pct_empleados":0,"pct_cuentapropia":100,"pct_agricultura":100,"pct_comercio":0,"pct_manufactura":0,"pct_construccion":0,"pct_transporte":0,"pct_alojamiento":0,"pct_educ_superior":0,"brecha_educ":-23,"pct_sin_seguro":0,"pct_seguro_privado":0,"brecha_seguro":0,"pct_med_tradicional":0,"pct_automedicacion":15,"pct_remedios_caseros":0,"pct_viv_desocupada":0,"pct_alquiler":0,"pct_electricidad":71,"pct_agua_red":57,"pct_alcantarillado":0,"pct_gas_red":0,"pct_gas_garrafa":43,"pct_lena_guano":43,"pct_basura_formal":0,"pct_basura_quema":57,"pct_basura_informal":86,"pct_internet":86,"pct_celular":86,"pct_televisor":100}},{"type":"Feature","geometry":{"type":"Polygon","coordinates":[[[-66.63162,-16.83972],[-66.63146,-16.8398],[-66.63162,-16.83971],[-66.63133,-16.83921],[-66.63117,-16.83908],[-66.63079,-16.83893],[-66.63011,-16.83882],[-66.63,-16.83953],[-66.63009,-16.83947],[-66.63026,-16.83944],[-66.63026,-16.83939],[-66.63042,-16.83931],[-66.63026,-16.83945],[-66.63,-16.83954],[-66.63013,-16.83972],[-66.63076,-16.83994],[-66.63077,-16.83942],[-66.63077,-16.83995],[-66.63144,-16.84031],[-66.63183,-16.84026],[-66.63162,-16.83972]]]},"properties":{"n":"FALSURI","p":19,"personas_x_ha":10,"masculinidad":90,"pct_menor20":16,"pct_60mas":32,"pct_migrante":16,"dependencia_econ":27,"pct_empleados":13,"pct_cuentapropia":73,"pct_agricultura":67,"pct_comercio":0,"pct_manufactura":7,"pct_construccion":0,"pct_transporte":20,"pct_alojamiento":0,"pct_educ_superior":0,"brecha_educ":0,"pct_sin_seguro":0,"pct_seguro_privado":0,"brecha_seguro":0,"pct_med_tradicional":27,"pct_automedicacion":4,"pct_remedios_caseros":31,"pct_viv_desocupada":7,"pct_alquiler":0,"pct_electricidad":92,"pct_agua_red":85,"pct_alcantarillado":0,"pct_gas_red":0,"pct_gas_garrafa":62,"pct_lena_guano":62,"pct_basura_formal":0,"pct_basura_quema":100,"pct_basura_informal":0,"pct_internet":46,"pct_celular":85,"pct_televisor":54}},{"type":"Feature","geometry":{"type":"Polygon","coordinates":[[[-66.63192,-16.84094],[-66.63152,-16.84048],[-66.63092,-16.84008],[-66.63051,-16.83987],[-66.62991,-16.83978],[-66.62978,-16.84034],[-66.62983,-16.84078],[-66.63028,-16.84079],[-66.63078,-16.84079],[-66.6308,-16.84133],[-66.63095,-16.84133],[-66.63042,-16.84135],[-66.63079,-16.84133],[-66.63077,-16.8408],[-66.63028,-16.8408],[-66.62984,-16.84078],[-66.62986,-16.84092],[-66.63006,-16.84186],[-66.63005,-16.84196],[-66.6303,-16.84181],[-66.6307,-16.84184],[-66.63066,-16.84219],[-66.63069,-16.84185],[-66.6303,-16.84182],[-66.63005,-16.84197],[-66.63003,-16.84277],[-66.6306,-16.84309],[-66.63071,-16.84341],[-66.63132,-16.84392],[-66.63149,-16.8438],[-66.6315,-16.84326],[-66.6318,-16.84274],[-66.63177,-16.84228],[-66.63158,-16.84165],[-66.63174,-16.8411],[-66.63192,-16.84094]]]},"properties":{"n":"FALSURI","p":36,"personas_x_ha":5,"masculinidad":89,"pct_menor20":33,"pct_60mas":11,"pct_migrante":25,"dependencia_econ":67,"pct_empleados":19,"pct_cuentapropia":76,"pct_agricultura":90,"pct_comercio":5,"pct_manufactura":5,"pct_construccion":0,"pct_transporte":0,"pct_alojamiento":0,"pct_educ_superior":13,"brecha_educ":13,"pct_sin_seguro":3,"pct_seguro_privado":0,"brecha_seguro":6,"pct_med_tradicional":2,"pct_automedicacion":23,"pct_remedios_caseros":34,"pct_viv_desocupada":7,"pct_alquiler":0,"pct_electricidad":100,"pct_agua_red":7,"pct_alcantarillado":0,"pct_gas_red":0,"pct_gas_garrafa":57,"pct_lena_guano":57,"pct_basura_formal":0,"pct_basura_quema":86,"pct_basura_informal":0,"pct_internet":86,"pct_celular":93,"pct_televisor":71}},{"type":"Feature","geometry":{"type":"Polygon","coordinates":[[[-66.63061,-16.84338],[-66.63049,-16.84316],[-66.63032,-16.84373],[-66.62991,-16.84394],[-66.62989,-16.84436],[-66.63042,-16.84433],[-66.63051,-16.8441],[-66.63059,-16.84394],[-66.63051,-16.8439],[-66.6306,-16.84394],[-66.63043,-16.84433],[-66.63105,-16.84429],[-66.63143,-16.84435],[-66.63148,-16.84428],[-66.63115,-16.84386],[-66.63061,-16.84338]]]},"properties":{"n":"FALSURI","p":24,"personas_x_ha":22,"masculinidad":100,"pct_menor20":38,"pct_60mas":4,"pct_migrante":25,"dependencia_econ":null,"pct_empleados":null,"pct_cuentapropia":null,"pct_agricultura":null,"pct_comercio":null,"pct_manufactura":null,"pct_construccion":null,"pct_transporte":null,"pct_alojamiento":null,"pct_educ_superior":19,"brecha_educ":27,"pct_sin_seguro":17,"pct_seguro_privado":0,"brecha_seguro":19,"pct_med_tradicional":3,"pct_automedicacion":9,"pct_remedios_caseros":29,"pct_viv_desocupada":0,"pct_alquiler":0,"pct_electricidad":88,"pct_agua_red":0,"pct_alcantarillado":0,"pct_gas_red":0,"pct_gas_garrafa":75,"pct_lena_guano":75,"pct_basura_formal":0,"pct_basura_quema":100,"pct_basura_informal":0,"pct_internet":0,"pct_celular":88,"pct_televisor":38}},{"type":"Feature","geometry":{"type":"Polygon","coordinates":[[[-66.62601,-16.84041],[-66.62571,-16.84038],[-66.62568,-16.84021],[-66.62595,-16.8401],[-66.62595,-16.83998],[-66.62594,-16.84009],[-66.62568,-16.8402],[-66.62565,-16.84],[-66.62531,-16.84014],[-66.62518,-16.83987],[-66.62604,-16.83954],[-66.6271,-16.83954],[-66.6282,-16.83871],[-66.62856,-16.83876],[-66.62878,-16.83902],[-66.62844,-16.83959],[-66.62834,-16.83984],[-66.6282,-16.83965],[-66.62836,-16.83932],[-66.62824,-16.83944],[-66.62818,-16.83965],[-66.62833,-16.83987],[-66.62822,-16.84018],[-66.6282,-16.84064],[-66.62829,-16.84123],[-66.62824,-16.84019],[-66.62851,-16.83953],[-66.6285,-16.83975],[-66.62887,-16.84105],[-66.6289,-16.84149],[-66.62883,-16.84174],[-66.62854,-16.84208],[-66.62821,-16.84218],[-66.62797,-16.84213],[-66.62738,-16.84172],[-66.6269,-16.84171],[-66.62693,-16.84138],[-66.62719,-16.84129],[-66.62728,-16.84112],[-66.62718,-16.84128],[-66.62692,-16.84137],[-66.62688,-16.84171],[-66.62645,-16.84169],[-66.62645,-16.84134],[-66.62667,-16.84136],[-66.62683,-16.84125],[-66.62666,-16.84134],[-66.62645,-16.84133],[-66.62646,-16.84119],[-66.627,-16.8407],[-66.62665,-16.84092],[-66.62644,-16.84119],[-66.62569,-16.84102],[-66.62601,-16.84041]]]},"properties":{"n":"FALSURI","p":50,"personas_x_ha":6,"masculinidad":117,"pct_menor20":38,"pct_60mas":18,"pct_migrante":22,"dependencia_econ":74,"pct_empleados":4,"pct_cuentapropia":89,"pct_agricultura":81,"pct_comercio":19,"pct_manufactura":4,"pct_construccion":7,"pct_transporte":0,"pct_alojamiento":0,"pct_educ_superior":3,"brecha_educ":0,"pct_sin_seguro":5,"pct_seguro_privado":0,"brecha_seguro":9,"pct_med_tradicional":12,"pct_automedicacion":23,"pct_remedios_caseros":28,"pct_viv_desocupada":28,"pct_alquiler":0,"pct_electricidad":90,"pct_agua_red":30,"pct_alcantarillado":0,"pct_gas_red":0,"pct_gas_garrafa":80,"pct_lena_guano":80,"pct_basura_formal":0,"pct_basura_quema":95,"pct_basura_informal":0,"pct_internet":50,"pct_celular":80,"pct_televisor":30}},{"type":"Feature","geometry":{"type":"Polygon","coordinates":[[[-66.62826,-16.83864],[-66.62795,-16.83804],[-66.62838,-16.83779],[-66.62821,-16.8375],[-66.62804,-16.83755],[-66.62789,-16.83725],[-66.62855,-16.83701],[-66.62945,-16.83709],[-66.62935,-16.83797],[-66.62904,-16.83794],[-66.62935,-16.83801],[-66.62934,-16.83836],[-66.62864,-16.83874],[-66.62826,-16.83864]]]},"properties":{"n":"FALSURI","p":30,"personas_x_ha":13,"masculinidad":150,"pct_menor20":27,"pct_60mas":10,"pct_migrante":23,"dependencia_econ":67,"pct_empleados":17,"pct_cuentapropia":78,"pct_agricultura":78,"pct_comercio":6,"pct_manufactura":0,"pct_construccion":6,"pct_transporte":17,"pct_alojamiento":0,"pct_educ_superior":4,"brecha_educ":-42,"pct_sin_seguro":20,"pct_seguro_privado":0,"brecha_seguro":-8,"pct_med_tradicional":5,"pct_automedicacion":20,"pct_remedios_caseros":24,"pct_viv_desocupada":0,"pct_alquiler":0,"pct_electricidad":67,"pct_agua_red":11,"pct_alcantarillado":0,"pct_gas_red":0,"pct_gas_garrafa":67,"pct_lena_guano":67,"pct_basura_formal":0,"pct_basura_quema":100,"pct_basura_informal":0,"pct_internet":100,"pct_celular":100,"pct_televisor":44}},{"type":"Feature","geometry":{"type":"Polygon","coordinates":[[[-66.62998,-16.8417],[-66.62971,-16.84048],[-66.62919,-16.84063],[-66.6294,-16.8419],[-66.62926,-16.84256],[-66.62996,-16.84263],[-66.62998,-16.8417]]]},"properties":{"n":"FALSURI","p":21,"personas_x_ha":15,"masculinidad":75,"pct_menor20":19,"pct_60mas":19,"pct_migrante":14,"dependencia_econ":425,"pct_empleados":0,"pct_cuentapropia":100,"pct_agricultura":225,"pct_comercio":0,"pct_manufactura":0,"pct_construccion":25,"pct_transporte":50,"pct_alojamiento":0,"pct_educ_superior":12,"brecha_educ":-4,"pct_sin_seguro":5,"pct_seguro_privado":0,"brecha_seguro":-8,"pct_med_tradicional":0,"pct_automedicacion":10,"pct_remedios_caseros":23,"pct_viv_desocupada":11,"pct_alquiler":0,"pct_electricidad":100,"pct_agua_red":25,"pct_alcantarillado":0,"pct_gas_red":0,"pct_gas_garrafa":38,"pct_lena_guano":38,"pct_basura_formal":0,"pct_basura_quema":75,"pct_basura_informal":0,"pct_internet":0,"pct_celular":62,"pct_televisor":62}},{"type":"Feature","geometry":{"type":"Polygon","coordinates":[[[-66.62934,-16.83903],[-66.62879,-16.83978],[-66.62881,-16.84031],[-66.62929,-16.84164],[-66.629,-16.83982],[-66.6295,-16.83933],[-66.63,-16.83901],[-66.63017,-16.83834],[-66.6301,-16.83829],[-66.6294,-16.83844],[-66.62934,-16.83903]]]},"properties":{"n":"FALSURI","p":16,"personas_x_ha":13,"masculinidad":60,"pct_menor20":25,"pct_60mas":6,"pct_migrante":44,"dependencia_econ":33,"pct_empleados":25,"pct_cuentapropia":75,"pct_agricultura":58,"pct_comercio":0,"pct_manufactura":0,"pct_construccion":0,"pct_transporte":17,"pct_alojamiento":0,"pct_educ_superior":25,"brecha_educ":-17,"pct_sin_seguro":0,"pct_seguro_privado":0,"brecha_seguro":0,"pct_med_tradicional":9,"pct_automedicacion":20,"pct_remedios_caseros":28,"pct_viv_desocupada":10,"pct_alquiler":0,"pct_electricidad":100,"pct_agua_red":38,"pct_alcantarillado":0,"pct_gas_red":0,"pct_gas_garrafa":100,"pct_lena_guano":100,"pct_basura_formal":0,"pct_basura_quema":75,"pct_basura_informal":0,"pct_internet":88,"pct_celular":100,"pct_televisor":50}},{"type":"Feature","geometry":{"type":"Polygon","coordinates":[[[-66.63148,-16.83648],[-66.63121,-16.83637],[-66.63101,-16.83615],[-66.63052,-16.8361],[-66.63027,-16.83804],[-66.63083,-16.83812],[-66.63116,-16.83709],[-66.63148,-16.83648]]]},"properties":{"n":"FALSURI","p":41,"personas_x_ha":23,"masculinidad":78,"pct_menor20":44,"pct_60mas":7,"pct_migrante":29,"dependencia_econ":128,"pct_empleados":11,"pct_cuentapropia":78,"pct_agricultura":94,"pct_comercio":11,"pct_manufactura":6,"pct_construccion":6,"pct_transporte":0,"pct_alojamiento":0,"pct_educ_superior":0,"brecha_educ":-14,"pct_sin_seguro":5,"pct_seguro_privado":0,"brecha_seguro":12,"pct_med_tradicional":11,"pct_automedicacion":20,"pct_remedios_caseros":19,"pct_viv_desocupada":9,"pct_alquiler":0,"pct_electricidad":70,"pct_agua_red":60,"pct_alcantarillado":10,"pct_gas_red":0,"pct_gas_garrafa":60,"pct_lena_guano":60,"pct_basura_formal":0,"pct_basura_quema":70,"pct_basura_informal":40,"pct_internet":60,"pct_celular":80,"pct_televisor":50}},{"type":"Feature","geometry":{"type":"Polygon","coordinates":[[[-66.34294,-17.02161],[-66.34378,-17.02135],[-66.34345,-17.02083],[-66.34326,-17.02089],[-66.34332,-17.02124],[-66.34324,-17.02089],[-66.34211,-17.02119],[-66.34119,-17.02165],[-66.34217,-17.0225],[-66.34294,-17.02161]]]},"properties":{"n":"ICARI","p":21,"personas_x_ha":10,"masculinidad":62,"pct_menor20":57,"pct_60mas":10,"pct_migrante":24,"dependencia_econ":110,"pct_empleados":0,"pct_cuentapropia":80,"pct_agricultura":100,"pct_comercio":0,"pct_manufactura":0,"pct_construccion":0,"pct_transporte":0,"pct_alojamiento":0,"pct_educ_superior":0,"brecha_educ":-15,"pct_sin_seguro":5,"pct_seguro_privado":0,"brecha_seguro":-8,"pct_med_tradicional":10,"pct_automedicacion":20,"pct_remedios_caseros":29,"pct_viv_desocupada":0,"pct_alquiler":0,"pct_electricidad":100,"pct_agua_red":17,"pct_alcantarillado":0,"pct_gas_red":0,"pct_gas_garrafa":83,"pct_lena_guano":83,"pct_basura_formal":0,"pct_basura_quema":100,"pct_basura_informal":0,"pct_internet":67,"pct_celular":83,"pct_televisor":67}},{"type":"Feature","geometry":{"type":"Polygon","coordinates":[[[-66.34875,-17.02018],[-66.34874,-17.02084],[-66.34859,-17.02086],[-66.34782,-17.02087],[-66.34725,-17.02063],[-66.34702,-17.02061],[-66.34614,-17.021],[-66.34498,-17.02101],[-66.34387,-17.02135],[-66.34352,-17.02081],[-66.34497,-17.02045],[-66.34565,-17.02039],[-66.34658,-17.02013],[-66.3472,-17.02024],[-66.34826,-17.02013],[-66.34827,-17.02057],[-66.34827,-17.02013],[-66.34875,-17.02018]]]},"properties":{"n":"ICARI","p":22,"personas_x_ha":6,"masculinidad":100,"pct_menor20":41,"pct_60mas":5,"pct_migrante":32,"dependencia_econ":120,"pct_empleados":10,"pct_cuentapropia":80,"pct_agricultura":80,"pct_comercio":0,"pct_manufactura":0,"pct_construccion":10,"pct_transporte":0,"pct_alojamiento":10,"pct_educ_superior":0,"brecha_educ":-21,"pct_sin_seguro":0,"pct_seguro_privado":0,"brecha_seguro":0,"pct_med_tradicional":0,"pct_automedicacion":0,"pct_remedios_caseros":0,"pct_viv_desocupada":0,"pct_alquiler":0,"pct_electricidad":88,"pct_agua_red":0,"pct_alcantarillado":0,"pct_gas_red":0,"pct_gas_garrafa":100,"pct_lena_guano":100,"pct_basura_formal":0,"pct_basura_quema":100,"pct_basura_informal":0,"pct_internet":50,"pct_celular":88,"pct_televisor":75}},{"type":"Feature","geometry":{"type":"Polygon","coordinates":[[[-66.78369,-16.48652],[-66.78365,-16.48614],[-66.78301,-16.48621],[-66.78268,-16.48663],[-66.78369,-16.48652]]]},"properties":{"n":"JESUS MARIA","p":19,"personas_x_ha":51,"masculinidad":111,"pct_menor20":26,"pct_60mas":5,"pct_migrante":68,"dependencia_econ":73,"pct_empleados":9,"pct_cuentapropia":64,"pct_agricultura":73,"pct_comercio":27,"pct_manufactura":0,"pct_construccion":9,"pct_transporte":0,"pct_alojamiento":0,"pct_educ_superior":14,"brecha_educ":-14,"pct_sin_seguro":16,"pct_seguro_privado":0,"brecha_seguro":30,"pct_med_tradicional":0,"pct_automedicacion":0,"pct_remedios_caseros":30,"pct_viv_desocupada":0,"pct_alquiler":29,"pct_electricidad":0,"pct_agua_red":0,"pct_alcantarillado":0,"pct_gas_red":0,"pct_gas_garrafa":57,"pct_lena_guano":57,"pct_basura_formal":0,"pct_basura_quema":100,"pct_basura_informal":0,"pct_internet":71,"pct_celular":100,"pct_televisor":29}},{"type":"Feature","geometry":{"type":"Polygon","coordinates":[[[-66.71417,-16.60114],[-66.71479,-16.60109],[-66.71483,-16.60192],[-66.71403,-16.60189],[-66.71398,-16.60154],[-66.71417,-16.60114]]]},"properties":{"n":"MARAVILLAS","p":30,"personas_x_ha":41,"masculinidad":88,"pct_menor20":47,"pct_60mas":0,"pct_migrante":83,"dependencia_econ":131,"pct_empleados":15,"pct_cuentapropia":85,"pct_agricultura":46,"pct_comercio":15,"pct_manufactura":0,"pct_construccion":15,"pct_transporte":0,"pct_alojamiento":0,"pct_educ_superior":6,"brecha_educ":-2,"pct_sin_seguro":0,"pct_seguro_privado":0,"brecha_seguro":0,"pct_med_tradicional":4,"pct_automedicacion":29,"pct_remedios_caseros":14,"pct_viv_desocupada":0,"pct_alquiler":0,"pct_electricidad":0,"pct_agua_red":11,"pct_alcantarillado":0,"pct_gas_red":0,"pct_gas_garrafa":89,"pct_lena_guano":89,"pct_basura_formal":0,"pct_basura_quema":100,"pct_basura_informal":0,"pct_internet":0,"pct_celular":78,"pct_televisor":33}},{"type":"Feature","geometry":{"type":"Polygon","coordinates":[[[-66.7146,-16.60058],[-66.71522,-16.60039],[-66.71515,-16.60017],[-66.71451,-16.60037],[-66.7146,-16.60058]]]},"properties":{"n":"MARAVILLAS","p":15,"personas_x_ha":81,"masculinidad":50,"pct_menor20":53,"pct_60mas":0,"pct_migrante":40,"dependencia_econ":50,"pct_empleados":0,"pct_cuentapropia":80,"pct_agricultura":50,"pct_comercio":0,"pct_manufactura":0,"pct_construccion":10,"pct_transporte":0,"pct_alojamiento":0,"pct_educ_superior":12,"brecha_educ":-20,"pct_sin_seguro":0,"pct_seguro_privado":0,"brecha_seguro":0,"pct_med_tradicional":0,"pct_automedicacion":0,"pct_remedios_caseros":48,"pct_viv_desocupada":25,"pct_alquiler":0,"pct_electricidad":0,"pct_agua_red":0,"pct_alcantarillado":0,"pct_gas_red":0,"pct_gas_garrafa":100,"pct_lena_guano":100,"pct_basura_formal":0,"pct_basura_quema":100,"pct_basura_informal":0,"pct_internet":20,"pct_celular":60,"pct_televisor":80}},{"type":"Feature","geometry":{"type":"Polygon","coordinates":[[[-66.71489,-16.59931],[-66.71369,-16.59968],[-66.71375,-16.5999],[-66.71386,-16.59997],[-66.71413,-16.59996],[-66.7145,-16.59984],[-66.71443,-16.5996],[-66.71451,-16.59984],[-66.71501,-16.59968],[-66.71489,-16.59931]]]},"properties":{"n":"MARAVILLAS","p":29,"personas_x_ha":51,"masculinidad":93,"pct_menor20":41,"pct_60mas":3,"pct_migrante":41,"dependencia_econ":123,"pct_empleados":8,"pct_cuentapropia":62,"pct_agricultura":92,"pct_comercio":0,"pct_manufactura":0,"pct_construccion":0,"pct_transporte":0,"pct_alojamiento":0,"pct_educ_superior":0,"brecha_educ":-54,"pct_sin_seguro":0,"pct_seguro_privado":0,"brecha_seguro":0,"pct_med_tradicional":2,"pct_automedicacion":4,"pct_remedios_caseros":35,"pct_viv_desocupada":0,"pct_alquiler":18,"pct_electricidad":0,"pct_agua_red":55,"pct_alcantarillado":9,"pct_gas_red":0,"pct_gas_garrafa":91,"pct_lena_guano":91,"pct_basura_formal":0,"pct_basura_quema":91,"pct_basura_informal":18,"pct_internet":9,"pct_celular":64,"pct_televisor":45}},{"type":"Feature","geometry":{"type":"Polygon","coordinates":[[[-66.71408,-16.60104],[-66.71533,-16.60095],[-66.71537,-16.60087],[-66.71526,-16.60043],[-66.71454,-16.60063],[-66.71433,-16.59997],[-66.71377,-16.60005],[-66.71408,-16.60104]]]},"properties":{"n":"MARAVILLAS","p":25,"personas_x_ha":23,"masculinidad":178,"pct_menor20":32,"pct_60mas":4,"pct_migrante":68,"dependencia_econ":47,"pct_empleados":29,"pct_cuentapropia":47,"pct_agricultura":94,"pct_comercio":0,"pct_manufactura":0,"pct_construccion":0,"pct_transporte":0,"pct_alojamiento":0,"pct_educ_superior":12,"brecha_educ":-6,"pct_sin_seguro":16,"pct_seguro_privado":0,"brecha_seguro":25,"pct_med_tradicional":5,"pct_automedicacion":27,"pct_remedios_caseros":27,"pct_viv_desocupada":0,"pct_alquiler":10,"pct_electricidad":0,"pct_agua_red":0,"pct_alcantarillado":10,"pct_gas_red":0,"pct_gas_garrafa":70,"pct_lena_guano":70,"pct_basura_formal":0,"pct_basura_quema":70,"pct_basura_informal":20,"pct_internet":0,"pct_celular":70,"pct_televisor":50}},{"type":"Feature","geometry":{"type":"Polygon","coordinates":[[[-66.7155,-16.60017],[-66.71523,-16.59932],[-66.71501,-16.59939],[-66.71529,-16.60024],[-66.7155,-16.60017]]]},"properties":{"n":"MARAVILLAS","p":21,"personas_x_ha":88,"masculinidad":162,"pct_menor20":33,"pct_60mas":0,"pct_migrante":38,"dependencia_econ":24,"pct_empleados":6,"pct_cuentapropia":47,"pct_agricultura":53,"pct_comercio":0,"pct_manufactura":0,"pct_construccion":18,"pct_transporte":0,"pct_alojamiento":0,"pct_educ_superior":7,"brecha_educ":-55,"pct_sin_seguro":0,"pct_seguro_privado":0,"brecha_seguro":0,"pct_med_tradicional":0,"pct_automedicacion":0,"pct_remedios_caseros":5,"pct_viv_desocupada":0,"pct_alquiler":0,"pct_electricidad":0,"pct_agua_red":0,"pct_alcantarillado":0,"pct_gas_red":0,"pct_gas_garrafa":0,"pct_lena_guano":0,"pct_basura_formal":0,"pct_basura_quema":86,"pct_basura_informal":0,"pct_internet":14,"pct_celular":29,"pct_televisor":14}},{"type":"Feature","geometry":{"type":"Polygon","coordinates":[[[-66.78317,-16.47781],[-66.78312,-16.47703],[-66.78398,-16.47687],[-66.78422,-16.47692],[-66.7841,-16.47774],[-66.78317,-16.47781]]]},"properties":{"n":"SEQUERANCHO","p":28,"personas_x_ha":28,"masculinidad":115,"pct_menor20":46,"pct_60mas":0,"pct_migrante":57,"dependencia_econ":87,"pct_empleados":0,"pct_cuentapropia":93,"pct_agricultura":47,"pct_comercio":33,"pct_manufactura":0,"pct_construccion":7,"pct_transporte":0,"pct_alojamiento":0,"pct_educ_superior":13,"brecha_educ":-6,"pct_sin_seguro":29,"pct_seguro_privado":0,"brecha_seguro":25,"pct_med_tradicional":12,"pct_automedicacion":25,"pct_remedios_caseros":28,"pct_viv_desocupada":0,"pct_alquiler":62,"pct_electricidad":0,"pct_agua_red":0,"pct_alcantarillado":0,"pct_gas_red":0,"pct_gas_garrafa":62,"pct_lena_guano":62,"pct_basura_formal":0,"pct_basura_quema":100,"pct_basura_informal":0,"pct_internet":88,"pct_celular":88,"pct_televisor":12}},{"type":"Feature","geometry":{"type":"Polygon","coordinates":[[[-66.78579,-16.47561],[-66.78561,-16.4753],[-66.78494,-16.4756],[-66.7851,-16.47593],[-66.78579,-16.47561]]]},"properties":{"n":"SEQUERANCHO","p":25,"personas_x_ha":78,"masculinidad":79,"pct_menor20":60,"pct_60mas":0,"pct_migrante":40,"dependencia_econ":400,"pct_empleados":0,"pct_cuentapropia":80,"pct_agricultura":80,"pct_comercio":0,"pct_manufactura":0,"pct_construccion":20,"pct_transporte":0,"pct_alojamiento":0,"pct_educ_superior":0,"brecha_educ":21,"pct_sin_seguro":0,"pct_seguro_privado":0,"brecha_seguro":0,"pct_med_tradicional":3,"pct_automedicacion":20,"pct_remedios_caseros":38,"pct_viv_desocupada":12,"pct_alquiler":17,"pct_electricidad":0,"pct_agua_red":0,"pct_alcantarillado":0,"pct_gas_red":0,"pct_gas_garrafa":67,"pct_lena_guano":67,"pct_basura_formal":0,"pct_basura_quema":100,"pct_basura_informal":0,"pct_internet":100,"pct_celular":100,"pct_televisor":17}},{"type":"Feature","geometry":{"type":"Polygon","coordinates":[[[-66.78437,-16.47635],[-66.78436,-16.47676],[-66.78523,-16.47633],[-66.78506,-16.47601],[-66.78437,-16.47635]]]},"properties":{"n":"SEQUERANCHO","p":25,"personas_x_ha":63,"masculinidad":67,"pct_menor20":68,"pct_60mas":0,"pct_migrante":76,"dependencia_econ":400,"pct_empleados":20,"pct_cuentapropia":80,"pct_agricultura":140,"pct_comercio":20,"pct_manufactura":0,"pct_construccion":0,"pct_transporte":0,"pct_alojamiento":0,"pct_educ_superior":0,"brecha_educ":50,"pct_sin_seguro":21,"pct_seguro_privado":0,"brecha_seguro":2,"pct_med_tradicional":0,"pct_automedicacion":10,"pct_remedios_caseros":27,"pct_viv_desocupada":14,"pct_alquiler":17,"pct_electricidad":0,"pct_agua_red":0,"pct_alcantarillado":0,"pct_gas_red":0,"pct_gas_garrafa":50,"pct_lena_guano":50,"pct_basura_formal":0,"pct_basura_quema":83,"pct_basura_informal":0,"pct_internet":0,"pct_celular":100,"pct_televisor":33}},{"type":"Feature","geometry":{"type":"Polygon","coordinates":[[[-66.78414,-16.47597],[-66.78487,-16.47562],[-66.78502,-16.47594],[-66.78433,-16.47629],[-66.78414,-16.47597]]]},"properties":{"n":"SEQUERANCHO","p":31,"personas_x_ha":86,"masculinidad":121,"pct_menor20":42,"pct_60mas":10,"pct_migrante":48,"dependencia_econ":48,"pct_empleados":10,"pct_cuentapropia":48,"pct_agricultura":86,"pct_comercio":10,"pct_manufactura":5,"pct_construccion":0,"pct_transporte":0,"pct_alojamiento":0,"pct_educ_superior":0,"brecha_educ":0,"pct_sin_seguro":23,"pct_seguro_privado":0,"brecha_seguro":-11,"pct_med_tradicional":5,"pct_automedicacion":10,"pct_remedios_caseros":32,"pct_viv_desocupada":0,"pct_alquiler":11,"pct_electricidad":0,"pct_agua_red":0,"pct_alcantarillado":0,"pct_gas_red":0,"pct_gas_garrafa":56,"pct_lena_guano":56,"pct_basura_formal":0,"pct_basura_quema":89,"pct_basura_informal":0,"pct_internet":44,"pct_celular":78,"pct_televisor":33}}]}