{"type":"FeatureCollection","features":[{"type":"Feature","geometry":{"type":"Polygon","coordinates":[[[-68.42851,-16.95701],[-68.42891,-16.95699],[-68.42886,-16.95647],[-68.42848,-16.95649],[-68.42851,-16.95701]]]},"properties":{"n":"COMANCHE","p":21,"personas_x_ha":82,"masculinidad":62,"pct_menor20":48,"pct_60mas":19,"pct_migrante":24,"dependencia_econ":320,"pct_empleados":20,"pct_cuentapropia":80,"pct_agricultura":40,"pct_comercio":20,"pct_manufactura":20,"pct_construccion":20,"pct_transporte":0,"pct_alojamiento":20,"pct_educ_superior":9,"brecha_educ":-43,"pct_sin_seguro":43,"pct_seguro_privado":0,"brecha_seguro":32,"pct_med_tradicional":25,"pct_automedicacion":28,"pct_remedios_caseros":8,"pct_viv_desocupada":0,"pct_alquiler":0,"pct_electricidad":43,"pct_agua_red":86,"pct_alcantarillado":71,"pct_gas_red":0,"pct_gas_garrafa":100,"pct_lena_guano":100,"pct_basura_formal":29,"pct_basura_quema":57,"pct_basura_informal":29,"pct_internet":71,"pct_celular":100,"pct_televisor":43}},{"type":"Feature","geometry":{"type":"Polygon","coordinates":[[[-68.42842,-16.95504],[-68.42842,-16.95554],[-68.42883,-16.95552],[-68.42881,-16.95504],[-68.42842,-16.95504]]]},"properties":{"n":"COMANCHE","p":26,"personas_x_ha":107,"masculinidad":73,"pct_menor20":50,"pct_60mas":8,"pct_migrante":12,"dependencia_econ":160,"pct_empleados":30,"pct_cuentapropia":70,"pct_agricultura":10,"pct_comercio":30,"pct_manufactura":40,"pct_construccion":0,"pct_transporte":0,"pct_alojamiento":0,"pct_educ_superior":23,"brecha_educ":-18,"pct_sin_seguro":0,"pct_seguro_privado":0,"brecha_seguro":0,"pct_med_tradicional":11,"pct_automedicacion":21,"pct_remedios_caseros":20,"pct_viv_desocupada":0,"pct_alquiler":0,"pct_electricidad":90,"pct_agua_red":100,"pct_alcantarillado":100,"pct_gas_red":0,"pct_gas_garrafa":100,"pct_lena_guano":100,"pct_basura_formal":0,"pct_basura_quema":20,"pct_basura_informal":140,"pct_internet":80,"pct_celular":90,"pct_televisor":80}},{"type":"Feature","geometry":{"type":"Polygon","coordinates":[[[-68.42665,-16.95718],[-68.42624,-16.95718],[-68.42629,-16.95789],[-68.4267,-16.95786],[-68.42665,-16.95718]]]},"properties":{"n":"COMANCHE","p":29,"personas_x_ha":82,"masculinidad":123,"pct_menor20":55,"pct_60mas":10,"pct_migrante":7,"dependencia_econ":164,"pct_empleados":9,"pct_cuentapropia":55,"pct_agricultura":55,"pct_comercio":27,"pct_manufactura":9,"pct_construccion":0,"pct_transporte":0,"pct_alojamiento":0,"pct_educ_superior":8,"brecha_educ":-12,"pct_sin_seguro":7,"pct_seguro_privado":0,"brecha_seguro":-1,"pct_med_tradicional":21,"pct_automedicacion":16,"pct_remedios_caseros":23,"pct_viv_desocupada":6,"pct_alquiler":0,"pct_electricidad":64,"pct_agua_red":91,"pct_alcantarillado":45,"pct_gas_red":0,"pct_gas_garrafa":91,"pct_lena_guano":91,"pct_basura_formal":9,"pct_basura_quema":91,"pct_basura_informal":0,"pct_internet":45,"pct_celular":100,"pct_televisor":45}},{"type":"Feature","geometry":{"type":"Polygon","coordinates":[[[-68.42675,-16.95706],[-68.42677,-16.95786],[-68.42719,-16.95775],[-68.42714,-16.95703],[-68.42675,-16.95706]]]},"properties":{"n":"COMANCHE","p":30,"personas_x_ha":77,"masculinidad":36,"pct_menor20":40,"pct_60mas":13,"pct_migrante":30,"dependencia_econ":131,"pct_empleados":31,"pct_cuentapropia":69,"pct_agricultura":31,"pct_comercio":23,"pct_manufactura":23,"pct_construccion":23,"pct_transporte":8,"pct_alojamiento":8,"pct_educ_superior":11,"brecha_educ":-42,"pct_sin_seguro":13,"pct_seguro_privado":3,"brecha_seguro":-1,"pct_med_tradicional":18,"pct_automedicacion":4,"pct_remedios_caseros":32,"pct_viv_desocupada":0,"pct_alquiler":7,"pct_electricidad":79,"pct_agua_red":86,"pct_alcantarillado":79,"pct_gas_red":0,"pct_gas_garrafa":86,"pct_lena_guano":86,"pct_basura_formal":7,"pct_basura_quema":86,"pct_basura_informal":0,"pct_internet":71,"pct_celular":86,"pct_televisor":57}},{"type":"Feature","geometry":{"type":"Polygon","coordinates":[[[-68.42721,-16.95831],[-68.42717,-16.95781],[-68.42678,-16.95793],[-68.4268,-16.95847],[-68.42721,-16.95831]]]},"properties":{"n":"COMANCHE","p":23,"personas_x_ha":91,"masculinidad":92,"pct_menor20":48,"pct_60mas":9,"pct_migrante":13,"dependencia_econ":156,"pct_empleados":0,"pct_cuentapropia":89,"pct_agricultura":22,"pct_comercio":0,"pct_manufactura":22,"pct_construccion":0,"pct_transporte":0,"pct_alojamiento":0,"pct_educ_superior":0,"brecha_educ":-3,"pct_sin_seguro":5,"pct_seguro_privado":0,"brecha_seguro":-8,"pct_med_tradicional":14,"pct_automedicacion":3,"pct_remedios_caseros":28,"pct_viv_desocupada":15,"pct_alquiler":0,"pct_electricidad":73,"pct_agua_red":82,"pct_alcantarillado":64,"pct_gas_red":0,"pct_gas_garrafa":82,"pct_lena_guano":82,"pct_basura_formal":0,"pct_basura_quema":82,"pct_basura_informal":0,"pct_internet":73,"pct_celular":100,"pct_televisor":36}},{"type":"Feature","geometry":{"type":"Polygon","coordinates":[[[-68.4262,-16.95789],[-68.42617,-16.95719],[-68.42575,-16.9572],[-68.42579,-16.9579],[-68.4262,-16.95789]]]},"properties":{"n":"COMANCHE","p":21,"personas_x_ha":59,"masculinidad":40,"pct_menor20":24,"pct_60mas":24,"pct_migrante":24,"dependencia_econ":50,"pct_empleados":14,"pct_cuentapropia":86,"pct_agricultura":7,"pct_comercio":43,"pct_manufactura":7,"pct_construccion":29,"pct_transporte":7,"pct_alojamiento":7,"pct_educ_superior":6,"brecha_educ":-58,"pct_sin_seguro":14,"pct_seguro_privado":0,"brecha_seguro":3,"pct_med_tradicional":12,"pct_automedicacion":19,"pct_remedios_caseros":33,"pct_viv_desocupada":0,"pct_alquiler":8,"pct_electricidad":85,"pct_agua_red":100,"pct_alcantarillado":62,"pct_gas_red":0,"pct_gas_garrafa":85,"pct_lena_guano":85,"pct_basura_formal":0,"pct_basura_quema":92,"pct_basura_informal":15,"pct_internet":69,"pct_celular":92,"pct_televisor":62}},{"type":"Feature","geometry":{"type":"Polygon","coordinates":[[[-68.42892,-16.95501],[-68.4289,-16.9555],[-68.42932,-16.95549],[-68.42931,-16.955],[-68.42892,-16.95501]]]},"properties":{"n":"COMANCHE","p":17,"personas_x_ha":69,"masculinidad":183,"pct_menor20":47,"pct_60mas":12,"pct_migrante":0,"dependencia_econ":89,"pct_empleados":0,"pct_cuentapropia":78,"pct_agricultura":89,"pct_comercio":0,"pct_manufactura":11,"pct_construccion":0,"pct_transporte":0,"pct_alojamiento":0,"pct_educ_superior":30,"brecha_educ":43,"pct_sin_seguro":7,"pct_seguro_privado":0,"brecha_seguro":11,"pct_med_tradicional":16,"pct_automedicacion":8,"pct_remedios_caseros":28,"pct_viv_desocupada":0,"pct_alquiler":0,"pct_electricidad":80,"pct_agua_red":100,"pct_alcantarillado":90,"pct_gas_red":0,"pct_gas_garrafa":100,"pct_lena_guano":100,"pct_basura_formal":10,"pct_basura_quema":80,"pct_basura_informal":20,"pct_internet":60,"pct_celular":80,"pct_televisor":40}},{"type":"Feature","geometry":{"type":"Polygon","coordinates":[[[-68.42623,-16.9571],[-68.42621,-16.9567],[-68.42572,-16.95672],[-68.42575,-16.95712],[-68.42623,-16.9571]]]},"properties":{"n":"COMANCHE","p":15,"personas_x_ha":64,"masculinidad":88,"pct_menor20":33,"pct_60mas":20,"pct_migrante":7,"dependencia_econ":67,"pct_empleados":11,"pct_cuentapropia":67,"pct_agricultura":44,"pct_comercio":22,"pct_manufactura":11,"pct_construccion":0,"pct_transporte":0,"pct_alojamiento":0,"pct_educ_superior":20,"brecha_educ":-33,"pct_sin_seguro":7,"pct_seguro_privado":0,"brecha_seguro":14,"pct_med_tradicional":12,"pct_automedicacion":13,"pct_remedios_caseros":23,"pct_viv_desocupada":0,"pct_alquiler":0,"pct_electricidad":100,"pct_agua_red":90,"pct_alcantarillado":80,"pct_gas_red":0,"pct_gas_garrafa":100,"pct_lena_guano":100,"pct_basura_formal":10,"pct_basura_quema":70,"pct_basura_informal":20,"pct_internet":70,"pct_celular":80,"pct_televisor":60}},{"type":"Feature","geometry":{"type":"Polygon","coordinates":[[[-68.42674,-16.95856],[-68.42671,-16.95793],[-68.42632,-16.95797],[-68.42636,-16.95861],[-68.42674,-16.95856]]]},"properties":{"n":"COMANCHE","p":21,"personas_x_ha":67,"masculinidad":110,"pct_menor20":48,"pct_60mas":19,"pct_migrante":24,"dependencia_econ":122,"pct_empleados":33,"pct_cuentapropia":44,"pct_agricultura":56,"pct_comercio":0,"pct_manufactura":22,"pct_construccion":0,"pct_transporte":0,"pct_alojamiento":0,"pct_educ_superior":0,"brecha_educ":-10,"pct_sin_seguro":0,"pct_seguro_privado":5,"brecha_seguro":0,"pct_med_tradicional":25,"pct_automedicacion":25,"pct_remedios_caseros":24,"pct_viv_desocupada":9,"pct_alquiler":0,"pct_electricidad":100,"pct_agua_red":100,"pct_alcantarillado":88,"pct_gas_red":0,"pct_gas_garrafa":100,"pct_lena_guano":100,"pct_basura_formal":0,"pct_basura_quema":38,"pct_basura_informal":100,"pct_internet":100,"pct_celular":100,"pct_televisor":62}},{"type":"Feature","geometry":{"type":"Polygon","coordinates":[[[-68.42749,-16.95647],[-68.42788,-16.95644],[-68.42785,-16.95566],[-68.42743,-16.95569],[-68.42749,-16.95647]]]},"properties":{"n":"COMANCHE","p":33,"personas_x_ha":84,"masculinidad":136,"pct_menor20":21,"pct_60mas":21,"pct_migrante":9,"dependencia_econ":100,"pct_empleados":12,"pct_cuentapropia":88,"pct_agricultura":31,"pct_comercio":19,"pct_manufactura":12,"pct_construccion":6,"pct_transporte":25,"pct_alojamiento":0,"pct_educ_superior":14,"brecha_educ":-23,"pct_sin_seguro":6,"pct_seguro_privado":3,"brecha_seguro":-15,"pct_med_tradicional":17,"pct_automedicacion":8,"pct_remedios_caseros":23,"pct_viv_desocupada":6,"pct_alquiler":0,"pct_electricidad":100,"pct_agua_red":100,"pct_alcantarillado":93,"pct_gas_red":0,"pct_gas_garrafa":100,"pct_lena_guano":100,"pct_basura_formal":0,"pct_basura_quema":71,"pct_basura_informal":43,"pct_internet":43,"pct_celular":86,"pct_televisor":29}},{"type":"Feature","geometry":{"type":"Polygon","coordinates":[[[-68.42162,-16.96055],[-68.42141,-16.9605],[-68.42177,-16.95881],[-68.422,-16.95821],[-68.42219,-16.95828],[-68.42162,-16.96055]]]},"properties":{"n":"COMANCHE","p":39,"personas_x_ha":59,"masculinidad":95,"pct_menor20":33,"pct_60mas":15,"pct_migrante":44,"dependencia_econ":70,"pct_empleados":9,"pct_cuentapropia":83,"pct_agricultura":22,"pct_comercio":26,"pct_manufactura":13,"pct_construccion":13,"pct_transporte":4,"pct_alojamiento":4,"pct_educ_superior":7,"brecha_educ":-17,"pct_sin_seguro":30,"pct_seguro_privado":0,"brecha_seguro":-1,"pct_med_tradicional":6,"pct_automedicacion":6,"pct_remedios_caseros":20,"pct_viv_desocupada":0,"pct_alquiler":0,"pct_electricidad":38,"pct_agua_red":6,"pct_alcantarillado":6,"pct_gas_red":0,"pct_gas_garrafa":38,"pct_lena_guano":38,"pct_basura_formal":0,"pct_basura_quema":94,"pct_basura_informal":0,"pct_internet":69,"pct_celular":75,"pct_televisor":44}},{"type":"Feature","geometry":{"type":"Polygon","coordinates":[[[-68.42663,-16.95515],[-68.42667,-16.95561],[-68.42736,-16.95555],[-68.42732,-16.9551],[-68.42663,-16.95515]]]},"properties":{"n":"COMANCHE","p":19,"personas_x_ha":49,"masculinidad":58,"pct_menor20":42,"pct_60mas":16,"pct_migrante":42,"dependencia_econ":73,"pct_empleados":0,"pct_cuentapropia":100,"pct_agricultura":45,"pct_comercio":27,"pct_manufactura":27,"pct_construccion":0,"pct_transporte":0,"pct_alojamiento":0,"pct_educ_superior":9,"brecha_educ":-7,"pct_sin_seguro":11,"pct_seguro_privado":0,"brecha_seguro":-17,"pct_med_tradicional":22,"pct_automedicacion":18,"pct_remedios_caseros":23,"pct_viv_desocupada":0,"pct_alquiler":0,"pct_electricidad":67,"pct_agua_red":100,"pct_alcantarillado":89,"pct_gas_red":0,"pct_gas_garrafa":67,"pct_lena_guano":78,"pct_basura_formal":44,"pct_basura_quema":22,"pct_basura_informal":22,"pct_internet":56,"pct_celular":67,"pct_televisor":56}},{"type":"Feature","geometry":{"type":"Polygon","coordinates":[[[-68.4223,-16.95783],[-68.4221,-16.95777],[-68.42216,-16.95749],[-68.422,-16.95744],[-68.42204,-16.95731],[-68.42242,-16.95741],[-68.4223,-16.95783]]]},"properties":{"n":"COMANCHE","p":29,"personas_x_ha":201,"masculinidad":71,"pct_menor20":69,"pct_60mas":3,"pct_migrante":14,"dependencia_econ":420,"pct_empleados":60,"pct_cuentapropia":40,"pct_agricultura":20,"pct_comercio":20,"pct_manufactura":0,"pct_construccion":40,"pct_transporte":0,"pct_alojamiento":0,"pct_educ_superior":0,"brecha_educ":-30,"pct_sin_seguro":4,"pct_seguro_privado":0,"brecha_seguro":9,"pct_med_tradicional":0,"pct_automedicacion":0,"pct_remedios_caseros":43,"pct_viv_desocupada":0,"pct_alquiler":25,"pct_electricidad":100,"pct_agua_red":92,"pct_alcantarillado":8,"pct_gas_red":0,"pct_gas_garrafa":100,"pct_lena_guano":100,"pct_basura_formal":0,"pct_basura_quema":100,"pct_basura_informal":0,"pct_internet":33,"pct_celular":83,"pct_televisor":83}},{"type":"Feature","geometry":{"type":"Polygon","coordinates":[[[-68.42894,-16.95559],[-68.42933,-16.95558],[-68.42936,-16.95638],[-68.42896,-16.95639],[-68.42894,-16.95559]]]},"properties":{"n":"COMANCHE","p":25,"personas_x_ha":63,"masculinidad":79,"pct_menor20":40,"pct_60mas":8,"pct_migrante":24,"dependencia_econ":47,"pct_empleados":29,"pct_cuentapropia":65,"pct_agricultura":29,"pct_comercio":18,"pct_manufactura":18,"pct_construccion":6,"pct_transporte":0,"pct_alojamiento":12,"pct_educ_superior":6,"brecha_educ":6,"pct_sin_seguro":36,"pct_seguro_privado":0,"brecha_seguro":17,"pct_med_tradicional":13,"pct_automedicacion":23,"pct_remedios_caseros":29,"pct_viv_desocupada":0,"pct_alquiler":0,"pct_electricidad":93,"pct_agua_red":86,"pct_alcantarillado":79,"pct_gas_red":0,"pct_gas_garrafa":100,"pct_lena_guano":100,"pct_basura_formal":0,"pct_basura_quema":57,"pct_basura_informal":71,"pct_internet":79,"pct_celular":86,"pct_televisor":64}},{"type":"Feature","geometry":{"type":"Polygon","coordinates":[[[-68.42623,-16.95799],[-68.42597,-16.95801],[-68.42598,-16.95821],[-68.4261,-16.9582],[-68.42614,-16.95864],[-68.42629,-16.95864],[-68.42623,-16.95799]]]},"properties":{"n":"COMANCHE","p":20,"personas_x_ha":141,"masculinidad":100,"pct_menor20":30,"pct_60mas":5,"pct_migrante":5,"dependencia_econ":54,"pct_empleados":15,"pct_cuentapropia":54,"pct_agricultura":31,"pct_comercio":8,"pct_manufactura":15,"pct_construccion":8,"pct_transporte":0,"pct_alojamiento":0,"pct_educ_superior":29,"brecha_educ":-17,"pct_sin_seguro":5,"pct_seguro_privado":0,"brecha_seguro":10,"pct_med_tradicional":14,"pct_automedicacion":14,"pct_remedios_caseros":20,"pct_viv_desocupada":0,"pct_alquiler":0,"pct_electricidad":83,"pct_agua_red":100,"pct_alcantarillado":83,"pct_gas_red":0,"pct_gas_garrafa":100,"pct_lena_guano":100,"pct_basura_formal":0,"pct_basura_quema":67,"pct_basura_informal":33,"pct_internet":83,"pct_celular":100,"pct_televisor":83}},{"type":"Feature","geometry":{"type":"Polygon","coordinates":[[[-68.42793,-16.95734],[-68.42791,-16.95699],[-68.42719,-16.95703],[-68.42722,-16.95742],[-68.42793,-16.95734]]]},"properties":{"n":"COMANCHE","p":18,"personas_x_ha":55,"masculinidad":125,"pct_menor20":33,"pct_60mas":28,"pct_migrante":22,"dependencia_econ":50,"pct_empleados":8,"pct_cuentapropia":75,"pct_agricultura":50,"pct_comercio":8,"pct_manufactura":17,"pct_construccion":8,"pct_transporte":0,"pct_alojamiento":8,"pct_educ_superior":25,"brecha_educ":-17,"pct_sin_seguro":22,"pct_seguro_privado":0,"brecha_seguro":-5,"pct_med_tradicional":23,"pct_automedicacion":14,"pct_remedios_caseros":30,"pct_viv_desocupada":0,"pct_alquiler":0,"pct_electricidad":91,"pct_agua_red":91,"pct_alcantarillado":55,"pct_gas_red":0,"pct_gas_garrafa":100,"pct_lena_guano":100,"pct_basura_formal":27,"pct_basura_quema":73,"pct_basura_informal":0,"pct_internet":64,"pct_celular":91,"pct_televisor":55}},{"type":"Feature","geometry":{"type":"Polygon","coordinates":[[[-68.46479,-17.07861],[-68.46407,-17.07886],[-68.46455,-17.08008],[-68.46527,-17.07981],[-68.46479,-17.07861]]]},"properties":{"n":"GENERAL JOSE BALLIVIAN","p":22,"personas_x_ha":19,"masculinidad":47,"pct_menor20":23,"pct_60mas":18,"pct_migrante":55,"dependencia_econ":83,"pct_empleados":17,"pct_cuentapropia":83,"pct_agricultura":25,"pct_comercio":42,"pct_manufactura":25,"pct_construccion":8,"pct_transporte":0,"pct_alojamiento":0,"pct_educ_superior":11,"brecha_educ":-50,"pct_sin_seguro":18,"pct_seguro_privado":0,"brecha_seguro":57,"pct_med_tradicional":19,"pct_automedicacion":17,"pct_remedios_caseros":31,"pct_viv_desocupada":0,"pct_alquiler":10,"pct_electricidad":100,"pct_agua_red":80,"pct_alcantarillado":0,"pct_gas_red":0,"pct_gas_garrafa":80,"pct_lena_guano":80,"pct_basura_formal":0,"pct_basura_quema":60,"pct_basura_informal":0,"pct_internet":70,"pct_celular":70,"pct_televisor":30}},{"type":"Feature","geometry":{"type":"Polygon","coordinates":[[[-68.46399,-17.07888],[-68.46377,-17.07896],[-68.46379,-17.0803],[-68.46447,-17.0801],[-68.46399,-17.07888]]]},"properties":{"n":"GENERAL JOSE BALLIVIAN","p":23,"personas_x_ha":32,"masculinidad":109,"pct_menor20":48,"pct_60mas":0,"pct_migrante":65,"dependencia_econ":92,"pct_empleados":8,"pct_cuentapropia":75,"pct_agricultura":67,"pct_comercio":8,"pct_manufactura":0,"pct_construccion":0,"pct_transporte":8,"pct_alojamiento":8,"pct_educ_superior":25,"brecha_educ":-9,"pct_sin_seguro":10,"pct_seguro_privado":0,"brecha_seguro":-20,"pct_med_tradicional":16,"pct_automedicacion":15,"pct_remedios_caseros":35,"pct_viv_desocupada":0,"pct_alquiler":0,"pct_electricidad":30,"pct_agua_red":30,"pct_alcantarillado":0,"pct_gas_red":0,"pct_gas_garrafa":40,"pct_lena_guano":40,"pct_basura_formal":10,"pct_basura_quema":70,"pct_basura_informal":0,"pct_internet":40,"pct_celular":80,"pct_televisor":30}},{"type":"Feature","geometry":{"type":"Polygon","coordinates":[[[-68.46471,-17.08074],[-68.46449,-17.08017],[-68.46374,-17.08041],[-68.46376,-17.08104],[-68.46471,-17.08074]]]},"properties":{"n":"GENERAL JOSE BALLIVIAN","p":24,"personas_x_ha":37,"masculinidad":118,"pct_menor20":33,"pct_60mas":8,"pct_migrante":58,"dependencia_econ":85,"pct_empleados":23,"pct_cuentapropia":69,"pct_agricultura":38,"pct_comercio":31,"pct_manufactura":8,"pct_construccion":8,"pct_transporte":8,"pct_alojamiento":0,"pct_educ_superior":31,"brecha_educ":3,"pct_sin_seguro":26,"pct_seguro_privado":0,"brecha_seguro":-7,"pct_med_tradicional":20,"pct_automedicacion":18,"pct_remedios_caseros":22,"pct_viv_desocupada":0,"pct_alquiler":12,"pct_electricidad":75,"pct_agua_red":100,"pct_alcantarillado":0,"pct_gas_red":0,"pct_gas_garrafa":100,"pct_lena_guano":100,"pct_basura_formal":0,"pct_basura_quema":75,"pct_basura_informal":25,"pct_internet":75,"pct_celular":100,"pct_televisor":50}}]}