{"type":"FeatureCollection","features":[{"type":"Feature","geometry":{"type":"Polygon","coordinates":[[[-68.08109,-17.17397],[-68.08064,-17.17357],[-68.08037,-17.17384],[-68.08083,-17.17425],[-68.08109,-17.17397]]]},"properties":{"n":"ALTO POMANI","p":33,"personas_x_ha":121,"masculinidad":83,"pct_menor20":45,"pct_60mas":9,"pct_migrante":48,"dependencia_econ":94,"pct_empleados":35,"pct_cuentapropia":29,"pct_agricultura":29,"pct_comercio":24,"pct_manufactura":6,"pct_construccion":18,"pct_transporte":0,"pct_alojamiento":12,"pct_sin_educacion":6,"pct_educ_superior":6,"brecha_educ":-49,"pct_sin_seguro":3,"pct_sus":84,"pct_seguro_privado":0,"brecha_seguro":-6,"pct_salud_publica":28,"pct_med_tradicional":11,"pct_automedicacion":18,"pct_remedios_caseros":28,"pct_viv_desocupada":5,"pct_alquiler":0,"pct_electricidad":47,"pct_sin_electricidad":53,"pct_agua_red":0,"pct_alcantarillado":0,"pct_camara_septica":0,"pct_pozo_ciego":7,"pct_sin_desague":93,"pct_gas_red":0,"pct_gas_garrafa":87,"pct_lena_guano":87,"pct_basura_formal":13,"pct_basura_quema":67,"pct_basura_informal":13,"pct_internet":60,"pct_celular":87,"pct_televisor":20}},{"type":"Feature","geometry":{"type":"Polygon","coordinates":[[[-68.081,-17.17305],[-68.08068,-17.17277],[-68.08014,-17.17304],[-68.08062,-17.17346],[-68.081,-17.17305]]]},"properties":{"n":"ALTO POMANI","p":35,"personas_x_ha":99,"masculinidad":94,"pct_menor20":20,"pct_60mas":9,"pct_migrante":31,"dependencia_econ":52,"pct_empleados":13,"pct_cuentapropia":70,"pct_agricultura":17,"pct_comercio":39,"pct_manufactura":26,"pct_construccion":9,"pct_transporte":4,"pct_alojamiento":0,"pct_sin_educacion":0,"pct_educ_superior":30,"brecha_educ":-62,"pct_sin_seguro":49,"pct_sus":49,"pct_seguro_privado":0,"brecha_seguro":20,"pct_salud_publica":18,"pct_med_tradicional":19,"pct_automedicacion":22,"pct_remedios_caseros":38,"pct_viv_desocupada":6,"pct_alquiler":0,"pct_electricidad":47,"pct_sin_electricidad":53,"pct_agua_red":0,"pct_alcantarillado":0,"pct_camara_septica":0,"pct_pozo_ciego":7,"pct_sin_desague":93,"pct_gas_red":0,"pct_gas_garrafa":60,"pct_lena_guano":67,"pct_basura_formal":0,"pct_basura_quema":87,"pct_basura_informal":0,"pct_internet":40,"pct_celular":80,"pct_televisor":13}},{"type":"Feature","geometry":{"type":"Polygon","coordinates":[[[-68.08205,-17.17382],[-68.08197,-17.17374],[-68.08187,-17.17379],[-68.08157,-17.17355],[-68.08112,-17.17404],[-68.08156,-17.17446],[-68.08205,-17.17382]]]},"properties":{"n":"ALTO POMANI","p":29,"personas_x_ha":59,"masculinidad":107,"pct_menor20":17,"pct_60mas":17,"pct_migrante":0,"dependencia_econ":45,"pct_empleados":5,"pct_cuentapropia":70,"pct_agricultura":40,"pct_comercio":0,"pct_manufactura":0,"pct_construccion":10,"pct_transporte":5,"pct_alojamiento":5,"pct_sin_educacion":4,"pct_educ_superior":24,"brecha_educ":-40,"pct_sin_seguro":9,"pct_sus":91,"pct_seguro_privado":0,"brecha_seguro":17,"pct_salud_publica":23,"pct_med_tradicional":23,"pct_automedicacion":14,"pct_remedios_caseros":26,"pct_viv_desocupada":0,"pct_alquiler":0,"pct_electricidad":83,"pct_sin_electricidad":17,"pct_agua_red":0,"pct_alcantarillado":17,"pct_camara_septica":0,"pct_pozo_ciego":8,"pct_sin_desague":75,"pct_gas_red":0,"pct_gas_garrafa":33,"pct_lena_guano":33,"pct_basura_formal":0,"pct_basura_quema":83,"pct_basura_informal":17,"pct_internet":17,"pct_celular":50,"pct_televisor":17}},{"type":"Feature","geometry":{"type":"Polygon","coordinates":[[[-68.0816,-17.17348],[-68.08189,-17.17371],[-68.08218,-17.17339],[-68.08132,-17.17283],[-68.08111,-17.17306],[-68.08159,-17.17348],[-68.08178,-17.17328],[-68.0816,-17.17348]]]},"properties":{"n":"ALTO POMANI","p":26,"personas_x_ha":57,"masculinidad":86,"pct_menor20":38,"pct_60mas":8,"pct_migrante":4,"dependencia_econ":37,"pct_empleados":26,"pct_cuentapropia":53,"pct_agricultura":42,"pct_comercio":5,"pct_manufactura":21,"pct_construccion":26,"pct_transporte":0,"pct_alojamiento":5,"pct_sin_educacion":6,"pct_educ_superior":12,"brecha_educ":38,"pct_sin_seguro":8,"pct_sus":88,"pct_seguro_privado":0,"brecha_seguro":-14,"pct_salud_publica":62,"pct_med_tradicional":0,"pct_automedicacion":3,"pct_remedios_caseros":31,"pct_viv_desocupada":8,"pct_alquiler":0,"pct_electricidad":36,"pct_sin_electricidad":64,"pct_agua_red":9,"pct_alcantarillado":0,"pct_camara_septica":0,"pct_pozo_ciego":9,"pct_sin_desague":91,"pct_gas_red":0,"pct_gas_garrafa":73,"pct_lena_guano":73,"pct_basura_formal":0,"pct_basura_quema":100,"pct_basura_informal":0,"pct_internet":18,"pct_celular":64,"pct_televisor":0}},{"type":"Feature","geometry":{"type":"Polygon","coordinates":[[[-68.00391,-17.0963],[-68.00229,-17.09766],[-68.00041,-17.09926],[-68.00076,-17.09957],[-68.00119,-17.09922],[-68.0011,-17.0991],[-68.00171,-17.09862],[-68.00185,-17.09877],[-68.00416,-17.09673],[-68.00391,-17.0963]]]},"properties":{"n":"AYO AYO","p":42,"personas_x_ha":16,"masculinidad":133,"pct_menor20":48,"pct_60mas":2,"pct_migrante":10,"dependencia_econ":91,"pct_empleados":5,"pct_cuentapropia":41,"pct_agricultura":64,"pct_comercio":18,"pct_manufactura":0,"pct_construccion":9,"pct_transporte":0,"pct_alojamiento":0,"pct_sin_educacion":5,"pct_educ_superior":0,"brecha_educ":2,"pct_sin_seguro":31,"pct_sus":69,"pct_seguro_privado":0,"brecha_seguro":6,"pct_salud_publica":51,"pct_med_tradicional":4,"pct_automedicacion":2,"pct_remedios_caseros":40,"pct_viv_desocupada":0,"pct_alquiler":0,"pct_electricidad":54,"pct_sin_electricidad":46,"pct_agua_red":15,"pct_alcantarillado":0,"pct_camara_septica":0,"pct_pozo_ciego":0,"pct_sin_desague":100,"pct_gas_red":0,"pct_gas_garrafa":54,"pct_lena_guano":54,"pct_basura_formal":0,"pct_basura_quema":62,"pct_basura_informal":0,"pct_internet":23,"pct_celular":69,"pct_televisor":8}},{"type":"Feature","geometry":{"type":"Polygon","coordinates":[[[-68.00569,-17.09479],[-68.00642,-17.09569],[-68.00681,-17.09447],[-68.00683,-17.09418],[-68.00665,-17.09398],[-68.00569,-17.09479]]]},"properties":{"n":"AYO AYO","p":19,"personas_x_ha":17,"masculinidad":111,"pct_menor20":32,"pct_60mas":21,"pct_migrante":5,"dependencia_econ":46,"pct_empleados":31,"pct_cuentapropia":62,"pct_agricultura":8,"pct_comercio":54,"pct_manufactura":8,"pct_construccion":15,"pct_transporte":0,"pct_alojamiento":0,"pct_sin_educacion":0,"pct_educ_superior":31,"brecha_educ":-48,"pct_sin_seguro":21,"pct_sus":79,"pct_seguro_privado":0,"brecha_seguro":-2,"pct_salud_publica":31,"pct_med_tradicional":8,"pct_automedicacion":27,"pct_remedios_caseros":20,"pct_viv_desocupada":0,"pct_alquiler":20,"pct_electricidad":80,"pct_sin_electricidad":20,"pct_agua_red":30,"pct_alcantarillado":0,"pct_camara_septica":0,"pct_pozo_ciego":70,"pct_sin_desague":30,"pct_gas_red":0,"pct_gas_garrafa":80,"pct_lena_guano":80,"pct_basura_formal":10,"pct_basura_quema":60,"pct_basura_informal":20,"pct_internet":30,"pct_celular":70,"pct_televisor":70}},{"type":"Feature","geometry":{"type":"Polygon","coordinates":[[[-68.00339,-17.09217],[-68.00286,-17.09212],[-68.00283,-17.09283],[-68.00311,-17.09261],[-68.00339,-17.09217]]]},"properties":{"n":"AYO AYO","p":26,"personas_x_ha":91,"masculinidad":225,"pct_menor20":35,"pct_60mas":23,"pct_migrante":42,"dependencia_econ":111,"pct_empleados":22,"pct_cuentapropia":78,"pct_agricultura":22,"pct_comercio":0,"pct_manufactura":22,"pct_construccion":11,"pct_transporte":11,"pct_alojamiento":11,"pct_sin_educacion":0,"pct_educ_superior":55,"brecha_educ":-25,"pct_sin_seguro":16,"pct_sus":63,"pct_seguro_privado":0,"brecha_seguro":-1,"pct_salud_publica":19,"pct_med_tradicional":14,"pct_automedicacion":14,"pct_remedios_caseros":17,"pct_viv_desocupada":18,"pct_alquiler":0,"pct_electricidad":78,"pct_sin_electricidad":22,"pct_agua_red":56,"pct_alcantarillado":0,"pct_camara_septica":22,"pct_pozo_ciego":22,"pct_sin_desague":56,"pct_gas_red":0,"pct_gas_garrafa":89,"pct_lena_guano":89,"pct_basura_formal":78,"pct_basura_quema":22,"pct_basura_informal":0,"pct_internet":56,"pct_celular":78,"pct_televisor":67}},{"type":"Feature","geometry":{"type":"Polygon","coordinates":[[[-68.00197,-17.09159],[-68.00137,-17.09155],[-68.00116,-17.09154],[-68.00113,-17.09197],[-68.00193,-17.09202],[-68.00197,-17.09159]]]},"properties":{"n":"AYO AYO","p":21,"personas_x_ha":51,"masculinidad":50,"pct_menor20":24,"pct_60mas":29,"pct_migrante":33,"dependencia_econ":75,"pct_empleados":8,"pct_cuentapropia":58,"pct_agricultura":17,"pct_comercio":25,"pct_manufactura":33,"pct_construccion":0,"pct_transporte":0,"pct_alojamiento":8,"pct_sin_educacion":6,"pct_educ_superior":38,"brecha_educ":-16,"pct_sin_seguro":14,"pct_sus":62,"pct_seguro_privado":0,"brecha_seguro":0,"pct_salud_publica":27,"pct_med_tradicional":17,"pct_automedicacion":12,"pct_remedios_caseros":35,"pct_viv_desocupada":9,"pct_alquiler":0,"pct_electricidad":50,"pct_sin_electricidad":50,"pct_agua_red":40,"pct_alcantarillado":0,"pct_camara_septica":0,"pct_pozo_ciego":30,"pct_sin_desague":70,"pct_gas_red":0,"pct_gas_garrafa":90,"pct_lena_guano":90,"pct_basura_formal":40,"pct_basura_quema":30,"pct_basura_informal":60,"pct_internet":70,"pct_celular":80,"pct_televisor":30}},{"type":"Feature","geometry":{"type":"Polygon","coordinates":[[[-68.0029,-17.09469],[-68.00195,-17.09357],[-68.00076,-17.09452],[-68.00243,-17.09588],[-68.0029,-17.09469]]]},"properties":{"n":"AYO AYO","p":36,"personas_x_ha":12,"masculinidad":140,"pct_menor20":42,"pct_60mas":19,"pct_migrante":39,"dependencia_econ":125,"pct_empleados":31,"pct_cuentapropia":62,"pct_agricultura":31,"pct_comercio":19,"pct_manufactura":6,"pct_construccion":12,"pct_transporte":0,"pct_alojamiento":6,"pct_sin_educacion":0,"pct_educ_superior":29,"brecha_educ":-33,"pct_sin_seguro":40,"pct_sus":51,"pct_seguro_privado":0,"brecha_seguro":-5,"pct_salud_publica":36,"pct_med_tradicional":8,"pct_automedicacion":18,"pct_remedios_caseros":16,"pct_viv_desocupada":0,"pct_alquiler":0,"pct_electricidad":77,"pct_sin_electricidad":23,"pct_agua_red":15,"pct_alcantarillado":0,"pct_camara_septica":0,"pct_pozo_ciego":23,"pct_sin_desague":77,"pct_gas_red":0,"pct_gas_garrafa":85,"pct_lena_guano":85,"pct_basura_formal":0,"pct_basura_quema":38,"pct_basura_informal":123,"pct_internet":54,"pct_celular":85,"pct_televisor":38}},{"type":"Feature","geometry":{"type":"Polygon","coordinates":[[[-68.0063,-17.09366],[-68.00549,-17.09271],[-68.00503,-17.09247],[-68.00484,-17.093],[-68.00455,-17.09325],[-68.00419,-17.09392],[-68.00421,-17.09397],[-68.00607,-17.09386],[-68.0063,-17.09366]]]},"properties":{"n":"AYO AYO","p":78,"personas_x_ha":37,"masculinidad":105,"pct_menor20":35,"pct_60mas":14,"pct_migrante":15,"dependencia_econ":53,"pct_empleados":18,"pct_cuentapropia":75,"pct_agricultura":47,"pct_comercio":18,"pct_manufactura":14,"pct_construccion":10,"pct_transporte":0,"pct_alojamiento":2,"pct_sin_educacion":4,"pct_educ_superior":6,"brecha_educ":-23,"pct_sin_seguro":29,"pct_sus":59,"pct_seguro_privado":0,"brecha_seguro":6,"pct_salud_publica":42,"pct_med_tradicional":8,"pct_automedicacion":11,"pct_remedios_caseros":24,"pct_viv_desocupada":0,"pct_alquiler":0,"pct_electricidad":71,"pct_sin_electricidad":17,"pct_agua_red":38,"pct_alcantarillado":0,"pct_camara_septica":0,"pct_pozo_ciego":58,"pct_sin_desague":38,"pct_gas_red":0,"pct_gas_garrafa":92,"pct_lena_guano":92,"pct_basura_formal":33,"pct_basura_quema":29,"pct_basura_informal":25,"pct_internet":54,"pct_celular":100,"pct_televisor":62}},{"type":"Feature","geometry":{"type":"Polygon","coordinates":[[[-68.00178,-17.09333],[-68.00189,-17.09244],[-68.001,-17.09238],[-68.00058,-17.09304],[-68.00178,-17.09333]]]},"properties":{"n":"AYO AYO","p":30,"personas_x_ha":30,"masculinidad":114,"pct_menor20":27,"pct_60mas":23,"pct_migrante":0,"dependencia_econ":67,"pct_empleados":44,"pct_cuentapropia":39,"pct_agricultura":17,"pct_comercio":33,"pct_manufactura":17,"pct_construccion":11,"pct_transporte":6,"pct_alojamiento":0,"pct_sin_educacion":0,"pct_educ_superior":32,"brecha_educ":-9,"pct_sin_seguro":3,"pct_sus":90,"pct_seguro_privado":0,"brecha_seguro":6,"pct_salud_publica":60,"pct_med_tradicional":4,"pct_automedicacion":11,"pct_remedios_caseros":11,"pct_viv_desocupada":0,"pct_alquiler":0,"pct_electricidad":85,"pct_sin_electricidad":15,"pct_agua_red":46,"pct_alcantarillado":8,"pct_camara_septica":15,"pct_pozo_ciego":23,"pct_sin_desague":54,"pct_gas_red":0,"pct_gas_garrafa":85,"pct_lena_guano":85,"pct_basura_formal":31,"pct_basura_quema":23,"pct_basura_informal":77,"pct_internet":62,"pct_celular":85,"pct_televisor":85}},{"type":"Feature","geometry":{"type":"Polygon","coordinates":[[[-68.00531,-17.09006],[-68.00532,-17.08833],[-68.00519,-17.08827],[-68.00433,-17.08991],[-68.00531,-17.09006]]]},"properties":{"n":"AYO AYO","p":18,"personas_x_ha":14,"masculinidad":64,"pct_menor20":17,"pct_60mas":50,"pct_migrante":6,"dependencia_econ":64,"pct_empleados":18,"pct_cuentapropia":36,"pct_agricultura":55,"pct_comercio":9,"pct_manufactura":0,"pct_construccion":0,"pct_transporte":0,"pct_alojamiento":0,"pct_sin_educacion":27,"pct_educ_superior":13,"brecha_educ":-20,"pct_sin_seguro":0,"pct_sus":71,"pct_seguro_privado":0,"brecha_seguro":0,"pct_salud_publica":67,"pct_med_tradicional":6,"pct_automedicacion":0,"pct_remedios_caseros":0,"pct_viv_desocupada":0,"pct_alquiler":0,"pct_electricidad":50,"pct_sin_electricidad":50,"pct_agua_red":50,"pct_alcantarillado":0,"pct_camara_septica":0,"pct_pozo_ciego":10,"pct_sin_desague":90,"pct_gas_red":0,"pct_gas_garrafa":80,"pct_lena_guano":80,"pct_basura_formal":60,"pct_basura_quema":30,"pct_basura_informal":0,"pct_internet":0,"pct_celular":30,"pct_televisor":30}},{"type":"Feature","geometry":{"type":"Polygon","coordinates":[[[-68.00642,-17.09356],[-68.00665,-17.09336],[-68.00626,-17.09241],[-68.00623,-17.09199],[-68.00526,-17.09187],[-68.00514,-17.09215],[-68.00642,-17.09356]]]},"properties":{"n":"AYO AYO","p":29,"personas_x_ha":21,"masculinidad":107,"pct_menor20":21,"pct_60mas":34,"pct_migrante":24,"dependencia_econ":33,"pct_empleados":5,"pct_cuentapropia":90,"pct_agricultura":33,"pct_comercio":33,"pct_manufactura":14,"pct_construccion":0,"pct_transporte":10,"pct_alojamiento":5,"pct_sin_educacion":0,"pct_educ_superior":14,"brecha_educ":-32,"pct_sin_seguro":14,"pct_sus":61,"pct_seguro_privado":0,"brecha_seguro":0,"pct_salud_publica":19,"pct_med_tradicional":12,"pct_automedicacion":20,"pct_remedios_caseros":22,"pct_viv_desocupada":0,"pct_alquiler":0,"pct_electricidad":87,"pct_sin_electricidad":13,"pct_agua_red":33,"pct_alcantarillado":0,"pct_camara_septica":7,"pct_pozo_ciego":40,"pct_sin_desague":53,"pct_gas_red":0,"pct_gas_garrafa":100,"pct_lena_guano":100,"pct_basura_formal":7,"pct_basura_quema":67,"pct_basura_informal":0,"pct_internet":67,"pct_celular":100,"pct_televisor":80}},{"type":"Feature","geometry":{"type":"Polygon","coordinates":[[[-68.00295,-17.09079],[-68.0029,-17.09155],[-68.00368,-17.09159],[-68.00388,-17.09084],[-68.00295,-17.09079]]]},"properties":{"n":"AYO AYO","p":33,"personas_x_ha":42,"masculinidad":175,"pct_menor20":21,"pct_60mas":33,"pct_migrante":55,"dependencia_econ":57,"pct_empleados":14,"pct_cuentapropia":81,"pct_agricultura":33,"pct_comercio":10,"pct_manufactura":5,"pct_construccion":0,"pct_transporte":5,"pct_alojamiento":0,"pct_sin_educacion":4,"pct_educ_superior":50,"brecha_educ":-7,"pct_sin_seguro":21,"pct_sus":39,"pct_seguro_privado":0,"brecha_seguro":-6,"pct_salud_publica":16,"pct_med_tradicional":13,"pct_automedicacion":13,"pct_remedios_caseros":29,"pct_viv_desocupada":6,"pct_alquiler":0,"pct_electricidad":94,"pct_sin_electricidad":6,"pct_agua_red":53,"pct_alcantarillado":18,"pct_camara_septica":12,"pct_pozo_ciego":35,"pct_sin_desague":35,"pct_gas_red":0,"pct_gas_garrafa":94,"pct_lena_guano":94,"pct_basura_formal":88,"pct_basura_quema":12,"pct_basura_informal":0,"pct_internet":65,"pct_celular":88,"pct_televisor":76}},{"type":"Feature","geometry":{"type":"Polygon","coordinates":[[[-68.00442,-17.09037],[-68.00533,-17.09049],[-68.00531,-17.09009],[-68.00428,-17.08996],[-68.00398,-17.09076],[-68.00431,-17.09082],[-68.00442,-17.09037]]]},"properties":{"n":"AYO AYO","p":32,"personas_x_ha":46,"masculinidad":129,"pct_menor20":31,"pct_60mas":9,"pct_migrante":6,"dependencia_econ":52,"pct_empleados":10,"pct_cuentapropia":71,"pct_agricultura":24,"pct_comercio":19,"pct_manufactura":43,"pct_construccion":5,"pct_transporte":0,"pct_alojamiento":5,"pct_sin_educacion":0,"pct_educ_superior":5,"brecha_educ":-32,"pct_sin_seguro":0,"pct_sus":88,"pct_seguro_privado":3,"brecha_seguro":0,"pct_salud_publica":46,"pct_med_tradicional":0,"pct_automedicacion":0,"pct_remedios_caseros":49,"pct_viv_desocupada":8,"pct_alquiler":8,"pct_electricidad":58,"pct_sin_electricidad":25,"pct_agua_red":67,"pct_alcantarillado":0,"pct_camara_septica":17,"pct_pozo_ciego":42,"pct_sin_desague":42,"pct_gas_red":0,"pct_gas_garrafa":58,"pct_lena_guano":58,"pct_basura_formal":67,"pct_basura_quema":0,"pct_basura_informal":0,"pct_internet":83,"pct_celular":83,"pct_televisor":58}},{"type":"Feature","geometry":{"type":"Polygon","coordinates":[[[-68.00204,-17.09163],[-68.00201,-17.09202],[-68.00281,-17.09206],[-68.00282,-17.09159],[-68.00204,-17.09163]]]},"properties":{"n":"AYO AYO","p":30,"personas_x_ha":70,"masculinidad":76,"pct_menor20":23,"pct_60mas":37,"pct_migrante":30,"dependencia_econ":88,"pct_empleados":38,"pct_cuentapropia":44,"pct_agricultura":31,"pct_comercio":31,"pct_manufactura":6,"pct_construccion":0,"pct_transporte":0,"pct_alojamiento":6,"pct_sin_educacion":0,"pct_educ_superior":17,"brecha_educ":9,"pct_sin_seguro":17,"pct_sus":73,"pct_seguro_privado":0,"brecha_seguro":-2,"pct_salud_publica":25,"pct_med_tradicional":4,"pct_automedicacion":13,"pct_remedios_caseros":25,"pct_viv_desocupada":5,"pct_alquiler":6,"pct_electricidad":83,"pct_sin_electricidad":17,"pct_agua_red":67,"pct_alcantarillado":6,"pct_camara_septica":11,"pct_pozo_ciego":56,"pct_sin_desague":28,"pct_gas_red":0,"pct_gas_garrafa":100,"pct_lena_guano":100,"pct_basura_formal":72,"pct_basura_quema":22,"pct_basura_informal":0,"pct_internet":61,"pct_celular":94,"pct_televisor":61}},{"type":"Feature","geometry":{"type":"Polygon","coordinates":[[[-68.00214,-17.09069],[-68.00289,-17.09073],[-68.00295,-17.09033],[-68.00218,-17.09029],[-68.00214,-17.09069]]]},"properties":{"n":"AYO AYO","p":44,"personas_x_ha":121,"masculinidad":120,"pct_menor20":16,"pct_60mas":45,"pct_migrante":68,"dependencia_econ":100,"pct_empleados":27,"pct_cuentapropia":36,"pct_agricultura":32,"pct_comercio":18,"pct_manufactura":18,"pct_construccion":9,"pct_transporte":5,"pct_alojamiento":0,"pct_sin_educacion":0,"pct_educ_superior":46,"brecha_educ":5,"pct_sin_seguro":12,"pct_sus":86,"pct_seguro_privado":2,"brecha_seguro":12,"pct_salud_publica":30,"pct_med_tradicional":20,"pct_automedicacion":18,"pct_remedios_caseros":22,"pct_viv_desocupada":10,"pct_alquiler":0,"pct_electricidad":87,"pct_sin_electricidad":13,"pct_agua_red":80,"pct_alcantarillado":0,"pct_camara_septica":7,"pct_pozo_ciego":73,"pct_sin_desague":20,"pct_gas_red":0,"pct_gas_garrafa":93,"pct_lena_guano":93,"pct_basura_formal":47,"pct_basura_quema":47,"pct_basura_informal":0,"pct_internet":53,"pct_celular":53,"pct_televisor":53}},{"type":"Feature","geometry":{"type":"Polygon","coordinates":[[[-68.00434,-17.0895],[-68.0045,-17.08929],[-68.0051,-17.08817],[-68.00429,-17.08828],[-68.00357,-17.08869],[-68.00352,-17.08942],[-68.00434,-17.0895]]]},"properties":{"n":"AYO AYO","p":17,"personas_x_ha":11,"masculinidad":31,"pct_menor20":24,"pct_60mas":0,"pct_migrante":24,"dependencia_econ":112,"pct_empleados":12,"pct_cuentapropia":88,"pct_agricultura":38,"pct_comercio":25,"pct_manufactura":38,"pct_construccion":0,"pct_transporte":0,"pct_alojamiento":0,"pct_sin_educacion":0,"pct_educ_superior":8,"brecha_educ":-60,"pct_sin_seguro":18,"pct_sus":71,"pct_seguro_privado":0,"brecha_seguro":10,"pct_salud_publica":26,"pct_med_tradicional":7,"pct_automedicacion":21,"pct_remedios_caseros":30,"pct_viv_desocupada":0,"pct_alquiler":0,"pct_electricidad":40,"pct_sin_electricidad":40,"pct_agua_red":40,"pct_alcantarillado":0,"pct_camara_septica":0,"pct_pozo_ciego":20,"pct_sin_desague":80,"pct_gas_red":0,"pct_gas_garrafa":100,"pct_lena_guano":100,"pct_basura_formal":30,"pct_basura_quema":60,"pct_basura_informal":0,"pct_internet":60,"pct_celular":60,"pct_televisor":40}},{"type":"Feature","geometry":{"type":"Polygon","coordinates":[[[-68.00685,-17.09382],[-68.00893,-17.09403],[-68.00901,-17.09336],[-68.00778,-17.09298],[-68.00685,-17.09382]]]},"properties":{"n":"AYO AYO","p":39,"personas_x_ha":23,"masculinidad":86,"pct_menor20":31,"pct_60mas":13,"pct_migrante":31,"dependencia_econ":26,"pct_empleados":19,"pct_cuentapropia":81,"pct_agricultura":35,"pct_comercio":35,"pct_manufactura":3,"pct_construccion":3,"pct_transporte":0,"pct_alojamiento":3,"pct_sin_educacion":7,"pct_educ_superior":19,"brecha_educ":-19,"pct_sin_seguro":13,"pct_sus":87,"pct_seguro_privado":0,"brecha_seguro":-3,"pct_salud_publica":27,"pct_med_tradicional":20,"pct_automedicacion":17,"pct_remedios_caseros":28,"pct_viv_desocupada":0,"pct_alquiler":0,"pct_electricidad":59,"pct_sin_electricidad":35,"pct_agua_red":24,"pct_alcantarillado":0,"pct_camara_septica":0,"pct_pozo_ciego":24,"pct_sin_desague":76,"pct_gas_red":0,"pct_gas_garrafa":71,"pct_lena_guano":71,"pct_basura_formal":18,"pct_basura_quema":76,"pct_basura_informal":12,"pct_internet":71,"pct_celular":94,"pct_televisor":35}},{"type":"Feature","geometry":{"type":"Polygon","coordinates":[[[-68.00284,-17.09395],[-68.00275,-17.09301],[-68.00203,-17.09349],[-68.00261,-17.09405],[-68.00284,-17.09395]]]},"properties":{"n":"AYO AYO","p":17,"personas_x_ha":31,"masculinidad":325,"pct_menor20":29,"pct_60mas":35,"pct_migrante":29,"dependencia_econ":240,"pct_empleados":0,"pct_cuentapropia":100,"pct_agricultura":60,"pct_comercio":20,"pct_manufactura":0,"pct_construccion":0,"pct_transporte":0,"pct_alojamiento":20,"pct_sin_educacion":17,"pct_educ_superior":0,"brecha_educ":-44,"pct_sin_seguro":0,"pct_sus":100,"pct_seguro_privado":0,"brecha_seguro":0,"pct_salud_publica":26,"pct_med_tradicional":21,"pct_automedicacion":5,"pct_remedios_caseros":26,"pct_viv_desocupada":8,"pct_alquiler":0,"pct_electricidad":67,"pct_sin_electricidad":22,"pct_agua_red":89,"pct_alcantarillado":0,"pct_camara_septica":0,"pct_pozo_ciego":33,"pct_sin_desague":67,"pct_gas_red":0,"pct_gas_garrafa":78,"pct_lena_guano":78,"pct_basura_formal":67,"pct_basura_quema":0,"pct_basura_informal":67,"pct_internet":44,"pct_celular":56,"pct_televisor":33}},{"type":"Feature","geometry":{"type":"Polygon","coordinates":[[[-68.00459,-17.09305],[-68.00332,-17.09248],[-68.0031,-17.09276],[-68.00323,-17.09295],[-68.0031,-17.09325],[-68.00335,-17.09412],[-68.00406,-17.09398],[-68.00459,-17.09305]]]},"properties":{"n":"AYO AYO","p":29,"personas_x_ha":16,"masculinidad":81,"pct_menor20":28,"pct_60mas":31,"pct_migrante":31,"dependencia_econ":107,"pct_empleados":36,"pct_cuentapropia":64,"pct_agricultura":0,"pct_comercio":36,"pct_manufactura":21,"pct_construccion":7,"pct_transporte":14,"pct_alojamiento":7,"pct_sin_educacion":0,"pct_educ_superior":27,"brecha_educ":-27,"pct_sin_seguro":34,"pct_sus":62,"pct_seguro_privado":0,"brecha_seguro":-7,"pct_salud_publica":39,"pct_med_tradicional":9,"pct_automedicacion":16,"pct_remedios_caseros":27,"pct_viv_desocupada":0,"pct_alquiler":0,"pct_electricidad":55,"pct_sin_electricidad":27,"pct_agua_red":55,"pct_alcantarillado":0,"pct_camara_septica":9,"pct_pozo_ciego":27,"pct_sin_desague":64,"pct_gas_red":0,"pct_gas_garrafa":91,"pct_lena_guano":91,"pct_basura_formal":55,"pct_basura_quema":18,"pct_basura_informal":36,"pct_internet":45,"pct_celular":73,"pct_televisor":64}},{"type":"Feature","geometry":{"type":"Polygon","coordinates":[[[-68.00046,-17.09311],[-67.99993,-17.093],[-67.99881,-17.09437],[-67.99855,-17.09422],[-67.99833,-17.09446],[-67.99814,-17.09433],[-67.99783,-17.09459],[-67.99779,-17.09464],[-67.99799,-17.09485],[-67.99784,-17.09499],[-67.9988,-17.09587],[-68.00083,-17.09433],[-68.00026,-17.09396],[-68.00008,-17.09375],[-68.00046,-17.09311]]]},"properties":{"n":"AYO AYO","p":49,"personas_x_ha":11,"masculinidad":81,"pct_menor20":47,"pct_60mas":10,"pct_migrante":31,"dependencia_econ":113,"pct_empleados":4,"pct_cuentapropia":70,"pct_agricultura":43,"pct_comercio":22,"pct_manufactura":9,"pct_construccion":4,"pct_transporte":4,"pct_alojamiento":0,"pct_sin_educacion":7,"pct_educ_superior":7,"brecha_educ":-20,"pct_sin_seguro":6,"pct_sus":94,"pct_seguro_privado":0,"brecha_seguro":6,"pct_salud_publica":34,"pct_med_tradicional":14,"pct_automedicacion":14,"pct_remedios_caseros":23,"pct_viv_desocupada":14,"pct_alquiler":5,"pct_electricidad":42,"pct_sin_electricidad":53,"pct_agua_red":16,"pct_alcantarillado":5,"pct_camara_septica":0,"pct_pozo_ciego":21,"pct_sin_desague":74,"pct_gas_red":0,"pct_gas_garrafa":63,"pct_lena_guano":63,"pct_basura_formal":5,"pct_basura_quema":74,"pct_basura_informal":0,"pct_internet":42,"pct_celular":74,"pct_televisor":32}},{"type":"Feature","geometry":{"type":"Polygon","coordinates":[[[-68.00087,-17.09599],[-68.0018,-17.09694],[-68.00238,-17.09598],[-68.00071,-17.09456],[-67.99855,-17.09627],[-67.99941,-17.09718],[-67.99979,-17.09681],[-68.00014,-17.09632],[-68.00025,-17.09583],[-68.00087,-17.09599]]]},"properties":{"n":"AYO AYO","p":40,"personas_x_ha":8,"masculinidad":82,"pct_menor20":28,"pct_60mas":22,"pct_migrante":22,"dependencia_econ":62,"pct_empleados":17,"pct_cuentapropia":79,"pct_agricultura":42,"pct_comercio":12,"pct_manufactura":12,"pct_construccion":8,"pct_transporte":12,"pct_alojamiento":0,"pct_sin_educacion":0,"pct_educ_superior":18,"brecha_educ":-31,"pct_sin_seguro":27,"pct_sus":59,"pct_seguro_privado":0,"brecha_seguro":29,"pct_salud_publica":24,"pct_med_tradicional":19,"pct_automedicacion":20,"pct_remedios_caseros":27,"pct_viv_desocupada":0,"pct_alquiler":0,"pct_electricidad":53,"pct_sin_electricidad":47,"pct_agua_red":40,"pct_alcantarillado":0,"pct_camara_septica":0,"pct_pozo_ciego":27,"pct_sin_desague":73,"pct_gas_red":0,"pct_gas_garrafa":60,"pct_lena_guano":60,"pct_basura_formal":0,"pct_basura_quema":40,"pct_basura_informal":40,"pct_internet":40,"pct_celular":60,"pct_televisor":27}},{"type":"Feature","geometry":{"type":"Polygon","coordinates":[[[-68.00396,-17.09083],[-68.00377,-17.09162],[-68.00522,-17.09177],[-68.00534,-17.09093],[-68.00396,-17.09083]]]},"properties":{"n":"AYO AYO","p":56,"personas_x_ha":40,"masculinidad":65,"pct_menor20":32,"pct_60mas":16,"pct_migrante":45,"dependencia_econ":87,"pct_empleados":33,"pct_cuentapropia":60,"pct_agricultura":13,"pct_comercio":13,"pct_manufactura":3,"pct_construccion":27,"pct_transporte":0,"pct_alojamiento":20,"pct_sin_educacion":2,"pct_educ_superior":22,"brecha_educ":-21,"pct_sin_seguro":18,"pct_sus":64,"pct_seguro_privado":0,"brecha_seguro":8,"pct_salud_publica":38,"pct_med_tradicional":4,"pct_automedicacion":11,"pct_remedios_caseros":34,"pct_viv_desocupada":0,"pct_alquiler":5,"pct_electricidad":81,"pct_sin_electricidad":19,"pct_agua_red":33,"pct_alcantarillado":0,"pct_camara_septica":5,"pct_pozo_ciego":43,"pct_sin_desague":52,"pct_gas_red":0,"pct_gas_garrafa":86,"pct_lena_guano":90,"pct_basura_formal":10,"pct_basura_quema":14,"pct_basura_informal":76,"pct_internet":67,"pct_celular":86,"pct_televisor":62}},{"type":"Feature","geometry":{"type":"Polygon","coordinates":[[[-68.00175,-17.0975],[-68.00291,-17.0965],[-68.00243,-17.09607],[-68.00165,-17.09729],[-68.00166,-17.09741],[-68.00175,-17.0975]]]},"properties":{"n":"AYO AYO","p":22,"personas_x_ha":29,"masculinidad":100,"pct_menor20":45,"pct_60mas":5,"pct_migrante":0,"dependencia_econ":83,"pct_empleados":17,"pct_cuentapropia":75,"pct_agricultura":100,"pct_comercio":0,"pct_manufactura":0,"pct_construccion":0,"pct_transporte":0,"pct_alojamiento":0,"pct_sin_educacion":0,"pct_educ_superior":0,"brecha_educ":17,"pct_sin_seguro":23,"pct_sus":77,"pct_seguro_privado":0,"brecha_seguro":-9,"pct_salud_publica":23,"pct_med_tradicional":26,"pct_automedicacion":23,"pct_remedios_caseros":26,"pct_viv_desocupada":0,"pct_alquiler":0,"pct_electricidad":75,"pct_sin_electricidad":25,"pct_agua_red":38,"pct_alcantarillado":0,"pct_camara_septica":0,"pct_pozo_ciego":25,"pct_sin_desague":62,"pct_gas_red":0,"pct_gas_garrafa":62,"pct_lena_guano":62,"pct_basura_formal":0,"pct_basura_quema":38,"pct_basura_informal":50,"pct_internet":75,"pct_celular":75,"pct_televisor":50}},{"type":"Feature","geometry":{"type":"Polygon","coordinates":[[[-68.00179,-17.09345],[-68.00053,-17.09312],[-68.00015,-17.09367],[-68.00034,-17.09391],[-68.00091,-17.09429],[-68.00157,-17.09374],[-68.00179,-17.09345]]]},"properties":{"n":"AYO AYO","p":24,"personas_x_ha":19,"masculinidad":85,"pct_menor20":42,"pct_60mas":4,"pct_migrante":29,"dependencia_econ":53,"pct_empleados":33,"pct_cuentapropia":60,"pct_agricultura":27,"pct_comercio":13,"pct_manufactura":0,"pct_construccion":20,"pct_transporte":13,"pct_alojamiento":13,"pct_sin_educacion":14,"pct_educ_superior":7,"brecha_educ":-38,"pct_sin_seguro":0,"pct_sus":100,"pct_seguro_privado":0,"brecha_seguro":0,"pct_salud_publica":31,"pct_med_tradicional":18,"pct_automedicacion":18,"pct_remedios_caseros":21,"pct_viv_desocupada":27,"pct_alquiler":0,"pct_electricidad":36,"pct_sin_electricidad":64,"pct_agua_red":55,"pct_alcantarillado":0,"pct_camara_septica":0,"pct_pozo_ciego":18,"pct_sin_desague":82,"pct_gas_red":0,"pct_gas_garrafa":100,"pct_lena_guano":100,"pct_basura_formal":45,"pct_basura_quema":45,"pct_basura_informal":18,"pct_internet":82,"pct_celular":91,"pct_televisor":27}},{"type":"Feature","geometry":{"type":"Polygon","coordinates":[[[-68.00278,-17.09246],[-68.00195,-17.09245],[-68.00187,-17.09337],[-68.00196,-17.09342],[-68.00277,-17.09288],[-68.00278,-17.09246]]]},"properties":{"n":"AYO AYO","p":32,"personas_x_ha":46,"masculinidad":68,"pct_menor20":16,"pct_60mas":28,"pct_migrante":41,"dependencia_econ":28,"pct_empleados":20,"pct_cuentapropia":72,"pct_agricultura":8,"pct_comercio":32,"pct_manufactura":8,"pct_construccion":8,"pct_transporte":0,"pct_alojamiento":16,"pct_sin_educacion":0,"pct_educ_superior":33,"brecha_educ":-28,"pct_sin_seguro":19,"pct_sus":78,"pct_seguro_privado":0,"brecha_seguro":-19,"pct_salud_publica":22,"pct_med_tradicional":16,"pct_automedicacion":17,"pct_remedios_caseros":25,"pct_viv_desocupada":11,"pct_alquiler":0,"pct_electricidad":93,"pct_sin_electricidad":7,"pct_agua_red":57,"pct_alcantarillado":0,"pct_camara_septica":0,"pct_pozo_ciego":43,"pct_sin_desague":57,"pct_gas_red":0,"pct_gas_garrafa":100,"pct_lena_guano":100,"pct_basura_formal":43,"pct_basura_quema":29,"pct_basura_informal":43,"pct_internet":64,"pct_celular":86,"pct_televisor":57}},{"type":"Feature","geometry":{"type":"Polygon","coordinates":[[[-68.00365,-17.09167],[-68.00291,-17.09162],[-68.00287,-17.09205],[-68.00348,-17.09209],[-68.00365,-17.09167]]]},"properties":{"n":"AYO AYO","p":29,"personas_x_ha":80,"masculinidad":32,"pct_menor20":21,"pct_60mas":45,"pct_migrante":59,"dependencia_econ":93,"pct_empleados":20,"pct_cuentapropia":73,"pct_agricultura":7,"pct_comercio":40,"pct_manufactura":20,"pct_construccion":0,"pct_transporte":7,"pct_alojamiento":7,"pct_sin_educacion":4,"pct_educ_superior":9,"brecha_educ":-13,"pct_sin_seguro":14,"pct_sus":86,"pct_seguro_privado":0,"brecha_seguro":1,"pct_salud_publica":34,"pct_med_tradicional":17,"pct_automedicacion":14,"pct_remedios_caseros":18,"pct_viv_desocupada":0,"pct_alquiler":0,"pct_electricidad":83,"pct_sin_electricidad":17,"pct_agua_red":50,"pct_alcantarillado":0,"pct_camara_septica":0,"pct_pozo_ciego":33,"pct_sin_desague":67,"pct_gas_red":0,"pct_gas_garrafa":100,"pct_lena_guano":100,"pct_basura_formal":75,"pct_basura_quema":0,"pct_basura_informal":50,"pct_internet":58,"pct_celular":83,"pct_televisor":75}},{"type":"Feature","geometry":{"type":"Polygon","coordinates":[[[-68.00366,-17.09206],[-68.00499,-17.09234],[-68.00503,-17.09219],[-68.00469,-17.09188],[-68.00374,-17.0917],[-68.00366,-17.09206]]]},"properties":{"n":"AYO AYO","p":44,"personas_x_ha":76,"masculinidad":38,"pct_menor20":27,"pct_60mas":14,"pct_migrante":41,"dependencia_econ":69,"pct_empleados":23,"pct_cuentapropia":73,"pct_agricultura":12,"pct_comercio":58,"pct_manufactura":4,"pct_construccion":8,"pct_transporte":8,"pct_alojamiento":4,"pct_sin_educacion":3,"pct_educ_superior":25,"brecha_educ":-23,"pct_sin_seguro":16,"pct_sus":82,"pct_seguro_privado":0,"brecha_seguro":-10,"pct_salud_publica":25,"pct_med_tradicional":13,"pct_automedicacion":24,"pct_remedios_caseros":30,"pct_viv_desocupada":0,"pct_alquiler":12,"pct_electricidad":100,"pct_sin_electricidad":0,"pct_agua_red":50,"pct_alcantarillado":0,"pct_camara_septica":6,"pct_pozo_ciego":56,"pct_sin_desague":38,"pct_gas_red":0,"pct_gas_garrafa":100,"pct_lena_guano":100,"pct_basura_formal":44,"pct_basura_quema":19,"pct_basura_informal":0,"pct_internet":88,"pct_celular":100,"pct_televisor":69}},{"type":"Feature","geometry":{"type":"Polygon","coordinates":[[[-68.00295,-17.0948],[-68.00246,-17.096],[-68.00296,-17.09645],[-68.00358,-17.0959],[-68.00295,-17.0948]]]},"properties":{"n":"AYO AYO","p":30,"personas_x_ha":27,"masculinidad":100,"pct_menor20":33,"pct_60mas":3,"pct_migrante":0,"dependencia_econ":58,"pct_empleados":5,"pct_cuentapropia":74,"pct_agricultura":16,"pct_comercio":58,"pct_manufactura":16,"pct_construccion":0,"pct_transporte":5,"pct_alojamiento":0,"pct_sin_educacion":10,"pct_educ_superior":5,"brecha_educ":-10,"pct_sin_seguro":23,"pct_sus":67,"pct_seguro_privado":7,"brecha_seguro":20,"pct_salud_publica":25,"pct_med_tradicional":12,"pct_automedicacion":23,"pct_remedios_caseros":29,"pct_viv_desocupada":9,"pct_alquiler":0,"pct_electricidad":90,"pct_sin_electricidad":0,"pct_agua_red":60,"pct_alcantarillado":0,"pct_camara_septica":0,"pct_pozo_ciego":80,"pct_sin_desague":20,"pct_gas_red":0,"pct_gas_garrafa":80,"pct_lena_guano":80,"pct_basura_formal":0,"pct_basura_quema":90,"pct_basura_informal":20,"pct_internet":70,"pct_celular":80,"pct_televisor":60}},{"type":"Feature","geometry":{"type":"Polygon","coordinates":[[[-68.00494,-17.0924],[-68.00354,-17.09214],[-68.00333,-17.09245],[-68.00468,-17.093],[-68.00494,-17.0924]]]},"properties":{"n":"AYO AYO","p":57,"personas_x_ha":67,"masculinidad":90,"pct_menor20":40,"pct_60mas":9,"pct_migrante":30,"dependencia_econ":73,"pct_empleados":33,"pct_cuentapropia":58,"pct_agricultura":18,"pct_comercio":21,"pct_manufactura":33,"pct_construccion":6,"pct_transporte":3,"pct_alojamiento":3,"pct_sin_educacion":3,"pct_educ_superior":35,"brecha_educ":-29,"pct_sin_seguro":4,"pct_sus":94,"pct_seguro_privado":0,"brecha_seguro":1,"pct_salud_publica":33,"pct_med_tradicional":23,"pct_automedicacion":11,"pct_remedios_caseros":30,"pct_viv_desocupada":6,"pct_alquiler":0,"pct_electricidad":93,"pct_sin_electricidad":0,"pct_agua_red":67,"pct_alcantarillado":0,"pct_camara_septica":13,"pct_pozo_ciego":47,"pct_sin_desague":40,"pct_gas_red":0,"pct_gas_garrafa":93,"pct_lena_guano":93,"pct_basura_formal":27,"pct_basura_quema":20,"pct_basura_informal":40,"pct_internet":87,"pct_celular":93,"pct_televisor":73}},{"type":"Feature","geometry":{"type":"Polygon","coordinates":[[[-68.00777,-17.09511],[-68.00827,-17.0955],[-68.00918,-17.09484],[-68.00923,-17.09411],[-68.00687,-17.09388],[-68.00692,-17.09413],[-68.00777,-17.09511]]]},"properties":{"n":"AYO AYO","p":39,"personas_x_ha":15,"masculinidad":86,"pct_menor20":38,"pct_60mas":8,"pct_migrante":26,"dependencia_econ":95,"pct_empleados":15,"pct_cuentapropia":80,"pct_agricultura":30,"pct_comercio":25,"pct_manufactura":25,"pct_construccion":10,"pct_transporte":0,"pct_alojamiento":5,"pct_sin_educacion":8,"pct_educ_superior":16,"brecha_educ":-18,"pct_sin_seguro":13,"pct_sus":82,"pct_seguro_privado":0,"brecha_seguro":17,"pct_salud_publica":31,"pct_med_tradicional":21,"pct_automedicacion":21,"pct_remedios_caseros":21,"pct_viv_desocupada":10,"pct_alquiler":0,"pct_electricidad":94,"pct_sin_electricidad":6,"pct_agua_red":25,"pct_alcantarillado":0,"pct_camara_septica":6,"pct_pozo_ciego":31,"pct_sin_desague":62,"pct_gas_red":6,"pct_gas_garrafa":75,"pct_lena_guano":75,"pct_basura_formal":25,"pct_basura_quema":38,"pct_basura_informal":12,"pct_internet":69,"pct_celular":81,"pct_televisor":81}},{"type":"Feature","geometry":{"type":"Polygon","coordinates":[[[-68.00298,-17.09073],[-68.00388,-17.09079],[-68.00402,-17.0904],[-68.00299,-17.09033],[-68.00298,-17.09073]]]},"properties":{"n":"AYO AYO","p":20,"personas_x_ha":43,"masculinidad":100,"pct_menor20":25,"pct_60mas":25,"pct_migrante":20,"dependencia_econ":64,"pct_empleados":18,"pct_cuentapropia":55,"pct_agricultura":27,"pct_comercio":18,"pct_manufactura":0,"pct_construccion":9,"pct_transporte":9,"pct_alojamiento":0,"pct_sin_educacion":7,"pct_educ_superior":43,"brecha_educ":-21,"pct_sin_seguro":0,"pct_sus":83,"pct_seguro_privado":0,"brecha_seguro":0,"pct_salud_publica":67,"pct_med_tradicional":0,"pct_automedicacion":8,"pct_remedios_caseros":4,"pct_viv_desocupada":18,"pct_alquiler":11,"pct_electricidad":89,"pct_sin_electricidad":11,"pct_agua_red":78,"pct_alcantarillado":0,"pct_camara_septica":22,"pct_pozo_ciego":56,"pct_sin_desague":22,"pct_gas_red":0,"pct_gas_garrafa":89,"pct_lena_guano":89,"pct_basura_formal":67,"pct_basura_quema":33,"pct_basura_informal":0,"pct_internet":22,"pct_celular":56,"pct_televisor":56}},{"type":"Feature","geometry":{"type":"Polygon","coordinates":[[[-67.96504,-17.07467],[-67.96553,-17.07452],[-67.96538,-17.07405],[-67.96489,-17.07422],[-67.96504,-17.07467]]]},"properties":{"n":"POMASARA MAMANIRI","p":21,"personas_x_ha":71,"masculinidad":110,"pct_menor20":33,"pct_60mas":0,"pct_migrante":62,"dependencia_econ":62,"pct_empleados":23,"pct_cuentapropia":77,"pct_agricultura":15,"pct_comercio":23,"pct_manufactura":0,"pct_construccion":0,"pct_transporte":38,"pct_alojamiento":8,"pct_sin_educacion":0,"pct_educ_superior":7,"brecha_educ":-29,"pct_sin_seguro":24,"pct_sus":71,"pct_seguro_privado":0,"brecha_seguro":26,"pct_salud_publica":30,"pct_med_tradicional":19,"pct_automedicacion":16,"pct_remedios_caseros":21,"pct_viv_desocupada":0,"pct_alquiler":0,"pct_electricidad":100,"pct_sin_electricidad":0,"pct_agua_red":14,"pct_alcantarillado":0,"pct_camara_septica":0,"pct_pozo_ciego":57,"pct_sin_desague":43,"pct_gas_red":0,"pct_gas_garrafa":86,"pct_lena_guano":86,"pct_basura_formal":14,"pct_basura_quema":57,"pct_basura_informal":0,"pct_internet":71,"pct_celular":100,"pct_televisor":86}},{"type":"Feature","geometry":{"type":"Polygon","coordinates":[[[-67.96638,-17.07368],[-67.96656,-17.07327],[-67.96618,-17.07304],[-67.96578,-17.07333],[-67.96596,-17.07382],[-67.96638,-17.07368]]]},"properties":{"n":"POMASARA MAMANIRI","p":16,"personas_x_ha":36,"masculinidad":78,"pct_menor20":31,"pct_60mas":31,"pct_migrante":31,"dependencia_econ":33,"pct_empleados":17,"pct_cuentapropia":83,"pct_agricultura":75,"pct_comercio":8,"pct_manufactura":0,"pct_construccion":0,"pct_transporte":0,"pct_alojamiento":0,"pct_sin_educacion":23,"pct_educ_superior":8,"brecha_educ":-10,"pct_sin_seguro":50,"pct_sus":44,"pct_seguro_privado":0,"brecha_seguro":38,"pct_salud_publica":17,"pct_med_tradicional":29,"pct_automedicacion":10,"pct_remedios_caseros":31,"pct_viv_desocupada":22,"pct_alquiler":0,"pct_electricidad":71,"pct_sin_electricidad":29,"pct_agua_red":14,"pct_alcantarillado":0,"pct_camara_septica":0,"pct_pozo_ciego":29,"pct_sin_desague":71,"pct_gas_red":0,"pct_gas_garrafa":57,"pct_lena_guano":57,"pct_basura_formal":0,"pct_basura_quema":86,"pct_basura_informal":0,"pct_internet":71,"pct_celular":71,"pct_televisor":29}},{"type":"Feature","geometry":{"type":"Polygon","coordinates":[[[-68.07081,-17.13519],[-68.07048,-17.13435],[-68.07037,-17.13439],[-68.07017,-17.13402],[-68.06979,-17.13431],[-68.07015,-17.13517],[-68.0704,-17.13545],[-68.07081,-17.13519]]]},"properties":{"n":"SANTA ROSA LIMA","p":28,"personas_x_ha":32,"masculinidad":155,"pct_menor20":39,"pct_60mas":14,"pct_migrante":29,"dependencia_econ":22,"pct_empleados":17,"pct_cuentapropia":61,"pct_agricultura":30,"pct_comercio":9,"pct_manufactura":9,"pct_construccion":35,"pct_transporte":0,"pct_alojamiento":4,"pct_sin_educacion":0,"pct_educ_superior":5,"brecha_educ":-10,"pct_sin_seguro":25,"pct_sus":75,"pct_seguro_privado":0,"brecha_seguro":-19,"pct_salud_publica":33,"pct_med_tradicional":8,"pct_automedicacion":14,"pct_remedios_caseros":28,"pct_viv_desocupada":18,"pct_alquiler":0,"pct_electricidad":100,"pct_sin_electricidad":0,"pct_agua_red":0,"pct_alcantarillado":0,"pct_camara_septica":0,"pct_pozo_ciego":67,"pct_sin_desague":33,"pct_gas_red":0,"pct_gas_garrafa":78,"pct_lena_guano":78,"pct_basura_formal":0,"pct_basura_quema":89,"pct_basura_informal":0,"pct_internet":78,"pct_celular":89,"pct_televisor":44}},{"type":"Feature","geometry":{"type":"Polygon","coordinates":[[[-68.06889,-17.13456],[-68.0687,-17.1348],[-68.06896,-17.13507],[-68.06917,-17.13488],[-68.06889,-17.13456]]]},"properties":{"n":"SANTA ROSA LIMA","p":19,"personas_x_ha":129,"masculinidad":73,"pct_menor20":37,"pct_60mas":5,"pct_migrante":0,"dependencia_econ":36,"pct_empleados":21,"pct_cuentapropia":79,"pct_agricultura":50,"pct_comercio":14,"pct_manufactura":0,"pct_construccion":7,"pct_transporte":14,"pct_alojamiento":0,"pct_sin_educacion":0,"pct_educ_superior":23,"brecha_educ":-19,"pct_sin_seguro":0,"pct_sus":100,"pct_seguro_privado":0,"brecha_seguro":0,"pct_salud_publica":50,"pct_med_tradicional":3,"pct_automedicacion":3,"pct_remedios_caseros":39,"pct_viv_desocupada":27,"pct_alquiler":0,"pct_electricidad":50,"pct_sin_electricidad":50,"pct_agua_red":0,"pct_alcantarillado":0,"pct_camara_septica":0,"pct_pozo_ciego":25,"pct_sin_desague":75,"pct_gas_red":0,"pct_gas_garrafa":100,"pct_lena_guano":100,"pct_basura_formal":0,"pct_basura_quema":100,"pct_basura_informal":0,"pct_internet":38,"pct_celular":75,"pct_televisor":12}},{"type":"Feature","geometry":{"type":"Polygon","coordinates":[[[-68.06862,-17.13355],[-68.06891,-17.13386],[-68.06937,-17.13368],[-68.06907,-17.13291],[-68.06848,-17.13314],[-68.06862,-17.13355]]]},"properties":{"n":"SANTA ROSA LIMA","p":16,"personas_x_ha":27,"masculinidad":167,"pct_menor20":44,"pct_60mas":0,"pct_migrante":38,"dependencia_econ":45,"pct_empleados":9,"pct_cuentapropia":73,"pct_agricultura":27,"pct_comercio":27,"pct_manufactura":9,"pct_construccion":27,"pct_transporte":0,"pct_alojamiento":0,"pct_sin_educacion":0,"pct_educ_superior":9,"brecha_educ":-25,"pct_sin_seguro":6,"pct_sus":88,"pct_seguro_privado":0,"brecha_seguro":10,"pct_salud_publica":65,"pct_med_tradicional":4,"pct_automedicacion":17,"pct_remedios_caseros":9,"pct_viv_desocupada":22,"pct_alquiler":0,"pct_electricidad":50,"pct_sin_electricidad":33,"pct_agua_red":0,"pct_alcantarillado":0,"pct_camara_septica":0,"pct_pozo_ciego":17,"pct_sin_desague":83,"pct_gas_red":0,"pct_gas_garrafa":50,"pct_lena_guano":50,"pct_basura_formal":0,"pct_basura_quema":100,"pct_basura_informal":0,"pct_internet":50,"pct_celular":50,"pct_televisor":0}},{"type":"Feature","geometry":{"type":"Polygon","coordinates":[[[-68.06967,-17.13433],[-68.06951,-17.13397],[-68.06924,-17.13422],[-68.06951,-17.1345],[-68.06967,-17.13433]]]},"properties":{"n":"SANTA ROSA LIMA","p":21,"personas_x_ha":152,"masculinidad":40,"pct_menor20":24,"pct_60mas":24,"pct_migrante":10,"dependencia_econ":31,"pct_empleados":6,"pct_cuentapropia":81,"pct_agricultura":75,"pct_comercio":6,"pct_manufactura":0,"pct_construccion":0,"pct_transporte":0,"pct_alojamiento":0,"pct_sin_educacion":6,"pct_educ_superior":24,"brecha_educ":-13,"pct_sin_seguro":0,"pct_sus":100,"pct_seguro_privado":0,"brecha_seguro":0,"pct_salud_publica":70,"pct_med_tradicional":10,"pct_automedicacion":7,"pct_remedios_caseros":13,"pct_viv_desocupada":21,"pct_alquiler":0,"pct_electricidad":60,"pct_sin_electricidad":40,"pct_agua_red":0,"pct_alcantarillado":0,"pct_camara_septica":10,"pct_pozo_ciego":10,"pct_sin_desague":70,"pct_gas_red":0,"pct_gas_garrafa":50,"pct_lena_guano":50,"pct_basura_formal":10,"pct_basura_quema":80,"pct_basura_informal":20,"pct_internet":10,"pct_celular":90,"pct_televisor":0}},{"type":"Feature","geometry":{"type":"Polygon","coordinates":[[[-68.06115,-17.01027],[-68.06216,-17.00882],[-68.06172,-17.00853],[-68.06066,-17.00998],[-68.06115,-17.01027]]]},"properties":{"n":"TOLAR","p":25,"personas_x_ha":21,"masculinidad":92,"pct_menor20":44,"pct_60mas":16,"pct_migrante":44,"dependencia_econ":127,"pct_empleados":36,"pct_cuentapropia":36,"pct_agricultura":18,"pct_comercio":9,"pct_manufactura":18,"pct_construccion":18,"pct_transporte":0,"pct_alojamiento":18,"pct_sin_educacion":0,"pct_educ_superior":7,"brecha_educ":8,"pct_sin_seguro":12,"pct_sus":80,"pct_seguro_privado":8,"brecha_seguro":9,"pct_salud_publica":28,"pct_med_tradicional":20,"pct_automedicacion":22,"pct_remedios_caseros":20,"pct_viv_desocupada":0,"pct_alquiler":0,"pct_electricidad":64,"pct_sin_electricidad":36,"pct_agua_red":64,"pct_alcantarillado":0,"pct_camara_septica":0,"pct_pozo_ciego":50,"pct_sin_desague":36,"pct_gas_red":0,"pct_gas_garrafa":71,"pct_lena_guano":71,"pct_basura_formal":0,"pct_basura_quema":100,"pct_basura_informal":0,"pct_internet":64,"pct_celular":64,"pct_televisor":57}},{"type":"Feature","geometry":{"type":"Polygon","coordinates":[[[-68.06233,-17.00298],[-68.06184,-17.00364],[-68.06199,-17.00378],[-68.06252,-17.00308],[-68.06233,-17.00298]]]},"properties":{"n":"TOLAR","p":19,"personas_x_ha":83,"masculinidad":90,"pct_menor20":26,"pct_60mas":5,"pct_migrante":47,"dependencia_econ":46,"pct_empleados":23,"pct_cuentapropia":69,"pct_agricultura":23,"pct_comercio":15,"pct_manufactura":38,"pct_construccion":8,"pct_transporte":0,"pct_alojamiento":8,"pct_sin_educacion":7,"pct_educ_superior":14,"brecha_educ":-56,"pct_sin_seguro":5,"pct_sus":89,"pct_seguro_privado":0,"brecha_seguro":11,"pct_salud_publica":28,"pct_med_tradicional":12,"pct_automedicacion":25,"pct_remedios_caseros":22,"pct_viv_desocupada":0,"pct_alquiler":0,"pct_electricidad":0,"pct_sin_electricidad":100,"pct_agua_red":0,"pct_alcantarillado":0,"pct_camara_septica":0,"pct_pozo_ciego":0,"pct_sin_desague":100,"pct_gas_red":0,"pct_gas_garrafa":6,"pct_lena_guano":6,"pct_basura_formal":0,"pct_basura_quema":69,"pct_basura_informal":0,"pct_internet":38,"pct_celular":88,"pct_televisor":6}},{"type":"Feature","geometry":{"type":"Polygon","coordinates":[[[-68.06452,-17.00807],[-68.06416,-17.00784],[-68.06311,-17.00932],[-68.06347,-17.00955],[-68.06452,-17.00807]]]},"properties":{"n":"TOLAR","p":32,"personas_x_ha":34,"masculinidad":78,"pct_menor20":44,"pct_60mas":6,"pct_migrante":19,"dependencia_econ":100,"pct_empleados":6,"pct_cuentapropia":75,"pct_agricultura":44,"pct_comercio":25,"pct_manufactura":12,"pct_construccion":0,"pct_transporte":6,"pct_alojamiento":6,"pct_sin_educacion":0,"pct_educ_superior":17,"brecha_educ":0,"pct_sin_seguro":12,"pct_sus":84,"pct_seguro_privado":0,"brecha_seguro":16,"pct_salud_publica":28,"pct_med_tradicional":16,"pct_automedicacion":17,"pct_remedios_caseros":24,"pct_viv_desocupada":5,"pct_alquiler":0,"pct_electricidad":78,"pct_sin_electricidad":22,"pct_agua_red":72,"pct_alcantarillado":0,"pct_camara_septica":6,"pct_pozo_ciego":50,"pct_sin_desague":44,"pct_gas_red":0,"pct_gas_garrafa":94,"pct_lena_guano":94,"pct_basura_formal":0,"pct_basura_quema":72,"pct_basura_informal":22,"pct_internet":67,"pct_celular":89,"pct_televisor":56}},{"type":"Feature","geometry":{"type":"Polygon","coordinates":[[[-68.0664,-17.00543],[-68.06768,-17.00355],[-68.06738,-17.00336],[-68.06606,-17.00521],[-68.0664,-17.00543]]]},"properties":{"n":"TOLAR","p":19,"personas_x_ha":19,"masculinidad":217,"pct_menor20":47,"pct_60mas":0,"pct_migrante":47,"dependencia_econ":58,"pct_empleados":33,"pct_cuentapropia":67,"pct_agricultura":8,"pct_comercio":42,"pct_manufactura":25,"pct_construccion":0,"pct_transporte":17,"pct_alojamiento":0,"pct_sin_educacion":0,"pct_educ_superior":27,"brecha_educ":-11,"pct_sin_seguro":0,"pct_sus":95,"pct_seguro_privado":0,"brecha_seguro":0,"pct_salud_publica":49,"pct_med_tradicional":19,"pct_automedicacion":8,"pct_remedios_caseros":22,"pct_viv_desocupada":0,"pct_alquiler":0,"pct_electricidad":64,"pct_sin_electricidad":36,"pct_agua_red":55,"pct_alcantarillado":0,"pct_camara_septica":9,"pct_pozo_ciego":64,"pct_sin_desague":27,"pct_gas_red":0,"pct_gas_garrafa":64,"pct_lena_guano":64,"pct_basura_formal":0,"pct_basura_quema":82,"pct_basura_informal":0,"pct_internet":100,"pct_celular":100,"pct_televisor":45}},{"type":"Feature","geometry":{"type":"Polygon","coordinates":[[[-68.06455,-17.00651],[-68.0656,-17.00502],[-68.06519,-17.00473],[-68.06411,-17.00623],[-68.06455,-17.00651]]]},"properties":{"n":"TOLAR","p":25,"personas_x_ha":22,"masculinidad":92,"pct_menor20":52,"pct_60mas":8,"pct_migrante":8,"dependencia_econ":79,"pct_empleados":0,"pct_cuentapropia":50,"pct_agricultura":50,"pct_comercio":21,"pct_manufactura":0,"pct_construccion":7,"pct_transporte":7,"pct_alojamiento":0,"pct_sin_educacion":0,"pct_educ_superior":25,"brecha_educ":12,"pct_sin_seguro":12,"pct_sus":88,"pct_seguro_privado":0,"brecha_seguro":27,"pct_salud_publica":33,"pct_med_tradicional":4,"pct_automedicacion":23,"pct_remedios_caseros":21,"pct_viv_desocupada":0,"pct_alquiler":0,"pct_electricidad":59,"pct_sin_electricidad":35,"pct_agua_red":18,"pct_alcantarillado":0,"pct_camara_septica":6,"pct_pozo_ciego":59,"pct_sin_desague":35,"pct_gas_red":0,"pct_gas_garrafa":88,"pct_lena_guano":88,"pct_basura_formal":6,"pct_basura_quema":82,"pct_basura_informal":12,"pct_internet":41,"pct_celular":76,"pct_televisor":59}},{"type":"Feature","geometry":{"type":"Polygon","coordinates":[[[-68.0645,-17.003],[-68.06404,-17.00275],[-68.06353,-17.00353],[-68.06398,-17.00377],[-68.0645,-17.003]]]},"properties":{"n":"TOLAR","p":18,"personas_x_ha":29,"masculinidad":157,"pct_menor20":33,"pct_60mas":6,"pct_migrante":6,"dependencia_econ":12,"pct_empleados":38,"pct_cuentapropia":62,"pct_agricultura":25,"pct_comercio":12,"pct_manufactura":38,"pct_construccion":19,"pct_transporte":0,"pct_alojamiento":6,"pct_sin_educacion":0,"pct_educ_superior":14,"brecha_educ":-25,"pct_sin_seguro":0,"pct_sus":100,"pct_seguro_privado":0,"brecha_seguro":0,"pct_salud_publica":33,"pct_med_tradicional":23,"pct_automedicacion":10,"pct_remedios_caseros":29,"pct_viv_desocupada":0,"pct_alquiler":0,"pct_electricidad":12,"pct_sin_electricidad":88,"pct_agua_red":19,"pct_alcantarillado":0,"pct_camara_septica":0,"pct_pozo_ciego":19,"pct_sin_desague":75,"pct_gas_red":0,"pct_gas_garrafa":88,"pct_lena_guano":88,"pct_basura_formal":0,"pct_basura_quema":94,"pct_basura_informal":0,"pct_internet":88,"pct_celular":88,"pct_televisor":56}},{"type":"Feature","geometry":{"type":"Polygon","coordinates":[[[-68.06563,-17.00875],[-68.0663,-17.00777],[-68.06585,-17.00748],[-68.06518,-17.00841],[-68.06563,-17.00875]]]},"properties":{"n":"TOLAR","p":19,"personas_x_ha":24,"masculinidad":73,"pct_menor20":47,"pct_60mas":5,"pct_migrante":32,"dependencia_econ":73,"pct_empleados":9,"pct_cuentapropia":73,"pct_agricultura":45,"pct_comercio":18,"pct_manufactura":9,"pct_construccion":0,"pct_transporte":9,"pct_alojamiento":9,"pct_sin_educacion":10,"pct_educ_superior":0,"brecha_educ":20,"pct_sin_seguro":5,"pct_sus":95,"pct_seguro_privado":0,"brecha_seguro":12,"pct_salud_publica":27,"pct_med_tradicional":21,"pct_automedicacion":22,"pct_remedios_caseros":22,"pct_viv_desocupada":0,"pct_alquiler":0,"pct_electricidad":75,"pct_sin_electricidad":25,"pct_agua_red":62,"pct_alcantarillado":0,"pct_camara_septica":0,"pct_pozo_ciego":50,"pct_sin_desague":38,"pct_gas_red":0,"pct_gas_garrafa":75,"pct_lena_guano":75,"pct_basura_formal":12,"pct_basura_quema":62,"pct_basura_informal":50,"pct_internet":62,"pct_celular":88,"pct_televisor":50}},{"type":"Feature","geometry":{"type":"Polygon","coordinates":[[[-68.06338,-17.00449],[-68.06292,-17.00427],[-68.06242,-17.00498],[-68.06243,-17.00508],[-68.06282,-17.00531],[-68.06338,-17.00449]]]},"properties":{"n":"TOLAR","p":16,"personas_x_ha":26,"masculinidad":220,"pct_menor20":31,"pct_60mas":6,"pct_migrante":6,"dependencia_econ":45,"pct_empleados":9,"pct_cuentapropia":82,"pct_agricultura":55,"pct_comercio":9,"pct_manufactura":27,"pct_construccion":0,"pct_transporte":9,"pct_alojamiento":0,"pct_sin_educacion":0,"pct_educ_superior":36,"brecha_educ":-50,"pct_sin_seguro":25,"pct_sus":75,"pct_seguro_privado":0,"brecha_seguro":7,"pct_salud_publica":26,"pct_med_tradicional":23,"pct_automedicacion":15,"pct_remedios_caseros":19,"pct_viv_desocupada":6,"pct_alquiler":0,"pct_electricidad":38,"pct_sin_electricidad":54,"pct_agua_red":38,"pct_alcantarillado":23,"pct_camara_septica":0,"pct_pozo_ciego":0,"pct_sin_desague":77,"pct_gas_red":0,"pct_gas_garrafa":85,"pct_lena_guano":85,"pct_basura_formal":8,"pct_basura_quema":62,"pct_basura_informal":31,"pct_internet":38,"pct_celular":85,"pct_televisor":46}},{"type":"Feature","geometry":{"type":"Polygon","coordinates":[[[-68.06461,-17.00436],[-68.06357,-17.00585],[-68.064,-17.00615],[-68.06509,-17.00467],[-68.06461,-17.00436]]]},"properties":{"n":"TOLAR","p":25,"personas_x_ha":20,"masculinidad":108,"pct_menor20":60,"pct_60mas":12,"pct_migrante":28,"dependencia_econ":67,"pct_empleados":27,"pct_cuentapropia":73,"pct_agricultura":60,"pct_comercio":7,"pct_manufactura":0,"pct_construccion":0,"pct_transporte":0,"pct_alojamiento":13,"pct_sin_educacion":9,"pct_educ_superior":9,"brecha_educ":-13,"pct_sin_seguro":4,"pct_sus":92,"pct_seguro_privado":0,"brecha_seguro":8,"pct_salud_publica":26,"pct_med_tradicional":18,"pct_automedicacion":15,"pct_remedios_caseros":22,"pct_viv_desocupada":0,"pct_alquiler":0,"pct_electricidad":69,"pct_sin_electricidad":25,"pct_agua_red":69,"pct_alcantarillado":6,"pct_camara_septica":0,"pct_pozo_ciego":31,"pct_sin_desague":62,"pct_gas_red":0,"pct_gas_garrafa":94,"pct_lena_guano":94,"pct_basura_formal":31,"pct_basura_quema":38,"pct_basura_informal":38,"pct_internet":19,"pct_celular":62,"pct_televisor":50}},{"type":"Feature","geometry":{"type":"Polygon","coordinates":[[[-68.06768,-17.00386],[-68.06661,-17.00533],[-68.06704,-17.00567],[-68.06811,-17.00412],[-68.06768,-17.00386]]]},"properties":{"n":"TOLAR","p":16,"personas_x_ha":14,"masculinidad":78,"pct_menor20":38,"pct_60mas":0,"pct_migrante":50,"dependencia_econ":33,"pct_empleados":17,"pct_cuentapropia":67,"pct_agricultura":42,"pct_comercio":17,"pct_manufactura":17,"pct_construccion":17,"pct_transporte":0,"pct_alojamiento":0,"pct_sin_educacion":20,"pct_educ_superior":0,"brecha_educ":20,"pct_sin_seguro":7,"pct_sus":86,"pct_seguro_privado":0,"brecha_seguro":-11,"pct_salud_publica":47,"pct_med_tradicional":7,"pct_automedicacion":20,"pct_remedios_caseros":17,"pct_viv_desocupada":0,"pct_alquiler":0,"pct_electricidad":10,"pct_sin_electricidad":80,"pct_agua_red":10,"pct_alcantarillado":0,"pct_camara_septica":0,"pct_pozo_ciego":10,"pct_sin_desague":90,"pct_gas_red":0,"pct_gas_garrafa":20,"pct_lena_guano":20,"pct_basura_formal":0,"pct_basura_quema":80,"pct_basura_informal":0,"pct_internet":60,"pct_celular":70,"pct_televisor":0}},{"type":"Feature","geometry":{"type":"Polygon","coordinates":[[[-68.06319,-17.00233],[-68.06269,-17.00301],[-68.06283,-17.0031],[-68.06302,-17.00307],[-68.06343,-17.00249],[-68.06319,-17.00233]]]},"properties":{"n":"TOLAR","p":19,"personas_x_ha":67,"masculinidad":171,"pct_menor20":32,"pct_60mas":0,"pct_migrante":32,"dependencia_econ":64,"pct_empleados":18,"pct_cuentapropia":36,"pct_agricultura":36,"pct_comercio":0,"pct_manufactura":0,"pct_construccion":27,"pct_transporte":9,"pct_alojamiento":0,"pct_sin_educacion":8,"pct_educ_superior":17,"brecha_educ":-33,"pct_sin_seguro":18,"pct_sus":82,"pct_seguro_privado":0,"brecha_seguro":2,"pct_salud_publica":46,"pct_med_tradicional":26,"pct_automedicacion":0,"pct_remedios_caseros":28,"pct_viv_desocupada":29,"pct_alquiler":0,"pct_electricidad":0,"pct_sin_electricidad":100,"pct_agua_red":17,"pct_alcantarillado":0,"pct_camara_septica":0,"pct_pozo_ciego":8,"pct_sin_desague":92,"pct_gas_red":0,"pct_gas_garrafa":58,"pct_lena_guano":58,"pct_basura_formal":0,"pct_basura_quema":83,"pct_basura_informal":0,"pct_internet":8,"pct_celular":58,"pct_televisor":8}},{"type":"Feature","geometry":{"type":"Polygon","coordinates":[[[-68.06415,-17.01245],[-68.0629,-17.01159],[-68.06275,-17.01185],[-68.06299,-17.01232],[-68.0639,-17.01281],[-68.06415,-17.01245]]]},"properties":{"n":"TOLAR","p":31,"personas_x_ha":37,"masculinidad":107,"pct_menor20":58,"pct_60mas":3,"pct_migrante":10,"dependencia_econ":121,"pct_empleados":21,"pct_cuentapropia":57,"pct_agricultura":43,"pct_comercio":29,"pct_manufactura":7,"pct_construccion":21,"pct_transporte":0,"pct_alojamiento":0,"pct_sin_educacion":8,"pct_educ_superior":8,"brecha_educ":-71,"pct_sin_seguro":16,"pct_sus":84,"pct_seguro_privado":0,"brecha_seguro":5,"pct_salud_publica":27,"pct_med_tradicional":12,"pct_automedicacion":8,"pct_remedios_caseros":20,"pct_viv_desocupada":0,"pct_alquiler":17,"pct_electricidad":67,"pct_sin_electricidad":8,"pct_agua_red":58,"pct_alcantarillado":0,"pct_camara_septica":0,"pct_pozo_ciego":17,"pct_sin_desague":83,"pct_gas_red":0,"pct_gas_garrafa":100,"pct_lena_guano":100,"pct_basura_formal":17,"pct_basura_quema":75,"pct_basura_informal":0,"pct_internet":33,"pct_celular":75,"pct_televisor":75}},{"type":"Feature","geometry":{"type":"Polygon","coordinates":[[[-68.06246,-17.01118],[-68.06292,-17.01147],[-68.06397,-17.00999],[-68.06348,-17.0097],[-68.06246,-17.01118]]]},"properties":{"n":"TOLAR","p":16,"personas_x_ha":13,"masculinidad":100,"pct_menor20":44,"pct_60mas":12,"pct_migrante":6,"dependencia_econ":129,"pct_empleados":0,"pct_cuentapropia":57,"pct_agricultura":71,"pct_comercio":14,"pct_manufactura":0,"pct_construccion":14,"pct_transporte":0,"pct_alojamiento":0,"pct_sin_educacion":11,"pct_educ_superior":11,"brecha_educ":-60,"pct_sin_seguro":0,"pct_sus":100,"pct_seguro_privado":0,"brecha_seguro":0,"pct_salud_publica":37,"pct_med_tradicional":9,"pct_automedicacion":14,"pct_remedios_caseros":14,"pct_viv_desocupada":15,"pct_alquiler":0,"pct_electricidad":64,"pct_sin_electricidad":27,"pct_agua_red":55,"pct_alcantarillado":0,"pct_camara_septica":0,"pct_pozo_ciego":9,"pct_sin_desague":73,"pct_gas_red":0,"pct_gas_garrafa":91,"pct_lena_guano":91,"pct_basura_formal":0,"pct_basura_quema":82,"pct_basura_informal":18,"pct_internet":36,"pct_celular":91,"pct_televisor":55}},{"type":"Feature","geometry":{"type":"Polygon","coordinates":[[[-68.06674,-17.00348],[-68.06623,-17.00315],[-68.06521,-17.00465],[-68.06567,-17.00494],[-68.06674,-17.00348]]]},"properties":{"n":"TOLAR","p":24,"personas_x_ha":19,"masculinidad":100,"pct_menor20":50,"pct_60mas":0,"pct_migrante":29,"dependencia_econ":118,"pct_empleados":18,"pct_cuentapropia":64,"pct_agricultura":45,"pct_comercio":18,"pct_manufactura":9,"pct_construccion":9,"pct_transporte":18,"pct_alojamiento":0,"pct_sin_educacion":8,"pct_educ_superior":8,"brecha_educ":17,"pct_sin_seguro":4,"pct_sus":96,"pct_seguro_privado":0,"brecha_seguro":-8,"pct_salud_publica":34,"pct_med_tradicional":14,"pct_automedicacion":15,"pct_remedios_caseros":27,"pct_viv_desocupada":0,"pct_alquiler":0,"pct_electricidad":69,"pct_sin_electricidad":31,"pct_agua_red":38,"pct_alcantarillado":0,"pct_camara_septica":0,"pct_pozo_ciego":25,"pct_sin_desague":75,"pct_gas_red":0,"pct_gas_garrafa":75,"pct_lena_guano":75,"pct_basura_formal":6,"pct_basura_quema":88,"pct_basura_informal":0,"pct_internet":75,"pct_celular":94,"pct_televisor":38}},{"type":"Feature","geometry":{"type":"Polygon","coordinates":[[[-68.0622,-17.00873],[-68.06326,-17.00726],[-68.06281,-17.00693],[-68.06175,-17.00842],[-68.0622,-17.00873]]]},"properties":{"n":"TOLAR","p":18,"personas_x_ha":15,"masculinidad":64,"pct_menor20":67,"pct_60mas":0,"pct_migrante":0,"dependencia_econ":167,"pct_empleados":17,"pct_cuentapropia":83,"pct_agricultura":67,"pct_comercio":0,"pct_manufactura":17,"pct_construccion":0,"pct_transporte":0,"pct_alojamiento":0,"pct_sin_educacion":0,"pct_educ_superior":17,"brecha_educ":25,"pct_sin_seguro":0,"pct_sus":100,"pct_seguro_privado":0,"brecha_seguro":0,"pct_salud_publica":30,"pct_med_tradicional":19,"pct_automedicacion":12,"pct_remedios_caseros":12,"pct_viv_desocupada":0,"pct_alquiler":0,"pct_electricidad":44,"pct_sin_electricidad":11,"pct_agua_red":22,"pct_alcantarillado":11,"pct_camara_septica":11,"pct_pozo_ciego":11,"pct_sin_desague":67,"pct_gas_red":0,"pct_gas_garrafa":89,"pct_lena_guano":89,"pct_basura_formal":11,"pct_basura_quema":78,"pct_basura_informal":0,"pct_internet":33,"pct_celular":89,"pct_televisor":67}},{"type":"Feature","geometry":{"type":"Polygon","coordinates":[[[-68.06337,-17.00366],[-68.06302,-17.00413],[-68.06346,-17.00443],[-68.06387,-17.00385],[-68.0635,-17.00361],[-68.06337,-17.00366]]]},"properties":{"n":"TOLAR","p":27,"personas_x_ha":57,"masculinidad":145,"pct_menor20":30,"pct_60mas":7,"pct_migrante":19,"dependencia_econ":35,"pct_empleados":25,"pct_cuentapropia":75,"pct_agricultura":30,"pct_comercio":25,"pct_manufactura":15,"pct_construccion":0,"pct_transporte":10,"pct_alojamiento":5,"pct_sin_educacion":5,"pct_educ_superior":30,"brecha_educ":-44,"pct_sin_seguro":11,"pct_sus":81,"pct_seguro_privado":0,"brecha_seguro":3,"pct_salud_publica":27,"pct_med_tradicional":16,"pct_automedicacion":18,"pct_remedios_caseros":24,"pct_viv_desocupada":0,"pct_alquiler":0,"pct_electricidad":6,"pct_sin_electricidad":81,"pct_agua_red":0,"pct_alcantarillado":0,"pct_camara_septica":0,"pct_pozo_ciego":12,"pct_sin_desague":88,"pct_gas_red":0,"pct_gas_garrafa":56,"pct_lena_guano":56,"pct_basura_formal":12,"pct_basura_quema":75,"pct_basura_informal":12,"pct_internet":62,"pct_celular":75,"pct_televisor":50}},{"type":"Feature","geometry":{"type":"Polygon","coordinates":[[[-68.06512,-17.00836],[-68.06578,-17.00744],[-68.06531,-17.00712],[-68.06465,-17.00804],[-68.06512,-17.00836]]]},"properties":{"n":"TOLAR","p":16,"personas_x_ha":21,"masculinidad":33,"pct_menor20":50,"pct_60mas":12,"pct_migrante":38,"dependencia_econ":129,"pct_empleados":0,"pct_cuentapropia":86,"pct_agricultura":71,"pct_comercio":14,"pct_manufactura":0,"pct_construccion":0,"pct_transporte":0,"pct_alojamiento":0,"pct_sin_educacion":11,"pct_educ_superior":33,"brecha_educ":-25,"pct_sin_seguro":25,"pct_sus":75,"pct_seguro_privado":0,"brecha_seguro":33,"pct_salud_publica":30,"pct_med_tradicional":13,"pct_automedicacion":15,"pct_remedios_caseros":26,"pct_viv_desocupada":0,"pct_alquiler":0,"pct_electricidad":90,"pct_sin_electricidad":10,"pct_agua_red":50,"pct_alcantarillado":0,"pct_camara_septica":0,"pct_pozo_ciego":90,"pct_sin_desague":10,"pct_gas_red":0,"pct_gas_garrafa":100,"pct_lena_guano":100,"pct_basura_formal":20,"pct_basura_quema":60,"pct_basura_informal":0,"pct_internet":70,"pct_celular":100,"pct_televisor":90}},{"type":"Feature","geometry":{"type":"Polygon","coordinates":[[[-68.0613,-17.00696],[-68.06077,-17.00765],[-68.06106,-17.00792],[-68.06162,-17.0072],[-68.0613,-17.00696]]]},"properties":{"n":"TOLAR","p":16,"personas_x_ha":34,"masculinidad":100,"pct_menor20":50,"pct_60mas":0,"pct_migrante":25,"dependencia_econ":167,"pct_empleados":50,"pct_cuentapropia":17,"pct_agricultura":17,"pct_comercio":0,"pct_manufactura":0,"pct_construccion":50,"pct_transporte":0,"pct_alojamiento":17,"pct_sin_educacion":0,"pct_educ_superior":0,"brecha_educ":0,"pct_sin_seguro":12,"pct_sus":81,"pct_seguro_privado":0,"brecha_seguro":0,"pct_salud_publica":62,"pct_med_tradicional":0,"pct_automedicacion":25,"pct_remedios_caseros":0,"pct_viv_desocupada":0,"pct_alquiler":0,"pct_electricidad":0,"pct_sin_electricidad":100,"pct_agua_red":0,"pct_alcantarillado":0,"pct_camara_septica":0,"pct_pozo_ciego":0,"pct_sin_desague":100,"pct_gas_red":0,"pct_gas_garrafa":8,"pct_lena_guano":8,"pct_basura_formal":23,"pct_basura_quema":46,"pct_basura_informal":15,"pct_internet":0,"pct_celular":46,"pct_televisor":0}},{"type":"Feature","geometry":{"type":"Polygon","coordinates":[[[-68.06526,-17.00699],[-68.06632,-17.00552],[-68.06601,-17.00529],[-68.06491,-17.00674],[-68.06526,-17.00699]]]},"properties":{"n":"TOLAR","p":18,"personas_x_ha":20,"masculinidad":64,"pct_menor20":28,"pct_60mas":17,"pct_migrante":11,"dependencia_econ":64,"pct_empleados":18,"pct_cuentapropia":73,"pct_agricultura":27,"pct_comercio":27,"pct_manufactura":9,"pct_construccion":9,"pct_transporte":9,"pct_alojamiento":9,"pct_sin_educacion":15,"pct_educ_superior":23,"brecha_educ":-38,"pct_sin_seguro":22,"pct_sus":78,"pct_seguro_privado":0,"brecha_seguro":10,"pct_salud_publica":63,"pct_med_tradicional":0,"pct_automedicacion":4,"pct_remedios_caseros":33,"pct_viv_desocupada":0,"pct_alquiler":0,"pct_electricidad":50,"pct_sin_electricidad":43,"pct_agua_red":50,"pct_alcantarillado":0,"pct_camara_septica":0,"pct_pozo_ciego":36,"pct_sin_desague":57,"pct_gas_red":0,"pct_gas_garrafa":50,"pct_lena_guano":50,"pct_basura_formal":0,"pct_basura_quema":50,"pct_basura_informal":0,"pct_internet":36,"pct_celular":36,"pct_televisor":50}},{"type":"Feature","geometry":{"type":"Polygon","coordinates":[[[-68.06512,-17.00851],[-68.0641,-17.00998],[-68.06457,-17.01027],[-68.06558,-17.00882],[-68.06512,-17.00851]]]},"properties":{"n":"TOLAR","p":15,"personas_x_ha":13,"masculinidad":114,"pct_menor20":33,"pct_60mas":13,"pct_migrante":0,"dependencia_econ":50,"pct_empleados":0,"pct_cuentapropia":60,"pct_agricultura":60,"pct_comercio":10,"pct_manufactura":10,"pct_construccion":0,"pct_transporte":0,"pct_alojamiento":0,"pct_sin_educacion":10,"pct_educ_superior":0,"brecha_educ":-20,"pct_sin_seguro":7,"pct_sus":79,"pct_seguro_privado":0,"brecha_seguro":-17,"pct_salud_publica":23,"pct_med_tradicional":23,"pct_automedicacion":5,"pct_remedios_caseros":23,"pct_viv_desocupada":0,"pct_alquiler":8,"pct_electricidad":58,"pct_sin_electricidad":33,"pct_agua_red":25,"pct_alcantarillado":8,"pct_camara_septica":0,"pct_pozo_ciego":8,"pct_sin_desague":67,"pct_gas_red":0,"pct_gas_garrafa":67,"pct_lena_guano":67,"pct_basura_formal":8,"pct_basura_quema":67,"pct_basura_informal":17,"pct_internet":8,"pct_celular":42,"pct_televisor":58}},{"type":"Feature","geometry":{"type":"Polygon","coordinates":[[[-68.06347,-17.01183],[-68.06451,-17.01033],[-68.06406,-17.01003],[-68.06297,-17.01151],[-68.06347,-17.01183]]]},"properties":{"n":"TOLAR","p":22,"personas_x_ha":18,"masculinidad":100,"pct_menor20":27,"pct_60mas":9,"pct_migrante":0,"dependencia_econ":62,"pct_empleados":0,"pct_cuentapropia":54,"pct_agricultura":77,"pct_comercio":0,"pct_manufactura":0,"pct_construccion":15,"pct_transporte":0,"pct_alojamiento":0,"pct_sin_educacion":6,"pct_educ_superior":31,"brecha_educ":-25,"pct_sin_seguro":14,"pct_sus":71,"pct_seguro_privado":0,"brecha_seguro":-27,"pct_salud_publica":21,"pct_med_tradicional":21,"pct_automedicacion":19,"pct_remedios_caseros":18,"pct_viv_desocupada":0,"pct_alquiler":8,"pct_electricidad":38,"pct_sin_electricidad":8,"pct_agua_red":38,"pct_alcantarillado":8,"pct_camara_septica":0,"pct_pozo_ciego":15,"pct_sin_desague":69,"pct_gas_red":0,"pct_gas_garrafa":38,"pct_lena_guano":69,"pct_basura_formal":31,"pct_basura_quema":38,"pct_basura_informal":0,"pct_internet":31,"pct_celular":38,"pct_televisor":46}},{"type":"Feature","geometry":{"type":"Polygon","coordinates":[[[-68.06197,-17.01087],[-68.06237,-17.01113],[-68.06341,-17.00963],[-68.06301,-17.00942],[-68.06197,-17.01087]]]},"properties":{"n":"TOLAR","p":24,"personas_x_ha":24,"masculinidad":60,"pct_menor20":38,"pct_60mas":21,"pct_migrante":38,"dependencia_econ":77,"pct_empleados":15,"pct_cuentapropia":62,"pct_agricultura":38,"pct_comercio":0,"pct_manufactura":0,"pct_construccion":0,"pct_transporte":15,"pct_alojamiento":15,"pct_sin_educacion":7,"pct_educ_superior":36,"brecha_educ":-14,"pct_sin_seguro":13,"pct_sus":87,"pct_seguro_privado":0,"brecha_seguro":-1,"pct_salud_publica":26,"pct_med_tradicional":9,"pct_automedicacion":20,"pct_remedios_caseros":21,"pct_viv_desocupada":0,"pct_alquiler":0,"pct_electricidad":92,"pct_sin_electricidad":8,"pct_agua_red":17,"pct_alcantarillado":17,"pct_camara_septica":0,"pct_pozo_ciego":58,"pct_sin_desague":17,"pct_gas_red":0,"pct_gas_garrafa":75,"pct_lena_guano":75,"pct_basura_formal":8,"pct_basura_quema":75,"pct_basura_informal":17,"pct_internet":42,"pct_celular":75,"pct_televisor":58}},{"type":"Feature","geometry":{"type":"Polygon","coordinates":[[[-68.06472,-17.00196],[-68.06459,-17.00199],[-68.06413,-17.00261],[-68.06454,-17.00295],[-68.06508,-17.00227],[-68.06472,-17.00196]]]},"properties":{"n":"TOLAR","p":20,"personas_x_ha":33,"masculinidad":100,"pct_menor20":35,"pct_60mas":0,"pct_migrante":25,"dependencia_econ":67,"pct_empleados":8,"pct_cuentapropia":83,"pct_agricultura":42,"pct_comercio":8,"pct_manufactura":8,"pct_construccion":17,"pct_transporte":8,"pct_alojamiento":8,"pct_sin_educacion":0,"pct_educ_superior":8,"brecha_educ":-14,"pct_sin_seguro":15,"pct_sus":85,"pct_seguro_privado":0,"brecha_seguro":10,"pct_salud_publica":32,"pct_med_tradicional":18,"pct_automedicacion":18,"pct_remedios_caseros":26,"pct_viv_desocupada":7,"pct_alquiler":0,"pct_electricidad":8,"pct_sin_electricidad":85,"pct_agua_red":8,"pct_alcantarillado":0,"pct_camara_septica":0,"pct_pozo_ciego":15,"pct_sin_desague":85,"pct_gas_red":0,"pct_gas_garrafa":15,"pct_lena_guano":15,"pct_basura_formal":0,"pct_basura_quema":23,"pct_basura_informal":123,"pct_internet":100,"pct_celular":100,"pct_televisor":15}},{"type":"Feature","geometry":{"type":"Polygon","coordinates":[[[-68.06011,-17.00754],[-68.05954,-17.00825],[-68.05972,-17.00875],[-68.06048,-17.00776],[-68.06047,-17.00767],[-68.06023,-17.0075],[-68.06011,-17.00754]]]},"properties":{"n":"TOLAR","p":21,"personas_x_ha":35,"masculinidad":91,"pct_menor20":29,"pct_60mas":0,"pct_migrante":29,"dependencia_econ":133,"pct_empleados":44,"pct_cuentapropia":56,"pct_agricultura":56,"pct_comercio":11,"pct_manufactura":0,"pct_construccion":22,"pct_transporte":0,"pct_alojamiento":0,"pct_sin_educacion":0,"pct_educ_superior":27,"brecha_educ":11,"pct_sin_seguro":14,"pct_sus":86,"pct_seguro_privado":0,"brecha_seguro":-8,"pct_salud_publica":78,"pct_med_tradicional":0,"pct_automedicacion":0,"pct_remedios_caseros":19,"pct_viv_desocupada":0,"pct_alquiler":0,"pct_electricidad":6,"pct_sin_electricidad":94,"pct_agua_red":0,"pct_alcantarillado":0,"pct_camara_septica":0,"pct_pozo_ciego":0,"pct_sin_desague":100,"pct_gas_red":0,"pct_gas_garrafa":56,"pct_lena_guano":56,"pct_basura_formal":0,"pct_basura_quema":44,"pct_basura_informal":0,"pct_internet":0,"pct_celular":78,"pct_televisor":17}},{"type":"Feature","geometry":{"type":"Polygon","coordinates":[[[-68.06502,-17.00841],[-68.06459,-17.00814],[-68.06355,-17.00961],[-68.06403,-17.00991],[-68.06502,-17.00841]]]},"properties":{"n":"TOLAR","p":28,"personas_x_ha":23,"masculinidad":87,"pct_menor20":43,"pct_60mas":18,"pct_migrante":25,"dependencia_econ":133,"pct_empleados":8,"pct_cuentapropia":92,"pct_agricultura":50,"pct_comercio":8,"pct_manufactura":8,"pct_construccion":8,"pct_transporte":0,"pct_alojamiento":25,"pct_sin_educacion":6,"pct_educ_superior":0,"brecha_educ":-5,"pct_sin_seguro":11,"pct_sus":86,"pct_seguro_privado":0,"brecha_seguro":23,"pct_salud_publica":33,"pct_med_tradicional":15,"pct_automedicacion":14,"pct_remedios_caseros":15,"pct_viv_desocupada":0,"pct_alquiler":0,"pct_electricidad":67,"pct_sin_electricidad":33,"pct_agua_red":67,"pct_alcantarillado":22,"pct_camara_septica":6,"pct_pozo_ciego":22,"pct_sin_desague":50,"pct_gas_red":0,"pct_gas_garrafa":83,"pct_lena_guano":83,"pct_basura_formal":0,"pct_basura_quema":72,"pct_basura_informal":0,"pct_internet":44,"pct_celular":78,"pct_televisor":61}},{"type":"Feature","geometry":{"type":"Polygon","coordinates":[[[-68.06338,-17.00731],[-68.06232,-17.00878],[-68.06271,-17.00906],[-68.06376,-17.00762],[-68.06338,-17.00731]]]},"properties":{"n":"TOLAR","p":50,"personas_x_ha":45,"masculinidad":79,"pct_menor20":44,"pct_60mas":10,"pct_migrante":12,"dependencia_econ":85,"pct_empleados":0,"pct_cuentapropia":93,"pct_agricultura":33,"pct_comercio":4,"pct_manufactura":22,"pct_construccion":11,"pct_transporte":15,"pct_alojamiento":4,"pct_sin_educacion":0,"pct_educ_superior":7,"brecha_educ":-7,"pct_sin_seguro":16,"pct_sus":84,"pct_seguro_privado":0,"brecha_seguro":-4,"pct_salud_publica":29,"pct_med_tradicional":8,"pct_automedicacion":20,"pct_remedios_caseros":23,"pct_viv_desocupada":0,"pct_alquiler":0,"pct_electricidad":73,"pct_sin_electricidad":23,"pct_agua_red":32,"pct_alcantarillado":5,"pct_camara_septica":0,"pct_pozo_ciego":73,"pct_sin_desague":23,"pct_gas_red":0,"pct_gas_garrafa":95,"pct_lena_guano":95,"pct_basura_formal":18,"pct_basura_quema":64,"pct_basura_informal":0,"pct_internet":59,"pct_celular":86,"pct_televisor":73}},{"type":"Feature","geometry":{"type":"Polygon","coordinates":[[[-68.06228,-17.00889],[-68.0612,-17.01036],[-68.06164,-17.01065],[-68.06266,-17.00916],[-68.06228,-17.00889]]]},"properties":{"n":"TOLAR","p":34,"personas_x_ha":30,"masculinidad":89,"pct_menor20":47,"pct_60mas":9,"pct_migrante":44,"dependencia_econ":89,"pct_empleados":28,"pct_cuentapropia":61,"pct_agricultura":28,"pct_comercio":17,"pct_manufactura":0,"pct_construccion":6,"pct_transporte":6,"pct_alojamiento":6,"pct_sin_educacion":0,"pct_educ_superior":39,"brecha_educ":-30,"pct_sin_seguro":9,"pct_sus":74,"pct_seguro_privado":0,"brecha_seguro":-5,"pct_salud_publica":23,"pct_med_tradicional":18,"pct_automedicacion":12,"pct_remedios_caseros":28,"pct_viv_desocupada":0,"pct_alquiler":6,"pct_electricidad":100,"pct_sin_electricidad":0,"pct_agua_red":81,"pct_alcantarillado":6,"pct_camara_septica":19,"pct_pozo_ciego":69,"pct_sin_desague":6,"pct_gas_red":0,"pct_gas_garrafa":100,"pct_lena_guano":100,"pct_basura_formal":0,"pct_basura_quema":94,"pct_basura_informal":0,"pct_internet":88,"pct_celular":100,"pct_televisor":94}},{"type":"Feature","geometry":{"type":"Polygon","coordinates":[[[-68.06163,-17.00847],[-68.06117,-17.00817],[-68.06014,-17.00965],[-68.06059,-17.00994],[-68.06163,-17.00847]]]},"properties":{"n":"TOLAR","p":18,"personas_x_ha":16,"masculinidad":50,"pct_menor20":28,"pct_60mas":11,"pct_migrante":22,"dependencia_econ":64,"pct_empleados":18,"pct_cuentapropia":55,"pct_agricultura":18,"pct_comercio":27,"pct_manufactura":18,"pct_construccion":18,"pct_transporte":0,"pct_alojamiento":0,"pct_sin_educacion":15,"pct_educ_superior":23,"brecha_educ":-18,"pct_sin_seguro":19,"pct_sus":75,"pct_seguro_privado":6,"brecha_seguro":-25,"pct_salud_publica":25,"pct_med_tradicional":14,"pct_automedicacion":18,"pct_remedios_caseros":22,"pct_viv_desocupada":0,"pct_alquiler":0,"pct_electricidad":54,"pct_sin_electricidad":46,"pct_agua_red":46,"pct_alcantarillado":8,"pct_camara_septica":0,"pct_pozo_ciego":23,"pct_sin_desague":69,"pct_gas_red":0,"pct_gas_garrafa":62,"pct_lena_guano":62,"pct_basura_formal":31,"pct_basura_quema":31,"pct_basura_informal":15,"pct_internet":69,"pct_celular":92,"pct_televisor":62}},{"type":"Feature","geometry":{"type":"Polygon","coordinates":[[[-68.06078,-17.00668],[-68.06029,-17.00731],[-68.06054,-17.00758],[-68.06063,-17.00756],[-68.06112,-17.00691],[-68.06078,-17.00668]]]},"properties":{"n":"TOLAR","p":18,"personas_x_ha":40,"masculinidad":100,"pct_menor20":44,"pct_60mas":0,"pct_migrante":33,"dependencia_econ":157,"pct_empleados":14,"pct_cuentapropia":86,"pct_agricultura":57,"pct_comercio":14,"pct_manufactura":0,"pct_construccion":14,"pct_transporte":14,"pct_alojamiento":0,"pct_sin_educacion":0,"pct_educ_superior":58,"brecha_educ":14,"pct_sin_seguro":19,"pct_sus":75,"pct_seguro_privado":6,"brecha_seguro":17,"pct_salud_publica":22,"pct_med_tradicional":22,"pct_automedicacion":20,"pct_remedios_caseros":24,"pct_viv_desocupada":6,"pct_alquiler":0,"pct_electricidad":0,"pct_sin_electricidad":85,"pct_agua_red":0,"pct_alcantarillado":0,"pct_camara_septica":0,"pct_pozo_ciego":15,"pct_sin_desague":85,"pct_gas_red":0,"pct_gas_garrafa":31,"pct_lena_guano":31,"pct_basura_formal":0,"pct_basura_quema":77,"pct_basura_informal":0,"pct_internet":46,"pct_celular":69,"pct_televisor":15}},{"type":"Feature","geometry":{"type":"Polygon","coordinates":[[[-68.06175,-17.00382],[-68.06134,-17.0043],[-68.06149,-17.00442],[-68.06188,-17.00395],[-68.06175,-17.00382]]]},"properties":{"n":"TOLAR","p":15,"personas_x_ha":92,"masculinidad":50,"pct_menor20":40,"pct_60mas":0,"pct_migrante":60,"dependencia_econ":67,"pct_empleados":22,"pct_cuentapropia":67,"pct_agricultura":22,"pct_comercio":0,"pct_manufactura":22,"pct_construccion":11,"pct_transporte":11,"pct_alojamiento":33,"pct_sin_educacion":0,"pct_educ_superior":10,"brecha_educ":-14,"pct_sin_seguro":27,"pct_sus":73,"pct_seguro_privado":0,"brecha_seguro":20,"pct_salud_publica":19,"pct_med_tradicional":13,"pct_automedicacion":22,"pct_remedios_caseros":22,"pct_viv_desocupada":11,"pct_alquiler":0,"pct_electricidad":33,"pct_sin_electricidad":42,"pct_agua_red":17,"pct_alcantarillado":0,"pct_camara_septica":0,"pct_pozo_ciego":17,"pct_sin_desague":83,"pct_gas_red":0,"pct_gas_garrafa":75,"pct_lena_guano":75,"pct_basura_formal":25,"pct_basura_quema":58,"pct_basura_informal":0,"pct_internet":83,"pct_celular":92,"pct_televisor":17}},{"type":"Feature","geometry":{"type":"Polygon","coordinates":[[[-68.14843,-17.06008],[-68.1485,-17.05924],[-68.14802,-17.05922],[-68.14797,-17.06005],[-68.14843,-17.06008]]]},"properties":{"n":"VILLA EL CARMEN","p":17,"personas_x_ha":36,"masculinidad":89,"pct_menor20":12,"pct_60mas":6,"pct_migrante":0,"dependencia_econ":23,"pct_empleados":62,"pct_cuentapropia":31,"pct_agricultura":23,"pct_comercio":8,"pct_manufactura":8,"pct_construccion":31,"pct_transporte":8,"pct_alojamiento":0,"pct_sin_educacion":0,"pct_educ_superior":14,"brecha_educ":-33,"pct_sin_seguro":0,"pct_sus":100,"pct_seguro_privado":0,"brecha_seguro":0,"pct_salud_publica":100,"pct_med_tradicional":0,"pct_automedicacion":0,"pct_remedios_caseros":0,"pct_viv_desocupada":0,"pct_alquiler":0,"pct_electricidad":67,"pct_sin_electricidad":33,"pct_agua_red":0,"pct_alcantarillado":0,"pct_camara_septica":0,"pct_pozo_ciego":11,"pct_sin_desague":78,"pct_gas_red":0,"pct_gas_garrafa":89,"pct_lena_guano":89,"pct_basura_formal":0,"pct_basura_quema":11,"pct_basura_informal":0,"pct_internet":67,"pct_celular":89,"pct_televisor":11}}]}