{"type":"FeatureCollection","features":[{"type":"Feature","geometry":{"type":"Polygon","coordinates":[[[-69.10896,-14.82191],[-69.10897,-14.82172],[-69.10999,-14.82158],[-69.10995,-14.82177],[-69.10948,-14.82192],[-69.10896,-14.82191]]]},"properties":{"n":"AGUA BLANCA","p":39,"personas_x_ha":148,"masculinidad":129,"pct_menor20":44,"pct_60mas":3,"pct_migrante":31,"dependencia_econ":117,"pct_empleados":22,"pct_cuentapropia":56,"pct_agricultura":56,"pct_comercio":6,"pct_manufactura":0,"pct_construccion":0,"pct_transporte":6,"pct_alojamiento":6,"pct_sin_educacion":9,"pct_educ_superior":13,"brecha_educ":-38,"pct_sin_seguro":23,"pct_sus":64,"pct_seguro_privado":0,"brecha_seguro":-1,"pct_salud_publica":27,"pct_med_tradicional":20,"pct_automedicacion":18,"pct_remedios_caseros":23,"pct_viv_desocupada":6,"pct_alquiler":0,"pct_electricidad":71,"pct_sin_electricidad":14,"pct_agua_red":50,"pct_alcantarillado":57,"pct_camara_septica":0,"pct_pozo_ciego":0,"pct_sin_desague":43,"pct_gas_red":0,"pct_gas_garrafa":86,"pct_lena_guano":93,"pct_basura_formal":64,"pct_basura_quema":7,"pct_basura_informal":0,"pct_internet":64,"pct_celular":100,"pct_televisor":57}},{"type":"Feature","geometry":{"type":"Polygon","coordinates":[[[-69.11074,-14.82088],[-69.11148,-14.82053],[-69.11134,-14.82034],[-69.11086,-14.82017],[-69.11029,-14.82052],[-69.11008,-14.82074],[-69.10991,-14.82071],[-69.10911,-14.82121],[-69.10888,-14.82116],[-69.10846,-14.82131],[-69.10854,-14.82148],[-69.11056,-14.82095],[-69.11072,-14.82088],[-69.11068,-14.82069],[-69.11074,-14.82065],[-69.11063,-14.82041],[-69.11076,-14.82065],[-69.11069,-14.8207],[-69.11074,-14.82088]]]},"properties":{"n":"AGUA BLANCA","p":79,"personas_x_ha":60,"masculinidad":103,"pct_menor20":38,"pct_60mas":11,"pct_migrante":28,"dependencia_econ":126,"pct_empleados":17,"pct_cuentapropia":60,"pct_agricultura":49,"pct_comercio":6,"pct_manufactura":9,"pct_construccion":0,"pct_transporte":0,"pct_alojamiento":3,"pct_sin_educacion":8,"pct_educ_superior":18,"brecha_educ":-17,"pct_sin_seguro":15,"pct_sus":78,"pct_seguro_privado":4,"brecha_seguro":10,"pct_salud_publica":32,"pct_med_tradicional":22,"pct_automedicacion":12,"pct_remedios_caseros":21,"pct_viv_desocupada":13,"pct_alquiler":3,"pct_electricidad":82,"pct_sin_electricidad":18,"pct_agua_red":68,"pct_alcantarillado":47,"pct_camara_septica":0,"pct_pozo_ciego":0,"pct_sin_desague":34,"pct_gas_red":0,"pct_gas_garrafa":82,"pct_lena_guano":82,"pct_basura_formal":68,"pct_basura_quema":16,"pct_basura_informal":5,"pct_internet":39,"pct_celular":74,"pct_televisor":63}},{"type":"Feature","geometry":{"type":"Polygon","coordinates":[[[-69.10856,-14.82197],[-69.10848,-14.82153],[-69.10792,-14.82173],[-69.10803,-14.82182],[-69.10856,-14.82197]]]},"properties":{"n":"AGUA BLANCA","p":23,"personas_x_ha":106,"masculinidad":130,"pct_menor20":43,"pct_60mas":4,"pct_migrante":35,"dependencia_econ":229,"pct_empleados":57,"pct_cuentapropia":29,"pct_agricultura":14,"pct_comercio":0,"pct_manufactura":29,"pct_construccion":14,"pct_transporte":14,"pct_alojamiento":14,"pct_sin_educacion":8,"pct_educ_superior":15,"brecha_educ":-40,"pct_sin_seguro":26,"pct_sus":74,"pct_seguro_privado":0,"brecha_seguro":-7,"pct_salud_publica":26,"pct_med_tradicional":19,"pct_automedicacion":18,"pct_remedios_caseros":24,"pct_viv_desocupada":0,"pct_alquiler":11,"pct_electricidad":89,"pct_sin_electricidad":11,"pct_agua_red":67,"pct_alcantarillado":56,"pct_camara_septica":11,"pct_pozo_ciego":11,"pct_sin_desague":11,"pct_gas_red":0,"pct_gas_garrafa":78,"pct_lena_guano":78,"pct_basura_formal":100,"pct_basura_quema":0,"pct_basura_informal":0,"pct_internet":67,"pct_celular":100,"pct_televisor":33}},{"type":"Feature","geometry":{"type":"Polygon","coordinates":[[[-69.10735,-14.82132],[-69.10833,-14.821],[-69.10847,-14.82146],[-69.10777,-14.82166],[-69.10736,-14.82149],[-69.10735,-14.82132]]]},"properties":{"n":"AGUA BLANCA","p":23,"personas_x_ha":42,"masculinidad":156,"pct_menor20":17,"pct_60mas":9,"pct_migrante":22,"dependencia_econ":64,"pct_empleados":7,"pct_cuentapropia":64,"pct_agricultura":43,"pct_comercio":0,"pct_manufactura":7,"pct_construccion":0,"pct_transporte":0,"pct_alojamiento":7,"pct_sin_educacion":0,"pct_educ_superior":0,"brecha_educ":-26,"pct_sin_seguro":5,"pct_sus":82,"pct_seguro_privado":0,"brecha_seguro":8,"pct_salud_publica":31,"pct_med_tradicional":27,"pct_automedicacion":10,"pct_remedios_caseros":23,"pct_viv_desocupada":12,"pct_alquiler":7,"pct_electricidad":79,"pct_sin_electricidad":21,"pct_agua_red":36,"pct_alcantarillado":64,"pct_camara_septica":0,"pct_pozo_ciego":0,"pct_sin_desague":29,"pct_gas_red":0,"pct_gas_garrafa":93,"pct_lena_guano":93,"pct_basura_formal":93,"pct_basura_quema":0,"pct_basura_informal":14,"pct_internet":86,"pct_celular":93,"pct_televisor":50}},{"type":"Feature","geometry":{"type":"Polygon","coordinates":[[[-69.11079,-14.82104],[-69.11074,-14.82093],[-69.10987,-14.82118],[-69.10996,-14.82149],[-69.11079,-14.82104]]]},"properties":{"n":"AGUA BLANCA","p":47,"personas_x_ha":173,"masculinidad":124,"pct_menor20":64,"pct_60mas":2,"pct_migrante":26,"dependencia_econ":267,"pct_empleados":0,"pct_cuentapropia":67,"pct_agricultura":33,"pct_comercio":22,"pct_manufactura":11,"pct_construccion":0,"pct_transporte":0,"pct_alojamiento":0,"pct_sin_educacion":0,"pct_educ_superior":17,"brecha_educ":17,"pct_sin_seguro":12,"pct_sus":88,"pct_seguro_privado":0,"brecha_seguro":22,"pct_salud_publica":34,"pct_med_tradicional":22,"pct_automedicacion":12,"pct_remedios_caseros":18,"pct_viv_desocupada":11,"pct_alquiler":8,"pct_electricidad":85,"pct_sin_electricidad":8,"pct_agua_red":54,"pct_alcantarillado":69,"pct_camara_septica":0,"pct_pozo_ciego":0,"pct_sin_desague":23,"pct_gas_red":0,"pct_gas_garrafa":100,"pct_lena_guano":100,"pct_basura_formal":69,"pct_basura_quema":8,"pct_basura_informal":31,"pct_internet":31,"pct_celular":54,"pct_televisor":62}},{"type":"Feature","geometry":{"type":"Polygon","coordinates":[[[-69.10859,-14.82204],[-69.10858,-14.82181],[-69.10888,-14.82173],[-69.10889,-14.82189],[-69.10859,-14.82204]]]},"properties":{"n":"AGUA BLANCA","p":18,"personas_x_ha":240,"masculinidad":157,"pct_menor20":56,"pct_60mas":6,"pct_migrante":6,"dependencia_econ":100,"pct_empleados":11,"pct_cuentapropia":33,"pct_agricultura":67,"pct_comercio":0,"pct_manufactura":0,"pct_construccion":0,"pct_transporte":0,"pct_alojamiento":0,"pct_sin_educacion":11,"pct_educ_superior":0,"brecha_educ":15,"pct_sin_seguro":0,"pct_sus":94,"pct_seguro_privado":0,"brecha_seguro":0,"pct_salud_publica":28,"pct_med_tradicional":18,"pct_automedicacion":15,"pct_remedios_caseros":28,"pct_viv_desocupada":0,"pct_alquiler":14,"pct_electricidad":71,"pct_sin_electricidad":14,"pct_agua_red":71,"pct_alcantarillado":57,"pct_camara_septica":0,"pct_pozo_ciego":0,"pct_sin_desague":43,"pct_gas_red":0,"pct_gas_garrafa":86,"pct_lena_guano":86,"pct_basura_formal":57,"pct_basura_quema":43,"pct_basura_informal":0,"pct_internet":57,"pct_celular":100,"pct_televisor":71}},{"type":"Feature","geometry":{"type":"Polygon","coordinates":[[[-69.10895,-14.82165],[-69.10894,-14.8214],[-69.10967,-14.82124],[-69.10977,-14.82156],[-69.10895,-14.82165]]]},"properties":{"n":"AGUA BLANCA","p":48,"personas_x_ha":174,"masculinidad":100,"pct_menor20":40,"pct_60mas":4,"pct_migrante":27,"dependencia_econ":78,"pct_empleados":7,"pct_cuentapropia":78,"pct_agricultura":48,"pct_comercio":30,"pct_manufactura":4,"pct_construccion":0,"pct_transporte":0,"pct_alojamiento":0,"pct_sin_educacion":14,"pct_educ_superior":24,"brecha_educ":-52,"pct_sin_seguro":11,"pct_sus":82,"pct_seguro_privado":0,"brecha_seguro":-15,"pct_salud_publica":43,"pct_med_tradicional":23,"pct_automedicacion":6,"pct_remedios_caseros":26,"pct_viv_desocupada":0,"pct_alquiler":0,"pct_electricidad":100,"pct_sin_electricidad":0,"pct_agua_red":86,"pct_alcantarillado":55,"pct_camara_septica":0,"pct_pozo_ciego":0,"pct_sin_desague":45,"pct_gas_red":0,"pct_gas_garrafa":91,"pct_lena_guano":91,"pct_basura_formal":73,"pct_basura_quema":9,"pct_basura_informal":9,"pct_internet":68,"pct_celular":68,"pct_televisor":50}},{"type":"Feature","geometry":{"type":"Polygon","coordinates":[[[-69.28762,-14.87901],[-69.28815,-14.87885],[-69.28805,-14.87851],[-69.28753,-14.87861],[-69.28762,-14.87901]]]},"properties":{"n":"ANTAQUILLA","p":18,"personas_x_ha":72,"masculinidad":80,"pct_menor20":28,"pct_60mas":6,"pct_migrante":11,"dependencia_econ":64,"pct_empleados":18,"pct_cuentapropia":45,"pct_agricultura":27,"pct_comercio":36,"pct_manufactura":0,"pct_construccion":0,"pct_transporte":0,"pct_alojamiento":0,"pct_sin_educacion":8,"pct_educ_superior":54,"brecha_educ":-44,"pct_sin_seguro":41,"pct_sus":53,"pct_seguro_privado":0,"brecha_seguro":40,"pct_salud_publica":36,"pct_med_tradicional":17,"pct_automedicacion":6,"pct_remedios_caseros":25,"pct_viv_desocupada":11,"pct_alquiler":12,"pct_electricidad":100,"pct_sin_electricidad":0,"pct_agua_red":38,"pct_alcantarillado":12,"pct_camara_septica":0,"pct_pozo_ciego":75,"pct_sin_desague":12,"pct_gas_red":0,"pct_gas_garrafa":100,"pct_lena_guano":100,"pct_basura_formal":25,"pct_basura_quema":50,"pct_basura_informal":25,"pct_internet":100,"pct_celular":100,"pct_televisor":88}},{"type":"Feature","geometry":{"type":"Polygon","coordinates":[[[-69.28873,-14.87992],[-69.28837,-14.88001],[-69.28828,-14.8794],[-69.28861,-14.87933],[-69.28873,-14.87992]]]},"properties":{"n":"ANTAQUILLA","p":17,"personas_x_ha":63,"masculinidad":240,"pct_menor20":35,"pct_60mas":12,"pct_migrante":24,"dependencia_econ":112,"pct_empleados":0,"pct_cuentapropia":88,"pct_agricultura":12,"pct_comercio":62,"pct_manufactura":0,"pct_construccion":12,"pct_transporte":0,"pct_alojamiento":0,"pct_sin_educacion":0,"pct_educ_superior":33,"brecha_educ":-25,"pct_sin_seguro":24,"pct_sus":76,"pct_seguro_privado":0,"brecha_seguro":33,"pct_salud_publica":38,"pct_med_tradicional":21,"pct_automedicacion":10,"pct_remedios_caseros":18,"pct_viv_desocupada":0,"pct_alquiler":0,"pct_electricidad":80,"pct_sin_electricidad":20,"pct_agua_red":40,"pct_alcantarillado":20,"pct_camara_septica":10,"pct_pozo_ciego":30,"pct_sin_desague":30,"pct_gas_red":0,"pct_gas_garrafa":100,"pct_lena_guano":100,"pct_basura_formal":60,"pct_basura_quema":10,"pct_basura_informal":60,"pct_internet":50,"pct_celular":100,"pct_televisor":60}},{"type":"Feature","geometry":{"type":"Polygon","coordinates":[[[-69.28943,-14.88117],[-69.28881,-14.88077],[-69.28881,-14.88062],[-69.28842,-14.88066],[-69.28846,-14.88092],[-69.28861,-14.88106],[-69.28926,-14.88144],[-69.28943,-14.88117]]]},"properties":{"n":"ANTAQUILLA","p":23,"personas_x_ha":53,"masculinidad":44,"pct_menor20":43,"pct_60mas":0,"pct_migrante":43,"dependencia_econ":92,"pct_empleados":17,"pct_cuentapropia":83,"pct_agricultura":0,"pct_comercio":33,"pct_manufactura":17,"pct_construccion":0,"pct_transporte":0,"pct_alojamiento":17,"pct_sin_educacion":0,"pct_educ_superior":0,"brecha_educ":-27,"pct_sin_seguro":13,"pct_sus":87,"pct_seguro_privado":0,"brecha_seguro":2,"pct_salud_publica":27,"pct_med_tradicional":23,"pct_automedicacion":10,"pct_remedios_caseros":23,"pct_viv_desocupada":8,"pct_alquiler":0,"pct_electricidad":92,"pct_sin_electricidad":8,"pct_agua_red":92,"pct_alcantarillado":8,"pct_camara_septica":0,"pct_pozo_ciego":83,"pct_sin_desague":8,"pct_gas_red":0,"pct_gas_garrafa":92,"pct_lena_guano":92,"pct_basura_formal":75,"pct_basura_quema":17,"pct_basura_informal":0,"pct_internet":67,"pct_celular":67,"pct_televisor":58}},{"type":"Feature","geometry":{"type":"Polygon","coordinates":[[[-69.28828,-14.87981],[-69.2882,-14.87941],[-69.28778,-14.87953],[-69.28777,-14.87986],[-69.28828,-14.87981]]]},"properties":{"n":"ANTAQUILLA","p":21,"personas_x_ha":99,"masculinidad":62,"pct_menor20":33,"pct_60mas":29,"pct_migrante":14,"dependencia_econ":75,"pct_empleados":25,"pct_cuentapropia":67,"pct_agricultura":8,"pct_comercio":33,"pct_manufactura":8,"pct_construccion":8,"pct_transporte":17,"pct_alojamiento":25,"pct_sin_educacion":14,"pct_educ_superior":0,"brecha_educ":36,"pct_sin_seguro":16,"pct_sus":84,"pct_seguro_privado":0,"brecha_seguro":16,"pct_salud_publica":23,"pct_med_tradicional":17,"pct_automedicacion":19,"pct_remedios_caseros":27,"pct_viv_desocupada":6,"pct_alquiler":0,"pct_electricidad":100,"pct_sin_electricidad":0,"pct_agua_red":86,"pct_alcantarillado":7,"pct_camara_septica":7,"pct_pozo_ciego":64,"pct_sin_desague":21,"pct_gas_red":0,"pct_gas_garrafa":100,"pct_lena_guano":100,"pct_basura_formal":50,"pct_basura_quema":0,"pct_basura_informal":100,"pct_internet":79,"pct_celular":93,"pct_televisor":71}},{"type":"Feature","geometry":{"type":"Polygon","coordinates":[[[-69.28772,-14.87953],[-69.28768,-14.88067],[-69.28734,-14.88065],[-69.28739,-14.87981],[-69.28721,-14.87982],[-69.28719,-14.8796],[-69.28772,-14.87953]]]},"properties":{"n":"ANTAQUILLA","p":15,"personas_x_ha":30,"masculinidad":50,"pct_menor20":47,"pct_60mas":0,"pct_migrante":13,"dependencia_econ":200,"pct_empleados":0,"pct_cuentapropia":100,"pct_agricultura":0,"pct_comercio":20,"pct_manufactura":20,"pct_construccion":0,"pct_transporte":0,"pct_alojamiento":60,"pct_sin_educacion":0,"pct_educ_superior":12,"brecha_educ":43,"pct_sin_seguro":7,"pct_sus":93,"pct_seguro_privado":0,"brecha_seguro":-10,"pct_salud_publica":27,"pct_med_tradicional":16,"pct_automedicacion":20,"pct_remedios_caseros":29,"pct_viv_desocupada":7,"pct_alquiler":0,"pct_electricidad":88,"pct_sin_electricidad":12,"pct_agua_red":38,"pct_alcantarillado":0,"pct_camara_septica":12,"pct_pozo_ciego":88,"pct_sin_desague":0,"pct_gas_red":0,"pct_gas_garrafa":100,"pct_lena_guano":100,"pct_basura_formal":25,"pct_basura_quema":62,"pct_basura_informal":0,"pct_internet":62,"pct_celular":88,"pct_televisor":50}},{"type":"Feature","geometry":{"type":"Polygon","coordinates":[[[-69.28772,-14.87945],[-69.28762,-14.87906],[-69.28703,-14.87916],[-69.28704,-14.87954],[-69.28772,-14.87945]]]},"properties":{"n":"ANTAQUILLA","p":24,"personas_x_ha":76,"masculinidad":60,"pct_menor20":38,"pct_60mas":17,"pct_migrante":8,"dependencia_econ":60,"pct_empleados":0,"pct_cuentapropia":33,"pct_agricultura":40,"pct_comercio":20,"pct_manufactura":7,"pct_construccion":0,"pct_transporte":7,"pct_alojamiento":0,"pct_sin_educacion":6,"pct_educ_superior":12,"brecha_educ":-23,"pct_sin_seguro":26,"pct_sus":74,"pct_seguro_privado":0,"brecha_seguro":37,"pct_salud_publica":36,"pct_med_tradicional":18,"pct_automedicacion":11,"pct_remedios_caseros":21,"pct_viv_desocupada":17,"pct_alquiler":0,"pct_electricidad":92,"pct_sin_electricidad":8,"pct_agua_red":42,"pct_alcantarillado":0,"pct_camara_septica":0,"pct_pozo_ciego":58,"pct_sin_desague":42,"pct_gas_red":0,"pct_gas_garrafa":100,"pct_lena_guano":100,"pct_basura_formal":83,"pct_basura_quema":8,"pct_basura_informal":0,"pct_internet":33,"pct_celular":83,"pct_televisor":50}},{"type":"Feature","geometry":{"type":"Polygon","coordinates":[[[-69.28898,-14.8792],[-69.28882,-14.87867],[-69.28815,-14.87891],[-69.28826,-14.87936],[-69.28898,-14.8792]]]},"properties":{"n":"ANTAQUILLA","p":37,"personas_x_ha":83,"masculinidad":76,"pct_menor20":35,"pct_60mas":16,"pct_migrante":27,"dependencia_econ":85,"pct_empleados":35,"pct_cuentapropia":55,"pct_agricultura":10,"pct_comercio":25,"pct_manufactura":15,"pct_construccion":0,"pct_transporte":5,"pct_alojamiento":10,"pct_sin_educacion":8,"pct_educ_superior":29,"brecha_educ":-38,"pct_sin_seguro":22,"pct_sus":73,"pct_seguro_privado":0,"brecha_seguro":6,"pct_salud_publica":28,"pct_med_tradicional":22,"pct_automedicacion":8,"pct_remedios_caseros":26,"pct_viv_desocupada":0,"pct_alquiler":6,"pct_electricidad":94,"pct_sin_electricidad":6,"pct_agua_red":69,"pct_alcantarillado":0,"pct_camara_septica":25,"pct_pozo_ciego":56,"pct_sin_desague":19,"pct_gas_red":0,"pct_gas_garrafa":94,"pct_lena_guano":94,"pct_basura_formal":50,"pct_basura_quema":6,"pct_basura_informal":88,"pct_internet":62,"pct_celular":100,"pct_televisor":75}},{"type":"Feature","geometry":{"type":"Polygon","coordinates":[[[-69.12075,-14.8402],[-69.1206,-14.84],[-69.12046,-14.84001],[-69.12032,-14.83985],[-69.12052,-14.83967],[-69.12086,-14.84013],[-69.12075,-14.8402]]]},"properties":{"n":"CAMPAMENTO MINERO RAYO ROJO","p":21,"personas_x_ha":160,"masculinidad":110,"pct_menor20":48,"pct_60mas":0,"pct_migrante":67,"dependencia_econ":110,"pct_empleados":30,"pct_cuentapropia":60,"pct_agricultura":20,"pct_comercio":10,"pct_manufactura":0,"pct_construccion":0,"pct_transporte":0,"pct_alojamiento":0,"pct_sin_educacion":0,"pct_educ_superior":27,"brecha_educ":17,"pct_sin_seguro":10,"pct_sus":71,"pct_seguro_privado":0,"brecha_seguro":18,"pct_salud_publica":23,"pct_med_tradicional":20,"pct_automedicacion":16,"pct_remedios_caseros":20,"pct_viv_desocupada":9,"pct_alquiler":14,"pct_electricidad":100,"pct_sin_electricidad":0,"pct_agua_red":100,"pct_alcantarillado":0,"pct_camara_septica":0,"pct_pozo_ciego":43,"pct_sin_desague":57,"pct_gas_red":0,"pct_gas_garrafa":100,"pct_lena_guano":100,"pct_basura_formal":86,"pct_basura_quema":0,"pct_basura_informal":0,"pct_internet":71,"pct_celular":71,"pct_televisor":71}},{"type":"Feature","geometry":{"type":"Polygon","coordinates":[[[-69.33452,-14.81861],[-69.33556,-14.81933],[-69.33542,-14.81952],[-69.33497,-14.81921],[-69.33476,-14.8195],[-69.33416,-14.81909],[-69.33452,-14.81861]]]},"properties":{"n":"CENTRAL SUCHES JAJPO KOLLO","p":39,"personas_x_ha":57,"masculinidad":70,"pct_menor20":51,"pct_60mas":0,"pct_migrante":51,"dependencia_econ":164,"pct_empleados":14,"pct_cuentapropia":57,"pct_agricultura":0,"pct_comercio":36,"pct_manufactura":0,"pct_construccion":0,"pct_transporte":21,"pct_alojamiento":21,"pct_sin_educacion":0,"pct_educ_superior":35,"brecha_educ":-38,"pct_sin_seguro":47,"pct_sus":53,"pct_seguro_privado":0,"brecha_seguro":-26,"pct_salud_publica":18,"pct_med_tradicional":20,"pct_automedicacion":19,"pct_remedios_caseros":23,"pct_viv_desocupada":0,"pct_alquiler":10,"pct_electricidad":70,"pct_sin_electricidad":20,"pct_agua_red":90,"pct_alcantarillado":70,"pct_camara_septica":20,"pct_pozo_ciego":10,"pct_sin_desague":0,"pct_gas_red":0,"pct_gas_garrafa":100,"pct_lena_guano":100,"pct_basura_formal":50,"pct_basura_quema":0,"pct_basura_informal":80,"pct_internet":100,"pct_celular":100,"pct_televisor":70}},{"type":"Feature","geometry":{"type":"Polygon","coordinates":[[[-69.33433,-14.81756],[-69.33343,-14.81708],[-69.33328,-14.81726],[-69.33275,-14.81709],[-69.33262,-14.81724],[-69.33392,-14.81813],[-69.33433,-14.81756]]]},"properties":{"n":"CENTRAL SUCHES JAJPO KOLLO","p":25,"personas_x_ha":25,"masculinidad":178,"pct_menor20":32,"pct_60mas":0,"pct_migrante":60,"dependencia_econ":47,"pct_empleados":65,"pct_cuentapropia":35,"pct_agricultura":0,"pct_comercio":24,"pct_manufactura":6,"pct_construccion":6,"pct_transporte":35,"pct_alojamiento":0,"pct_sin_educacion":0,"pct_educ_superior":28,"brecha_educ":-40,"pct_sin_seguro":28,"pct_sus":72,"pct_seguro_privado":0,"brecha_seguro":26,"pct_salud_publica":30,"pct_med_tradicional":21,"pct_automedicacion":17,"pct_remedios_caseros":22,"pct_viv_desocupada":9,"pct_alquiler":20,"pct_electricidad":80,"pct_sin_electricidad":20,"pct_agua_red":100,"pct_alcantarillado":80,"pct_camara_septica":0,"pct_pozo_ciego":0,"pct_sin_desague":20,"pct_gas_red":0,"pct_gas_garrafa":100,"pct_lena_guano":100,"pct_basura_formal":40,"pct_basura_quema":40,"pct_basura_informal":0,"pct_internet":100,"pct_celular":100,"pct_televisor":60}},{"type":"Feature","geometry":{"type":"Polygon","coordinates":[[[-69.33387,-14.81822],[-69.33254,-14.81735],[-69.33224,-14.81776],[-69.33353,-14.81866],[-69.33387,-14.81822]]]},"properties":{"n":"CENTRAL SUCHES JAJPO KOLLO","p":24,"personas_x_ha":23,"masculinidad":200,"pct_menor20":38,"pct_60mas":8,"pct_migrante":54,"dependencia_econ":60,"pct_empleados":27,"pct_cuentapropia":53,"pct_agricultura":0,"pct_comercio":27,"pct_manufactura":20,"pct_construccion":0,"pct_transporte":33,"pct_alojamiento":0,"pct_sin_educacion":0,"pct_educ_superior":0,"brecha_educ":-32,"pct_sin_seguro":33,"pct_sus":62,"pct_seguro_privado":4,"brecha_seguro":12,"pct_salud_publica":22,"pct_med_tradicional":22,"pct_automedicacion":17,"pct_remedios_caseros":22,"pct_viv_desocupada":0,"pct_alquiler":0,"pct_electricidad":100,"pct_sin_electricidad":0,"pct_agua_red":50,"pct_alcantarillado":88,"pct_camara_septica":0,"pct_pozo_ciego":12,"pct_sin_desague":0,"pct_gas_red":0,"pct_gas_garrafa":88,"pct_lena_guano":88,"pct_basura_formal":25,"pct_basura_quema":38,"pct_basura_informal":75,"pct_internet":88,"pct_celular":88,"pct_televisor":62}},{"type":"Feature","geometry":{"type":"Polygon","coordinates":[[[-69.22507,-14.81033],[-69.22482,-14.80979],[-69.22491,-14.80972],[-69.22512,-14.8099],[-69.2253,-14.81024],[-69.22507,-14.81033]]]},"properties":{"n":"COLOLO KATANTIKA","p":29,"personas_x_ha":182,"masculinidad":123,"pct_menor20":31,"pct_60mas":10,"pct_migrante":21,"dependencia_econ":93,"pct_empleados":7,"pct_cuentapropia":13,"pct_agricultura":47,"pct_comercio":7,"pct_manufactura":13,"pct_construccion":27,"pct_transporte":0,"pct_alojamiento":0,"pct_sin_educacion":10,"pct_educ_superior":0,"brecha_educ":-21,"pct_sin_seguro":10,"pct_sus":90,"pct_seguro_privado":0,"brecha_seguro":-9,"pct_salud_publica":44,"pct_med_tradicional":22,"pct_automedicacion":9,"pct_remedios_caseros":12,"pct_viv_desocupada":0,"pct_alquiler":0,"pct_electricidad":90,"pct_sin_electricidad":10,"pct_agua_red":90,"pct_alcantarillado":10,"pct_camara_septica":0,"pct_pozo_ciego":50,"pct_sin_desague":40,"pct_gas_red":0,"pct_gas_garrafa":100,"pct_lena_guano":100,"pct_basura_formal":10,"pct_basura_quema":0,"pct_basura_informal":0,"pct_internet":100,"pct_celular":100,"pct_televisor":60}},{"type":"Feature","geometry":{"type":"Polygon","coordinates":[[[-69.22608,-14.80957],[-69.22635,-14.80958],[-69.22627,-14.80997],[-69.22582,-14.80986],[-69.22608,-14.80957]]]},"properties":{"n":"COLOLO KATANTIKA","p":32,"personas_x_ha":181,"masculinidad":100,"pct_menor20":38,"pct_60mas":9,"pct_migrante":19,"dependencia_econ":52,"pct_empleados":33,"pct_cuentapropia":48,"pct_agricultura":62,"pct_comercio":0,"pct_manufactura":0,"pct_construccion":10,"pct_transporte":0,"pct_alojamiento":5,"pct_sin_educacion":0,"pct_educ_superior":0,"brecha_educ":-34,"pct_sin_seguro":9,"pct_sus":91,"pct_seguro_privado":0,"brecha_seguro":-6,"pct_salud_publica":21,"pct_med_tradicional":21,"pct_automedicacion":21,"pct_remedios_caseros":21,"pct_viv_desocupada":0,"pct_alquiler":0,"pct_electricidad":100,"pct_sin_electricidad":0,"pct_agua_red":100,"pct_alcantarillado":0,"pct_camara_septica":0,"pct_pozo_ciego":56,"pct_sin_desague":44,"pct_gas_red":0,"pct_gas_garrafa":100,"pct_lena_guano":100,"pct_basura_formal":0,"pct_basura_quema":11,"pct_basura_informal":0,"pct_internet":44,"pct_celular":100,"pct_televisor":78}},{"type":"Feature","geometry":{"type":"Polygon","coordinates":[[[-69.29531,-14.95476],[-69.29571,-14.95501],[-69.29599,-14.9546],[-69.29558,-14.95434],[-69.29531,-14.95476]]]},"properties":{"n":"HICHICOLLO","p":20,"personas_x_ha":70,"masculinidad":186,"pct_menor20":25,"pct_60mas":5,"pct_migrante":10,"dependencia_econ":111,"pct_empleados":11,"pct_cuentapropia":33,"pct_agricultura":89,"pct_comercio":11,"pct_manufactura":0,"pct_construccion":0,"pct_transporte":0,"pct_alojamiento":0,"pct_sin_educacion":36,"pct_educ_superior":7,"brecha_educ":25,"pct_sin_seguro":0,"pct_sus":78,"pct_seguro_privado":0,"brecha_seguro":0,"pct_salud_publica":73,"pct_med_tradicional":14,"pct_automedicacion":0,"pct_remedios_caseros":0,"pct_viv_desocupada":19,"pct_alquiler":0,"pct_electricidad":100,"pct_sin_electricidad":0,"pct_agua_red":36,"pct_alcantarillado":0,"pct_camara_septica":55,"pct_pozo_ciego":45,"pct_sin_desague":0,"pct_gas_red":0,"pct_gas_garrafa":100,"pct_lena_guano":100,"pct_basura_formal":0,"pct_basura_quema":73,"pct_basura_informal":0,"pct_internet":64,"pct_celular":82,"pct_televisor":27}},{"type":"Feature","geometry":{"type":"Polygon","coordinates":[[[-69.02962,-14.92634],[-69.02928,-14.92619],[-69.02918,-14.92643],[-69.02949,-14.92663],[-69.02962,-14.92634]]]},"properties":{"n":"HILO HILO","p":21,"personas_x_ha":160,"masculinidad":91,"pct_menor20":43,"pct_60mas":0,"pct_migrante":29,"dependencia_econ":110,"pct_empleados":0,"pct_cuentapropia":70,"pct_agricultura":60,"pct_comercio":0,"pct_manufactura":0,"pct_construccion":10,"pct_transporte":0,"pct_alojamiento":0,"pct_sin_educacion":0,"pct_educ_superior":23,"brecha_educ":-12,"pct_sin_seguro":5,"pct_sus":95,"pct_seguro_privado":0,"brecha_seguro":-9,"pct_salud_publica":68,"pct_med_tradicional":0,"pct_automedicacion":10,"pct_remedios_caseros":19,"pct_viv_desocupada":0,"pct_alquiler":0,"pct_electricidad":88,"pct_sin_electricidad":12,"pct_agua_red":75,"pct_alcantarillado":12,"pct_camara_septica":0,"pct_pozo_ciego":0,"pct_sin_desague":75,"pct_gas_red":0,"pct_gas_garrafa":100,"pct_lena_guano":100,"pct_basura_formal":38,"pct_basura_quema":62,"pct_basura_informal":0,"pct_internet":75,"pct_celular":100,"pct_televisor":62}},{"type":"Feature","geometry":{"type":"Polygon","coordinates":[[[-69.02993,-14.92419],[-69.02938,-14.92409],[-69.02925,-14.9249],[-69.02966,-14.92512],[-69.02984,-14.92459],[-69.02966,-14.92447],[-69.02984,-14.92454],[-69.02993,-14.92419]]]},"properties":{"n":"HILO HILO","p":36,"personas_x_ha":68,"masculinidad":80,"pct_menor20":50,"pct_60mas":3,"pct_migrante":36,"dependencia_econ":112,"pct_empleados":35,"pct_cuentapropia":29,"pct_agricultura":47,"pct_comercio":0,"pct_manufactura":0,"pct_construccion":0,"pct_transporte":0,"pct_alojamiento":0,"pct_sin_educacion":0,"pct_educ_superior":26,"brecha_educ":-11,"pct_sin_seguro":3,"pct_sus":86,"pct_seguro_privado":0,"brecha_seguro":-5,"pct_salud_publica":14,"pct_med_tradicional":25,"pct_automedicacion":19,"pct_remedios_caseros":26,"pct_viv_desocupada":0,"pct_alquiler":0,"pct_electricidad":100,"pct_sin_electricidad":0,"pct_agua_red":54,"pct_alcantarillado":8,"pct_camara_septica":8,"pct_pozo_ciego":38,"pct_sin_desague":46,"pct_gas_red":0,"pct_gas_garrafa":92,"pct_lena_guano":92,"pct_basura_formal":31,"pct_basura_quema":38,"pct_basura_informal":0,"pct_internet":100,"pct_celular":100,"pct_televisor":46}},{"type":"Feature","geometry":{"type":"Polygon","coordinates":[[[-69.0309,-14.92324],[-69.03027,-14.92318],[-69.02991,-14.92463],[-69.03029,-14.92476],[-69.0309,-14.92324]]]},"properties":{"n":"HILO HILO","p":35,"personas_x_ha":36,"masculinidad":75,"pct_menor20":63,"pct_60mas":0,"pct_migrante":17,"dependencia_econ":250,"pct_empleados":0,"pct_cuentapropia":100,"pct_agricultura":70,"pct_comercio":0,"pct_manufactura":20,"pct_construccion":0,"pct_transporte":0,"pct_alojamiento":10,"pct_sin_educacion":0,"pct_educ_superior":8,"brecha_educ":-12,"pct_sin_seguro":3,"pct_sus":97,"pct_seguro_privado":0,"brecha_seguro":7,"pct_salud_publica":39,"pct_med_tradicional":26,"pct_automedicacion":10,"pct_remedios_caseros":25,"pct_viv_desocupada":0,"pct_alquiler":12,"pct_electricidad":100,"pct_sin_electricidad":0,"pct_agua_red":100,"pct_alcantarillado":50,"pct_camara_septica":0,"pct_pozo_ciego":0,"pct_sin_desague":38,"pct_gas_red":0,"pct_gas_garrafa":88,"pct_lena_guano":88,"pct_basura_formal":50,"pct_basura_quema":38,"pct_basura_informal":0,"pct_internet":62,"pct_celular":100,"pct_televisor":88}},{"type":"Feature","geometry":{"type":"Polygon","coordinates":[[[-69.03025,-14.92506],[-69.0299,-14.92555],[-69.02979,-14.92592],[-69.02995,-14.92595],[-69.03025,-14.92506]]]},"properties":{"n":"HILO HILO","p":45,"personas_x_ha":271,"masculinidad":150,"pct_menor20":42,"pct_60mas":0,"pct_migrante":4,"dependencia_econ":105,"pct_empleados":0,"pct_cuentapropia":91,"pct_agricultura":82,"pct_comercio":0,"pct_manufactura":0,"pct_construccion":0,"pct_transporte":5,"pct_alojamiento":5,"pct_sin_educacion":0,"pct_educ_superior":0,"brecha_educ":6,"pct_sin_seguro":0,"pct_sus":98,"pct_seguro_privado":2,"brecha_seguro":0,"pct_salud_publica":41,"pct_med_tradicional":27,"pct_automedicacion":7,"pct_remedios_caseros":18,"pct_viv_desocupada":0,"pct_alquiler":0,"pct_electricidad":93,"pct_sin_electricidad":7,"pct_agua_red":93,"pct_alcantarillado":33,"pct_camara_septica":0,"pct_pozo_ciego":13,"pct_sin_desague":53,"pct_gas_red":0,"pct_gas_garrafa":93,"pct_lena_guano":93,"pct_basura_formal":47,"pct_basura_quema":47,"pct_basura_informal":0,"pct_internet":47,"pct_celular":87,"pct_televisor":80}},{"type":"Feature","geometry":{"type":"Polygon","coordinates":[[[-69.02927,-14.92537],[-69.0291,-14.92586],[-69.02934,-14.92594],[-69.02961,-14.9252],[-69.02959,-14.92506],[-69.02948,-14.92502],[-69.02934,-14.92539],[-69.02927,-14.92537]]]},"properties":{"n":"HILO HILO","p":61,"personas_x_ha":232,"masculinidad":110,"pct_menor20":48,"pct_60mas":3,"pct_migrante":11,"dependencia_econ":91,"pct_empleados":6,"pct_cuentapropia":62,"pct_agricultura":78,"pct_comercio":3,"pct_manufactura":0,"pct_construccion":3,"pct_transporte":0,"pct_alojamiento":0,"pct_sin_educacion":0,"pct_educ_superior":0,"brecha_educ":-37,"pct_sin_seguro":14,"pct_sus":86,"pct_seguro_privado":0,"brecha_seguro":6,"pct_salud_publica":40,"pct_med_tradicional":18,"pct_automedicacion":16,"pct_remedios_caseros":18,"pct_viv_desocupada":26,"pct_alquiler":6,"pct_electricidad":94,"pct_sin_electricidad":6,"pct_agua_red":89,"pct_alcantarillado":22,"pct_camara_septica":0,"pct_pozo_ciego":28,"pct_sin_desague":44,"pct_gas_red":0,"pct_gas_garrafa":89,"pct_lena_guano":89,"pct_basura_formal":17,"pct_basura_quema":72,"pct_basura_informal":11,"pct_internet":56,"pct_celular":83,"pct_televisor":78}},{"type":"Feature","geometry":{"type":"Polygon","coordinates":[[[-69.03028,-14.9248],[-69.02989,-14.92466],[-69.0297,-14.92514],[-69.03001,-14.92531],[-69.03028,-14.9248]]]},"properties":{"n":"HILO HILO","p":42,"personas_x_ha":168,"masculinidad":91,"pct_menor20":40,"pct_60mas":2,"pct_migrante":14,"dependencia_econ":75,"pct_empleados":12,"pct_cuentapropia":79,"pct_agricultura":62,"pct_comercio":4,"pct_manufactura":4,"pct_construccion":4,"pct_transporte":4,"pct_alojamiento":0,"pct_sin_educacion":7,"pct_educ_superior":7,"brecha_educ":-13,"pct_sin_seguro":12,"pct_sus":88,"pct_seguro_privado":0,"brecha_seguro":-3,"pct_salud_publica":21,"pct_med_tradicional":22,"pct_automedicacion":17,"pct_remedios_caseros":27,"pct_viv_desocupada":0,"pct_alquiler":7,"pct_electricidad":86,"pct_sin_electricidad":14,"pct_agua_red":71,"pct_alcantarillado":43,"pct_camara_septica":0,"pct_pozo_ciego":7,"pct_sin_desague":50,"pct_gas_red":0,"pct_gas_garrafa":93,"pct_lena_guano":93,"pct_basura_formal":36,"pct_basura_quema":50,"pct_basura_informal":14,"pct_internet":71,"pct_celular":86,"pct_televisor":64}},{"type":"Feature","geometry":{"type":"Polygon","coordinates":[[[-69.02998,-14.92533],[-69.02968,-14.92516],[-69.0296,-14.92537],[-69.02988,-14.9255],[-69.02998,-14.92533]]]},"properties":{"n":"HILO HILO","p":35,"personas_x_ha":421,"masculinidad":150,"pct_menor20":40,"pct_60mas":9,"pct_migrante":9,"dependencia_econ":106,"pct_empleados":0,"pct_cuentapropia":94,"pct_agricultura":71,"pct_comercio":12,"pct_manufactura":0,"pct_construccion":0,"pct_transporte":6,"pct_alojamiento":0,"pct_sin_educacion":9,"pct_educ_superior":14,"brecha_educ":-10,"pct_sin_seguro":3,"pct_sus":97,"pct_seguro_privado":0,"brecha_seguro":5,"pct_salud_publica":39,"pct_med_tradicional":22,"pct_automedicacion":18,"pct_remedios_caseros":15,"pct_viv_desocupada":18,"pct_alquiler":0,"pct_electricidad":100,"pct_sin_electricidad":0,"pct_agua_red":67,"pct_alcantarillado":89,"pct_camara_septica":0,"pct_pozo_ciego":0,"pct_sin_desague":11,"pct_gas_red":0,"pct_gas_garrafa":100,"pct_lena_guano":100,"pct_basura_formal":67,"pct_basura_quema":33,"pct_basura_informal":0,"pct_internet":22,"pct_celular":100,"pct_televisor":100}},{"type":"Feature","geometry":{"type":"Polygon","coordinates":[[[-69.0297,-14.92672],[-69.02974,-14.92715],[-69.02979,-14.92716],[-69.03005,-14.92646],[-69.0297,-14.92634],[-69.02969,-14.92671],[-69.02981,-14.92671],[-69.0297,-14.92672]]]},"properties":{"n":"HILO HILO","p":32,"personas_x_ha":149,"masculinidad":100,"pct_menor20":56,"pct_60mas":3,"pct_migrante":3,"dependencia_econ":220,"pct_empleados":0,"pct_cuentapropia":60,"pct_agricultura":100,"pct_comercio":0,"pct_manufactura":0,"pct_construccion":0,"pct_transporte":0,"pct_alojamiento":0,"pct_sin_educacion":0,"pct_educ_superior":0,"brecha_educ":-27,"pct_sin_seguro":3,"pct_sus":97,"pct_seguro_privado":0,"brecha_seguro":6,"pct_salud_publica":40,"pct_med_tradicional":3,"pct_automedicacion":13,"pct_remedios_caseros":34,"pct_viv_desocupada":0,"pct_alquiler":0,"pct_electricidad":100,"pct_sin_electricidad":0,"pct_agua_red":67,"pct_alcantarillado":56,"pct_camara_septica":0,"pct_pozo_ciego":0,"pct_sin_desague":44,"pct_gas_red":0,"pct_gas_garrafa":100,"pct_lena_guano":100,"pct_basura_formal":0,"pct_basura_quema":100,"pct_basura_informal":0,"pct_internet":33,"pct_celular":100,"pct_televisor":89}},{"type":"Feature","geometry":{"type":"Polygon","coordinates":[[[-69.07157,-14.81964],[-69.07132,-14.81972],[-69.07139,-14.81983],[-69.07215,-14.81971],[-69.07286,-14.81971],[-69.07305,-14.81963],[-69.07246,-14.81958],[-69.07246,-14.81937],[-69.07217,-14.81926],[-69.07218,-14.81936],[-69.07217,-14.81936],[-69.07216,-14.81925],[-69.07124,-14.81917],[-69.07138,-14.8197],[-69.07169,-14.81959],[-69.07157,-14.81964]]]},"properties":{"n":"PELECHUCO","p":95,"personas_x_ha":127,"masculinidad":132,"pct_menor20":36,"pct_60mas":12,"pct_migrante":23,"dependencia_econ":144,"pct_empleados":3,"pct_cuentapropia":79,"pct_agricultura":56,"pct_comercio":18,"pct_manufactura":8,"pct_construccion":8,"pct_transporte":0,"pct_alojamiento":0,"pct_sin_educacion":8,"pct_educ_superior":18,"brecha_educ":-14,"pct_sin_seguro":24,"pct_sus":69,"pct_seguro_privado":6,"brecha_seguro":8,"pct_salud_publica":28,"pct_med_tradicional":11,"pct_automedicacion":22,"pct_remedios_caseros":29,"pct_viv_desocupada":7,"pct_alquiler":11,"pct_electricidad":89,"pct_sin_electricidad":8,"pct_agua_red":11,"pct_alcantarillado":76,"pct_camara_septica":3,"pct_pozo_ciego":0,"pct_sin_desague":16,"pct_gas_red":0,"pct_gas_garrafa":92,"pct_lena_guano":92,"pct_basura_formal":13,"pct_basura_quema":34,"pct_basura_informal":5,"pct_internet":68,"pct_celular":84,"pct_televisor":79}},{"type":"Feature","geometry":{"type":"Polygon","coordinates":[[[-69.07133,-14.81985],[-69.07119,-14.81916],[-69.07098,-14.81922],[-69.07105,-14.82],[-69.07133,-14.81985]]]},"properties":{"n":"PELECHUCO","p":29,"personas_x_ha":103,"masculinidad":123,"pct_menor20":28,"pct_60mas":14,"pct_migrante":17,"dependencia_econ":53,"pct_empleados":5,"pct_cuentapropia":74,"pct_agricultura":63,"pct_comercio":16,"pct_manufactura":5,"pct_construccion":5,"pct_transporte":0,"pct_alojamiento":0,"pct_sin_educacion":14,"pct_educ_superior":24,"brecha_educ":-32,"pct_sin_seguro":41,"pct_sus":48,"pct_seguro_privado":7,"brecha_seguro":19,"pct_salud_publica":30,"pct_med_tradicional":15,"pct_automedicacion":18,"pct_remedios_caseros":28,"pct_viv_desocupada":0,"pct_alquiler":0,"pct_electricidad":100,"pct_sin_electricidad":0,"pct_agua_red":31,"pct_alcantarillado":62,"pct_camara_septica":6,"pct_pozo_ciego":6,"pct_sin_desague":19,"pct_gas_red":0,"pct_gas_garrafa":88,"pct_lena_guano":88,"pct_basura_formal":12,"pct_basura_quema":12,"pct_basura_informal":12,"pct_internet":56,"pct_celular":100,"pct_televisor":69}},{"type":"Feature","geometry":{"type":"Polygon","coordinates":[[[-69.06924,-14.82004],[-69.06896,-14.81997],[-69.06855,-14.82002],[-69.06849,-14.81988],[-69.06886,-14.81978],[-69.06945,-14.81987],[-69.06944,-14.81993],[-69.0693,-14.81991],[-69.06924,-14.82004]]]},"properties":{"n":"PELECHUCO","p":35,"personas_x_ha":201,"masculinidad":250,"pct_menor20":23,"pct_60mas":6,"pct_migrante":43,"dependencia_econ":59,"pct_empleados":5,"pct_cuentapropia":86,"pct_agricultura":55,"pct_comercio":5,"pct_manufactura":14,"pct_construccion":9,"pct_transporte":0,"pct_alojamiento":0,"pct_sin_educacion":7,"pct_educ_superior":14,"brecha_educ":-5,"pct_sin_seguro":40,"pct_sus":60,"pct_seguro_privado":0,"brecha_seguro":28,"pct_salud_publica":26,"pct_med_tradicional":21,"pct_automedicacion":10,"pct_remedios_caseros":27,"pct_viv_desocupada":0,"pct_alquiler":20,"pct_electricidad":90,"pct_sin_electricidad":10,"pct_agua_red":70,"pct_alcantarillado":50,"pct_camara_septica":0,"pct_pozo_ciego":10,"pct_sin_desague":40,"pct_gas_red":0,"pct_gas_garrafa":70,"pct_lena_guano":70,"pct_basura_formal":30,"pct_basura_quema":40,"pct_basura_informal":0,"pct_internet":50,"pct_celular":90,"pct_televisor":70}},{"type":"Feature","geometry":{"type":"Polygon","coordinates":[[[-69.06937,-14.82036],[-69.06867,-14.82015],[-69.06864,-14.82006],[-69.06905,-14.82005],[-69.06938,-14.8203],[-69.06937,-14.82036]]]},"properties":{"n":"PELECHUCO","p":19,"personas_x_ha":155,"masculinidad":73,"pct_menor20":32,"pct_60mas":5,"pct_migrante":16,"dependencia_econ":73,"pct_empleados":0,"pct_cuentapropia":64,"pct_agricultura":91,"pct_comercio":9,"pct_manufactura":0,"pct_construccion":0,"pct_transporte":0,"pct_alojamiento":0,"pct_sin_educacion":8,"pct_educ_superior":0,"brecha_educ":-29,"pct_sin_seguro":35,"pct_sus":65,"pct_seguro_privado":0,"brecha_seguro":13,"pct_salud_publica":24,"pct_med_tradicional":12,"pct_automedicacion":31,"pct_remedios_caseros":33,"pct_viv_desocupada":0,"pct_alquiler":0,"pct_electricidad":100,"pct_sin_electricidad":0,"pct_agua_red":0,"pct_alcantarillado":50,"pct_camara_septica":0,"pct_pozo_ciego":0,"pct_sin_desague":25,"pct_gas_red":0,"pct_gas_garrafa":88,"pct_lena_guano":88,"pct_basura_formal":12,"pct_basura_quema":0,"pct_basura_informal":50,"pct_internet":88,"pct_celular":88,"pct_televisor":50}},{"type":"Feature","geometry":{"type":"Polygon","coordinates":[[[-69.07402,-14.81864],[-69.07397,-14.81816],[-69.07366,-14.81808],[-69.07364,-14.81824],[-69.07316,-14.81835],[-69.07267,-14.81835],[-69.0717,-14.81862],[-69.07222,-14.81873],[-69.07285,-14.81859],[-69.07328,-14.8186],[-69.07367,-14.81847],[-69.07402,-14.81864]]]},"properties":{"n":"PELECHUCO","p":68,"personas_x_ha":97,"masculinidad":162,"pct_menor20":32,"pct_60mas":13,"pct_migrante":38,"dependencia_econ":58,"pct_empleados":19,"pct_cuentapropia":67,"pct_agricultura":58,"pct_comercio":14,"pct_manufactura":9,"pct_construccion":9,"pct_transporte":2,"pct_alojamiento":5,"pct_sin_educacion":4,"pct_educ_superior":28,"brecha_educ":-23,"pct_sin_seguro":9,"pct_sus":82,"pct_seguro_privado":1,"brecha_seguro":-4,"pct_salud_publica":35,"pct_med_tradicional":12,"pct_automedicacion":18,"pct_remedios_caseros":28,"pct_viv_desocupada":6,"pct_alquiler":12,"pct_electricidad":84,"pct_sin_electricidad":16,"pct_agua_red":53,"pct_alcantarillado":69,"pct_camara_septica":3,"pct_pozo_ciego":0,"pct_sin_desague":25,"pct_gas_red":0,"pct_gas_garrafa":91,"pct_lena_guano":91,"pct_basura_formal":50,"pct_basura_quema":28,"pct_basura_informal":0,"pct_internet":62,"pct_celular":88,"pct_televisor":75}},{"type":"Feature","geometry":{"type":"Polygon","coordinates":[[[-69.07071,-14.8206],[-69.07191,-14.82024],[-69.07175,-14.82008],[-69.07158,-14.82014],[-69.07138,-14.81986],[-69.07087,-14.82018],[-69.06945,-14.82043],[-69.07027,-14.8206],[-69.07071,-14.8206]]]},"properties":{"n":"PELECHUCO","p":120,"personas_x_ha":134,"masculinidad":131,"pct_menor20":37,"pct_60mas":11,"pct_migrante":34,"dependencia_econ":138,"pct_empleados":10,"pct_cuentapropia":80,"pct_agricultura":66,"pct_comercio":8,"pct_manufactura":2,"pct_construccion":4,"pct_transporte":2,"pct_alojamiento":4,"pct_sin_educacion":5,"pct_educ_superior":22,"brecha_educ":-22,"pct_sin_seguro":16,"pct_sus":76,"pct_seguro_privado":6,"brecha_seguro":4,"pct_salud_publica":24,"pct_med_tradicional":20,"pct_automedicacion":19,"pct_remedios_caseros":30,"pct_viv_desocupada":0,"pct_alquiler":11,"pct_electricidad":97,"pct_sin_electricidad":0,"pct_agua_red":35,"pct_alcantarillado":65,"pct_camara_septica":11,"pct_pozo_ciego":0,"pct_sin_desague":22,"pct_gas_red":0,"pct_gas_garrafa":86,"pct_lena_guano":86,"pct_basura_formal":30,"pct_basura_quema":30,"pct_basura_informal":27,"pct_internet":54,"pct_celular":89,"pct_televisor":76}},{"type":"Feature","geometry":{"type":"Polygon","coordinates":[[[-69.07051,-14.81971],[-69.07051,-14.81925],[-69.06938,-14.81933],[-69.0695,-14.81992],[-69.07051,-14.81971]]]},"properties":{"n":"PELECHUCO","p":93,"personas_x_ha":126,"masculinidad":94,"pct_menor20":24,"pct_60mas":19,"pct_migrante":24,"dependencia_econ":119,"pct_empleados":17,"pct_cuentapropia":67,"pct_agricultura":36,"pct_comercio":12,"pct_manufactura":0,"pct_construccion":7,"pct_transporte":2,"pct_alojamiento":2,"pct_sin_educacion":0,"pct_educ_superior":32,"brecha_educ":-23,"pct_sin_seguro":21,"pct_sus":66,"pct_seguro_privado":0,"brecha_seguro":13,"pct_salud_publica":43,"pct_med_tradicional":13,"pct_automedicacion":7,"pct_remedios_caseros":17,"pct_viv_desocupada":0,"pct_alquiler":8,"pct_electricidad":98,"pct_sin_electricidad":2,"pct_agua_red":60,"pct_alcantarillado":78,"pct_camara_septica":0,"pct_pozo_ciego":0,"pct_sin_desague":20,"pct_gas_red":0,"pct_gas_garrafa":100,"pct_lena_guano":100,"pct_basura_formal":55,"pct_basura_quema":10,"pct_basura_informal":5,"pct_internet":65,"pct_celular":88,"pct_televisor":80}},{"type":"Feature","geometry":{"type":"Polygon","coordinates":[[[-69.07008,-14.81885],[-69.06981,-14.81884],[-69.06954,-14.81897],[-69.06956,-14.81909],[-69.06943,-14.81913],[-69.06943,-14.81926],[-69.07095,-14.81919],[-69.0711,-14.81912],[-69.0711,-14.8189],[-69.07128,-14.81876],[-69.07114,-14.81862],[-69.07097,-14.81883],[-69.07025,-14.81876],[-69.07008,-14.81885]]]},"properties":{"n":"PELECHUCO","p":75,"personas_x_ha":94,"masculinidad":83,"pct_menor20":29,"pct_60mas":12,"pct_migrante":49,"dependencia_econ":68,"pct_empleados":14,"pct_cuentapropia":64,"pct_agricultura":43,"pct_comercio":18,"pct_manufactura":5,"pct_construccion":9,"pct_transporte":7,"pct_alojamiento":0,"pct_sin_educacion":4,"pct_educ_superior":21,"brecha_educ":-14,"pct_sin_seguro":22,"pct_sus":68,"pct_seguro_privado":3,"brecha_seguro":-6,"pct_salud_publica":25,"pct_med_tradicional":23,"pct_automedicacion":18,"pct_remedios_caseros":24,"pct_viv_desocupada":0,"pct_alquiler":17,"pct_electricidad":100,"pct_sin_electricidad":0,"pct_agua_red":47,"pct_alcantarillado":40,"pct_camara_septica":0,"pct_pozo_ciego":0,"pct_sin_desague":13,"pct_gas_red":0,"pct_gas_garrafa":100,"pct_lena_guano":100,"pct_basura_formal":17,"pct_basura_quema":23,"pct_basura_informal":0,"pct_internet":80,"pct_celular":100,"pct_televisor":83}},{"type":"Feature","geometry":{"type":"Polygon","coordinates":[[[-69.07405,-14.81868],[-69.07436,-14.8189],[-69.07464,-14.81893],[-69.07459,-14.81863],[-69.07405,-14.81868]]]},"properties":{"n":"PELECHUCO","p":21,"personas_x_ha":143,"masculinidad":62,"pct_menor20":43,"pct_60mas":14,"pct_migrante":5,"dependencia_econ":91,"pct_empleados":9,"pct_cuentapropia":91,"pct_agricultura":73,"pct_comercio":0,"pct_manufactura":18,"pct_construccion":0,"pct_transporte":9,"pct_alojamiento":0,"pct_sin_educacion":8,"pct_educ_superior":8,"brecha_educ":-9,"pct_sin_seguro":19,"pct_sus":81,"pct_seguro_privado":0,"brecha_seguro":10,"pct_salud_publica":47,"pct_med_tradicional":19,"pct_automedicacion":7,"pct_remedios_caseros":23,"pct_viv_desocupada":0,"pct_alquiler":0,"pct_electricidad":100,"pct_sin_electricidad":0,"pct_agua_red":100,"pct_alcantarillado":100,"pct_camara_septica":0,"pct_pozo_ciego":0,"pct_sin_desague":0,"pct_gas_red":0,"pct_gas_garrafa":83,"pct_lena_guano":83,"pct_basura_formal":50,"pct_basura_quema":17,"pct_basura_informal":33,"pct_internet":83,"pct_celular":100,"pct_televisor":100}},{"type":"Feature","geometry":{"type":"Polygon","coordinates":[[[-69.07468,-14.81982],[-69.07458,-14.8196],[-69.07641,-14.81913],[-69.07656,-14.81926],[-69.07555,-14.81963],[-69.07468,-14.81982]]]},"properties":{"n":"PELECHUCO","p":22,"personas_x_ha":44,"masculinidad":175,"pct_menor20":32,"pct_60mas":18,"pct_migrante":27,"dependencia_econ":69,"pct_empleados":8,"pct_cuentapropia":46,"pct_agricultura":54,"pct_comercio":0,"pct_manufactura":0,"pct_construccion":8,"pct_transporte":15,"pct_alojamiento":0,"pct_sin_educacion":7,"pct_educ_superior":20,"brecha_educ":11,"pct_sin_seguro":0,"pct_sus":86,"pct_seguro_privado":0,"brecha_seguro":0,"pct_salud_publica":30,"pct_med_tradicional":15,"pct_automedicacion":18,"pct_remedios_caseros":30,"pct_viv_desocupada":0,"pct_alquiler":0,"pct_electricidad":100,"pct_sin_electricidad":0,"pct_agua_red":80,"pct_alcantarillado":30,"pct_camara_septica":0,"pct_pozo_ciego":10,"pct_sin_desague":30,"pct_gas_red":0,"pct_gas_garrafa":90,"pct_lena_guano":90,"pct_basura_formal":20,"pct_basura_quema":50,"pct_basura_informal":20,"pct_internet":90,"pct_celular":100,"pct_televisor":100}},{"type":"Feature","geometry":{"type":"Polygon","coordinates":[[[-69.07277,-14.81976],[-69.07218,-14.81975],[-69.07142,-14.81986],[-69.07161,-14.82009],[-69.07174,-14.82004],[-69.07196,-14.82024],[-69.07231,-14.82012],[-69.07277,-14.81976]]]},"properties":{"n":"PELECHUCO","p":58,"personas_x_ha":126,"masculinidad":87,"pct_menor20":31,"pct_60mas":10,"pct_migrante":22,"dependencia_econ":164,"pct_empleados":9,"pct_cuentapropia":59,"pct_agricultura":68,"pct_comercio":0,"pct_manufactura":5,"pct_construccion":18,"pct_transporte":0,"pct_alojamiento":0,"pct_sin_educacion":10,"pct_educ_superior":10,"brecha_educ":-11,"pct_sin_seguro":12,"pct_sus":78,"pct_seguro_privado":3,"brecha_seguro":-2,"pct_salud_publica":34,"pct_med_tradicional":18,"pct_automedicacion":12,"pct_remedios_caseros":30,"pct_viv_desocupada":0,"pct_alquiler":15,"pct_electricidad":85,"pct_sin_electricidad":4,"pct_agua_red":67,"pct_alcantarillado":74,"pct_camara_septica":0,"pct_pozo_ciego":11,"pct_sin_desague":15,"pct_gas_red":0,"pct_gas_garrafa":93,"pct_lena_guano":93,"pct_basura_formal":15,"pct_basura_quema":26,"pct_basura_informal":37,"pct_internet":81,"pct_celular":100,"pct_televisor":74}},{"type":"Feature","geometry":{"type":"Polygon","coordinates":[[[-69.07103,-14.82005],[-69.07092,-14.81966],[-69.07038,-14.81979],[-69.07055,-14.81983],[-69.07059,-14.82019],[-69.07103,-14.82005]]]},"properties":{"n":"PELECHUCO","p":22,"personas_x_ha":90,"masculinidad":69,"pct_menor20":18,"pct_60mas":5,"pct_migrante":23,"dependencia_econ":100,"pct_empleados":0,"pct_cuentapropia":82,"pct_agricultura":64,"pct_comercio":9,"pct_manufactura":0,"pct_construccion":0,"pct_transporte":9,"pct_alojamiento":9,"pct_sin_educacion":0,"pct_educ_superior":11,"brecha_educ":6,"pct_sin_seguro":36,"pct_sus":55,"pct_seguro_privado":5,"brecha_seguro":-5,"pct_salud_publica":21,"pct_med_tradicional":20,"pct_automedicacion":21,"pct_remedios_caseros":27,"pct_viv_desocupada":10,"pct_alquiler":0,"pct_electricidad":89,"pct_sin_electricidad":11,"pct_agua_red":89,"pct_alcantarillado":56,"pct_camara_septica":0,"pct_pozo_ciego":0,"pct_sin_desague":44,"pct_gas_red":0,"pct_gas_garrafa":89,"pct_lena_guano":89,"pct_basura_formal":11,"pct_basura_quema":11,"pct_basura_informal":0,"pct_internet":56,"pct_celular":89,"pct_televisor":67}},{"type":"Feature","geometry":{"type":"Polygon","coordinates":[[[-69.06693,-14.82157],[-69.06672,-14.82107],[-69.06723,-14.82095],[-69.0679,-14.82054],[-69.06823,-14.82023],[-69.06855,-14.82008],[-69.0684,-14.82064],[-69.06804,-14.82108],[-69.06761,-14.82134],[-69.06693,-14.82157]]]},"properties":{"n":"PELECHUCO","p":25,"personas_x_ha":21,"masculinidad":92,"pct_menor20":28,"pct_60mas":4,"pct_migrante":8,"dependencia_econ":39,"pct_empleados":11,"pct_cuentapropia":50,"pct_agricultura":83,"pct_comercio":0,"pct_manufactura":11,"pct_construccion":0,"pct_transporte":0,"pct_alojamiento":0,"pct_sin_educacion":11,"pct_educ_superior":5,"brecha_educ":-36,"pct_sin_seguro":21,"pct_sus":75,"pct_seguro_privado":0,"brecha_seguro":12,"pct_salud_publica":26,"pct_med_tradicional":21,"pct_automedicacion":16,"pct_remedios_caseros":33,"pct_viv_desocupada":0,"pct_alquiler":0,"pct_electricidad":67,"pct_sin_electricidad":33,"pct_agua_red":0,"pct_alcantarillado":22,"pct_camara_septica":11,"pct_pozo_ciego":11,"pct_sin_desague":56,"pct_gas_red":0,"pct_gas_garrafa":89,"pct_lena_guano":89,"pct_basura_formal":0,"pct_basura_quema":33,"pct_basura_informal":67,"pct_internet":89,"pct_celular":100,"pct_televisor":56}},{"type":"Feature","geometry":{"type":"Polygon","coordinates":[[[-69.06924,-14.8207],[-69.06902,-14.82046],[-69.0688,-14.82047],[-69.06764,-14.82143],[-69.06841,-14.82129],[-69.06868,-14.82102],[-69.06924,-14.8207]]]},"properties":{"n":"PELECHUCO","p":23,"personas_x_ha":37,"masculinidad":156,"pct_menor20":17,"pct_60mas":9,"pct_migrante":22,"dependencia_econ":64,"pct_empleados":14,"pct_cuentapropia":64,"pct_agricultura":57,"pct_comercio":21,"pct_manufactura":0,"pct_construccion":7,"pct_transporte":0,"pct_alojamiento":0,"pct_sin_educacion":5,"pct_educ_superior":21,"brecha_educ":-35,"pct_sin_seguro":22,"pct_sus":74,"pct_seguro_privado":4,"brecha_seguro":17,"pct_salud_publica":34,"pct_med_tradicional":26,"pct_automedicacion":3,"pct_remedios_caseros":29,"pct_viv_desocupada":0,"pct_alquiler":14,"pct_electricidad":86,"pct_sin_electricidad":14,"pct_agua_red":0,"pct_alcantarillado":43,"pct_camara_septica":0,"pct_pozo_ciego":0,"pct_sin_desague":14,"pct_gas_red":0,"pct_gas_garrafa":71,"pct_lena_guano":71,"pct_basura_formal":29,"pct_basura_quema":29,"pct_basura_informal":86,"pct_internet":86,"pct_celular":86,"pct_televisor":43}},{"type":"Feature","geometry":{"type":"Polygon","coordinates":[[[-69.07489,-14.81913],[-69.07257,-14.81895],[-69.07256,-14.81903],[-69.07147,-14.81872],[-69.07147,-14.81865],[-69.07229,-14.81878],[-69.07366,-14.81854],[-69.07435,-14.81895],[-69.0759,-14.81884],[-69.07591,-14.81897],[-69.07489,-14.81913]]]},"properties":{"n":"PELECHUCO","p":97,"personas_x_ha":80,"masculinidad":102,"pct_menor20":31,"pct_60mas":10,"pct_migrante":23,"dependencia_econ":66,"pct_empleados":14,"pct_cuentapropia":71,"pct_agricultura":60,"pct_comercio":12,"pct_manufactura":3,"pct_construccion":2,"pct_transporte":5,"pct_alojamiento":3,"pct_sin_educacion":7,"pct_educ_superior":13,"brecha_educ":-3,"pct_sin_seguro":18,"pct_sus":81,"pct_seguro_privado":1,"brecha_seguro":19,"pct_salud_publica":30,"pct_med_tradicional":17,"pct_automedicacion":18,"pct_remedios_caseros":28,"pct_viv_desocupada":2,"pct_alquiler":7,"pct_electricidad":93,"pct_sin_electricidad":7,"pct_agua_red":80,"pct_alcantarillado":56,"pct_camara_septica":2,"pct_pozo_ciego":7,"pct_sin_desague":18,"pct_gas_red":0,"pct_gas_garrafa":93,"pct_lena_guano":93,"pct_basura_formal":53,"pct_basura_quema":27,"pct_basura_informal":4,"pct_internet":56,"pct_celular":89,"pct_televisor":69}},{"type":"Feature","geometry":{"type":"Polygon","coordinates":[[[-69.06851,-14.81912],[-69.06764,-14.81906],[-69.06749,-14.81881],[-69.06884,-14.81881],[-69.06881,-14.81891],[-69.06851,-14.81912]]]},"properties":{"n":"PELECHUCO","p":31,"personas_x_ha":78,"masculinidad":138,"pct_menor20":10,"pct_60mas":13,"pct_migrante":3,"dependencia_econ":24,"pct_empleados":24,"pct_cuentapropia":44,"pct_agricultura":40,"pct_comercio":8,"pct_manufactura":8,"pct_construccion":4,"pct_transporte":4,"pct_alojamiento":8,"pct_sin_educacion":7,"pct_educ_superior":18,"brecha_educ":-6,"pct_sin_seguro":11,"pct_sus":82,"pct_seguro_privado":0,"brecha_seguro":3,"pct_salud_publica":32,"pct_med_tradicional":9,"pct_automedicacion":12,"pct_remedios_caseros":32,"pct_viv_desocupada":0,"pct_alquiler":0,"pct_electricidad":80,"pct_sin_electricidad":20,"pct_agua_red":70,"pct_alcantarillado":30,"pct_camara_septica":10,"pct_pozo_ciego":40,"pct_sin_desague":20,"pct_gas_red":0,"pct_gas_garrafa":100,"pct_lena_guano":100,"pct_basura_formal":70,"pct_basura_quema":0,"pct_basura_informal":0,"pct_internet":80,"pct_celular":100,"pct_televisor":80}},{"type":"Feature","geometry":{"type":"Polygon","coordinates":[[[-69.06938,-14.8204],[-69.0686,-14.82019],[-69.0685,-14.82052],[-69.06856,-14.82057],[-69.0687,-14.8204],[-69.06894,-14.82038],[-69.06927,-14.82065],[-69.06938,-14.8204]]]},"properties":{"n":"PELECHUCO","p":54,"personas_x_ha":266,"masculinidad":100,"pct_menor20":28,"pct_60mas":11,"pct_migrante":17,"dependencia_econ":69,"pct_empleados":0,"pct_cuentapropia":50,"pct_agricultura":88,"pct_comercio":0,"pct_manufactura":0,"pct_construccion":6,"pct_transporte":0,"pct_alojamiento":0,"pct_sin_educacion":10,"pct_educ_superior":10,"brecha_educ":-2,"pct_sin_seguro":4,"pct_sus":90,"pct_seguro_privado":6,"brecha_seguro":8,"pct_salud_publica":41,"pct_med_tradicional":15,"pct_automedicacion":8,"pct_remedios_caseros":32,"pct_viv_desocupada":0,"pct_alquiler":6,"pct_electricidad":81,"pct_sin_electricidad":19,"pct_agua_red":56,"pct_alcantarillado":44,"pct_camara_septica":0,"pct_pozo_ciego":0,"pct_sin_desague":56,"pct_gas_red":0,"pct_gas_garrafa":81,"pct_lena_guano":81,"pct_basura_formal":44,"pct_basura_quema":19,"pct_basura_informal":25,"pct_internet":62,"pct_celular":94,"pct_televisor":75}},{"type":"Feature","geometry":{"type":"Polygon","coordinates":[[[-69.07311,-14.82027],[-69.07363,-14.81988],[-69.0733,-14.81974],[-69.07294,-14.81973],[-69.07231,-14.82016],[-69.07132,-14.82052],[-69.07139,-14.82076],[-69.07194,-14.82075],[-69.07251,-14.82062],[-69.07274,-14.8204],[-69.07311,-14.82027],[-69.07295,-14.82001],[-69.07296,-14.82],[-69.07311,-14.82027]]]},"properties":{"n":"PELECHUCO","p":53,"personas_x_ha":44,"masculinidad":130,"pct_menor20":38,"pct_60mas":13,"pct_migrante":21,"dependencia_econ":136,"pct_empleados":14,"pct_cuentapropia":45,"pct_agricultura":64,"pct_comercio":9,"pct_manufactura":0,"pct_construccion":5,"pct_transporte":5,"pct_alojamiento":0,"pct_sin_educacion":9,"pct_educ_superior":12,"brecha_educ":-32,"pct_sin_seguro":18,"pct_sus":80,"pct_seguro_privado":2,"brecha_seguro":0,"pct_salud_publica":30,"pct_med_tradicional":14,"pct_automedicacion":20,"pct_remedios_caseros":23,"pct_viv_desocupada":4,"pct_alquiler":0,"pct_electricidad":82,"pct_sin_electricidad":9,"pct_agua_red":86,"pct_alcantarillado":64,"pct_camara_septica":9,"pct_pozo_ciego":0,"pct_sin_desague":27,"pct_gas_red":0,"pct_gas_garrafa":100,"pct_lena_guano":100,"pct_basura_formal":14,"pct_basura_quema":50,"pct_basura_informal":27,"pct_internet":73,"pct_celular":91,"pct_televisor":86}},{"type":"Feature","geometry":{"type":"Polygon","coordinates":[[[-69.06949,-14.81997],[-69.06951,-14.82034],[-69.07056,-14.8202],[-69.07053,-14.81999],[-69.07046,-14.82],[-69.07032,-14.81981],[-69.06949,-14.81997]]]},"properties":{"n":"PELECHUCO","p":49,"personas_x_ha":99,"masculinidad":96,"pct_menor20":39,"pct_60mas":6,"pct_migrante":27,"dependencia_econ":105,"pct_empleados":5,"pct_cuentapropia":86,"pct_agricultura":59,"pct_comercio":9,"pct_manufactura":5,"pct_construccion":0,"pct_transporte":5,"pct_alojamiento":0,"pct_sin_educacion":7,"pct_educ_superior":29,"brecha_educ":-21,"pct_sin_seguro":9,"pct_sus":84,"pct_seguro_privado":7,"brecha_seguro":9,"pct_salud_publica":25,"pct_med_tradicional":23,"pct_automedicacion":14,"pct_remedios_caseros":26,"pct_viv_desocupada":0,"pct_alquiler":15,"pct_electricidad":100,"pct_sin_electricidad":0,"pct_agua_red":65,"pct_alcantarillado":95,"pct_camara_septica":0,"pct_pozo_ciego":0,"pct_sin_desague":0,"pct_gas_red":0,"pct_gas_garrafa":100,"pct_lena_guano":100,"pct_basura_formal":35,"pct_basura_quema":20,"pct_basura_informal":60,"pct_internet":65,"pct_celular":80,"pct_televisor":80}},{"type":"Feature","geometry":{"type":"Polygon","coordinates":[[[-69.1994,-15.00299],[-69.19896,-15.00286],[-69.1985,-15.00259],[-69.19746,-15.00166],[-69.1976,-15.00144],[-69.19852,-15.00197],[-69.19837,-15.0021],[-69.19853,-15.00197],[-69.19922,-15.00229],[-69.19913,-15.00272],[-69.19948,-15.00285],[-69.1994,-15.00299]]]},"properties":{"n":"PUYO PUYO","p":30,"personas_x_ha":25,"masculinidad":150,"pct_menor20":37,"pct_60mas":0,"pct_migrante":43,"dependencia_econ":76,"pct_empleados":18,"pct_cuentapropia":41,"pct_agricultura":6,"pct_comercio":29,"pct_manufactura":0,"pct_construccion":6,"pct_transporte":6,"pct_alojamiento":6,"pct_sin_educacion":0,"pct_educ_superior":21,"brecha_educ":-19,"pct_sin_seguro":10,"pct_sus":83,"pct_seguro_privado":0,"brecha_seguro":-11,"pct_salud_publica":38,"pct_med_tradicional":17,"pct_automedicacion":15,"pct_remedios_caseros":18,"pct_viv_desocupada":0,"pct_alquiler":0,"pct_electricidad":90,"pct_sin_electricidad":10,"pct_agua_red":50,"pct_alcantarillado":0,"pct_camara_septica":0,"pct_pozo_ciego":80,"pct_sin_desague":20,"pct_gas_red":0,"pct_gas_garrafa":100,"pct_lena_guano":100,"pct_basura_formal":40,"pct_basura_quema":20,"pct_basura_informal":20,"pct_internet":40,"pct_celular":100,"pct_televisor":70}},{"type":"Feature","geometry":{"type":"Polygon","coordinates":[[[-69.19906,-15.00161],[-69.19868,-15.00145],[-69.19858,-15.00169],[-69.19865,-15.00193],[-69.19959,-15.00237],[-69.19971,-15.0022],[-69.19927,-15.0019],[-69.19906,-15.00161]]]},"properties":{"n":"PUYO PUYO","p":20,"personas_x_ha":41,"masculinidad":150,"pct_menor20":50,"pct_60mas":0,"pct_migrante":35,"dependencia_econ":100,"pct_empleados":20,"pct_cuentapropia":70,"pct_agricultura":20,"pct_comercio":10,"pct_manufactura":30,"pct_construccion":10,"pct_transporte":10,"pct_alojamiento":0,"pct_sin_educacion":10,"pct_educ_superior":10,"brecha_educ":-20,"pct_sin_seguro":5,"pct_sus":40,"pct_seguro_privado":0,"brecha_seguro":-12,"pct_salud_publica":22,"pct_med_tradicional":25,"pct_automedicacion":13,"pct_remedios_caseros":20,"pct_viv_desocupada":0,"pct_alquiler":0,"pct_electricidad":100,"pct_sin_electricidad":0,"pct_agua_red":20,"pct_alcantarillado":0,"pct_camara_septica":0,"pct_pozo_ciego":100,"pct_sin_desague":0,"pct_gas_red":0,"pct_gas_garrafa":100,"pct_lena_guano":100,"pct_basura_formal":20,"pct_basura_quema":0,"pct_basura_informal":0,"pct_internet":80,"pct_celular":100,"pct_televisor":100}},{"type":"Feature","geometry":{"type":"Polygon","coordinates":[[[-69.1986,-15.00142],[-69.19778,-15.0013],[-69.19777,-15.00143],[-69.19844,-15.00178],[-69.1986,-15.00142]]]},"properties":{"n":"PUYO PUYO","p":17,"personas_x_ha":67,"masculinidad":112,"pct_menor20":41,"pct_60mas":6,"pct_migrante":29,"dependencia_econ":70,"pct_empleados":10,"pct_cuentapropia":70,"pct_agricultura":90,"pct_comercio":0,"pct_manufactura":10,"pct_construccion":0,"pct_transporte":0,"pct_alojamiento":0,"pct_sin_educacion":0,"pct_educ_superior":10,"brecha_educ":-40,"pct_sin_seguro":12,"pct_sus":41,"pct_seguro_privado":0,"brecha_seguro":-1,"pct_salud_publica":22,"pct_med_tradicional":27,"pct_automedicacion":6,"pct_remedios_caseros":20,"pct_viv_desocupada":0,"pct_alquiler":0,"pct_electricidad":100,"pct_sin_electricidad":0,"pct_agua_red":0,"pct_alcantarillado":0,"pct_camara_septica":0,"pct_pozo_ciego":100,"pct_sin_desague":0,"pct_gas_red":0,"pct_gas_garrafa":40,"pct_lena_guano":100,"pct_basura_formal":0,"pct_basura_quema":20,"pct_basura_informal":0,"pct_internet":0,"pct_celular":100,"pct_televisor":80}},{"type":"Feature","geometry":{"type":"Polygon","coordinates":[[[-69.17128,-14.99941],[-69.17121,-14.99967],[-69.17149,-14.99969],[-69.17147,-14.99997],[-69.17176,-14.99998],[-69.1718,-14.99942],[-69.17128,-14.99941]]]},"properties":{"n":"PUYO PUYO ALTO","p":17,"personas_x_ha":60,"masculinidad":112,"pct_menor20":47,"pct_60mas":0,"pct_migrante":24,"dependencia_econ":55,"pct_empleados":45,"pct_cuentapropia":36,"pct_agricultura":45,"pct_comercio":0,"pct_manufactura":0,"pct_construccion":0,"pct_transporte":27,"pct_alojamiento":0,"pct_sin_educacion":11,"pct_educ_superior":0,"brecha_educ":-50,"pct_sin_seguro":0,"pct_sus":100,"pct_seguro_privado":0,"brecha_seguro":0,"pct_salud_publica":23,"pct_med_tradicional":23,"pct_automedicacion":17,"pct_remedios_caseros":24,"pct_viv_desocupada":0,"pct_alquiler":0,"pct_electricidad":75,"pct_sin_electricidad":25,"pct_agua_red":0,"pct_alcantarillado":0,"pct_camara_septica":0,"pct_pozo_ciego":100,"pct_sin_desague":0,"pct_gas_red":0,"pct_gas_garrafa":100,"pct_lena_guano":100,"pct_basura_formal":25,"pct_basura_quema":75,"pct_basura_informal":0,"pct_internet":0,"pct_celular":100,"pct_televisor":75}},{"type":"Feature","geometry":{"type":"Polygon","coordinates":[[[-69.17127,-14.99871],[-69.17189,-14.9987],[-69.17187,-14.99837],[-69.17132,-14.9984],[-69.17127,-14.99871]]]},"properties":{"n":"PUYO PUYO ALTO","p":18,"personas_x_ha":77,"masculinidad":157,"pct_menor20":39,"pct_60mas":11,"pct_migrante":11,"dependencia_econ":38,"pct_empleados":23,"pct_cuentapropia":46,"pct_agricultura":46,"pct_comercio":38,"pct_manufactura":0,"pct_construccion":0,"pct_transporte":0,"pct_alojamiento":0,"pct_sin_educacion":0,"pct_educ_superior":0,"brecha_educ":-12,"pct_sin_seguro":22,"pct_sus":78,"pct_seguro_privado":0,"brecha_seguro":-10,"pct_salud_publica":100,"pct_med_tradicional":0,"pct_automedicacion":0,"pct_remedios_caseros":0,"pct_viv_desocupada":0,"pct_alquiler":20,"pct_electricidad":100,"pct_sin_electricidad":0,"pct_agua_red":20,"pct_alcantarillado":20,"pct_camara_septica":0,"pct_pozo_ciego":60,"pct_sin_desague":20,"pct_gas_red":0,"pct_gas_garrafa":80,"pct_lena_guano":80,"pct_basura_formal":20,"pct_basura_quema":80,"pct_basura_informal":0,"pct_internet":60,"pct_celular":100,"pct_televisor":40}},{"type":"Feature","geometry":{"type":"Polygon","coordinates":[[[-69.17228,-14.99951],[-69.17226,-14.99902],[-69.1726,-14.99899],[-69.17259,-14.99873],[-69.17196,-14.99876],[-69.17201,-14.99952],[-69.17228,-14.99951]]]},"properties":{"n":"PUYO PUYO ALTO","p":58,"personas_x_ha":158,"masculinidad":132,"pct_menor20":50,"pct_60mas":3,"pct_migrante":14,"dependencia_econ":93,"pct_empleados":23,"pct_cuentapropia":47,"pct_agricultura":20,"pct_comercio":30,"pct_manufactura":3,"pct_construccion":7,"pct_transporte":13,"pct_alojamiento":3,"pct_sin_educacion":6,"pct_educ_superior":0,"brecha_educ":-2,"pct_sin_seguro":9,"pct_sus":79,"pct_seguro_privado":12,"brecha_seguro":1,"pct_salud_publica":38,"pct_med_tradicional":16,"pct_automedicacion":10,"pct_remedios_caseros":22,"pct_viv_desocupada":18,"pct_alquiler":0,"pct_electricidad":100,"pct_sin_electricidad":0,"pct_agua_red":0,"pct_alcantarillado":0,"pct_camara_septica":0,"pct_pozo_ciego":62,"pct_sin_desague":38,"pct_gas_red":0,"pct_gas_garrafa":92,"pct_lena_guano":92,"pct_basura_formal":15,"pct_basura_quema":31,"pct_basura_informal":0,"pct_internet":69,"pct_celular":92,"pct_televisor":77}},{"type":"Feature","geometry":{"type":"Polygon","coordinates":[[[-69.17093,-14.99935],[-69.17092,-14.99896],[-69.17107,-14.99896],[-69.17107,-14.99884],[-69.17121,-14.99878],[-69.17121,-14.99935],[-69.17093,-14.99935]]]},"properties":{"n":"PUYO PUYO ALTO","p":20,"personas_x_ha":124,"masculinidad":186,"pct_menor20":50,"pct_60mas":10,"pct_migrante":25,"dependencia_econ":67,"pct_empleados":8,"pct_cuentapropia":58,"pct_agricultura":25,"pct_comercio":17,"pct_manufactura":0,"pct_construccion":17,"pct_transporte":0,"pct_alojamiento":8,"pct_sin_educacion":40,"pct_educ_superior":10,"brecha_educ":-42,"pct_sin_seguro":5,"pct_sus":95,"pct_seguro_privado":0,"brecha_seguro":8,"pct_salud_publica":80,"pct_med_tradicional":0,"pct_automedicacion":12,"pct_remedios_caseros":0,"pct_viv_desocupada":0,"pct_alquiler":0,"pct_electricidad":100,"pct_sin_electricidad":0,"pct_agua_red":17,"pct_alcantarillado":0,"pct_camara_septica":0,"pct_pozo_ciego":83,"pct_sin_desague":17,"pct_gas_red":0,"pct_gas_garrafa":67,"pct_lena_guano":67,"pct_basura_formal":0,"pct_basura_quema":67,"pct_basura_informal":0,"pct_internet":83,"pct_celular":83,"pct_televisor":83}},{"type":"Feature","geometry":{"type":"Polygon","coordinates":[[[-69.27114,-15.05891],[-69.27087,-15.05862],[-69.2704,-15.05905],[-69.27064,-15.05931],[-69.27114,-15.05891]]]},"properties":{"n":"ULLA ULLA","p":19,"personas_x_ha":66,"masculinidad":138,"pct_menor20":16,"pct_60mas":16,"pct_migrante":0,"dependencia_econ":12,"pct_empleados":6,"pct_cuentapropia":53,"pct_agricultura":29,"pct_comercio":18,"pct_manufactura":12,"pct_construccion":12,"pct_transporte":12,"pct_alojamiento":6,"pct_sin_educacion":0,"pct_educ_superior":31,"brecha_educ":-13,"pct_sin_seguro":0,"pct_sus":100,"pct_seguro_privado":0,"brecha_seguro":0,"pct_salud_publica":33,"pct_med_tradicional":16,"pct_automedicacion":5,"pct_remedios_caseros":29,"pct_viv_desocupada":0,"pct_alquiler":0,"pct_electricidad":88,"pct_sin_electricidad":12,"pct_agua_red":12,"pct_alcantarillado":12,"pct_camara_septica":0,"pct_pozo_ciego":88,"pct_sin_desague":0,"pct_gas_red":0,"pct_gas_garrafa":100,"pct_lena_guano":100,"pct_basura_formal":12,"pct_basura_quema":88,"pct_basura_informal":0,"pct_internet":38,"pct_celular":88,"pct_televisor":62}},{"type":"Feature","geometry":{"type":"Polygon","coordinates":[[[-69.26837,-15.05673],[-69.26882,-15.05747],[-69.26901,-15.05737],[-69.26961,-15.05823],[-69.26983,-15.0581],[-69.26905,-15.0566],[-69.26837,-15.05673]]]},"properties":{"n":"ULLA ULLA","p":22,"personas_x_ha":22,"masculinidad":450,"pct_menor20":64,"pct_60mas":5,"pct_migrante":41,"dependencia_econ":75,"pct_empleados":17,"pct_cuentapropia":42,"pct_agricultura":8,"pct_comercio":25,"pct_manufactura":25,"pct_construccion":17,"pct_transporte":0,"pct_alojamiento":0,"pct_sin_educacion":9,"pct_educ_superior":36,"brecha_educ":-25,"pct_sin_seguro":10,"pct_sus":76,"pct_seguro_privado":0,"brecha_seguro":12,"pct_salud_publica":26,"pct_med_tradicional":23,"pct_automedicacion":13,"pct_remedios_caseros":20,"pct_viv_desocupada":0,"pct_alquiler":0,"pct_electricidad":86,"pct_sin_electricidad":14,"pct_agua_red":29,"pct_alcantarillado":0,"pct_camara_septica":0,"pct_pozo_ciego":43,"pct_sin_desague":29,"pct_gas_red":0,"pct_gas_garrafa":100,"pct_lena_guano":100,"pct_basura_formal":14,"pct_basura_quema":43,"pct_basura_informal":0,"pct_internet":71,"pct_celular":57,"pct_televisor":71}},{"type":"Feature","geometry":{"type":"Polygon","coordinates":[[[-69.27148,-15.05918],[-69.27205,-15.05871],[-69.27201,-15.0585],[-69.27173,-15.0585],[-69.27123,-15.0589],[-69.27148,-15.05918]]]},"properties":{"n":"ULLA ULLA","p":20,"personas_x_ha":56,"masculinidad":67,"pct_menor20":65,"pct_60mas":5,"pct_migrante":5,"dependencia_econ":122,"pct_empleados":0,"pct_cuentapropia":56,"pct_agricultura":89,"pct_comercio":11,"pct_manufactura":0,"pct_construccion":0,"pct_transporte":0,"pct_alojamiento":0,"pct_sin_educacion":14,"pct_educ_superior":0,"brecha_educ":-10,"pct_sin_seguro":0,"pct_sus":100,"pct_seguro_privado":0,"brecha_seguro":0,"pct_salud_publica":95,"pct_med_tradicional":0,"pct_automedicacion":0,"pct_remedios_caseros":0,"pct_viv_desocupada":0,"pct_alquiler":0,"pct_electricidad":50,"pct_sin_electricidad":50,"pct_agua_red":40,"pct_alcantarillado":0,"pct_camara_septica":0,"pct_pozo_ciego":0,"pct_sin_desague":100,"pct_gas_red":0,"pct_gas_garrafa":90,"pct_lena_guano":100,"pct_basura_formal":10,"pct_basura_quema":50,"pct_basura_informal":0,"pct_internet":80,"pct_celular":80,"pct_televisor":80}},{"type":"Feature","geometry":{"type":"Polygon","coordinates":[[[-69.26797,-15.06109],[-69.26693,-15.06091],[-69.26894,-15.06025],[-69.26904,-15.06039],[-69.26797,-15.06109]]]},"properties":{"n":"ULLA ULLA","p":19,"personas_x_ha":24,"masculinidad":73,"pct_menor20":47,"pct_60mas":5,"pct_migrante":16,"dependencia_econ":90,"pct_empleados":10,"pct_cuentapropia":50,"pct_agricultura":70,"pct_comercio":0,"pct_manufactura":10,"pct_construccion":0,"pct_transporte":10,"pct_alojamiento":0,"pct_sin_educacion":20,"pct_educ_superior":0,"brecha_educ":-43,"pct_sin_seguro":5,"pct_sus":95,"pct_seguro_privado":0,"brecha_seguro":-9,"pct_salud_publica":64,"pct_med_tradicional":11,"pct_automedicacion":7,"pct_remedios_caseros":18,"pct_viv_desocupada":29,"pct_alquiler":0,"pct_electricidad":83,"pct_sin_electricidad":17,"pct_agua_red":67,"pct_alcantarillado":0,"pct_camara_septica":0,"pct_pozo_ciego":100,"pct_sin_desague":0,"pct_gas_red":0,"pct_gas_garrafa":67,"pct_lena_guano":67,"pct_basura_formal":0,"pct_basura_quema":33,"pct_basura_informal":0,"pct_internet":0,"pct_celular":100,"pct_televisor":67}},{"type":"Feature","geometry":{"type":"Polygon","coordinates":[[[-69.27248,-15.06022],[-69.27261,-15.06011],[-69.27164,-15.05915],[-69.271,-15.05967],[-69.27266,-15.06146],[-69.2732,-15.061],[-69.27248,-15.06022]]]},"properties":{"n":"ULLA ULLA","p":16,"personas_x_ha":7,"masculinidad":300,"pct_menor20":38,"pct_60mas":6,"pct_migrante":19,"dependencia_econ":78,"pct_empleados":11,"pct_cuentapropia":78,"pct_agricultura":33,"pct_comercio":44,"pct_manufactura":0,"pct_construccion":11,"pct_transporte":0,"pct_alojamiento":0,"pct_sin_educacion":0,"pct_educ_superior":20,"brecha_educ":-25,"pct_sin_seguro":12,"pct_sus":75,"pct_seguro_privado":0,"brecha_seguro":-17,"pct_salud_publica":26,"pct_med_tradicional":10,"pct_automedicacion":19,"pct_remedios_caseros":29,"pct_viv_desocupada":19,"pct_alquiler":0,"pct_electricidad":75,"pct_sin_electricidad":25,"pct_agua_red":17,"pct_alcantarillado":0,"pct_camara_septica":0,"pct_pozo_ciego":25,"pct_sin_desague":75,"pct_gas_red":0,"pct_gas_garrafa":50,"pct_lena_guano":58,"pct_basura_formal":0,"pct_basura_quema":92,"pct_basura_informal":0,"pct_internet":42,"pct_celular":92,"pct_televisor":50}},{"type":"Feature","geometry":{"type":"Polygon","coordinates":[[[-69.27118,-15.05895],[-69.2707,-15.05935],[-69.27096,-15.05963],[-69.27142,-15.05924],[-69.27118,-15.05895]]]},"properties":{"n":"ULLA ULLA","p":16,"personas_x_ha":57,"masculinidad":60,"pct_menor20":12,"pct_60mas":12,"pct_migrante":12,"dependencia_econ":367,"pct_empleados":0,"pct_cuentapropia":100,"pct_agricultura":33,"pct_comercio":33,"pct_manufactura":0,"pct_construccion":0,"pct_transporte":0,"pct_alojamiento":33,"pct_sin_educacion":0,"pct_educ_superior":8,"brecha_educ":-38,"pct_sin_seguro":0,"pct_sus":100,"pct_seguro_privado":0,"brecha_seguro":0,"pct_salud_publica":42,"pct_med_tradicional":12,"pct_automedicacion":18,"pct_remedios_caseros":15,"pct_viv_desocupada":0,"pct_alquiler":0,"pct_electricidad":80,"pct_sin_electricidad":20,"pct_agua_red":50,"pct_alcantarillado":0,"pct_camara_septica":0,"pct_pozo_ciego":40,"pct_sin_desague":60,"pct_gas_red":0,"pct_gas_garrafa":100,"pct_lena_guano":100,"pct_basura_formal":0,"pct_basura_quema":80,"pct_basura_informal":0,"pct_internet":30,"pct_celular":30,"pct_televisor":40}}]}