{"type":"FeatureCollection","features":[{"type":"Feature","geometry":{"type":"Polygon","coordinates":[[[-69.44363,-17.59526],[-69.44312,-17.59533],[-69.44318,-17.59575],[-69.44369,-17.59569],[-69.44363,-17.59526]]]},"properties":{"n":"CHARAÑA","p":16,"personas_x_ha":61,"masculinidad":60,"pct_menor20":25,"pct_60mas":6,"pct_migrante":6,"dependencia_econ":60,"pct_empleados":70,"pct_cuentapropia":30,"pct_agricultura":10,"pct_comercio":40,"pct_manufactura":0,"pct_construccion":30,"pct_transporte":0,"pct_alojamiento":20,"pct_educ_superior":0,"brecha_educ":0,"pct_sin_seguro":6,"pct_seguro_privado":0,"brecha_seguro":17,"pct_med_tradicional":17,"pct_automedicacion":15,"pct_remedios_caseros":28,"pct_viv_desocupada":0,"pct_alquiler":0,"pct_electricidad":67,"pct_agua_red":78,"pct_alcantarillado":0,"pct_gas_red":0,"pct_gas_garrafa":78,"pct_lena_guano":78,"pct_basura_formal":33,"pct_basura_quema":33,"pct_basura_informal":0,"pct_internet":78,"pct_celular":89,"pct_televisor":44}},{"type":"Feature","geometry":{"type":"Polygon","coordinates":[[[-69.44399,-17.59369],[-69.44442,-17.59363],[-69.44435,-17.59322],[-69.44392,-17.59328],[-69.44399,-17.59369]]]},"properties":{"n":"CHARAÑA","p":15,"personas_x_ha":70,"masculinidad":275,"pct_menor20":20,"pct_60mas":33,"pct_migrante":40,"dependencia_econ":88,"pct_empleados":0,"pct_cuentapropia":100,"pct_agricultura":38,"pct_comercio":12,"pct_manufactura":0,"pct_construccion":0,"pct_transporte":50,"pct_alojamiento":0,"pct_educ_superior":8,"brecha_educ":-30,"pct_sin_seguro":33,"pct_seguro_privado":0,"brecha_seguro":45,"pct_med_tradicional":12,"pct_automedicacion":18,"pct_remedios_caseros":21,"pct_viv_desocupada":11,"pct_alquiler":0,"pct_electricidad":75,"pct_agua_red":75,"pct_alcantarillado":50,"pct_gas_red":0,"pct_gas_garrafa":100,"pct_lena_guano":100,"pct_basura_formal":25,"pct_basura_quema":38,"pct_basura_informal":50,"pct_internet":62,"pct_celular":88,"pct_televisor":50}},{"type":"Feature","geometry":{"type":"Polygon","coordinates":[[[-69.44754,-17.59041],[-69.44748,-17.58993],[-69.44696,-17.59001],[-69.44704,-17.59048],[-69.44754,-17.59041]]]},"properties":{"n":"CHARAÑA","p":15,"personas_x_ha":51,"masculinidad":200,"pct_menor20":27,"pct_60mas":13,"pct_migrante":27,"dependencia_econ":275,"pct_empleados":25,"pct_cuentapropia":25,"pct_agricultura":75,"pct_comercio":0,"pct_manufactura":0,"pct_construccion":0,"pct_transporte":0,"pct_alojamiento":0,"pct_educ_superior":0,"brecha_educ":-23,"pct_sin_seguro":29,"pct_seguro_privado":0,"brecha_seguro":13,"pct_med_tradicional":20,"pct_automedicacion":20,"pct_remedios_caseros":30,"pct_viv_desocupada":0,"pct_alquiler":0,"pct_electricidad":50,"pct_agua_red":83,"pct_alcantarillado":83,"pct_gas_red":0,"pct_gas_garrafa":83,"pct_lena_guano":83,"pct_basura_formal":0,"pct_basura_quema":100,"pct_basura_informal":0,"pct_internet":50,"pct_celular":67,"pct_televisor":50}},{"type":"Feature","geometry":{"type":"Polygon","coordinates":[[[-69.44694,-17.59402],[-69.44742,-17.59396],[-69.44736,-17.59341],[-69.44686,-17.59346],[-69.44694,-17.59402]]]},"properties":{"n":"CHARAÑA","p":17,"personas_x_ha":52,"masculinidad":70,"pct_menor20":24,"pct_60mas":35,"pct_migrante":53,"dependencia_econ":100,"pct_empleados":62,"pct_cuentapropia":38,"pct_agricultura":12,"pct_comercio":62,"pct_manufactura":0,"pct_construccion":0,"pct_transporte":0,"pct_alojamiento":0,"pct_educ_superior":67,"brecha_educ":-12,"pct_sin_seguro":0,"pct_seguro_privado":6,"brecha_seguro":0,"pct_med_tradicional":12,"pct_automedicacion":12,"pct_remedios_caseros":16,"pct_viv_desocupada":12,"pct_alquiler":0,"pct_electricidad":86,"pct_agua_red":71,"pct_alcantarillado":71,"pct_gas_red":0,"pct_gas_garrafa":100,"pct_lena_guano":100,"pct_basura_formal":0,"pct_basura_quema":71,"pct_basura_informal":0,"pct_internet":71,"pct_celular":86,"pct_televisor":71}},{"type":"Feature","geometry":{"type":"Polygon","coordinates":[[[-69.44263,-17.59165],[-69.44316,-17.59159],[-69.44309,-17.59115],[-69.44258,-17.59122],[-69.44263,-17.59165]]]},"properties":{"n":"CHARAÑA","p":28,"personas_x_ha":102,"masculinidad":87,"pct_menor20":36,"pct_60mas":4,"pct_migrante":32,"dependencia_econ":133,"pct_empleados":42,"pct_cuentapropia":42,"pct_agricultura":17,"pct_comercio":0,"pct_manufactura":0,"pct_construccion":33,"pct_transporte":25,"pct_alojamiento":17,"pct_educ_superior":6,"brecha_educ":0,"pct_sin_seguro":29,"pct_seguro_privado":0,"brecha_seguro":18,"pct_med_tradicional":8,"pct_automedicacion":27,"pct_remedios_caseros":22,"pct_viv_desocupada":0,"pct_alquiler":0,"pct_electricidad":78,"pct_agua_red":100,"pct_alcantarillado":100,"pct_gas_red":0,"pct_gas_garrafa":100,"pct_lena_guano":100,"pct_basura_formal":33,"pct_basura_quema":56,"pct_basura_informal":0,"pct_internet":78,"pct_celular":100,"pct_televisor":67}},{"type":"Feature","geometry":{"type":"Polygon","coordinates":[[[-69.44771,-17.59155],[-69.44765,-17.59114],[-69.44716,-17.5912],[-69.44722,-17.59161],[-69.44771,-17.59155]]]},"properties":{"n":"CHARAÑA","p":17,"personas_x_ha":70,"masculinidad":112,"pct_menor20":24,"pct_60mas":18,"pct_migrante":35,"dependencia_econ":112,"pct_empleados":25,"pct_cuentapropia":62,"pct_agricultura":38,"pct_comercio":0,"pct_manufactura":12,"pct_construccion":0,"pct_transporte":25,"pct_alojamiento":25,"pct_educ_superior":15,"brecha_educ":-36,"pct_sin_seguro":19,"pct_seguro_privado":0,"brecha_seguro":-17,"pct_med_tradicional":13,"pct_automedicacion":20,"pct_remedios_caseros":22,"pct_viv_desocupada":0,"pct_alquiler":14,"pct_electricidad":100,"pct_agua_red":100,"pct_alcantarillado":86,"pct_gas_red":0,"pct_gas_garrafa":100,"pct_lena_guano":100,"pct_basura_formal":14,"pct_basura_quema":71,"pct_basura_informal":29,"pct_internet":43,"pct_celular":71,"pct_televisor":57}},{"type":"Feature","geometry":{"type":"Polygon","coordinates":[[[-69.44681,-17.59404],[-69.44672,-17.59349],[-69.44632,-17.59354],[-69.44639,-17.59409],[-69.44681,-17.59404]]]},"properties":{"n":"CHARAÑA","p":17,"personas_x_ha":62,"masculinidad":89,"pct_menor20":24,"pct_60mas":35,"pct_migrante":59,"dependencia_econ":129,"pct_empleados":0,"pct_cuentapropia":71,"pct_agricultura":0,"pct_comercio":57,"pct_manufactura":0,"pct_construccion":0,"pct_transporte":0,"pct_alojamiento":29,"pct_educ_superior":17,"brecha_educ":-62,"pct_sin_seguro":12,"pct_seguro_privado":0,"brecha_seguro":3,"pct_med_tradicional":18,"pct_automedicacion":17,"pct_remedios_caseros":22,"pct_viv_desocupada":0,"pct_alquiler":17,"pct_electricidad":83,"pct_agua_red":83,"pct_alcantarillado":67,"pct_gas_red":0,"pct_gas_garrafa":83,"pct_lena_guano":83,"pct_basura_formal":17,"pct_basura_quema":67,"pct_basura_informal":33,"pct_internet":67,"pct_celular":67,"pct_televisor":67}},{"type":"Feature","geometry":{"type":"Polygon","coordinates":[[[-69.44653,-17.59226],[-69.44648,-17.59185],[-69.44605,-17.5919],[-69.44612,-17.59231],[-69.44653,-17.59226]]]},"properties":{"n":"CHARAÑA","p":27,"personas_x_ha":130,"masculinidad":59,"pct_menor20":37,"pct_60mas":4,"pct_migrante":0,"dependencia_econ":108,"pct_empleados":23,"pct_cuentapropia":54,"pct_agricultura":15,"pct_comercio":38,"pct_manufactura":23,"pct_construccion":0,"pct_transporte":0,"pct_alojamiento":0,"pct_educ_superior":28,"brecha_educ":-8,"pct_sin_seguro":26,"pct_seguro_privado":0,"brecha_seguro":-25,"pct_med_tradicional":7,"pct_automedicacion":23,"pct_remedios_caseros":31,"pct_viv_desocupada":0,"pct_alquiler":0,"pct_electricidad":100,"pct_agua_red":75,"pct_alcantarillado":62,"pct_gas_red":0,"pct_gas_garrafa":75,"pct_lena_guano":75,"pct_basura_formal":12,"pct_basura_quema":75,"pct_basura_informal":25,"pct_internet":62,"pct_celular":88,"pct_televisor":88}},{"type":"Feature","geometry":{"type":"Polygon","coordinates":[[[-69.44836,-17.5916],[-69.44725,-17.59174],[-69.44729,-17.59216],[-69.44843,-17.59202],[-69.44836,-17.5916]]]},"properties":{"n":"CHARAÑA","p":35,"personas_x_ha":61,"masculinidad":106,"pct_menor20":31,"pct_60mas":3,"pct_migrante":26,"dependencia_econ":78,"pct_empleados":17,"pct_cuentapropia":72,"pct_agricultura":11,"pct_comercio":39,"pct_manufactura":11,"pct_construccion":17,"pct_transporte":17,"pct_alojamiento":0,"pct_educ_superior":17,"brecha_educ":-15,"pct_sin_seguro":19,"pct_seguro_privado":0,"brecha_seguro":-10,"pct_med_tradicional":14,"pct_automedicacion":8,"pct_remedios_caseros":21,"pct_viv_desocupada":8,"pct_alquiler":0,"pct_electricidad":100,"pct_agua_red":89,"pct_alcantarillado":89,"pct_gas_red":0,"pct_gas_garrafa":100,"pct_lena_guano":100,"pct_basura_formal":0,"pct_basura_quema":44,"pct_basura_informal":89,"pct_internet":78,"pct_celular":89,"pct_televisor":78}},{"type":"Feature","geometry":{"type":"Polygon","coordinates":[[[-69.44558,-17.59348],[-69.44551,-17.59308],[-69.44508,-17.59313],[-69.44515,-17.59353],[-69.44558,-17.59348]]]},"properties":{"n":"CHARAÑA","p":17,"personas_x_ha":82,"masculinidad":70,"pct_menor20":24,"pct_60mas":12,"pct_migrante":24,"dependencia_econ":31,"pct_empleados":31,"pct_cuentapropia":62,"pct_agricultura":8,"pct_comercio":38,"pct_manufactura":23,"pct_construccion":0,"pct_transporte":8,"pct_alojamiento":0,"pct_educ_superior":31,"brecha_educ":-12,"pct_sin_seguro":76,"pct_seguro_privado":0,"brecha_seguro":-9,"pct_med_tradicional":14,"pct_automedicacion":20,"pct_remedios_caseros":25,"pct_viv_desocupada":14,"pct_alquiler":17,"pct_electricidad":83,"pct_agua_red":100,"pct_alcantarillado":67,"pct_gas_red":0,"pct_gas_garrafa":100,"pct_lena_guano":100,"pct_basura_formal":0,"pct_basura_quema":50,"pct_basura_informal":33,"pct_internet":100,"pct_celular":100,"pct_televisor":33}},{"type":"Feature","geometry":{"type":"Polygon","coordinates":[[[-69.446,-17.59246],[-69.44558,-17.59249],[-69.44563,-17.59292],[-69.44606,-17.59287],[-69.446,-17.59246]]]},"properties":{"n":"CHARAÑA","p":41,"personas_x_ha":184,"masculinidad":242,"pct_menor20":51,"pct_60mas":7,"pct_migrante":85,"dependencia_econ":128,"pct_empleados":22,"pct_cuentapropia":50,"pct_agricultura":11,"pct_comercio":50,"pct_manufactura":6,"pct_construccion":6,"pct_transporte":0,"pct_alojamiento":11,"pct_educ_superior":24,"brecha_educ":-14,"pct_sin_seguro":8,"pct_seguro_privado":0,"brecha_seguro":-13,"pct_med_tradicional":10,"pct_automedicacion":12,"pct_remedios_caseros":31,"pct_viv_desocupada":12,"pct_alquiler":14,"pct_electricidad":100,"pct_agua_red":86,"pct_alcantarillado":71,"pct_gas_red":0,"pct_gas_garrafa":100,"pct_lena_guano":100,"pct_basura_formal":14,"pct_basura_quema":71,"pct_basura_informal":29,"pct_internet":86,"pct_celular":100,"pct_televisor":100}},{"type":"Feature","geometry":{"type":"Polygon","coordinates":[[[-69.44513,-17.59424],[-69.44504,-17.5937],[-69.44458,-17.59375],[-69.44467,-17.59429],[-69.44513,-17.59424]]]},"properties":{"n":"CHARAÑA","p":18,"personas_x_ha":60,"masculinidad":80,"pct_menor20":28,"pct_60mas":22,"pct_migrante":39,"dependencia_econ":100,"pct_empleados":22,"pct_cuentapropia":78,"pct_agricultura":11,"pct_comercio":22,"pct_manufactura":0,"pct_construccion":0,"pct_transporte":33,"pct_alojamiento":0,"pct_educ_superior":31,"brecha_educ":-25,"pct_sin_seguro":17,"pct_seguro_privado":0,"brecha_seguro":15,"pct_med_tradicional":11,"pct_automedicacion":20,"pct_remedios_caseros":20,"pct_viv_desocupada":0,"pct_alquiler":12,"pct_electricidad":100,"pct_agua_red":88,"pct_alcantarillado":100,"pct_gas_red":0,"pct_gas_garrafa":62,"pct_lena_guano":62,"pct_basura_formal":50,"pct_basura_quema":50,"pct_basura_informal":0,"pct_internet":62,"pct_celular":88,"pct_televisor":75}},{"type":"Feature","geometry":{"type":"Polygon","coordinates":[[[-69.44476,-17.59207],[-69.44431,-17.59212],[-69.44438,-17.59254],[-69.44483,-17.59247],[-69.44476,-17.59207]]]},"properties":{"n":"CHARAÑA","p":15,"personas_x_ha":67,"masculinidad":114,"pct_menor20":27,"pct_60mas":27,"pct_migrante":13,"dependencia_econ":200,"pct_empleados":0,"pct_cuentapropia":80,"pct_agricultura":80,"pct_comercio":20,"pct_manufactura":0,"pct_construccion":20,"pct_transporte":0,"pct_alojamiento":20,"pct_educ_superior":0,"brecha_educ":-50,"pct_sin_seguro":13,"pct_seguro_privado":0,"brecha_seguro":-2,"pct_med_tradicional":35,"pct_automedicacion":3,"pct_remedios_caseros":24,"pct_viv_desocupada":0,"pct_alquiler":0,"pct_electricidad":100,"pct_agua_red":100,"pct_alcantarillado":100,"pct_gas_red":0,"pct_gas_garrafa":100,"pct_lena_guano":100,"pct_basura_formal":25,"pct_basura_quema":75,"pct_basura_informal":0,"pct_internet":50,"pct_celular":75,"pct_televisor":0}},{"type":"Feature","geometry":{"type":"Polygon","coordinates":[[[-69.44556,-17.58947],[-69.44549,-17.589],[-69.44501,-17.58906],[-69.44509,-17.58953],[-69.44556,-17.58947]]]},"properties":{"n":"CHARAÑA","p":26,"personas_x_ha":96,"masculinidad":100,"pct_menor20":54,"pct_60mas":0,"pct_migrante":0,"dependencia_econ":225,"pct_empleados":38,"pct_cuentapropia":62,"pct_agricultura":25,"pct_comercio":38,"pct_manufactura":0,"pct_construccion":12,"pct_transporte":25,"pct_alojamiento":0,"pct_educ_superior":15,"brecha_educ":-17,"pct_sin_seguro":4,"pct_seguro_privado":0,"brecha_seguro":-8,"pct_med_tradicional":24,"pct_automedicacion":2,"pct_remedios_caseros":41,"pct_viv_desocupada":0,"pct_alquiler":0,"pct_electricidad":57,"pct_agua_red":86,"pct_alcantarillado":71,"pct_gas_red":0,"pct_gas_garrafa":100,"pct_lena_guano":100,"pct_basura_formal":0,"pct_basura_quema":100,"pct_basura_informal":0,"pct_internet":43,"pct_celular":71,"pct_televisor":100}},{"type":"Feature","geometry":{"type":"Polygon","coordinates":[[[-69.44453,-17.59431],[-69.44444,-17.59377],[-69.44401,-17.59382],[-69.4441,-17.59436],[-69.44453,-17.59431]]]},"properties":{"n":"CHARAÑA","p":22,"personas_x_ha":78,"masculinidad":83,"pct_menor20":18,"pct_60mas":14,"pct_migrante":27,"dependencia_econ":83,"pct_empleados":58,"pct_cuentapropia":42,"pct_agricultura":8,"pct_comercio":17,"pct_manufactura":8,"pct_construccion":0,"pct_transporte":0,"pct_alojamiento":0,"pct_educ_superior":50,"brecha_educ":7,"pct_sin_seguro":18,"pct_seguro_privado":0,"brecha_seguro":-15,"pct_med_tradicional":18,"pct_automedicacion":8,"pct_remedios_caseros":21,"pct_viv_desocupada":0,"pct_alquiler":25,"pct_electricidad":100,"pct_agua_red":100,"pct_alcantarillado":92,"pct_gas_red":0,"pct_gas_garrafa":100,"pct_lena_guano":100,"pct_basura_formal":33,"pct_basura_quema":58,"pct_basura_informal":17,"pct_internet":75,"pct_celular":83,"pct_televisor":58}},{"type":"Feature","geometry":{"type":"Polygon","coordinates":[[[-69.44745,-17.58981],[-69.44738,-17.58933],[-69.44688,-17.5894],[-69.44694,-17.58988],[-69.44745,-17.58981]]]},"properties":{"n":"CHARAÑA","p":15,"personas_x_ha":51,"masculinidad":114,"pct_menor20":40,"pct_60mas":7,"pct_migrante":20,"dependencia_econ":275,"pct_empleados":25,"pct_cuentapropia":75,"pct_agricultura":25,"pct_comercio":0,"pct_manufactura":25,"pct_construccion":0,"pct_transporte":50,"pct_alojamiento":0,"pct_educ_superior":11,"brecha_educ":5,"pct_sin_seguro":13,"pct_seguro_privado":0,"brecha_seguro":-2,"pct_med_tradicional":13,"pct_automedicacion":24,"pct_remedios_caseros":18,"pct_viv_desocupada":0,"pct_alquiler":14,"pct_electricidad":43,"pct_agua_red":86,"pct_alcantarillado":0,"pct_gas_red":0,"pct_gas_garrafa":86,"pct_lena_guano":100,"pct_basura_formal":14,"pct_basura_quema":71,"pct_basura_informal":0,"pct_internet":86,"pct_celular":100,"pct_televisor":29}},{"type":"Feature","geometry":{"type":"Polygon","coordinates":[[[-69.4454,-17.59144],[-69.44545,-17.59184],[-69.44589,-17.59179],[-69.44584,-17.59138],[-69.4454,-17.59144]]]},"properties":{"n":"CHARAÑA","p":21,"personas_x_ha":98,"masculinidad":62,"pct_menor20":19,"pct_60mas":38,"pct_migrante":29,"dependencia_econ":62,"pct_empleados":0,"pct_cuentapropia":85,"pct_agricultura":31,"pct_comercio":62,"pct_manufactura":0,"pct_construccion":0,"pct_transporte":0,"pct_alojamiento":0,"pct_educ_superior":18,"brecha_educ":-3,"pct_sin_seguro":33,"pct_seguro_privado":0,"brecha_seguro":-13,"pct_med_tradicional":7,"pct_automedicacion":4,"pct_remedios_caseros":22,"pct_viv_desocupada":0,"pct_alquiler":0,"pct_electricidad":100,"pct_agua_red":100,"pct_alcantarillado":75,"pct_gas_red":0,"pct_gas_garrafa":88,"pct_lena_guano":88,"pct_basura_formal":38,"pct_basura_quema":38,"pct_basura_informal":25,"pct_internet":88,"pct_celular":88,"pct_televisor":50}},{"type":"Feature","geometry":{"type":"Polygon","coordinates":[[[-69.44531,-17.59186],[-69.44525,-17.59145],[-69.44482,-17.59151],[-69.44488,-17.59192],[-69.44531,-17.59186]]]},"properties":{"n":"CHARAÑA","p":16,"personas_x_ha":75,"masculinidad":220,"pct_menor20":31,"pct_60mas":0,"pct_migrante":6,"dependencia_econ":100,"pct_empleados":12,"pct_cuentapropia":75,"pct_agricultura":12,"pct_comercio":50,"pct_manufactura":12,"pct_construccion":0,"pct_transporte":12,"pct_alojamiento":0,"pct_educ_superior":27,"brecha_educ":0,"pct_sin_seguro":50,"pct_seguro_privado":0,"brecha_seguro":15,"pct_med_tradicional":20,"pct_automedicacion":17,"pct_remedios_caseros":17,"pct_viv_desocupada":0,"pct_alquiler":0,"pct_electricidad":100,"pct_agua_red":100,"pct_alcantarillado":100,"pct_gas_red":0,"pct_gas_garrafa":100,"pct_lena_guano":100,"pct_basura_formal":100,"pct_basura_quema":0,"pct_basura_informal":0,"pct_internet":80,"pct_celular":100,"pct_televisor":80}},{"type":"Feature","geometry":{"type":"Polygon","coordinates":[[[-69.44638,-17.59117],[-69.44632,-17.59071],[-69.4459,-17.59077],[-69.44596,-17.59123],[-69.44638,-17.59117]]]},"properties":{"n":"CHARAÑA","p":18,"personas_x_ha":77,"masculinidad":29,"pct_menor20":44,"pct_60mas":6,"pct_migrante":22,"dependencia_econ":157,"pct_empleados":14,"pct_cuentapropia":71,"pct_agricultura":14,"pct_comercio":71,"pct_manufactura":0,"pct_construccion":0,"pct_transporte":14,"pct_alojamiento":0,"pct_educ_superior":36,"brecha_educ":-30,"pct_sin_seguro":44,"pct_seguro_privado":0,"brecha_seguro":-57,"pct_med_tradicional":11,"pct_automedicacion":20,"pct_remedios_caseros":18,"pct_viv_desocupada":0,"pct_alquiler":0,"pct_electricidad":86,"pct_agua_red":100,"pct_alcantarillado":86,"pct_gas_red":0,"pct_gas_garrafa":100,"pct_lena_guano":100,"pct_basura_formal":43,"pct_basura_quema":43,"pct_basura_informal":29,"pct_internet":57,"pct_celular":86,"pct_televisor":43}},{"type":"Feature","geometry":{"type":"Polygon","coordinates":[[[-69.44569,-17.59417],[-69.4456,-17.59361],[-69.44517,-17.59368],[-69.44526,-17.59422],[-69.44569,-17.59417]]]},"properties":{"n":"CHARAÑA","p":18,"personas_x_ha":63,"masculinidad":64,"pct_menor20":22,"pct_60mas":33,"pct_migrante":44,"dependencia_econ":64,"pct_empleados":27,"pct_cuentapropia":64,"pct_agricultura":9,"pct_comercio":36,"pct_manufactura":0,"pct_construccion":9,"pct_transporte":9,"pct_alojamiento":9,"pct_educ_superior":43,"brecha_educ":-24,"pct_sin_seguro":28,"pct_seguro_privado":0,"brecha_seguro":1,"pct_med_tradicional":6,"pct_automedicacion":14,"pct_remedios_caseros":42,"pct_viv_desocupada":0,"pct_alquiler":0,"pct_electricidad":71,"pct_agua_red":100,"pct_alcantarillado":71,"pct_gas_red":0,"pct_gas_garrafa":100,"pct_lena_guano":100,"pct_basura_formal":43,"pct_basura_quema":43,"pct_basura_informal":29,"pct_internet":86,"pct_celular":100,"pct_televisor":29}},{"type":"Feature","geometry":{"type":"Polygon","coordinates":[[[-69.44389,-17.59043],[-69.44346,-17.59049],[-69.44353,-17.59095],[-69.44397,-17.59089],[-69.44389,-17.59043]]]},"properties":{"n":"CHARAÑA","p":22,"personas_x_ha":91,"masculinidad":57,"pct_menor20":32,"pct_60mas":0,"pct_migrante":18,"dependencia_econ":175,"pct_empleados":12,"pct_cuentapropia":75,"pct_agricultura":25,"pct_comercio":0,"pct_manufactura":12,"pct_construccion":12,"pct_transporte":25,"pct_alojamiento":25,"pct_educ_superior":7,"brecha_educ":0,"pct_sin_seguro":27,"pct_seguro_privado":0,"brecha_seguro":-4,"pct_med_tradicional":20,"pct_automedicacion":12,"pct_remedios_caseros":31,"pct_viv_desocupada":0,"pct_alquiler":0,"pct_electricidad":88,"pct_agua_red":62,"pct_alcantarillado":88,"pct_gas_red":0,"pct_gas_garrafa":100,"pct_lena_guano":100,"pct_basura_formal":12,"pct_basura_quema":62,"pct_basura_informal":25,"pct_internet":62,"pct_celular":100,"pct_televisor":50}},{"type":"Feature","geometry":{"type":"Polygon","coordinates":[[[-69.44276,-17.5892],[-69.4427,-17.58875],[-69.44217,-17.58881],[-69.44222,-17.58912],[-69.44244,-17.58924],[-69.44276,-17.5892]]]},"properties":{"n":"CHARAÑA","p":28,"personas_x_ha":103,"masculinidad":75,"pct_menor20":64,"pct_60mas":0,"pct_migrante":4,"dependencia_econ":300,"pct_empleados":0,"pct_cuentapropia":57,"pct_agricultura":14,"pct_comercio":14,"pct_manufactura":0,"pct_construccion":43,"pct_transporte":14,"pct_alojamiento":0,"pct_educ_superior":10,"brecha_educ":-43,"pct_sin_seguro":0,"pct_seguro_privado":0,"brecha_seguro":0,"pct_med_tradicional":16,"pct_automedicacion":16,"pct_remedios_caseros":21,"pct_viv_desocupada":0,"pct_alquiler":0,"pct_electricidad":88,"pct_agua_red":100,"pct_alcantarillado":0,"pct_gas_red":0,"pct_gas_garrafa":100,"pct_lena_guano":100,"pct_basura_formal":0,"pct_basura_quema":100,"pct_basura_informal":0,"pct_internet":62,"pct_celular":100,"pct_televisor":88}},{"type":"Feature","geometry":{"type":"Polygon","coordinates":[[[-69.44883,-17.59413],[-69.44869,-17.59326],[-69.44813,-17.59332],[-69.44822,-17.59419],[-69.44883,-17.59413]]]},"properties":{"n":"CHARAÑA","p":15,"personas_x_ha":24,"masculinidad":200,"pct_menor20":33,"pct_60mas":0,"pct_migrante":87,"dependencia_econ":88,"pct_empleados":100,"pct_cuentapropia":0,"pct_agricultura":0,"pct_comercio":0,"pct_manufactura":0,"pct_construccion":0,"pct_transporte":25,"pct_alojamiento":0,"pct_educ_superior":73,"brecha_educ":12,"pct_sin_seguro":0,"pct_seguro_privado":0,"brecha_seguro":0,"pct_med_tradicional":6,"pct_automedicacion":16,"pct_remedios_caseros":13,"pct_viv_desocupada":14,"pct_alquiler":0,"pct_electricidad":100,"pct_agua_red":100,"pct_alcantarillado":0,"pct_gas_red":0,"pct_gas_garrafa":100,"pct_lena_guano":100,"pct_basura_formal":67,"pct_basura_quema":33,"pct_basura_informal":0,"pct_internet":100,"pct_celular":100,"pct_televisor":100}},{"type":"Feature","geometry":{"type":"Polygon","coordinates":[[[-69.44676,-17.59279],[-69.44725,-17.59272],[-69.44719,-17.59231],[-69.4467,-17.59237],[-69.44676,-17.59279]]]},"properties":{"n":"CHARAÑA","p":36,"personas_x_ha":146,"masculinidad":100,"pct_menor20":39,"pct_60mas":6,"pct_migrante":42,"dependencia_econ":100,"pct_empleados":0,"pct_cuentapropia":100,"pct_agricultura":6,"pct_comercio":17,"pct_manufactura":28,"pct_construccion":6,"pct_transporte":11,"pct_alojamiento":0,"pct_educ_superior":24,"brecha_educ":-15,"pct_sin_seguro":23,"pct_seguro_privado":0,"brecha_seguro":1,"pct_med_tradicional":20,"pct_automedicacion":15,"pct_remedios_caseros":27,"pct_viv_desocupada":0,"pct_alquiler":0,"pct_electricidad":85,"pct_agua_red":92,"pct_alcantarillado":77,"pct_gas_red":0,"pct_gas_garrafa":85,"pct_lena_guano":85,"pct_basura_formal":38,"pct_basura_quema":54,"pct_basura_informal":15,"pct_internet":92,"pct_celular":92,"pct_televisor":85}},{"type":"Feature","geometry":{"type":"Polygon","coordinates":[[[-69.44424,-17.59255],[-69.44417,-17.59214],[-69.44374,-17.5922],[-69.44381,-17.59261],[-69.44424,-17.59255]]]},"properties":{"n":"CHARAÑA","p":18,"personas_x_ha":84,"masculinidad":100,"pct_menor20":11,"pct_60mas":22,"pct_migrante":0,"dependencia_econ":240,"pct_empleados":0,"pct_cuentapropia":80,"pct_agricultura":80,"pct_comercio":80,"pct_manufactura":0,"pct_construccion":0,"pct_transporte":0,"pct_alojamiento":0,"pct_educ_superior":44,"brecha_educ":16,"pct_sin_seguro":29,"pct_seguro_privado":0,"brecha_seguro":50,"pct_med_tradicional":0,"pct_automedicacion":8,"pct_remedios_caseros":24,"pct_viv_desocupada":11,"pct_alquiler":0,"pct_electricidad":25,"pct_agua_red":100,"pct_alcantarillado":100,"pct_gas_red":0,"pct_gas_garrafa":25,"pct_lena_guano":25,"pct_basura_formal":0,"pct_basura_quema":100,"pct_basura_informal":0,"pct_internet":0,"pct_celular":50,"pct_televisor":0}},{"type":"Feature","geometry":{"type":"Polygon","coordinates":[[[-69.28458,-17.90196],[-69.2844,-17.90185],[-69.28421,-17.90224],[-69.28442,-17.90233],[-69.28458,-17.90196]]]},"properties":{"n":"COSAPA","p":19,"personas_x_ha":175,"masculinidad":73,"pct_menor20":47,"pct_60mas":5,"pct_migrante":26,"dependencia_econ":46,"pct_empleados":23,"pct_cuentapropia":69,"pct_agricultura":100,"pct_comercio":0,"pct_manufactura":0,"pct_construccion":0,"pct_transporte":0,"pct_alojamiento":0,"pct_educ_superior":0,"brecha_educ":-8,"pct_sin_seguro":100,"pct_seguro_privado":0,"brecha_seguro":0,"pct_med_tradicional":13,"pct_automedicacion":0,"pct_remedios_caseros":29,"pct_viv_desocupada":0,"pct_alquiler":0,"pct_electricidad":0,"pct_agua_red":0,"pct_alcantarillado":0,"pct_gas_red":0,"pct_gas_garrafa":0,"pct_lena_guano":0,"pct_basura_formal":0,"pct_basura_quema":100,"pct_basura_informal":0,"pct_internet":0,"pct_celular":60,"pct_televisor":0}},{"type":"Feature","geometry":{"type":"Polygon","coordinates":[[[-69.46763,-17.497],[-69.46759,-17.49628],[-69.46684,-17.49629],[-69.46686,-17.49702],[-69.46763,-17.497]]]},"properties":{"n":"TRIPARTITO","p":45,"personas_x_ha":69,"masculinidad":67,"pct_menor20":22,"pct_60mas":18,"pct_migrante":18,"dependencia_econ":55,"pct_empleados":3,"pct_cuentapropia":62,"pct_agricultura":66,"pct_comercio":14,"pct_manufactura":3,"pct_construccion":14,"pct_transporte":0,"pct_alojamiento":3,"pct_educ_superior":8,"brecha_educ":-16,"pct_sin_seguro":47,"pct_seguro_privado":0,"brecha_seguro":-4,"pct_med_tradicional":24,"pct_automedicacion":14,"pct_remedios_caseros":29,"pct_viv_desocupada":0,"pct_alquiler":17,"pct_electricidad":33,"pct_agua_red":25,"pct_alcantarillado":8,"pct_gas_red":0,"pct_gas_garrafa":92,"pct_lena_guano":92,"pct_basura_formal":17,"pct_basura_quema":67,"pct_basura_informal":0,"pct_internet":33,"pct_celular":92,"pct_televisor":17}},{"type":"Feature","geometry":{"type":"Polygon","coordinates":[[[-69.46685,-17.49471],[-69.46682,-17.49541],[-69.46759,-17.4954],[-69.46757,-17.4947],[-69.46685,-17.49471]]]},"properties":{"n":"TRIPARTITO","p":47,"personas_x_ha":74,"masculinidad":88,"pct_menor20":32,"pct_60mas":15,"pct_migrante":6,"dependencia_econ":84,"pct_empleados":4,"pct_cuentapropia":52,"pct_agricultura":92,"pct_comercio":8,"pct_manufactura":4,"pct_construccion":4,"pct_transporte":0,"pct_alojamiento":0,"pct_educ_superior":9,"brecha_educ":-6,"pct_sin_seguro":28,"pct_seguro_privado":0,"brecha_seguro":27,"pct_med_tradicional":24,"pct_automedicacion":10,"pct_remedios_caseros":26,"pct_viv_desocupada":0,"pct_alquiler":15,"pct_electricidad":75,"pct_agua_red":95,"pct_alcantarillado":0,"pct_gas_red":5,"pct_gas_garrafa":90,"pct_lena_guano":90,"pct_basura_formal":5,"pct_basura_quema":70,"pct_basura_informal":0,"pct_internet":60,"pct_celular":95,"pct_televisor":25}},{"type":"Feature","geometry":{"type":"Polygon","coordinates":[[[-69.46673,-17.49474],[-69.46603,-17.49472],[-69.46601,-17.49543],[-69.46673,-17.49541],[-69.46673,-17.49474]]]},"properties":{"n":"TRIPARTITO","p":44,"personas_x_ha":73,"masculinidad":91,"pct_menor20":43,"pct_60mas":14,"pct_migrante":25,"dependencia_econ":120,"pct_empleados":5,"pct_cuentapropia":85,"pct_agricultura":75,"pct_comercio":5,"pct_manufactura":25,"pct_construccion":10,"pct_transporte":0,"pct_alojamiento":0,"pct_educ_superior":21,"brecha_educ":-16,"pct_sin_seguro":16,"pct_seguro_privado":0,"brecha_seguro":-2,"pct_med_tradicional":23,"pct_automedicacion":21,"pct_remedios_caseros":25,"pct_viv_desocupada":6,"pct_alquiler":0,"pct_electricidad":60,"pct_agua_red":93,"pct_alcantarillado":0,"pct_gas_red":0,"pct_gas_garrafa":87,"pct_lena_guano":87,"pct_basura_formal":7,"pct_basura_quema":87,"pct_basura_informal":0,"pct_internet":87,"pct_celular":100,"pct_televisor":40}},{"type":"Feature","geometry":{"type":"Polygon","coordinates":[[[-69.4676,-17.49621],[-69.46759,-17.49549],[-69.46683,-17.49548],[-69.46684,-17.49621],[-69.4676,-17.49621]]]},"properties":{"n":"TRIPARTITO","p":41,"personas_x_ha":62,"masculinidad":41,"pct_menor20":12,"pct_60mas":32,"pct_migrante":15,"dependencia_econ":111,"pct_empleados":5,"pct_cuentapropia":84,"pct_agricultura":68,"pct_comercio":11,"pct_manufactura":21,"pct_construccion":0,"pct_transporte":5,"pct_alojamiento":5,"pct_educ_superior":22,"brecha_educ":-16,"pct_sin_seguro":20,"pct_seguro_privado":0,"brecha_seguro":7,"pct_med_tradicional":25,"pct_automedicacion":16,"pct_remedios_caseros":25,"pct_viv_desocupada":0,"pct_alquiler":5,"pct_electricidad":62,"pct_agua_red":67,"pct_alcantarillado":0,"pct_gas_red":0,"pct_gas_garrafa":76,"pct_lena_guano":76,"pct_basura_formal":5,"pct_basura_quema":90,"pct_basura_informal":10,"pct_internet":33,"pct_celular":52,"pct_televisor":10}},{"type":"Feature","geometry":{"type":"Polygon","coordinates":[[[-69.46676,-17.49701],[-69.46675,-17.49628],[-69.46602,-17.49629],[-69.46602,-17.497],[-69.46676,-17.49701]]]},"properties":{"n":"TRIPARTITO","p":32,"personas_x_ha":51,"masculinidad":113,"pct_menor20":28,"pct_60mas":19,"pct_migrante":41,"dependencia_econ":78,"pct_empleados":11,"pct_cuentapropia":61,"pct_agricultura":67,"pct_comercio":11,"pct_manufactura":6,"pct_construccion":0,"pct_transporte":0,"pct_alojamiento":11,"pct_educ_superior":21,"brecha_educ":-26,"pct_sin_seguro":29,"pct_seguro_privado":0,"brecha_seguro":43,"pct_med_tradicional":23,"pct_automedicacion":10,"pct_remedios_caseros":26,"pct_viv_desocupada":0,"pct_alquiler":0,"pct_electricidad":62,"pct_agua_red":25,"pct_alcantarillado":12,"pct_gas_red":0,"pct_gas_garrafa":75,"pct_lena_guano":75,"pct_basura_formal":0,"pct_basura_quema":62,"pct_basura_informal":0,"pct_internet":75,"pct_celular":100,"pct_televisor":25}},{"type":"Feature","geometry":{"type":"Polygon","coordinates":[[[-69.46592,-17.49543],[-69.4659,-17.49472],[-69.46514,-17.49473],[-69.46516,-17.49544],[-69.46592,-17.49543]]]},"properties":{"n":"TRIPARTITO","p":50,"personas_x_ha":78,"masculinidad":92,"pct_menor20":50,"pct_60mas":6,"pct_migrante":12,"dependencia_econ":150,"pct_empleados":10,"pct_cuentapropia":60,"pct_agricultura":55,"pct_comercio":15,"pct_manufactura":10,"pct_construccion":10,"pct_transporte":0,"pct_alojamiento":5,"pct_educ_superior":8,"brecha_educ":-19,"pct_sin_seguro":14,"pct_seguro_privado":0,"brecha_seguro":5,"pct_med_tradicional":26,"pct_automedicacion":6,"pct_remedios_caseros":31,"pct_viv_desocupada":0,"pct_alquiler":0,"pct_electricidad":63,"pct_agua_red":32,"pct_alcantarillado":11,"pct_gas_red":0,"pct_gas_garrafa":89,"pct_lena_guano":89,"pct_basura_formal":11,"pct_basura_quema":84,"pct_basura_informal":0,"pct_internet":84,"pct_celular":95,"pct_televisor":53}},{"type":"Feature","geometry":{"type":"Polygon","coordinates":[[[-69.46517,-17.49552],[-69.46517,-17.49622],[-69.46592,-17.49621],[-69.46592,-17.49552],[-69.46517,-17.49552]]]},"properties":{"n":"TRIPARTITO","p":47,"personas_x_ha":76,"masculinidad":68,"pct_menor20":32,"pct_60mas":6,"pct_migrante":28,"dependencia_econ":88,"pct_empleados":32,"pct_cuentapropia":68,"pct_agricultura":52,"pct_comercio":4,"pct_manufactura":12,"pct_construccion":24,"pct_transporte":8,"pct_alojamiento":4,"pct_educ_superior":3,"brecha_educ":-21,"pct_sin_seguro":22,"pct_seguro_privado":0,"brecha_seguro":-11,"pct_med_tradicional":20,"pct_automedicacion":18,"pct_remedios_caseros":31,"pct_viv_desocupada":0,"pct_alquiler":0,"pct_electricidad":62,"pct_agua_red":52,"pct_alcantarillado":0,"pct_gas_red":0,"pct_gas_garrafa":71,"pct_lena_guano":71,"pct_basura_formal":14,"pct_basura_quema":81,"pct_basura_informal":0,"pct_internet":81,"pct_celular":95,"pct_televisor":29}}]}