{"type":"FeatureCollection","features":[{"type":"Feature","geometry":{"type":"Polygon","coordinates":[[[-67.77524,-16.40834],[-67.77587,-16.40817],[-67.77585,-16.40801],[-67.77519,-16.40821],[-67.77524,-16.40834]]]},"properties":{"n":"CAMPAMENTO MINERO LA CHOJLLA","p":22,"personas_x_ha":191,"masculinidad":120,"pct_menor20":45,"pct_60mas":0,"pct_migrante":59,"dependencia_econ":144,"pct_empleados":33,"pct_cuentapropia":33,"pct_agricultura":22,"pct_comercio":11,"pct_manufactura":11,"pct_construccion":11,"pct_transporte":0,"pct_alojamiento":0,"pct_sin_educacion":0,"pct_educ_superior":7,"brecha_educ":50,"pct_sin_seguro":0,"pct_sus":95,"pct_seguro_privado":5,"brecha_seguro":0,"pct_salud_publica":71,"pct_med_tradicional":4,"pct_automedicacion":7,"pct_remedios_caseros":11,"pct_viv_desocupada":0,"pct_alquiler":0,"pct_electricidad":100,"pct_sin_electricidad":0,"pct_agua_red":86,"pct_alcantarillado":100,"pct_camara_septica":0,"pct_pozo_ciego":0,"pct_sin_desague":0,"pct_gas_red":0,"pct_gas_garrafa":100,"pct_lena_guano":100,"pct_basura_formal":100,"pct_basura_quema":0,"pct_basura_informal":0,"pct_internet":57,"pct_celular":86,"pct_televisor":71}},{"type":"Feature","geometry":{"type":"Polygon","coordinates":[[[-67.77597,-16.40609],[-67.77573,-16.4061],[-67.77544,-16.40588],[-67.77554,-16.40579],[-67.77579,-16.40598],[-67.77598,-16.40598],[-67.77597,-16.40609]]]},"properties":{"n":"CAMPAMENTO MINERO LA CHOJLLA","p":33,"personas_x_ha":382,"masculinidad":154,"pct_menor20":52,"pct_60mas":12,"pct_migrante":39,"dependencia_econ":158,"pct_empleados":8,"pct_cuentapropia":42,"pct_agricultura":8,"pct_comercio":33,"pct_manufactura":0,"pct_construccion":0,"pct_transporte":17,"pct_alojamiento":0,"pct_sin_educacion":0,"pct_educ_superior":13,"brecha_educ":0,"pct_sin_seguro":13,"pct_sus":55,"pct_seguro_privado":0,"brecha_seguro":-6,"pct_salud_publica":36,"pct_med_tradicional":8,"pct_automedicacion":5,"pct_remedios_caseros":12,"pct_viv_desocupada":0,"pct_alquiler":0,"pct_electricidad":89,"pct_sin_electricidad":0,"pct_agua_red":89,"pct_alcantarillado":100,"pct_camara_septica":0,"pct_pozo_ciego":0,"pct_sin_desague":0,"pct_gas_red":0,"pct_gas_garrafa":100,"pct_lena_guano":100,"pct_basura_formal":100,"pct_basura_quema":0,"pct_basura_informal":0,"pct_internet":78,"pct_celular":100,"pct_televisor":89}},{"type":"Feature","geometry":{"type":"Polygon","coordinates":[[[-67.77701,-16.40684],[-67.77666,-16.4066],[-67.77658,-16.4067],[-67.77693,-16.40695],[-67.77701,-16.40684]]]},"properties":{"n":"CAMPAMENTO MINERO LA CHOJLLA","p":41,"personas_x_ha":574,"masculinidad":116,"pct_menor20":32,"pct_60mas":5,"pct_migrante":46,"dependencia_econ":78,"pct_empleados":52,"pct_cuentapropia":35,"pct_agricultura":4,"pct_comercio":17,"pct_manufactura":4,"pct_construccion":0,"pct_transporte":0,"pct_alojamiento":0,"pct_sin_educacion":10,"pct_educ_superior":3,"brecha_educ":-42,"pct_sin_seguro":10,"pct_sus":71,"pct_seguro_privado":0,"brecha_seguro":-1,"pct_salud_publica":56,"pct_med_tradicional":0,"pct_automedicacion":7,"pct_remedios_caseros":11,"pct_viv_desocupada":0,"pct_alquiler":0,"pct_electricidad":50,"pct_sin_electricidad":0,"pct_agua_red":90,"pct_alcantarillado":95,"pct_camara_septica":0,"pct_pozo_ciego":5,"pct_sin_desague":0,"pct_gas_red":0,"pct_gas_garrafa":100,"pct_lena_guano":100,"pct_basura_formal":90,"pct_basura_quema":0,"pct_basura_informal":20,"pct_internet":85,"pct_celular":100,"pct_televisor":90}},{"type":"Feature","geometry":{"type":"Polygon","coordinates":[[[-67.77602,-16.40569],[-67.77576,-16.40556],[-67.77565,-16.4057],[-67.77591,-16.40587],[-67.77602,-16.40569]]]},"properties":{"n":"CAMPAMENTO MINERO LA CHOJLLA","p":34,"personas_x_ha":458,"masculinidad":62,"pct_menor20":44,"pct_60mas":6,"pct_migrante":32,"dependencia_econ":143,"pct_empleados":50,"pct_cuentapropia":43,"pct_agricultura":7,"pct_comercio":0,"pct_manufactura":7,"pct_construccion":0,"pct_transporte":0,"pct_alojamiento":7,"pct_sin_educacion":10,"pct_educ_superior":5,"brecha_educ":-20,"pct_sin_seguro":12,"pct_sus":67,"pct_seguro_privado":0,"brecha_seguro":-7,"pct_salud_publica":51,"pct_med_tradicional":3,"pct_automedicacion":10,"pct_remedios_caseros":21,"pct_viv_desocupada":7,"pct_alquiler":0,"pct_electricidad":62,"pct_sin_electricidad":0,"pct_agua_red":69,"pct_alcantarillado":100,"pct_camara_septica":0,"pct_pozo_ciego":0,"pct_sin_desague":0,"pct_gas_red":0,"pct_gas_garrafa":77,"pct_lena_guano":77,"pct_basura_formal":92,"pct_basura_quema":0,"pct_basura_informal":15,"pct_internet":85,"pct_celular":100,"pct_televisor":100}},{"type":"Feature","geometry":{"type":"Polygon","coordinates":[[[-67.77587,-16.40675],[-67.77541,-16.40672],[-67.77541,-16.40658],[-67.77578,-16.40659],[-67.77579,-16.40645],[-67.77608,-16.40646],[-67.77608,-16.40666],[-67.77587,-16.40675]]]},"properties":{"n":"CAMPAMENTO MINERO LA CHOJLLA","p":15,"personas_x_ha":93,"masculinidad":200,"pct_menor20":33,"pct_60mas":20,"pct_migrante":40,"dependencia_econ":50,"pct_empleados":80,"pct_cuentapropia":0,"pct_agricultura":40,"pct_comercio":0,"pct_manufactura":10,"pct_construccion":0,"pct_transporte":0,"pct_alojamiento":0,"pct_sin_educacion":18,"pct_educ_superior":27,"brecha_educ":-8,"pct_sin_seguro":8,"pct_sus":75,"pct_seguro_privado":0,"brecha_seguro":14,"pct_salud_publica":74,"pct_med_tradicional":0,"pct_automedicacion":5,"pct_remedios_caseros":5,"pct_viv_desocupada":0,"pct_alquiler":0,"pct_electricidad":78,"pct_sin_electricidad":0,"pct_agua_red":78,"pct_alcantarillado":100,"pct_camara_septica":0,"pct_pozo_ciego":0,"pct_sin_desague":0,"pct_gas_red":0,"pct_gas_garrafa":100,"pct_lena_guano":100,"pct_basura_formal":100,"pct_basura_quema":0,"pct_basura_informal":0,"pct_internet":33,"pct_celular":89,"pct_televisor":56}},{"type":"Feature","geometry":{"type":"Polygon","coordinates":[[[-67.77655,-16.40668],[-67.77613,-16.40658],[-67.77615,-16.4064],[-67.77654,-16.40648],[-67.77663,-16.40658],[-67.77655,-16.40668]]]},"properties":{"n":"CAMPAMENTO MINERO LA CHOJLLA","p":44,"personas_x_ha":413,"masculinidad":91,"pct_menor20":48,"pct_60mas":5,"pct_migrante":55,"dependencia_econ":91,"pct_empleados":17,"pct_cuentapropia":65,"pct_agricultura":26,"pct_comercio":13,"pct_manufactura":4,"pct_construccion":0,"pct_transporte":4,"pct_alojamiento":17,"pct_sin_educacion":0,"pct_educ_superior":17,"brecha_educ":-13,"pct_sin_seguro":2,"pct_sus":82,"pct_seguro_privado":0,"brecha_seguro":5,"pct_salud_publica":26,"pct_med_tradicional":14,"pct_automedicacion":16,"pct_remedios_caseros":14,"pct_viv_desocupada":0,"pct_alquiler":0,"pct_electricidad":50,"pct_sin_electricidad":0,"pct_agua_red":100,"pct_alcantarillado":100,"pct_camara_septica":0,"pct_pozo_ciego":0,"pct_sin_desague":0,"pct_gas_red":0,"pct_gas_garrafa":100,"pct_lena_guano":100,"pct_basura_formal":100,"pct_basura_quema":0,"pct_basura_informal":0,"pct_internet":93,"pct_celular":100,"pct_televisor":100}},{"type":"Feature","geometry":{"type":"Polygon","coordinates":[[[-67.77497,-16.40735],[-67.77468,-16.40707],[-67.77472,-16.40701],[-67.77506,-16.40726],[-67.77497,-16.40735]]]},"properties":{"n":"CAMPAMENTO MINERO LA CHOJLLA","p":20,"personas_x_ha":355,"masculinidad":122,"pct_menor20":35,"pct_60mas":20,"pct_migrante":55,"dependencia_econ":122,"pct_empleados":56,"pct_cuentapropia":22,"pct_agricultura":22,"pct_comercio":0,"pct_manufactura":0,"pct_construccion":22,"pct_transporte":0,"pct_alojamiento":0,"pct_sin_educacion":8,"pct_educ_superior":8,"brecha_educ":-28,"pct_sin_seguro":0,"pct_sus":88,"pct_seguro_privado":0,"brecha_seguro":0,"pct_salud_publica":61,"pct_med_tradicional":0,"pct_automedicacion":3,"pct_remedios_caseros":6,"pct_viv_desocupada":0,"pct_alquiler":11,"pct_electricidad":78,"pct_sin_electricidad":0,"pct_agua_red":89,"pct_alcantarillado":89,"pct_camara_septica":0,"pct_pozo_ciego":0,"pct_sin_desague":11,"pct_gas_red":0,"pct_gas_garrafa":100,"pct_lena_guano":100,"pct_basura_formal":89,"pct_basura_quema":0,"pct_basura_informal":0,"pct_internet":67,"pct_celular":78,"pct_televisor":100}},{"type":"Feature","geometry":{"type":"Polygon","coordinates":[[[-67.77574,-16.4079],[-67.77529,-16.40803],[-67.77525,-16.40798],[-67.77571,-16.40783],[-67.77574,-16.4079]]]},"properties":{"n":"CAMPAMENTO MINERO LA CHOJLLA","p":28,"personas_x_ha":567,"masculinidad":180,"pct_menor20":36,"pct_60mas":4,"pct_migrante":36,"dependencia_econ":87,"pct_empleados":60,"pct_cuentapropia":33,"pct_agricultura":0,"pct_comercio":7,"pct_manufactura":0,"pct_construccion":0,"pct_transporte":7,"pct_alojamiento":7,"pct_sin_educacion":0,"pct_educ_superior":0,"brecha_educ":-14,"pct_sin_seguro":7,"pct_sus":82,"pct_seguro_privado":0,"brecha_seguro":11,"pct_salud_publica":52,"pct_med_tradicional":4,"pct_automedicacion":4,"pct_remedios_caseros":33,"pct_viv_desocupada":17,"pct_alquiler":0,"pct_electricidad":93,"pct_sin_electricidad":0,"pct_agua_red":64,"pct_alcantarillado":100,"pct_camara_septica":0,"pct_pozo_ciego":0,"pct_sin_desague":0,"pct_gas_red":0,"pct_gas_garrafa":93,"pct_lena_guano":93,"pct_basura_formal":100,"pct_basura_quema":0,"pct_basura_informal":0,"pct_internet":93,"pct_celular":100,"pct_televisor":86}},{"type":"Feature","geometry":{"type":"Polygon","coordinates":[[[-67.77504,-16.40743],[-67.77492,-16.40732],[-67.77481,-16.4074],[-67.77492,-16.40754],[-67.77504,-16.40743]]]},"properties":{"n":"CAMPAMENTO MINERO LA CHOJLLA","p":24,"personas_x_ha":715,"masculinidad":100,"pct_menor20":46,"pct_60mas":4,"pct_migrante":42,"dependencia_econ":85,"pct_empleados":38,"pct_cuentapropia":54,"pct_agricultura":8,"pct_comercio":31,"pct_manufactura":8,"pct_construccion":0,"pct_transporte":0,"pct_alojamiento":0,"pct_sin_educacion":0,"pct_educ_superior":14,"brecha_educ":12,"pct_sin_seguro":0,"pct_sus":100,"pct_seguro_privado":0,"brecha_seguro":0,"pct_salud_publica":89,"pct_med_tradicional":0,"pct_automedicacion":0,"pct_remedios_caseros":0,"pct_viv_desocupada":0,"pct_alquiler":0,"pct_electricidad":100,"pct_sin_electricidad":0,"pct_agua_red":100,"pct_alcantarillado":100,"pct_camara_septica":0,"pct_pozo_ciego":0,"pct_sin_desague":0,"pct_gas_red":0,"pct_gas_garrafa":100,"pct_lena_guano":100,"pct_basura_formal":100,"pct_basura_quema":0,"pct_basura_informal":0,"pct_internet":75,"pct_celular":88,"pct_televisor":100}},{"type":"Feature","geometry":{"type":"Polygon","coordinates":[[[-67.77576,-16.40641],[-67.77545,-16.40634],[-67.77541,-16.40655],[-67.77575,-16.40656],[-67.77576,-16.40641]]]},"properties":{"n":"CAMPAMENTO MINERO LA CHOJLLA","p":38,"personas_x_ha":498,"masculinidad":100,"pct_menor20":45,"pct_60mas":3,"pct_migrante":55,"dependencia_econ":111,"pct_empleados":39,"pct_cuentapropia":44,"pct_agricultura":28,"pct_comercio":0,"pct_manufactura":0,"pct_construccion":0,"pct_transporte":0,"pct_alojamiento":6,"pct_sin_educacion":0,"pct_educ_superior":14,"brecha_educ":8,"pct_sin_seguro":8,"pct_sus":54,"pct_seguro_privado":0,"brecha_seguro":-5,"pct_salud_publica":26,"pct_med_tradicional":12,"pct_automedicacion":17,"pct_remedios_caseros":27,"pct_viv_desocupada":0,"pct_alquiler":0,"pct_electricidad":83,"pct_sin_electricidad":0,"pct_agua_red":100,"pct_alcantarillado":100,"pct_camara_septica":0,"pct_pozo_ciego":0,"pct_sin_desague":0,"pct_gas_red":0,"pct_gas_garrafa":94,"pct_lena_guano":94,"pct_basura_formal":100,"pct_basura_quema":0,"pct_basura_informal":0,"pct_internet":72,"pct_celular":89,"pct_televisor":94}},{"type":"Feature","geometry":{"type":"Polygon","coordinates":[[[-67.77605,-16.40747],[-67.77614,-16.40748],[-67.77607,-16.40821],[-67.77594,-16.40821],[-67.77595,-16.40778],[-67.77605,-16.40747]]]},"properties":{"n":"CAMPAMENTO MINERO LA CHOJLLA","p":23,"personas_x_ha":191,"masculinidad":64,"pct_menor20":43,"pct_60mas":0,"pct_migrante":57,"dependencia_econ":156,"pct_empleados":78,"pct_cuentapropia":22,"pct_agricultura":0,"pct_comercio":33,"pct_manufactura":11,"pct_construccion":0,"pct_transporte":0,"pct_alojamiento":0,"pct_sin_educacion":0,"pct_educ_superior":23,"brecha_educ":0,"pct_sin_seguro":0,"pct_sus":65,"pct_seguro_privado":0,"brecha_seguro":0,"pct_salud_publica":24,"pct_med_tradicional":10,"pct_automedicacion":13,"pct_remedios_caseros":26,"pct_viv_desocupada":46,"pct_alquiler":0,"pct_electricidad":100,"pct_sin_electricidad":0,"pct_agua_red":100,"pct_alcantarillado":88,"pct_camara_septica":12,"pct_pozo_ciego":0,"pct_sin_desague":0,"pct_gas_red":0,"pct_gas_garrafa":100,"pct_lena_guano":100,"pct_basura_formal":100,"pct_basura_quema":0,"pct_basura_informal":0,"pct_internet":100,"pct_celular":100,"pct_televisor":100}},{"type":"Feature","geometry":{"type":"Polygon","coordinates":[[[-67.77502,-16.406],[-67.7752,-16.40551],[-67.77524,-16.40483],[-67.77516,-16.40469],[-67.77494,-16.40459],[-67.77507,-16.40492],[-67.7748,-16.40549],[-67.77491,-16.40562],[-67.77489,-16.406],[-67.77502,-16.406]]]},"properties":{"n":"CAMPAMENTO MINERO LA CHOJLLA","p":17,"personas_x_ha":43,"masculinidad":1600,"pct_menor20":0,"pct_60mas":0,"pct_migrante":35,"dependencia_econ":21,"pct_empleados":29,"pct_cuentapropia":7,"pct_agricultura":29,"pct_comercio":0,"pct_manufactura":0,"pct_construccion":0,"pct_transporte":7,"pct_alojamiento":14,"pct_sin_educacion":0,"pct_educ_superior":18,"brecha_educ":-100,"pct_sin_seguro":6,"pct_sus":81,"pct_seguro_privado":0,"brecha_seguro":7,"pct_salud_publica":26,"pct_med_tradicional":16,"pct_automedicacion":2,"pct_remedios_caseros":16,"pct_viv_desocupada":0,"pct_alquiler":0,"pct_electricidad":100,"pct_sin_electricidad":0,"pct_agua_red":100,"pct_alcantarillado":94,"pct_camara_septica":0,"pct_pozo_ciego":6,"pct_sin_desague":0,"pct_gas_red":0,"pct_gas_garrafa":88,"pct_lena_guano":88,"pct_basura_formal":100,"pct_basura_quema":0,"pct_basura_informal":0,"pct_internet":94,"pct_celular":100,"pct_televisor":94}},{"type":"Feature","geometry":{"type":"Polygon","coordinates":[[[-67.77489,-16.40616],[-67.77501,-16.40623],[-67.77487,-16.40617],[-67.77471,-16.40643],[-67.77509,-16.40655],[-67.77517,-16.40643],[-67.77536,-16.4065],[-67.77539,-16.40627],[-67.77509,-16.4062],[-67.77501,-16.40605],[-67.77489,-16.40616]]]},"properties":{"n":"CAMPAMENTO MINERO LA CHOJLLA","p":25,"personas_x_ha":111,"masculinidad":108,"pct_menor20":36,"pct_60mas":16,"pct_migrante":56,"dependencia_econ":127,"pct_empleados":45,"pct_cuentapropia":55,"pct_agricultura":0,"pct_comercio":0,"pct_manufactura":27,"pct_construccion":0,"pct_transporte":0,"pct_alojamiento":18,"pct_sin_educacion":0,"pct_educ_superior":31,"brecha_educ":11,"pct_sin_seguro":0,"pct_sus":48,"pct_seguro_privado":0,"brecha_seguro":0,"pct_salud_publica":36,"pct_med_tradicional":12,"pct_automedicacion":15,"pct_remedios_caseros":25,"pct_viv_desocupada":8,"pct_alquiler":0,"pct_electricidad":73,"pct_sin_electricidad":0,"pct_agua_red":91,"pct_alcantarillado":100,"pct_camara_septica":0,"pct_pozo_ciego":0,"pct_sin_desague":0,"pct_gas_red":0,"pct_gas_garrafa":91,"pct_lena_guano":91,"pct_basura_formal":100,"pct_basura_quema":0,"pct_basura_informal":0,"pct_internet":73,"pct_celular":91,"pct_televisor":91}},{"type":"Feature","geometry":{"type":"Polygon","coordinates":[[[-67.77658,-16.40727],[-67.77706,-16.40775],[-67.77712,-16.40772],[-67.77702,-16.40736],[-67.77684,-16.40721],[-67.77654,-16.40707],[-67.77622,-16.40703],[-67.77622,-16.4071],[-67.77658,-16.40727]]]},"properties":{"n":"CAMPAMENTO MINERO LA CHOJLLA","p":60,"personas_x_ha":280,"masculinidad":107,"pct_menor20":40,"pct_60mas":7,"pct_migrante":33,"dependencia_econ":186,"pct_empleados":24,"pct_cuentapropia":71,"pct_agricultura":19,"pct_comercio":5,"pct_manufactura":0,"pct_construccion":0,"pct_transporte":0,"pct_alojamiento":10,"pct_sin_educacion":0,"pct_educ_superior":11,"brecha_educ":5,"pct_sin_seguro":12,"pct_sus":62,"pct_seguro_privado":0,"brecha_seguro":-4,"pct_salud_publica":31,"pct_med_tradicional":12,"pct_automedicacion":15,"pct_remedios_caseros":28,"pct_viv_desocupada":0,"pct_alquiler":4,"pct_electricidad":35,"pct_sin_electricidad":0,"pct_agua_red":100,"pct_alcantarillado":87,"pct_camara_septica":4,"pct_pozo_ciego":9,"pct_sin_desague":0,"pct_gas_red":0,"pct_gas_garrafa":100,"pct_lena_guano":100,"pct_basura_formal":87,"pct_basura_quema":9,"pct_basura_informal":9,"pct_internet":70,"pct_celular":100,"pct_televisor":96}},{"type":"Feature","geometry":{"type":"Polygon","coordinates":[[[-67.77544,-16.40779],[-67.77578,-16.40769],[-67.77576,-16.4076],[-67.77541,-16.40771],[-67.77544,-16.40779]]]},"properties":{"n":"CAMPAMENTO MINERO LA CHOJLLA","p":22,"personas_x_ha":553,"masculinidad":120,"pct_menor20":41,"pct_60mas":0,"pct_migrante":32,"dependencia_econ":100,"pct_empleados":10,"pct_cuentapropia":50,"pct_agricultura":30,"pct_comercio":10,"pct_manufactura":10,"pct_construccion":0,"pct_transporte":0,"pct_alojamiento":10,"pct_sin_educacion":0,"pct_educ_superior":8,"brecha_educ":0,"pct_sin_seguro":35,"pct_sus":65,"pct_seguro_privado":0,"brecha_seguro":3,"pct_salud_publica":49,"pct_med_tradicional":7,"pct_automedicacion":12,"pct_remedios_caseros":19,"pct_viv_desocupada":11,"pct_alquiler":0,"pct_electricidad":38,"pct_sin_electricidad":0,"pct_agua_red":100,"pct_alcantarillado":75,"pct_camara_septica":0,"pct_pozo_ciego":0,"pct_sin_desague":25,"pct_gas_red":0,"pct_gas_garrafa":100,"pct_lena_guano":100,"pct_basura_formal":100,"pct_basura_quema":0,"pct_basura_informal":0,"pct_internet":75,"pct_celular":100,"pct_televisor":100}},{"type":"Feature","geometry":{"type":"Polygon","coordinates":[[[-67.77658,-16.40733],[-67.7764,-16.40748],[-67.77703,-16.40827],[-67.77719,-16.40815],[-67.77658,-16.40733]]]},"properties":{"n":"CAMPAMENTO MINERO LA CHOJLLA","p":23,"personas_x_ha":79,"masculinidad":77,"pct_menor20":48,"pct_60mas":4,"pct_migrante":48,"dependencia_econ":109,"pct_empleados":82,"pct_cuentapropia":18,"pct_agricultura":0,"pct_comercio":18,"pct_manufactura":9,"pct_construccion":0,"pct_transporte":0,"pct_alojamiento":9,"pct_sin_educacion":0,"pct_educ_superior":17,"brecha_educ":0,"pct_sin_seguro":0,"pct_sus":26,"pct_seguro_privado":0,"brecha_seguro":0,"pct_salud_publica":23,"pct_med_tradicional":3,"pct_automedicacion":23,"pct_remedios_caseros":23,"pct_viv_desocupada":24,"pct_alquiler":0,"pct_electricidad":100,"pct_sin_electricidad":0,"pct_agua_red":100,"pct_alcantarillado":100,"pct_camara_septica":0,"pct_pozo_ciego":0,"pct_sin_desague":0,"pct_gas_red":0,"pct_gas_garrafa":100,"pct_lena_guano":100,"pct_basura_formal":100,"pct_basura_quema":0,"pct_basura_informal":0,"pct_internet":90,"pct_celular":100,"pct_televisor":100}},{"type":"Feature","geometry":{"type":"Polygon","coordinates":[[[-67.77554,-16.40743],[-67.77532,-16.40762],[-67.77537,-16.4077],[-67.77574,-16.40756],[-67.77554,-16.40743]]]},"properties":{"n":"CAMPAMENTO MINERO LA CHOJLLA","p":31,"personas_x_ha":477,"masculinidad":72,"pct_menor20":58,"pct_60mas":10,"pct_migrante":32,"dependencia_econ":343,"pct_empleados":43,"pct_cuentapropia":57,"pct_agricultura":0,"pct_comercio":0,"pct_manufactura":0,"pct_construccion":14,"pct_transporte":0,"pct_alojamiento":0,"pct_sin_educacion":0,"pct_educ_superior":7,"brecha_educ":-50,"pct_sin_seguro":0,"pct_sus":55,"pct_seguro_privado":0,"brecha_seguro":0,"pct_salud_publica":38,"pct_med_tradicional":6,"pct_automedicacion":6,"pct_remedios_caseros":16,"pct_viv_desocupada":0,"pct_alquiler":0,"pct_electricidad":78,"pct_sin_electricidad":0,"pct_agua_red":78,"pct_alcantarillado":78,"pct_camara_septica":0,"pct_pozo_ciego":0,"pct_sin_desague":22,"pct_gas_red":0,"pct_gas_garrafa":100,"pct_lena_guano":100,"pct_basura_formal":100,"pct_basura_quema":0,"pct_basura_informal":0,"pct_internet":78,"pct_celular":78,"pct_televisor":89}},{"type":"Feature","geometry":{"type":"Polygon","coordinates":[[[-67.77526,-16.40786],[-67.77578,-16.4077],[-67.77583,-16.40781],[-67.77528,-16.40794],[-67.77526,-16.40786]]]},"properties":{"n":"CAMPAMENTO MINERO LA CHOJLLA","p":29,"personas_x_ha":450,"masculinidad":123,"pct_menor20":38,"pct_60mas":7,"pct_migrante":21,"dependencia_econ":107,"pct_empleados":29,"pct_cuentapropia":57,"pct_agricultura":21,"pct_comercio":14,"pct_manufactura":0,"pct_construccion":7,"pct_transporte":0,"pct_alojamiento":0,"pct_sin_educacion":6,"pct_educ_superior":0,"brecha_educ":-3,"pct_sin_seguro":38,"pct_sus":28,"pct_seguro_privado":0,"brecha_seguro":-29,"pct_salud_publica":42,"pct_med_tradicional":2,"pct_automedicacion":13,"pct_remedios_caseros":27,"pct_viv_desocupada":28,"pct_alquiler":0,"pct_electricidad":92,"pct_sin_electricidad":0,"pct_agua_red":100,"pct_alcantarillado":100,"pct_camara_septica":0,"pct_pozo_ciego":0,"pct_sin_desague":0,"pct_gas_red":0,"pct_gas_garrafa":100,"pct_lena_guano":100,"pct_basura_formal":100,"pct_basura_quema":0,"pct_basura_informal":0,"pct_internet":92,"pct_celular":100,"pct_televisor":100}},{"type":"Feature","geometry":{"type":"Polygon","coordinates":[[[-67.77587,-16.40587],[-67.77578,-16.40596],[-67.77555,-16.40577],[-67.77562,-16.4057],[-67.77587,-16.40587]]]},"properties":{"n":"CAMPAMENTO MINERO LA CHOJLLA","p":15,"personas_x_ha":365,"masculinidad":50,"pct_menor20":47,"pct_60mas":0,"pct_migrante":13,"dependencia_econ":275,"pct_empleados":0,"pct_cuentapropia":75,"pct_agricultura":0,"pct_comercio":25,"pct_manufactura":0,"pct_construccion":0,"pct_transporte":25,"pct_alojamiento":0,"pct_sin_educacion":0,"pct_educ_superior":38,"brecha_educ":25,"pct_sin_seguro":29,"pct_sus":71,"pct_seguro_privado":0,"brecha_seguro":-5,"pct_salud_publica":61,"pct_med_tradicional":0,"pct_automedicacion":13,"pct_remedios_caseros":26,"pct_viv_desocupada":40,"pct_alquiler":0,"pct_electricidad":100,"pct_sin_electricidad":0,"pct_agua_red":75,"pct_alcantarillado":100,"pct_camara_septica":0,"pct_pozo_ciego":0,"pct_sin_desague":0,"pct_gas_red":0,"pct_gas_garrafa":100,"pct_lena_guano":100,"pct_basura_formal":75,"pct_basura_quema":25,"pct_basura_informal":0,"pct_internet":75,"pct_celular":100,"pct_televisor":100}},{"type":"Feature","geometry":{"type":"Polygon","coordinates":[[[-67.77485,-16.40558],[-67.77485,-16.40608],[-67.77471,-16.40608],[-67.77471,-16.40562],[-67.77477,-16.40552],[-67.77485,-16.40558]]]},"properties":{"n":"CAMPAMENTO MINERO LA CHOJLLA","p":22,"personas_x_ha":205,"masculinidad":267,"pct_menor20":36,"pct_60mas":0,"pct_migrante":73,"dependencia_econ":83,"pct_empleados":67,"pct_cuentapropia":33,"pct_agricultura":0,"pct_comercio":8,"pct_manufactura":8,"pct_construccion":8,"pct_transporte":0,"pct_alojamiento":0,"pct_sin_educacion":0,"pct_educ_superior":36,"brecha_educ":0,"pct_sin_seguro":0,"pct_sus":41,"pct_seguro_privado":0,"brecha_seguro":0,"pct_salud_publica":29,"pct_med_tradicional":12,"pct_automedicacion":4,"pct_remedios_caseros":21,"pct_viv_desocupada":0,"pct_alquiler":0,"pct_electricidad":60,"pct_sin_electricidad":0,"pct_agua_red":100,"pct_alcantarillado":100,"pct_camara_septica":0,"pct_pozo_ciego":0,"pct_sin_desague":0,"pct_gas_red":0,"pct_gas_garrafa":70,"pct_lena_guano":70,"pct_basura_formal":100,"pct_basura_quema":0,"pct_basura_informal":0,"pct_internet":100,"pct_celular":100,"pct_televisor":70}},{"type":"Feature","geometry":{"type":"Polygon","coordinates":[[[-67.67686,-16.40598],[-67.6772,-16.40577],[-67.67696,-16.40545],[-67.67597,-16.40638],[-67.67535,-16.4067],[-67.67532,-16.40698],[-67.67569,-16.40713],[-67.67599,-16.40692],[-67.67627,-16.40715],[-67.67683,-16.4065],[-67.67663,-16.40641],[-67.67686,-16.40598]]]},"properties":{"n":"VILLA ASPIAZU","p":21,"personas_x_ha":15,"masculinidad":133,"pct_menor20":10,"pct_60mas":38,"pct_migrante":43,"dependencia_econ":17,"pct_empleados":22,"pct_cuentapropia":67,"pct_agricultura":39,"pct_comercio":11,"pct_manufactura":6,"pct_construccion":6,"pct_transporte":0,"pct_alojamiento":0,"pct_sin_educacion":0,"pct_educ_superior":42,"brecha_educ":-13,"pct_sin_seguro":0,"pct_sus":95,"pct_seguro_privado":0,"brecha_seguro":0,"pct_salud_publica":27,"pct_med_tradicional":11,"pct_automedicacion":19,"pct_remedios_caseros":30,"pct_viv_desocupada":11,"pct_alquiler":0,"pct_electricidad":100,"pct_sin_electricidad":0,"pct_agua_red":100,"pct_alcantarillado":57,"pct_camara_septica":14,"pct_pozo_ciego":29,"pct_sin_desague":0,"pct_gas_red":0,"pct_gas_garrafa":71,"pct_lena_guano":71,"pct_basura_formal":0,"pct_basura_quema":43,"pct_basura_informal":86,"pct_internet":43,"pct_celular":86,"pct_televisor":71}},{"type":"Feature","geometry":{"type":"Polygon","coordinates":[[[-67.67002,-16.40634],[-67.67235,-16.40556],[-67.67289,-16.40557],[-67.67325,-16.40578],[-67.67294,-16.40586],[-67.67225,-16.40587],[-67.67161,-16.40623],[-67.67098,-16.4068],[-67.67027,-16.40723],[-67.67022,-16.40767],[-67.67,-16.4079],[-67.66994,-16.40814],[-67.66987,-16.40803],[-67.66994,-16.40752],[-67.66978,-16.40714],[-67.66979,-16.40698],[-67.66986,-16.40665],[-67.67002,-16.40649],[-67.67002,-16.40634]]]},"properties":{"n":"VILLA ASPIAZU","p":23,"personas_x_ha":9,"masculinidad":109,"pct_menor20":35,"pct_60mas":17,"pct_migrante":61,"dependencia_econ":28,"pct_empleados":0,"pct_cuentapropia":83,"pct_agricultura":94,"pct_comercio":0,"pct_manufactura":0,"pct_construccion":0,"pct_transporte":6,"pct_alojamiento":0,"pct_sin_educacion":6,"pct_educ_superior":0,"brecha_educ":5,"pct_sin_seguro":13,"pct_sus":83,"pct_seguro_privado":0,"brecha_seguro":-10,"pct_salud_publica":83,"pct_med_tradicional":0,"pct_automedicacion":0,"pct_remedios_caseros":8,"pct_viv_desocupada":0,"pct_alquiler":0,"pct_electricidad":100,"pct_sin_electricidad":0,"pct_agua_red":86,"pct_alcantarillado":0,"pct_camara_septica":14,"pct_pozo_ciego":71,"pct_sin_desague":14,"pct_gas_red":0,"pct_gas_garrafa":100,"pct_lena_guano":100,"pct_basura_formal":0,"pct_basura_quema":57,"pct_basura_informal":0,"pct_internet":14,"pct_celular":86,"pct_televisor":57}},{"type":"Feature","geometry":{"type":"Polygon","coordinates":[[[-67.6715,-16.40639],[-67.67154,-16.40648],[-67.6719,-16.40645],[-67.67151,-16.40651],[-67.67147,-16.40642],[-67.67036,-16.40731],[-67.67041,-16.40796],[-67.67072,-16.40805],[-67.67083,-16.40785],[-67.67156,-16.40769],[-67.6722,-16.40768],[-67.67211,-16.40728],[-67.6722,-16.40733],[-67.67224,-16.40768],[-67.67235,-16.40768],[-67.67324,-16.4076],[-67.67403,-16.40727],[-67.67426,-16.40715],[-67.67386,-16.40689],[-67.67428,-16.40714],[-67.67441,-16.40699],[-67.67456,-16.40637],[-67.67585,-16.40577],[-67.67616,-16.40544],[-67.6769,-16.40498],[-67.67734,-16.40447],[-67.67694,-16.40476],[-67.6762,-16.40495],[-67.67577,-16.40541],[-67.67554,-16.40551],[-67.6741,-16.40537],[-67.67314,-16.4059],[-67.67263,-16.40592],[-67.67264,-16.40674],[-67.67278,-16.40684],[-67.67262,-16.40675],[-67.67261,-16.40592],[-67.6722,-16.40596],[-67.6715,-16.40639]]]},"properties":{"n":"VILLA ASPIAZU","p":91,"personas_x_ha":10,"masculinidad":78,"pct_menor20":19,"pct_60mas":30,"pct_migrante":44,"dependencia_econ":47,"pct_empleados":18,"pct_cuentapropia":66,"pct_agricultura":60,"pct_comercio":8,"pct_manufactura":0,"pct_construccion":2,"pct_transporte":0,"pct_alojamiento":0,"pct_sin_educacion":4,"pct_educ_superior":53,"brecha_educ":5,"pct_sin_seguro":11,"pct_sus":66,"pct_seguro_privado":3,"brecha_seguro":12,"pct_salud_publica":24,"pct_med_tradicional":10,"pct_automedicacion":15,"pct_remedios_caseros":26,"pct_viv_desocupada":9,"pct_alquiler":0,"pct_electricidad":89,"pct_sin_electricidad":6,"pct_agua_red":92,"pct_alcantarillado":61,"pct_camara_septica":8,"pct_pozo_ciego":19,"pct_sin_desague":6,"pct_gas_red":0,"pct_gas_garrafa":94,"pct_lena_guano":94,"pct_basura_formal":11,"pct_basura_quema":36,"pct_basura_informal":89,"pct_internet":69,"pct_celular":89,"pct_televisor":53}},{"type":"Feature","geometry":{"type":"Polygon","coordinates":[[[-67.67441,-16.4071],[-67.67482,-16.40682],[-67.67514,-16.40674],[-67.67587,-16.40637],[-67.67653,-16.40568],[-67.67668,-16.40542],[-67.67663,-16.40527],[-67.67622,-16.40546],[-67.67578,-16.40588],[-67.67462,-16.40637],[-67.67441,-16.4071]]]},"properties":{"n":"VILLA ASPIAZU","p":49,"personas_x_ha":34,"masculinidad":88,"pct_menor20":29,"pct_60mas":31,"pct_migrante":53,"dependencia_econ":63,"pct_empleados":17,"pct_cuentapropia":63,"pct_agricultura":43,"pct_comercio":17,"pct_manufactura":7,"pct_construccion":0,"pct_transporte":3,"pct_alojamiento":3,"pct_sin_educacion":3,"pct_educ_superior":44,"brecha_educ":17,"pct_sin_seguro":4,"pct_sus":90,"pct_seguro_privado":2,"brecha_seguro":-8,"pct_salud_publica":28,"pct_med_tradicional":7,"pct_automedicacion":16,"pct_remedios_caseros":25,"pct_viv_desocupada":12,"pct_alquiler":5,"pct_electricidad":95,"pct_sin_electricidad":5,"pct_agua_red":100,"pct_alcantarillado":90,"pct_camara_septica":5,"pct_pozo_ciego":0,"pct_sin_desague":5,"pct_gas_red":0,"pct_gas_garrafa":100,"pct_lena_guano":100,"pct_basura_formal":5,"pct_basura_quema":20,"pct_basura_informal":140,"pct_internet":70,"pct_celular":90,"pct_televisor":70}},{"type":"Feature","geometry":{"type":"Polygon","coordinates":[[[-67.67425,-16.40782],[-67.67418,-16.40753],[-67.67399,-16.40755],[-67.67407,-16.40789],[-67.67425,-16.40782]]]},"properties":{"n":"VILLA ASPIAZU","p":24,"personas_x_ha":322,"masculinidad":118,"pct_menor20":12,"pct_60mas":25,"pct_migrante":54,"dependencia_econ":20,"pct_empleados":10,"pct_cuentapropia":80,"pct_agricultura":35,"pct_comercio":10,"pct_manufactura":0,"pct_construccion":0,"pct_transporte":5,"pct_alojamiento":0,"pct_sin_educacion":0,"pct_educ_superior":52,"brecha_educ":-3,"pct_sin_seguro":17,"pct_sus":61,"pct_seguro_privado":0,"brecha_seguro":-2,"pct_salud_publica":30,"pct_med_tradicional":9,"pct_automedicacion":15,"pct_remedios_caseros":31,"pct_viv_desocupada":0,"pct_alquiler":43,"pct_electricidad":100,"pct_sin_electricidad":0,"pct_agua_red":100,"pct_alcantarillado":100,"pct_camara_septica":0,"pct_pozo_ciego":0,"pct_sin_desague":0,"pct_gas_red":0,"pct_gas_garrafa":86,"pct_lena_guano":86,"pct_basura_formal":0,"pct_basura_quema":14,"pct_basura_informal":143,"pct_internet":57,"pct_celular":71,"pct_televisor":43}},{"type":"Feature","geometry":{"type":"Polygon","coordinates":[[[-67.67427,-16.40765],[-67.6743,-16.40784],[-67.6741,-16.40793],[-67.67423,-16.40813],[-67.67553,-16.40862],[-67.67559,-16.40773],[-67.67516,-16.40777],[-67.67427,-16.40765]]]},"properties":{"n":"VILLA ASPIAZU","p":15,"personas_x_ha":13,"masculinidad":88,"pct_menor20":13,"pct_60mas":47,"pct_migrante":53,"dependencia_econ":88,"pct_empleados":12,"pct_cuentapropia":88,"pct_agricultura":50,"pct_comercio":25,"pct_manufactura":0,"pct_construccion":0,"pct_transporte":12,"pct_alojamiento":0,"pct_sin_educacion":7,"pct_educ_superior":36,"brecha_educ":-43,"pct_sin_seguro":14,"pct_sus":64,"pct_seguro_privado":0,"brecha_seguro":4,"pct_salud_publica":25,"pct_med_tradicional":5,"pct_automedicacion":20,"pct_remedios_caseros":32,"pct_viv_desocupada":20,"pct_alquiler":0,"pct_electricidad":88,"pct_sin_electricidad":12,"pct_agua_red":100,"pct_alcantarillado":75,"pct_camara_septica":0,"pct_pozo_ciego":0,"pct_sin_desague":25,"pct_gas_red":0,"pct_gas_garrafa":75,"pct_lena_guano":75,"pct_basura_formal":0,"pct_basura_quema":25,"pct_basura_informal":125,"pct_internet":38,"pct_celular":100,"pct_televisor":50}},{"type":"Feature","geometry":{"type":"Polygon","coordinates":[[[-67.67514,-16.40766],[-67.67424,-16.40762],[-67.67409,-16.40728],[-67.67454,-16.40713],[-67.67492,-16.40682],[-67.67527,-16.40673],[-67.67525,-16.40699],[-67.67554,-16.40713],[-67.67547,-16.40742],[-67.67514,-16.40766]]]},"properties":{"n":"VILLA ASPIAZU","p":51,"personas_x_ha":53,"masculinidad":132,"pct_menor20":24,"pct_60mas":22,"pct_migrante":41,"dependencia_econ":65,"pct_empleados":19,"pct_cuentapropia":65,"pct_agricultura":48,"pct_comercio":10,"pct_manufactura":0,"pct_construccion":0,"pct_transporte":0,"pct_alojamiento":10,"pct_sin_educacion":2,"pct_educ_superior":25,"brecha_educ":-22,"pct_sin_seguro":25,"pct_sus":73,"pct_seguro_privado":0,"brecha_seguro":5,"pct_salud_publica":28,"pct_med_tradicional":12,"pct_automedicacion":14,"pct_remedios_caseros":28,"pct_viv_desocupada":0,"pct_alquiler":25,"pct_electricidad":94,"pct_sin_electricidad":6,"pct_agua_red":94,"pct_alcantarillado":62,"pct_camara_septica":6,"pct_pozo_ciego":25,"pct_sin_desague":6,"pct_gas_red":0,"pct_gas_garrafa":81,"pct_lena_guano":81,"pct_basura_formal":12,"pct_basura_quema":31,"pct_basura_informal":112,"pct_internet":62,"pct_celular":75,"pct_televisor":62}},{"type":"Feature","geometry":{"type":"Polygon","coordinates":[[[-67.73519,-16.40079],[-67.73699,-16.39984],[-67.73689,-16.39957],[-67.73479,-16.40008],[-67.7338,-16.40041],[-67.73379,-16.40068],[-67.73386,-16.40077],[-67.7347,-16.40073],[-67.73519,-16.40079]]]},"properties":{"n":"YANACACHI","p":48,"personas_x_ha":22,"masculinidad":153,"pct_menor20":27,"pct_60mas":33,"pct_migrante":46,"dependencia_econ":100,"pct_empleados":62,"pct_cuentapropia":29,"pct_agricultura":29,"pct_comercio":8,"pct_manufactura":12,"pct_construccion":0,"pct_transporte":0,"pct_alojamiento":4,"pct_sin_educacion":0,"pct_educ_superior":55,"brecha_educ":-8,"pct_sin_seguro":8,"pct_sus":52,"pct_seguro_privado":12,"brecha_seguro":5,"pct_salud_publica":24,"pct_med_tradicional":8,"pct_automedicacion":11,"pct_remedios_caseros":17,"pct_viv_desocupada":0,"pct_alquiler":0,"pct_electricidad":89,"pct_sin_electricidad":5,"pct_agua_red":100,"pct_alcantarillado":89,"pct_camara_septica":11,"pct_pozo_ciego":0,"pct_sin_desague":0,"pct_gas_red":0,"pct_gas_garrafa":95,"pct_lena_guano":95,"pct_basura_formal":63,"pct_basura_quema":0,"pct_basura_informal":63,"pct_internet":68,"pct_celular":74,"pct_televisor":58}},{"type":"Feature","geometry":{"type":"Polygon","coordinates":[[[-67.74336,-16.39813],[-67.74403,-16.39706],[-67.74383,-16.39692],[-67.74357,-16.39712],[-67.74322,-16.39793],[-67.74336,-16.39813]]]},"properties":{"n":"YANACACHI","p":17,"personas_x_ha":42,"masculinidad":143,"pct_menor20":18,"pct_60mas":18,"pct_migrante":53,"dependencia_econ":70,"pct_empleados":10,"pct_cuentapropia":70,"pct_agricultura":30,"pct_comercio":20,"pct_manufactura":10,"pct_construccion":0,"pct_transporte":30,"pct_alojamiento":0,"pct_sin_educacion":13,"pct_educ_superior":13,"brecha_educ":10,"pct_sin_seguro":18,"pct_sus":82,"pct_seguro_privado":0,"brecha_seguro":-19,"pct_salud_publica":33,"pct_med_tradicional":12,"pct_automedicacion":22,"pct_remedios_caseros":29,"pct_viv_desocupada":30,"pct_alquiler":0,"pct_electricidad":100,"pct_sin_electricidad":0,"pct_agua_red":100,"pct_alcantarillado":14,"pct_camara_septica":0,"pct_pozo_ciego":86,"pct_sin_desague":0,"pct_gas_red":0,"pct_gas_garrafa":71,"pct_lena_guano":71,"pct_basura_formal":14,"pct_basura_quema":29,"pct_basura_informal":0,"pct_internet":29,"pct_celular":57,"pct_televisor":43}},{"type":"Feature","geometry":{"type":"Polygon","coordinates":[[[-67.74277,-16.39758],[-67.74056,-16.39686],[-67.74061,-16.3972],[-67.74045,-16.39724],[-67.74053,-16.39773],[-67.74169,-16.3976],[-67.74312,-16.39795],[-67.7435,-16.39716],[-67.74341,-16.39712],[-67.74303,-16.39751],[-67.74277,-16.39758]]]},"properties":{"n":"YANACACHI","p":20,"personas_x_ha":12,"masculinidad":150,"pct_menor20":20,"pct_60mas":20,"pct_migrante":55,"dependencia_econ":54,"pct_empleados":8,"pct_cuentapropia":77,"pct_agricultura":38,"pct_comercio":38,"pct_manufactura":0,"pct_construccion":8,"pct_transporte":0,"pct_alojamiento":0,"pct_sin_educacion":6,"pct_educ_superior":44,"brecha_educ":-6,"pct_sin_seguro":10,"pct_sus":80,"pct_seguro_privado":0,"brecha_seguro":17,"pct_salud_publica":31,"pct_med_tradicional":12,"pct_automedicacion":12,"pct_remedios_caseros":15,"pct_viv_desocupada":0,"pct_alquiler":30,"pct_electricidad":100,"pct_sin_electricidad":0,"pct_agua_red":100,"pct_alcantarillado":10,"pct_camara_septica":10,"pct_pozo_ciego":80,"pct_sin_desague":0,"pct_gas_red":0,"pct_gas_garrafa":100,"pct_lena_guano":100,"pct_basura_formal":20,"pct_basura_quema":40,"pct_basura_informal":0,"pct_internet":90,"pct_celular":100,"pct_televisor":100}},{"type":"Feature","geometry":{"type":"Polygon","coordinates":[[[-67.73902,-16.39917],[-67.73893,-16.39899],[-67.73875,-16.39902],[-67.73771,-16.39954],[-67.73696,-16.39968],[-67.73691,-16.39954],[-67.73736,-16.39939],[-67.73725,-16.39901],[-67.7377,-16.39889],[-67.73916,-16.39818],[-67.73998,-16.39793],[-67.74115,-16.39773],[-67.74123,-16.39827],[-67.74082,-16.39858],[-67.74058,-16.39868],[-67.73969,-16.39873],[-67.73965,-16.39899],[-67.73941,-16.39898],[-67.73902,-16.39917]]]},"properties":{"n":"YANACACHI","p":138,"personas_x_ha":39,"masculinidad":62,"pct_menor20":19,"pct_60mas":19,"pct_migrante":55,"dependencia_econ":44,"pct_empleados":27,"pct_cuentapropia":31,"pct_agricultura":32,"pct_comercio":17,"pct_manufactura":3,"pct_construccion":3,"pct_transporte":3,"pct_alojamiento":7,"pct_sin_educacion":18,"pct_educ_superior":35,"brecha_educ":12,"pct_sin_seguro":8,"pct_sus":68,"pct_seguro_privado":8,"brecha_seguro":-3,"pct_salud_publica":25,"pct_med_tradicional":12,"pct_automedicacion":15,"pct_remedios_caseros":24,"pct_viv_desocupada":4,"pct_alquiler":10,"pct_electricidad":96,"pct_sin_electricidad":4,"pct_agua_red":92,"pct_alcantarillado":72,"pct_camara_septica":10,"pct_pozo_ciego":12,"pct_sin_desague":6,"pct_gas_red":0,"pct_gas_garrafa":94,"pct_lena_guano":94,"pct_basura_formal":24,"pct_basura_quema":6,"pct_basura_informal":84,"pct_internet":78,"pct_celular":94,"pct_televisor":70}},{"type":"Feature","geometry":{"type":"Polygon","coordinates":[[[-67.73834,-16.39792],[-67.73807,-16.39831],[-67.73757,-16.3982],[-67.73739,-16.39807],[-67.73891,-16.39688],[-67.74004,-16.39643],[-67.74016,-16.39657],[-67.74026,-16.39673],[-67.73902,-16.39725],[-67.73834,-16.39792]]]},"properties":{"n":"YANACACHI","p":32,"personas_x_ha":21,"masculinidad":100,"pct_menor20":47,"pct_60mas":16,"pct_migrante":56,"dependencia_econ":72,"pct_empleados":6,"pct_cuentapropia":78,"pct_agricultura":17,"pct_comercio":22,"pct_manufactura":6,"pct_construccion":11,"pct_transporte":6,"pct_alojamiento":0,"pct_sin_educacion":0,"pct_educ_superior":53,"brecha_educ":0,"pct_sin_seguro":3,"pct_sus":55,"pct_seguro_privado":29,"brecha_seguro":6,"pct_salud_publica":23,"pct_med_tradicional":8,"pct_automedicacion":12,"pct_remedios_caseros":21,"pct_viv_desocupada":0,"pct_alquiler":15,"pct_electricidad":92,"pct_sin_electricidad":8,"pct_agua_red":92,"pct_alcantarillado":31,"pct_camara_septica":46,"pct_pozo_ciego":23,"pct_sin_desague":0,"pct_gas_red":0,"pct_gas_garrafa":85,"pct_lena_guano":85,"pct_basura_formal":8,"pct_basura_quema":23,"pct_basura_informal":0,"pct_internet":69,"pct_celular":85,"pct_televisor":62}},{"type":"Feature","geometry":{"type":"Polygon","coordinates":[[[-67.73886,-16.39746],[-67.74009,-16.39684],[-67.74048,-16.3968],[-67.7405,-16.39716],[-67.73959,-16.39743],[-67.73969,-16.39789],[-67.73812,-16.39862],[-67.73807,-16.39855],[-67.73814,-16.39833],[-67.73841,-16.39791],[-67.73886,-16.39746]]]},"properties":{"n":"YANACACHI","p":69,"personas_x_ha":40,"masculinidad":97,"pct_menor20":30,"pct_60mas":7,"pct_migrante":57,"dependencia_econ":97,"pct_empleados":43,"pct_cuentapropia":49,"pct_agricultura":17,"pct_comercio":20,"pct_manufactura":0,"pct_construccion":11,"pct_transporte":6,"pct_alojamiento":9,"pct_sin_educacion":0,"pct_educ_superior":52,"brecha_educ":-3,"pct_sin_seguro":10,"pct_sus":78,"pct_seguro_privado":0,"brecha_seguro":4,"pct_salud_publica":32,"pct_med_tradicional":16,"pct_automedicacion":12,"pct_remedios_caseros":22,"pct_viv_desocupada":0,"pct_alquiler":10,"pct_electricidad":93,"pct_sin_electricidad":3,"pct_agua_red":80,"pct_alcantarillado":67,"pct_camara_septica":0,"pct_pozo_ciego":27,"pct_sin_desague":7,"pct_gas_red":0,"pct_gas_garrafa":97,"pct_lena_guano":97,"pct_basura_formal":27,"pct_basura_quema":13,"pct_basura_informal":93,"pct_internet":77,"pct_celular":87,"pct_televisor":57}},{"type":"Feature","geometry":{"type":"Polygon","coordinates":[[[-67.73382,-16.40035],[-67.73588,-16.39974],[-67.7358,-16.39933],[-67.7354,-16.39938],[-67.73514,-16.39932],[-67.73415,-16.39974],[-67.73396,-16.39993],[-67.73381,-16.40021],[-67.73382,-16.40035]]]},"properties":{"n":"YANACACHI","p":26,"personas_x_ha":22,"masculinidad":117,"pct_menor20":8,"pct_60mas":38,"pct_migrante":35,"dependencia_econ":53,"pct_empleados":12,"pct_cuentapropia":71,"pct_agricultura":41,"pct_comercio":41,"pct_manufactura":6,"pct_construccion":6,"pct_transporte":0,"pct_alojamiento":6,"pct_sin_educacion":17,"pct_educ_superior":25,"brecha_educ":-8,"pct_sin_seguro":27,"pct_sus":42,"pct_seguro_privado":0,"brecha_seguro":4,"pct_salud_publica":24,"pct_med_tradicional":11,"pct_automedicacion":17,"pct_remedios_caseros":27,"pct_viv_desocupada":0,"pct_alquiler":0,"pct_electricidad":77,"pct_sin_electricidad":23,"pct_agua_red":85,"pct_alcantarillado":69,"pct_camara_septica":8,"pct_pozo_ciego":8,"pct_sin_desague":15,"pct_gas_red":0,"pct_gas_garrafa":85,"pct_lena_guano":92,"pct_basura_formal":46,"pct_basura_quema":46,"pct_basura_informal":0,"pct_internet":77,"pct_celular":100,"pct_televisor":54}},{"type":"Feature","geometry":{"type":"Polygon","coordinates":[[[-67.7432,-16.39806],[-67.74176,-16.39767],[-67.74123,-16.39773],[-67.74133,-16.39806],[-67.74223,-16.39797],[-67.74322,-16.39818],[-67.7432,-16.39806]]]},"properties":{"n":"YANACACHI","p":19,"personas_x_ha":35,"masculinidad":73,"pct_menor20":47,"pct_60mas":5,"pct_migrante":58,"dependencia_econ":467,"pct_empleados":33,"pct_cuentapropia":67,"pct_agricultura":33,"pct_comercio":0,"pct_manufactura":33,"pct_construccion":33,"pct_transporte":0,"pct_alojamiento":0,"pct_sin_educacion":0,"pct_educ_superior":40,"brecha_educ":19,"pct_sin_seguro":41,"pct_sus":59,"pct_seguro_privado":0,"brecha_seguro":3,"pct_salud_publica":78,"pct_med_tradicional":4,"pct_automedicacion":0,"pct_remedios_caseros":9,"pct_viv_desocupada":0,"pct_alquiler":43,"pct_electricidad":100,"pct_sin_electricidad":0,"pct_agua_red":86,"pct_alcantarillado":43,"pct_camara_septica":14,"pct_pozo_ciego":29,"pct_sin_desague":0,"pct_gas_red":0,"pct_gas_garrafa":100,"pct_lena_guano":100,"pct_basura_formal":0,"pct_basura_quema":14,"pct_basura_informal":114,"pct_internet":100,"pct_celular":100,"pct_televisor":100}},{"type":"Feature","geometry":{"type":"Polygon","coordinates":[[[-67.73413,-16.39962],[-67.73381,-16.40005],[-67.73373,-16.40004],[-67.73397,-16.39923],[-67.73369,-16.39892],[-67.73368,-16.39879],[-67.73427,-16.39806],[-67.73471,-16.39781],[-67.73529,-16.3977],[-67.73542,-16.39749],[-67.73592,-16.3975],[-67.73592,-16.39778],[-67.73737,-16.39736],[-67.73757,-16.3976],[-67.73726,-16.39786],[-67.7372,-16.39804],[-67.73752,-16.39823],[-67.73805,-16.39839],[-67.73798,-16.39872],[-67.73723,-16.39896],[-67.73575,-16.39928],[-67.73536,-16.3993],[-67.73522,-16.39921],[-67.73481,-16.39944],[-67.73413,-16.39962]]]},"properties":{"n":"YANACACHI","p":93,"personas_x_ha":13,"masculinidad":107,"pct_menor20":22,"pct_60mas":29,"pct_migrante":59,"dependencia_econ":66,"pct_empleados":29,"pct_cuentapropia":55,"pct_agricultura":9,"pct_comercio":7,"pct_manufactura":7,"pct_construccion":16,"pct_transporte":5,"pct_alojamiento":11,"pct_sin_educacion":0,"pct_educ_superior":41,"brecha_educ":-9,"pct_sin_seguro":11,"pct_sus":52,"pct_seguro_privado":0,"brecha_seguro":-6,"pct_salud_publica":26,"pct_med_tradicional":12,"pct_automedicacion":15,"pct_remedios_caseros":24,"pct_viv_desocupada":0,"pct_alquiler":12,"pct_electricidad":95,"pct_sin_electricidad":5,"pct_agua_red":93,"pct_alcantarillado":67,"pct_camara_septica":9,"pct_pozo_ciego":21,"pct_sin_desague":2,"pct_gas_red":0,"pct_gas_garrafa":93,"pct_lena_guano":93,"pct_basura_formal":51,"pct_basura_quema":12,"pct_basura_informal":37,"pct_internet":65,"pct_celular":86,"pct_televisor":56}}]}