{"type":"FeatureCollection","features":[{"type":"Feature","geometry":{"type":"Polygon","coordinates":[[[-67.56037,-16.81978],[-67.56052,-16.81982],[-67.56046,-16.8195],[-67.56044,-16.81944],[-67.56031,-16.81947],[-67.56043,-16.81942],[-67.56011,-16.81896],[-67.55988,-16.81908],[-67.55989,-16.81973],[-67.56026,-16.82041],[-67.56037,-16.82042],[-67.56042,-16.82011],[-67.56055,-16.81996],[-67.56053,-16.81986],[-67.56037,-16.81978]]]},"properties":{"n":"ASIENTO ARACA","p":96,"personas_x_ha":139,"masculinidad":109,"pct_menor20":33,"pct_60mas":14,"pct_migrante":36,"dependencia_econ":60,"pct_empleados":13,"pct_cuentapropia":73,"pct_agricultura":55,"pct_comercio":7,"pct_manufactura":5,"pct_construccion":2,"pct_transporte":3,"pct_alojamiento":0,"pct_sin_educacion":9,"pct_educ_superior":15,"brecha_educ":-30,"pct_sin_seguro":16,"pct_sus":82,"pct_seguro_privado":0,"brecha_seguro":-3,"pct_salud_publica":47,"pct_med_tradicional":8,"pct_automedicacion":8,"pct_remedios_caseros":29,"pct_viv_desocupada":0,"pct_alquiler":7,"pct_electricidad":96,"pct_sin_electricidad":2,"pct_agua_red":65,"pct_alcantarillado":2,"pct_camara_septica":0,"pct_pozo_ciego":70,"pct_sin_desague":28,"pct_gas_red":7,"pct_gas_garrafa":80,"pct_lena_guano":80,"pct_basura_formal":93,"pct_basura_quema":4,"pct_basura_informal":0,"pct_internet":65,"pct_celular":91,"pct_televisor":83}},{"type":"Feature","geometry":{"type":"Polygon","coordinates":[[[-67.56084,-16.82204],[-67.56045,-16.82231],[-67.56048,-16.82257],[-67.56077,-16.82264],[-67.56113,-16.8225],[-67.56114,-16.82202],[-67.56103,-16.82186],[-67.56064,-16.82171],[-67.56059,-16.82174],[-67.56084,-16.82204]]]},"properties":{"n":"ASIENTO ARACA","p":29,"personas_x_ha":61,"masculinidad":123,"pct_menor20":24,"pct_60mas":17,"pct_migrante":34,"dependencia_econ":71,"pct_empleados":6,"pct_cuentapropia":94,"pct_agricultura":24,"pct_comercio":18,"pct_manufactura":6,"pct_construccion":6,"pct_transporte":24,"pct_alojamiento":0,"pct_sin_educacion":5,"pct_educ_superior":9,"brecha_educ":-5,"pct_sin_seguro":7,"pct_sus":93,"pct_seguro_privado":0,"brecha_seguro":-1,"pct_salud_publica":31,"pct_med_tradicional":14,"pct_automedicacion":15,"pct_remedios_caseros":28,"pct_viv_desocupada":0,"pct_alquiler":8,"pct_electricidad":85,"pct_sin_electricidad":8,"pct_agua_red":77,"pct_alcantarillado":15,"pct_camara_septica":8,"pct_pozo_ciego":15,"pct_sin_desague":62,"pct_gas_red":0,"pct_gas_garrafa":92,"pct_lena_guano":92,"pct_basura_formal":92,"pct_basura_quema":8,"pct_basura_informal":0,"pct_internet":46,"pct_celular":85,"pct_televisor":54}},{"type":"Feature","geometry":{"type":"Polygon","coordinates":[[[-67.5614,-16.82024],[-67.56112,-16.82013],[-67.56117,-16.82029],[-67.5609,-16.82102],[-67.56152,-16.82127],[-67.56157,-16.82067],[-67.56141,-16.82025],[-67.56129,-16.82031],[-67.5614,-16.82024]]]},"properties":{"n":"ASIENTO ARACA","p":30,"personas_x_ha":53,"masculinidad":114,"pct_menor20":27,"pct_60mas":30,"pct_migrante":33,"dependencia_econ":58,"pct_empleados":26,"pct_cuentapropia":58,"pct_agricultura":21,"pct_comercio":11,"pct_manufactura":5,"pct_construccion":0,"pct_transporte":5,"pct_alojamiento":0,"pct_sin_educacion":5,"pct_educ_superior":50,"brecha_educ":2,"pct_sin_seguro":7,"pct_sus":62,"pct_seguro_privado":0,"brecha_seguro":12,"pct_salud_publica":26,"pct_med_tradicional":14,"pct_automedicacion":14,"pct_remedios_caseros":23,"pct_viv_desocupada":7,"pct_alquiler":14,"pct_electricidad":93,"pct_sin_electricidad":0,"pct_agua_red":86,"pct_alcantarillado":21,"pct_camara_septica":14,"pct_pozo_ciego":57,"pct_sin_desague":0,"pct_gas_red":0,"pct_gas_garrafa":100,"pct_lena_guano":100,"pct_basura_formal":93,"pct_basura_quema":7,"pct_basura_informal":0,"pct_internet":86,"pct_celular":100,"pct_televisor":86}},{"type":"Feature","geometry":{"type":"Polygon","coordinates":[[[-67.56075,-16.8197],[-67.56052,-16.8196],[-67.56068,-16.82007],[-67.561,-16.82011],[-67.56075,-16.8197]]]},"properties":{"n":"ASIENTO ARACA","p":16,"personas_x_ha":112,"masculinidad":167,"pct_menor20":31,"pct_60mas":12,"pct_migrante":38,"dependencia_econ":129,"pct_empleados":0,"pct_cuentapropia":71,"pct_agricultura":57,"pct_comercio":0,"pct_manufactura":0,"pct_construccion":0,"pct_transporte":14,"pct_alojamiento":0,"pct_sin_educacion":9,"pct_educ_superior":18,"brecha_educ":33,"pct_sin_seguro":6,"pct_sus":94,"pct_seguro_privado":0,"brecha_seguro":-17,"pct_salud_publica":44,"pct_med_tradicional":11,"pct_automedicacion":8,"pct_remedios_caseros":31,"pct_viv_desocupada":0,"pct_alquiler":14,"pct_electricidad":100,"pct_sin_electricidad":0,"pct_agua_red":100,"pct_alcantarillado":0,"pct_camara_septica":0,"pct_pozo_ciego":71,"pct_sin_desague":29,"pct_gas_red":0,"pct_gas_garrafa":100,"pct_lena_guano":100,"pct_basura_formal":71,"pct_basura_quema":14,"pct_basura_informal":0,"pct_internet":43,"pct_celular":100,"pct_televisor":100}},{"type":"Feature","geometry":{"type":"Polygon","coordinates":[[[-67.56026,-16.82044],[-67.56022,-16.82069],[-67.56054,-16.82082],[-67.56059,-16.8205],[-67.56026,-16.82044]]]},"properties":{"n":"ASIENTO ARACA","p":28,"personas_x_ha":235,"masculinidad":133,"pct_menor20":39,"pct_60mas":18,"pct_migrante":57,"dependencia_econ":125,"pct_empleados":17,"pct_cuentapropia":58,"pct_agricultura":67,"pct_comercio":8,"pct_manufactura":0,"pct_construccion":0,"pct_transporte":0,"pct_alojamiento":0,"pct_sin_educacion":0,"pct_educ_superior":35,"brecha_educ":-51,"pct_sin_seguro":19,"pct_sus":74,"pct_seguro_privado":0,"brecha_seguro":-12,"pct_salud_publica":31,"pct_med_tradicional":15,"pct_automedicacion":9,"pct_remedios_caseros":26,"pct_viv_desocupada":0,"pct_alquiler":17,"pct_electricidad":92,"pct_sin_electricidad":0,"pct_agua_red":100,"pct_alcantarillado":8,"pct_camara_septica":8,"pct_pozo_ciego":75,"pct_sin_desague":8,"pct_gas_red":0,"pct_gas_garrafa":83,"pct_lena_guano":83,"pct_basura_formal":33,"pct_basura_quema":8,"pct_basura_informal":50,"pct_internet":67,"pct_celular":83,"pct_televisor":92}},{"type":"Feature","geometry":{"type":"Polygon","coordinates":[[[-67.56018,-16.82171],[-67.56003,-16.82172],[-67.56018,-16.8217],[-67.56005,-16.82117],[-67.56005,-16.82094],[-67.56016,-16.8207],[-67.55984,-16.82061],[-67.55976,-16.82075],[-67.55982,-16.82116],[-67.5597,-16.82144],[-67.5597,-16.82182],[-67.55937,-16.82226],[-67.55945,-16.82246],[-67.55983,-16.82254],[-67.56035,-16.82251],[-67.56042,-16.82227],[-67.56032,-16.82201],[-67.56013,-16.82203],[-67.56031,-16.82198],[-67.56018,-16.82171]]]},"properties":{"n":"ASIENTO ARACA","p":51,"personas_x_ha":43,"masculinidad":112,"pct_menor20":45,"pct_60mas":4,"pct_migrante":71,"dependencia_econ":85,"pct_empleados":33,"pct_cuentapropia":56,"pct_agricultura":52,"pct_comercio":19,"pct_manufactura":0,"pct_construccion":0,"pct_transporte":4,"pct_alojamiento":0,"pct_sin_educacion":4,"pct_educ_superior":4,"brecha_educ":-10,"pct_sin_seguro":14,"pct_sus":86,"pct_seguro_privado":0,"brecha_seguro":3,"pct_salud_publica":35,"pct_med_tradicional":8,"pct_automedicacion":14,"pct_remedios_caseros":35,"pct_viv_desocupada":0,"pct_alquiler":21,"pct_electricidad":100,"pct_sin_electricidad":0,"pct_agua_red":100,"pct_alcantarillado":16,"pct_camara_septica":0,"pct_pozo_ciego":79,"pct_sin_desague":5,"pct_gas_red":0,"pct_gas_garrafa":100,"pct_lena_guano":100,"pct_basura_formal":95,"pct_basura_quema":0,"pct_basura_informal":11,"pct_internet":68,"pct_celular":89,"pct_televisor":89}},{"type":"Feature","geometry":{"type":"Polygon","coordinates":[[[-67.55985,-16.82017],[-67.56007,-16.82003],[-67.56023,-16.82042],[-67.55999,-16.82056],[-67.55981,-16.82055],[-67.55974,-16.82075],[-67.55966,-16.82074],[-67.55955,-16.82045],[-67.55963,-16.82033],[-67.55954,-16.81994],[-67.55963,-16.81987],[-67.55968,-16.81996],[-67.55989,-16.81983],[-67.56007,-16.82002],[-67.55985,-16.82017]]]},"properties":{"n":"ASIENTO ARACA","p":22,"personas_x_ha":48,"masculinidad":144,"pct_menor20":32,"pct_60mas":14,"pct_migrante":45,"dependencia_econ":233,"pct_empleados":50,"pct_cuentapropia":50,"pct_agricultura":17,"pct_comercio":0,"pct_manufactura":0,"pct_construccion":17,"pct_transporte":0,"pct_alojamiento":0,"pct_sin_educacion":15,"pct_educ_superior":31,"brecha_educ":42,"pct_sin_seguro":0,"pct_sus":75,"pct_seguro_privado":0,"brecha_seguro":0,"pct_salud_publica":35,"pct_med_tradicional":18,"pct_automedicacion":7,"pct_remedios_caseros":18,"pct_viv_desocupada":7,"pct_alquiler":8,"pct_electricidad":100,"pct_sin_electricidad":0,"pct_agua_red":100,"pct_alcantarillado":31,"pct_camara_septica":0,"pct_pozo_ciego":62,"pct_sin_desague":8,"pct_gas_red":0,"pct_gas_garrafa":100,"pct_lena_guano":100,"pct_basura_formal":77,"pct_basura_quema":0,"pct_basura_informal":0,"pct_internet":62,"pct_celular":85,"pct_televisor":85}},{"type":"Feature","geometry":{"type":"Polygon","coordinates":[[[-67.56152,-16.82001],[-67.56149,-16.81949],[-67.56147,-16.81923],[-67.56119,-16.81936],[-67.56121,-16.82002],[-67.56141,-16.82017],[-67.56152,-16.82001]]]},"properties":{"n":"ASIENTO ARACA","p":30,"personas_x_ha":112,"masculinidad":76,"pct_menor20":47,"pct_60mas":3,"pct_migrante":70,"dependencia_econ":88,"pct_empleados":0,"pct_cuentapropia":75,"pct_agricultura":56,"pct_comercio":6,"pct_manufactura":6,"pct_construccion":0,"pct_transporte":0,"pct_alojamiento":0,"pct_sin_educacion":0,"pct_educ_superior":6,"brecha_educ":-11,"pct_sin_seguro":0,"pct_sus":83,"pct_seguro_privado":0,"brecha_seguro":0,"pct_salud_publica":32,"pct_med_tradicional":10,"pct_automedicacion":13,"pct_remedios_caseros":23,"pct_viv_desocupada":0,"pct_alquiler":10,"pct_electricidad":90,"pct_sin_electricidad":10,"pct_agua_red":70,"pct_alcantarillado":0,"pct_camara_septica":0,"pct_pozo_ciego":100,"pct_sin_desague":0,"pct_gas_red":0,"pct_gas_garrafa":90,"pct_lena_guano":90,"pct_basura_formal":70,"pct_basura_quema":30,"pct_basura_informal":0,"pct_internet":80,"pct_celular":100,"pct_televisor":100}},{"type":"Feature","geometry":{"type":"Polygon","coordinates":[[[-67.56106,-16.82019],[-67.56068,-16.82012],[-67.56062,-16.82047],[-67.56103,-16.82056],[-67.5611,-16.82037],[-67.56106,-16.82019]]]},"properties":{"n":"ASIENTO ARACA","p":21,"personas_x_ha":108,"masculinidad":133,"pct_menor20":24,"pct_60mas":24,"pct_migrante":71,"dependencia_econ":50,"pct_empleados":21,"pct_cuentapropia":64,"pct_agricultura":57,"pct_comercio":21,"pct_manufactura":0,"pct_construccion":0,"pct_transporte":14,"pct_alojamiento":0,"pct_sin_educacion":0,"pct_educ_superior":12,"brecha_educ":-7,"pct_sin_seguro":10,"pct_sus":76,"pct_seguro_privado":0,"brecha_seguro":17,"pct_salud_publica":26,"pct_med_tradicional":15,"pct_automedicacion":15,"pct_remedios_caseros":23,"pct_viv_desocupada":0,"pct_alquiler":0,"pct_electricidad":100,"pct_sin_electricidad":0,"pct_agua_red":89,"pct_alcantarillado":0,"pct_camara_septica":11,"pct_pozo_ciego":89,"pct_sin_desague":0,"pct_gas_red":0,"pct_gas_garrafa":100,"pct_lena_guano":100,"pct_basura_formal":89,"pct_basura_quema":0,"pct_basura_informal":22,"pct_internet":56,"pct_celular":100,"pct_televisor":100}},{"type":"Feature","geometry":{"type":"Polygon","coordinates":[[[-67.56059,-16.82045],[-67.56062,-16.82005],[-67.56058,-16.81999],[-67.56045,-16.82011],[-67.56044,-16.82044],[-67.56059,-16.82045]]]},"properties":{"n":"ASIENTO ARACA","p":31,"personas_x_ha":393,"masculinidad":82,"pct_menor20":39,"pct_60mas":13,"pct_migrante":45,"dependencia_econ":138,"pct_empleados":38,"pct_cuentapropia":62,"pct_agricultura":23,"pct_comercio":8,"pct_manufactura":15,"pct_construccion":0,"pct_transporte":8,"pct_alojamiento":0,"pct_sin_educacion":0,"pct_educ_superior":16,"brecha_educ":7,"pct_sin_seguro":0,"pct_sus":90,"pct_seguro_privado":6,"brecha_seguro":0,"pct_salud_publica":34,"pct_med_tradicional":0,"pct_automedicacion":19,"pct_remedios_caseros":43,"pct_viv_desocupada":0,"pct_alquiler":0,"pct_electricidad":100,"pct_sin_electricidad":0,"pct_agua_red":91,"pct_alcantarillado":0,"pct_camara_septica":0,"pct_pozo_ciego":82,"pct_sin_desague":9,"pct_gas_red":0,"pct_gas_garrafa":100,"pct_lena_guano":100,"pct_basura_formal":91,"pct_basura_quema":0,"pct_basura_informal":0,"pct_internet":45,"pct_celular":91,"pct_televisor":73}},{"type":"Feature","geometry":{"type":"Polygon","coordinates":[[[-67.56095,-16.81836],[-67.56028,-16.81864],[-67.56012,-16.8189],[-67.5603,-16.81912],[-67.56108,-16.81851],[-67.56095,-16.81836]]]},"properties":{"n":"ASIENTO ARACA","p":23,"personas_x_ha":61,"masculinidad":130,"pct_menor20":57,"pct_60mas":0,"pct_migrante":78,"dependencia_econ":283,"pct_empleados":33,"pct_cuentapropia":67,"pct_agricultura":0,"pct_comercio":33,"pct_manufactura":0,"pct_construccion":0,"pct_transporte":0,"pct_alojamiento":0,"pct_sin_educacion":0,"pct_educ_superior":10,"brecha_educ":-25,"pct_sin_seguro":13,"pct_sus":87,"pct_seguro_privado":0,"brecha_seguro":5,"pct_salud_publica":43,"pct_med_tradicional":2,"pct_automedicacion":11,"pct_remedios_caseros":43,"pct_viv_desocupada":0,"pct_alquiler":0,"pct_electricidad":100,"pct_sin_electricidad":0,"pct_agua_red":86,"pct_alcantarillado":29,"pct_camara_septica":0,"pct_pozo_ciego":71,"pct_sin_desague":0,"pct_gas_red":0,"pct_gas_garrafa":100,"pct_lena_guano":100,"pct_basura_formal":100,"pct_basura_quema":0,"pct_basura_informal":0,"pct_internet":71,"pct_celular":86,"pct_televisor":86}},{"type":"Feature","geometry":{"type":"Polygon","coordinates":[[[-67.56011,-16.8209],[-67.56023,-16.82173],[-67.5603,-16.82171],[-67.56027,-16.82159],[-67.56045,-16.82153],[-67.56041,-16.82122],[-67.56054,-16.82085],[-67.5602,-16.82071],[-67.56011,-16.8209]]]},"properties":{"n":"ASIENTO ARACA","p":41,"personas_x_ha":129,"masculinidad":193,"pct_menor20":22,"pct_60mas":7,"pct_migrante":44,"dependencia_econ":105,"pct_empleados":5,"pct_cuentapropia":70,"pct_agricultura":55,"pct_comercio":10,"pct_manufactura":5,"pct_construccion":5,"pct_transporte":5,"pct_alojamiento":0,"pct_sin_educacion":0,"pct_educ_superior":38,"brecha_educ":-7,"pct_sin_seguro":15,"pct_sus":83,"pct_seguro_privado":0,"brecha_seguro":11,"pct_salud_publica":59,"pct_med_tradicional":9,"pct_automedicacion":5,"pct_remedios_caseros":15,"pct_viv_desocupada":17,"pct_alquiler":17,"pct_electricidad":100,"pct_sin_electricidad":0,"pct_agua_red":94,"pct_alcantarillado":17,"pct_camara_septica":6,"pct_pozo_ciego":39,"pct_sin_desague":39,"pct_gas_red":0,"pct_gas_garrafa":94,"pct_lena_guano":94,"pct_basura_formal":89,"pct_basura_quema":11,"pct_basura_informal":0,"pct_internet":56,"pct_celular":78,"pct_televisor":78}},{"type":"Feature","geometry":{"type":"Polygon","coordinates":[[[-67.56115,-16.81997],[-67.5612,-16.81958],[-67.56114,-16.81945],[-67.56074,-16.81963],[-67.56096,-16.81989],[-67.56115,-16.81997]]]},"properties":{"n":"ASIENTO ARACA","p":34,"personas_x_ha":205,"masculinidad":143,"pct_menor20":47,"pct_60mas":0,"pct_migrante":41,"dependencia_econ":106,"pct_empleados":0,"pct_cuentapropia":94,"pct_agricultura":75,"pct_comercio":19,"pct_manufactura":0,"pct_construccion":0,"pct_transporte":0,"pct_alojamiento":0,"pct_sin_educacion":0,"pct_educ_superior":11,"brecha_educ":-22,"pct_sin_seguro":3,"pct_sus":97,"pct_seguro_privado":0,"brecha_seguro":5,"pct_salud_publica":35,"pct_med_tradicional":9,"pct_automedicacion":8,"pct_remedios_caseros":29,"pct_viv_desocupada":0,"pct_alquiler":0,"pct_electricidad":100,"pct_sin_electricidad":0,"pct_agua_red":58,"pct_alcantarillado":8,"pct_camara_septica":8,"pct_pozo_ciego":83,"pct_sin_desague":0,"pct_gas_red":0,"pct_gas_garrafa":92,"pct_lena_guano":92,"pct_basura_formal":92,"pct_basura_quema":8,"pct_basura_informal":0,"pct_internet":67,"pct_celular":92,"pct_televisor":83}},{"type":"Feature","geometry":{"type":"Polygon","coordinates":[[[-67.56111,-16.81922],[-67.5609,-16.8188],[-67.5613,-16.81859],[-67.56144,-16.81887],[-67.56143,-16.81904],[-67.56111,-16.81922]]]},"properties":{"n":"ASIENTO ARACA","p":24,"personas_x_ha":100,"masculinidad":100,"pct_menor20":50,"pct_60mas":4,"pct_migrante":33,"dependencia_econ":118,"pct_empleados":0,"pct_cuentapropia":55,"pct_agricultura":64,"pct_comercio":9,"pct_manufactura":0,"pct_construccion":0,"pct_transporte":0,"pct_alojamiento":0,"pct_sin_educacion":0,"pct_educ_superior":0,"brecha_educ":-18,"pct_sin_seguro":13,"pct_sus":87,"pct_seguro_privado":0,"brecha_seguro":10,"pct_salud_publica":33,"pct_med_tradicional":4,"pct_automedicacion":21,"pct_remedios_caseros":29,"pct_viv_desocupada":0,"pct_alquiler":0,"pct_electricidad":100,"pct_sin_electricidad":0,"pct_agua_red":75,"pct_alcantarillado":25,"pct_camara_septica":0,"pct_pozo_ciego":50,"pct_sin_desague":25,"pct_gas_red":0,"pct_gas_garrafa":75,"pct_lena_guano":75,"pct_basura_formal":75,"pct_basura_quema":0,"pct_basura_informal":50,"pct_internet":38,"pct_celular":50,"pct_televisor":62}},{"type":"Feature","geometry":{"type":"Polygon","coordinates":[[[-67.56057,-16.82091],[-67.56047,-16.8215],[-67.56072,-16.8217],[-67.56104,-16.82182],[-67.56127,-16.82236],[-67.56154,-16.82223],[-67.56153,-16.82204],[-67.56182,-16.82179],[-67.56152,-16.82159],[-67.56152,-16.82131],[-67.56057,-16.82091]]]},"properties":{"n":"ASIENTO ARACA","p":28,"personas_x_ha":26,"masculinidad":180,"pct_menor20":39,"pct_60mas":7,"pct_migrante":43,"dependencia_econ":155,"pct_empleados":18,"pct_cuentapropia":55,"pct_agricultura":27,"pct_comercio":9,"pct_manufactura":0,"pct_construccion":0,"pct_transporte":0,"pct_alojamiento":0,"pct_sin_educacion":0,"pct_educ_superior":11,"brecha_educ":11,"pct_sin_seguro":11,"pct_sus":85,"pct_seguro_privado":0,"brecha_seguro":18,"pct_salud_publica":51,"pct_med_tradicional":8,"pct_automedicacion":8,"pct_remedios_caseros":28,"pct_viv_desocupada":0,"pct_alquiler":20,"pct_electricidad":100,"pct_sin_electricidad":0,"pct_agua_red":90,"pct_alcantarillado":20,"pct_camara_septica":0,"pct_pozo_ciego":80,"pct_sin_desague":0,"pct_gas_red":0,"pct_gas_garrafa":90,"pct_lena_guano":90,"pct_basura_formal":90,"pct_basura_quema":10,"pct_basura_informal":0,"pct_internet":70,"pct_celular":70,"pct_televisor":80}},{"type":"Feature","geometry":{"type":"Polygon","coordinates":[[[-67.56077,-16.82204],[-67.56047,-16.82156],[-67.56032,-16.82161],[-67.56034,-16.82172],[-67.56023,-16.82179],[-67.56044,-16.82226],[-67.56066,-16.82218],[-67.56077,-16.82204]]]},"properties":{"n":"ASIENTO ARACA","p":54,"personas_x_ha":220,"masculinidad":93,"pct_menor20":31,"pct_60mas":11,"pct_migrante":30,"dependencia_econ":46,"pct_empleados":14,"pct_cuentapropia":59,"pct_agricultura":49,"pct_comercio":0,"pct_manufactura":19,"pct_construccion":0,"pct_transporte":0,"pct_alojamiento":8,"pct_sin_educacion":3,"pct_educ_superior":8,"brecha_educ":-21,"pct_sin_seguro":13,"pct_sus":87,"pct_seguro_privado":0,"brecha_seguro":-2,"pct_salud_publica":34,"pct_med_tradicional":16,"pct_automedicacion":13,"pct_remedios_caseros":27,"pct_viv_desocupada":0,"pct_alquiler":16,"pct_electricidad":100,"pct_sin_electricidad":0,"pct_agua_red":89,"pct_alcantarillado":32,"pct_camara_septica":5,"pct_pozo_ciego":63,"pct_sin_desague":0,"pct_gas_red":0,"pct_gas_garrafa":100,"pct_lena_guano":100,"pct_basura_formal":84,"pct_basura_quema":11,"pct_basura_informal":0,"pct_internet":74,"pct_celular":89,"pct_televisor":84}},{"type":"Feature","geometry":{"type":"Polygon","coordinates":[[[-67.53917,-16.90148],[-67.54001,-16.90075],[-67.54036,-16.90075],[-67.54089,-16.9011],[-67.54068,-16.9014],[-67.54051,-16.90238],[-67.54041,-16.90245],[-67.54035,-16.90236],[-67.54014,-16.90227],[-67.53993,-16.90228],[-67.54031,-16.90238],[-67.54012,-16.90348],[-67.53988,-16.90339],[-67.53995,-16.90327],[-67.53989,-16.90324],[-67.53987,-16.90338],[-67.53958,-16.90321],[-67.53959,-16.90286],[-67.53887,-16.90245],[-67.53916,-16.90183],[-67.53879,-16.90169],[-67.53917,-16.90148]]]},"properties":{"n":"CAIROMA","p":55,"personas_x_ha":15,"masculinidad":104,"pct_menor20":18,"pct_60mas":16,"pct_migrante":11,"dependencia_econ":41,"pct_empleados":0,"pct_cuentapropia":69,"pct_agricultura":46,"pct_comercio":28,"pct_manufactura":18,"pct_construccion":0,"pct_transporte":0,"pct_alojamiento":3,"pct_sin_educacion":4,"pct_educ_superior":11,"brecha_educ":-30,"pct_sin_seguro":21,"pct_sus":74,"pct_seguro_privado":0,"brecha_seguro":-5,"pct_salud_publica":56,"pct_med_tradicional":4,"pct_automedicacion":9,"pct_remedios_caseros":26,"pct_viv_desocupada":0,"pct_alquiler":6,"pct_electricidad":88,"pct_sin_electricidad":12,"pct_agua_red":62,"pct_alcantarillado":12,"pct_camara_septica":6,"pct_pozo_ciego":6,"pct_sin_desague":75,"pct_gas_red":0,"pct_gas_garrafa":100,"pct_lena_guano":100,"pct_basura_formal":50,"pct_basura_quema":38,"pct_basura_informal":0,"pct_internet":12,"pct_celular":62,"pct_televisor":69}},{"type":"Feature","geometry":{"type":"Polygon","coordinates":[[[-67.54115,-16.90551],[-67.54034,-16.90543],[-67.54032,-16.90516],[-67.54047,-16.90515],[-67.54048,-16.9053],[-67.5409,-16.90529],[-67.54089,-16.90515],[-67.54111,-16.90513],[-67.54115,-16.90551]]]},"properties":{"n":"CAIROMA","p":54,"personas_x_ha":231,"masculinidad":80,"pct_menor20":15,"pct_60mas":11,"pct_migrante":7,"dependencia_econ":17,"pct_empleados":2,"pct_cuentapropia":67,"pct_agricultura":59,"pct_comercio":26,"pct_manufactura":7,"pct_construccion":2,"pct_transporte":2,"pct_alojamiento":0,"pct_sin_educacion":2,"pct_educ_superior":7,"brecha_educ":-9,"pct_sin_seguro":40,"pct_sus":57,"pct_seguro_privado":0,"brecha_seguro":4,"pct_salud_publica":30,"pct_med_tradicional":19,"pct_automedicacion":19,"pct_remedios_caseros":21,"pct_viv_desocupada":23,"pct_alquiler":0,"pct_electricidad":95,"pct_sin_electricidad":5,"pct_agua_red":80,"pct_alcantarillado":35,"pct_camara_septica":0,"pct_pozo_ciego":0,"pct_sin_desague":60,"pct_gas_red":0,"pct_gas_garrafa":90,"pct_lena_guano":90,"pct_basura_formal":45,"pct_basura_quema":30,"pct_basura_informal":10,"pct_internet":35,"pct_celular":75,"pct_televisor":40}},{"type":"Feature","geometry":{"type":"Polygon","coordinates":[[[-67.54021,-16.90327],[-67.54077,-16.90342],[-67.54067,-16.9037],[-67.54047,-16.90391],[-67.54029,-16.90393],[-67.5398,-16.90364],[-67.54,-16.90369],[-67.54009,-16.90363],[-67.54021,-16.90327]]]},"properties":{"n":"CAIROMA","p":24,"personas_x_ha":59,"masculinidad":118,"pct_menor20":38,"pct_60mas":0,"pct_migrante":29,"dependencia_econ":50,"pct_empleados":0,"pct_cuentapropia":100,"pct_agricultura":31,"pct_comercio":56,"pct_manufactura":0,"pct_construccion":0,"pct_transporte":12,"pct_alojamiento":0,"pct_sin_educacion":0,"pct_educ_superior":20,"brecha_educ":-40,"pct_sin_seguro":30,"pct_sus":70,"pct_seguro_privado":0,"brecha_seguro":20,"pct_salud_publica":43,"pct_med_tradicional":0,"pct_automedicacion":2,"pct_remedios_caseros":55,"pct_viv_desocupada":0,"pct_alquiler":0,"pct_electricidad":100,"pct_sin_electricidad":0,"pct_agua_red":100,"pct_alcantarillado":0,"pct_camara_septica":29,"pct_pozo_ciego":14,"pct_sin_desague":57,"pct_gas_red":0,"pct_gas_garrafa":100,"pct_lena_guano":100,"pct_basura_formal":0,"pct_basura_quema":100,"pct_basura_informal":0,"pct_internet":71,"pct_celular":71,"pct_televisor":57}},{"type":"Feature","geometry":{"type":"Polygon","coordinates":[[[-67.54011,-16.90443],[-67.54038,-16.90404],[-67.53998,-16.90393],[-67.5399,-16.90398],[-67.53984,-16.90432],[-67.54011,-16.90443]]]},"properties":{"n":"CAIROMA","p":28,"personas_x_ha":136,"masculinidad":100,"pct_menor20":25,"pct_60mas":11,"pct_migrante":11,"dependencia_econ":40,"pct_empleados":0,"pct_cuentapropia":65,"pct_agricultura":35,"pct_comercio":35,"pct_manufactura":20,"pct_construccion":5,"pct_transporte":0,"pct_alojamiento":0,"pct_sin_educacion":5,"pct_educ_superior":14,"brecha_educ":-26,"pct_sin_seguro":15,"pct_sus":77,"pct_seguro_privado":0,"brecha_seguro":-15,"pct_salud_publica":34,"pct_med_tradicional":15,"pct_automedicacion":14,"pct_remedios_caseros":16,"pct_viv_desocupada":0,"pct_alquiler":0,"pct_electricidad":100,"pct_sin_electricidad":0,"pct_agua_red":75,"pct_alcantarillado":25,"pct_camara_septica":0,"pct_pozo_ciego":0,"pct_sin_desague":25,"pct_gas_red":0,"pct_gas_garrafa":100,"pct_lena_guano":100,"pct_basura_formal":50,"pct_basura_quema":50,"pct_basura_informal":0,"pct_internet":38,"pct_celular":75,"pct_televisor":75}},{"type":"Feature","geometry":{"type":"Polygon","coordinates":[[[-67.54064,-16.90443],[-67.54093,-16.90447],[-67.54106,-16.90438],[-67.54122,-16.90443],[-67.54145,-16.90434],[-67.54157,-16.90391],[-67.54153,-16.90377],[-67.54112,-16.90359],[-67.54081,-16.90359],[-67.54076,-16.90366],[-67.54085,-16.90367],[-67.54082,-16.90374],[-67.54074,-16.9037],[-67.54037,-16.90416],[-67.54057,-16.90427],[-67.54064,-16.90443]]]},"properties":{"n":"CAIROMA","p":37,"personas_x_ha":42,"masculinidad":118,"pct_menor20":27,"pct_60mas":14,"pct_migrante":5,"dependencia_econ":44,"pct_empleados":12,"pct_cuentapropia":84,"pct_agricultura":88,"pct_comercio":4,"pct_manufactura":4,"pct_construccion":0,"pct_transporte":0,"pct_alojamiento":0,"pct_sin_educacion":4,"pct_educ_superior":8,"brecha_educ":4,"pct_sin_seguro":11,"pct_sus":83,"pct_seguro_privado":0,"brecha_seguro":-1,"pct_salud_publica":32,"pct_med_tradicional":19,"pct_automedicacion":21,"pct_remedios_caseros":25,"pct_viv_desocupada":0,"pct_alquiler":8,"pct_electricidad":92,"pct_sin_electricidad":8,"pct_agua_red":67,"pct_alcantarillado":0,"pct_camara_septica":0,"pct_pozo_ciego":8,"pct_sin_desague":92,"pct_gas_red":0,"pct_gas_garrafa":92,"pct_lena_guano":92,"pct_basura_formal":0,"pct_basura_quema":75,"pct_basura_informal":0,"pct_internet":58,"pct_celular":92,"pct_televisor":50}},{"type":"Feature","geometry":{"type":"Polygon","coordinates":[[[-67.54213,-16.90587],[-67.54203,-16.90598],[-67.5419,-16.90597],[-67.5418,-16.90611],[-67.5423,-16.90652],[-67.54252,-16.90621],[-67.54213,-16.90587]]]},"properties":{"n":"CAIROMA","p":18,"personas_x_ha":63,"masculinidad":64,"pct_menor20":22,"pct_60mas":11,"pct_migrante":6,"dependencia_econ":29,"pct_empleados":14,"pct_cuentapropia":86,"pct_agricultura":86,"pct_comercio":7,"pct_manufactura":7,"pct_construccion":0,"pct_transporte":0,"pct_alojamiento":0,"pct_sin_educacion":0,"pct_educ_superior":0,"brecha_educ":-4,"pct_sin_seguro":33,"pct_sus":67,"pct_seguro_privado":0,"brecha_seguro":-31,"pct_salud_publica":27,"pct_med_tradicional":8,"pct_automedicacion":24,"pct_remedios_caseros":22,"pct_viv_desocupada":11,"pct_alquiler":0,"pct_electricidad":100,"pct_sin_electricidad":0,"pct_agua_red":75,"pct_alcantarillado":0,"pct_camara_septica":0,"pct_pozo_ciego":25,"pct_sin_desague":75,"pct_gas_red":0,"pct_gas_garrafa":88,"pct_lena_guano":88,"pct_basura_formal":38,"pct_basura_quema":62,"pct_basura_informal":0,"pct_internet":50,"pct_celular":88,"pct_televisor":88}},{"type":"Feature","geometry":{"type":"Polygon","coordinates":[[[-67.5448,-16.90543],[-67.5437,-16.90478],[-67.54312,-16.90567],[-67.54329,-16.90653],[-67.54379,-16.90749],[-67.54429,-16.90717],[-67.54476,-16.90666],[-67.54429,-16.90635],[-67.5448,-16.90543]]]},"properties":{"n":"CAIROMA","p":19,"personas_x_ha":6,"masculinidad":111,"pct_menor20":32,"pct_60mas":5,"pct_migrante":26,"dependencia_econ":46,"pct_empleados":0,"pct_cuentapropia":92,"pct_agricultura":62,"pct_comercio":31,"pct_manufactura":0,"pct_construccion":0,"pct_transporte":0,"pct_alojamiento":0,"pct_sin_educacion":0,"pct_educ_superior":0,"brecha_educ":0,"pct_sin_seguro":0,"pct_sus":100,"pct_seguro_privado":0,"brecha_seguro":0,"pct_salud_publica":48,"pct_med_tradicional":20,"pct_automedicacion":2,"pct_remedios_caseros":25,"pct_viv_desocupada":0,"pct_alquiler":0,"pct_electricidad":100,"pct_sin_electricidad":0,"pct_agua_red":100,"pct_alcantarillado":0,"pct_camara_septica":11,"pct_pozo_ciego":11,"pct_sin_desague":44,"pct_gas_red":0,"pct_gas_garrafa":100,"pct_lena_guano":100,"pct_basura_formal":0,"pct_basura_quema":78,"pct_basura_informal":0,"pct_internet":56,"pct_celular":67,"pct_televisor":56}},{"type":"Feature","geometry":{"type":"Polygon","coordinates":[[[-67.53945,-16.90328],[-67.53987,-16.90343],[-67.54001,-16.90355],[-67.53998,-16.90363],[-67.53968,-16.90354],[-67.5395,-16.90359],[-67.53951,-16.90366],[-67.53911,-16.90366],[-67.53858,-16.90385],[-67.53887,-16.90343],[-67.53945,-16.90328]]]},"properties":{"n":"CAIROMA","p":40,"personas_x_ha":87,"masculinidad":74,"pct_menor20":28,"pct_60mas":10,"pct_migrante":10,"dependencia_econ":29,"pct_empleados":4,"pct_cuentapropia":61,"pct_agricultura":43,"pct_comercio":21,"pct_manufactura":11,"pct_construccion":0,"pct_transporte":7,"pct_alojamiento":0,"pct_sin_educacion":4,"pct_educ_superior":15,"brecha_educ":10,"pct_sin_seguro":3,"pct_sus":97,"pct_seguro_privado":0,"brecha_seguro":-5,"pct_salud_publica":47,"pct_med_tradicional":16,"pct_automedicacion":2,"pct_remedios_caseros":27,"pct_viv_desocupada":0,"pct_alquiler":0,"pct_electricidad":90,"pct_sin_electricidad":10,"pct_agua_red":70,"pct_alcantarillado":30,"pct_camara_septica":0,"pct_pozo_ciego":20,"pct_sin_desague":40,"pct_gas_red":0,"pct_gas_garrafa":90,"pct_lena_guano":90,"pct_basura_formal":50,"pct_basura_quema":30,"pct_basura_informal":0,"pct_internet":10,"pct_celular":80,"pct_televisor":50}},{"type":"Feature","geometry":{"type":"Polygon","coordinates":[[[-67.5443,-16.90278],[-67.54303,-16.90281],[-67.54284,-16.90276],[-67.54261,-16.90252],[-67.54205,-16.90244],[-67.542,-16.9026],[-67.54166,-16.90297],[-67.54158,-16.90352],[-67.54185,-16.90378],[-67.54223,-16.90447],[-67.54256,-16.90464],[-67.54275,-16.90448],[-67.54297,-16.90451],[-67.54312,-16.90432],[-67.54352,-16.90428],[-67.54354,-16.90403],[-67.54384,-16.90337],[-67.54401,-16.90307],[-67.5443,-16.90278]]]},"properties":{"n":"CAIROMA","p":23,"personas_x_ha":6,"masculinidad":77,"pct_menor20":39,"pct_60mas":13,"pct_migrante":17,"dependencia_econ":64,"pct_empleados":21,"pct_cuentapropia":79,"pct_agricultura":43,"pct_comercio":21,"pct_manufactura":7,"pct_construccion":7,"pct_transporte":7,"pct_alojamiento":14,"pct_sin_educacion":7,"pct_educ_superior":14,"brecha_educ":-8,"pct_sin_seguro":43,"pct_sus":57,"pct_seguro_privado":0,"brecha_seguro":12,"pct_salud_publica":44,"pct_med_tradicional":7,"pct_automedicacion":20,"pct_remedios_caseros":22,"pct_viv_desocupada":0,"pct_alquiler":0,"pct_electricidad":86,"pct_sin_electricidad":14,"pct_agua_red":43,"pct_alcantarillado":14,"pct_camara_septica":0,"pct_pozo_ciego":14,"pct_sin_desague":57,"pct_gas_red":0,"pct_gas_garrafa":86,"pct_lena_guano":86,"pct_basura_formal":43,"pct_basura_quema":57,"pct_basura_informal":0,"pct_internet":71,"pct_celular":86,"pct_televisor":57}},{"type":"Feature","geometry":{"type":"Polygon","coordinates":[[[-67.54108,-16.9029],[-67.54121,-16.90235],[-67.54155,-16.90196],[-67.54126,-16.90159],[-67.54073,-16.90155],[-67.54058,-16.90201],[-67.54058,-16.90236],[-67.54035,-16.90257],[-67.54019,-16.90321],[-67.54078,-16.90334],[-67.54108,-16.9029]]]},"properties":{"n":"CAIROMA","p":34,"personas_x_ha":23,"masculinidad":89,"pct_menor20":35,"pct_60mas":9,"pct_migrante":0,"dependencia_econ":65,"pct_empleados":0,"pct_cuentapropia":90,"pct_agricultura":55,"pct_comercio":25,"pct_manufactura":15,"pct_construccion":0,"pct_transporte":0,"pct_alojamiento":0,"pct_sin_educacion":4,"pct_educ_superior":4,"brecha_educ":-20,"pct_sin_seguro":33,"pct_sus":67,"pct_seguro_privado":0,"brecha_seguro":0,"pct_salud_publica":47,"pct_med_tradicional":5,"pct_automedicacion":5,"pct_remedios_caseros":35,"pct_viv_desocupada":0,"pct_alquiler":0,"pct_electricidad":91,"pct_sin_electricidad":9,"pct_agua_red":36,"pct_alcantarillado":18,"pct_camara_septica":0,"pct_pozo_ciego":0,"pct_sin_desague":82,"pct_gas_red":9,"pct_gas_garrafa":91,"pct_lena_guano":91,"pct_basura_formal":64,"pct_basura_quema":36,"pct_basura_informal":0,"pct_internet":9,"pct_celular":55,"pct_televisor":36}},{"type":"Feature","geometry":{"type":"Polygon","coordinates":[[[-67.53955,-16.90291],[-67.53953,-16.9032],[-67.53925,-16.9032],[-67.5387,-16.90343],[-67.53877,-16.90309],[-67.5387,-16.90305],[-67.53866,-16.90346],[-67.53813,-16.90379],[-67.53764,-16.90383],[-67.53672,-16.90336],[-67.53673,-16.90314],[-67.53621,-16.90249],[-67.53682,-16.90252],[-67.5371,-16.90239],[-67.53735,-16.90258],[-67.53763,-16.9027],[-67.53759,-16.90261],[-67.53735,-16.90255],[-67.53712,-16.90237],[-67.53731,-16.90217],[-67.53807,-16.90204],[-67.53796,-16.90254],[-67.53807,-16.90212],[-67.5382,-16.90209],[-67.53872,-16.90248],[-67.539,-16.90256],[-67.53955,-16.90291]]]},"properties":{"n":"CAIROMA","p":23,"personas_x_ha":6,"masculinidad":92,"pct_menor20":35,"pct_60mas":9,"pct_migrante":9,"dependencia_econ":77,"pct_empleados":15,"pct_cuentapropia":69,"pct_agricultura":69,"pct_comercio":8,"pct_manufactura":8,"pct_construccion":0,"pct_transporte":0,"pct_alojamiento":0,"pct_sin_educacion":0,"pct_educ_superior":0,"brecha_educ":0,"pct_sin_seguro":22,"pct_sus":78,"pct_seguro_privado":0,"brecha_seguro":11,"pct_salud_publica":26,"pct_med_tradicional":15,"pct_automedicacion":19,"pct_remedios_caseros":35,"pct_viv_desocupada":0,"pct_alquiler":0,"pct_electricidad":86,"pct_sin_electricidad":14,"pct_agua_red":100,"pct_alcantarillado":14,"pct_camara_septica":0,"pct_pozo_ciego":43,"pct_sin_desague":43,"pct_gas_red":0,"pct_gas_garrafa":71,"pct_lena_guano":71,"pct_basura_formal":0,"pct_basura_quema":100,"pct_basura_informal":0,"pct_internet":71,"pct_celular":86,"pct_televisor":57}},{"type":"Feature","geometry":{"type":"Polygon","coordinates":[[[-67.5406,-16.90446],[-67.54033,-16.90421],[-67.54013,-16.9045],[-67.54024,-16.90478],[-67.54032,-16.90464],[-67.54024,-16.90479],[-67.54031,-16.90513],[-67.54045,-16.90511],[-67.54044,-16.90496],[-67.54087,-16.90495],[-67.54088,-16.9051],[-67.54109,-16.90508],[-67.5411,-16.90458],[-67.5406,-16.90446]]]},"properties":{"n":"CAIROMA","p":108,"personas_x_ha":180,"masculinidad":140,"pct_menor20":28,"pct_60mas":13,"pct_migrante":10,"dependencia_econ":36,"pct_empleados":1,"pct_cuentapropia":82,"pct_agricultura":51,"pct_comercio":13,"pct_manufactura":21,"pct_construccion":3,"pct_transporte":0,"pct_alojamiento":1,"pct_sin_educacion":4,"pct_educ_superior":16,"brecha_educ":-3,"pct_sin_seguro":34,"pct_sus":63,"pct_seguro_privado":0,"brecha_seguro":3,"pct_salud_publica":21,"pct_med_tradicional":18,"pct_automedicacion":18,"pct_remedios_caseros":22,"pct_viv_desocupada":0,"pct_alquiler":0,"pct_electricidad":100,"pct_sin_electricidad":0,"pct_agua_red":76,"pct_alcantarillado":36,"pct_camara_septica":4,"pct_pozo_ciego":4,"pct_sin_desague":36,"pct_gas_red":0,"pct_gas_garrafa":100,"pct_lena_guano":100,"pct_basura_formal":84,"pct_basura_quema":12,"pct_basura_informal":0,"pct_internet":52,"pct_celular":76,"pct_televisor":72}},{"type":"Feature","geometry":{"type":"Polygon","coordinates":[[[-67.54282,-16.90126],[-67.54308,-16.90025],[-67.54184,-16.90082],[-67.54183,-16.90089],[-67.54207,-16.90106],[-67.54204,-16.90121],[-67.54201,-16.90109],[-67.54172,-16.90085],[-67.54137,-16.90094],[-67.54108,-16.9008],[-67.54074,-16.9015],[-67.54127,-16.90156],[-67.54159,-16.90194],[-67.54204,-16.90208],[-67.54282,-16.90126]]]},"properties":{"n":"CAIROMA","p":36,"personas_x_ha":15,"masculinidad":112,"pct_menor20":25,"pct_60mas":19,"pct_migrante":14,"dependencia_econ":24,"pct_empleados":14,"pct_cuentapropia":72,"pct_agricultura":55,"pct_comercio":17,"pct_manufactura":10,"pct_construccion":7,"pct_transporte":3,"pct_alojamiento":0,"pct_sin_educacion":4,"pct_educ_superior":7,"brecha_educ":-40,"pct_sin_seguro":0,"pct_sus":94,"pct_seguro_privado":0,"brecha_seguro":0,"pct_salud_publica":31,"pct_med_tradicional":20,"pct_automedicacion":13,"pct_remedios_caseros":30,"pct_viv_desocupada":0,"pct_alquiler":0,"pct_electricidad":83,"pct_sin_electricidad":17,"pct_agua_red":78,"pct_alcantarillado":0,"pct_camara_septica":0,"pct_pozo_ciego":11,"pct_sin_desague":89,"pct_gas_red":0,"pct_gas_garrafa":78,"pct_lena_guano":78,"pct_basura_formal":6,"pct_basura_quema":78,"pct_basura_informal":11,"pct_internet":50,"pct_celular":89,"pct_televisor":67}},{"type":"Feature","geometry":{"type":"Polygon","coordinates":[[[-67.53951,-16.9037],[-67.53961,-16.90426],[-67.53942,-16.90459],[-67.53894,-16.90457],[-67.53923,-16.90423],[-67.53928,-16.90428],[-67.53931,-16.90428],[-67.53945,-16.90421],[-67.53928,-16.90427],[-67.53897,-16.90378],[-67.53951,-16.9037]]]},"properties":{"n":"CAIROMA","p":31,"personas_x_ha":71,"masculinidad":63,"pct_menor20":16,"pct_60mas":26,"pct_migrante":6,"dependencia_econ":55,"pct_empleados":20,"pct_cuentapropia":70,"pct_agricultura":35,"pct_comercio":20,"pct_manufactura":5,"pct_construccion":10,"pct_transporte":0,"pct_alojamiento":15,"pct_sin_educacion":19,"pct_educ_superior":31,"brecha_educ":-28,"pct_sin_seguro":32,"pct_sus":55,"pct_seguro_privado":0,"brecha_seguro":15,"pct_salud_publica":26,"pct_med_tradicional":8,"pct_automedicacion":26,"pct_remedios_caseros":22,"pct_viv_desocupada":22,"pct_alquiler":0,"pct_electricidad":100,"pct_sin_electricidad":0,"pct_agua_red":86,"pct_alcantarillado":0,"pct_camara_septica":0,"pct_pozo_ciego":7,"pct_sin_desague":43,"pct_gas_red":0,"pct_gas_garrafa":93,"pct_lena_guano":93,"pct_basura_formal":100,"pct_basura_quema":0,"pct_basura_informal":0,"pct_internet":43,"pct_celular":93,"pct_televisor":50}},{"type":"Feature","geometry":{"type":"Polygon","coordinates":[[[-67.5421,-16.90582],[-67.54176,-16.90538],[-67.54122,-16.90562],[-67.54175,-16.90606],[-67.54187,-16.90591],[-67.54203,-16.90593],[-67.5421,-16.90582]]]},"properties":{"n":"CAIROMA","p":44,"personas_x_ha":119,"masculinidad":83,"pct_menor20":36,"pct_60mas":11,"pct_migrante":16,"dependencia_econ":63,"pct_empleados":7,"pct_cuentapropia":44,"pct_agricultura":89,"pct_comercio":4,"pct_manufactura":0,"pct_construccion":0,"pct_transporte":0,"pct_alojamiento":0,"pct_sin_educacion":11,"pct_educ_superior":4,"brecha_educ":-32,"pct_sin_seguro":3,"pct_sus":89,"pct_seguro_privado":0,"brecha_seguro":7,"pct_salud_publica":21,"pct_med_tradicional":22,"pct_automedicacion":21,"pct_remedios_caseros":22,"pct_viv_desocupada":0,"pct_alquiler":7,"pct_electricidad":93,"pct_sin_electricidad":7,"pct_agua_red":86,"pct_alcantarillado":50,"pct_camara_septica":0,"pct_pozo_ciego":0,"pct_sin_desague":36,"pct_gas_red":0,"pct_gas_garrafa":100,"pct_lena_guano":100,"pct_basura_formal":64,"pct_basura_quema":29,"pct_basura_informal":14,"pct_internet":79,"pct_celular":93,"pct_televisor":79}},{"type":"Feature","geometry":{"type":"Polygon","coordinates":[[[-67.54096,-16.90353],[-67.5419,-16.90259],[-67.54201,-16.90213],[-67.5416,-16.90198],[-67.54138,-16.9022],[-67.54122,-16.90249],[-67.54111,-16.90294],[-67.54078,-16.90352],[-67.54096,-16.90353]]]},"properties":{"n":"CAIROMA","p":17,"personas_x_ha":19,"masculinidad":143,"pct_menor20":35,"pct_60mas":12,"pct_migrante":18,"dependencia_econ":55,"pct_empleados":0,"pct_cuentapropia":91,"pct_agricultura":45,"pct_comercio":36,"pct_manufactura":0,"pct_construccion":0,"pct_transporte":9,"pct_alojamiento":0,"pct_sin_educacion":0,"pct_educ_superior":0,"brecha_educ":-23,"pct_sin_seguro":6,"pct_sus":94,"pct_seguro_privado":0,"brecha_seguro":-14,"pct_salud_publica":53,"pct_med_tradicional":0,"pct_automedicacion":0,"pct_remedios_caseros":47,"pct_viv_desocupada":0,"pct_alquiler":0,"pct_electricidad":86,"pct_sin_electricidad":14,"pct_agua_red":86,"pct_alcantarillado":0,"pct_camara_septica":0,"pct_pozo_ciego":0,"pct_sin_desague":100,"pct_gas_red":0,"pct_gas_garrafa":100,"pct_lena_guano":100,"pct_basura_formal":0,"pct_basura_quema":100,"pct_basura_informal":0,"pct_internet":14,"pct_celular":57,"pct_televisor":86}},{"type":"Feature","geometry":{"type":"Polygon","coordinates":[[[-67.57506,-16.93011],[-67.5752,-16.92996],[-67.5754,-16.92944],[-67.57485,-16.92897],[-67.57457,-16.92916],[-67.57441,-16.9296],[-67.57506,-16.93011]]]},"properties":{"n":"KERAYA","p":35,"personas_x_ha":46,"masculinidad":338,"pct_menor20":31,"pct_60mas":17,"pct_migrante":0,"dependencia_econ":40,"pct_empleados":0,"pct_cuentapropia":100,"pct_agricultura":96,"pct_comercio":0,"pct_manufactura":4,"pct_construccion":0,"pct_transporte":0,"pct_alojamiento":0,"pct_sin_educacion":8,"pct_educ_superior":0,"brecha_educ":-56,"pct_sin_seguro":0,"pct_sus":100,"pct_seguro_privado":0,"brecha_seguro":0,"pct_salud_publica":33,"pct_med_tradicional":19,"pct_automedicacion":2,"pct_remedios_caseros":31,"pct_viv_desocupada":0,"pct_alquiler":0,"pct_electricidad":62,"pct_sin_electricidad":38,"pct_agua_red":88,"pct_alcantarillado":0,"pct_camara_septica":0,"pct_pozo_ciego":12,"pct_sin_desague":88,"pct_gas_red":0,"pct_gas_garrafa":12,"pct_lena_guano":12,"pct_basura_formal":0,"pct_basura_quema":100,"pct_basura_informal":0,"pct_internet":62,"pct_celular":75,"pct_televisor":75}},{"type":"Feature","geometry":{"type":"Polygon","coordinates":[[[-67.57501,-16.93043],[-67.57466,-16.93027],[-67.57429,-16.93034],[-67.57408,-16.93047],[-67.57348,-16.9312],[-67.57408,-16.93157],[-67.57486,-16.93079],[-67.57501,-16.93043]]]},"properties":{"n":"KERAYA","p":51,"personas_x_ha":42,"masculinidad":132,"pct_menor20":29,"pct_60mas":20,"pct_migrante":6,"dependencia_econ":34,"pct_empleados":11,"pct_cuentapropia":79,"pct_agricultura":87,"pct_comercio":3,"pct_manufactura":0,"pct_construccion":3,"pct_transporte":3,"pct_alojamiento":0,"pct_sin_educacion":5,"pct_educ_superior":8,"brecha_educ":-11,"pct_sin_seguro":24,"pct_sus":76,"pct_seguro_privado":0,"brecha_seguro":-1,"pct_salud_publica":32,"pct_med_tradicional":22,"pct_automedicacion":5,"pct_remedios_caseros":29,"pct_viv_desocupada":0,"pct_alquiler":0,"pct_electricidad":92,"pct_sin_electricidad":8,"pct_agua_red":67,"pct_alcantarillado":0,"pct_camara_septica":0,"pct_pozo_ciego":0,"pct_sin_desague":100,"pct_gas_red":0,"pct_gas_garrafa":42,"pct_lena_guano":42,"pct_basura_formal":0,"pct_basura_quema":92,"pct_basura_informal":0,"pct_internet":50,"pct_celular":92,"pct_televisor":50}},{"type":"Feature","geometry":{"type":"Polygon","coordinates":[[[-67.57687,-16.92849],[-67.57746,-16.92831],[-67.57785,-16.92833],[-67.57782,-16.92805],[-67.5773,-16.92795],[-67.57687,-16.92807],[-67.57687,-16.92849]]]},"properties":{"n":"KERAYA","p":35,"personas_x_ha":80,"masculinidad":94,"pct_menor20":29,"pct_60mas":26,"pct_migrante":17,"dependencia_econ":26,"pct_empleados":0,"pct_cuentapropia":85,"pct_agricultura":96,"pct_comercio":0,"pct_manufactura":0,"pct_construccion":0,"pct_transporte":0,"pct_alojamiento":0,"pct_sin_educacion":8,"pct_educ_superior":8,"brecha_educ":-21,"pct_sin_seguro":9,"pct_sus":91,"pct_seguro_privado":0,"brecha_seguro":-7,"pct_salud_publica":29,"pct_med_tradicional":15,"pct_automedicacion":12,"pct_remedios_caseros":29,"pct_viv_desocupada":14,"pct_alquiler":0,"pct_electricidad":100,"pct_sin_electricidad":0,"pct_agua_red":42,"pct_alcantarillado":0,"pct_camara_septica":0,"pct_pozo_ciego":42,"pct_sin_desague":58,"pct_gas_red":0,"pct_gas_garrafa":33,"pct_lena_guano":33,"pct_basura_formal":0,"pct_basura_quema":8,"pct_basura_informal":0,"pct_internet":50,"pct_celular":83,"pct_televisor":58}},{"type":"Feature","geometry":{"type":"Polygon","coordinates":[[[-67.57487,-16.93002],[-67.57439,-16.92963],[-67.57413,-16.92984],[-67.57403,-16.9301],[-67.57437,-16.93027],[-67.57469,-16.93024],[-67.57479,-16.9302],[-67.57487,-16.93002]]]},"properties":{"n":"KERAYA","p":32,"personas_x_ha":81,"masculinidad":129,"pct_menor20":38,"pct_60mas":6,"pct_migrante":0,"dependencia_econ":33,"pct_empleados":0,"pct_cuentapropia":92,"pct_agricultura":100,"pct_comercio":0,"pct_manufactura":0,"pct_construccion":0,"pct_transporte":0,"pct_alojamiento":0,"pct_sin_educacion":5,"pct_educ_superior":0,"brecha_educ":-27,"pct_sin_seguro":0,"pct_sus":100,"pct_seguro_privado":0,"brecha_seguro":0,"pct_salud_publica":42,"pct_med_tradicional":12,"pct_automedicacion":0,"pct_remedios_caseros":30,"pct_viv_desocupada":25,"pct_alquiler":0,"pct_electricidad":100,"pct_sin_electricidad":0,"pct_agua_red":100,"pct_alcantarillado":0,"pct_camara_septica":0,"pct_pozo_ciego":0,"pct_sin_desague":100,"pct_gas_red":0,"pct_gas_garrafa":33,"pct_lena_guano":33,"pct_basura_formal":0,"pct_basura_quema":67,"pct_basura_informal":0,"pct_internet":83,"pct_celular":100,"pct_televisor":67}},{"type":"Feature","geometry":{"type":"Polygon","coordinates":[[[-67.50839,-16.88639],[-67.50776,-16.88598],[-67.50768,-16.88597],[-67.50755,-16.88628],[-67.50825,-16.88661],[-67.50839,-16.88639]]]},"properties":{"n":"TIENDA PATA","p":18,"personas_x_ha":55,"masculinidad":157,"pct_menor20":28,"pct_60mas":17,"pct_migrante":33,"dependencia_econ":50,"pct_empleados":8,"pct_cuentapropia":33,"pct_agricultura":8,"pct_comercio":17,"pct_manufactura":0,"pct_construccion":0,"pct_transporte":0,"pct_alojamiento":8,"pct_sin_educacion":0,"pct_educ_superior":8,"brecha_educ":18,"pct_sin_seguro":0,"pct_sus":65,"pct_seguro_privado":0,"brecha_seguro":0,"pct_salud_publica":22,"pct_med_tradicional":18,"pct_automedicacion":11,"pct_remedios_caseros":22,"pct_viv_desocupada":23,"pct_alquiler":0,"pct_electricidad":90,"pct_sin_electricidad":0,"pct_agua_red":70,"pct_alcantarillado":0,"pct_camara_septica":0,"pct_pozo_ciego":10,"pct_sin_desague":90,"pct_gas_red":0,"pct_gas_garrafa":80,"pct_lena_guano":80,"pct_basura_formal":80,"pct_basura_quema":0,"pct_basura_informal":0,"pct_internet":70,"pct_celular":80,"pct_televisor":80}},{"type":"Feature","geometry":{"type":"Polygon","coordinates":[[[-67.5087,-16.8861],[-67.50793,-16.88581],[-67.50785,-16.88589],[-67.50859,-16.88641],[-67.5087,-16.8861]]]},"properties":{"n":"TIENDA PATA","p":17,"personas_x_ha":73,"masculinidad":70,"pct_menor20":24,"pct_60mas":6,"pct_migrante":24,"dependencia_econ":70,"pct_empleados":10,"pct_cuentapropia":40,"pct_agricultura":0,"pct_comercio":40,"pct_manufactura":10,"pct_construccion":10,"pct_transporte":0,"pct_alojamiento":0,"pct_sin_educacion":0,"pct_educ_superior":15,"brecha_educ":12,"pct_sin_seguro":12,"pct_sus":71,"pct_seguro_privado":0,"brecha_seguro":-20,"pct_salud_publica":19,"pct_med_tradicional":19,"pct_automedicacion":10,"pct_remedios_caseros":27,"pct_viv_desocupada":22,"pct_alquiler":0,"pct_electricidad":100,"pct_sin_electricidad":0,"pct_agua_red":91,"pct_alcantarillado":0,"pct_camara_septica":0,"pct_pozo_ciego":0,"pct_sin_desague":100,"pct_gas_red":0,"pct_gas_garrafa":100,"pct_lena_guano":100,"pct_basura_formal":9,"pct_basura_quema":64,"pct_basura_informal":55,"pct_internet":73,"pct_celular":91,"pct_televisor":73}},{"type":"Feature","geometry":{"type":"Polygon","coordinates":[[[-67.50903,-16.88688],[-67.50879,-16.88722],[-67.50936,-16.88754],[-67.50984,-16.88814],[-67.51007,-16.88801],[-67.50937,-16.88712],[-67.50903,-16.88688]]]},"properties":{"n":"TIENDA PATA","p":15,"personas_x_ha":26,"masculinidad":200,"pct_menor20":13,"pct_60mas":7,"pct_migrante":13,"dependencia_econ":40,"pct_empleados":10,"pct_cuentapropia":40,"pct_agricultura":10,"pct_comercio":10,"pct_manufactura":0,"pct_construccion":0,"pct_transporte":30,"pct_alojamiento":0,"pct_sin_educacion":8,"pct_educ_superior":15,"brecha_educ":-39,"pct_sin_seguro":0,"pct_sus":64,"pct_seguro_privado":0,"brecha_seguro":0,"pct_salud_publica":33,"pct_med_tradicional":7,"pct_automedicacion":13,"pct_remedios_caseros":20,"pct_viv_desocupada":8,"pct_alquiler":27,"pct_electricidad":100,"pct_sin_electricidad":0,"pct_agua_red":100,"pct_alcantarillado":0,"pct_camara_septica":0,"pct_pozo_ciego":0,"pct_sin_desague":100,"pct_gas_red":0,"pct_gas_garrafa":91,"pct_lena_guano":91,"pct_basura_formal":9,"pct_basura_quema":82,"pct_basura_informal":18,"pct_internet":73,"pct_celular":73,"pct_televisor":82}},{"type":"Feature","geometry":{"type":"Polygon","coordinates":[[[-67.50893,-16.88665],[-67.50921,-16.88635],[-67.50873,-16.8861],[-67.5086,-16.88643],[-67.50893,-16.88665]]]},"properties":{"n":"TIENDA PATA","p":17,"personas_x_ha":77,"masculinidad":55,"pct_menor20":47,"pct_60mas":6,"pct_migrante":47,"dependencia_econ":183,"pct_empleados":0,"pct_cuentapropia":83,"pct_agricultura":17,"pct_comercio":0,"pct_manufactura":17,"pct_construccion":17,"pct_transporte":0,"pct_alojamiento":0,"pct_sin_educacion":0,"pct_educ_superior":11,"brecha_educ":5,"pct_sin_seguro":0,"pct_sus":53,"pct_seguro_privado":0,"brecha_seguro":0,"pct_salud_publica":52,"pct_med_tradicional":0,"pct_automedicacion":0,"pct_remedios_caseros":17,"pct_viv_desocupada":30,"pct_alquiler":0,"pct_electricidad":100,"pct_sin_electricidad":0,"pct_agua_red":100,"pct_alcantarillado":0,"pct_camara_septica":0,"pct_pozo_ciego":20,"pct_sin_desague":80,"pct_gas_red":0,"pct_gas_garrafa":100,"pct_lena_guano":100,"pct_basura_formal":40,"pct_basura_quema":60,"pct_basura_informal":0,"pct_internet":60,"pct_celular":100,"pct_televisor":100}},{"type":"Feature","geometry":{"type":"Polygon","coordinates":[[[-67.49955,-16.87504],[-67.49943,-16.87497],[-67.49952,-16.87499],[-67.49958,-16.87482],[-67.49925,-16.87472],[-67.49923,-16.87497],[-67.49952,-16.87511],[-67.49955,-16.87504]]]},"properties":{"n":"VILOCO","p":23,"personas_x_ha":232,"masculinidad":229,"pct_menor20":35,"pct_60mas":9,"pct_migrante":35,"dependencia_econ":92,"pct_empleados":0,"pct_cuentapropia":58,"pct_agricultura":0,"pct_comercio":0,"pct_manufactura":0,"pct_construccion":0,"pct_transporte":0,"pct_alojamiento":0,"pct_sin_educacion":13,"pct_educ_superior":0,"brecha_educ":-23,"pct_sin_seguro":0,"pct_sus":30,"pct_seguro_privado":9,"brecha_seguro":0,"pct_salud_publica":26,"pct_med_tradicional":0,"pct_automedicacion":8,"pct_remedios_caseros":21,"pct_viv_desocupada":8,"pct_alquiler":0,"pct_electricidad":91,"pct_sin_electricidad":9,"pct_agua_red":45,"pct_alcantarillado":9,"pct_camara_septica":0,"pct_pozo_ciego":0,"pct_sin_desague":91,"pct_gas_red":0,"pct_gas_garrafa":100,"pct_lena_guano":100,"pct_basura_formal":100,"pct_basura_quema":0,"pct_basura_informal":0,"pct_internet":27,"pct_celular":55,"pct_televisor":100}},{"type":"Feature","geometry":{"type":"Polygon","coordinates":[[[-67.49766,-16.87463],[-67.49697,-16.87435],[-67.49666,-16.87431],[-67.49668,-16.87416],[-67.49711,-16.87419],[-67.49768,-16.87458],[-67.49766,-16.87463]]]},"properties":{"n":"VILOCO","p":34,"personas_x_ha":187,"masculinidad":62,"pct_menor20":32,"pct_60mas":18,"pct_migrante":53,"dependencia_econ":162,"pct_empleados":0,"pct_cuentapropia":38,"pct_agricultura":0,"pct_comercio":8,"pct_manufactura":0,"pct_construccion":0,"pct_transporte":0,"pct_alojamiento":0,"pct_sin_educacion":0,"pct_educ_superior":4,"brecha_educ":-18,"pct_sin_seguro":3,"pct_sus":56,"pct_seguro_privado":3,"brecha_seguro":8,"pct_salud_publica":28,"pct_med_tradicional":7,"pct_automedicacion":7,"pct_remedios_caseros":13,"pct_viv_desocupada":0,"pct_alquiler":0,"pct_electricidad":100,"pct_sin_electricidad":0,"pct_agua_red":88,"pct_alcantarillado":0,"pct_camara_septica":0,"pct_pozo_ciego":0,"pct_sin_desague":100,"pct_gas_red":0,"pct_gas_garrafa":100,"pct_lena_guano":100,"pct_basura_formal":100,"pct_basura_quema":0,"pct_basura_informal":0,"pct_internet":53,"pct_celular":94,"pct_televisor":94}},{"type":"Feature","geometry":{"type":"Polygon","coordinates":[[[-67.49972,-16.87467],[-67.49964,-16.8748],[-67.50027,-16.87515],[-67.50047,-16.87518],[-67.50051,-16.87511],[-67.49972,-16.87467]]]},"properties":{"n":"VILOCO","p":33,"personas_x_ha":212,"masculinidad":267,"pct_menor20":36,"pct_60mas":3,"pct_migrante":42,"dependencia_econ":71,"pct_empleados":6,"pct_cuentapropia":53,"pct_agricultura":12,"pct_comercio":0,"pct_manufactura":0,"pct_construccion":0,"pct_transporte":0,"pct_alojamiento":12,"pct_sin_educacion":5,"pct_educ_superior":15,"brecha_educ":-13,"pct_sin_seguro":7,"pct_sus":45,"pct_seguro_privado":0,"brecha_seguro":10,"pct_salud_publica":30,"pct_med_tradicional":4,"pct_automedicacion":16,"pct_remedios_caseros":20,"pct_viv_desocupada":0,"pct_alquiler":7,"pct_electricidad":93,"pct_sin_electricidad":7,"pct_agua_red":87,"pct_alcantarillado":20,"pct_camara_septica":0,"pct_pozo_ciego":0,"pct_sin_desague":80,"pct_gas_red":0,"pct_gas_garrafa":93,"pct_lena_guano":93,"pct_basura_formal":93,"pct_basura_quema":0,"pct_basura_informal":0,"pct_internet":53,"pct_celular":80,"pct_televisor":93}},{"type":"Feature","geometry":{"type":"Polygon","coordinates":[[[-67.50007,-16.87532],[-67.49958,-16.87499],[-67.49961,-16.87484],[-67.50019,-16.87516],[-67.50007,-16.87532]]]},"properties":{"n":"VILOCO","p":58,"personas_x_ha":450,"masculinidad":107,"pct_menor20":36,"pct_60mas":3,"pct_migrante":40,"dependencia_econ":87,"pct_empleados":6,"pct_cuentapropia":45,"pct_agricultura":0,"pct_comercio":10,"pct_manufactura":6,"pct_construccion":0,"pct_transporte":0,"pct_alojamiento":6,"pct_sin_educacion":3,"pct_educ_superior":8,"brecha_educ":-13,"pct_sin_seguro":0,"pct_sus":38,"pct_seguro_privado":0,"brecha_seguro":0,"pct_salud_publica":14,"pct_med_tradicional":11,"pct_automedicacion":18,"pct_remedios_caseros":26,"pct_viv_desocupada":0,"pct_alquiler":0,"pct_electricidad":100,"pct_sin_electricidad":0,"pct_agua_red":91,"pct_alcantarillado":0,"pct_camara_septica":0,"pct_pozo_ciego":0,"pct_sin_desague":100,"pct_gas_red":0,"pct_gas_garrafa":100,"pct_lena_guano":100,"pct_basura_formal":95,"pct_basura_quema":0,"pct_basura_informal":0,"pct_internet":82,"pct_celular":95,"pct_televisor":95}},{"type":"Feature","geometry":{"type":"Polygon","coordinates":[[[-67.49768,-16.87405],[-67.49699,-16.87387],[-67.49704,-16.87365],[-67.49679,-16.87359],[-67.49673,-16.87394],[-67.49765,-16.87417],[-67.49772,-16.87412],[-67.49768,-16.87405]]]},"properties":{"n":"VILOCO","p":86,"personas_x_ha":387,"masculinidad":169,"pct_menor20":37,"pct_60mas":5,"pct_migrante":40,"dependencia_econ":62,"pct_empleados":13,"pct_cuentapropia":58,"pct_agricultura":4,"pct_comercio":4,"pct_manufactura":8,"pct_construccion":0,"pct_transporte":0,"pct_alojamiento":0,"pct_sin_educacion":5,"pct_educ_superior":9,"brecha_educ":-9,"pct_sin_seguro":15,"pct_sus":31,"pct_seguro_privado":2,"brecha_seguro":15,"pct_salud_publica":25,"pct_med_tradicional":9,"pct_automedicacion":13,"pct_remedios_caseros":23,"pct_viv_desocupada":0,"pct_alquiler":11,"pct_electricidad":93,"pct_sin_electricidad":7,"pct_agua_red":63,"pct_alcantarillado":0,"pct_camara_septica":0,"pct_pozo_ciego":0,"pct_sin_desague":100,"pct_gas_red":0,"pct_gas_garrafa":93,"pct_lena_guano":93,"pct_basura_formal":81,"pct_basura_quema":4,"pct_basura_informal":7,"pct_internet":70,"pct_celular":96,"pct_televisor":81}},{"type":"Feature","geometry":{"type":"Polygon","coordinates":[[[-67.49658,-16.87442],[-67.49595,-16.87422],[-67.4959,-16.87416],[-67.49602,-16.87367],[-67.49566,-16.87356],[-67.49533,-16.87325],[-67.49539,-16.87306],[-67.49553,-16.87309],[-67.49542,-16.87301],[-67.49554,-16.87265],[-67.496,-16.87279],[-67.49594,-16.87298],[-67.49614,-16.87305],[-67.49608,-16.87321],[-67.49569,-16.87308],[-67.49563,-16.87326],[-67.49623,-16.87349],[-67.49618,-16.8738],[-67.49642,-16.87388],[-67.49656,-16.87355],[-67.49645,-16.87352],[-67.49637,-16.87375],[-67.49628,-16.87371],[-67.49636,-16.87339],[-67.49614,-16.87334],[-67.49617,-16.87325],[-67.49675,-16.87347],[-67.49658,-16.87442]]]},"properties":{"n":"VILOCO","p":80,"personas_x_ha":66,"masculinidad":150,"pct_menor20":32,"pct_60mas":9,"pct_migrante":54,"dependencia_econ":80,"pct_empleados":7,"pct_cuentapropia":36,"pct_agricultura":0,"pct_comercio":7,"pct_manufactura":7,"pct_construccion":0,"pct_transporte":0,"pct_alojamiento":5,"pct_sin_educacion":0,"pct_educ_superior":11,"brecha_educ":8,"pct_sin_seguro":10,"pct_sus":54,"pct_seguro_privado":0,"brecha_seguro":1,"pct_salud_publica":19,"pct_med_tradicional":10,"pct_automedicacion":18,"pct_remedios_caseros":21,"pct_viv_desocupada":0,"pct_alquiler":23,"pct_electricidad":92,"pct_sin_electricidad":5,"pct_agua_red":85,"pct_alcantarillado":10,"pct_camara_septica":0,"pct_pozo_ciego":0,"pct_sin_desague":85,"pct_gas_red":0,"pct_gas_garrafa":100,"pct_lena_guano":100,"pct_basura_formal":87,"pct_basura_quema":8,"pct_basura_informal":5,"pct_internet":87,"pct_celular":97,"pct_televisor":82}},{"type":"Feature","geometry":{"type":"Polygon","coordinates":[[[-67.49471,-16.87378],[-67.49469,-16.87388],[-67.49508,-16.87395],[-67.4951,-16.87386],[-67.49471,-16.87378]]]},"properties":{"n":"VILOCO","p":19,"personas_x_ha":416,"masculinidad":111,"pct_menor20":53,"pct_60mas":0,"pct_migrante":58,"dependencia_econ":217,"pct_empleados":17,"pct_cuentapropia":17,"pct_agricultura":0,"pct_comercio":0,"pct_manufactura":0,"pct_construccion":0,"pct_transporte":0,"pct_alojamiento":0,"pct_sin_educacion":0,"pct_educ_superior":0,"brecha_educ":-33,"pct_sin_seguro":5,"pct_sus":58,"pct_seguro_privado":0,"brecha_seguro":10,"pct_salud_publica":13,"pct_med_tradicional":12,"pct_automedicacion":23,"pct_remedios_caseros":17,"pct_viv_desocupada":0,"pct_alquiler":14,"pct_electricidad":86,"pct_sin_electricidad":14,"pct_agua_red":71,"pct_alcantarillado":0,"pct_camara_septica":0,"pct_pozo_ciego":14,"pct_sin_desague":86,"pct_gas_red":0,"pct_gas_garrafa":100,"pct_lena_guano":100,"pct_basura_formal":100,"pct_basura_quema":0,"pct_basura_informal":0,"pct_internet":86,"pct_celular":86,"pct_televisor":100}},{"type":"Feature","geometry":{"type":"Polygon","coordinates":[[[-67.49779,-16.87416],[-67.49771,-16.87424],[-67.49808,-16.87447],[-67.49827,-16.87447],[-67.49824,-16.87439],[-67.49779,-16.87416]]]},"properties":{"n":"VILOCO","p":40,"personas_x_ha":474,"masculinidad":111,"pct_menor20":42,"pct_60mas":5,"pct_migrante":57,"dependencia_econ":86,"pct_empleados":19,"pct_cuentapropia":57,"pct_agricultura":0,"pct_comercio":19,"pct_manufactura":0,"pct_construccion":0,"pct_transporte":5,"pct_alojamiento":10,"pct_sin_educacion":0,"pct_educ_superior":17,"brecha_educ":-13,"pct_sin_seguro":3,"pct_sus":55,"pct_seguro_privado":3,"brecha_seguro":5,"pct_salud_publica":19,"pct_med_tradicional":8,"pct_automedicacion":15,"pct_remedios_caseros":26,"pct_viv_desocupada":0,"pct_alquiler":0,"pct_electricidad":92,"pct_sin_electricidad":0,"pct_agua_red":92,"pct_alcantarillado":0,"pct_camara_septica":0,"pct_pozo_ciego":0,"pct_sin_desague":100,"pct_gas_red":0,"pct_gas_garrafa":100,"pct_lena_guano":100,"pct_basura_formal":92,"pct_basura_quema":0,"pct_basura_informal":0,"pct_internet":92,"pct_celular":92,"pct_televisor":100}},{"type":"Feature","geometry":{"type":"Polygon","coordinates":[[[-67.50074,-16.87579],[-67.50064,-16.87579],[-67.50022,-16.87547],[-67.50013,-16.87534],[-67.50021,-16.87519],[-67.50067,-16.87521],[-67.50074,-16.87579]]]},"properties":{"n":"VILOCO","p":40,"personas_x_ha":157,"masculinidad":186,"pct_menor20":32,"pct_60mas":10,"pct_migrante":42,"dependencia_econ":33,"pct_empleados":10,"pct_cuentapropia":73,"pct_agricultura":0,"pct_comercio":13,"pct_manufactura":0,"pct_construccion":0,"pct_transporte":0,"pct_alojamiento":13,"pct_sin_educacion":0,"pct_educ_superior":11,"brecha_educ":2,"pct_sin_seguro":2,"pct_sus":30,"pct_seguro_privado":0,"brecha_seguro":-7,"pct_salud_publica":24,"pct_med_tradicional":12,"pct_automedicacion":12,"pct_remedios_caseros":25,"pct_viv_desocupada":5,"pct_alquiler":0,"pct_electricidad":100,"pct_sin_electricidad":0,"pct_agua_red":79,"pct_alcantarillado":0,"pct_camara_septica":0,"pct_pozo_ciego":0,"pct_sin_desague":100,"pct_gas_red":0,"pct_gas_garrafa":100,"pct_lena_guano":100,"pct_basura_formal":68,"pct_basura_quema":21,"pct_basura_informal":0,"pct_internet":74,"pct_celular":95,"pct_televisor":79}},{"type":"Feature","geometry":{"type":"Polygon","coordinates":[[[-67.49833,-16.8736],[-67.49778,-16.87343],[-67.49782,-16.87354],[-67.49769,-16.8735],[-67.49771,-16.87342],[-67.49724,-16.87334],[-67.49712,-16.87343],[-67.49717,-16.87356],[-67.49726,-16.87358],[-67.4973,-16.87349],[-67.49768,-16.8736],[-67.49761,-16.87385],[-67.49714,-16.87365],[-67.4971,-16.8738],[-67.49815,-16.87421],[-67.49833,-16.8736]]]},"properties":{"n":"VILOCO","p":100,"personas_x_ha":158,"masculinidad":104,"pct_menor20":44,"pct_60mas":2,"pct_migrante":49,"dependencia_econ":106,"pct_empleados":6,"pct_cuentapropia":65,"pct_agricultura":0,"pct_comercio":17,"pct_manufactura":6,"pct_construccion":2,"pct_transporte":2,"pct_alojamiento":2,"pct_sin_educacion":0,"pct_educ_superior":9,"brecha_educ":-5,"pct_sin_seguro":6,"pct_sus":68,"pct_seguro_privado":0,"brecha_seguro":-12,"pct_salud_publica":27,"pct_med_tradicional":12,"pct_automedicacion":12,"pct_remedios_caseros":19,"pct_viv_desocupada":0,"pct_alquiler":6,"pct_electricidad":100,"pct_sin_electricidad":0,"pct_agua_red":97,"pct_alcantarillado":0,"pct_camara_septica":3,"pct_pozo_ciego":0,"pct_sin_desague":94,"pct_gas_red":0,"pct_gas_garrafa":100,"pct_lena_guano":100,"pct_basura_formal":91,"pct_basura_quema":6,"pct_basura_informal":6,"pct_internet":88,"pct_celular":91,"pct_televisor":91}},{"type":"Feature","geometry":{"type":"Polygon","coordinates":[[[-67.50001,-16.87538],[-67.49992,-16.87533],[-67.49995,-16.87525],[-67.49959,-16.87503],[-67.49953,-16.87527],[-67.49991,-16.87546],[-67.50001,-16.87538]]]},"properties":{"n":"VILOCO","p":47,"personas_x_ha":398,"masculinidad":124,"pct_menor20":40,"pct_60mas":2,"pct_migrante":36,"dependencia_econ":88,"pct_empleados":0,"pct_cuentapropia":60,"pct_agricultura":4,"pct_comercio":0,"pct_manufactura":4,"pct_construccion":0,"pct_transporte":0,"pct_alojamiento":4,"pct_sin_educacion":4,"pct_educ_superior":14,"brecha_educ":-21,"pct_sin_seguro":4,"pct_sus":69,"pct_seguro_privado":0,"brecha_seguro":8,"pct_salud_publica":24,"pct_med_tradicional":11,"pct_automedicacion":16,"pct_remedios_caseros":22,"pct_viv_desocupada":0,"pct_alquiler":33,"pct_electricidad":100,"pct_sin_electricidad":0,"pct_agua_red":87,"pct_alcantarillado":0,"pct_camara_septica":0,"pct_pozo_ciego":0,"pct_sin_desague":100,"pct_gas_red":0,"pct_gas_garrafa":100,"pct_lena_guano":100,"pct_basura_formal":100,"pct_basura_quema":0,"pct_basura_informal":0,"pct_internet":33,"pct_celular":80,"pct_televisor":73}},{"type":"Feature","geometry":{"type":"Polygon","coordinates":[[[-67.50037,-16.87419],[-67.50085,-16.87443],[-67.50088,-16.87437],[-67.50045,-16.87408],[-67.50037,-16.87419]]]},"properties":{"n":"VILOCO","p":33,"personas_x_ha":427,"masculinidad":136,"pct_menor20":36,"pct_60mas":6,"pct_migrante":45,"dependencia_econ":65,"pct_empleados":15,"pct_cuentapropia":40,"pct_agricultura":15,"pct_comercio":15,"pct_manufactura":0,"pct_construccion":0,"pct_transporte":0,"pct_alojamiento":0,"pct_sin_educacion":0,"pct_educ_superior":9,"brecha_educ":-12,"pct_sin_seguro":6,"pct_sus":33,"pct_seguro_privado":0,"brecha_seguro":11,"pct_salud_publica":32,"pct_med_tradicional":8,"pct_automedicacion":11,"pct_remedios_caseros":20,"pct_viv_desocupada":0,"pct_alquiler":38,"pct_electricidad":100,"pct_sin_electricidad":0,"pct_agua_red":100,"pct_alcantarillado":15,"pct_camara_septica":0,"pct_pozo_ciego":0,"pct_sin_desague":77,"pct_gas_red":0,"pct_gas_garrafa":100,"pct_lena_guano":100,"pct_basura_formal":85,"pct_basura_quema":8,"pct_basura_informal":0,"pct_internet":92,"pct_celular":100,"pct_televisor":92}},{"type":"Feature","geometry":{"type":"Polygon","coordinates":[[[-67.50103,-16.87425],[-67.50055,-16.87394],[-67.50047,-16.87405],[-67.50097,-16.87439],[-67.5012,-16.87439],[-67.50131,-16.87429],[-67.50114,-16.87421],[-67.50103,-16.87425]]]},"properties":{"n":"VILOCO","p":62,"personas_x_ha":410,"masculinidad":158,"pct_menor20":39,"pct_60mas":2,"pct_migrante":27,"dependencia_econ":170,"pct_empleados":13,"pct_cuentapropia":22,"pct_agricultura":4,"pct_comercio":13,"pct_manufactura":4,"pct_construccion":0,"pct_transporte":0,"pct_alojamiento":4,"pct_sin_educacion":15,"pct_educ_superior":17,"brecha_educ":-20,"pct_sin_seguro":3,"pct_sus":67,"pct_seguro_privado":0,"brecha_seguro":5,"pct_salud_publica":17,"pct_med_tradicional":11,"pct_automedicacion":18,"pct_remedios_caseros":29,"pct_viv_desocupada":0,"pct_alquiler":4,"pct_electricidad":100,"pct_sin_electricidad":0,"pct_agua_red":96,"pct_alcantarillado":0,"pct_camara_septica":0,"pct_pozo_ciego":0,"pct_sin_desague":100,"pct_gas_red":0,"pct_gas_garrafa":100,"pct_lena_guano":100,"pct_basura_formal":88,"pct_basura_quema":12,"pct_basura_informal":0,"pct_internet":79,"pct_celular":100,"pct_televisor":96}},{"type":"Feature","geometry":{"type":"Polygon","coordinates":[[[-67.49969,-16.87458],[-67.49934,-16.87446],[-67.49927,-16.87467],[-67.49962,-16.87475],[-67.49969,-16.87458]]]},"properties":{"n":"VILOCO","p":16,"personas_x_ha":188,"masculinidad":220,"pct_menor20":44,"pct_60mas":0,"pct_migrante":38,"dependencia_econ":100,"pct_empleados":0,"pct_cuentapropia":12,"pct_agricultura":0,"pct_comercio":12,"pct_manufactura":0,"pct_construccion":0,"pct_transporte":0,"pct_alojamiento":0,"pct_sin_educacion":0,"pct_educ_superior":11,"brecha_educ":14,"pct_sin_seguro":0,"pct_sus":81,"pct_seguro_privado":0,"brecha_seguro":0,"pct_salud_publica":34,"pct_med_tradicional":9,"pct_automedicacion":11,"pct_remedios_caseros":17,"pct_viv_desocupada":0,"pct_alquiler":0,"pct_electricidad":100,"pct_sin_electricidad":0,"pct_agua_red":100,"pct_alcantarillado":0,"pct_camara_septica":0,"pct_pozo_ciego":0,"pct_sin_desague":100,"pct_gas_red":0,"pct_gas_garrafa":100,"pct_lena_guano":100,"pct_basura_formal":100,"pct_basura_quema":0,"pct_basura_informal":0,"pct_internet":67,"pct_celular":83,"pct_televisor":83}},{"type":"Feature","geometry":{"type":"Polygon","coordinates":[[[-67.4998,-16.87432],[-67.49986,-16.87415],[-67.4995,-16.87405],[-67.49944,-16.8742],[-67.4998,-16.87432]]]},"properties":{"n":"VILOCO","p":27,"personas_x_ha":323,"masculinidad":93,"pct_menor20":37,"pct_60mas":26,"pct_migrante":52,"dependencia_econ":80,"pct_empleados":20,"pct_cuentapropia":27,"pct_agricultura":0,"pct_comercio":7,"pct_manufactura":13,"pct_construccion":0,"pct_transporte":0,"pct_alojamiento":13,"pct_sin_educacion":0,"pct_educ_superior":18,"brecha_educ":-38,"pct_sin_seguro":4,"pct_sus":26,"pct_seguro_privado":0,"brecha_seguro":8,"pct_salud_publica":22,"pct_med_tradicional":4,"pct_automedicacion":17,"pct_remedios_caseros":23,"pct_viv_desocupada":0,"pct_alquiler":0,"pct_electricidad":90,"pct_sin_electricidad":0,"pct_agua_red":70,"pct_alcantarillado":10,"pct_camara_septica":0,"pct_pozo_ciego":0,"pct_sin_desague":90,"pct_gas_red":0,"pct_gas_garrafa":100,"pct_lena_guano":100,"pct_basura_formal":90,"pct_basura_quema":10,"pct_basura_informal":0,"pct_internet":80,"pct_celular":100,"pct_televisor":90}},{"type":"Feature","geometry":{"type":"Polygon","coordinates":[[[-67.49979,-16.87456],[-67.49975,-16.87463],[-67.50055,-16.87507],[-67.50059,-16.87501],[-67.49979,-16.87456]]]},"properties":{"n":"VILOCO","p":53,"personas_x_ha":641,"masculinidad":112,"pct_menor20":42,"pct_60mas":6,"pct_migrante":43,"dependencia_econ":77,"pct_empleados":17,"pct_cuentapropia":50,"pct_agricultura":3,"pct_comercio":27,"pct_manufactura":7,"pct_construccion":3,"pct_transporte":0,"pct_alojamiento":10,"pct_sin_educacion":3,"pct_educ_superior":26,"brecha_educ":-5,"pct_sin_seguro":0,"pct_sus":17,"pct_seguro_privado":0,"brecha_seguro":0,"pct_salud_publica":21,"pct_med_tradicional":9,"pct_automedicacion":15,"pct_remedios_caseros":24,"pct_viv_desocupada":0,"pct_alquiler":6,"pct_electricidad":100,"pct_sin_electricidad":0,"pct_agua_red":94,"pct_alcantarillado":0,"pct_camara_septica":0,"pct_pozo_ciego":0,"pct_sin_desague":94,"pct_gas_red":0,"pct_gas_garrafa":100,"pct_lena_guano":100,"pct_basura_formal":100,"pct_basura_quema":0,"pct_basura_informal":0,"pct_internet":81,"pct_celular":100,"pct_televisor":94}},{"type":"Feature","geometry":{"type":"Polygon","coordinates":[[[-67.50193,-16.87584],[-67.50182,-16.87518],[-67.5013,-16.87515],[-67.50179,-16.87577],[-67.50193,-16.87584]]]},"properties":{"n":"VILOCO","p":27,"personas_x_ha":112,"masculinidad":93,"pct_menor20":44,"pct_60mas":0,"pct_migrante":44,"dependencia_econ":145,"pct_empleados":36,"pct_cuentapropia":27,"pct_agricultura":0,"pct_comercio":9,"pct_manufactura":0,"pct_construccion":0,"pct_transporte":0,"pct_alojamiento":9,"pct_sin_educacion":0,"pct_educ_superior":40,"brecha_educ":11,"pct_sin_seguro":4,"pct_sus":41,"pct_seguro_privado":0,"brecha_seguro":-7,"pct_salud_publica":18,"pct_med_tradicional":10,"pct_automedicacion":19,"pct_remedios_caseros":26,"pct_viv_desocupada":0,"pct_alquiler":0,"pct_electricidad":100,"pct_sin_electricidad":0,"pct_agua_red":70,"pct_alcantarillado":50,"pct_camara_septica":20,"pct_pozo_ciego":10,"pct_sin_desague":20,"pct_gas_red":0,"pct_gas_garrafa":100,"pct_lena_guano":100,"pct_basura_formal":60,"pct_basura_quema":20,"pct_basura_informal":20,"pct_internet":100,"pct_celular":100,"pct_televisor":90}},{"type":"Feature","geometry":{"type":"Polygon","coordinates":[[[-67.50108,-16.87577],[-67.50081,-16.87561],[-67.50078,-16.87531],[-67.50119,-16.87536],[-67.50142,-16.87561],[-67.50108,-16.87577]]]},"properties":{"n":"VILOCO","p":26,"personas_x_ha":108,"masculinidad":136,"pct_menor20":50,"pct_60mas":0,"pct_migrante":35,"dependencia_econ":189,"pct_empleados":22,"pct_cuentapropia":56,"pct_agricultura":0,"pct_comercio":0,"pct_manufactura":0,"pct_construccion":0,"pct_transporte":0,"pct_alojamiento":0,"pct_sin_educacion":0,"pct_educ_superior":8,"brecha_educ":11,"pct_sin_seguro":4,"pct_sus":62,"pct_seguro_privado":0,"brecha_seguro":7,"pct_salud_publica":17,"pct_med_tradicional":9,"pct_automedicacion":12,"pct_remedios_caseros":28,"pct_viv_desocupada":0,"pct_alquiler":0,"pct_electricidad":100,"pct_sin_electricidad":0,"pct_agua_red":100,"pct_alcantarillado":11,"pct_camara_septica":0,"pct_pozo_ciego":0,"pct_sin_desague":89,"pct_gas_red":0,"pct_gas_garrafa":100,"pct_lena_guano":100,"pct_basura_formal":67,"pct_basura_quema":22,"pct_basura_informal":0,"pct_internet":78,"pct_celular":100,"pct_televisor":89}},{"type":"Feature","geometry":{"type":"Polygon","coordinates":[[[-67.49736,-16.8729],[-67.49878,-16.8732],[-67.49918,-16.87321],[-67.49922,-16.87304],[-67.49784,-16.87276],[-67.49733,-16.87282],[-67.49736,-16.8729]]]},"properties":{"n":"VILOCO","p":23,"personas_x_ha":48,"masculinidad":92,"pct_menor20":39,"pct_60mas":0,"pct_migrante":70,"dependencia_econ":92,"pct_empleados":8,"pct_cuentapropia":75,"pct_agricultura":17,"pct_comercio":8,"pct_manufactura":0,"pct_construccion":0,"pct_transporte":0,"pct_alojamiento":17,"pct_sin_educacion":0,"pct_educ_superior":0,"brecha_educ":14,"pct_sin_seguro":0,"pct_sus":5,"pct_seguro_privado":5,"brecha_seguro":0,"pct_salud_publica":9,"pct_med_tradicional":18,"pct_automedicacion":15,"pct_remedios_caseros":17,"pct_viv_desocupada":7,"pct_alquiler":10,"pct_electricidad":100,"pct_sin_electricidad":0,"pct_agua_red":30,"pct_alcantarillado":0,"pct_camara_septica":0,"pct_pozo_ciego":0,"pct_sin_desague":100,"pct_gas_red":0,"pct_gas_garrafa":80,"pct_lena_guano":80,"pct_basura_formal":90,"pct_basura_quema":0,"pct_basura_informal":0,"pct_internet":60,"pct_celular":90,"pct_televisor":90}},{"type":"Feature","geometry":{"type":"Polygon","coordinates":[[[-67.49971,-16.87454],[-67.49938,-16.87444],[-67.49941,-16.87433],[-67.49948,-16.87426],[-67.49977,-16.87438],[-67.49971,-16.87454]]]},"properties":{"n":"VILOCO","p":18,"personas_x_ha":236,"masculinidad":80,"pct_menor20":39,"pct_60mas":11,"pct_migrante":44,"dependencia_econ":125,"pct_empleados":25,"pct_cuentapropia":12,"pct_agricultura":0,"pct_comercio":0,"pct_manufactura":0,"pct_construccion":0,"pct_transporte":0,"pct_alojamiento":0,"pct_sin_educacion":0,"pct_educ_superior":36,"brecha_educ":3,"pct_sin_seguro":0,"pct_sus":39,"pct_seguro_privado":0,"brecha_seguro":0,"pct_salud_publica":24,"pct_med_tradicional":2,"pct_automedicacion":26,"pct_remedios_caseros":33,"pct_viv_desocupada":0,"pct_alquiler":0,"pct_electricidad":100,"pct_sin_electricidad":0,"pct_agua_red":100,"pct_alcantarillado":0,"pct_camara_septica":0,"pct_pozo_ciego":0,"pct_sin_desague":100,"pct_gas_red":0,"pct_gas_garrafa":100,"pct_lena_guano":100,"pct_basura_formal":86,"pct_basura_quema":14,"pct_basura_informal":0,"pct_internet":86,"pct_celular":100,"pct_televisor":86}},{"type":"Feature","geometry":{"type":"Polygon","coordinates":[[[-67.49494,-16.87359],[-67.49463,-16.87353],[-67.4946,-16.87369],[-67.49493,-16.87375],[-67.49494,-16.87359]]]},"properties":{"n":"VILOCO","p":15,"personas_x_ha":232,"masculinidad":150,"pct_menor20":27,"pct_60mas":0,"pct_migrante":87,"dependencia_econ":150,"pct_empleados":33,"pct_cuentapropia":17,"pct_agricultura":17,"pct_comercio":0,"pct_manufactura":17,"pct_construccion":0,"pct_transporte":0,"pct_alojamiento":0,"pct_sin_educacion":0,"pct_educ_superior":17,"brecha_educ":0,"pct_sin_seguro":13,"pct_sus":53,"pct_seguro_privado":0,"brecha_seguro":-6,"pct_salud_publica":21,"pct_med_tradicional":3,"pct_automedicacion":19,"pct_remedios_caseros":21,"pct_viv_desocupada":0,"pct_alquiler":33,"pct_electricidad":100,"pct_sin_electricidad":0,"pct_agua_red":83,"pct_alcantarillado":17,"pct_camara_septica":0,"pct_pozo_ciego":0,"pct_sin_desague":67,"pct_gas_red":0,"pct_gas_garrafa":100,"pct_lena_guano":100,"pct_basura_formal":50,"pct_basura_quema":17,"pct_basura_informal":33,"pct_internet":67,"pct_celular":100,"pct_televisor":100}},{"type":"Feature","geometry":{"type":"Polygon","coordinates":[[[-67.50037,-16.8745],[-67.50029,-16.87464],[-67.50002,-16.8745],[-67.5001,-16.87435],[-67.50037,-16.8745]]]},"properties":{"n":"VILOCO","p":16,"personas_x_ha":265,"masculinidad":220,"pct_menor20":19,"pct_60mas":0,"pct_migrante":31,"dependencia_econ":45,"pct_empleados":18,"pct_cuentapropia":18,"pct_agricultura":0,"pct_comercio":18,"pct_manufactura":0,"pct_construccion":0,"pct_transporte":0,"pct_alojamiento":9,"pct_sin_educacion":0,"pct_educ_superior":29,"brecha_educ":0,"pct_sin_seguro":12,"pct_sus":44,"pct_seguro_privado":0,"brecha_seguro":18,"pct_salud_publica":22,"pct_med_tradicional":5,"pct_automedicacion":15,"pct_remedios_caseros":24,"pct_viv_desocupada":0,"pct_alquiler":0,"pct_electricidad":100,"pct_sin_electricidad":0,"pct_agua_red":71,"pct_alcantarillado":43,"pct_camara_septica":0,"pct_pozo_ciego":0,"pct_sin_desague":57,"pct_gas_red":0,"pct_gas_garrafa":100,"pct_lena_guano":100,"pct_basura_formal":100,"pct_basura_quema":0,"pct_basura_informal":0,"pct_internet":100,"pct_celular":100,"pct_televisor":86}},{"type":"Feature","geometry":{"type":"Polygon","coordinates":[[[-67.49948,-16.87395],[-67.49938,-16.87391],[-67.4992,-16.87443],[-67.4993,-16.87447],[-67.49948,-16.87395]]]},"properties":{"n":"VILOCO","p":27,"personas_x_ha":385,"masculinidad":125,"pct_menor20":33,"pct_60mas":4,"pct_migrante":48,"dependencia_econ":80,"pct_empleados":0,"pct_cuentapropia":27,"pct_agricultura":13,"pct_comercio":7,"pct_manufactura":0,"pct_construccion":0,"pct_transporte":0,"pct_alojamiento":0,"pct_sin_educacion":0,"pct_educ_superior":28,"brecha_educ":-14,"pct_sin_seguro":11,"pct_sus":19,"pct_seguro_privado":0,"brecha_seguro":5,"pct_salud_publica":17,"pct_med_tradicional":17,"pct_automedicacion":9,"pct_remedios_caseros":26,"pct_viv_desocupada":0,"pct_alquiler":0,"pct_electricidad":86,"pct_sin_electricidad":0,"pct_agua_red":57,"pct_alcantarillado":14,"pct_camara_septica":0,"pct_pozo_ciego":0,"pct_sin_desague":71,"pct_gas_red":0,"pct_gas_garrafa":100,"pct_lena_guano":100,"pct_basura_formal":86,"pct_basura_quema":0,"pct_basura_informal":29,"pct_internet":71,"pct_celular":100,"pct_televisor":100}},{"type":"Feature","geometry":{"type":"Polygon","coordinates":[[[-67.50051,-16.87395],[-67.50047,-16.87378],[-67.50013,-16.87358],[-67.49982,-16.87351],[-67.49971,-16.87372],[-67.50036,-16.87408],[-67.50051,-16.87395]]]},"properties":{"n":"VILOCO","p":79,"personas_x_ha":287,"masculinidad":193,"pct_menor20":34,"pct_60mas":13,"pct_migrante":29,"dependencia_econ":72,"pct_empleados":15,"pct_cuentapropia":30,"pct_agricultura":4,"pct_comercio":4,"pct_manufactura":2,"pct_construccion":0,"pct_transporte":0,"pct_alojamiento":0,"pct_sin_educacion":6,"pct_educ_superior":12,"brecha_educ":-10,"pct_sin_seguro":10,"pct_sus":48,"pct_seguro_privado":0,"brecha_seguro":-1,"pct_salud_publica":22,"pct_med_tradicional":6,"pct_automedicacion":15,"pct_remedios_caseros":21,"pct_viv_desocupada":0,"pct_alquiler":18,"pct_electricidad":100,"pct_sin_electricidad":0,"pct_agua_red":93,"pct_alcantarillado":0,"pct_camara_septica":0,"pct_pozo_ciego":0,"pct_sin_desague":100,"pct_gas_red":0,"pct_gas_garrafa":100,"pct_lena_guano":100,"pct_basura_formal":79,"pct_basura_quema":4,"pct_basura_informal":7,"pct_internet":68,"pct_celular":86,"pct_televisor":79}},{"type":"Feature","geometry":{"type":"Polygon","coordinates":[[[-67.49948,-16.87536],[-67.49952,-16.8752],[-67.49923,-16.87501],[-67.4991,-16.87512],[-67.49915,-16.87515],[-67.49918,-16.87516],[-67.49929,-16.87522],[-67.49915,-16.87516],[-67.4991,-16.87512],[-67.49893,-16.87527],[-67.49926,-16.87559],[-67.49948,-16.87536]]]},"properties":{"n":"VILOCO","p":35,"personas_x_ha":159,"masculinidad":133,"pct_menor20":43,"pct_60mas":3,"pct_migrante":54,"dependencia_econ":133,"pct_empleados":7,"pct_cuentapropia":60,"pct_agricultura":0,"pct_comercio":13,"pct_manufactura":0,"pct_construccion":0,"pct_transporte":0,"pct_alojamiento":0,"pct_sin_educacion":0,"pct_educ_superior":10,"brecha_educ":-50,"pct_sin_seguro":15,"pct_sus":58,"pct_seguro_privado":0,"brecha_seguro":26,"pct_salud_publica":35,"pct_med_tradicional":8,"pct_automedicacion":11,"pct_remedios_caseros":18,"pct_viv_desocupada":12,"pct_alquiler":13,"pct_electricidad":100,"pct_sin_electricidad":0,"pct_agua_red":80,"pct_alcantarillado":0,"pct_camara_septica":0,"pct_pozo_ciego":0,"pct_sin_desague":100,"pct_gas_red":0,"pct_gas_garrafa":100,"pct_lena_guano":100,"pct_basura_formal":93,"pct_basura_quema":7,"pct_basura_informal":0,"pct_internet":73,"pct_celular":80,"pct_televisor":80}},{"type":"Feature","geometry":{"type":"Polygon","coordinates":[[[-67.4995,-16.87387],[-67.49841,-16.8735],[-67.49845,-16.87339],[-67.49947,-16.8737],[-67.49967,-16.87384],[-67.49958,-16.87398],[-67.4995,-16.87387]]]},"properties":{"n":"VILOCO","p":60,"personas_x_ha":287,"masculinidad":131,"pct_menor20":38,"pct_60mas":18,"pct_migrante":40,"dependencia_econ":76,"pct_empleados":0,"pct_cuentapropia":44,"pct_agricultura":9,"pct_comercio":3,"pct_manufactura":0,"pct_construccion":0,"pct_transporte":3,"pct_alojamiento":6,"pct_sin_educacion":5,"pct_educ_superior":10,"brecha_educ":-27,"pct_sin_seguro":5,"pct_sus":39,"pct_seguro_privado":0,"brecha_seguro":10,"pct_salud_publica":17,"pct_med_tradicional":17,"pct_automedicacion":20,"pct_remedios_caseros":24,"pct_viv_desocupada":0,"pct_alquiler":0,"pct_electricidad":100,"pct_sin_electricidad":0,"pct_agua_red":80,"pct_alcantarillado":20,"pct_camara_septica":0,"pct_pozo_ciego":0,"pct_sin_desague":68,"pct_gas_red":0,"pct_gas_garrafa":100,"pct_lena_guano":100,"pct_basura_formal":92,"pct_basura_quema":0,"pct_basura_informal":0,"pct_internet":84,"pct_celular":96,"pct_televisor":92}},{"type":"Feature","geometry":{"type":"Polygon","coordinates":[[[-67.49764,-16.87437],[-67.49766,-16.87431],[-67.49742,-16.87417],[-67.49707,-16.87411],[-67.49764,-16.87437]]]},"properties":{"n":"VILOCO","p":18,"personas_x_ha":385,"masculinidad":200,"pct_menor20":61,"pct_60mas":0,"pct_migrante":44,"dependencia_econ":200,"pct_empleados":17,"pct_cuentapropia":17,"pct_agricultura":0,"pct_comercio":33,"pct_manufactura":0,"pct_construccion":0,"pct_transporte":0,"pct_alojamiento":0,"pct_sin_educacion":0,"pct_educ_superior":0,"brecha_educ":25,"pct_sin_seguro":0,"pct_sus":100,"pct_seguro_privado":0,"brecha_seguro":0,"pct_salud_publica":19,"pct_med_tradicional":16,"pct_automedicacion":12,"pct_remedios_caseros":24,"pct_viv_desocupada":14,"pct_alquiler":0,"pct_electricidad":100,"pct_sin_electricidad":0,"pct_agua_red":100,"pct_alcantarillado":0,"pct_camara_septica":0,"pct_pozo_ciego":0,"pct_sin_desague":100,"pct_gas_red":0,"pct_gas_garrafa":100,"pct_lena_guano":100,"pct_basura_formal":100,"pct_basura_quema":0,"pct_basura_informal":0,"pct_internet":100,"pct_celular":100,"pct_televisor":100}},{"type":"Feature","geometry":{"type":"Polygon","coordinates":[[[-67.49921,-16.87483],[-67.49886,-16.8748],[-67.49921,-16.87484],[-67.49919,-16.875],[-67.49891,-16.87524],[-67.49794,-16.87465],[-67.49834,-16.87446],[-67.49856,-16.8746],[-67.49924,-16.8747],[-67.49921,-16.87483]]]},"properties":{"n":"VILOCO","p":66,"personas_x_ha":113,"masculinidad":144,"pct_menor20":39,"pct_60mas":11,"pct_migrante":45,"dependencia_econ":113,"pct_empleados":6,"pct_cuentapropia":35,"pct_agricultura":0,"pct_comercio":10,"pct_manufactura":0,"pct_construccion":3,"pct_transporte":0,"pct_alojamiento":3,"pct_sin_educacion":0,"pct_educ_superior":7,"brecha_educ":-7,"pct_sin_seguro":8,"pct_sus":66,"pct_seguro_privado":3,"brecha_seguro":7,"pct_salud_publica":36,"pct_med_tradicional":6,"pct_automedicacion":5,"pct_remedios_caseros":18,"pct_viv_desocupada":0,"pct_alquiler":4,"pct_electricidad":96,"pct_sin_electricidad":4,"pct_agua_red":79,"pct_alcantarillado":0,"pct_camara_septica":0,"pct_pozo_ciego":0,"pct_sin_desague":100,"pct_gas_red":0,"pct_gas_garrafa":100,"pct_lena_guano":100,"pct_basura_formal":92,"pct_basura_quema":8,"pct_basura_informal":0,"pct_internet":67,"pct_celular":88,"pct_televisor":92}},{"type":"Feature","geometry":{"type":"Polygon","coordinates":[[[-67.50574,-16.8765],[-67.50568,-16.87641],[-67.50503,-16.87664],[-67.50507,-16.87674],[-67.50574,-16.8765]]]},"properties":{"n":"VILOCO","p":37,"personas_x_ha":396,"masculinidad":118,"pct_menor20":38,"pct_60mas":8,"pct_migrante":62,"dependencia_econ":106,"pct_empleados":6,"pct_cuentapropia":22,"pct_agricultura":22,"pct_comercio":11,"pct_manufactura":0,"pct_construccion":0,"pct_transporte":0,"pct_alojamiento":0,"pct_sin_educacion":4,"pct_educ_superior":22,"brecha_educ":-12,"pct_sin_seguro":5,"pct_sus":57,"pct_seguro_privado":0,"brecha_seguro":10,"pct_salud_publica":23,"pct_med_tradicional":13,"pct_automedicacion":15,"pct_remedios_caseros":22,"pct_viv_desocupada":0,"pct_alquiler":14,"pct_electricidad":79,"pct_sin_electricidad":21,"pct_agua_red":79,"pct_alcantarillado":7,"pct_camara_septica":0,"pct_pozo_ciego":0,"pct_sin_desague":93,"pct_gas_red":0,"pct_gas_garrafa":100,"pct_lena_guano":100,"pct_basura_formal":29,"pct_basura_quema":64,"pct_basura_informal":0,"pct_internet":71,"pct_celular":93,"pct_televisor":57}},{"type":"Feature","geometry":{"type":"Polygon","coordinates":[[[-67.49497,-16.87305],[-67.49532,-16.87309],[-67.4953,-16.87329],[-67.49483,-16.87325],[-67.49483,-16.87313],[-67.49497,-16.87305]]]},"properties":{"n":"VILOCO","p":27,"personas_x_ha":233,"masculinidad":108,"pct_menor20":37,"pct_60mas":7,"pct_migrante":56,"dependencia_econ":125,"pct_empleados":8,"pct_cuentapropia":42,"pct_agricultura":0,"pct_comercio":0,"pct_manufactura":25,"pct_construccion":0,"pct_transporte":0,"pct_alojamiento":0,"pct_sin_educacion":0,"pct_educ_superior":12,"brecha_educ":6,"pct_sin_seguro":7,"pct_sus":78,"pct_seguro_privado":0,"brecha_seguro":14,"pct_salud_publica":14,"pct_med_tradicional":11,"pct_automedicacion":10,"pct_remedios_caseros":33,"pct_viv_desocupada":0,"pct_alquiler":11,"pct_electricidad":100,"pct_sin_electricidad":0,"pct_agua_red":78,"pct_alcantarillado":11,"pct_camara_septica":0,"pct_pozo_ciego":0,"pct_sin_desague":89,"pct_gas_red":0,"pct_gas_garrafa":100,"pct_lena_guano":100,"pct_basura_formal":78,"pct_basura_quema":0,"pct_basura_informal":22,"pct_internet":78,"pct_celular":89,"pct_televisor":67}},{"type":"Feature","geometry":{"type":"Polygon","coordinates":[[[-67.49913,-16.8745],[-67.49843,-16.87432],[-67.49835,-16.87441],[-67.4991,-16.87463],[-67.49913,-16.8745]]]},"properties":{"n":"VILOCO","p":60,"personas_x_ha":613,"masculinidad":122,"pct_menor20":42,"pct_60mas":8,"pct_migrante":42,"dependencia_econ":205,"pct_empleados":11,"pct_cuentapropia":63,"pct_agricultura":5,"pct_comercio":5,"pct_manufactura":0,"pct_construccion":0,"pct_transporte":0,"pct_alojamiento":11,"pct_sin_educacion":0,"pct_educ_superior":30,"brecha_educ":-3,"pct_sin_seguro":2,"pct_sus":91,"pct_seguro_privado":0,"brecha_seguro":3,"pct_salud_publica":21,"pct_med_tradicional":4,"pct_automedicacion":19,"pct_remedios_caseros":22,"pct_viv_desocupada":0,"pct_alquiler":5,"pct_electricidad":95,"pct_sin_electricidad":0,"pct_agua_red":79,"pct_alcantarillado":0,"pct_camara_septica":0,"pct_pozo_ciego":0,"pct_sin_desague":100,"pct_gas_red":0,"pct_gas_garrafa":100,"pct_lena_guano":100,"pct_basura_formal":63,"pct_basura_quema":11,"pct_basura_informal":0,"pct_internet":79,"pct_celular":89,"pct_televisor":89}}]}