{"type":"FeatureCollection","features":[{"type":"Feature","geometry":{"type":"Polygon","coordinates":[[[-68.73746,-16.44327],[-68.73745,-16.44268],[-68.73708,-16.44275],[-68.73708,-16.44325],[-68.73746,-16.44327]]]},"properties":{"n":"HUACULLANI","p":29,"personas_x_ha":119,"masculinidad":93,"pct_menor20":55,"pct_60mas":3,"pct_migrante":17,"dependencia_econ":81,"pct_empleados":6,"pct_cuentapropia":69,"pct_agricultura":62,"pct_comercio":12,"pct_manufactura":6,"pct_construccion":6,"pct_transporte":0,"pct_alojamiento":6,"pct_sin_educacion":13,"pct_educ_superior":13,"brecha_educ":-44,"pct_sin_seguro":7,"pct_sus":93,"pct_seguro_privado":0,"brecha_seguro":-13,"pct_salud_publica":39,"pct_med_tradicional":14,"pct_automedicacion":4,"pct_remedios_caseros":44,"pct_viv_desocupada":10,"pct_alquiler":0,"pct_electricidad":100,"pct_sin_electricidad":0,"pct_agua_red":100,"pct_alcantarillado":0,"pct_camara_septica":0,"pct_pozo_ciego":56,"pct_sin_desague":44,"pct_gas_red":0,"pct_gas_garrafa":100,"pct_lena_guano":0,"pct_basura_formal":33,"pct_basura_quema":67,"pct_basura_informal":0,"pct_internet":89,"pct_celular":100,"pct_televisor":22}},{"type":"Feature","geometry":{"type":"Polygon","coordinates":[[[-68.7385,-16.44244],[-68.73848,-16.44326],[-68.73886,-16.44324],[-68.73883,-16.44242],[-68.7385,-16.44244]]]},"properties":{"n":"HUACULLANI","p":20,"personas_x_ha":55,"masculinidad":122,"pct_menor20":45,"pct_60mas":5,"pct_migrante":10,"dependencia_econ":43,"pct_empleados":21,"pct_cuentapropia":79,"pct_agricultura":43,"pct_comercio":7,"pct_manufactura":14,"pct_construccion":7,"pct_transporte":0,"pct_alojamiento":7,"pct_sin_educacion":0,"pct_educ_superior":9,"brecha_educ":-32,"pct_sin_seguro":25,"pct_sus":55,"pct_seguro_privado":0,"brecha_seguro":25,"pct_salud_publica":25,"pct_med_tradicional":11,"pct_automedicacion":20,"pct_remedios_caseros":27,"pct_viv_desocupada":15,"pct_alquiler":0,"pct_electricidad":36,"pct_sin_electricidad":64,"pct_agua_red":9,"pct_alcantarillado":0,"pct_camara_septica":0,"pct_pozo_ciego":0,"pct_sin_desague":100,"pct_gas_red":0,"pct_gas_garrafa":100,"pct_lena_guano":0,"pct_basura_formal":82,"pct_basura_quema":9,"pct_basura_informal":9,"pct_internet":64,"pct_celular":91,"pct_televisor":9}},{"type":"Feature","geometry":{"type":"Polygon","coordinates":[[[-68.74274,-16.44528],[-68.7428,-16.44492],[-68.7421,-16.44495],[-68.74212,-16.44532],[-68.74274,-16.44528]]]},"properties":{"n":"HUACULLANI","p":27,"personas_x_ha":94,"masculinidad":69,"pct_menor20":52,"pct_60mas":7,"pct_migrante":26,"dependencia_econ":93,"pct_empleados":0,"pct_cuentapropia":57,"pct_agricultura":100,"pct_comercio":0,"pct_manufactura":0,"pct_construccion":0,"pct_transporte":0,"pct_alojamiento":0,"pct_sin_educacion":0,"pct_educ_superior":0,"brecha_educ":-13,"pct_sin_seguro":0,"pct_sus":100,"pct_seguro_privado":0,"brecha_seguro":0,"pct_salud_publica":75,"pct_med_tradicional":7,"pct_automedicacion":0,"pct_remedios_caseros":7,"pct_viv_desocupada":8,"pct_alquiler":0,"pct_electricidad":67,"pct_sin_electricidad":33,"pct_agua_red":67,"pct_alcantarillado":0,"pct_camara_septica":0,"pct_pozo_ciego":0,"pct_sin_desague":100,"pct_gas_red":0,"pct_gas_garrafa":92,"pct_lena_guano":8,"pct_basura_formal":100,"pct_basura_quema":0,"pct_basura_informal":0,"pct_internet":0,"pct_celular":67,"pct_televisor":17}},{"type":"Feature","geometry":{"type":"Polygon","coordinates":[[[-68.74077,-16.44401],[-68.74128,-16.44401],[-68.74126,-16.44363],[-68.74071,-16.44365],[-68.7407,-16.44395],[-68.74077,-16.44401]]]},"properties":{"n":"HUACULLANI","p":22,"personas_x_ha":88,"masculinidad":47,"pct_menor20":45,"pct_60mas":14,"pct_migrante":9,"dependencia_econ":83,"pct_empleados":0,"pct_cuentapropia":50,"pct_agricultura":92,"pct_comercio":0,"pct_manufactura":8,"pct_construccion":0,"pct_transporte":0,"pct_alojamiento":0,"pct_sin_educacion":8,"pct_educ_superior":15,"brecha_educ":-43,"pct_sin_seguro":0,"pct_sus":90,"pct_seguro_privado":0,"brecha_seguro":0,"pct_salud_publica":59,"pct_med_tradicional":24,"pct_automedicacion":0,"pct_remedios_caseros":12,"pct_viv_desocupada":17,"pct_alquiler":10,"pct_electricidad":70,"pct_sin_electricidad":30,"pct_agua_red":80,"pct_alcantarillado":0,"pct_camara_septica":0,"pct_pozo_ciego":0,"pct_sin_desague":100,"pct_gas_red":0,"pct_gas_garrafa":70,"pct_lena_guano":10,"pct_basura_formal":90,"pct_basura_quema":10,"pct_basura_informal":0,"pct_internet":40,"pct_celular":60,"pct_televisor":20}},{"type":"Feature","geometry":{"type":"Polygon","coordinates":[[[-68.73979,-16.44225],[-68.73977,-16.44201],[-68.73939,-16.44203],[-68.7394,-16.44229],[-68.73979,-16.44225]]]},"properties":{"n":"HUACULLANI","p":19,"personas_x_ha":153,"masculinidad":90,"pct_menor20":21,"pct_60mas":5,"pct_migrante":42,"dependencia_econ":112,"pct_empleados":0,"pct_cuentapropia":100,"pct_agricultura":25,"pct_comercio":12,"pct_manufactura":38,"pct_construccion":12,"pct_transporte":0,"pct_alojamiento":12,"pct_sin_educacion":23,"pct_educ_superior":8,"brecha_educ":-50,"pct_sin_seguro":7,"pct_sus":40,"pct_seguro_privado":27,"brecha_seguro":-12,"pct_salud_publica":40,"pct_med_tradicional":12,"pct_automedicacion":20,"pct_remedios_caseros":16,"pct_viv_desocupada":23,"pct_alquiler":0,"pct_electricidad":89,"pct_sin_electricidad":11,"pct_agua_red":44,"pct_alcantarillado":0,"pct_camara_septica":0,"pct_pozo_ciego":11,"pct_sin_desague":89,"pct_gas_red":11,"pct_gas_garrafa":89,"pct_lena_guano":0,"pct_basura_formal":33,"pct_basura_quema":44,"pct_basura_informal":0,"pct_internet":44,"pct_celular":89,"pct_televisor":67}},{"type":"Feature","geometry":{"type":"Polygon","coordinates":[[[-68.73928,-16.44231],[-68.73929,-16.44207],[-68.73866,-16.44217],[-68.73822,-16.44238],[-68.73928,-16.44231]]]},"properties":{"n":"HUACULLANI","p":18,"personas_x_ha":83,"masculinidad":100,"pct_menor20":22,"pct_60mas":22,"pct_migrante":0,"dependencia_econ":20,"pct_empleados":7,"pct_cuentapropia":27,"pct_agricultura":73,"pct_comercio":0,"pct_manufactura":7,"pct_construccion":0,"pct_transporte":7,"pct_alojamiento":0,"pct_sin_educacion":0,"pct_educ_superior":21,"brecha_educ":-21,"pct_sin_seguro":50,"pct_sus":39,"pct_seguro_privado":6,"brecha_seguro":-11,"pct_salud_publica":28,"pct_med_tradicional":0,"pct_automedicacion":9,"pct_remedios_caseros":56,"pct_viv_desocupada":0,"pct_alquiler":0,"pct_electricidad":38,"pct_sin_electricidad":62,"pct_agua_red":8,"pct_alcantarillado":0,"pct_camara_septica":0,"pct_pozo_ciego":8,"pct_sin_desague":92,"pct_gas_red":0,"pct_gas_garrafa":15,"pct_lena_guano":85,"pct_basura_formal":0,"pct_basura_quema":77,"pct_basura_informal":0,"pct_internet":15,"pct_celular":69,"pct_televisor":8}},{"type":"Feature","geometry":{"type":"Polygon","coordinates":[[[-68.73976,-16.44318],[-68.73979,-16.44239],[-68.73941,-16.44238],[-68.73942,-16.44319],[-68.73976,-16.44318]]]},"properties":{"n":"HUACULLANI","p":46,"personas_x_ha":126,"masculinidad":142,"pct_menor20":48,"pct_60mas":7,"pct_migrante":11,"dependencia_econ":61,"pct_empleados":4,"pct_cuentapropia":75,"pct_agricultura":71,"pct_comercio":4,"pct_manufactura":18,"pct_construccion":0,"pct_transporte":0,"pct_alojamiento":0,"pct_sin_educacion":0,"pct_educ_superior":4,"brecha_educ":-3,"pct_sin_seguro":30,"pct_sus":68,"pct_seguro_privado":0,"brecha_seguro":-4,"pct_salud_publica":29,"pct_med_tradicional":25,"pct_automedicacion":6,"pct_remedios_caseros":26,"pct_viv_desocupada":4,"pct_alquiler":0,"pct_electricidad":55,"pct_sin_electricidad":45,"pct_agua_red":32,"pct_alcantarillado":0,"pct_camara_septica":0,"pct_pozo_ciego":18,"pct_sin_desague":77,"pct_gas_red":0,"pct_gas_garrafa":64,"pct_lena_guano":27,"pct_basura_formal":55,"pct_basura_quema":45,"pct_basura_informal":0,"pct_internet":41,"pct_celular":86,"pct_televisor":23}},{"type":"Feature","geometry":{"type":"Polygon","coordinates":[[[-68.74058,-16.44359],[-68.74059,-16.44321],[-68.73953,-16.44327],[-68.73952,-16.44352],[-68.73979,-16.44361],[-68.74058,-16.44359]]]},"properties":{"n":"HUACULLANI","p":36,"personas_x_ha":80,"masculinidad":125,"pct_menor20":39,"pct_60mas":17,"pct_migrante":6,"dependencia_econ":140,"pct_empleados":13,"pct_cuentapropia":67,"pct_agricultura":73,"pct_comercio":0,"pct_manufactura":7,"pct_construccion":7,"pct_transporte":0,"pct_alojamiento":0,"pct_sin_educacion":5,"pct_educ_superior":27,"brecha_educ":9,"pct_sin_seguro":3,"pct_sus":94,"pct_seguro_privado":0,"brecha_seguro":-6,"pct_salud_publica":37,"pct_med_tradicional":21,"pct_automedicacion":5,"pct_remedios_caseros":34,"pct_viv_desocupada":6,"pct_alquiler":0,"pct_electricidad":100,"pct_sin_electricidad":0,"pct_agua_red":38,"pct_alcantarillado":0,"pct_camara_septica":0,"pct_pozo_ciego":25,"pct_sin_desague":75,"pct_gas_red":0,"pct_gas_garrafa":94,"pct_lena_guano":6,"pct_basura_formal":62,"pct_basura_quema":38,"pct_basura_informal":0,"pct_internet":50,"pct_celular":81,"pct_televisor":38}},{"type":"Feature","geometry":{"type":"Polygon","coordinates":[[[-68.74141,-16.44444],[-68.74197,-16.44442],[-68.74195,-16.44407],[-68.74139,-16.44409],[-68.74141,-16.44444]]]},"properties":{"n":"HUACULLANI","p":21,"personas_x_ha":88,"masculinidad":110,"pct_menor20":29,"pct_60mas":14,"pct_migrante":0,"dependencia_econ":75,"pct_empleados":0,"pct_cuentapropia":67,"pct_agricultura":50,"pct_comercio":8,"pct_manufactura":42,"pct_construccion":0,"pct_transporte":0,"pct_alojamiento":0,"pct_sin_educacion":7,"pct_educ_superior":0,"brecha_educ":0,"pct_sin_seguro":14,"pct_sus":86,"pct_seguro_privado":0,"brecha_seguro":8,"pct_salud_publica":29,"pct_med_tradicional":23,"pct_automedicacion":4,"pct_remedios_caseros":33,"pct_viv_desocupada":0,"pct_alquiler":10,"pct_electricidad":30,"pct_sin_electricidad":70,"pct_agua_red":20,"pct_alcantarillado":0,"pct_camara_septica":0,"pct_pozo_ciego":0,"pct_sin_desague":100,"pct_gas_red":0,"pct_gas_garrafa":40,"pct_lena_guano":60,"pct_basura_formal":20,"pct_basura_quema":50,"pct_basura_informal":20,"pct_internet":0,"pct_celular":10,"pct_televisor":10}},{"type":"Feature","geometry":{"type":"Polygon","coordinates":[[[-68.74199,-16.44486],[-68.74198,-16.4445],[-68.74141,-16.44452],[-68.74142,-16.44487],[-68.74199,-16.44486]]]},"properties":{"n":"HUACULLANI","p":15,"personas_x_ha":62,"masculinidad":150,"pct_menor20":33,"pct_60mas":13,"pct_migrante":13,"dependencia_econ":50,"pct_empleados":10,"pct_cuentapropia":90,"pct_agricultura":40,"pct_comercio":10,"pct_manufactura":20,"pct_construccion":30,"pct_transporte":0,"pct_alojamiento":0,"pct_sin_educacion":10,"pct_educ_superior":10,"brecha_educ":-40,"pct_sin_seguro":13,"pct_sus":87,"pct_seguro_privado":0,"brecha_seguro":22,"pct_salud_publica":32,"pct_med_tradicional":18,"pct_automedicacion":16,"pct_remedios_caseros":18,"pct_viv_desocupada":0,"pct_alquiler":0,"pct_electricidad":57,"pct_sin_electricidad":14,"pct_agua_red":57,"pct_alcantarillado":0,"pct_camara_septica":0,"pct_pozo_ciego":0,"pct_sin_desague":100,"pct_gas_red":0,"pct_gas_garrafa":71,"pct_lena_guano":14,"pct_basura_formal":43,"pct_basura_quema":14,"pct_basura_informal":14,"pct_internet":43,"pct_celular":57,"pct_televisor":14}},{"type":"Feature","geometry":{"type":"Polygon","coordinates":[[[-68.73932,-16.44303],[-68.7393,-16.4424],[-68.73894,-16.44241],[-68.73895,-16.44304],[-68.73932,-16.44303]]]},"properties":{"n":"HUACULLANI","p":34,"personas_x_ha":122,"masculinidad":112,"pct_menor20":44,"pct_60mas":0,"pct_migrante":24,"dependencia_econ":55,"pct_empleados":23,"pct_cuentapropia":50,"pct_agricultura":41,"pct_comercio":23,"pct_manufactura":9,"pct_construccion":9,"pct_transporte":0,"pct_alojamiento":0,"pct_sin_educacion":5,"pct_educ_superior":42,"brecha_educ":-10,"pct_sin_seguro":18,"pct_sus":47,"pct_seguro_privado":0,"brecha_seguro":-14,"pct_salud_publica":28,"pct_med_tradicional":23,"pct_automedicacion":9,"pct_remedios_caseros":23,"pct_viv_desocupada":6,"pct_alquiler":0,"pct_electricidad":43,"pct_sin_electricidad":57,"pct_agua_red":14,"pct_alcantarillado":0,"pct_camara_septica":0,"pct_pozo_ciego":7,"pct_sin_desague":93,"pct_gas_red":0,"pct_gas_garrafa":71,"pct_lena_guano":29,"pct_basura_formal":64,"pct_basura_quema":21,"pct_basura_informal":14,"pct_internet":57,"pct_celular":86,"pct_televisor":29}},{"type":"Feature","geometry":{"type":"Polygon","coordinates":[[[-68.74209,-16.44486],[-68.74295,-16.44481],[-68.74301,-16.44447],[-68.74207,-16.4445],[-68.74209,-16.44486]]]},"properties":{"n":"HUACULLANI","p":19,"personas_x_ha":49,"masculinidad":73,"pct_menor20":26,"pct_60mas":16,"pct_migrante":5,"dependencia_econ":80,"pct_empleados":10,"pct_cuentapropia":60,"pct_agricultura":80,"pct_comercio":0,"pct_manufactura":0,"pct_construccion":10,"pct_transporte":0,"pct_alojamiento":10,"pct_sin_educacion":0,"pct_educ_superior":14,"brecha_educ":-42,"pct_sin_seguro":12,"pct_sus":88,"pct_seguro_privado":0,"brecha_seguro":33,"pct_salud_publica":45,"pct_med_tradicional":31,"pct_automedicacion":7,"pct_remedios_caseros":10,"pct_viv_desocupada":21,"pct_alquiler":11,"pct_electricidad":78,"pct_sin_electricidad":22,"pct_agua_red":44,"pct_alcantarillado":0,"pct_camara_septica":0,"pct_pozo_ciego":22,"pct_sin_desague":78,"pct_gas_red":0,"pct_gas_garrafa":56,"pct_lena_guano":44,"pct_basura_formal":0,"pct_basura_quema":100,"pct_basura_informal":0,"pct_internet":33,"pct_celular":56,"pct_televisor":22}},{"type":"Feature","geometry":{"type":"Polygon","coordinates":[[[-68.73792,-16.44318],[-68.7379,-16.44253],[-68.73784,-16.44252],[-68.73754,-16.44265],[-68.73755,-16.44318],[-68.73792,-16.44318]]]},"properties":{"n":"HUACULLANI","p":16,"personas_x_ha":61,"masculinidad":100,"pct_menor20":44,"pct_60mas":6,"pct_migrante":0,"dependencia_econ":100,"pct_empleados":0,"pct_cuentapropia":50,"pct_agricultura":88,"pct_comercio":12,"pct_manufactura":0,"pct_construccion":0,"pct_transporte":0,"pct_alojamiento":0,"pct_sin_educacion":0,"pct_educ_superior":0,"brecha_educ":-60,"pct_sin_seguro":6,"pct_sus":94,"pct_seguro_privado":0,"brecha_seguro":12,"pct_salud_publica":36,"pct_med_tradicional":21,"pct_automedicacion":0,"pct_remedios_caseros":21,"pct_viv_desocupada":25,"pct_alquiler":0,"pct_electricidad":78,"pct_sin_electricidad":22,"pct_agua_red":78,"pct_alcantarillado":0,"pct_camara_septica":0,"pct_pozo_ciego":22,"pct_sin_desague":78,"pct_gas_red":0,"pct_gas_garrafa":67,"pct_lena_guano":22,"pct_basura_formal":78,"pct_basura_quema":22,"pct_basura_informal":0,"pct_internet":0,"pct_celular":78,"pct_televisor":33}},{"type":"Feature","geometry":{"type":"Polygon","coordinates":[[[-68.74058,-16.44222],[-68.74056,-16.44197],[-68.73986,-16.44203],[-68.73988,-16.44228],[-68.74058,-16.44222]]]},"properties":{"n":"HUACULLANI","p":42,"personas_x_ha":178,"masculinidad":56,"pct_menor20":24,"pct_60mas":33,"pct_migrante":29,"dependencia_econ":75,"pct_empleados":21,"pct_cuentapropia":75,"pct_agricultura":33,"pct_comercio":21,"pct_manufactura":12,"pct_construccion":25,"pct_transporte":0,"pct_alojamiento":0,"pct_sin_educacion":3,"pct_educ_superior":16,"brecha_educ":-48,"pct_sin_seguro":10,"pct_sus":73,"pct_seguro_privado":0,"brecha_seguro":-5,"pct_salud_publica":27,"pct_med_tradicional":15,"pct_automedicacion":13,"pct_remedios_caseros":32,"pct_viv_desocupada":0,"pct_alquiler":0,"pct_electricidad":76,"pct_sin_electricidad":24,"pct_agua_red":24,"pct_alcantarillado":0,"pct_camara_septica":0,"pct_pozo_ciego":14,"pct_sin_desague":86,"pct_gas_red":0,"pct_gas_garrafa":86,"pct_lena_guano":10,"pct_basura_formal":71,"pct_basura_quema":14,"pct_basura_informal":0,"pct_internet":24,"pct_celular":71,"pct_televisor":0}},{"type":"Feature","geometry":{"type":"Polygon","coordinates":[[[-68.74219,-16.4434],[-68.74225,-16.4434],[-68.7423,-16.44393],[-68.74307,-16.44388],[-68.74309,-16.44312],[-68.74194,-16.44313],[-68.74196,-16.44352],[-68.74219,-16.44351],[-68.74219,-16.4434]]]},"properties":{"n":"HUACULLANI","p":15,"personas_x_ha":16,"masculinidad":150,"pct_menor20":33,"pct_60mas":13,"pct_migrante":20,"dependencia_econ":56,"pct_empleados":22,"pct_cuentapropia":56,"pct_agricultura":78,"pct_comercio":0,"pct_manufactura":0,"pct_construccion":0,"pct_transporte":0,"pct_alojamiento":22,"pct_sin_educacion":11,"pct_educ_superior":11,"brecha_educ":-17,"pct_sin_seguro":7,"pct_sus":93,"pct_seguro_privado":0,"brecha_seguro":11,"pct_salud_publica":33,"pct_med_tradicional":14,"pct_automedicacion":17,"pct_remedios_caseros":29,"pct_viv_desocupada":10,"pct_alquiler":0,"pct_electricidad":88,"pct_sin_electricidad":12,"pct_agua_red":50,"pct_alcantarillado":12,"pct_camara_septica":0,"pct_pozo_ciego":12,"pct_sin_desague":75,"pct_gas_red":0,"pct_gas_garrafa":75,"pct_lena_guano":25,"pct_basura_formal":38,"pct_basura_quema":50,"pct_basura_informal":12,"pct_internet":62,"pct_celular":88,"pct_televisor":25}},{"type":"Feature","geometry":{"type":"Polygon","coordinates":[[[-68.74123,-16.44316],[-68.74068,-16.4432],[-68.74068,-16.44355],[-68.74125,-16.44353],[-68.74123,-16.44316]]]},"properties":{"n":"HUACULLANI","p":20,"personas_x_ha":80,"masculinidad":122,"pct_menor20":45,"pct_60mas":10,"pct_migrante":10,"dependencia_econ":122,"pct_empleados":22,"pct_cuentapropia":67,"pct_agricultura":56,"pct_comercio":11,"pct_manufactura":0,"pct_construccion":11,"pct_transporte":11,"pct_alojamiento":0,"pct_sin_educacion":8,"pct_educ_superior":8,"brecha_educ":2,"pct_sin_seguro":40,"pct_sus":60,"pct_seguro_privado":0,"brecha_seguro":32,"pct_salud_publica":62,"pct_med_tradicional":23,"pct_automedicacion":8,"pct_remedios_caseros":8,"pct_viv_desocupada":0,"pct_alquiler":0,"pct_electricidad":64,"pct_sin_electricidad":27,"pct_agua_red":82,"pct_alcantarillado":0,"pct_camara_septica":0,"pct_pozo_ciego":0,"pct_sin_desague":100,"pct_gas_red":0,"pct_gas_garrafa":73,"pct_lena_guano":9,"pct_basura_formal":9,"pct_basura_quema":82,"pct_basura_informal":9,"pct_internet":27,"pct_celular":82,"pct_televisor":27}},{"type":"Feature","geometry":{"type":"Polygon","coordinates":[[[-68.74054,-16.44117],[-68.73983,-16.44121],[-68.73986,-16.44188],[-68.74056,-16.44185],[-68.74054,-16.44117]]]},"properties":{"n":"HUACULLANI","p":19,"personas_x_ha":33,"masculinidad":90,"pct_menor20":37,"pct_60mas":26,"pct_migrante":5,"dependencia_econ":73,"pct_empleados":18,"pct_cuentapropia":55,"pct_agricultura":64,"pct_comercio":27,"pct_manufactura":0,"pct_construccion":0,"pct_transporte":0,"pct_alojamiento":0,"pct_sin_educacion":17,"pct_educ_superior":8,"brecha_educ":-11,"pct_sin_seguro":47,"pct_sus":47,"pct_seguro_privado":0,"brecha_seguro":16,"pct_salud_publica":58,"pct_med_tradicional":8,"pct_automedicacion":0,"pct_remedios_caseros":15,"pct_viv_desocupada":10,"pct_alquiler":0,"pct_electricidad":78,"pct_sin_electricidad":22,"pct_agua_red":44,"pct_alcantarillado":0,"pct_camara_septica":0,"pct_pozo_ciego":0,"pct_sin_desague":100,"pct_gas_red":0,"pct_gas_garrafa":89,"pct_lena_guano":11,"pct_basura_formal":78,"pct_basura_quema":22,"pct_basura_informal":0,"pct_internet":67,"pct_celular":67,"pct_televisor":22}},{"type":"Feature","geometry":{"type":"Polygon","coordinates":[[[-68.74206,-16.44403],[-68.74207,-16.44441],[-68.74308,-16.44436],[-68.74314,-16.44419],[-68.74314,-16.44397],[-68.74206,-16.44403]]]},"properties":{"n":"HUACULLANI","p":27,"personas_x_ha":55,"masculinidad":80,"pct_menor20":37,"pct_60mas":11,"pct_migrante":0,"dependencia_econ":83,"pct_empleados":25,"pct_cuentapropia":50,"pct_agricultura":67,"pct_comercio":0,"pct_manufactura":17,"pct_construccion":8,"pct_transporte":0,"pct_alojamiento":0,"pct_sin_educacion":0,"pct_educ_superior":0,"brecha_educ":-11,"pct_sin_seguro":6,"pct_sus":94,"pct_seguro_privado":0,"brecha_seguro":-10,"pct_salud_publica":50,"pct_med_tradicional":17,"pct_automedicacion":8,"pct_remedios_caseros":17,"pct_viv_desocupada":7,"pct_alquiler":0,"pct_electricidad":100,"pct_sin_electricidad":0,"pct_agua_red":54,"pct_alcantarillado":0,"pct_camara_septica":0,"pct_pozo_ciego":8,"pct_sin_desague":92,"pct_gas_red":0,"pct_gas_garrafa":92,"pct_lena_guano":8,"pct_basura_formal":69,"pct_basura_quema":23,"pct_basura_informal":0,"pct_internet":15,"pct_celular":38,"pct_televisor":46}},{"type":"Feature","geometry":{"type":"Polygon","coordinates":[[[-68.73975,-16.44188],[-68.73974,-16.44138],[-68.73927,-16.44141],[-68.7393,-16.44177],[-68.73885,-16.44182],[-68.7388,-16.4419],[-68.73881,-16.44201],[-68.73975,-16.44188]]]},"properties":{"n":"HUACULLANI","p":16,"personas_x_ha":41,"masculinidad":129,"pct_menor20":25,"pct_60mas":19,"pct_migrante":6,"dependencia_econ":44,"pct_empleados":0,"pct_cuentapropia":89,"pct_agricultura":67,"pct_comercio":22,"pct_manufactura":0,"pct_construccion":0,"pct_transporte":0,"pct_alojamiento":0,"pct_sin_educacion":9,"pct_educ_superior":0,"brecha_educ":40,"pct_sin_seguro":46,"pct_sus":46,"pct_seguro_privado":0,"brecha_seguro":-7,"pct_salud_publica":29,"pct_med_tradicional":3,"pct_automedicacion":26,"pct_remedios_caseros":31,"pct_viv_desocupada":0,"pct_alquiler":0,"pct_electricidad":50,"pct_sin_electricidad":50,"pct_agua_red":0,"pct_alcantarillado":0,"pct_camara_septica":0,"pct_pozo_ciego":0,"pct_sin_desague":100,"pct_gas_red":0,"pct_gas_garrafa":20,"pct_lena_guano":60,"pct_basura_formal":20,"pct_basura_quema":70,"pct_basura_informal":0,"pct_internet":100,"pct_celular":100,"pct_televisor":0}},{"type":"Feature","geometry":{"type":"Polygon","coordinates":[[[-68.77035,-16.50314],[-68.76995,-16.50263],[-68.76951,-16.50297],[-68.76992,-16.50348],[-68.77035,-16.50314]]]},"properties":{"n":"PILLAPI SAN AGUSTIN","p":17,"personas_x_ha":40,"masculinidad":42,"pct_menor20":35,"pct_60mas":6,"pct_migrante":6,"dependencia_econ":42,"pct_empleados":8,"pct_cuentapropia":92,"pct_agricultura":58,"pct_comercio":0,"pct_manufactura":25,"pct_construccion":8,"pct_transporte":8,"pct_alojamiento":0,"pct_sin_educacion":9,"pct_educ_superior":18,"brecha_educ":-12,"pct_sin_seguro":6,"pct_sus":94,"pct_seguro_privado":0,"brecha_seguro":-8,"pct_salud_publica":73,"pct_med_tradicional":9,"pct_automedicacion":9,"pct_remedios_caseros":9,"pct_viv_desocupada":0,"pct_alquiler":8,"pct_electricidad":58,"pct_sin_electricidad":42,"pct_agua_red":33,"pct_alcantarillado":0,"pct_camara_septica":0,"pct_pozo_ciego":8,"pct_sin_desague":92,"pct_gas_red":0,"pct_gas_garrafa":67,"pct_lena_guano":0,"pct_basura_formal":25,"pct_basura_quema":75,"pct_basura_informal":0,"pct_internet":17,"pct_celular":75,"pct_televisor":17}},{"type":"Feature","geometry":{"type":"Polygon","coordinates":[[[-68.76781,-16.50338],[-68.76828,-16.50385],[-68.76951,-16.50279],[-68.76896,-16.50224],[-68.76781,-16.50338]]]},"properties":{"n":"PILLAPI SAN AGUSTIN","p":15,"personas_x_ha":11,"masculinidad":88,"pct_menor20":20,"pct_60mas":20,"pct_migrante":7,"dependencia_econ":33,"pct_empleados":11,"pct_cuentapropia":33,"pct_agricultura":67,"pct_comercio":0,"pct_manufactura":0,"pct_construccion":0,"pct_transporte":0,"pct_alojamiento":0,"pct_sin_educacion":30,"pct_educ_superior":30,"brecha_educ":-60,"pct_sin_seguro":27,"pct_sus":64,"pct_seguro_privado":0,"brecha_seguro":-13,"pct_salud_publica":26,"pct_med_tradicional":11,"pct_automedicacion":11,"pct_remedios_caseros":13,"pct_viv_desocupada":7,"pct_alquiler":20,"pct_electricidad":70,"pct_sin_electricidad":30,"pct_agua_red":40,"pct_alcantarillado":20,"pct_camara_septica":0,"pct_pozo_ciego":20,"pct_sin_desague":60,"pct_gas_red":0,"pct_gas_garrafa":100,"pct_lena_guano":0,"pct_basura_formal":50,"pct_basura_quema":40,"pct_basura_informal":0,"pct_internet":60,"pct_celular":80,"pct_televisor":60}},{"type":"Feature","geometry":{"type":"Polygon","coordinates":[[[-68.76475,-16.50163],[-68.76712,-16.50387],[-68.76757,-16.50342],[-68.76691,-16.50272],[-68.76659,-16.50302],[-68.76496,-16.50144],[-68.76475,-16.50163]]]},"properties":{"n":"PILLAPI SAN AGUSTIN","p":36,"personas_x_ha":24,"masculinidad":100,"pct_menor20":22,"pct_60mas":25,"pct_migrante":17,"dependencia_econ":44,"pct_empleados":20,"pct_cuentapropia":64,"pct_agricultura":60,"pct_comercio":4,"pct_manufactura":12,"pct_construccion":12,"pct_transporte":4,"pct_alojamiento":0,"pct_sin_educacion":3,"pct_educ_superior":28,"brecha_educ":1,"pct_sin_seguro":11,"pct_sus":83,"pct_seguro_privado":0,"brecha_seguro":1,"pct_salud_publica":26,"pct_med_tradicional":14,"pct_automedicacion":21,"pct_remedios_caseros":22,"pct_viv_desocupada":0,"pct_alquiler":0,"pct_electricidad":21,"pct_sin_electricidad":76,"pct_agua_red":41,"pct_alcantarillado":0,"pct_camara_septica":3,"pct_pozo_ciego":10,"pct_sin_desague":86,"pct_gas_red":0,"pct_gas_garrafa":45,"pct_lena_guano":3,"pct_basura_formal":34,"pct_basura_quema":48,"pct_basura_informal":10,"pct_internet":59,"pct_celular":83,"pct_televisor":31}},{"type":"Feature","geometry":{"type":"Polygon","coordinates":[[[-68.76619,-16.50562],[-68.76656,-16.50529],[-68.76619,-16.50488],[-68.76578,-16.50526],[-68.76619,-16.50562]]]},"properties":{"n":"PILLAPI SAN AGUSTIN","p":23,"personas_x_ha":63,"masculinidad":64,"pct_menor20":39,"pct_60mas":9,"pct_migrante":52,"dependencia_econ":64,"pct_empleados":0,"pct_cuentapropia":93,"pct_agricultura":43,"pct_comercio":7,"pct_manufactura":21,"pct_construccion":21,"pct_transporte":7,"pct_alojamiento":0,"pct_sin_educacion":0,"pct_educ_superior":7,"brecha_educ":4,"pct_sin_seguro":13,"pct_sus":87,"pct_seguro_privado":0,"brecha_seguro":-21,"pct_salud_publica":51,"pct_med_tradicional":16,"pct_automedicacion":11,"pct_remedios_caseros":16,"pct_viv_desocupada":0,"pct_alquiler":0,"pct_electricidad":67,"pct_sin_electricidad":33,"pct_agua_red":75,"pct_alcantarillado":17,"pct_camara_septica":0,"pct_pozo_ciego":8,"pct_sin_desague":75,"pct_gas_red":0,"pct_gas_garrafa":100,"pct_lena_guano":0,"pct_basura_formal":58,"pct_basura_quema":42,"pct_basura_informal":0,"pct_internet":33,"pct_celular":67,"pct_televisor":75}},{"type":"Feature","geometry":{"type":"Polygon","coordinates":[[[-68.77149,-16.50226],[-68.77125,-16.50153],[-68.77052,-16.50214],[-68.77094,-16.50266],[-68.77149,-16.50226]]]},"properties":{"n":"PILLAPI SAN AGUSTIN","p":20,"personas_x_ha":30,"masculinidad":100,"pct_menor20":35,"pct_60mas":15,"pct_migrante":40,"dependencia_econ":122,"pct_empleados":33,"pct_cuentapropia":67,"pct_agricultura":44,"pct_comercio":22,"pct_manufactura":11,"pct_construccion":22,"pct_transporte":0,"pct_alojamiento":0,"pct_sin_educacion":14,"pct_educ_superior":21,"brecha_educ":-43,"pct_sin_seguro":11,"pct_sus":79,"pct_seguro_privado":0,"brecha_seguro":-1,"pct_salud_publica":35,"pct_med_tradicional":24,"pct_automedicacion":20,"pct_remedios_caseros":20,"pct_viv_desocupada":0,"pct_alquiler":0,"pct_electricidad":86,"pct_sin_electricidad":14,"pct_agua_red":0,"pct_alcantarillado":0,"pct_camara_septica":0,"pct_pozo_ciego":29,"pct_sin_desague":71,"pct_gas_red":0,"pct_gas_garrafa":86,"pct_lena_guano":0,"pct_basura_formal":0,"pct_basura_quema":71,"pct_basura_informal":14,"pct_internet":29,"pct_celular":86,"pct_televisor":29}},{"type":"Feature","geometry":{"type":"Polygon","coordinates":[[[-68.76721,-16.50578],[-68.76765,-16.50543],[-68.76716,-16.50498],[-68.76678,-16.50534],[-68.76721,-16.50578]]]},"properties":{"n":"PILLAPI SAN AGUSTIN","p":22,"personas_x_ha":50,"masculinidad":144,"pct_menor20":18,"pct_60mas":14,"pct_migrante":27,"dependencia_econ":38,"pct_empleados":6,"pct_cuentapropia":88,"pct_agricultura":44,"pct_comercio":6,"pct_manufactura":6,"pct_construccion":25,"pct_transporte":12,"pct_alojamiento":0,"pct_sin_educacion":0,"pct_educ_superior":11,"brecha_educ":-33,"pct_sin_seguro":5,"pct_sus":95,"pct_seguro_privado":0,"brecha_seguro":-11,"pct_salud_publica":88,"pct_med_tradicional":4,"pct_automedicacion":4,"pct_remedios_caseros":4,"pct_viv_desocupada":0,"pct_alquiler":0,"pct_electricidad":50,"pct_sin_electricidad":50,"pct_agua_red":94,"pct_alcantarillado":6,"pct_camara_septica":0,"pct_pozo_ciego":0,"pct_sin_desague":94,"pct_gas_red":0,"pct_gas_garrafa":100,"pct_lena_guano":0,"pct_basura_formal":69,"pct_basura_quema":25,"pct_basura_informal":6,"pct_internet":81,"pct_celular":94,"pct_televisor":44}},{"type":"Feature","geometry":{"type":"Polygon","coordinates":[[[-68.76879,-16.5044],[-68.76985,-16.50353],[-68.76944,-16.50301],[-68.76835,-16.50393],[-68.76879,-16.5044]]]},"properties":{"n":"PILLAPI SAN AGUSTIN","p":32,"personas_x_ha":28,"masculinidad":60,"pct_menor20":41,"pct_60mas":9,"pct_migrante":31,"dependencia_econ":88,"pct_empleados":18,"pct_cuentapropia":71,"pct_agricultura":24,"pct_comercio":0,"pct_manufactura":0,"pct_construccion":6,"pct_transporte":0,"pct_alojamiento":6,"pct_sin_educacion":0,"pct_educ_superior":47,"brecha_educ":-17,"pct_sin_seguro":9,"pct_sus":88,"pct_seguro_privado":0,"brecha_seguro":-2,"pct_salud_publica":29,"pct_med_tradicional":15,"pct_automedicacion":11,"pct_remedios_caseros":21,"pct_viv_desocupada":4,"pct_alquiler":0,"pct_electricidad":56,"pct_sin_electricidad":39,"pct_agua_red":83,"pct_alcantarillado":6,"pct_camara_septica":0,"pct_pozo_ciego":22,"pct_sin_desague":72,"pct_gas_red":0,"pct_gas_garrafa":94,"pct_lena_guano":0,"pct_basura_formal":78,"pct_basura_quema":22,"pct_basura_informal":0,"pct_internet":78,"pct_celular":83,"pct_televisor":72}},{"type":"Feature","geometry":{"type":"Polygon","coordinates":[[[-68.76758,-16.50445],[-68.76712,-16.504],[-68.76673,-16.50438],[-68.76717,-16.50482],[-68.76758,-16.50445]]]},"properties":{"n":"PILLAPI SAN AGUSTIN","p":30,"personas_x_ha":70,"masculinidad":100,"pct_menor20":33,"pct_60mas":10,"pct_migrante":23,"dependencia_econ":81,"pct_empleados":25,"pct_cuentapropia":62,"pct_agricultura":38,"pct_comercio":19,"pct_manufactura":12,"pct_construccion":12,"pct_transporte":0,"pct_alojamiento":6,"pct_sin_educacion":16,"pct_educ_superior":26,"brecha_educ":-24,"pct_sin_seguro":0,"pct_sus":71,"pct_seguro_privado":0,"brecha_seguro":0,"pct_salud_publica":20,"pct_med_tradicional":18,"pct_automedicacion":19,"pct_remedios_caseros":19,"pct_viv_desocupada":0,"pct_alquiler":0,"pct_electricidad":82,"pct_sin_electricidad":18,"pct_agua_red":12,"pct_alcantarillado":6,"pct_camara_septica":12,"pct_pozo_ciego":18,"pct_sin_desague":65,"pct_gas_red":0,"pct_gas_garrafa":82,"pct_lena_guano":0,"pct_basura_formal":82,"pct_basura_quema":12,"pct_basura_informal":6,"pct_internet":76,"pct_celular":94,"pct_televisor":71}},{"type":"Feature","geometry":{"type":"Polygon","coordinates":[[[-68.76535,-16.50318],[-68.76508,-16.50291],[-68.76494,-16.50305],[-68.76521,-16.50331],[-68.76535,-16.50318]]]},"properties":{"n":"PILLAPI SAN AGUSTIN","p":18,"personas_x_ha":205,"masculinidad":100,"pct_menor20":22,"pct_60mas":17,"pct_migrante":6,"dependencia_econ":27,"pct_empleados":18,"pct_cuentapropia":73,"pct_agricultura":45,"pct_comercio":18,"pct_manufactura":0,"pct_construccion":18,"pct_transporte":0,"pct_alojamiento":9,"pct_sin_educacion":10,"pct_educ_superior":0,"brecha_educ":-67,"pct_sin_seguro":0,"pct_sus":86,"pct_seguro_privado":0,"brecha_seguro":0,"pct_salud_publica":27,"pct_med_tradicional":24,"pct_automedicacion":12,"pct_remedios_caseros":25,"pct_viv_desocupada":0,"pct_alquiler":0,"pct_electricidad":13,"pct_sin_electricidad":87,"pct_agua_red":7,"pct_alcantarillado":0,"pct_camara_septica":0,"pct_pozo_ciego":0,"pct_sin_desague":100,"pct_gas_red":0,"pct_gas_garrafa":20,"pct_lena_guano":13,"pct_basura_formal":7,"pct_basura_quema":93,"pct_basura_informal":0,"pct_internet":33,"pct_celular":100,"pct_televisor":20}},{"type":"Feature","geometry":{"type":"Polygon","coordinates":[[[-68.76651,-16.50343],[-68.76605,-16.50299],[-68.76568,-16.50336],[-68.76613,-16.50381],[-68.76651,-16.50343]]]},"properties":{"n":"PILLAPI SAN AGUSTIN","p":19,"personas_x_ha":47,"masculinidad":171,"pct_menor20":21,"pct_60mas":16,"pct_migrante":21,"dependencia_econ":38,"pct_empleados":0,"pct_cuentapropia":92,"pct_agricultura":38,"pct_comercio":23,"pct_manufactura":0,"pct_construccion":23,"pct_transporte":15,"pct_alojamiento":0,"pct_sin_educacion":7,"pct_educ_superior":7,"brecha_educ":-80,"pct_sin_seguro":6,"pct_sus":89,"pct_seguro_privado":6,"brecha_seguro":-14,"pct_salud_publica":31,"pct_med_tradicional":21,"pct_automedicacion":8,"pct_remedios_caseros":31,"pct_viv_desocupada":0,"pct_alquiler":0,"pct_electricidad":64,"pct_sin_electricidad":36,"pct_agua_red":43,"pct_alcantarillado":0,"pct_camara_septica":0,"pct_pozo_ciego":43,"pct_sin_desague":57,"pct_gas_red":0,"pct_gas_garrafa":93,"pct_lena_guano":7,"pct_basura_formal":36,"pct_basura_quema":57,"pct_basura_informal":7,"pct_internet":29,"pct_celular":86,"pct_televisor":50}},{"type":"Feature","geometry":{"type":"Polygon","coordinates":[[[-68.76666,-16.50444],[-68.76626,-16.50483],[-68.76668,-16.50524],[-68.7671,-16.50489],[-68.76666,-16.50444]]]},"properties":{"n":"PILLAPI SAN AGUSTIN","p":24,"personas_x_ha":60,"masculinidad":71,"pct_menor20":42,"pct_60mas":8,"pct_migrante":33,"dependencia_econ":41,"pct_empleados":6,"pct_cuentapropia":82,"pct_agricultura":18,"pct_comercio":12,"pct_manufactura":12,"pct_construccion":6,"pct_transporte":12,"pct_alojamiento":0,"pct_sin_educacion":14,"pct_educ_superior":14,"brecha_educ":-62,"pct_sin_seguro":8,"pct_sus":83,"pct_seguro_privado":0,"brecha_seguro":3,"pct_salud_publica":27,"pct_med_tradicional":21,"pct_automedicacion":15,"pct_remedios_caseros":25,"pct_viv_desocupada":0,"pct_alquiler":0,"pct_electricidad":67,"pct_sin_electricidad":17,"pct_agua_red":33,"pct_alcantarillado":0,"pct_camara_septica":8,"pct_pozo_ciego":17,"pct_sin_desague":75,"pct_gas_red":0,"pct_gas_garrafa":100,"pct_lena_guano":0,"pct_basura_formal":83,"pct_basura_quema":8,"pct_basura_informal":8,"pct_internet":33,"pct_celular":75,"pct_televisor":58}},{"type":"Feature","geometry":{"type":"Polygon","coordinates":[[[-68.76867,-16.50442],[-68.76825,-16.50402],[-68.76779,-16.50451],[-68.7682,-16.5049],[-68.76867,-16.50442]]]},"properties":{"n":"PILLAPI SAN AGUSTIN","p":34,"personas_x_ha":67,"masculinidad":48,"pct_menor20":26,"pct_60mas":26,"pct_migrante":18,"dependencia_econ":42,"pct_empleados":17,"pct_cuentapropia":79,"pct_agricultura":33,"pct_comercio":25,"pct_manufactura":8,"pct_construccion":4,"pct_transporte":4,"pct_alojamiento":12,"pct_sin_educacion":12,"pct_educ_superior":19,"brecha_educ":-19,"pct_sin_seguro":21,"pct_sus":79,"pct_seguro_privado":0,"brecha_seguro":37,"pct_salud_publica":40,"pct_med_tradicional":6,"pct_automedicacion":12,"pct_remedios_caseros":34,"pct_viv_desocupada":12,"pct_alquiler":0,"pct_electricidad":57,"pct_sin_electricidad":43,"pct_agua_red":86,"pct_alcantarillado":0,"pct_camara_septica":0,"pct_pozo_ciego":21,"pct_sin_desague":79,"pct_gas_red":0,"pct_gas_garrafa":100,"pct_lena_guano":0,"pct_basura_formal":93,"pct_basura_quema":7,"pct_basura_informal":0,"pct_internet":43,"pct_celular":57,"pct_televisor":50}},{"type":"Feature","geometry":{"type":"Polygon","coordinates":[[[-68.76774,-16.50534],[-68.76811,-16.50496],[-68.76767,-16.50456],[-68.76727,-16.50492],[-68.76774,-16.50534]]]},"properties":{"n":"PILLAPI SAN AGUSTIN","p":35,"personas_x_ha":83,"masculinidad":94,"pct_menor20":31,"pct_60mas":9,"pct_migrante":29,"dependencia_econ":40,"pct_empleados":20,"pct_cuentapropia":64,"pct_agricultura":40,"pct_comercio":4,"pct_manufactura":12,"pct_construccion":8,"pct_transporte":8,"pct_alojamiento":8,"pct_sin_educacion":0,"pct_educ_superior":12,"brecha_educ":-34,"pct_sin_seguro":11,"pct_sus":71,"pct_seguro_privado":3,"brecha_seguro":12,"pct_salud_publica":29,"pct_med_tradicional":14,"pct_automedicacion":5,"pct_remedios_caseros":30,"pct_viv_desocupada":0,"pct_alquiler":0,"pct_electricidad":82,"pct_sin_electricidad":18,"pct_agua_red":82,"pct_alcantarillado":0,"pct_camara_septica":12,"pct_pozo_ciego":12,"pct_sin_desague":76,"pct_gas_red":0,"pct_gas_garrafa":100,"pct_lena_guano":0,"pct_basura_formal":65,"pct_basura_quema":24,"pct_basura_informal":0,"pct_internet":53,"pct_celular":94,"pct_televisor":47}},{"type":"Feature","geometry":{"type":"Polygon","coordinates":[[[-68.76597,-16.50294],[-68.7655,-16.50249],[-68.76513,-16.50286],[-68.7656,-16.50329],[-68.76597,-16.50294]]]},"properties":{"n":"PILLAPI SAN AGUSTIN","p":23,"personas_x_ha":57,"masculinidad":53,"pct_menor20":39,"pct_60mas":9,"pct_migrante":61,"dependencia_econ":64,"pct_empleados":29,"pct_cuentapropia":71,"pct_agricultura":36,"pct_comercio":7,"pct_manufactura":7,"pct_construccion":7,"pct_transporte":29,"pct_alojamiento":7,"pct_sin_educacion":7,"pct_educ_superior":36,"brecha_educ":-25,"pct_sin_seguro":22,"pct_sus":74,"pct_seguro_privado":0,"brecha_seguro":5,"pct_salud_publica":22,"pct_med_tradicional":19,"pct_automedicacion":28,"pct_remedios_caseros":28,"pct_viv_desocupada":0,"pct_alquiler":20,"pct_electricidad":20,"pct_sin_electricidad":80,"pct_agua_red":40,"pct_alcantarillado":0,"pct_camara_septica":0,"pct_pozo_ciego":0,"pct_sin_desague":100,"pct_gas_red":0,"pct_gas_garrafa":50,"pct_lena_guano":40,"pct_basura_formal":0,"pct_basura_quema":70,"pct_basura_informal":0,"pct_internet":10,"pct_celular":90,"pct_televisor":10}},{"type":"Feature","geometry":{"type":"Polygon","coordinates":[[[-68.76561,-16.50605],[-68.76608,-16.50569],[-68.76573,-16.50532],[-68.76531,-16.50572],[-68.76561,-16.50605]]]},"properties":{"n":"PILLAPI SAN AGUSTIN","p":21,"personas_x_ha":63,"masculinidad":62,"pct_menor20":33,"pct_60mas":0,"pct_migrante":33,"dependencia_econ":62,"pct_empleados":0,"pct_cuentapropia":54,"pct_agricultura":62,"pct_comercio":15,"pct_manufactura":23,"pct_construccion":0,"pct_transporte":0,"pct_alojamiento":0,"pct_sin_educacion":0,"pct_educ_superior":21,"brecha_educ":4,"pct_sin_seguro":10,"pct_sus":76,"pct_seguro_privado":0,"brecha_seguro":25,"pct_salud_publica":41,"pct_med_tradicional":38,"pct_automedicacion":7,"pct_remedios_caseros":3,"pct_viv_desocupada":0,"pct_alquiler":0,"pct_electricidad":30,"pct_sin_electricidad":70,"pct_agua_red":20,"pct_alcantarillado":0,"pct_camara_septica":0,"pct_pozo_ciego":10,"pct_sin_desague":90,"pct_gas_red":0,"pct_gas_garrafa":90,"pct_lena_guano":0,"pct_basura_formal":20,"pct_basura_quema":80,"pct_basura_informal":0,"pct_internet":50,"pct_celular":80,"pct_televisor":40}},{"type":"Feature","geometry":{"type":"Polygon","coordinates":[[[-68.68107,-16.55324],[-68.68104,-16.55373],[-68.68183,-16.55367],[-68.68183,-16.55329],[-68.68107,-16.55324]]]},"properties":{"n":"TIAHUANACU","p":36,"personas_x_ha":90,"masculinidad":71,"pct_menor20":25,"pct_60mas":25,"pct_migrante":47,"dependencia_econ":59,"pct_empleados":32,"pct_cuentapropia":45,"pct_agricultura":0,"pct_comercio":18,"pct_manufactura":0,"pct_construccion":9,"pct_transporte":5,"pct_alojamiento":14,"pct_sin_educacion":0,"pct_educ_superior":64,"brecha_educ":-1,"pct_sin_seguro":12,"pct_sus":52,"pct_seguro_privado":0,"brecha_seguro":4,"pct_salud_publica":29,"pct_med_tradicional":18,"pct_automedicacion":9,"pct_remedios_caseros":21,"pct_viv_desocupada":22,"pct_alquiler":16,"pct_electricidad":95,"pct_sin_electricidad":5,"pct_agua_red":89,"pct_alcantarillado":74,"pct_camara_septica":5,"pct_pozo_ciego":0,"pct_sin_desague":21,"pct_gas_red":0,"pct_gas_garrafa":95,"pct_lena_guano":0,"pct_basura_formal":100,"pct_basura_quema":0,"pct_basura_informal":0,"pct_internet":63,"pct_celular":84,"pct_televisor":79}},{"type":"Feature","geometry":{"type":"Polygon","coordinates":[[[-68.68107,-16.55248],[-68.67985,-16.55245],[-68.67975,-16.55358],[-68.68096,-16.55372],[-68.68107,-16.55248]]]},"properties":{"n":"TIAHUANACU","p":36,"personas_x_ha":21,"masculinidad":80,"pct_menor20":19,"pct_60mas":25,"pct_migrante":25,"dependencia_econ":33,"pct_empleados":26,"pct_cuentapropia":63,"pct_agricultura":7,"pct_comercio":11,"pct_manufactura":4,"pct_construccion":7,"pct_transporte":11,"pct_alojamiento":22,"pct_sin_educacion":0,"pct_educ_superior":66,"brecha_educ":-7,"pct_sin_seguro":6,"pct_sus":86,"pct_seguro_privado":0,"brecha_seguro":1,"pct_salud_publica":35,"pct_med_tradicional":9,"pct_automedicacion":17,"pct_remedios_caseros":21,"pct_viv_desocupada":27,"pct_alquiler":0,"pct_electricidad":100,"pct_sin_electricidad":0,"pct_agua_red":100,"pct_alcantarillado":81,"pct_camara_septica":6,"pct_pozo_ciego":0,"pct_sin_desague":12,"pct_gas_red":0,"pct_gas_garrafa":100,"pct_lena_guano":0,"pct_basura_formal":100,"pct_basura_quema":0,"pct_basura_informal":0,"pct_internet":81,"pct_celular":100,"pct_televisor":88}},{"type":"Feature","geometry":{"type":"Polygon","coordinates":[[[-68.68082,-16.54902],[-68.68085,-16.54894],[-68.68082,-16.54914],[-68.68078,-16.54914],[-68.68082,-16.54902],[-68.68074,-16.549],[-68.68022,-16.54885],[-68.67998,-16.55078],[-68.68121,-16.55089],[-68.68138,-16.54958],[-68.68178,-16.54815],[-68.68024,-16.54835],[-68.68022,-16.54885],[-68.68082,-16.54902]]]},"properties":{"n":"TIAHUANACU","p":33,"personas_x_ha":8,"masculinidad":106,"pct_menor20":52,"pct_60mas":6,"pct_migrante":24,"dependencia_econ":106,"pct_empleados":0,"pct_cuentapropia":88,"pct_agricultura":44,"pct_comercio":19,"pct_manufactura":19,"pct_construccion":0,"pct_transporte":6,"pct_alojamiento":6,"pct_sin_educacion":0,"pct_educ_superior":19,"brecha_educ":-40,"pct_sin_seguro":6,"pct_sus":94,"pct_seguro_privado":0,"brecha_seguro":0,"pct_salud_publica":39,"pct_med_tradicional":20,"pct_automedicacion":16,"pct_remedios_caseros":23,"pct_viv_desocupada":15,"pct_alquiler":0,"pct_electricidad":73,"pct_sin_electricidad":27,"pct_agua_red":55,"pct_alcantarillado":0,"pct_camara_septica":0,"pct_pozo_ciego":36,"pct_sin_desague":64,"pct_gas_red":0,"pct_gas_garrafa":73,"pct_lena_guano":27,"pct_basura_formal":82,"pct_basura_quema":9,"pct_basura_informal":9,"pct_internet":45,"pct_celular":64,"pct_televisor":73}},{"type":"Feature","geometry":{"type":"Polygon","coordinates":[[[-68.67693,-16.56026],[-68.67708,-16.55987],[-68.67581,-16.55979],[-68.67581,-16.55982],[-68.67693,-16.56026]]]},"properties":{"n":"TIAHUANACU","p":58,"personas_x_ha":180,"masculinidad":107,"pct_menor20":34,"pct_60mas":2,"pct_migrante":21,"dependencia_econ":49,"pct_empleados":18,"pct_cuentapropia":64,"pct_agricultura":46,"pct_comercio":5,"pct_manufactura":18,"pct_construccion":3,"pct_transporte":3,"pct_alojamiento":3,"pct_sin_educacion":3,"pct_educ_superior":32,"brecha_educ":-32,"pct_sin_seguro":27,"pct_sus":55,"pct_seguro_privado":0,"brecha_seguro":11,"pct_salud_publica":32,"pct_med_tradicional":11,"pct_automedicacion":21,"pct_remedios_caseros":22,"pct_viv_desocupada":0,"pct_alquiler":0,"pct_electricidad":18,"pct_sin_electricidad":82,"pct_agua_red":0,"pct_alcantarillado":0,"pct_camara_septica":9,"pct_pozo_ciego":0,"pct_sin_desague":91,"pct_gas_red":0,"pct_gas_garrafa":18,"pct_lena_guano":27,"pct_basura_formal":18,"pct_basura_quema":55,"pct_basura_informal":0,"pct_internet":36,"pct_celular":64,"pct_televisor":18}},{"type":"Feature","geometry":{"type":"Polygon","coordinates":[[[-68.68197,-16.55094],[-68.68201,-16.55056],[-68.68194,-16.5481],[-68.68184,-16.54812],[-68.68153,-16.54929],[-68.68135,-16.55007],[-68.68128,-16.55089],[-68.68197,-16.55094]]]},"properties":{"n":"TIAHUANACU","p":27,"personas_x_ha":17,"masculinidad":80,"pct_menor20":19,"pct_60mas":19,"pct_migrante":33,"dependencia_econ":80,"pct_empleados":53,"pct_cuentapropia":27,"pct_agricultura":33,"pct_comercio":7,"pct_manufactura":13,"pct_construccion":7,"pct_transporte":7,"pct_alojamiento":0,"pct_sin_educacion":5,"pct_educ_superior":9,"brecha_educ":-16,"pct_sin_seguro":7,"pct_sus":74,"pct_seguro_privado":0,"brecha_seguro":17,"pct_salud_publica":22,"pct_med_tradicional":17,"pct_automedicacion":21,"pct_remedios_caseros":26,"pct_viv_desocupada":32,"pct_alquiler":0,"pct_electricidad":46,"pct_sin_electricidad":54,"pct_agua_red":69,"pct_alcantarillado":15,"pct_camara_septica":8,"pct_pozo_ciego":46,"pct_sin_desague":31,"pct_gas_red":0,"pct_gas_garrafa":92,"pct_lena_guano":8,"pct_basura_formal":92,"pct_basura_quema":0,"pct_basura_informal":8,"pct_internet":85,"pct_celular":100,"pct_televisor":54}},{"type":"Feature","geometry":{"type":"Polygon","coordinates":[[[-68.68073,-16.55734],[-68.68084,-16.55568],[-68.68058,-16.55566],[-68.67989,-16.55733],[-68.68073,-16.55734]]]},"properties":{"n":"TIAHUANACU","p":30,"personas_x_ha":26,"masculinidad":43,"pct_menor20":20,"pct_60mas":30,"pct_migrante":47,"dependencia_econ":50,"pct_empleados":30,"pct_cuentapropia":55,"pct_agricultura":15,"pct_comercio":25,"pct_manufactura":10,"pct_construccion":15,"pct_transporte":0,"pct_alojamiento":10,"pct_sin_educacion":0,"pct_educ_superior":50,"brecha_educ":12,"pct_sin_seguro":10,"pct_sus":63,"pct_seguro_privado":13,"brecha_seguro":17,"pct_salud_publica":21,"pct_med_tradicional":15,"pct_automedicacion":19,"pct_remedios_caseros":19,"pct_viv_desocupada":0,"pct_alquiler":0,"pct_electricidad":82,"pct_sin_electricidad":12,"pct_agua_red":59,"pct_alcantarillado":0,"pct_camara_septica":24,"pct_pozo_ciego":65,"pct_sin_desague":12,"pct_gas_red":0,"pct_gas_garrafa":94,"pct_lena_guano":6,"pct_basura_formal":100,"pct_basura_quema":0,"pct_basura_informal":0,"pct_internet":76,"pct_celular":94,"pct_televisor":53}},{"type":"Feature","geometry":{"type":"Polygon","coordinates":[[[-68.68502,-16.55453],[-68.68333,-16.55396],[-68.68322,-16.55605],[-68.68351,-16.55637],[-68.68358,-16.55572],[-68.68381,-16.55572],[-68.68383,-16.55541],[-68.68443,-16.55544],[-68.68488,-16.55508],[-68.68502,-16.55453]]]},"properties":{"n":"TIAHUANACU","p":26,"personas_x_ha":10,"masculinidad":117,"pct_menor20":27,"pct_60mas":12,"pct_migrante":27,"dependencia_econ":62,"pct_empleados":38,"pct_cuentapropia":44,"pct_agricultura":6,"pct_comercio":25,"pct_manufactura":12,"pct_construccion":19,"pct_transporte":12,"pct_alojamiento":0,"pct_sin_educacion":0,"pct_educ_superior":21,"brecha_educ":22,"pct_sin_seguro":19,"pct_sus":81,"pct_seguro_privado":0,"brecha_seguro":-11,"pct_salud_publica":32,"pct_med_tradicional":17,"pct_automedicacion":11,"pct_remedios_caseros":29,"pct_viv_desocupada":0,"pct_alquiler":33,"pct_electricidad":67,"pct_sin_electricidad":33,"pct_agua_red":67,"pct_alcantarillado":11,"pct_camara_septica":11,"pct_pozo_ciego":56,"pct_sin_desague":22,"pct_gas_red":0,"pct_gas_garrafa":89,"pct_lena_guano":0,"pct_basura_formal":67,"pct_basura_quema":0,"pct_basura_informal":11,"pct_internet":44,"pct_celular":89,"pct_televisor":67}},{"type":"Feature","geometry":{"type":"Polygon","coordinates":[[[-68.67968,-16.55455],[-68.68046,-16.55461],[-68.68049,-16.55412],[-68.67971,-16.5541],[-68.67968,-16.55455]]]},"properties":{"n":"TIAHUANACU","p":17,"personas_x_ha":37,"masculinidad":112,"pct_menor20":24,"pct_60mas":35,"pct_migrante":35,"dependencia_econ":42,"pct_empleados":8,"pct_cuentapropia":50,"pct_agricultura":0,"pct_comercio":33,"pct_manufactura":25,"pct_construccion":0,"pct_transporte":8,"pct_alojamiento":0,"pct_sin_educacion":0,"pct_educ_superior":15,"brecha_educ":-19,"pct_sin_seguro":18,"pct_sus":71,"pct_seguro_privado":0,"brecha_seguro":-14,"pct_salud_publica":18,"pct_med_tradicional":17,"pct_automedicacion":12,"pct_remedios_caseros":18,"pct_viv_desocupada":0,"pct_alquiler":0,"pct_electricidad":83,"pct_sin_electricidad":17,"pct_agua_red":83,"pct_alcantarillado":83,"pct_camara_septica":0,"pct_pozo_ciego":0,"pct_sin_desague":17,"pct_gas_red":0,"pct_gas_garrafa":100,"pct_lena_guano":0,"pct_basura_formal":100,"pct_basura_quema":0,"pct_basura_informal":0,"pct_internet":50,"pct_celular":50,"pct_televisor":67}},{"type":"Feature","geometry":{"type":"Polygon","coordinates":[[[-68.67798,-16.55701],[-68.67816,-16.55702],[-68.67818,-16.55778],[-68.679,-16.55783],[-68.67913,-16.55587],[-68.67797,-16.55662],[-68.67798,-16.55701]]]},"properties":{"n":"TIAHUANACU","p":17,"personas_x_ha":9,"masculinidad":183,"pct_menor20":18,"pct_60mas":18,"pct_migrante":29,"dependencia_econ":143,"pct_empleados":14,"pct_cuentapropia":71,"pct_agricultura":43,"pct_comercio":14,"pct_manufactura":29,"pct_construccion":14,"pct_transporte":0,"pct_alojamiento":0,"pct_sin_educacion":0,"pct_educ_superior":43,"brecha_educ":-29,"pct_sin_seguro":6,"pct_sus":59,"pct_seguro_privado":6,"brecha_seguro":9,"pct_salud_publica":37,"pct_med_tradicional":11,"pct_automedicacion":7,"pct_remedios_caseros":4,"pct_viv_desocupada":0,"pct_alquiler":0,"pct_electricidad":67,"pct_sin_electricidad":33,"pct_agua_red":100,"pct_alcantarillado":11,"pct_camara_septica":11,"pct_pozo_ciego":22,"pct_sin_desague":56,"pct_gas_red":0,"pct_gas_garrafa":78,"pct_lena_guano":0,"pct_basura_formal":78,"pct_basura_quema":22,"pct_basura_informal":0,"pct_internet":78,"pct_celular":89,"pct_televisor":22}},{"type":"Feature","geometry":{"type":"Polygon","coordinates":[[[-68.67707,-16.56143],[-68.67753,-16.56159],[-68.67783,-16.56085],[-68.67737,-16.56067],[-68.67707,-16.56143]]]},"properties":{"n":"TIAHUANACU","p":80,"personas_x_ha":170,"masculinidad":90,"pct_menor20":22,"pct_60mas":20,"pct_migrante":16,"dependencia_econ":27,"pct_empleados":15,"pct_cuentapropia":68,"pct_agricultura":47,"pct_comercio":8,"pct_manufactura":10,"pct_construccion":8,"pct_transporte":6,"pct_alojamiento":2,"pct_sin_educacion":3,"pct_educ_superior":23,"brecha_educ":-14,"pct_sin_seguro":10,"pct_sus":87,"pct_seguro_privado":0,"brecha_seguro":-20,"pct_salud_publica":26,"pct_med_tradicional":17,"pct_automedicacion":16,"pct_remedios_caseros":21,"pct_viv_desocupada":0,"pct_alquiler":0,"pct_electricidad":50,"pct_sin_electricidad":50,"pct_agua_red":0,"pct_alcantarillado":0,"pct_camara_septica":0,"pct_pozo_ciego":20,"pct_sin_desague":80,"pct_gas_red":0,"pct_gas_garrafa":60,"pct_lena_guano":20,"pct_basura_formal":60,"pct_basura_quema":30,"pct_basura_informal":0,"pct_internet":70,"pct_celular":70,"pct_televisor":50}},{"type":"Feature","geometry":{"type":"Polygon","coordinates":[[[-68.68043,-16.55557],[-68.68072,-16.55482],[-68.68071,-16.55481],[-68.67968,-16.5555],[-68.68043,-16.55557]]]},"properties":{"n":"TIAHUANACU","p":25,"personas_x_ha":67,"masculinidad":108,"pct_menor20":40,"pct_60mas":4,"pct_migrante":44,"dependencia_econ":79,"pct_empleados":21,"pct_cuentapropia":71,"pct_agricultura":14,"pct_comercio":36,"pct_manufactura":14,"pct_construccion":0,"pct_transporte":7,"pct_alojamiento":14,"pct_sin_educacion":6,"pct_educ_superior":47,"brecha_educ":9,"pct_sin_seguro":12,"pct_sus":88,"pct_seguro_privado":0,"brecha_seguro":7,"pct_salud_publica":80,"pct_med_tradicional":0,"pct_automedicacion":0,"pct_remedios_caseros":0,"pct_viv_desocupada":6,"pct_alquiler":8,"pct_electricidad":83,"pct_sin_electricidad":17,"pct_agua_red":42,"pct_alcantarillado":0,"pct_camara_septica":67,"pct_pozo_ciego":17,"pct_sin_desague":17,"pct_gas_red":0,"pct_gas_garrafa":100,"pct_lena_guano":0,"pct_basura_formal":100,"pct_basura_quema":0,"pct_basura_informal":0,"pct_internet":67,"pct_celular":83,"pct_televisor":75}},{"type":"Feature","geometry":{"type":"Polygon","coordinates":[[[-68.68045,-16.55482],[-68.68043,-16.55466],[-68.67967,-16.5546],[-68.67964,-16.55533],[-68.68045,-16.55482]]]},"properties":{"n":"TIAHUANACU","p":25,"personas_x_ha":56,"masculinidad":127,"pct_menor20":16,"pct_60mas":12,"pct_migrante":32,"dependencia_econ":25,"pct_empleados":15,"pct_cuentapropia":50,"pct_agricultura":0,"pct_comercio":25,"pct_manufactura":0,"pct_construccion":20,"pct_transporte":0,"pct_alojamiento":15,"pct_sin_educacion":5,"pct_educ_superior":33,"brecha_educ":-14,"pct_sin_seguro":12,"pct_sus":75,"pct_seguro_privado":0,"brecha_seguro":21,"pct_salud_publica":14,"pct_med_tradicional":17,"pct_automedicacion":21,"pct_remedios_caseros":21,"pct_viv_desocupada":0,"pct_alquiler":0,"pct_electricidad":88,"pct_sin_electricidad":12,"pct_agua_red":88,"pct_alcantarillado":88,"pct_camara_septica":0,"pct_pozo_ciego":0,"pct_sin_desague":12,"pct_gas_red":0,"pct_gas_garrafa":100,"pct_lena_guano":0,"pct_basura_formal":100,"pct_basura_quema":0,"pct_basura_informal":0,"pct_internet":75,"pct_celular":100,"pct_televisor":75}},{"type":"Feature","geometry":{"type":"Polygon","coordinates":[[[-68.67909,-16.55574],[-68.67799,-16.55589],[-68.67802,-16.55641],[-68.67805,-16.55642],[-68.67909,-16.55574]]]},"properties":{"n":"TIAHUANACU","p":17,"personas_x_ha":43,"masculinidad":89,"pct_menor20":29,"pct_60mas":24,"pct_migrante":6,"dependencia_econ":129,"pct_empleados":14,"pct_cuentapropia":71,"pct_agricultura":14,"pct_comercio":0,"pct_manufactura":43,"pct_construccion":14,"pct_transporte":0,"pct_alojamiento":14,"pct_sin_educacion":9,"pct_educ_superior":55,"brecha_educ":-29,"pct_sin_seguro":19,"pct_sus":81,"pct_seguro_privado":0,"brecha_seguro":-8,"pct_salud_publica":54,"pct_med_tradicional":12,"pct_automedicacion":12,"pct_remedios_caseros":23,"pct_viv_desocupada":29,"pct_alquiler":20,"pct_electricidad":100,"pct_sin_electricidad":0,"pct_agua_red":100,"pct_alcantarillado":20,"pct_camara_septica":0,"pct_pozo_ciego":20,"pct_sin_desague":60,"pct_gas_red":0,"pct_gas_garrafa":100,"pct_lena_guano":0,"pct_basura_formal":100,"pct_basura_quema":0,"pct_basura_informal":0,"pct_internet":80,"pct_celular":60,"pct_televisor":80}},{"type":"Feature","geometry":{"type":"Polygon","coordinates":[[[-68.68084,-16.55561],[-68.68087,-16.55485],[-68.68056,-16.55559],[-68.68084,-16.55561]]]},"properties":{"n":"TIAHUANACU","p":20,"personas_x_ha":138,"masculinidad":82,"pct_menor20":30,"pct_60mas":20,"pct_migrante":25,"dependencia_econ":43,"pct_empleados":29,"pct_cuentapropia":57,"pct_agricultura":14,"pct_comercio":43,"pct_manufactura":7,"pct_construccion":0,"pct_transporte":7,"pct_alojamiento":0,"pct_sin_educacion":7,"pct_educ_superior":13,"brecha_educ":-25,"pct_sin_seguro":16,"pct_sus":79,"pct_seguro_privado":0,"brecha_seguro":16,"pct_salud_publica":19,"pct_med_tradicional":24,"pct_automedicacion":24,"pct_remedios_caseros":24,"pct_viv_desocupada":0,"pct_alquiler":0,"pct_electricidad":88,"pct_sin_electricidad":12,"pct_agua_red":100,"pct_alcantarillado":75,"pct_camara_septica":25,"pct_pozo_ciego":0,"pct_sin_desague":0,"pct_gas_red":0,"pct_gas_garrafa":100,"pct_lena_guano":0,"pct_basura_formal":100,"pct_basura_quema":0,"pct_basura_informal":0,"pct_internet":75,"pct_celular":88,"pct_televisor":50}},{"type":"Feature","geometry":{"type":"Polygon","coordinates":[[[-68.67525,-16.55788],[-68.67524,-16.55926],[-68.67539,-16.55962],[-68.67718,-16.55975],[-68.6774,-16.55826],[-68.67727,-16.55801],[-68.67544,-16.55783],[-68.67525,-16.55788]]]},"properties":{"n":"TIAHUANACU","p":46,"personas_x_ha":10,"masculinidad":64,"pct_menor20":43,"pct_60mas":15,"pct_migrante":22,"dependencia_econ":96,"pct_empleados":26,"pct_cuentapropia":52,"pct_agricultura":13,"pct_comercio":13,"pct_manufactura":26,"pct_construccion":0,"pct_transporte":4,"pct_alojamiento":13,"pct_sin_educacion":0,"pct_educ_superior":35,"brecha_educ":-18,"pct_sin_seguro":0,"pct_sus":84,"pct_seguro_privado":0,"brecha_seguro":0,"pct_salud_publica":24,"pct_med_tradicional":19,"pct_automedicacion":14,"pct_remedios_caseros":25,"pct_viv_desocupada":5,"pct_alquiler":0,"pct_electricidad":94,"pct_sin_electricidad":0,"pct_agua_red":53,"pct_alcantarillado":12,"pct_camara_septica":12,"pct_pozo_ciego":47,"pct_sin_desague":24,"pct_gas_red":0,"pct_gas_garrafa":100,"pct_lena_guano":0,"pct_basura_formal":100,"pct_basura_quema":0,"pct_basura_informal":0,"pct_internet":71,"pct_celular":94,"pct_televisor":82}},{"type":"Feature","geometry":{"type":"Polygon","coordinates":[[[-68.67957,-16.55539],[-68.67963,-16.55411],[-68.6793,-16.5541],[-68.67921,-16.55565],[-68.67957,-16.55539]]]},"properties":{"n":"TIAHUANACU","p":19,"personas_x_ha":31,"masculinidad":73,"pct_menor20":32,"pct_60mas":21,"pct_migrante":37,"dependencia_econ":46,"pct_empleados":38,"pct_cuentapropia":46,"pct_agricultura":8,"pct_comercio":15,"pct_manufactura":23,"pct_construccion":0,"pct_transporte":8,"pct_alojamiento":8,"pct_sin_educacion":0,"pct_educ_superior":38,"brecha_educ":-56,"pct_sin_seguro":0,"pct_sus":79,"pct_seguro_privado":0,"brecha_seguro":0,"pct_salud_publica":18,"pct_med_tradicional":24,"pct_automedicacion":21,"pct_remedios_caseros":25,"pct_viv_desocupada":0,"pct_alquiler":30,"pct_electricidad":90,"pct_sin_electricidad":10,"pct_agua_red":90,"pct_alcantarillado":40,"pct_camara_septica":20,"pct_pozo_ciego":20,"pct_sin_desague":20,"pct_gas_red":0,"pct_gas_garrafa":90,"pct_lena_guano":0,"pct_basura_formal":100,"pct_basura_quema":0,"pct_basura_informal":0,"pct_internet":70,"pct_celular":80,"pct_televisor":60}},{"type":"Feature","geometry":{"type":"Polygon","coordinates":[[[-68.68195,-16.55243],[-68.68234,-16.55245],[-68.68237,-16.55208],[-68.68198,-16.55204],[-68.68195,-16.55243]]]},"properties":{"n":"TIAHUANACU","p":17,"personas_x_ha":94,"masculinidad":31,"pct_menor20":53,"pct_60mas":6,"pct_migrante":41,"dependencia_econ":55,"pct_empleados":27,"pct_cuentapropia":64,"pct_agricultura":9,"pct_comercio":55,"pct_manufactura":9,"pct_construccion":0,"pct_transporte":9,"pct_alojamiento":0,"pct_sin_educacion":0,"pct_educ_superior":30,"brecha_educ":-12,"pct_sin_seguro":12,"pct_sus":88,"pct_seguro_privado":0,"brecha_seguro":-17,"pct_salud_publica":24,"pct_med_tradicional":18,"pct_automedicacion":11,"pct_remedios_caseros":20,"pct_viv_desocupada":10,"pct_alquiler":0,"pct_electricidad":100,"pct_sin_electricidad":0,"pct_agua_red":86,"pct_alcantarillado":71,"pct_camara_septica":14,"pct_pozo_ciego":0,"pct_sin_desague":14,"pct_gas_red":0,"pct_gas_garrafa":100,"pct_lena_guano":0,"pct_basura_formal":100,"pct_basura_quema":0,"pct_basura_informal":0,"pct_internet":43,"pct_celular":86,"pct_televisor":43}},{"type":"Feature","geometry":{"type":"Polygon","coordinates":[[[-68.68051,-16.55402],[-68.68053,-16.55373],[-68.67974,-16.55365],[-68.67971,-16.55404],[-68.68051,-16.55402]]]},"properties":{"n":"TIAHUANACU","p":15,"personas_x_ha":45,"masculinidad":50,"pct_menor20":7,"pct_60mas":40,"pct_migrante":33,"dependencia_econ":7,"pct_empleados":43,"pct_cuentapropia":43,"pct_agricultura":14,"pct_comercio":21,"pct_manufactura":0,"pct_construccion":7,"pct_transporte":7,"pct_alojamiento":0,"pct_sin_educacion":0,"pct_educ_superior":86,"brecha_educ":-11,"pct_sin_seguro":7,"pct_sus":60,"pct_seguro_privado":0,"brecha_seguro":-10,"pct_salud_publica":45,"pct_med_tradicional":3,"pct_automedicacion":10,"pct_remedios_caseros":14,"pct_viv_desocupada":8,"pct_alquiler":22,"pct_electricidad":100,"pct_sin_electricidad":0,"pct_agua_red":100,"pct_alcantarillado":89,"pct_camara_septica":0,"pct_pozo_ciego":11,"pct_sin_desague":0,"pct_gas_red":0,"pct_gas_garrafa":89,"pct_lena_guano":0,"pct_basura_formal":89,"pct_basura_quema":0,"pct_basura_informal":0,"pct_internet":78,"pct_celular":100,"pct_televisor":56}},{"type":"Feature","geometry":{"type":"Polygon","coordinates":[[[-68.67813,-16.56098],[-68.6779,-16.56088],[-68.6776,-16.56162],[-68.67787,-16.56171],[-68.67813,-16.56098]]]},"properties":{"n":"TIAHUANACU","p":47,"personas_x_ha":185,"masculinidad":161,"pct_menor20":17,"pct_60mas":32,"pct_migrante":11,"dependencia_econ":9,"pct_empleados":16,"pct_cuentapropia":37,"pct_agricultura":53,"pct_comercio":7,"pct_manufactura":5,"pct_construccion":12,"pct_transporte":2,"pct_alojamiento":5,"pct_sin_educacion":7,"pct_educ_superior":20,"brecha_educ":-15,"pct_sin_seguro":15,"pct_sus":79,"pct_seguro_privado":0,"brecha_seguro":6,"pct_salud_publica":26,"pct_med_tradicional":26,"pct_automedicacion":15,"pct_remedios_caseros":26,"pct_viv_desocupada":0,"pct_alquiler":0,"pct_electricidad":75,"pct_sin_electricidad":12,"pct_agua_red":0,"pct_alcantarillado":0,"pct_camara_septica":12,"pct_pozo_ciego":25,"pct_sin_desague":62,"pct_gas_red":0,"pct_gas_garrafa":88,"pct_lena_guano":12,"pct_basura_formal":75,"pct_basura_quema":25,"pct_basura_informal":0,"pct_internet":88,"pct_celular":100,"pct_televisor":75}},{"type":"Feature","geometry":{"type":"Polygon","coordinates":[[[-68.68055,-16.55409],[-68.68052,-16.55461],[-68.68052,-16.55478],[-68.68088,-16.55452],[-68.68092,-16.5541],[-68.68055,-16.55409]]]},"properties":{"n":"TIAHUANACU","p":18,"personas_x_ha":72,"masculinidad":64,"pct_menor20":50,"pct_60mas":11,"pct_migrante":39,"dependencia_econ":64,"pct_empleados":9,"pct_cuentapropia":73,"pct_agricultura":0,"pct_comercio":27,"pct_manufactura":9,"pct_construccion":0,"pct_transporte":0,"pct_alojamiento":45,"pct_sin_educacion":0,"pct_educ_superior":27,"brecha_educ":11,"pct_sin_seguro":11,"pct_sus":89,"pct_seguro_privado":0,"brecha_seguro":-18,"pct_salud_publica":52,"pct_med_tradicional":9,"pct_automedicacion":3,"pct_remedios_caseros":18,"pct_viv_desocupada":9,"pct_alquiler":0,"pct_electricidad":100,"pct_sin_electricidad":0,"pct_agua_red":43,"pct_alcantarillado":86,"pct_camara_septica":0,"pct_pozo_ciego":0,"pct_sin_desague":14,"pct_gas_red":0,"pct_gas_garrafa":100,"pct_lena_guano":0,"pct_basura_formal":100,"pct_basura_quema":0,"pct_basura_informal":0,"pct_internet":86,"pct_celular":100,"pct_televisor":100}},{"type":"Feature","geometry":{"type":"Polygon","coordinates":[[[-68.68324,-16.55391],[-68.68225,-16.55375],[-68.68226,-16.55447],[-68.68252,-16.55573],[-68.68315,-16.55573],[-68.68324,-16.55391]]]},"properties":{"n":"TIAHUANACU","p":40,"personas_x_ha":21,"masculinidad":74,"pct_menor20":42,"pct_60mas":22,"pct_migrante":32,"dependencia_econ":144,"pct_empleados":19,"pct_cuentapropia":50,"pct_agricultura":6,"pct_comercio":19,"pct_manufactura":38,"pct_construccion":25,"pct_transporte":0,"pct_alojamiento":0,"pct_sin_educacion":4,"pct_educ_superior":35,"brecha_educ":-17,"pct_sin_seguro":10,"pct_sus":82,"pct_seguro_privado":0,"brecha_seguro":25,"pct_salud_publica":32,"pct_med_tradicional":8,"pct_automedicacion":26,"pct_remedios_caseros":26,"pct_viv_desocupada":18,"pct_alquiler":0,"pct_electricidad":93,"pct_sin_electricidad":7,"pct_agua_red":86,"pct_alcantarillado":14,"pct_camara_septica":7,"pct_pozo_ciego":7,"pct_sin_desague":71,"pct_gas_red":0,"pct_gas_garrafa":79,"pct_lena_guano":0,"pct_basura_formal":79,"pct_basura_quema":21,"pct_basura_informal":0,"pct_internet":29,"pct_celular":71,"pct_televisor":43}},{"type":"Feature","geometry":{"type":"Polygon","coordinates":[[[-68.67417,-16.57003],[-68.67287,-16.57],[-68.67283,-16.57091],[-68.67359,-16.57095],[-68.67377,-16.57079],[-68.67417,-16.57003]]]},"properties":{"n":"TIAHUANACU","p":26,"personas_x_ha":22,"masculinidad":100,"pct_menor20":50,"pct_60mas":4,"pct_migrante":27,"dependencia_econ":117,"pct_empleados":25,"pct_cuentapropia":67,"pct_agricultura":17,"pct_comercio":17,"pct_manufactura":8,"pct_construccion":0,"pct_transporte":8,"pct_alojamiento":33,"pct_sin_educacion":0,"pct_educ_superior":69,"brecha_educ":14,"pct_sin_seguro":0,"pct_sus":76,"pct_seguro_privado":0,"brecha_seguro":0,"pct_salud_publica":36,"pct_med_tradicional":15,"pct_automedicacion":12,"pct_remedios_caseros":21,"pct_viv_desocupada":0,"pct_alquiler":0,"pct_electricidad":100,"pct_sin_electricidad":0,"pct_agua_red":0,"pct_alcantarillado":0,"pct_camara_septica":33,"pct_pozo_ciego":67,"pct_sin_desague":0,"pct_gas_red":0,"pct_gas_garrafa":100,"pct_lena_guano":0,"pct_basura_formal":100,"pct_basura_quema":0,"pct_basura_informal":0,"pct_internet":67,"pct_celular":83,"pct_televisor":83}},{"type":"Feature","geometry":{"type":"Polygon","coordinates":[[[-68.68324,-16.55262],[-68.68193,-16.55252],[-68.6819,-16.55363],[-68.68322,-16.55374],[-68.68324,-16.55262]]]},"properties":{"n":"TIAHUANACU","p":18,"personas_x_ha":10,"masculinidad":100,"pct_menor20":11,"pct_60mas":39,"pct_migrante":50,"dependencia_econ":29,"pct_empleados":36,"pct_cuentapropia":43,"pct_agricultura":0,"pct_comercio":14,"pct_manufactura":7,"pct_construccion":0,"pct_transporte":7,"pct_alojamiento":14,"pct_sin_educacion":0,"pct_educ_superior":50,"brecha_educ":14,"pct_sin_seguro":6,"pct_sus":89,"pct_seguro_privado":6,"brecha_seguro":11,"pct_salud_publica":33,"pct_med_tradicional":2,"pct_automedicacion":10,"pct_remedios_caseros":12,"pct_viv_desocupada":21,"pct_alquiler":0,"pct_electricidad":100,"pct_sin_electricidad":0,"pct_agua_red":90,"pct_alcantarillado":70,"pct_camara_septica":10,"pct_pozo_ciego":10,"pct_sin_desague":10,"pct_gas_red":0,"pct_gas_garrafa":100,"pct_lena_guano":0,"pct_basura_formal":100,"pct_basura_quema":0,"pct_basura_informal":0,"pct_internet":60,"pct_celular":90,"pct_televisor":90}},{"type":"Feature","geometry":{"type":"Polygon","coordinates":[[[-68.68178,-16.55711],[-68.6818,-16.55576],[-68.68091,-16.55568],[-68.68082,-16.55731],[-68.68178,-16.55711]]]},"properties":{"n":"TIAHUANACU","p":42,"personas_x_ha":25,"masculinidad":91,"pct_menor20":33,"pct_60mas":14,"pct_migrante":26,"dependencia_econ":95,"pct_empleados":19,"pct_cuentapropia":48,"pct_agricultura":38,"pct_comercio":29,"pct_manufactura":5,"pct_construccion":5,"pct_transporte":5,"pct_alojamiento":10,"pct_sin_educacion":7,"pct_educ_superior":41,"brecha_educ":-13,"pct_sin_seguro":3,"pct_sus":92,"pct_seguro_privado":0,"brecha_seguro":6,"pct_salud_publica":43,"pct_med_tradicional":7,"pct_automedicacion":9,"pct_remedios_caseros":37,"pct_viv_desocupada":0,"pct_alquiler":17,"pct_electricidad":92,"pct_sin_electricidad":8,"pct_agua_red":50,"pct_alcantarillado":8,"pct_camara_septica":0,"pct_pozo_ciego":33,"pct_sin_desague":50,"pct_gas_red":0,"pct_gas_garrafa":92,"pct_lena_guano":0,"pct_basura_formal":92,"pct_basura_quema":0,"pct_basura_informal":0,"pct_internet":42,"pct_celular":58,"pct_televisor":42}},{"type":"Feature","geometry":{"type":"Polygon","coordinates":[[[-68.67798,-16.55584],[-68.67914,-16.55566],[-68.67917,-16.5548],[-68.6779,-16.55484],[-68.67798,-16.55584]]]},"properties":{"n":"TIAHUANACU","p":28,"personas_x_ha":21,"masculinidad":56,"pct_menor20":25,"pct_60mas":18,"pct_migrante":25,"dependencia_econ":33,"pct_empleados":38,"pct_cuentapropia":57,"pct_agricultura":10,"pct_comercio":14,"pct_manufactura":24,"pct_construccion":10,"pct_transporte":0,"pct_alojamiento":24,"pct_sin_educacion":18,"pct_educ_superior":27,"brecha_educ":-35,"pct_sin_seguro":4,"pct_sus":82,"pct_seguro_privado":0,"brecha_seguro":10,"pct_salud_publica":33,"pct_med_tradicional":3,"pct_automedicacion":25,"pct_remedios_caseros":34,"pct_viv_desocupada":0,"pct_alquiler":11,"pct_electricidad":89,"pct_sin_electricidad":11,"pct_agua_red":78,"pct_alcantarillado":33,"pct_camara_septica":33,"pct_pozo_ciego":33,"pct_sin_desague":0,"pct_gas_red":0,"pct_gas_garrafa":89,"pct_lena_guano":11,"pct_basura_formal":100,"pct_basura_quema":0,"pct_basura_informal":0,"pct_internet":78,"pct_celular":89,"pct_televisor":89}},{"type":"Feature","geometry":{"type":"Polygon","coordinates":[[[-68.67748,-16.56265],[-68.67722,-16.56255],[-68.67708,-16.56289],[-68.67627,-16.56259],[-68.67627,-16.56252],[-68.67654,-16.56262],[-68.67665,-16.56234],[-68.67636,-16.56221],[-68.67659,-16.56166],[-68.67647,-16.56156],[-68.67691,-16.56173],[-68.67701,-16.56147],[-68.67553,-16.5609],[-68.67538,-16.56099],[-68.67544,-16.56206],[-68.67474,-16.56238],[-68.67461,-16.56331],[-68.67635,-16.56341],[-68.67637,-16.56377],[-68.67701,-16.56385],[-68.67748,-16.56265]]]},"properties":{"n":"TIAHUANACU","p":23,"personas_x_ha":4,"masculinidad":77,"pct_menor20":39,"pct_60mas":0,"pct_migrante":30,"dependencia_econ":53,"pct_empleados":33,"pct_cuentapropia":53,"pct_agricultura":20,"pct_comercio":40,"pct_manufactura":20,"pct_construccion":7,"pct_transporte":7,"pct_alojamiento":0,"pct_sin_educacion":0,"pct_educ_superior":29,"brecha_educ":-22,"pct_sin_seguro":9,"pct_sus":91,"pct_seguro_privado":0,"brecha_seguro":2,"pct_salud_publica":34,"pct_med_tradicional":9,"pct_automedicacion":20,"pct_remedios_caseros":32,"pct_viv_desocupada":0,"pct_alquiler":14,"pct_electricidad":86,"pct_sin_electricidad":14,"pct_agua_red":14,"pct_alcantarillado":0,"pct_camara_septica":0,"pct_pozo_ciego":57,"pct_sin_desague":29,"pct_gas_red":0,"pct_gas_garrafa":86,"pct_lena_guano":0,"pct_basura_formal":57,"pct_basura_quema":43,"pct_basura_informal":0,"pct_internet":71,"pct_celular":86,"pct_televisor":71}},{"type":"Feature","geometry":{"type":"Polygon","coordinates":[[[-68.68181,-16.55402],[-68.68181,-16.55373],[-68.68102,-16.55381],[-68.68102,-16.554],[-68.68181,-16.55402]]]},"properties":{"n":"TIAHUANACU","p":16,"personas_x_ha":69,"masculinidad":167,"pct_menor20":19,"pct_60mas":44,"pct_migrante":31,"dependencia_econ":45,"pct_empleados":0,"pct_cuentapropia":73,"pct_agricultura":9,"pct_comercio":36,"pct_manufactura":18,"pct_construccion":0,"pct_transporte":0,"pct_alojamiento":18,"pct_sin_educacion":0,"pct_educ_superior":46,"brecha_educ":-20,"pct_sin_seguro":6,"pct_sus":75,"pct_seguro_privado":0,"brecha_seguro":10,"pct_salud_publica":16,"pct_med_tradicional":26,"pct_automedicacion":21,"pct_remedios_caseros":21,"pct_viv_desocupada":36,"pct_alquiler":0,"pct_electricidad":100,"pct_sin_electricidad":0,"pct_agua_red":100,"pct_alcantarillado":80,"pct_camara_septica":0,"pct_pozo_ciego":0,"pct_sin_desague":20,"pct_gas_red":0,"pct_gas_garrafa":100,"pct_lena_guano":0,"pct_basura_formal":100,"pct_basura_quema":0,"pct_basura_informal":0,"pct_internet":60,"pct_celular":100,"pct_televisor":100}},{"type":"Feature","geometry":{"type":"Polygon","coordinates":[[[-68.68178,-16.55564],[-68.68178,-16.5552],[-68.68094,-16.55519],[-68.68093,-16.55562],[-68.68178,-16.55564]]]},"properties":{"n":"TIAHUANACU","p":15,"personas_x_ha":33,"masculinidad":114,"pct_menor20":40,"pct_60mas":13,"pct_migrante":47,"dependencia_econ":88,"pct_empleados":38,"pct_cuentapropia":50,"pct_agricultura":12,"pct_comercio":38,"pct_manufactura":0,"pct_construccion":12,"pct_transporte":0,"pct_alojamiento":0,"pct_sin_educacion":11,"pct_educ_superior":33,"brecha_educ":-20,"pct_sin_seguro":13,"pct_sus":73,"pct_seguro_privado":7,"brecha_seguro":-29,"pct_salud_publica":23,"pct_med_tradicional":26,"pct_automedicacion":13,"pct_remedios_caseros":26,"pct_viv_desocupada":29,"pct_alquiler":0,"pct_electricidad":100,"pct_sin_electricidad":0,"pct_agua_red":67,"pct_alcantarillado":0,"pct_camara_septica":0,"pct_pozo_ciego":33,"pct_sin_desague":67,"pct_gas_red":0,"pct_gas_garrafa":100,"pct_lena_guano":0,"pct_basura_formal":67,"pct_basura_quema":33,"pct_basura_informal":0,"pct_internet":67,"pct_celular":100,"pct_televisor":67}}]}