{"type":"FeatureCollection","features":[{"type":"Feature","geometry":{"type":"Polygon","coordinates":[[[-67.82833,-17.73805],[-67.82816,-17.73806],[-67.82816,-17.738],[-67.82833,-17.73799],[-67.82829,-17.73768],[-67.82792,-17.73772],[-67.82793,-17.73786],[-67.82778,-17.7379],[-67.82774,-17.73782],[-67.82788,-17.73782],[-67.82788,-17.73772],[-67.82753,-17.73775],[-67.82746,-17.73888],[-67.82842,-17.73875],[-67.82833,-17.73805]]]},"properties":{"n":"MOLLEBAMBA","p":30,"personas_x_ha":27,"masculinidad":150,"pct_menor20":33,"pct_60mas":20,"pct_migrante":23,"dependencia_econ":50,"pct_empleados":0,"pct_cuentapropia":95,"pct_agricultura":90,"pct_comercio":0,"pct_manufactura":0,"pct_construccion":0,"pct_transporte":5,"pct_alojamiento":5,"pct_educ_superior":5,"brecha_educ":-52,"pct_sin_seguro":10,"pct_seguro_privado":0,"brecha_seguro":17,"pct_med_tradicional":27,"pct_automedicacion":16,"pct_remedios_caseros":27,"pct_viv_desocupada":0,"pct_alquiler":0,"pct_electricidad":100,"pct_agua_red":0,"pct_alcantarillado":0,"pct_gas_red":0,"pct_gas_garrafa":90,"pct_lena_guano":90,"pct_basura_formal":0,"pct_basura_quema":90,"pct_basura_informal":0,"pct_internet":80,"pct_celular":100,"pct_televisor":70}},{"type":"Feature","geometry":{"type":"Polygon","coordinates":[[[-67.83076,-17.73956],[-67.83004,-17.73965],[-67.83009,-17.73999],[-67.83079,-17.73992],[-67.83076,-17.73956]]]},"properties":{"n":"MOLLEBAMBA","p":17,"personas_x_ha":57,"masculinidad":70,"pct_menor20":53,"pct_60mas":6,"pct_migrante":35,"dependencia_econ":89,"pct_empleados":0,"pct_cuentapropia":78,"pct_agricultura":78,"pct_comercio":22,"pct_manufactura":0,"pct_construccion":0,"pct_transporte":0,"pct_alojamiento":0,"pct_educ_superior":22,"brecha_educ":-17,"pct_sin_seguro":18,"pct_seguro_privado":0,"brecha_seguro":-6,"pct_med_tradicional":22,"pct_automedicacion":19,"pct_remedios_caseros":23,"pct_viv_desocupada":0,"pct_alquiler":0,"pct_electricidad":67,"pct_agua_red":0,"pct_alcantarillado":0,"pct_gas_red":0,"pct_gas_garrafa":67,"pct_lena_guano":67,"pct_basura_formal":17,"pct_basura_quema":67,"pct_basura_informal":0,"pct_internet":83,"pct_celular":83,"pct_televisor":67}},{"type":"Feature","geometry":{"type":"Polygon","coordinates":[[[-67.76838,-17.81886],[-67.7688,-17.81875],[-67.76865,-17.81823],[-67.76825,-17.81832],[-67.76838,-17.81886]]]},"properties":{"n":"PAPEL PAMPA","p":23,"personas_x_ha":80,"masculinidad":109,"pct_menor20":39,"pct_60mas":9,"pct_migrante":0,"dependencia_econ":156,"pct_empleados":33,"pct_cuentapropia":44,"pct_agricultura":33,"pct_comercio":44,"pct_manufactura":0,"pct_construccion":0,"pct_transporte":0,"pct_alojamiento":0,"pct_educ_superior":64,"brecha_educ":12,"pct_sin_seguro":4,"pct_seguro_privado":0,"brecha_seguro":-9,"pct_med_tradicional":16,"pct_automedicacion":19,"pct_remedios_caseros":26,"pct_viv_desocupada":0,"pct_alquiler":11,"pct_electricidad":67,"pct_agua_red":44,"pct_alcantarillado":0,"pct_gas_red":0,"pct_gas_garrafa":100,"pct_lena_guano":100,"pct_basura_formal":22,"pct_basura_quema":44,"pct_basura_informal":44,"pct_internet":89,"pct_celular":78,"pct_televisor":78}},{"type":"Feature","geometry":{"type":"Polygon","coordinates":[[[-67.76916,-17.81836],[-67.76911,-17.81816],[-67.769,-17.81812],[-67.76932,-17.81805],[-67.76944,-17.81854],[-67.76887,-17.81872],[-67.76872,-17.81821],[-67.76897,-17.81813],[-67.76899,-17.8182],[-67.76909,-17.81818],[-67.76916,-17.81836]]]},"properties":{"n":"PAPEL PAMPA","p":28,"personas_x_ha":73,"masculinidad":133,"pct_menor20":25,"pct_60mas":7,"pct_migrante":14,"dependencia_econ":42,"pct_empleados":5,"pct_cuentapropia":68,"pct_agricultura":79,"pct_comercio":0,"pct_manufactura":0,"pct_construccion":11,"pct_transporte":0,"pct_alojamiento":16,"pct_educ_superior":40,"brecha_educ":-12,"pct_sin_seguro":4,"pct_seguro_privado":0,"brecha_seguro":6,"pct_med_tradicional":15,"pct_automedicacion":0,"pct_remedios_caseros":28,"pct_viv_desocupada":0,"pct_alquiler":0,"pct_electricidad":86,"pct_agua_red":29,"pct_alcantarillado":0,"pct_gas_red":0,"pct_gas_garrafa":86,"pct_lena_guano":86,"pct_basura_formal":14,"pct_basura_quema":71,"pct_basura_informal":29,"pct_internet":71,"pct_celular":86,"pct_televisor":14}},{"type":"Feature","geometry":{"type":"Polygon","coordinates":[[[-67.7541,-17.72375],[-67.75382,-17.72354],[-67.75358,-17.72381],[-67.75388,-17.72405],[-67.7541,-17.72375]]]},"properties":{"n":"SAN JOSE 16 DE JULIO","p":20,"personas_x_ha":116,"masculinidad":54,"pct_menor20":50,"pct_60mas":5,"pct_migrante":30,"dependencia_econ":100,"pct_empleados":0,"pct_cuentapropia":90,"pct_agricultura":70,"pct_comercio":0,"pct_manufactura":10,"pct_construccion":0,"pct_transporte":10,"pct_alojamiento":10,"pct_educ_superior":36,"brecha_educ":-67,"pct_sin_seguro":15,"pct_seguro_privado":0,"brecha_seguro":21,"pct_med_tradicional":25,"pct_automedicacion":17,"pct_remedios_caseros":26,"pct_viv_desocupada":0,"pct_alquiler":0,"pct_electricidad":67,"pct_agua_red":50,"pct_alcantarillado":0,"pct_gas_red":0,"pct_gas_garrafa":50,"pct_lena_guano":50,"pct_basura_formal":0,"pct_basura_quema":100,"pct_basura_informal":0,"pct_internet":67,"pct_celular":100,"pct_televisor":33}},{"type":"Feature","geometry":{"type":"Polygon","coordinates":[[[-67.75419,-17.72375],[-67.75456,-17.72402],[-67.75497,-17.72349],[-67.75495,-17.72339],[-67.75468,-17.72329],[-67.75453,-17.72332],[-67.75419,-17.72375]]]},"properties":{"n":"SAN JOSE 16 DE JULIO","p":17,"personas_x_ha":46,"masculinidad":112,"pct_menor20":41,"pct_60mas":29,"pct_migrante":18,"dependencia_econ":143,"pct_empleados":14,"pct_cuentapropia":86,"pct_agricultura":71,"pct_comercio":29,"pct_manufactura":0,"pct_construccion":0,"pct_transporte":0,"pct_alojamiento":14,"pct_educ_superior":20,"brecha_educ":-40,"pct_sin_seguro":12,"pct_seguro_privado":0,"brecha_seguro":-3,"pct_med_tradicional":19,"pct_automedicacion":15,"pct_remedios_caseros":27,"pct_viv_desocupada":7,"pct_alquiler":0,"pct_electricidad":83,"pct_agua_red":17,"pct_alcantarillado":17,"pct_gas_red":0,"pct_gas_garrafa":83,"pct_lena_guano":83,"pct_basura_formal":17,"pct_basura_quema":67,"pct_basura_informal":0,"pct_internet":17,"pct_celular":67,"pct_televisor":17}},{"type":"Feature","geometry":{"type":"Polygon","coordinates":[[[-67.71189,-17.69443],[-67.71195,-17.69405],[-67.71155,-17.69399],[-67.71148,-17.69436],[-67.71189,-17.69443]]]},"properties":{"n":"UNOPATA","p":16,"personas_x_ha":80,"masculinidad":129,"pct_menor20":6,"pct_60mas":19,"pct_migrante":19,"dependencia_econ":45,"pct_empleados":27,"pct_cuentapropia":73,"pct_agricultura":64,"pct_comercio":9,"pct_manufactura":0,"pct_construccion":0,"pct_transporte":0,"pct_alojamiento":0,"pct_educ_superior":33,"brecha_educ":-39,"pct_sin_seguro":6,"pct_seguro_privado":0,"brecha_seguro":11,"pct_med_tradicional":15,"pct_automedicacion":17,"pct_remedios_caseros":21,"pct_viv_desocupada":0,"pct_alquiler":0,"pct_electricidad":80,"pct_agua_red":13,"pct_alcantarillado":0,"pct_gas_red":0,"pct_gas_garrafa":100,"pct_lena_guano":100,"pct_basura_formal":7,"pct_basura_quema":73,"pct_basura_informal":0,"pct_internet":87,"pct_celular":100,"pct_televisor":67}},{"type":"Feature","geometry":{"type":"Polygon","coordinates":[[[-67.71142,-17.69382],[-67.71154,-17.69314],[-67.7112,-17.69306],[-67.71104,-17.69375],[-67.71142,-17.69382]]]},"properties":{"n":"UNOPATA","p":26,"personas_x_ha":81,"masculinidad":136,"pct_menor20":35,"pct_60mas":12,"pct_migrante":8,"dependencia_econ":108,"pct_empleados":17,"pct_cuentapropia":67,"pct_agricultura":100,"pct_comercio":8,"pct_manufactura":0,"pct_construccion":8,"pct_transporte":0,"pct_alojamiento":0,"pct_educ_superior":6,"brecha_educ":2,"pct_sin_seguro":17,"pct_seguro_privado":0,"brecha_seguro":-3,"pct_med_tradicional":8,"pct_automedicacion":6,"pct_remedios_caseros":31,"pct_viv_desocupada":25,"pct_alquiler":38,"pct_electricidad":23,"pct_agua_red":0,"pct_alcantarillado":0,"pct_gas_red":0,"pct_gas_garrafa":31,"pct_lena_guano":31,"pct_basura_formal":23,"pct_basura_quema":38,"pct_basura_informal":31,"pct_internet":46,"pct_celular":62,"pct_televisor":38}},{"type":"Feature","geometry":{"type":"Polygon","coordinates":[[[-67.71199,-17.69395],[-67.71206,-17.69348],[-67.71184,-17.69319],[-67.71173,-17.69317],[-67.7116,-17.69385],[-67.71199,-17.69395]]]},"properties":{"n":"UNOPATA","p":21,"personas_x_ha":74,"masculinidad":425,"pct_menor20":24,"pct_60mas":24,"pct_migrante":10,"dependencia_econ":82,"pct_empleados":0,"pct_cuentapropia":100,"pct_agricultura":91,"pct_comercio":9,"pct_manufactura":0,"pct_construccion":0,"pct_transporte":18,"pct_alojamiento":9,"pct_educ_superior":0,"brecha_educ":-3,"pct_sin_seguro":25,"pct_seguro_privado":0,"brecha_seguro":-31,"pct_med_tradicional":11,"pct_automedicacion":15,"pct_remedios_caseros":28,"pct_viv_desocupada":14,"pct_alquiler":0,"pct_electricidad":25,"pct_agua_red":0,"pct_alcantarillado":0,"pct_gas_red":0,"pct_gas_garrafa":44,"pct_lena_guano":44,"pct_basura_formal":6,"pct_basura_quema":44,"pct_basura_informal":50,"pct_internet":44,"pct_celular":62,"pct_televisor":19}},{"type":"Feature","geometry":{"type":"Polygon","coordinates":[[[-67.8256,-17.66885],[-67.82599,-17.66878],[-67.82593,-17.66833],[-67.82549,-17.66838],[-67.8256,-17.66885]]]},"properties":{"n":"VIRGEN DE COPACABANA","p":15,"personas_x_ha":61,"masculinidad":200,"pct_menor20":33,"pct_60mas":20,"pct_migrante":7,"dependencia_econ":50,"pct_empleados":0,"pct_cuentapropia":100,"pct_agricultura":50,"pct_comercio":40,"pct_manufactura":20,"pct_construccion":0,"pct_transporte":0,"pct_alojamiento":0,"pct_educ_superior":10,"brecha_educ":-52,"pct_sin_seguro":0,"pct_seguro_privado":0,"brecha_seguro":0,"pct_med_tradicional":10,"pct_automedicacion":16,"pct_remedios_caseros":24,"pct_viv_desocupada":0,"pct_alquiler":0,"pct_electricidad":86,"pct_agua_red":29,"pct_alcantarillado":0,"pct_gas_red":0,"pct_gas_garrafa":100,"pct_lena_guano":100,"pct_basura_formal":0,"pct_basura_quema":100,"pct_basura_informal":0,"pct_internet":71,"pct_celular":100,"pct_televisor":43}},{"type":"Feature","geometry":{"type":"Polygon","coordinates":[[[-67.82471,-17.66845],[-67.82438,-17.66851],[-67.82446,-17.66902],[-67.82483,-17.66895],[-67.82471,-17.66845]]]},"properties":{"n":"VIRGEN DE COPACABANA","p":17,"personas_x_ha":74,"masculinidad":89,"pct_menor20":29,"pct_60mas":12,"pct_migrante":18,"dependencia_econ":143,"pct_empleados":14,"pct_cuentapropia":71,"pct_agricultura":86,"pct_comercio":14,"pct_manufactura":0,"pct_construccion":0,"pct_transporte":0,"pct_alojamiento":0,"pct_educ_superior":25,"brecha_educ":-9,"pct_sin_seguro":6,"pct_seguro_privado":0,"brecha_seguro":-11,"pct_med_tradicional":9,"pct_automedicacion":6,"pct_remedios_caseros":21,"pct_viv_desocupada":8,"pct_alquiler":0,"pct_electricidad":75,"pct_agua_red":12,"pct_alcantarillado":12,"pct_gas_red":0,"pct_gas_garrafa":88,"pct_lena_guano":88,"pct_basura_formal":25,"pct_basura_quema":75,"pct_basura_informal":0,"pct_internet":50,"pct_celular":88,"pct_televisor":38}}]}