{"type":"FeatureCollection","features":[{"type":"Feature","geometry":{"type":"Polygon","coordinates":[[[-67.17689,-15.65789],[-67.17712,-15.65817],[-67.17767,-15.65781],[-67.17743,-15.65753],[-67.17689,-15.65789]]]},"properties":{"n":"SAN ANTONIO","p":22,"personas_x_ha":74,"masculinidad":57,"pct_menor20":59,"pct_60mas":5,"pct_migrante":14,"dependencia_econ":83,"pct_empleados":0,"pct_cuentapropia":83,"pct_agricultura":58,"pct_comercio":8,"pct_manufactura":0,"pct_construccion":0,"pct_transporte":0,"pct_alojamiento":33,"pct_sin_educacion":0,"pct_educ_superior":10,"brecha_educ":-12,"pct_sin_seguro":0,"pct_sus":91,"pct_seguro_privado":9,"brecha_seguro":0,"pct_salud_publica":27,"pct_med_tradicional":13,"pct_automedicacion":28,"pct_remedios_caseros":25,"pct_viv_desocupada":11,"pct_alquiler":0,"pct_electricidad":100,"pct_sin_electricidad":0,"pct_agua_red":88,"pct_alcantarillado":50,"pct_camara_septica":0,"pct_pozo_ciego":38,"pct_sin_desague":12,"pct_gas_red":0,"pct_gas_garrafa":100,"pct_lena_guano":100,"pct_basura_formal":0,"pct_basura_quema":75,"pct_basura_informal":0,"pct_internet":88,"pct_celular":88,"pct_televisor":88}},{"type":"Feature","geometry":{"type":"Polygon","coordinates":[[[-67.17663,-15.65747],[-67.17686,-15.65779],[-67.17737,-15.65743],[-67.17716,-15.65714],[-67.17663,-15.65747]]]},"properties":{"n":"SAN ANTONIO","p":26,"personas_x_ha":90,"masculinidad":30,"pct_menor20":54,"pct_60mas":0,"pct_migrante":54,"dependencia_econ":117,"pct_empleados":17,"pct_cuentapropia":58,"pct_agricultura":42,"pct_comercio":25,"pct_manufactura":0,"pct_construccion":0,"pct_transporte":17,"pct_alojamiento":0,"pct_sin_educacion":0,"pct_educ_superior":25,"brecha_educ":0,"pct_sin_seguro":12,"pct_sus":81,"pct_seguro_privado":0,"brecha_seguro":7,"pct_salud_publica":24,"pct_med_tradicional":7,"pct_automedicacion":21,"pct_remedios_caseros":23,"pct_viv_desocupada":33,"pct_alquiler":30,"pct_electricidad":90,"pct_sin_electricidad":0,"pct_agua_red":90,"pct_alcantarillado":90,"pct_camara_septica":0,"pct_pozo_ciego":0,"pct_sin_desague":10,"pct_gas_red":0,"pct_gas_garrafa":90,"pct_lena_guano":90,"pct_basura_formal":0,"pct_basura_quema":50,"pct_basura_informal":20,"pct_internet":90,"pct_celular":100,"pct_televisor":90}},{"type":"Feature","geometry":{"type":"Polygon","coordinates":[[[-67.17651,-15.65606],[-67.17681,-15.65648],[-67.17729,-15.65617],[-67.17699,-15.65574],[-67.17651,-15.65606]]]},"properties":{"n":"SAN ANTONIO","p":20,"personas_x_ha":53,"masculinidad":82,"pct_menor20":30,"pct_60mas":20,"pct_migrante":40,"dependencia_econ":33,"pct_empleados":27,"pct_cuentapropia":60,"pct_agricultura":53,"pct_comercio":7,"pct_manufactura":13,"pct_construccion":0,"pct_transporte":0,"pct_alojamiento":20,"pct_sin_educacion":7,"pct_educ_superior":13,"brecha_educ":-7,"pct_sin_seguro":5,"pct_sus":95,"pct_seguro_privado":0,"brecha_seguro":11,"pct_salud_publica":17,"pct_med_tradicional":9,"pct_automedicacion":29,"pct_remedios_caseros":26,"pct_viv_desocupada":0,"pct_alquiler":8,"pct_electricidad":83,"pct_sin_electricidad":17,"pct_agua_red":92,"pct_alcantarillado":92,"pct_camara_septica":0,"pct_pozo_ciego":0,"pct_sin_desague":8,"pct_gas_red":0,"pct_gas_garrafa":92,"pct_lena_guano":92,"pct_basura_formal":0,"pct_basura_quema":67,"pct_basura_informal":17,"pct_internet":42,"pct_celular":100,"pct_televisor":67}},{"type":"Feature","geometry":{"type":"Polygon","coordinates":[[[-67.17425,-15.65987],[-67.17398,-15.65962],[-67.17383,-15.65964],[-67.17271,-15.66075],[-67.1731,-15.66114],[-67.17348,-15.66068],[-67.17403,-15.66019],[-67.17425,-15.65987]]]},"properties":{"n":"SAN ANTONIO","p":22,"personas_x_ha":21,"masculinidad":144,"pct_menor20":55,"pct_60mas":9,"pct_migrante":45,"dependencia_econ":120,"pct_empleados":10,"pct_cuentapropia":90,"pct_agricultura":100,"pct_comercio":0,"pct_manufactura":0,"pct_construccion":0,"pct_transporte":0,"pct_alojamiento":0,"pct_sin_educacion":0,"pct_educ_superior":9,"brecha_educ":-23,"pct_sin_seguro":14,"pct_sus":86,"pct_seguro_privado":0,"brecha_seguro":23,"pct_salud_publica":24,"pct_med_tradicional":2,"pct_automedicacion":35,"pct_remedios_caseros":40,"pct_viv_desocupada":0,"pct_alquiler":0,"pct_electricidad":100,"pct_sin_electricidad":0,"pct_agua_red":86,"pct_alcantarillado":0,"pct_camara_septica":0,"pct_pozo_ciego":100,"pct_sin_desague":0,"pct_gas_red":0,"pct_gas_garrafa":100,"pct_lena_guano":100,"pct_basura_formal":0,"pct_basura_quema":100,"pct_basura_informal":0,"pct_internet":100,"pct_celular":100,"pct_televisor":57}},{"type":"Feature","geometry":{"type":"Polygon","coordinates":[[[-67.17604,-15.65787],[-67.17545,-15.65829],[-67.17563,-15.65854],[-67.17625,-15.65818],[-67.17604,-15.65787]]]},"properties":{"n":"SAN ANTONIO","p":23,"personas_x_ha":72,"masculinidad":130,"pct_menor20":35,"pct_60mas":17,"pct_migrante":39,"dependencia_econ":53,"pct_empleados":13,"pct_cuentapropia":80,"pct_agricultura":53,"pct_comercio":7,"pct_manufactura":0,"pct_construccion":0,"pct_transporte":0,"pct_alojamiento":7,"pct_sin_educacion":13,"pct_educ_superior":33,"brecha_educ":4,"pct_sin_seguro":4,"pct_sus":78,"pct_seguro_privado":0,"brecha_seguro":8,"pct_salud_publica":29,"pct_med_tradicional":16,"pct_automedicacion":27,"pct_remedios_caseros":23,"pct_viv_desocupada":0,"pct_alquiler":10,"pct_electricidad":100,"pct_sin_electricidad":0,"pct_agua_red":100,"pct_alcantarillado":100,"pct_camara_septica":0,"pct_pozo_ciego":0,"pct_sin_desague":0,"pct_gas_red":0,"pct_gas_garrafa":100,"pct_lena_guano":100,"pct_basura_formal":0,"pct_basura_quema":70,"pct_basura_informal":20,"pct_internet":70,"pct_celular":100,"pct_televisor":80}},{"type":"Feature","geometry":{"type":"Polygon","coordinates":[[[-67.17387,-15.65486],[-67.17326,-15.65524],[-67.17303,-15.65496],[-67.17366,-15.65454],[-67.17387,-15.65486]]]},"properties":{"n":"SAN ANTONIO","p":19,"personas_x_ha":57,"masculinidad":58,"pct_menor20":53,"pct_60mas":5,"pct_migrante":32,"dependencia_econ":58,"pct_empleados":8,"pct_cuentapropia":67,"pct_agricultura":75,"pct_comercio":8,"pct_manufactura":0,"pct_construccion":0,"pct_transporte":8,"pct_alojamiento":0,"pct_sin_educacion":30,"pct_educ_superior":0,"brecha_educ":-8,"pct_sin_seguro":0,"pct_sus":100,"pct_seguro_privado":0,"brecha_seguro":0,"pct_salud_publica":52,"pct_med_tradicional":0,"pct_automedicacion":12,"pct_remedios_caseros":36,"pct_viv_desocupada":0,"pct_alquiler":12,"pct_electricidad":100,"pct_sin_electricidad":0,"pct_agua_red":100,"pct_alcantarillado":25,"pct_camara_septica":0,"pct_pozo_ciego":62,"pct_sin_desague":12,"pct_gas_red":0,"pct_gas_garrafa":100,"pct_lena_guano":100,"pct_basura_formal":0,"pct_basura_quema":62,"pct_basura_informal":0,"pct_internet":62,"pct_celular":62,"pct_televisor":62}},{"type":"Feature","geometry":{"type":"Polygon","coordinates":[[[-67.17771,-15.65675],[-67.17725,-15.65706],[-67.17744,-15.65739],[-67.17795,-15.65707],[-67.17771,-15.65675]]]},"properties":{"n":"SAN ANTONIO","p":21,"personas_x_ha":75,"masculinidad":75,"pct_menor20":33,"pct_60mas":14,"pct_migrante":24,"dependencia_econ":91,"pct_empleados":0,"pct_cuentapropia":64,"pct_agricultura":82,"pct_comercio":0,"pct_manufactura":0,"pct_construccion":0,"pct_transporte":9,"pct_alojamiento":0,"pct_sin_educacion":7,"pct_educ_superior":36,"brecha_educ":-46,"pct_sin_seguro":5,"pct_sus":95,"pct_seguro_privado":0,"brecha_seguro":-8,"pct_salud_publica":29,"pct_med_tradicional":15,"pct_automedicacion":23,"pct_remedios_caseros":32,"pct_viv_desocupada":0,"pct_alquiler":25,"pct_electricidad":100,"pct_sin_electricidad":0,"pct_agua_red":100,"pct_alcantarillado":100,"pct_camara_septica":0,"pct_pozo_ciego":0,"pct_sin_desague":0,"pct_gas_red":0,"pct_gas_garrafa":100,"pct_lena_guano":100,"pct_basura_formal":0,"pct_basura_quema":25,"pct_basura_informal":100,"pct_internet":62,"pct_celular":75,"pct_televisor":50}},{"type":"Feature","geometry":{"type":"Polygon","coordinates":[[[-67.17509,-15.65419],[-67.17452,-15.65453],[-67.17475,-15.65486],[-67.17532,-15.6545],[-67.17509,-15.65419]]]},"properties":{"n":"SAN ANTONIO","p":16,"personas_x_ha":50,"masculinidad":129,"pct_menor20":31,"pct_60mas":19,"pct_migrante":62,"dependencia_econ":129,"pct_empleados":14,"pct_cuentapropia":71,"pct_agricultura":57,"pct_comercio":0,"pct_manufactura":0,"pct_construccion":0,"pct_transporte":0,"pct_alojamiento":29,"pct_sin_educacion":0,"pct_educ_superior":0,"brecha_educ":-7,"pct_sin_seguro":6,"pct_sus":94,"pct_seguro_privado":0,"brecha_seguro":-14,"pct_salud_publica":42,"pct_med_tradicional":3,"pct_automedicacion":8,"pct_remedios_caseros":39,"pct_viv_desocupada":14,"pct_alquiler":0,"pct_electricidad":83,"pct_sin_electricidad":17,"pct_agua_red":83,"pct_alcantarillado":0,"pct_camara_septica":0,"pct_pozo_ciego":83,"pct_sin_desague":17,"pct_gas_red":0,"pct_gas_garrafa":100,"pct_lena_guano":100,"pct_basura_formal":0,"pct_basura_quema":100,"pct_basura_informal":0,"pct_internet":50,"pct_celular":83,"pct_televisor":100}},{"type":"Feature","geometry":{"type":"Polygon","coordinates":[[[-67.17791,-15.65585],[-67.17742,-15.65618],[-67.17763,-15.65651],[-67.17816,-15.65615],[-67.17791,-15.65585]]]},"properties":{"n":"SAN ANTONIO","p":19,"personas_x_ha":63,"masculinidad":90,"pct_menor20":37,"pct_60mas":5,"pct_migrante":32,"dependencia_econ":64,"pct_empleados":45,"pct_cuentapropia":45,"pct_agricultura":82,"pct_comercio":9,"pct_manufactura":0,"pct_construccion":0,"pct_transporte":0,"pct_alojamiento":0,"pct_sin_educacion":0,"pct_educ_superior":55,"brecha_educ":-17,"pct_sin_seguro":0,"pct_sus":89,"pct_seguro_privado":0,"brecha_seguro":0,"pct_salud_publica":30,"pct_med_tradicional":12,"pct_automedicacion":22,"pct_remedios_caseros":20,"pct_viv_desocupada":0,"pct_alquiler":0,"pct_electricidad":100,"pct_sin_electricidad":0,"pct_agua_red":90,"pct_alcantarillado":90,"pct_camara_septica":0,"pct_pozo_ciego":10,"pct_sin_desague":0,"pct_gas_red":0,"pct_gas_garrafa":100,"pct_lena_guano":100,"pct_basura_formal":0,"pct_basura_quema":100,"pct_basura_informal":0,"pct_internet":90,"pct_celular":90,"pct_televisor":60}},{"type":"Feature","geometry":{"type":"Polygon","coordinates":[[[-67.1756,-15.65864],[-67.17533,-15.65834],[-67.17476,-15.65887],[-67.17507,-15.65914],[-67.1756,-15.65864]]]},"properties":{"n":"SAN ANTONIO","p":26,"personas_x_ha":71,"masculinidad":62,"pct_menor20":38,"pct_60mas":12,"pct_migrante":42,"dependencia_econ":53,"pct_empleados":29,"pct_cuentapropia":24,"pct_agricultura":94,"pct_comercio":0,"pct_manufactura":0,"pct_construccion":0,"pct_transporte":0,"pct_alojamiento":0,"pct_sin_educacion":6,"pct_educ_superior":39,"brecha_educ":-40,"pct_sin_seguro":8,"pct_sus":88,"pct_seguro_privado":0,"brecha_seguro":20,"pct_salud_publica":29,"pct_med_tradicional":15,"pct_automedicacion":26,"pct_remedios_caseros":20,"pct_viv_desocupada":0,"pct_alquiler":10,"pct_electricidad":100,"pct_sin_electricidad":0,"pct_agua_red":100,"pct_alcantarillado":90,"pct_camara_septica":0,"pct_pozo_ciego":10,"pct_sin_desague":0,"pct_gas_red":0,"pct_gas_garrafa":100,"pct_lena_guano":100,"pct_basura_formal":50,"pct_basura_quema":50,"pct_basura_informal":0,"pct_internet":60,"pct_celular":90,"pct_televisor":60}},{"type":"Feature","geometry":{"type":"Polygon","coordinates":[[[-67.17866,-15.65526],[-67.17831,-15.6548],[-67.17912,-15.65426],[-67.17924,-15.65427],[-67.17954,-15.6547],[-67.17866,-15.65526]]]},"properties":{"n":"SAN ANTONIO","p":31,"personas_x_ha":42,"masculinidad":94,"pct_menor20":52,"pct_60mas":3,"pct_migrante":58,"dependencia_econ":233,"pct_empleados":0,"pct_cuentapropia":56,"pct_agricultura":56,"pct_comercio":11,"pct_manufactura":0,"pct_construccion":0,"pct_transporte":0,"pct_alojamiento":0,"pct_sin_educacion":6,"pct_educ_superior":12,"brecha_educ":-27,"pct_sin_seguro":10,"pct_sus":90,"pct_seguro_privado":0,"brecha_seguro":7,"pct_salud_publica":29,"pct_med_tradicional":11,"pct_automedicacion":22,"pct_remedios_caseros":30,"pct_viv_desocupada":0,"pct_alquiler":0,"pct_electricidad":90,"pct_sin_electricidad":10,"pct_agua_red":80,"pct_alcantarillado":0,"pct_camara_septica":0,"pct_pozo_ciego":90,"pct_sin_desague":10,"pct_gas_red":0,"pct_gas_garrafa":100,"pct_lena_guano":100,"pct_basura_formal":0,"pct_basura_quema":90,"pct_basura_informal":20,"pct_internet":90,"pct_celular":100,"pct_televisor":50}},{"type":"Feature","geometry":{"type":"Polygon","coordinates":[[[-67.17803,-15.65702],[-67.17778,-15.65671],[-67.17828,-15.65638],[-67.1785,-15.6567],[-67.17803,-15.65702]]]},"properties":{"n":"SAN ANTONIO","p":16,"personas_x_ha":58,"masculinidad":60,"pct_menor20":50,"pct_60mas":6,"pct_migrante":38,"dependencia_econ":33,"pct_empleados":0,"pct_cuentapropia":50,"pct_agricultura":75,"pct_comercio":8,"pct_manufactura":0,"pct_construccion":0,"pct_transporte":8,"pct_alojamiento":0,"pct_sin_educacion":0,"pct_educ_superior":25,"brecha_educ":25,"pct_sin_seguro":0,"pct_sus":100,"pct_seguro_privado":0,"brecha_seguro":0,"pct_salud_publica":30,"pct_med_tradicional":15,"pct_automedicacion":23,"pct_remedios_caseros":26,"pct_viv_desocupada":0,"pct_alquiler":14,"pct_electricidad":100,"pct_sin_electricidad":0,"pct_agua_red":100,"pct_alcantarillado":100,"pct_camara_septica":0,"pct_pozo_ciego":0,"pct_sin_desague":0,"pct_gas_red":0,"pct_gas_garrafa":100,"pct_lena_guano":100,"pct_basura_formal":0,"pct_basura_quema":43,"pct_basura_informal":86,"pct_internet":86,"pct_celular":86,"pct_televisor":100}},{"type":"Feature","geometry":{"type":"Polygon","coordinates":[[[-67.17472,-15.65602],[-67.17448,-15.65569],[-67.17387,-15.65611],[-67.17411,-15.6564],[-67.17472,-15.65602]]]},"properties":{"n":"SAN ANTONIO","p":30,"personas_x_ha":82,"masculinidad":76,"pct_menor20":33,"pct_60mas":3,"pct_migrante":23,"dependencia_econ":114,"pct_empleados":0,"pct_cuentapropia":64,"pct_agricultura":64,"pct_comercio":7,"pct_manufactura":0,"pct_construccion":0,"pct_transporte":14,"pct_alojamiento":14,"pct_sin_educacion":5,"pct_educ_superior":10,"brecha_educ":-11,"pct_sin_seguro":10,"pct_sus":90,"pct_seguro_privado":0,"brecha_seguro":-4,"pct_salud_publica":34,"pct_med_tradicional":19,"pct_automedicacion":24,"pct_remedios_caseros":22,"pct_viv_desocupada":0,"pct_alquiler":22,"pct_electricidad":100,"pct_sin_electricidad":0,"pct_agua_red":67,"pct_alcantarillado":11,"pct_camara_septica":0,"pct_pozo_ciego":89,"pct_sin_desague":0,"pct_gas_red":0,"pct_gas_garrafa":100,"pct_lena_guano":100,"pct_basura_formal":22,"pct_basura_quema":78,"pct_basura_informal":0,"pct_internet":56,"pct_celular":89,"pct_televisor":100}},{"type":"Feature","geometry":{"type":"Polygon","coordinates":[[[-67.17632,-15.65813],[-67.17678,-15.65784],[-67.17657,-15.65752],[-67.17611,-15.65781],[-67.17632,-15.65813]]]},"properties":{"n":"SAN ANTONIO","p":16,"personas_x_ha":63,"masculinidad":167,"pct_menor20":38,"pct_60mas":12,"pct_migrante":56,"dependencia_econ":45,"pct_empleados":27,"pct_cuentapropia":73,"pct_agricultura":64,"pct_comercio":9,"pct_manufactura":0,"pct_construccion":0,"pct_transporte":0,"pct_alojamiento":0,"pct_sin_educacion":0,"pct_educ_superior":50,"brecha_educ":-8,"pct_sin_seguro":0,"pct_sus":100,"pct_seguro_privado":0,"brecha_seguro":0,"pct_salud_publica":27,"pct_med_tradicional":27,"pct_automedicacion":29,"pct_remedios_caseros":10,"pct_viv_desocupada":12,"pct_alquiler":14,"pct_electricidad":100,"pct_sin_electricidad":0,"pct_agua_red":100,"pct_alcantarillado":100,"pct_camara_septica":0,"pct_pozo_ciego":0,"pct_sin_desague":0,"pct_gas_red":0,"pct_gas_garrafa":100,"pct_lena_guano":100,"pct_basura_formal":0,"pct_basura_quema":86,"pct_basura_informal":0,"pct_internet":43,"pct_celular":100,"pct_televisor":100}},{"type":"Feature","geometry":{"type":"Polygon","coordinates":[[[-67.17829,-15.65739],[-67.17878,-15.65708],[-67.17855,-15.65676],[-67.17808,-15.65709],[-67.17829,-15.65739]]]},"properties":{"n":"SAN ANTONIO","p":15,"personas_x_ha":57,"masculinidad":67,"pct_menor20":60,"pct_60mas":0,"pct_migrante":40,"dependencia_econ":67,"pct_empleados":11,"pct_cuentapropia":44,"pct_agricultura":67,"pct_comercio":11,"pct_manufactura":22,"pct_construccion":0,"pct_transporte":0,"pct_alojamiento":0,"pct_sin_educacion":0,"pct_educ_superior":17,"brecha_educ":-50,"pct_sin_seguro":0,"pct_sus":100,"pct_seguro_privado":0,"brecha_seguro":0,"pct_salud_publica":30,"pct_med_tradicional":13,"pct_automedicacion":22,"pct_remedios_caseros":13,"pct_viv_desocupada":0,"pct_alquiler":0,"pct_electricidad":100,"pct_sin_electricidad":0,"pct_agua_red":83,"pct_alcantarillado":50,"pct_camara_septica":0,"pct_pozo_ciego":50,"pct_sin_desague":0,"pct_gas_red":0,"pct_gas_garrafa":100,"pct_lena_guano":100,"pct_basura_formal":0,"pct_basura_quema":33,"pct_basura_informal":67,"pct_internet":83,"pct_celular":83,"pct_televisor":83}},{"type":"Feature","geometry":{"type":"Polygon","coordinates":[[[-67.17643,-15.65613],[-67.17593,-15.65645],[-67.17622,-15.65691],[-67.17675,-15.65655],[-67.17643,-15.65613]]]},"properties":{"n":"SAN ANTONIO","p":34,"personas_x_ha":83,"masculinidad":127,"pct_menor20":41,"pct_60mas":3,"pct_migrante":41,"dependencia_econ":127,"pct_empleados":47,"pct_cuentapropia":53,"pct_agricultura":53,"pct_comercio":7,"pct_manufactura":7,"pct_construccion":7,"pct_transporte":0,"pct_alojamiento":0,"pct_sin_educacion":0,"pct_educ_superior":33,"brecha_educ":8,"pct_sin_seguro":3,"pct_sus":85,"pct_seguro_privado":0,"brecha_seguro":-7,"pct_salud_publica":28,"pct_med_tradicional":9,"pct_automedicacion":22,"pct_remedios_caseros":27,"pct_viv_desocupada":0,"pct_alquiler":27,"pct_electricidad":100,"pct_sin_electricidad":0,"pct_agua_red":100,"pct_alcantarillado":100,"pct_camara_septica":0,"pct_pozo_ciego":0,"pct_sin_desague":0,"pct_gas_red":0,"pct_gas_garrafa":100,"pct_lena_guano":100,"pct_basura_formal":0,"pct_basura_quema":91,"pct_basura_informal":0,"pct_internet":73,"pct_celular":82,"pct_televisor":64}},{"type":"Feature","geometry":{"type":"Polygon","coordinates":[[[-67.17679,-15.65661],[-67.17629,-15.65693],[-67.17648,-15.65727],[-67.177,-15.65693],[-67.17679,-15.65661]]]},"properties":{"n":"SAN ANTONIO","p":15,"personas_x_ha":51,"masculinidad":50,"pct_menor20":20,"pct_60mas":33,"pct_migrante":80,"dependencia_econ":67,"pct_empleados":11,"pct_cuentapropia":67,"pct_agricultura":22,"pct_comercio":11,"pct_manufactura":0,"pct_construccion":0,"pct_transporte":0,"pct_alojamiento":56,"pct_sin_educacion":0,"pct_educ_superior":25,"brecha_educ":-62,"pct_sin_seguro":0,"pct_sus":93,"pct_seguro_privado":0,"brecha_seguro":0,"pct_salud_publica":32,"pct_med_tradicional":2,"pct_automedicacion":15,"pct_remedios_caseros":25,"pct_viv_desocupada":10,"pct_alquiler":11,"pct_electricidad":100,"pct_sin_electricidad":0,"pct_agua_red":100,"pct_alcantarillado":100,"pct_camara_septica":0,"pct_pozo_ciego":0,"pct_sin_desague":0,"pct_gas_red":0,"pct_gas_garrafa":100,"pct_lena_guano":100,"pct_basura_formal":0,"pct_basura_quema":56,"pct_basura_informal":44,"pct_internet":22,"pct_celular":44,"pct_televisor":44}},{"type":"Feature","geometry":{"type":"Polygon","coordinates":[[[-67.51323,-15.39738],[-67.51414,-15.39706],[-67.51375,-15.39604],[-67.51284,-15.39638],[-67.51323,-15.39738]]]},"properties":{"n":"SARARIA","p":16,"personas_x_ha":12,"masculinidad":45,"pct_menor20":38,"pct_60mas":25,"pct_migrante":75,"dependencia_econ":100,"pct_empleados":25,"pct_cuentapropia":62,"pct_agricultura":50,"pct_comercio":12,"pct_manufactura":0,"pct_construccion":12,"pct_transporte":0,"pct_alojamiento":0,"pct_sin_educacion":0,"pct_educ_superior":40,"brecha_educ":-29,"pct_sin_seguro":0,"pct_sus":88,"pct_seguro_privado":0,"brecha_seguro":0,"pct_salud_publica":25,"pct_med_tradicional":6,"pct_automedicacion":19,"pct_remedios_caseros":28,"pct_viv_desocupada":0,"pct_alquiler":0,"pct_electricidad":100,"pct_sin_electricidad":0,"pct_agua_red":100,"pct_alcantarillado":43,"pct_camara_septica":0,"pct_pozo_ciego":43,"pct_sin_desague":14,"pct_gas_red":0,"pct_gas_garrafa":100,"pct_lena_guano":100,"pct_basura_formal":0,"pct_basura_quema":100,"pct_basura_informal":0,"pct_internet":100,"pct_celular":100,"pct_televisor":86}},{"type":"Feature","geometry":{"type":"Polygon","coordinates":[[[-67.51367,-15.39847],[-67.51398,-15.39937],[-67.51493,-15.39902],[-67.51455,-15.39816],[-67.51367,-15.39847]]]},"properties":{"n":"SARARIA","p":23,"personas_x_ha":20,"masculinidad":64,"pct_menor20":57,"pct_60mas":4,"pct_migrante":43,"dependencia_econ":109,"pct_empleados":18,"pct_cuentapropia":27,"pct_agricultura":45,"pct_comercio":27,"pct_manufactura":9,"pct_construccion":0,"pct_transporte":0,"pct_alojamiento":9,"pct_sin_educacion":0,"pct_educ_superior":50,"brecha_educ":-8,"pct_sin_seguro":13,"pct_sus":83,"pct_seguro_privado":0,"brecha_seguro":-3,"pct_salud_publica":26,"pct_med_tradicional":5,"pct_automedicacion":17,"pct_remedios_caseros":24,"pct_viv_desocupada":0,"pct_alquiler":0,"pct_electricidad":100,"pct_sin_electricidad":0,"pct_agua_red":100,"pct_alcantarillado":75,"pct_camara_septica":12,"pct_pozo_ciego":12,"pct_sin_desague":0,"pct_gas_red":0,"pct_gas_garrafa":100,"pct_lena_guano":100,"pct_basura_formal":0,"pct_basura_quema":100,"pct_basura_informal":0,"pct_internet":100,"pct_celular":100,"pct_televisor":100}},{"type":"Feature","geometry":{"type":"Polygon","coordinates":[[[-67.51641,-15.39739],[-67.51628,-15.39709],[-67.51594,-15.39674],[-67.51566,-15.39664],[-67.51528,-15.39678],[-67.51561,-15.39767],[-67.51641,-15.39739]]]},"properties":{"n":"SARARIA","p":18,"personas_x_ha":22,"masculinidad":50,"pct_menor20":33,"pct_60mas":17,"pct_migrante":61,"dependencia_econ":42,"pct_empleados":0,"pct_cuentapropia":75,"pct_agricultura":92,"pct_comercio":8,"pct_manufactura":0,"pct_construccion":0,"pct_transporte":0,"pct_alojamiento":0,"pct_sin_educacion":0,"pct_educ_superior":0,"brecha_educ":6,"pct_sin_seguro":0,"pct_sus":100,"pct_seguro_privado":0,"brecha_seguro":0,"pct_salud_publica":95,"pct_med_tradicional":0,"pct_automedicacion":0,"pct_remedios_caseros":0,"pct_viv_desocupada":0,"pct_alquiler":12,"pct_electricidad":88,"pct_sin_electricidad":12,"pct_agua_red":88,"pct_alcantarillado":75,"pct_camara_septica":0,"pct_pozo_ciego":12,"pct_sin_desague":12,"pct_gas_red":0,"pct_gas_garrafa":100,"pct_lena_guano":100,"pct_basura_formal":0,"pct_basura_quema":75,"pct_basura_informal":25,"pct_internet":75,"pct_celular":100,"pct_televisor":88}},{"type":"Feature","geometry":{"type":"Polygon","coordinates":[[[-67.5152,-15.39682],[-67.51428,-15.39713],[-67.5146,-15.398],[-67.5155,-15.39772],[-67.5152,-15.39682]]]},"properties":{"n":"SARARIA","p":23,"personas_x_ha":20,"masculinidad":77,"pct_menor20":30,"pct_60mas":9,"pct_migrante":61,"dependencia_econ":50,"pct_empleados":14,"pct_cuentapropia":64,"pct_agricultura":64,"pct_comercio":21,"pct_manufactura":7,"pct_construccion":0,"pct_transporte":0,"pct_alojamiento":0,"pct_sin_educacion":7,"pct_educ_superior":27,"brecha_educ":-30,"pct_sin_seguro":10,"pct_sus":90,"pct_seguro_privado":0,"brecha_seguro":22,"pct_salud_publica":62,"pct_med_tradicional":3,"pct_automedicacion":3,"pct_remedios_caseros":22,"pct_viv_desocupada":0,"pct_alquiler":18,"pct_electricidad":91,"pct_sin_electricidad":9,"pct_agua_red":100,"pct_alcantarillado":36,"pct_camara_septica":55,"pct_pozo_ciego":0,"pct_sin_desague":9,"pct_gas_red":0,"pct_gas_garrafa":100,"pct_lena_guano":100,"pct_basura_formal":0,"pct_basura_quema":73,"pct_basura_informal":18,"pct_internet":73,"pct_celular":73,"pct_televisor":73}},{"type":"Feature","geometry":{"type":"Polygon","coordinates":[[[-67.51431,-15.4003],[-67.51528,-15.40001],[-67.51494,-15.39914],[-67.51401,-15.39944],[-67.51431,-15.4003]]]},"properties":{"n":"SARARIA","p":18,"personas_x_ha":16,"masculinidad":157,"pct_menor20":44,"pct_60mas":11,"pct_migrante":50,"dependencia_econ":125,"pct_empleados":0,"pct_cuentapropia":25,"pct_agricultura":62,"pct_comercio":25,"pct_manufactura":0,"pct_construccion":0,"pct_transporte":12,"pct_alojamiento":0,"pct_sin_educacion":10,"pct_educ_superior":60,"brecha_educ":8,"pct_sin_seguro":0,"pct_sus":89,"pct_seguro_privado":0,"brecha_seguro":0,"pct_salud_publica":27,"pct_med_tradicional":9,"pct_automedicacion":18,"pct_remedios_caseros":18,"pct_viv_desocupada":0,"pct_alquiler":0,"pct_electricidad":90,"pct_sin_electricidad":0,"pct_agua_red":100,"pct_alcantarillado":40,"pct_camara_septica":10,"pct_pozo_ciego":50,"pct_sin_desague":0,"pct_gas_red":0,"pct_gas_garrafa":90,"pct_lena_guano":100,"pct_basura_formal":0,"pct_basura_quema":80,"pct_basura_informal":0,"pct_internet":90,"pct_celular":100,"pct_televisor":60}},{"type":"Feature","geometry":{"type":"Polygon","coordinates":[[[-67.51988,-15.40132],[-67.51944,-15.40112],[-67.51893,-15.40183],[-67.51944,-15.40205],[-67.51988,-15.40132]]]},"properties":{"n":"SARARIA","p":20,"personas_x_ha":36,"masculinidad":67,"pct_menor20":45,"pct_60mas":10,"pct_migrante":70,"dependencia_econ":54,"pct_empleados":8,"pct_cuentapropia":77,"pct_agricultura":69,"pct_comercio":8,"pct_manufactura":0,"pct_construccion":0,"pct_transporte":0,"pct_alojamiento":8,"pct_sin_educacion":0,"pct_educ_superior":33,"brecha_educ":-29,"pct_sin_seguro":0,"pct_sus":80,"pct_seguro_privado":0,"brecha_seguro":0,"pct_salud_publica":27,"pct_med_tradicional":3,"pct_automedicacion":26,"pct_remedios_caseros":22,"pct_viv_desocupada":0,"pct_alquiler":0,"pct_electricidad":86,"pct_sin_electricidad":0,"pct_agua_red":29,"pct_alcantarillado":0,"pct_camara_septica":0,"pct_pozo_ciego":57,"pct_sin_desague":29,"pct_gas_red":0,"pct_gas_garrafa":100,"pct_lena_guano":100,"pct_basura_formal":0,"pct_basura_quema":57,"pct_basura_informal":86,"pct_internet":71,"pct_celular":100,"pct_televisor":86}},{"type":"Feature","geometry":{"type":"Polygon","coordinates":[[[-67.51214,-15.39787],[-67.5125,-15.39882],[-67.51204,-15.39898],[-67.51166,-15.39806],[-67.51214,-15.39787]]]},"properties":{"n":"SARARIA","p":15,"personas_x_ha":25,"masculinidad":88,"pct_menor20":67,"pct_60mas":7,"pct_migrante":53,"dependencia_econ":114,"pct_empleados":14,"pct_cuentapropia":57,"pct_agricultura":57,"pct_comercio":14,"pct_manufactura":14,"pct_construccion":0,"pct_transporte":0,"pct_alojamiento":0,"pct_sin_educacion":0,"pct_educ_superior":20,"brecha_educ":0,"pct_sin_seguro":0,"pct_sus":87,"pct_seguro_privado":13,"brecha_seguro":0,"pct_salud_publica":34,"pct_med_tradicional":7,"pct_automedicacion":16,"pct_remedios_caseros":30,"pct_viv_desocupada":0,"pct_alquiler":0,"pct_electricidad":44,"pct_sin_electricidad":22,"pct_agua_red":33,"pct_alcantarillado":22,"pct_camara_septica":0,"pct_pozo_ciego":0,"pct_sin_desague":78,"pct_gas_red":0,"pct_gas_garrafa":44,"pct_lena_guano":44,"pct_basura_formal":0,"pct_basura_quema":100,"pct_basura_informal":0,"pct_internet":89,"pct_celular":100,"pct_televisor":22}},{"type":"Feature","geometry":{"type":"Polygon","coordinates":[[[-67.51385,-15.39941],[-67.5135,-15.39857],[-67.51261,-15.39887],[-67.51295,-15.39976],[-67.51385,-15.39941]]]},"properties":{"n":"SARARIA","p":28,"personas_x_ha":25,"masculinidad":56,"pct_menor20":43,"pct_60mas":18,"pct_migrante":50,"dependencia_econ":86,"pct_empleados":14,"pct_cuentapropia":79,"pct_agricultura":36,"pct_comercio":29,"pct_manufactura":0,"pct_construccion":0,"pct_transporte":0,"pct_alojamiento":0,"pct_sin_educacion":7,"pct_educ_superior":21,"brecha_educ":21,"pct_sin_seguro":0,"pct_sus":100,"pct_seguro_privado":0,"brecha_seguro":0,"pct_salud_publica":30,"pct_med_tradicional":7,"pct_automedicacion":26,"pct_remedios_caseros":28,"pct_viv_desocupada":0,"pct_alquiler":0,"pct_electricidad":100,"pct_sin_electricidad":0,"pct_agua_red":90,"pct_alcantarillado":50,"pct_camara_septica":0,"pct_pozo_ciego":50,"pct_sin_desague":0,"pct_gas_red":0,"pct_gas_garrafa":100,"pct_lena_guano":100,"pct_basura_formal":0,"pct_basura_quema":90,"pct_basura_informal":20,"pct_internet":100,"pct_celular":100,"pct_televisor":90}},{"type":"Feature","geometry":{"type":"Polygon","coordinates":[[[-67.51589,-15.39874],[-67.51502,-15.39906],[-67.51535,-15.39998],[-67.51624,-15.39975],[-67.51589,-15.39874]]]},"properties":{"n":"SARARIA","p":19,"personas_x_ha":16,"masculinidad":111,"pct_menor20":53,"pct_60mas":11,"pct_migrante":42,"dependencia_econ":138,"pct_empleados":38,"pct_cuentapropia":25,"pct_agricultura":62,"pct_comercio":12,"pct_manufactura":0,"pct_construccion":0,"pct_transporte":0,"pct_alojamiento":0,"pct_sin_educacion":0,"pct_educ_superior":44,"brecha_educ":-25,"pct_sin_seguro":0,"pct_sus":79,"pct_seguro_privado":0,"brecha_seguro":0,"pct_salud_publica":20,"pct_med_tradicional":10,"pct_automedicacion":11,"pct_remedios_caseros":19,"pct_viv_desocupada":10,"pct_alquiler":0,"pct_electricidad":89,"pct_sin_electricidad":11,"pct_agua_red":100,"pct_alcantarillado":11,"pct_camara_septica":33,"pct_pozo_ciego":44,"pct_sin_desague":0,"pct_gas_red":0,"pct_gas_garrafa":100,"pct_lena_guano":100,"pct_basura_formal":0,"pct_basura_quema":100,"pct_basura_informal":0,"pct_internet":89,"pct_celular":89,"pct_televisor":100}},{"type":"Feature","geometry":{"type":"Polygon","coordinates":[[[-67.51553,-15.3978],[-67.51467,-15.3981],[-67.515,-15.39902],[-67.51587,-15.39868],[-67.51553,-15.3978]]]},"properties":{"n":"SARARIA","p":41,"personas_x_ha":36,"masculinidad":64,"pct_menor20":46,"pct_60mas":7,"pct_migrante":73,"dependencia_econ":78,"pct_empleados":22,"pct_cuentapropia":48,"pct_agricultura":43,"pct_comercio":26,"pct_manufactura":4,"pct_construccion":9,"pct_transporte":9,"pct_alojamiento":0,"pct_sin_educacion":0,"pct_educ_superior":21,"brecha_educ":17,"pct_sin_seguro":8,"pct_sus":92,"pct_seguro_privado":0,"brecha_seguro":8,"pct_salud_publica":33,"pct_med_tradicional":7,"pct_automedicacion":19,"pct_remedios_caseros":27,"pct_viv_desocupada":6,"pct_alquiler":6,"pct_electricidad":100,"pct_sin_electricidad":0,"pct_agua_red":82,"pct_alcantarillado":65,"pct_camara_septica":24,"pct_pozo_ciego":6,"pct_sin_desague":6,"pct_gas_red":0,"pct_gas_garrafa":88,"pct_lena_guano":88,"pct_basura_formal":6,"pct_basura_quema":65,"pct_basura_informal":12,"pct_internet":76,"pct_celular":88,"pct_televisor":76}},{"type":"Feature","geometry":{"type":"Polygon","coordinates":[[[-67.51364,-15.39839],[-67.51452,-15.39804],[-67.51416,-15.39718],[-67.51329,-15.39754],[-67.51364,-15.39839]]]},"properties":{"n":"SARARIA","p":20,"personas_x_ha":18,"masculinidad":43,"pct_menor20":40,"pct_60mas":25,"pct_migrante":70,"dependencia_econ":33,"pct_empleados":0,"pct_cuentapropia":60,"pct_agricultura":67,"pct_comercio":13,"pct_manufactura":7,"pct_construccion":0,"pct_transporte":0,"pct_alojamiento":13,"pct_sin_educacion":8,"pct_educ_superior":0,"brecha_educ":22,"pct_sin_seguro":0,"pct_sus":100,"pct_seguro_privado":0,"brecha_seguro":0,"pct_salud_publica":29,"pct_med_tradicional":14,"pct_automedicacion":17,"pct_remedios_caseros":22,"pct_viv_desocupada":17,"pct_alquiler":0,"pct_electricidad":100,"pct_sin_electricidad":0,"pct_agua_red":89,"pct_alcantarillado":67,"pct_camara_septica":22,"pct_pozo_ciego":0,"pct_sin_desague":11,"pct_gas_red":0,"pct_gas_garrafa":100,"pct_lena_guano":100,"pct_basura_formal":0,"pct_basura_quema":44,"pct_basura_informal":67,"pct_internet":67,"pct_celular":89,"pct_televisor":78}},{"type":"Feature","geometry":{"type":"Polygon","coordinates":[[[-67.44704,-15.51183],[-67.44699,-15.51191],[-67.44795,-15.51268],[-67.44823,-15.51282],[-67.44859,-15.51276],[-67.44861,-15.51267],[-67.4481,-15.51226],[-67.44704,-15.51183]]]},"properties":{"n":"SUAPI KILOMETRO 73","p":32,"personas_x_ha":49,"masculinidad":113,"pct_menor20":41,"pct_60mas":12,"pct_migrante":66,"dependencia_econ":88,"pct_empleados":18,"pct_cuentapropia":82,"pct_agricultura":35,"pct_comercio":35,"pct_manufactura":6,"pct_construccion":0,"pct_transporte":6,"pct_alojamiento":18,"pct_sin_educacion":11,"pct_educ_superior":26,"brecha_educ":-36,"pct_sin_seguro":19,"pct_sus":66,"pct_seguro_privado":0,"brecha_seguro":10,"pct_salud_publica":29,"pct_med_tradicional":14,"pct_automedicacion":16,"pct_remedios_caseros":24,"pct_viv_desocupada":0,"pct_alquiler":0,"pct_electricidad":93,"pct_sin_electricidad":7,"pct_agua_red":93,"pct_alcantarillado":36,"pct_camara_septica":0,"pct_pozo_ciego":50,"pct_sin_desague":14,"pct_gas_red":0,"pct_gas_garrafa":93,"pct_lena_guano":93,"pct_basura_formal":29,"pct_basura_quema":43,"pct_basura_informal":57,"pct_internet":86,"pct_celular":100,"pct_televisor":93}},{"type":"Feature","geometry":{"type":"Polygon","coordinates":[[[-67.45151,-15.51271],[-67.45208,-15.51289],[-67.45223,-15.51242],[-67.45167,-15.51226],[-67.45151,-15.51271]]]},"properties":{"n":"SUAPI KILOMETRO 73","p":21,"personas_x_ha":62,"masculinidad":40,"pct_menor20":57,"pct_60mas":5,"pct_migrante":71,"dependencia_econ":110,"pct_empleados":0,"pct_cuentapropia":80,"pct_agricultura":90,"pct_comercio":10,"pct_manufactura":0,"pct_construccion":0,"pct_transporte":0,"pct_alojamiento":0,"pct_sin_educacion":0,"pct_educ_superior":50,"brecha_educ":17,"pct_sin_seguro":10,"pct_sus":90,"pct_seguro_privado":0,"brecha_seguro":10,"pct_salud_publica":26,"pct_med_tradicional":19,"pct_automedicacion":21,"pct_remedios_caseros":22,"pct_viv_desocupada":0,"pct_alquiler":0,"pct_electricidad":80,"pct_sin_electricidad":10,"pct_agua_red":80,"pct_alcantarillado":0,"pct_camara_septica":0,"pct_pozo_ciego":60,"pct_sin_desague":40,"pct_gas_red":0,"pct_gas_garrafa":80,"pct_lena_guano":80,"pct_basura_formal":0,"pct_basura_quema":80,"pct_basura_informal":0,"pct_internet":100,"pct_celular":100,"pct_televisor":60}},{"type":"Feature","geometry":{"type":"Polygon","coordinates":[[[-67.45105,-15.51144],[-67.45005,-15.51139],[-67.44994,-15.51165],[-67.45051,-15.51183],[-67.44993,-15.51167],[-67.44972,-15.51222],[-67.44985,-15.51246],[-67.45062,-15.51255],[-67.45078,-15.51188],[-67.45131,-15.51202],[-67.45141,-15.51159],[-67.45105,-15.51144]]]},"properties":{"n":"SUAPI KILOMETRO 73","p":25,"personas_x_ha":17,"masculinidad":47,"pct_menor20":32,"pct_60mas":12,"pct_migrante":72,"dependencia_econ":67,"pct_empleados":40,"pct_cuentapropia":27,"pct_agricultura":47,"pct_comercio":13,"pct_manufactura":0,"pct_construccion":0,"pct_transporte":0,"pct_alojamiento":0,"pct_sin_educacion":12,"pct_educ_superior":41,"brecha_educ":-31,"pct_sin_seguro":12,"pct_sus":40,"pct_seguro_privado":0,"brecha_seguro":1,"pct_salud_publica":25,"pct_med_tradicional":11,"pct_automedicacion":15,"pct_remedios_caseros":22,"pct_viv_desocupada":0,"pct_alquiler":10,"pct_electricidad":90,"pct_sin_electricidad":10,"pct_agua_red":90,"pct_alcantarillado":40,"pct_camara_septica":20,"pct_pozo_ciego":40,"pct_sin_desague":0,"pct_gas_red":0,"pct_gas_garrafa":80,"pct_lena_guano":80,"pct_basura_formal":10,"pct_basura_quema":60,"pct_basura_informal":40,"pct_internet":90,"pct_celular":90,"pct_televisor":70}},{"type":"Feature","geometry":{"type":"Polygon","coordinates":[[[-67.45219,-15.51287],[-67.45258,-15.51295],[-67.45265,-15.51304],[-67.45293,-15.51265],[-67.45229,-15.51243],[-67.45219,-15.51287]]]},"properties":{"n":"SUAPI KILOMETRO 73","p":17,"personas_x_ha":50,"masculinidad":70,"pct_menor20":29,"pct_60mas":0,"pct_migrante":76,"dependencia_econ":89,"pct_empleados":11,"pct_cuentapropia":44,"pct_agricultura":78,"pct_comercio":11,"pct_manufactura":0,"pct_construccion":0,"pct_transporte":0,"pct_alojamiento":0,"pct_sin_educacion":0,"pct_educ_superior":8,"brecha_educ":-38,"pct_sin_seguro":18,"pct_sus":82,"pct_seguro_privado":0,"brecha_seguro":43,"pct_salud_publica":37,"pct_med_tradicional":2,"pct_automedicacion":19,"pct_remedios_caseros":30,"pct_viv_desocupada":8,"pct_alquiler":0,"pct_electricidad":40,"pct_sin_electricidad":60,"pct_agua_red":60,"pct_alcantarillado":0,"pct_camara_septica":0,"pct_pozo_ciego":30,"pct_sin_desague":70,"pct_gas_red":0,"pct_gas_garrafa":80,"pct_lena_guano":80,"pct_basura_formal":10,"pct_basura_quema":90,"pct_basura_informal":0,"pct_internet":70,"pct_celular":80,"pct_televisor":30}},{"type":"Feature","geometry":{"type":"Polygon","coordinates":[[[-67.44888,-15.51139],[-67.44895,-15.51121],[-67.44841,-15.51112],[-67.44831,-15.51133],[-67.44905,-15.51166],[-67.44921,-15.51126],[-67.44897,-15.51121],[-67.44888,-15.51139]]]},"properties":{"n":"SUAPI KILOMETRO 73","p":17,"personas_x_ha":52,"masculinidad":112,"pct_menor20":35,"pct_60mas":12,"pct_migrante":59,"dependencia_econ":31,"pct_empleados":23,"pct_cuentapropia":38,"pct_agricultura":69,"pct_comercio":23,"pct_manufactura":0,"pct_construccion":0,"pct_transporte":0,"pct_alojamiento":8,"pct_sin_educacion":17,"pct_educ_superior":8,"brecha_educ":-17,"pct_sin_seguro":6,"pct_sus":94,"pct_seguro_privado":0,"brecha_seguro":12,"pct_salud_publica":38,"pct_med_tradicional":10,"pct_automedicacion":17,"pct_remedios_caseros":26,"pct_viv_desocupada":0,"pct_alquiler":18,"pct_electricidad":100,"pct_sin_electricidad":0,"pct_agua_red":91,"pct_alcantarillado":18,"pct_camara_septica":55,"pct_pozo_ciego":27,"pct_sin_desague":0,"pct_gas_red":0,"pct_gas_garrafa":100,"pct_lena_guano":100,"pct_basura_formal":0,"pct_basura_quema":18,"pct_basura_informal":109,"pct_internet":36,"pct_celular":45,"pct_televisor":73}},{"type":"Feature","geometry":{"type":"Polygon","coordinates":[[[-67.39944,-15.59796],[-67.39897,-15.59764],[-67.39939,-15.59708],[-67.39984,-15.59733],[-67.39944,-15.59796]]]},"properties":{"n":"VILLA UNIFICADA CASERIO NUEVE","p":22,"personas_x_ha":45,"masculinidad":57,"pct_menor20":41,"pct_60mas":14,"pct_migrante":77,"dependencia_econ":144,"pct_empleados":22,"pct_cuentapropia":44,"pct_agricultura":44,"pct_comercio":11,"pct_manufactura":0,"pct_construccion":0,"pct_transporte":0,"pct_alojamiento":0,"pct_sin_educacion":0,"pct_educ_superior":38,"brecha_educ":0,"pct_sin_seguro":0,"pct_sus":81,"pct_seguro_privado":0,"brecha_seguro":0,"pct_salud_publica":25,"pct_med_tradicional":20,"pct_automedicacion":17,"pct_remedios_caseros":18,"pct_viv_desocupada":0,"pct_alquiler":25,"pct_electricidad":92,"pct_sin_electricidad":0,"pct_agua_red":83,"pct_alcantarillado":8,"pct_camara_septica":8,"pct_pozo_ciego":67,"pct_sin_desague":17,"pct_gas_red":0,"pct_gas_garrafa":83,"pct_lena_guano":83,"pct_basura_formal":8,"pct_basura_quema":83,"pct_basura_informal":17,"pct_internet":92,"pct_celular":92,"pct_televisor":58}},{"type":"Feature","geometry":{"type":"Polygon","coordinates":[[[-67.39838,-15.59765],[-67.39763,-15.59716],[-67.39722,-15.59777],[-67.39799,-15.59826],[-67.39838,-15.59765]]]},"properties":{"n":"VILLA UNIFICADA CASERIO NUEVE","p":17,"personas_x_ha":22,"masculinidad":55,"pct_menor20":35,"pct_60mas":18,"pct_migrante":41,"dependencia_econ":70,"pct_empleados":0,"pct_cuentapropia":100,"pct_agricultura":80,"pct_comercio":10,"pct_manufactura":0,"pct_construccion":0,"pct_transporte":0,"pct_alojamiento":0,"pct_sin_educacion":9,"pct_educ_superior":0,"brecha_educ":-50,"pct_sin_seguro":6,"pct_sus":94,"pct_seguro_privado":0,"brecha_seguro":-9,"pct_salud_publica":31,"pct_med_tradicional":22,"pct_automedicacion":6,"pct_remedios_caseros":27,"pct_viv_desocupada":0,"pct_alquiler":17,"pct_electricidad":92,"pct_sin_electricidad":8,"pct_agua_red":92,"pct_alcantarillado":8,"pct_camara_septica":0,"pct_pozo_ciego":25,"pct_sin_desague":67,"pct_gas_red":0,"pct_gas_garrafa":83,"pct_lena_guano":83,"pct_basura_formal":0,"pct_basura_quema":92,"pct_basura_informal":0,"pct_internet":17,"pct_celular":58,"pct_televisor":50}},{"type":"Feature","geometry":{"type":"Polygon","coordinates":[[[-67.39911,-15.59979],[-67.39942,-15.5993],[-67.39889,-15.59896],[-67.39853,-15.59955],[-67.39896,-15.59982],[-67.39911,-15.59979]]]},"properties":{"n":"VILLA UNIFICADA CASERIO NUEVE","p":32,"personas_x_ha":59,"masculinidad":100,"pct_menor20":25,"pct_60mas":6,"pct_migrante":62,"dependencia_econ":33,"pct_empleados":42,"pct_cuentapropia":29,"pct_agricultura":38,"pct_comercio":12,"pct_manufactura":0,"pct_construccion":4,"pct_transporte":0,"pct_alojamiento":0,"pct_sin_educacion":0,"pct_educ_superior":62,"brecha_educ":0,"pct_sin_seguro":9,"pct_sus":78,"pct_seguro_privado":0,"brecha_seguro":6,"pct_salud_publica":37,"pct_med_tradicional":13,"pct_automedicacion":15,"pct_remedios_caseros":18,"pct_viv_desocupada":0,"pct_alquiler":36,"pct_electricidad":100,"pct_sin_electricidad":0,"pct_agua_red":100,"pct_alcantarillado":18,"pct_camara_septica":36,"pct_pozo_ciego":36,"pct_sin_desague":9,"pct_gas_red":0,"pct_gas_garrafa":91,"pct_lena_guano":91,"pct_basura_formal":18,"pct_basura_quema":64,"pct_basura_informal":18,"pct_internet":91,"pct_celular":91,"pct_televisor":55}},{"type":"Feature","geometry":{"type":"Polygon","coordinates":[[[-67.39974,-15.59887],[-67.39917,-15.59851],[-67.39898,-15.5988],[-67.39947,-15.59917],[-67.39956,-15.59915],[-67.39974,-15.59887]]]},"properties":{"n":"VILLA UNIFICADA CASERIO NUEVE","p":17,"personas_x_ha":54,"masculinidad":89,"pct_menor20":24,"pct_60mas":6,"pct_migrante":24,"dependencia_econ":21,"pct_empleados":21,"pct_cuentapropia":71,"pct_agricultura":50,"pct_comercio":14,"pct_manufactura":21,"pct_construccion":0,"pct_transporte":0,"pct_alojamiento":14,"pct_sin_educacion":0,"pct_educ_superior":29,"brecha_educ":0,"pct_sin_seguro":0,"pct_sus":100,"pct_seguro_privado":0,"brecha_seguro":0,"pct_salud_publica":100,"pct_med_tradicional":0,"pct_automedicacion":0,"pct_remedios_caseros":0,"pct_viv_desocupada":0,"pct_alquiler":0,"pct_electricidad":100,"pct_sin_electricidad":0,"pct_agua_red":67,"pct_alcantarillado":0,"pct_camara_septica":33,"pct_pozo_ciego":67,"pct_sin_desague":0,"pct_gas_red":0,"pct_gas_garrafa":100,"pct_lena_guano":100,"pct_basura_formal":0,"pct_basura_quema":83,"pct_basura_informal":0,"pct_internet":100,"pct_celular":100,"pct_televisor":67}},{"type":"Feature","geometry":{"type":"Polygon","coordinates":[[[-67.39949,-15.59697],[-67.39986,-15.59633],[-67.40034,-15.59661],[-67.3999,-15.59723],[-67.39949,-15.59697]]]},"properties":{"n":"VILLA UNIFICADA CASERIO NUEVE","p":15,"personas_x_ha":30,"masculinidad":50,"pct_menor20":40,"pct_60mas":7,"pct_migrante":47,"dependencia_econ":50,"pct_empleados":10,"pct_cuentapropia":50,"pct_agricultura":80,"pct_comercio":0,"pct_manufactura":0,"pct_construccion":0,"pct_transporte":0,"pct_alojamiento":20,"pct_sin_educacion":0,"pct_educ_superior":11,"brecha_educ":-33,"pct_sin_seguro":0,"pct_sus":100,"pct_seguro_privado":0,"brecha_seguro":0,"pct_salud_publica":48,"pct_med_tradicional":6,"pct_automedicacion":16,"pct_remedios_caseros":19,"pct_viv_desocupada":0,"pct_alquiler":0,"pct_electricidad":73,"pct_sin_electricidad":27,"pct_agua_red":100,"pct_alcantarillado":0,"pct_camara_septica":27,"pct_pozo_ciego":45,"pct_sin_desague":18,"pct_gas_red":0,"pct_gas_garrafa":82,"pct_lena_guano":82,"pct_basura_formal":9,"pct_basura_quema":64,"pct_basura_informal":0,"pct_internet":82,"pct_celular":91,"pct_televisor":36}},{"type":"Feature","geometry":{"type":"Polygon","coordinates":[[[-67.40065,-15.60087],[-67.40105,-15.60031],[-67.40141,-15.60055],[-67.40108,-15.60111],[-67.40065,-15.60087]]]},"properties":{"n":"VILLA UNIFICADA CASERIO NUEVE","p":24,"personas_x_ha":58,"masculinidad":100,"pct_menor20":17,"pct_60mas":4,"pct_migrante":96,"dependencia_econ":41,"pct_empleados":18,"pct_cuentapropia":76,"pct_agricultura":35,"pct_comercio":41,"pct_manufactura":0,"pct_construccion":0,"pct_transporte":0,"pct_alojamiento":6,"pct_sin_educacion":0,"pct_educ_superior":35,"brecha_educ":-22,"pct_sin_seguro":9,"pct_sus":78,"pct_seguro_privado":0,"brecha_seguro":1,"pct_salud_publica":24,"pct_med_tradicional":15,"pct_automedicacion":23,"pct_remedios_caseros":21,"pct_viv_desocupada":14,"pct_alquiler":0,"pct_electricidad":83,"pct_sin_electricidad":17,"pct_agua_red":67,"pct_alcantarillado":0,"pct_camara_septica":0,"pct_pozo_ciego":67,"pct_sin_desague":33,"pct_gas_red":0,"pct_gas_garrafa":100,"pct_lena_guano":100,"pct_basura_formal":0,"pct_basura_quema":67,"pct_basura_informal":0,"pct_internet":100,"pct_celular":100,"pct_televisor":50}}]}