{"type":"FeatureCollection","features":[{"type":"Feature","geometry":{"type":"Polygon","coordinates":[[[-68.93261,-15.59223],[-68.9328,-15.59135],[-68.93327,-15.59156],[-68.93303,-15.59185],[-68.93307,-15.5919],[-68.93331,-15.59158],[-68.93344,-15.59171],[-68.9332,-15.59204],[-68.93347,-15.59218],[-68.93326,-15.59242],[-68.93348,-15.59223],[-68.93365,-15.59284],[-68.93338,-15.59299],[-68.93304,-15.59305],[-68.93298,-15.59271],[-68.93261,-15.59223]]]},"properties":{"n":"AMBANA","p":24,"personas_x_ha":20,"masculinidad":100,"pct_menor20":21,"pct_60mas":29,"pct_migrante":8,"dependencia_econ":118,"pct_empleados":9,"pct_cuentapropia":45,"pct_agricultura":45,"pct_comercio":0,"pct_manufactura":0,"pct_construccion":0,"pct_transporte":18,"pct_alojamiento":0,"pct_sin_educacion":37,"pct_educ_superior":5,"brecha_educ":-59,"pct_sin_seguro":58,"pct_sus":42,"pct_seguro_privado":0,"brecha_seguro":67,"pct_salud_publica":75,"pct_med_tradicional":6,"pct_automedicacion":3,"pct_remedios_caseros":12,"pct_viv_desocupada":0,"pct_alquiler":0,"pct_electricidad":78,"pct_sin_electricidad":22,"pct_agua_red":78,"pct_alcantarillado":0,"pct_camara_septica":0,"pct_pozo_ciego":33,"pct_sin_desague":67,"pct_gas_red":0,"pct_gas_garrafa":11,"pct_lena_guano":11,"pct_basura_formal":0,"pct_basura_quema":33,"pct_basura_informal":111,"pct_internet":0,"pct_celular":67,"pct_televisor":11}},{"type":"Feature","geometry":{"type":"Polygon","coordinates":[[[-68.93281,-15.59896],[-68.93275,-15.59943],[-68.93357,-15.60007],[-68.93381,-15.59866],[-68.93383,-15.59775],[-68.93422,-15.59664],[-68.93399,-15.5954],[-68.93325,-15.59541],[-68.93318,-15.59621],[-68.93302,-15.5966],[-68.93281,-15.59759],[-68.93298,-15.59832],[-68.93295,-15.59865],[-68.93281,-15.59896]]]},"properties":{"n":"AMBANA","p":51,"personas_x_ha":10,"masculinidad":89,"pct_menor20":25,"pct_60mas":25,"pct_migrante":2,"dependencia_econ":89,"pct_empleados":7,"pct_cuentapropia":85,"pct_agricultura":11,"pct_comercio":19,"pct_manufactura":11,"pct_construccion":7,"pct_transporte":22,"pct_alojamiento":0,"pct_sin_educacion":5,"pct_educ_superior":18,"brecha_educ":-24,"pct_sin_seguro":18,"pct_sus":80,"pct_seguro_privado":2,"brecha_seguro":-11,"pct_salud_publica":29,"pct_med_tradicional":9,"pct_automedicacion":22,"pct_remedios_caseros":26,"pct_viv_desocupada":0,"pct_alquiler":0,"pct_electricidad":95,"pct_sin_electricidad":5,"pct_agua_red":84,"pct_alcantarillado":16,"pct_camara_septica":11,"pct_pozo_ciego":53,"pct_sin_desague":21,"pct_gas_red":0,"pct_gas_garrafa":32,"pct_lena_guano":32,"pct_basura_formal":5,"pct_basura_quema":37,"pct_basura_informal":0,"pct_internet":21,"pct_celular":84,"pct_televisor":37}},{"type":"Feature","geometry":{"type":"Polygon","coordinates":[[[-68.93068,-15.59972],[-68.93042,-15.5995],[-68.93064,-15.59934],[-68.93079,-15.59928],[-68.93127,-15.5993],[-68.93135,-15.59939],[-68.93049,-15.59995],[-68.93029,-15.59977],[-68.93039,-15.59954],[-68.93068,-15.59972]]]},"properties":{"n":"AMBANA","p":21,"personas_x_ha":47,"masculinidad":91,"pct_menor20":19,"pct_60mas":24,"pct_migrante":5,"dependencia_econ":133,"pct_empleados":33,"pct_cuentapropia":33,"pct_agricultura":11,"pct_comercio":33,"pct_manufactura":0,"pct_construccion":11,"pct_transporte":11,"pct_alojamiento":0,"pct_sin_educacion":18,"pct_educ_superior":29,"brecha_educ":-8,"pct_sin_seguro":0,"pct_sus":95,"pct_seguro_privado":0,"brecha_seguro":0,"pct_salud_publica":21,"pct_med_tradicional":18,"pct_automedicacion":18,"pct_remedios_caseros":26,"pct_viv_desocupada":0,"pct_alquiler":0,"pct_electricidad":100,"pct_sin_electricidad":0,"pct_agua_red":89,"pct_alcantarillado":0,"pct_camara_septica":11,"pct_pozo_ciego":44,"pct_sin_desague":44,"pct_gas_red":0,"pct_gas_garrafa":44,"pct_lena_guano":44,"pct_basura_formal":0,"pct_basura_quema":44,"pct_basura_informal":0,"pct_internet":56,"pct_celular":89,"pct_televisor":67}},{"type":"Feature","geometry":{"type":"Polygon","coordinates":[[[-68.93215,-15.59617],[-68.93075,-15.59605],[-68.93071,-15.59516],[-68.93252,-15.59529],[-68.93248,-15.59591],[-68.93217,-15.59589],[-68.93215,-15.59617]]]},"properties":{"n":"AMBANA","p":37,"personas_x_ha":20,"masculinidad":54,"pct_menor20":14,"pct_60mas":38,"pct_migrante":38,"dependencia_econ":37,"pct_empleados":15,"pct_cuentapropia":70,"pct_agricultura":48,"pct_comercio":19,"pct_manufactura":4,"pct_construccion":7,"pct_transporte":0,"pct_alojamiento":4,"pct_sin_educacion":28,"pct_educ_superior":9,"brecha_educ":-29,"pct_sin_seguro":5,"pct_sus":65,"pct_seguro_privado":5,"brecha_seguro":-8,"pct_salud_publica":34,"pct_med_tradicional":7,"pct_automedicacion":14,"pct_remedios_caseros":21,"pct_viv_desocupada":0,"pct_alquiler":5,"pct_electricidad":89,"pct_sin_electricidad":11,"pct_agua_red":84,"pct_alcantarillado":5,"pct_camara_septica":0,"pct_pozo_ciego":68,"pct_sin_desague":26,"pct_gas_red":0,"pct_gas_garrafa":53,"pct_lena_guano":53,"pct_basura_formal":5,"pct_basura_quema":26,"pct_basura_informal":32,"pct_internet":21,"pct_celular":68,"pct_televisor":53}},{"type":"Feature","geometry":{"type":"Polygon","coordinates":[[[-68.9323,-15.59695],[-68.93241,-15.5966],[-68.93216,-15.59656],[-68.93215,-15.59621],[-68.93094,-15.59611],[-68.93092,-15.5963],[-68.93112,-15.59649],[-68.93128,-15.59686],[-68.93175,-15.59711],[-68.93183,-15.59729],[-68.93211,-15.59741],[-68.93213,-15.59717],[-68.9323,-15.59695]]]},"properties":{"n":"AMBANA","p":25,"personas_x_ha":19,"masculinidad":56,"pct_menor20":32,"pct_60mas":32,"pct_migrante":12,"dependencia_econ":35,"pct_empleados":6,"pct_cuentapropia":53,"pct_agricultura":53,"pct_comercio":0,"pct_manufactura":41,"pct_construccion":0,"pct_transporte":0,"pct_alojamiento":0,"pct_sin_educacion":7,"pct_educ_superior":13,"brecha_educ":10,"pct_sin_seguro":0,"pct_sus":100,"pct_seguro_privado":0,"brecha_seguro":0,"pct_salud_publica":63,"pct_med_tradicional":5,"pct_automedicacion":11,"pct_remedios_caseros":13,"pct_viv_desocupada":0,"pct_alquiler":0,"pct_electricidad":100,"pct_sin_electricidad":0,"pct_agua_red":85,"pct_alcantarillado":0,"pct_camara_septica":0,"pct_pozo_ciego":85,"pct_sin_desague":15,"pct_gas_red":0,"pct_gas_garrafa":31,"pct_lena_guano":31,"pct_basura_formal":0,"pct_basura_quema":23,"pct_basura_informal":77,"pct_internet":31,"pct_celular":77,"pct_televisor":38}},{"type":"Feature","geometry":{"type":"Polygon","coordinates":[[[-68.93262,-15.59465],[-68.93164,-15.59453],[-68.9316,-15.59515],[-68.93255,-15.59526],[-68.93262,-15.59465]]]},"properties":{"n":"AMBANA","p":16,"personas_x_ha":22,"masculinidad":167,"pct_menor20":12,"pct_60mas":38,"pct_migrante":12,"dependencia_econ":129,"pct_empleados":0,"pct_cuentapropia":100,"pct_agricultura":29,"pct_comercio":29,"pct_manufactura":0,"pct_construccion":0,"pct_transporte":14,"pct_alojamiento":0,"pct_sin_educacion":7,"pct_educ_superior":29,"brecha_educ":-71,"pct_sin_seguro":29,"pct_sus":64,"pct_seguro_privado":7,"brecha_seguro":5,"pct_salud_publica":24,"pct_med_tradicional":13,"pct_automedicacion":18,"pct_remedios_caseros":24,"pct_viv_desocupada":0,"pct_alquiler":0,"pct_electricidad":90,"pct_sin_electricidad":10,"pct_agua_red":80,"pct_alcantarillado":40,"pct_camara_septica":10,"pct_pozo_ciego":30,"pct_sin_desague":20,"pct_gas_red":0,"pct_gas_garrafa":50,"pct_lena_guano":50,"pct_basura_formal":0,"pct_basura_quema":40,"pct_basura_informal":0,"pct_internet":10,"pct_celular":60,"pct_televisor":30}},{"type":"Feature","geometry":{"type":"Polygon","coordinates":[[[-68.93332,-15.59468],[-68.93318,-15.59391],[-68.9334,-15.59388],[-68.93376,-15.59433],[-68.93447,-15.5949],[-68.93445,-15.59515],[-68.93432,-15.59515],[-68.93424,-15.59489],[-68.93362,-15.59465],[-68.93332,-15.59468]]]},"properties":{"n":"AMBANA","p":26,"personas_x_ha":42,"masculinidad":44,"pct_menor20":42,"pct_60mas":15,"pct_migrante":27,"dependencia_econ":92,"pct_empleados":23,"pct_cuentapropia":62,"pct_agricultura":38,"pct_comercio":31,"pct_manufactura":8,"pct_construccion":0,"pct_transporte":15,"pct_alojamiento":0,"pct_sin_educacion":0,"pct_educ_superior":31,"brecha_educ":-44,"pct_sin_seguro":16,"pct_sus":72,"pct_seguro_privado":0,"brecha_seguro":13,"pct_salud_publica":37,"pct_med_tradicional":13,"pct_automedicacion":17,"pct_remedios_caseros":22,"pct_viv_desocupada":8,"pct_alquiler":0,"pct_electricidad":92,"pct_sin_electricidad":8,"pct_agua_red":75,"pct_alcantarillado":8,"pct_camara_septica":0,"pct_pozo_ciego":33,"pct_sin_desague":58,"pct_gas_red":0,"pct_gas_garrafa":25,"pct_lena_guano":25,"pct_basura_formal":0,"pct_basura_quema":58,"pct_basura_informal":33,"pct_internet":17,"pct_celular":67,"pct_televisor":25}},{"type":"Feature","geometry":{"type":"Polygon","coordinates":[[[-68.93332,-15.59471],[-68.93361,-15.59469],[-68.9341,-15.59488],[-68.93416,-15.59513],[-68.93393,-15.59533],[-68.9333,-15.59537],[-68.93332,-15.59471]]]},"properties":{"n":"AMBANA","p":24,"personas_x_ha":42,"masculinidad":118,"pct_menor20":25,"pct_60mas":17,"pct_migrante":33,"dependencia_econ":40,"pct_empleados":20,"pct_cuentapropia":40,"pct_agricultura":13,"pct_comercio":20,"pct_manufactura":0,"pct_construccion":7,"pct_transporte":13,"pct_alojamiento":0,"pct_sin_educacion":0,"pct_educ_superior":56,"brecha_educ":-25,"pct_sin_seguro":0,"pct_sus":83,"pct_seguro_privado":11,"brecha_seguro":0,"pct_salud_publica":23,"pct_med_tradicional":11,"pct_automedicacion":24,"pct_remedios_caseros":23,"pct_viv_desocupada":0,"pct_alquiler":0,"pct_electricidad":100,"pct_sin_electricidad":0,"pct_agua_red":86,"pct_alcantarillado":0,"pct_camara_septica":29,"pct_pozo_ciego":57,"pct_sin_desague":14,"pct_gas_red":0,"pct_gas_garrafa":100,"pct_lena_guano":100,"pct_basura_formal":14,"pct_basura_quema":0,"pct_basura_informal":0,"pct_internet":100,"pct_celular":100,"pct_televisor":100}},{"type":"Feature","geometry":{"type":"Polygon","coordinates":[[[-69.04084,-15.79227],[-69.04033,-15.79194],[-69.03979,-15.79267],[-69.0403,-15.793],[-69.04084,-15.79227]]]},"properties":{"n":"CHAGUAYA CENTRO","p":29,"personas_x_ha":43,"masculinidad":32,"pct_menor20":34,"pct_60mas":17,"pct_migrante":69,"dependencia_econ":71,"pct_empleados":41,"pct_cuentapropia":41,"pct_agricultura":12,"pct_comercio":35,"pct_manufactura":6,"pct_construccion":0,"pct_transporte":0,"pct_alojamiento":6,"pct_sin_educacion":0,"pct_educ_superior":58,"brecha_educ":-7,"pct_sin_seguro":14,"pct_sus":66,"pct_seguro_privado":0,"brecha_seguro":38,"pct_salud_publica":28,"pct_med_tradicional":6,"pct_automedicacion":19,"pct_remedios_caseros":20,"pct_viv_desocupada":0,"pct_alquiler":0,"pct_electricidad":94,"pct_sin_electricidad":6,"pct_agua_red":88,"pct_alcantarillado":56,"pct_camara_septica":6,"pct_pozo_ciego":0,"pct_sin_desague":38,"pct_gas_red":0,"pct_gas_garrafa":88,"pct_lena_guano":88,"pct_basura_formal":12,"pct_basura_quema":56,"pct_basura_informal":62,"pct_internet":56,"pct_celular":88,"pct_televisor":69}},{"type":"Feature","geometry":{"type":"Polygon","coordinates":[[[-69.03888,-15.79208],[-69.03878,-15.79215],[-69.039,-15.79253],[-69.03876,-15.79263],[-69.0392,-15.79326],[-69.03961,-15.79266],[-69.03888,-15.79208]]]},"properties":{"n":"CHAGUAYA CENTRO","p":57,"personas_x_ha":103,"masculinidad":138,"pct_menor20":14,"pct_60mas":9,"pct_migrante":53,"dependencia_econ":33,"pct_empleados":52,"pct_cuentapropia":36,"pct_agricultura":21,"pct_comercio":24,"pct_manufactura":0,"pct_construccion":5,"pct_transporte":2,"pct_alojamiento":0,"pct_sin_educacion":4,"pct_educ_superior":56,"brecha_educ":-18,"pct_sin_seguro":18,"pct_sus":52,"pct_seguro_privado":0,"brecha_seguro":2,"pct_salud_publica":28,"pct_med_tradicional":15,"pct_automedicacion":18,"pct_remedios_caseros":23,"pct_viv_desocupada":0,"pct_alquiler":11,"pct_electricidad":100,"pct_sin_electricidad":0,"pct_agua_red":100,"pct_alcantarillado":78,"pct_camara_septica":6,"pct_pozo_ciego":6,"pct_sin_desague":11,"pct_gas_red":0,"pct_gas_garrafa":94,"pct_lena_guano":94,"pct_basura_formal":28,"pct_basura_quema":28,"pct_basura_informal":11,"pct_internet":89,"pct_celular":100,"pct_televisor":72}},{"type":"Feature","geometry":{"type":"Polygon","coordinates":[[[-69.04098,-15.79107],[-69.04056,-15.7907],[-69.0398,-15.79024],[-69.03922,-15.79107],[-69.0403,-15.79176],[-69.04098,-15.79107]]]},"properties":{"n":"CHAGUAYA CENTRO","p":37,"personas_x_ha":22,"masculinidad":61,"pct_menor20":24,"pct_60mas":24,"pct_migrante":32,"dependencia_econ":95,"pct_empleados":21,"pct_cuentapropia":63,"pct_agricultura":47,"pct_comercio":11,"pct_manufactura":16,"pct_construccion":0,"pct_transporte":11,"pct_alojamiento":0,"pct_sin_educacion":11,"pct_educ_superior":36,"brecha_educ":-20,"pct_sin_seguro":58,"pct_sus":33,"pct_seguro_privado":0,"brecha_seguro":29,"pct_salud_publica":33,"pct_med_tradicional":10,"pct_automedicacion":25,"pct_remedios_caseros":17,"pct_viv_desocupada":0,"pct_alquiler":0,"pct_electricidad":94,"pct_sin_electricidad":0,"pct_agua_red":81,"pct_alcantarillado":44,"pct_camara_septica":12,"pct_pozo_ciego":19,"pct_sin_desague":25,"pct_gas_red":0,"pct_gas_garrafa":94,"pct_lena_guano":94,"pct_basura_formal":44,"pct_basura_quema":38,"pct_basura_informal":0,"pct_internet":75,"pct_celular":94,"pct_televisor":44}},{"type":"Feature","geometry":{"type":"Polygon","coordinates":[[[-69.04204,-15.79375],[-69.04139,-15.79392],[-69.04126,-15.79388],[-69.04073,-15.79445],[-69.04055,-15.795],[-69.04063,-15.79605],[-69.04127,-15.79553],[-69.04173,-15.79587],[-69.04235,-15.79485],[-69.04209,-15.79457],[-69.04239,-15.79388],[-69.04204,-15.79375]]]},"properties":{"n":"CHAGUAYA CENTRO","p":15,"personas_x_ha":5,"masculinidad":88,"pct_menor20":7,"pct_60mas":40,"pct_migrante":33,"dependencia_econ":25,"pct_empleados":0,"pct_cuentapropia":67,"pct_agricultura":67,"pct_comercio":25,"pct_manufactura":0,"pct_construccion":0,"pct_transporte":0,"pct_alojamiento":8,"pct_sin_educacion":14,"pct_educ_superior":14,"brecha_educ":-17,"pct_sin_seguro":21,"pct_sus":50,"pct_seguro_privado":0,"brecha_seguro":21,"pct_salud_publica":47,"pct_med_tradicional":0,"pct_automedicacion":0,"pct_remedios_caseros":24,"pct_viv_desocupada":0,"pct_alquiler":0,"pct_electricidad":70,"pct_sin_electricidad":30,"pct_agua_red":80,"pct_alcantarillado":30,"pct_camara_septica":0,"pct_pozo_ciego":30,"pct_sin_desague":30,"pct_gas_red":0,"pct_gas_garrafa":30,"pct_lena_guano":30,"pct_basura_formal":40,"pct_basura_quema":60,"pct_basura_informal":0,"pct_internet":80,"pct_celular":80,"pct_televisor":40}},{"type":"Feature","geometry":{"type":"Polygon","coordinates":[[[-69.03973,-15.79274],[-69.03934,-15.7934],[-69.03976,-15.79368],[-69.04023,-15.79307],[-69.03973,-15.79274]]]},"properties":{"n":"CHAGUAYA CENTRO","p":34,"personas_x_ha":66,"masculinidad":36,"pct_menor20":38,"pct_60mas":18,"pct_migrante":24,"dependencia_econ":89,"pct_empleados":17,"pct_cuentapropia":50,"pct_agricultura":17,"pct_comercio":22,"pct_manufactura":11,"pct_construccion":6,"pct_transporte":6,"pct_alojamiento":11,"pct_sin_educacion":14,"pct_educ_superior":29,"brecha_educ":-11,"pct_sin_seguro":15,"pct_sus":76,"pct_seguro_privado":0,"brecha_seguro":30,"pct_salud_publica":27,"pct_med_tradicional":12,"pct_automedicacion":24,"pct_remedios_caseros":24,"pct_viv_desocupada":0,"pct_alquiler":0,"pct_electricidad":100,"pct_sin_electricidad":0,"pct_agua_red":100,"pct_alcantarillado":92,"pct_camara_septica":0,"pct_pozo_ciego":0,"pct_sin_desague":8,"pct_gas_red":0,"pct_gas_garrafa":100,"pct_lena_guano":100,"pct_basura_formal":58,"pct_basura_quema":8,"pct_basura_informal":0,"pct_internet":75,"pct_celular":92,"pct_televisor":67}},{"type":"Feature","geometry":{"type":"Polygon","coordinates":[[[-69.042,-15.79125],[-69.04157,-15.79091],[-69.04137,-15.79093],[-69.0404,-15.79189],[-69.04093,-15.7922],[-69.04125,-15.79178],[-69.04155,-15.7919],[-69.042,-15.79125]]]},"properties":{"n":"CHAGUAYA CENTRO","p":26,"personas_x_ha":22,"masculinidad":73,"pct_menor20":38,"pct_60mas":15,"pct_migrante":42,"dependencia_econ":92,"pct_empleados":15,"pct_cuentapropia":77,"pct_agricultura":23,"pct_comercio":15,"pct_manufactura":23,"pct_construccion":0,"pct_transporte":0,"pct_alojamiento":0,"pct_sin_educacion":6,"pct_educ_superior":25,"brecha_educ":-30,"pct_sin_seguro":16,"pct_sus":32,"pct_seguro_privado":0,"brecha_seguro":23,"pct_salud_publica":24,"pct_med_tradicional":21,"pct_automedicacion":8,"pct_remedios_caseros":25,"pct_viv_desocupada":7,"pct_alquiler":0,"pct_electricidad":100,"pct_sin_electricidad":0,"pct_agua_red":100,"pct_alcantarillado":77,"pct_camara_septica":0,"pct_pozo_ciego":23,"pct_sin_desague":0,"pct_gas_red":0,"pct_gas_garrafa":85,"pct_lena_guano":85,"pct_basura_formal":46,"pct_basura_quema":31,"pct_basura_informal":0,"pct_internet":69,"pct_celular":92,"pct_televisor":54}},{"type":"Feature","geometry":{"type":"Polygon","coordinates":[[[-69.0406,-15.79341],[-69.04016,-15.79398],[-69.04075,-15.79438],[-69.04122,-15.79387],[-69.0406,-15.79341]]]},"properties":{"n":"CHAGUAYA CENTRO","p":17,"personas_x_ha":27,"masculinidad":89,"pct_menor20":24,"pct_60mas":6,"pct_migrante":76,"dependencia_econ":45,"pct_empleados":45,"pct_cuentapropia":36,"pct_agricultura":9,"pct_comercio":9,"pct_manufactura":0,"pct_construccion":0,"pct_transporte":9,"pct_alojamiento":0,"pct_sin_educacion":0,"pct_educ_superior":67,"brecha_educ":20,"pct_sin_seguro":6,"pct_sus":56,"pct_seguro_privado":0,"brecha_seguro":-12,"pct_salud_publica":25,"pct_med_tradicional":0,"pct_automedicacion":5,"pct_remedios_caseros":15,"pct_viv_desocupada":0,"pct_alquiler":0,"pct_electricidad":100,"pct_sin_electricidad":0,"pct_agua_red":100,"pct_alcantarillado":83,"pct_camara_septica":0,"pct_pozo_ciego":17,"pct_sin_desague":0,"pct_gas_red":0,"pct_gas_garrafa":100,"pct_lena_guano":100,"pct_basura_formal":50,"pct_basura_quema":17,"pct_basura_informal":0,"pct_internet":67,"pct_celular":100,"pct_televisor":100}},{"type":"Feature","geometry":{"type":"Polygon","coordinates":[[[-69.03545,-15.79192],[-69.03376,-15.79346],[-69.0329,-15.79447],[-69.0326,-15.79452],[-69.03251,-15.79474],[-69.03234,-15.79473],[-69.0321,-15.79538],[-69.03243,-15.79554],[-69.0325,-15.79573],[-69.03356,-15.79595],[-69.03333,-15.79641],[-69.03359,-15.79662],[-69.03423,-15.79693],[-69.03448,-15.79624],[-69.03464,-15.79622],[-69.035,-15.79493],[-69.0349,-15.79409],[-69.03502,-15.79368],[-69.03511,-15.79365],[-69.0353,-15.79376],[-69.03567,-15.79347],[-69.0358,-15.79309],[-69.03542,-15.7928],[-69.03585,-15.79224],[-69.03612,-15.79197],[-69.0362,-15.79202],[-69.03628,-15.79183],[-69.03621,-15.79173],[-69.03637,-15.79135],[-69.03586,-15.79116],[-69.03545,-15.79192]]]},"properties":{"n":"CHAGUAYA CENTRO","p":34,"personas_x_ha":3,"masculinidad":100,"pct_menor20":32,"pct_60mas":21,"pct_migrante":24,"dependencia_econ":89,"pct_empleados":17,"pct_cuentapropia":56,"pct_agricultura":50,"pct_comercio":0,"pct_manufactura":11,"pct_construccion":33,"pct_transporte":0,"pct_alojamiento":0,"pct_sin_educacion":9,"pct_educ_superior":9,"brecha_educ":-47,"pct_sin_seguro":6,"pct_sus":91,"pct_seguro_privado":3,"brecha_seguro":12,"pct_salud_publica":20,"pct_med_tradicional":21,"pct_automedicacion":17,"pct_remedios_caseros":30,"pct_viv_desocupada":0,"pct_alquiler":0,"pct_electricidad":58,"pct_sin_electricidad":42,"pct_agua_red":50,"pct_alcantarillado":0,"pct_camara_septica":0,"pct_pozo_ciego":25,"pct_sin_desague":75,"pct_gas_red":0,"pct_gas_garrafa":83,"pct_lena_guano":83,"pct_basura_formal":0,"pct_basura_quema":83,"pct_basura_informal":33,"pct_internet":75,"pct_celular":83,"pct_televisor":25}},{"type":"Feature","geometry":{"type":"Polygon","coordinates":[[[-69.03964,-15.7926],[-69.04025,-15.79181],[-69.0392,-15.79116],[-69.03903,-15.79163],[-69.03882,-15.79195],[-69.03964,-15.7926]]]},"properties":{"n":"CHAGUAYA CENTRO","p":47,"personas_x_ha":37,"masculinidad":57,"pct_menor20":26,"pct_60mas":26,"pct_migrante":34,"dependencia_econ":68,"pct_empleados":32,"pct_cuentapropia":54,"pct_agricultura":7,"pct_comercio":32,"pct_manufactura":11,"pct_construccion":0,"pct_transporte":11,"pct_alojamiento":11,"pct_sin_educacion":8,"pct_educ_superior":32,"brecha_educ":-19,"pct_sin_seguro":15,"pct_sus":55,"pct_seguro_privado":0,"brecha_seguro":4,"pct_salud_publica":26,"pct_med_tradicional":10,"pct_automedicacion":15,"pct_remedios_caseros":24,"pct_viv_desocupada":0,"pct_alquiler":0,"pct_electricidad":86,"pct_sin_electricidad":14,"pct_agua_red":67,"pct_alcantarillado":76,"pct_camara_septica":0,"pct_pozo_ciego":5,"pct_sin_desague":19,"pct_gas_red":0,"pct_gas_garrafa":90,"pct_lena_guano":90,"pct_basura_formal":57,"pct_basura_quema":10,"pct_basura_informal":19,"pct_internet":57,"pct_celular":90,"pct_televisor":71}},{"type":"Feature","geometry":{"type":"Polygon","coordinates":[[[-69.03411,-15.78767],[-69.03416,-15.78677],[-69.03442,-15.78601],[-69.03467,-15.78577],[-69.03474,-15.78558],[-69.03479,-15.78509],[-69.03471,-15.78491],[-69.03485,-15.78481],[-69.03613,-15.78578],[-69.0379,-15.78681],[-69.04013,-15.78825],[-69.04096,-15.78861],[-69.04177,-15.78912],[-69.04243,-15.78967],[-69.04181,-15.79041],[-69.04108,-15.79103],[-69.04055,-15.7906],[-69.03927,-15.78993],[-69.03891,-15.78987],[-69.03889,-15.78992],[-69.03926,-15.79],[-69.03968,-15.79021],[-69.03917,-15.79104],[-69.03798,-15.79031],[-69.03795,-15.79035],[-69.03914,-15.79113],[-69.03879,-15.79188],[-69.03799,-15.79123],[-69.03873,-15.79193],[-69.03859,-15.79216],[-69.03844,-15.7922],[-69.03757,-15.79185],[-69.03729,-15.7916],[-69.03585,-15.79108],[-69.03515,-15.79132],[-69.0342,-15.79034],[-69.03368,-15.78947],[-69.03364,-15.78928],[-69.0335,-15.78921],[-69.0336,-15.78887],[-69.03349,-15.78843],[-69.03372,-15.78776],[-69.03403,-15.7879],[-69.03411,-15.78767]]]},"properties":{"n":"CHAGUAYA CENTRO","p":366,"personas_x_ha":9,"masculinidad":331,"pct_menor20":64,"pct_60mas":3,"pct_migrante":80,"dependencia_econ":62,"pct_empleados":31,"pct_cuentapropia":36,"pct_agricultura":27,"pct_comercio":14,"pct_manufactura":9,"pct_construccion":12,"pct_transporte":3,"pct_alojamiento":4,"pct_sin_educacion":3,"pct_educ_superior":39,"brecha_educ":-17,"pct_sin_seguro":12,"pct_sus":52,"pct_seguro_privado":0,"brecha_seguro":3,"pct_salud_publica":22,"pct_med_tradicional":19,"pct_automedicacion":14,"pct_remedios_caseros":24,"pct_viv_desocupada":1,"pct_alquiler":42,"pct_electricidad":92,"pct_sin_electricidad":8,"pct_agua_red":89,"pct_alcantarillado":68,"pct_camara_septica":5,"pct_pozo_ciego":9,"pct_sin_desague":18,"pct_gas_red":0,"pct_gas_garrafa":95,"pct_lena_guano":95,"pct_basura_formal":43,"pct_basura_quema":28,"pct_basura_informal":16,"pct_internet":81,"pct_celular":92,"pct_televisor":78}},{"type":"Feature","geometry":{"type":"Polygon","coordinates":[[[-69.03822,-15.79252],[-69.03742,-15.79224],[-69.03732,-15.79241],[-69.03701,-15.79229],[-69.0367,-15.79275],[-69.0366,-15.79274],[-69.03629,-15.79302],[-69.03702,-15.79378],[-69.03733,-15.7939],[-69.03746,-15.79356],[-69.03755,-15.7936],[-69.03762,-15.79348],[-69.0374,-15.79335],[-69.03748,-15.79321],[-69.03764,-15.79297],[-69.03781,-15.79303],[-69.03795,-15.79262],[-69.03815,-15.79268],[-69.03822,-15.79252]]]},"properties":{"n":"CHAGUAYA CENTRO","p":16,"personas_x_ha":9,"masculinidad":78,"pct_menor20":6,"pct_60mas":44,"pct_migrante":0,"dependencia_econ":7,"pct_empleados":7,"pct_cuentapropia":87,"pct_agricultura":47,"pct_comercio":20,"pct_manufactura":13,"pct_construccion":0,"pct_transporte":13,"pct_alojamiento":0,"pct_sin_educacion":47,"pct_educ_superior":20,"brecha_educ":-59,"pct_sin_seguro":31,"pct_sus":56,"pct_seguro_privado":0,"brecha_seguro":21,"pct_salud_publica":43,"pct_med_tradicional":5,"pct_automedicacion":5,"pct_remedios_caseros":24,"pct_viv_desocupada":0,"pct_alquiler":0,"pct_electricidad":60,"pct_sin_electricidad":40,"pct_agua_red":70,"pct_alcantarillado":0,"pct_camara_septica":0,"pct_pozo_ciego":20,"pct_sin_desague":70,"pct_gas_red":0,"pct_gas_garrafa":10,"pct_lena_guano":10,"pct_basura_formal":0,"pct_basura_quema":60,"pct_basura_informal":0,"pct_internet":0,"pct_celular":70,"pct_televisor":10}},{"type":"Feature","geometry":{"type":"Polygon","coordinates":[[[-69.04064,-15.79329],[-69.04125,-15.79254],[-69.04095,-15.79234],[-69.04035,-15.79305],[-69.04064,-15.79329]]]},"properties":{"n":"CHAGUAYA CENTRO","p":23,"personas_x_ha":53,"masculinidad":130,"pct_menor20":22,"pct_60mas":17,"pct_migrante":26,"dependencia_econ":28,"pct_empleados":17,"pct_cuentapropia":39,"pct_agricultura":28,"pct_comercio":22,"pct_manufactura":17,"pct_construccion":6,"pct_transporte":0,"pct_alojamiento":6,"pct_sin_educacion":0,"pct_educ_superior":33,"brecha_educ":10,"pct_sin_seguro":14,"pct_sus":64,"pct_seguro_privado":0,"brecha_seguro":7,"pct_salud_publica":66,"pct_med_tradicional":3,"pct_automedicacion":3,"pct_remedios_caseros":16,"pct_viv_desocupada":0,"pct_alquiler":0,"pct_electricidad":89,"pct_sin_electricidad":11,"pct_agua_red":100,"pct_alcantarillado":78,"pct_camara_septica":11,"pct_pozo_ciego":11,"pct_sin_desague":0,"pct_gas_red":0,"pct_gas_garrafa":100,"pct_lena_guano":100,"pct_basura_formal":22,"pct_basura_quema":67,"pct_basura_informal":0,"pct_internet":89,"pct_celular":100,"pct_televisor":78}},{"type":"Feature","geometry":{"type":"Polygon","coordinates":[[[-68.96523,-15.59769],[-68.96582,-15.59692],[-68.96583,-15.59681],[-68.9656,-15.59626],[-68.96551,-15.59629],[-68.96531,-15.59677],[-68.96508,-15.59676],[-68.96499,-15.59658],[-68.96532,-15.59594],[-68.96541,-15.59555],[-68.96625,-15.59489],[-68.96628,-15.59477],[-68.96598,-15.5943],[-68.9659,-15.59432],[-68.96568,-15.59476],[-68.96526,-15.59498],[-68.96493,-15.59563],[-68.96399,-15.59674],[-68.96354,-15.59706],[-68.96314,-15.59697],[-68.96292,-15.5974],[-68.96305,-15.59771],[-68.96333,-15.59752],[-68.96338,-15.59758],[-68.96344,-15.59747],[-68.96358,-15.59756],[-68.96423,-15.59851],[-68.96442,-15.59845],[-68.96523,-15.59769]]]},"properties":{"n":"COOÑATA","p":42,"personas_x_ha":8,"masculinidad":110,"pct_menor20":29,"pct_60mas":26,"pct_migrante":14,"dependencia_econ":162,"pct_empleados":0,"pct_cuentapropia":56,"pct_agricultura":75,"pct_comercio":0,"pct_manufactura":0,"pct_construccion":0,"pct_transporte":6,"pct_alojamiento":0,"pct_sin_educacion":20,"pct_educ_superior":3,"brecha_educ":-32,"pct_sin_seguro":8,"pct_sus":92,"pct_seguro_privado":0,"brecha_seguro":5,"pct_salud_publica":27,"pct_med_tradicional":25,"pct_automedicacion":11,"pct_remedios_caseros":29,"pct_viv_desocupada":0,"pct_alquiler":0,"pct_electricidad":63,"pct_sin_electricidad":37,"pct_agua_red":42,"pct_alcantarillado":16,"pct_camara_septica":0,"pct_pozo_ciego":32,"pct_sin_desague":42,"pct_gas_red":0,"pct_gas_garrafa":0,"pct_lena_guano":0,"pct_basura_formal":5,"pct_basura_quema":84,"pct_basura_informal":0,"pct_internet":47,"pct_celular":84,"pct_televisor":42}},{"type":"Feature","geometry":{"type":"Polygon","coordinates":[[[-68.9662,-15.59504],[-68.96546,-15.59557],[-68.96538,-15.59594],[-68.96506,-15.59662],[-68.96513,-15.59671],[-68.96528,-15.5967],[-68.96548,-15.59618],[-68.96566,-15.59616],[-68.96592,-15.59685],[-68.96588,-15.59695],[-68.96627,-15.59714],[-68.96695,-15.59684],[-68.967,-15.59673],[-68.96647,-15.59627],[-68.96625,-15.59574],[-68.96652,-15.59538],[-68.96648,-15.5953],[-68.96672,-15.59503],[-68.96638,-15.59477],[-68.9662,-15.59504]]]},"properties":{"n":"COOÑATA","p":23,"personas_x_ha":10,"masculinidad":283,"pct_menor20":43,"pct_60mas":17,"pct_migrante":0,"dependencia_econ":77,"pct_empleados":8,"pct_cuentapropia":54,"pct_agricultura":85,"pct_comercio":0,"pct_manufactura":0,"pct_construccion":8,"pct_transporte":0,"pct_alojamiento":0,"pct_sin_educacion":7,"pct_educ_superior":7,"brecha_educ":-47,"pct_sin_seguro":4,"pct_sus":96,"pct_seguro_privado":0,"brecha_seguro":6,"pct_salud_publica":28,"pct_med_tradicional":19,"pct_automedicacion":12,"pct_remedios_caseros":29,"pct_viv_desocupada":0,"pct_alquiler":0,"pct_electricidad":73,"pct_sin_electricidad":27,"pct_agua_red":64,"pct_alcantarillado":9,"pct_camara_septica":0,"pct_pozo_ciego":55,"pct_sin_desague":36,"pct_gas_red":0,"pct_gas_garrafa":0,"pct_lena_guano":0,"pct_basura_formal":0,"pct_basura_quema":91,"pct_basura_informal":0,"pct_internet":45,"pct_celular":82,"pct_televisor":36}},{"type":"Feature","geometry":{"type":"Polygon","coordinates":[[[-68.96604,-15.59787],[-68.96658,-15.59735],[-68.9669,-15.59746],[-68.96702,-15.59736],[-68.96686,-15.59707],[-68.96673,-15.59715],[-68.96644,-15.59709],[-68.96624,-15.59721],[-68.96584,-15.59702],[-68.96543,-15.59757],[-68.96483,-15.59807],[-68.96448,-15.59848],[-68.96453,-15.59858],[-68.96487,-15.59874],[-68.96519,-15.59858],[-68.96534,-15.59828],[-68.96527,-15.59857],[-68.96487,-15.59878],[-68.96492,-15.59893],[-68.96569,-15.59865],[-68.96603,-15.59838],[-68.96604,-15.59787]]]},"properties":{"n":"COOÑATA","p":23,"personas_x_ha":10,"masculinidad":109,"pct_menor20":43,"pct_60mas":13,"pct_migrante":22,"dependencia_econ":92,"pct_empleados":17,"pct_cuentapropia":42,"pct_agricultura":50,"pct_comercio":25,"pct_manufactura":0,"pct_construccion":8,"pct_transporte":8,"pct_alojamiento":0,"pct_sin_educacion":21,"pct_educ_superior":21,"brecha_educ":-57,"pct_sin_seguro":27,"pct_sus":73,"pct_seguro_privado":0,"brecha_seguro":-5,"pct_salud_publica":10,"pct_med_tradicional":30,"pct_automedicacion":23,"pct_remedios_caseros":31,"pct_viv_desocupada":0,"pct_alquiler":0,"pct_electricidad":90,"pct_sin_electricidad":10,"pct_agua_red":60,"pct_alcantarillado":10,"pct_camara_septica":0,"pct_pozo_ciego":40,"pct_sin_desague":50,"pct_gas_red":0,"pct_gas_garrafa":0,"pct_lena_guano":0,"pct_basura_formal":0,"pct_basura_quema":80,"pct_basura_informal":20,"pct_internet":60,"pct_celular":90,"pct_televisor":30}},{"type":"Feature","geometry":{"type":"Polygon","coordinates":[[[-69.06249,-15.75684],[-69.06207,-15.7574],[-69.06282,-15.75788],[-69.06319,-15.75729],[-69.06249,-15.75684]]]},"properties":{"n":"PUERTO CARABUCO","p":23,"personas_x_ha":32,"masculinidad":92,"pct_menor20":17,"pct_60mas":22,"pct_migrante":39,"dependencia_econ":92,"pct_empleados":25,"pct_cuentapropia":25,"pct_agricultura":33,"pct_comercio":17,"pct_manufactura":33,"pct_construccion":0,"pct_transporte":0,"pct_alojamiento":0,"pct_sin_educacion":0,"pct_educ_superior":37,"brecha_educ":-15,"pct_sin_seguro":17,"pct_sus":52,"pct_seguro_privado":0,"brecha_seguro":-16,"pct_salud_publica":27,"pct_med_tradicional":6,"pct_automedicacion":17,"pct_remedios_caseros":32,"pct_viv_desocupada":0,"pct_alquiler":17,"pct_electricidad":100,"pct_sin_electricidad":0,"pct_agua_red":100,"pct_alcantarillado":0,"pct_camara_septica":8,"pct_pozo_ciego":92,"pct_sin_desague":0,"pct_gas_red":0,"pct_gas_garrafa":100,"pct_lena_guano":100,"pct_basura_formal":33,"pct_basura_quema":33,"pct_basura_informal":67,"pct_internet":92,"pct_celular":100,"pct_televisor":75}},{"type":"Feature","geometry":{"type":"Polygon","coordinates":[[[-69.06006,-15.76221],[-69.06057,-15.76127],[-69.0599,-15.76089],[-69.05976,-15.76088],[-69.05923,-15.76169],[-69.06006,-15.76221]]]},"properties":{"n":"PUERTO CARABUCO","p":24,"personas_x_ha":21,"masculinidad":71,"pct_menor20":50,"pct_60mas":17,"pct_migrante":12,"dependencia_econ":118,"pct_empleados":9,"pct_cuentapropia":55,"pct_agricultura":45,"pct_comercio":9,"pct_manufactura":18,"pct_construccion":0,"pct_transporte":0,"pct_alojamiento":9,"pct_sin_educacion":17,"pct_educ_superior":8,"brecha_educ":12,"pct_sin_seguro":4,"pct_sus":75,"pct_seguro_privado":0,"brecha_seguro":10,"pct_salud_publica":32,"pct_med_tradicional":11,"pct_automedicacion":22,"pct_remedios_caseros":19,"pct_viv_desocupada":0,"pct_alquiler":0,"pct_electricidad":88,"pct_sin_electricidad":12,"pct_agua_red":88,"pct_alcantarillado":0,"pct_camara_septica":12,"pct_pozo_ciego":75,"pct_sin_desague":12,"pct_gas_red":0,"pct_gas_garrafa":88,"pct_lena_guano":88,"pct_basura_formal":0,"pct_basura_quema":100,"pct_basura_informal":0,"pct_internet":12,"pct_celular":100,"pct_televisor":75}},{"type":"Feature","geometry":{"type":"Polygon","coordinates":[[[-69.06576,-15.75547],[-69.06551,-15.7553],[-69.06466,-15.75655],[-69.06493,-15.75674],[-69.06576,-15.75547]]]},"properties":{"n":"PUERTO CARABUCO","p":32,"personas_x_ha":56,"masculinidad":68,"pct_menor20":28,"pct_60mas":22,"pct_migrante":41,"dependencia_econ":88,"pct_empleados":24,"pct_cuentapropia":47,"pct_agricultura":29,"pct_comercio":12,"pct_manufactura":0,"pct_construccion":6,"pct_transporte":6,"pct_alojamiento":6,"pct_sin_educacion":22,"pct_educ_superior":52,"brecha_educ":-50,"pct_sin_seguro":9,"pct_sus":78,"pct_seguro_privado":0,"brecha_seguro":10,"pct_salud_publica":27,"pct_med_tradicional":11,"pct_automedicacion":16,"pct_remedios_caseros":32,"pct_viv_desocupada":0,"pct_alquiler":6,"pct_electricidad":62,"pct_sin_electricidad":38,"pct_agua_red":88,"pct_alcantarillado":6,"pct_camara_septica":0,"pct_pozo_ciego":31,"pct_sin_desague":62,"pct_gas_red":0,"pct_gas_garrafa":62,"pct_lena_guano":62,"pct_basura_formal":25,"pct_basura_quema":69,"pct_basura_informal":12,"pct_internet":75,"pct_celular":81,"pct_televisor":38}},{"type":"Feature","geometry":{"type":"Polygon","coordinates":[[[-69.0572,-15.76126],[-69.05696,-15.7612],[-69.05689,-15.76128],[-69.0568,-15.76121],[-69.05658,-15.76152],[-69.05678,-15.7612],[-69.05663,-15.7611],[-69.05641,-15.76122],[-69.05619,-15.76109],[-69.05583,-15.76126],[-69.05619,-15.76146],[-69.0558,-15.76127],[-69.05533,-15.76149],[-69.0562,-15.76197],[-69.05652,-15.76192],[-69.05726,-15.76263],[-69.05767,-15.76267],[-69.05824,-15.7631],[-69.05902,-15.7627],[-69.05958,-15.76218],[-69.05859,-15.76157],[-69.05749,-15.76122],[-69.05724,-15.76127],[-69.0569,-15.76174],[-69.05687,-15.76172],[-69.0572,-15.76126]]]},"properties":{"n":"PUERTO CARABUCO","p":90,"personas_x_ha":18,"masculinidad":114,"pct_menor20":38,"pct_60mas":10,"pct_migrante":46,"dependencia_econ":83,"pct_empleados":25,"pct_cuentapropia":56,"pct_agricultura":35,"pct_comercio":12,"pct_manufactura":19,"pct_construccion":8,"pct_transporte":6,"pct_alojamiento":2,"pct_sin_educacion":4,"pct_educ_superior":33,"brecha_educ":-15,"pct_sin_seguro":24,"pct_sus":66,"pct_seguro_privado":0,"brecha_seguro":7,"pct_salud_publica":25,"pct_med_tradicional":21,"pct_automedicacion":19,"pct_remedios_caseros":23,"pct_viv_desocupada":0,"pct_alquiler":9,"pct_electricidad":100,"pct_sin_electricidad":0,"pct_agua_red":74,"pct_alcantarillado":4,"pct_camara_septica":13,"pct_pozo_ciego":57,"pct_sin_desague":22,"pct_gas_red":4,"pct_gas_garrafa":57,"pct_lena_guano":57,"pct_basura_formal":0,"pct_basura_quema":87,"pct_basura_informal":9,"pct_internet":78,"pct_celular":100,"pct_televisor":57}},{"type":"Feature","geometry":{"type":"Polygon","coordinates":[[[-69.06715,-15.75551],[-69.0678,-15.75598],[-69.06945,-15.75419],[-69.06926,-15.75382],[-69.06928,-15.75359],[-69.06891,-15.75331],[-69.06715,-15.75551]]]},"properties":{"n":"PUERTO CARABUCO","p":37,"personas_x_ha":13,"masculinidad":76,"pct_menor20":32,"pct_60mas":19,"pct_migrante":30,"dependencia_econ":85,"pct_empleados":25,"pct_cuentapropia":65,"pct_agricultura":40,"pct_comercio":30,"pct_manufactura":0,"pct_construccion":0,"pct_transporte":0,"pct_alojamiento":0,"pct_sin_educacion":12,"pct_educ_superior":28,"brecha_educ":-6,"pct_sin_seguro":5,"pct_sus":68,"pct_seguro_privado":0,"brecha_seguro":1,"pct_salud_publica":20,"pct_med_tradicional":23,"pct_automedicacion":19,"pct_remedios_caseros":27,"pct_viv_desocupada":0,"pct_alquiler":0,"pct_electricidad":86,"pct_sin_electricidad":14,"pct_agua_red":79,"pct_alcantarillado":0,"pct_camara_septica":14,"pct_pozo_ciego":50,"pct_sin_desague":36,"pct_gas_red":0,"pct_gas_garrafa":86,"pct_lena_guano":86,"pct_basura_formal":14,"pct_basura_quema":71,"pct_basura_informal":0,"pct_internet":57,"pct_celular":100,"pct_televisor":50}},{"type":"Feature","geometry":{"type":"Polygon","coordinates":[[[-69.06566,-15.75964],[-69.06605,-15.759],[-69.06491,-15.75835],[-69.06452,-15.75893],[-69.06566,-15.75964]]]},"properties":{"n":"PUERTO CARABUCO","p":23,"personas_x_ha":20,"masculinidad":77,"pct_menor20":30,"pct_60mas":30,"pct_migrante":35,"dependencia_econ":156,"pct_empleados":11,"pct_cuentapropia":56,"pct_agricultura":11,"pct_comercio":22,"pct_manufactura":0,"pct_construccion":0,"pct_transporte":0,"pct_alojamiento":22,"pct_sin_educacion":6,"pct_educ_superior":44,"brecha_educ":-20,"pct_sin_seguro":26,"pct_sus":30,"pct_seguro_privado":9,"brecha_seguro":25,"pct_salud_publica":24,"pct_med_tradicional":13,"pct_automedicacion":17,"pct_remedios_caseros":19,"pct_viv_desocupada":0,"pct_alquiler":0,"pct_electricidad":100,"pct_sin_electricidad":0,"pct_agua_red":90,"pct_alcantarillado":0,"pct_camara_septica":20,"pct_pozo_ciego":50,"pct_sin_desague":30,"pct_gas_red":0,"pct_gas_garrafa":100,"pct_lena_guano":100,"pct_basura_formal":70,"pct_basura_quema":10,"pct_basura_informal":0,"pct_internet":50,"pct_celular":90,"pct_televisor":80}},{"type":"Feature","geometry":{"type":"Polygon","coordinates":[[[-69.06534,-15.7597],[-69.06542,-15.75958],[-69.0645,-15.75899],[-69.0641,-15.7596],[-69.06502,-15.76016],[-69.06511,-15.76002],[-69.06475,-15.7598],[-69.06481,-15.75969],[-69.06502,-15.75983],[-69.06516,-15.75959],[-69.06534,-15.7597]]]},"properties":{"n":"PUERTO CARABUCO","p":18,"personas_x_ha":22,"masculinidad":100,"pct_menor20":22,"pct_60mas":11,"pct_migrante":11,"dependencia_econ":100,"pct_empleados":0,"pct_cuentapropia":100,"pct_agricultura":11,"pct_comercio":22,"pct_manufactura":33,"pct_construccion":0,"pct_transporte":11,"pct_alojamiento":0,"pct_sin_educacion":7,"pct_educ_superior":7,"brecha_educ":-43,"pct_sin_seguro":11,"pct_sus":89,"pct_seguro_privado":0,"brecha_seguro":22,"pct_salud_publica":55,"pct_med_tradicional":0,"pct_automedicacion":3,"pct_remedios_caseros":36,"pct_viv_desocupada":0,"pct_alquiler":0,"pct_electricidad":100,"pct_sin_electricidad":0,"pct_agua_red":89,"pct_alcantarillado":0,"pct_camara_septica":11,"pct_pozo_ciego":56,"pct_sin_desague":33,"pct_gas_red":0,"pct_gas_garrafa":89,"pct_lena_guano":89,"pct_basura_formal":33,"pct_basura_quema":44,"pct_basura_informal":0,"pct_internet":33,"pct_celular":100,"pct_televisor":56}},{"type":"Feature","geometry":{"type":"Polygon","coordinates":[[[-69.06095,-15.76276],[-69.06262,-15.76029],[-69.06196,-15.75999],[-69.06138,-15.76012],[-69.06075,-15.76113],[-69.06095,-15.76276]]]},"properties":{"n":"PUERTO CARABUCO","p":46,"personas_x_ha":16,"masculinidad":64,"pct_menor20":52,"pct_60mas":9,"pct_migrante":59,"dependencia_econ":188,"pct_empleados":25,"pct_cuentapropia":75,"pct_agricultura":19,"pct_comercio":12,"pct_manufactura":12,"pct_construccion":50,"pct_transporte":0,"pct_alojamiento":0,"pct_sin_educacion":5,"pct_educ_superior":18,"brecha_educ":7,"pct_sin_seguro":17,"pct_sus":78,"pct_seguro_privado":0,"brecha_seguro":17,"pct_salud_publica":30,"pct_med_tradicional":5,"pct_automedicacion":28,"pct_remedios_caseros":29,"pct_viv_desocupada":6,"pct_alquiler":15,"pct_electricidad":77,"pct_sin_electricidad":23,"pct_agua_red":100,"pct_alcantarillado":0,"pct_camara_septica":0,"pct_pozo_ciego":62,"pct_sin_desague":38,"pct_gas_red":0,"pct_gas_garrafa":62,"pct_lena_guano":62,"pct_basura_formal":15,"pct_basura_quema":38,"pct_basura_informal":31,"pct_internet":69,"pct_celular":100,"pct_televisor":69}},{"type":"Feature","geometry":{"type":"Polygon","coordinates":[[[-69.06319,-15.75956],[-69.06271,-15.76028],[-69.06322,-15.76073],[-69.06382,-15.75995],[-69.06319,-15.75956]]]},"properties":{"n":"PUERTO CARABUCO","p":16,"personas_x_ha":20,"masculinidad":60,"pct_menor20":38,"pct_60mas":6,"pct_migrante":56,"dependencia_econ":100,"pct_empleados":12,"pct_cuentapropia":75,"pct_agricultura":0,"pct_comercio":38,"pct_manufactura":12,"pct_construccion":25,"pct_transporte":0,"pct_alojamiento":0,"pct_sin_educacion":0,"pct_educ_superior":80,"brecha_educ":0,"pct_sin_seguro":44,"pct_sus":50,"pct_seguro_privado":0,"brecha_seguro":10,"pct_salud_publica":25,"pct_med_tradicional":6,"pct_automedicacion":28,"pct_remedios_caseros":30,"pct_viv_desocupada":50,"pct_alquiler":0,"pct_electricidad":100,"pct_sin_electricidad":0,"pct_agua_red":100,"pct_alcantarillado":25,"pct_camara_septica":50,"pct_pozo_ciego":25,"pct_sin_desague":0,"pct_gas_red":0,"pct_gas_garrafa":100,"pct_lena_guano":100,"pct_basura_formal":50,"pct_basura_quema":25,"pct_basura_informal":50,"pct_internet":100,"pct_celular":100,"pct_televisor":75}},{"type":"Feature","geometry":{"type":"Polygon","coordinates":[[[-69.06778,-15.75601],[-69.06711,-15.75554],[-69.06576,-15.75726],[-69.06642,-15.75781],[-69.06778,-15.75601]]]},"properties":{"n":"PUERTO CARABUCO","p":29,"personas_x_ha":13,"masculinidad":81,"pct_menor20":34,"pct_60mas":21,"pct_migrante":31,"dependencia_econ":61,"pct_empleados":33,"pct_cuentapropia":61,"pct_agricultura":28,"pct_comercio":17,"pct_manufactura":17,"pct_construccion":6,"pct_transporte":11,"pct_alojamiento":6,"pct_sin_educacion":5,"pct_educ_superior":25,"brecha_educ":-16,"pct_sin_seguro":21,"pct_sus":41,"pct_seguro_privado":0,"brecha_seguro":-10,"pct_salud_publica":24,"pct_med_tradicional":20,"pct_automedicacion":16,"pct_remedios_caseros":24,"pct_viv_desocupada":0,"pct_alquiler":0,"pct_electricidad":91,"pct_sin_electricidad":9,"pct_agua_red":100,"pct_alcantarillado":0,"pct_camara_septica":18,"pct_pozo_ciego":64,"pct_sin_desague":18,"pct_gas_red":0,"pct_gas_garrafa":82,"pct_lena_guano":91,"pct_basura_formal":18,"pct_basura_quema":73,"pct_basura_informal":0,"pct_internet":82,"pct_celular":100,"pct_televisor":64}},{"type":"Feature","geometry":{"type":"Polygon","coordinates":[[[-69.06424,-15.75635],[-69.06506,-15.75498],[-69.06481,-15.75482],[-69.06387,-15.75632],[-69.06424,-15.75635]]]},"properties":{"n":"PUERTO CARABUCO","p":19,"personas_x_ha":30,"masculinidad":73,"pct_menor20":26,"pct_60mas":26,"pct_migrante":26,"dependencia_econ":111,"pct_empleados":22,"pct_cuentapropia":33,"pct_agricultura":0,"pct_comercio":33,"pct_manufactura":11,"pct_construccion":0,"pct_transporte":22,"pct_alojamiento":0,"pct_sin_educacion":21,"pct_educ_superior":43,"brecha_educ":-43,"pct_sin_seguro":32,"pct_sus":63,"pct_seguro_privado":0,"brecha_seguro":-11,"pct_salud_publica":22,"pct_med_tradicional":16,"pct_automedicacion":22,"pct_remedios_caseros":33,"pct_viv_desocupada":0,"pct_alquiler":8,"pct_electricidad":67,"pct_sin_electricidad":33,"pct_agua_red":17,"pct_alcantarillado":0,"pct_camara_septica":0,"pct_pozo_ciego":42,"pct_sin_desague":58,"pct_gas_red":0,"pct_gas_garrafa":67,"pct_lena_guano":67,"pct_basura_formal":0,"pct_basura_quema":67,"pct_basura_informal":17,"pct_internet":58,"pct_celular":92,"pct_televisor":33}},{"type":"Feature","geometry":{"type":"Polygon","coordinates":[[[-69.06543,-15.75765],[-69.06564,-15.75788],[-69.06537,-15.75773],[-69.06498,-15.75831],[-69.06592,-15.75886],[-69.06638,-15.75788],[-69.06571,-15.75732],[-69.06543,-15.75765]]]},"properties":{"n":"PUERTO CARABUCO","p":20,"personas_x_ha":15,"masculinidad":54,"pct_menor20":40,"pct_60mas":30,"pct_migrante":30,"dependencia_econ":67,"pct_empleados":8,"pct_cuentapropia":33,"pct_agricultura":58,"pct_comercio":0,"pct_manufactura":0,"pct_construccion":0,"pct_transporte":0,"pct_alojamiento":8,"pct_sin_educacion":8,"pct_educ_superior":58,"brecha_educ":-12,"pct_sin_seguro":35,"pct_sus":55,"pct_seguro_privado":0,"brecha_seguro":12,"pct_salud_publica":24,"pct_med_tradicional":15,"pct_automedicacion":22,"pct_remedios_caseros":19,"pct_viv_desocupada":0,"pct_alquiler":22,"pct_electricidad":100,"pct_sin_electricidad":0,"pct_agua_red":100,"pct_alcantarillado":0,"pct_camara_septica":22,"pct_pozo_ciego":56,"pct_sin_desague":22,"pct_gas_red":0,"pct_gas_garrafa":100,"pct_lena_guano":100,"pct_basura_formal":44,"pct_basura_quema":56,"pct_basura_informal":0,"pct_internet":44,"pct_celular":89,"pct_televisor":44}},{"type":"Feature","geometry":{"type":"Polygon","coordinates":[[[-69.06275,-15.75655],[-69.06254,-15.7568],[-69.06323,-15.75724],[-69.06341,-15.75696],[-69.06275,-15.75655]]]},"properties":{"n":"PUERTO CARABUCO","p":17,"personas_x_ha":54,"masculinidad":70,"pct_menor20":41,"pct_60mas":18,"pct_migrante":24,"dependencia_econ":240,"pct_empleados":20,"pct_cuentapropia":80,"pct_agricultura":20,"pct_comercio":0,"pct_manufactura":0,"pct_construccion":20,"pct_transporte":0,"pct_alojamiento":20,"pct_sin_educacion":0,"pct_educ_superior":20,"brecha_educ":19,"pct_sin_seguro":6,"pct_sus":88,"pct_seguro_privado":0,"brecha_seguro":-10,"pct_salud_publica":25,"pct_med_tradicional":18,"pct_automedicacion":25,"pct_remedios_caseros":27,"pct_viv_desocupada":0,"pct_alquiler":0,"pct_electricidad":86,"pct_sin_electricidad":14,"pct_agua_red":100,"pct_alcantarillado":14,"pct_camara_septica":0,"pct_pozo_ciego":71,"pct_sin_desague":14,"pct_gas_red":0,"pct_gas_garrafa":100,"pct_lena_guano":100,"pct_basura_formal":43,"pct_basura_quema":57,"pct_basura_informal":0,"pct_internet":29,"pct_celular":86,"pct_televisor":86}},{"type":"Feature","geometry":{"type":"Polygon","coordinates":[[[-69.06467,-15.75473],[-69.06373,-15.75532],[-69.06301,-15.75619],[-69.06309,-15.75624],[-69.06336,-15.75611],[-69.0638,-15.75636],[-69.06409,-15.75589],[-69.06396,-15.75593],[-69.06411,-15.75587],[-69.06476,-15.75478],[-69.06467,-15.75473]]]},"properties":{"n":"PUERTO CARABUCO","p":29,"personas_x_ha":25,"masculinidad":123,"pct_menor20":55,"pct_60mas":0,"pct_migrante":17,"dependencia_econ":93,"pct_empleados":20,"pct_cuentapropia":33,"pct_agricultura":47,"pct_comercio":7,"pct_manufactura":7,"pct_construccion":20,"pct_transporte":0,"pct_alojamiento":0,"pct_sin_educacion":0,"pct_educ_superior":12,"brecha_educ":-25,"pct_sin_seguro":14,"pct_sus":86,"pct_seguro_privado":0,"brecha_seguro":-19,"pct_salud_publica":35,"pct_med_tradicional":10,"pct_automedicacion":19,"pct_remedios_caseros":37,"pct_viv_desocupada":0,"pct_alquiler":0,"pct_electricidad":56,"pct_sin_electricidad":44,"pct_agua_red":89,"pct_alcantarillado":0,"pct_camara_septica":0,"pct_pozo_ciego":22,"pct_sin_desague":78,"pct_gas_red":0,"pct_gas_garrafa":56,"pct_lena_guano":67,"pct_basura_formal":11,"pct_basura_quema":89,"pct_basura_informal":0,"pct_internet":78,"pct_celular":100,"pct_televisor":22}},{"type":"Feature","geometry":{"type":"Polygon","coordinates":[[[-69.0642,-15.75789],[-69.06357,-15.75751],[-69.06317,-15.7581],[-69.06381,-15.7585],[-69.0642,-15.75789]]]},"properties":{"n":"PUERTO CARABUCO","p":15,"personas_x_ha":23,"masculinidad":36,"pct_menor20":7,"pct_60mas":33,"pct_migrante":60,"dependencia_econ":88,"pct_empleados":25,"pct_cuentapropia":50,"pct_agricultura":0,"pct_comercio":25,"pct_manufactura":12,"pct_construccion":0,"pct_transporte":0,"pct_alojamiento":12,"pct_sin_educacion":0,"pct_educ_superior":57,"brecha_educ":-20,"pct_sin_seguro":7,"pct_sus":60,"pct_seguro_privado":13,"brecha_seguro":-9,"pct_salud_publica":23,"pct_med_tradicional":18,"pct_automedicacion":15,"pct_remedios_caseros":22,"pct_viv_desocupada":0,"pct_alquiler":0,"pct_electricidad":100,"pct_sin_electricidad":0,"pct_agua_red":100,"pct_alcantarillado":0,"pct_camara_septica":11,"pct_pozo_ciego":78,"pct_sin_desague":11,"pct_gas_red":0,"pct_gas_garrafa":100,"pct_lena_guano":100,"pct_basura_formal":44,"pct_basura_quema":33,"pct_basura_informal":44,"pct_internet":89,"pct_celular":89,"pct_televisor":67}},{"type":"Feature","geometry":{"type":"Polygon","coordinates":[[[-69.06214,-15.75601],[-69.06312,-15.75499],[-69.0613,-15.75358],[-69.06053,-15.7544],[-69.06214,-15.75601]]]},"properties":{"n":"PUERTO CARABUCO","p":18,"personas_x_ha":5,"masculinidad":64,"pct_menor20":28,"pct_60mas":17,"pct_migrante":11,"dependencia_econ":157,"pct_empleados":14,"pct_cuentapropia":57,"pct_agricultura":71,"pct_comercio":0,"pct_manufactura":0,"pct_construccion":14,"pct_transporte":0,"pct_alojamiento":0,"pct_sin_educacion":8,"pct_educ_superior":31,"brecha_educ":-26,"pct_sin_seguro":6,"pct_sus":89,"pct_seguro_privado":6,"brecha_seguro":-9,"pct_salud_publica":41,"pct_med_tradicional":0,"pct_automedicacion":7,"pct_remedios_caseros":33,"pct_viv_desocupada":0,"pct_alquiler":0,"pct_electricidad":57,"pct_sin_electricidad":43,"pct_agua_red":100,"pct_alcantarillado":0,"pct_camara_septica":0,"pct_pozo_ciego":29,"pct_sin_desague":71,"pct_gas_red":0,"pct_gas_garrafa":57,"pct_lena_guano":57,"pct_basura_formal":0,"pct_basura_quema":100,"pct_basura_informal":0,"pct_internet":29,"pct_celular":86,"pct_televisor":29}},{"type":"Feature","geometry":{"type":"Polygon","coordinates":[[[-69.06133,-15.75522],[-69.06042,-15.75439],[-69.05949,-15.75561],[-69.05937,-15.75616],[-69.06006,-15.75628],[-69.0604,-15.75616],[-69.0612,-15.75627],[-69.06145,-15.75604],[-69.06242,-15.75672],[-69.06262,-15.75648],[-69.06213,-15.75612],[-69.06133,-15.75522]]]},"properties":{"n":"PUERTO CARABUCO","p":27,"personas_x_ha":7,"masculinidad":59,"pct_menor20":41,"pct_60mas":15,"pct_migrante":33,"dependencia_econ":350,"pct_empleados":17,"pct_cuentapropia":50,"pct_agricultura":17,"pct_comercio":0,"pct_manufactura":17,"pct_construccion":0,"pct_transporte":17,"pct_alojamiento":0,"pct_sin_educacion":6,"pct_educ_superior":29,"brecha_educ":-22,"pct_sin_seguro":8,"pct_sus":81,"pct_seguro_privado":0,"brecha_seguro":5,"pct_salud_publica":90,"pct_med_tradicional":0,"pct_automedicacion":0,"pct_remedios_caseros":0,"pct_viv_desocupada":0,"pct_alquiler":8,"pct_electricidad":92,"pct_sin_electricidad":8,"pct_agua_red":85,"pct_alcantarillado":0,"pct_camara_septica":0,"pct_pozo_ciego":38,"pct_sin_desague":62,"pct_gas_red":0,"pct_gas_garrafa":62,"pct_lena_guano":62,"pct_basura_formal":8,"pct_basura_quema":92,"pct_basura_informal":0,"pct_internet":8,"pct_celular":85,"pct_televisor":8}},{"type":"Feature","geometry":{"type":"Polygon","coordinates":[[[-69.06531,-15.75768],[-69.06465,-15.75727],[-69.06448,-15.75756],[-69.0651,-15.75795],[-69.06531,-15.75768]]]},"properties":{"n":"PUERTO CARABUCO","p":18,"personas_x_ha":59,"masculinidad":260,"pct_menor20":17,"pct_60mas":28,"pct_migrante":33,"dependencia_econ":60,"pct_empleados":10,"pct_cuentapropia":50,"pct_agricultura":0,"pct_comercio":10,"pct_manufactura":20,"pct_construccion":40,"pct_transporte":0,"pct_alojamiento":10,"pct_sin_educacion":0,"pct_educ_superior":57,"brecha_educ":-25,"pct_sin_seguro":7,"pct_sus":53,"pct_seguro_privado":0,"brecha_seguro":9,"pct_salud_publica":17,"pct_med_tradicional":11,"pct_automedicacion":21,"pct_remedios_caseros":19,"pct_viv_desocupada":0,"pct_alquiler":0,"pct_electricidad":100,"pct_sin_electricidad":0,"pct_agua_red":100,"pct_alcantarillado":0,"pct_camara_septica":0,"pct_pozo_ciego":43,"pct_sin_desague":43,"pct_gas_red":0,"pct_gas_garrafa":100,"pct_lena_guano":100,"pct_basura_formal":29,"pct_basura_quema":43,"pct_basura_informal":29,"pct_internet":43,"pct_celular":86,"pct_televisor":86}},{"type":"Feature","geometry":{"type":"Polygon","coordinates":[[[-69.05591,-15.76012],[-69.05603,-15.75977],[-69.0559,-15.75965],[-69.05546,-15.75969],[-69.05544,-15.76004],[-69.05537,-15.76019],[-69.05515,-15.76009],[-69.05514,-15.76001],[-69.05535,-15.76015],[-69.05543,-15.7597],[-69.05494,-15.75972],[-69.05469,-15.75948],[-69.0545,-15.75971],[-69.05467,-15.75945],[-69.05421,-15.75905],[-69.05387,-15.75917],[-69.0541,-15.76011],[-69.05508,-15.76124],[-69.05549,-15.76119],[-69.05566,-15.7607],[-69.05553,-15.76066],[-69.05568,-15.76064],[-69.05573,-15.76054],[-69.0558,-15.76057],[-69.05556,-15.76118],[-69.05582,-15.76113],[-69.05657,-15.76066],[-69.05591,-15.76012]]]},"properties":{"n":"PUERTO CARABUCO","p":16,"personas_x_ha":5,"masculinidad":60,"pct_menor20":19,"pct_60mas":44,"pct_migrante":25,"dependencia_econ":33,"pct_empleados":8,"pct_cuentapropia":67,"pct_agricultura":42,"pct_comercio":8,"pct_manufactura":17,"pct_construccion":8,"pct_transporte":8,"pct_alojamiento":8,"pct_sin_educacion":0,"pct_educ_superior":8,"brecha_educ":-40,"pct_sin_seguro":0,"pct_sus":88,"pct_seguro_privado":0,"brecha_seguro":0,"pct_salud_publica":21,"pct_med_tradicional":18,"pct_automedicacion":24,"pct_remedios_caseros":24,"pct_viv_desocupada":0,"pct_alquiler":0,"pct_electricidad":38,"pct_sin_electricidad":50,"pct_agua_red":0,"pct_alcantarillado":0,"pct_camara_septica":12,"pct_pozo_ciego":12,"pct_sin_desague":75,"pct_gas_red":0,"pct_gas_garrafa":12,"pct_lena_guano":12,"pct_basura_formal":0,"pct_basura_quema":62,"pct_basura_informal":25,"pct_internet":88,"pct_celular":100,"pct_televisor":0}},{"type":"Feature","geometry":{"type":"Polygon","coordinates":[[[-69.06657,-15.75604],[-69.06582,-15.75551],[-69.06499,-15.75675],[-69.06532,-15.75688],[-69.06571,-15.75716],[-69.06657,-15.75604]]]},"properties":{"n":"PUERTO CARABUCO","p":40,"personas_x_ha":27,"masculinidad":74,"pct_menor20":22,"pct_60mas":25,"pct_migrante":42,"dependencia_econ":90,"pct_empleados":29,"pct_cuentapropia":57,"pct_agricultura":19,"pct_comercio":24,"pct_manufactura":5,"pct_construccion":0,"pct_transporte":14,"pct_alojamiento":0,"pct_sin_educacion":0,"pct_educ_superior":39,"brecha_educ":-25,"pct_sin_seguro":20,"pct_sus":68,"pct_seguro_privado":0,"brecha_seguro":16,"pct_salud_publica":26,"pct_med_tradicional":6,"pct_automedicacion":17,"pct_remedios_caseros":28,"pct_viv_desocupada":5,"pct_alquiler":0,"pct_electricidad":89,"pct_sin_electricidad":11,"pct_agua_red":84,"pct_alcantarillado":5,"pct_camara_septica":11,"pct_pozo_ciego":63,"pct_sin_desague":21,"pct_gas_red":5,"pct_gas_garrafa":79,"pct_lena_guano":79,"pct_basura_formal":0,"pct_basura_quema":89,"pct_basura_informal":0,"pct_internet":68,"pct_celular":95,"pct_televisor":63}},{"type":"Feature","geometry":{"type":"Polygon","coordinates":[[[-69.06489,-15.75827],[-69.06507,-15.75799],[-69.06446,-15.7576],[-69.06427,-15.75789],[-69.06489,-15.75827]]]},"properties":{"n":"PUERTO CARABUCO","p":24,"personas_x_ha":81,"masculinidad":100,"pct_menor20":29,"pct_60mas":21,"pct_migrante":25,"dependencia_econ":50,"pct_empleados":19,"pct_cuentapropia":38,"pct_agricultura":19,"pct_comercio":6,"pct_manufactura":12,"pct_construccion":0,"pct_transporte":0,"pct_alojamiento":0,"pct_sin_educacion":5,"pct_educ_superior":58,"brecha_educ":2,"pct_sin_seguro":4,"pct_sus":75,"pct_seguro_privado":0,"brecha_seguro":-8,"pct_salud_publica":23,"pct_med_tradicional":14,"pct_automedicacion":16,"pct_remedios_caseros":31,"pct_viv_desocupada":0,"pct_alquiler":11,"pct_electricidad":100,"pct_sin_electricidad":0,"pct_agua_red":100,"pct_alcantarillado":0,"pct_camara_septica":0,"pct_pozo_ciego":100,"pct_sin_desague":0,"pct_gas_red":0,"pct_gas_garrafa":100,"pct_lena_guano":100,"pct_basura_formal":67,"pct_basura_quema":33,"pct_basura_informal":0,"pct_internet":56,"pct_celular":89,"pct_televisor":67}},{"type":"Feature","geometry":{"type":"Polygon","coordinates":[[[-69.06444,-15.75896],[-69.06384,-15.75859],[-69.06345,-15.75918],[-69.06406,-15.75953],[-69.06444,-15.75896]]]},"properties":{"n":"PUERTO CARABUCO","p":15,"personas_x_ha":25,"masculinidad":150,"pct_menor20":0,"pct_60mas":33,"pct_migrante":47,"dependencia_econ":88,"pct_empleados":75,"pct_cuentapropia":25,"pct_agricultura":0,"pct_comercio":0,"pct_manufactura":25,"pct_construccion":0,"pct_transporte":0,"pct_alojamiento":0,"pct_sin_educacion":0,"pct_educ_superior":67,"brecha_educ":-17,"pct_sin_seguro":20,"pct_sus":40,"pct_seguro_privado":7,"brecha_seguro":-22,"pct_salud_publica":23,"pct_med_tradicional":9,"pct_automedicacion":11,"pct_remedios_caseros":30,"pct_viv_desocupada":6,"pct_alquiler":10,"pct_electricidad":100,"pct_sin_electricidad":0,"pct_agua_red":100,"pct_alcantarillado":20,"pct_camara_septica":40,"pct_pozo_ciego":40,"pct_sin_desague":0,"pct_gas_red":0,"pct_gas_garrafa":90,"pct_lena_guano":90,"pct_basura_formal":30,"pct_basura_quema":60,"pct_basura_informal":20,"pct_internet":80,"pct_celular":100,"pct_televisor":30}},{"type":"Feature","geometry":{"type":"Polygon","coordinates":[[[-69.06424,-15.75308],[-69.06509,-15.75209],[-69.06441,-15.75157],[-69.06421,-15.75175],[-69.06376,-15.75199],[-69.06385,-15.75191],[-69.06381,-15.75182],[-69.06388,-15.75189],[-69.06439,-15.75155],[-69.06399,-15.75129],[-69.0634,-15.75181],[-69.06392,-15.75129],[-69.06334,-15.75084],[-69.0622,-15.75202],[-69.0627,-15.75244],[-69.06243,-15.75226],[-69.06203,-15.75281],[-69.0623,-15.75318],[-69.06274,-15.75275],[-69.06232,-15.75321],[-69.06277,-15.75366],[-69.06293,-15.75368],[-69.06319,-15.75327],[-69.06334,-15.75335],[-69.06321,-15.75331],[-69.06296,-15.75369],[-69.06359,-15.75398],[-69.06421,-15.75312],[-69.06375,-15.75277],[-69.06369,-15.75265],[-69.06424,-15.75308]]]},"properties":{"n":"PUERTO CARABUCO","p":40,"personas_x_ha":6,"masculinidad":60,"pct_menor20":18,"pct_60mas":30,"pct_migrante":28,"dependencia_econ":21,"pct_empleados":30,"pct_cuentapropia":45,"pct_agricultura":36,"pct_comercio":6,"pct_manufactura":21,"pct_construccion":0,"pct_transporte":9,"pct_alojamiento":0,"pct_sin_educacion":15,"pct_educ_superior":24,"brecha_educ":-36,"pct_sin_seguro":49,"pct_sus":51,"pct_seguro_privado":0,"brecha_seguro":-14,"pct_salud_publica":28,"pct_med_tradicional":9,"pct_automedicacion":15,"pct_remedios_caseros":31,"pct_viv_desocupada":0,"pct_alquiler":0,"pct_electricidad":78,"pct_sin_electricidad":22,"pct_agua_red":72,"pct_alcantarillado":6,"pct_camara_septica":0,"pct_pozo_ciego":61,"pct_sin_desague":33,"pct_gas_red":0,"pct_gas_garrafa":50,"pct_lena_guano":50,"pct_basura_formal":17,"pct_basura_quema":67,"pct_basura_informal":11,"pct_internet":28,"pct_celular":83,"pct_televisor":17}},{"type":"Feature","geometry":{"type":"Polygon","coordinates":[[[-69.06715,-15.75526],[-69.06635,-15.75478],[-69.06584,-15.75548],[-69.0666,-15.75599],[-69.06715,-15.75526]]]},"properties":{"n":"PUERTO CARABUCO","p":29,"personas_x_ha":29,"masculinidad":107,"pct_menor20":38,"pct_60mas":7,"pct_migrante":34,"dependencia_econ":93,"pct_empleados":40,"pct_cuentapropia":60,"pct_agricultura":20,"pct_comercio":20,"pct_manufactura":7,"pct_construccion":7,"pct_transporte":0,"pct_alojamiento":0,"pct_sin_educacion":0,"pct_educ_superior":39,"brecha_educ":-22,"pct_sin_seguro":10,"pct_sus":90,"pct_seguro_privado":0,"brecha_seguro":-8,"pct_salud_publica":25,"pct_med_tradicional":19,"pct_automedicacion":17,"pct_remedios_caseros":23,"pct_viv_desocupada":0,"pct_alquiler":9,"pct_electricidad":100,"pct_sin_electricidad":0,"pct_agua_red":100,"pct_alcantarillado":0,"pct_camara_septica":9,"pct_pozo_ciego":91,"pct_sin_desague":0,"pct_gas_red":0,"pct_gas_garrafa":91,"pct_lena_guano":91,"pct_basura_formal":0,"pct_basura_quema":82,"pct_basura_informal":36,"pct_internet":100,"pct_celular":100,"pct_televisor":91}}]}