{"type":"FeatureCollection","features":[{"type":"Feature","geometry":{"type":"Polygon","coordinates":[[[-69.21367,-17.28783],[-69.21382,-17.28863],[-69.21406,-17.28859],[-69.21413,-17.28787],[-69.21367,-17.28783]]]},"properties":{"n":"BERENGUELA","p":18,"personas_x_ha":52,"masculinidad":38,"pct_menor20":22,"pct_60mas":22,"pct_migrante":44,"dependencia_econ":38,"pct_empleados":8,"pct_cuentapropia":62,"pct_agricultura":77,"pct_comercio":8,"pct_manufactura":0,"pct_construccion":0,"pct_transporte":8,"pct_alojamiento":8,"pct_sin_educacion":0,"pct_educ_superior":14,"brecha_educ":17,"pct_sin_seguro":6,"pct_sus":94,"pct_seguro_privado":0,"brecha_seguro":-9,"pct_salud_publica":43,"pct_med_tradicional":19,"pct_automedicacion":3,"pct_remedios_caseros":27,"pct_viv_desocupada":0,"pct_alquiler":0,"pct_electricidad":75,"pct_sin_electricidad":25,"pct_agua_red":25,"pct_alcantarillado":8,"pct_camara_septica":8,"pct_pozo_ciego":75,"pct_sin_desague":8,"pct_gas_red":0,"pct_gas_garrafa":67,"pct_lena_guano":67,"pct_basura_formal":0,"pct_basura_quema":100,"pct_basura_informal":0,"pct_internet":42,"pct_celular":75,"pct_televisor":25}},{"type":"Feature","geometry":{"type":"Polygon","coordinates":[[[-69.2161,-17.28657],[-69.21611,-17.28641],[-69.21593,-17.28631],[-69.21599,-17.28607],[-69.21586,-17.28599],[-69.21567,-17.28626],[-69.21577,-17.28635],[-69.2156,-17.28627],[-69.21434,-17.28847],[-69.2143,-17.28956],[-69.21463,-17.29014],[-69.21471,-17.29008],[-69.21456,-17.28951],[-69.21461,-17.28847],[-69.21509,-17.28758],[-69.21553,-17.28728],[-69.2161,-17.28657]]]},"properties":{"n":"BERENGUELA","p":19,"personas_x_ha":11,"masculinidad":46,"pct_menor20":21,"pct_60mas":32,"pct_migrante":5,"dependencia_econ":58,"pct_empleados":8,"pct_cuentapropia":83,"pct_agricultura":75,"pct_comercio":0,"pct_manufactura":8,"pct_construccion":0,"pct_transporte":0,"pct_alojamiento":0,"pct_sin_educacion":7,"pct_educ_superior":7,"brecha_educ":-20,"pct_sin_seguro":6,"pct_sus":94,"pct_seguro_privado":0,"brecha_seguro":-9,"pct_salud_publica":50,"pct_med_tradicional":25,"pct_automedicacion":0,"pct_remedios_caseros":25,"pct_viv_desocupada":0,"pct_alquiler":0,"pct_electricidad":89,"pct_sin_electricidad":11,"pct_agua_red":6,"pct_alcantarillado":0,"pct_camara_septica":6,"pct_pozo_ciego":33,"pct_sin_desague":61,"pct_gas_red":0,"pct_gas_garrafa":17,"pct_lena_guano":17,"pct_basura_formal":0,"pct_basura_quema":100,"pct_basura_informal":0,"pct_internet":11,"pct_celular":83,"pct_televisor":6}},{"type":"Feature","geometry":{"type":"Polygon","coordinates":[[[-69.04797,-17.13699],[-69.04813,-17.1362],[-69.04811,-17.13601],[-69.04765,-17.13606],[-69.04763,-17.13664],[-69.04749,-17.13662],[-69.04745,-17.13689],[-69.04797,-17.13699]]]},"properties":{"n":"HUARIPUJO ARRIBA","p":15,"personas_x_ha":29,"masculinidad":67,"pct_menor20":33,"pct_60mas":20,"pct_migrante":20,"dependencia_econ":150,"pct_empleados":17,"pct_cuentapropia":50,"pct_agricultura":17,"pct_comercio":17,"pct_manufactura":33,"pct_construccion":0,"pct_transporte":0,"pct_alojamiento":0,"pct_sin_educacion":10,"pct_educ_superior":10,"brecha_educ":-43,"pct_sin_seguro":60,"pct_sus":40,"pct_seguro_privado":0,"brecha_seguro":-17,"pct_salud_publica":30,"pct_med_tradicional":14,"pct_automedicacion":22,"pct_remedios_caseros":28,"pct_viv_desocupada":46,"pct_alquiler":0,"pct_electricidad":80,"pct_sin_electricidad":20,"pct_agua_red":0,"pct_alcantarillado":0,"pct_camara_septica":0,"pct_pozo_ciego":80,"pct_sin_desague":20,"pct_gas_red":0,"pct_gas_garrafa":60,"pct_lena_guano":60,"pct_basura_formal":0,"pct_basura_quema":60,"pct_basura_informal":0,"pct_internet":60,"pct_celular":60,"pct_televisor":40}},{"type":"Feature","geometry":{"type":"Polygon","coordinates":[[[-69.04898,-17.13726],[-69.048,-17.13705],[-69.0479,-17.13751],[-69.04874,-17.13767],[-69.04882,-17.13765],[-69.04898,-17.13726]]]},"properties":{"n":"HUARIPUJO ARRIBA","p":17,"personas_x_ha":30,"masculinidad":750,"pct_menor20":35,"pct_60mas":24,"pct_migrante":0,"dependencia_econ":70,"pct_empleados":20,"pct_cuentapropia":80,"pct_agricultura":30,"pct_comercio":20,"pct_manufactura":20,"pct_construccion":10,"pct_transporte":0,"pct_alojamiento":0,"pct_sin_educacion":0,"pct_educ_superior":36,"brecha_educ":10,"pct_sin_seguro":0,"pct_sus":100,"pct_seguro_privado":0,"brecha_seguro":0,"pct_salud_publica":24,"pct_med_tradicional":11,"pct_automedicacion":21,"pct_remedios_caseros":19,"pct_viv_desocupada":0,"pct_alquiler":0,"pct_electricidad":80,"pct_sin_electricidad":20,"pct_agua_red":0,"pct_alcantarillado":0,"pct_camara_septica":0,"pct_pozo_ciego":40,"pct_sin_desague":60,"pct_gas_red":0,"pct_gas_garrafa":20,"pct_lena_guano":20,"pct_basura_formal":0,"pct_basura_quema":60,"pct_basura_informal":0,"pct_internet":0,"pct_celular":80,"pct_televisor":0}},{"type":"Feature","geometry":{"type":"Polygon","coordinates":[[[-69.04671,-17.13726],[-69.04727,-17.13739],[-69.04738,-17.13693],[-69.04681,-17.13682],[-69.04671,-17.13726]]]},"properties":{"n":"HUARIPUJO ARRIBA","p":18,"personas_x_ha":55,"masculinidad":125,"pct_menor20":17,"pct_60mas":11,"pct_migrante":17,"dependencia_econ":12,"pct_empleados":6,"pct_cuentapropia":88,"pct_agricultura":31,"pct_comercio":25,"pct_manufactura":6,"pct_construccion":19,"pct_transporte":0,"pct_alojamiento":6,"pct_sin_educacion":27,"pct_educ_superior":33,"brecha_educ":-33,"pct_sin_seguro":44,"pct_sus":56,"pct_seguro_privado":0,"brecha_seguro":57,"pct_salud_publica":30,"pct_med_tradicional":9,"pct_automedicacion":13,"pct_remedios_caseros":39,"pct_viv_desocupada":0,"pct_alquiler":0,"pct_electricidad":86,"pct_sin_electricidad":14,"pct_agua_red":0,"pct_alcantarillado":0,"pct_camara_septica":0,"pct_pozo_ciego":71,"pct_sin_desague":14,"pct_gas_red":0,"pct_gas_garrafa":43,"pct_lena_guano":43,"pct_basura_formal":0,"pct_basura_quema":86,"pct_basura_informal":0,"pct_internet":57,"pct_celular":57,"pct_televisor":29}},{"type":"Feature","geometry":{"type":"Polygon","coordinates":[[[-69.04872,-17.13645],[-69.0482,-17.13627],[-69.04803,-17.13699],[-69.04854,-17.13704],[-69.04872,-17.13645]]]},"properties":{"n":"HUARIPUJO ARRIBA","p":17,"personas_x_ha":40,"masculinidad":89,"pct_menor20":12,"pct_60mas":41,"pct_migrante":35,"dependencia_econ":21,"pct_empleados":29,"pct_cuentapropia":50,"pct_agricultura":64,"pct_comercio":14,"pct_manufactura":0,"pct_construccion":0,"pct_transporte":0,"pct_alojamiento":0,"pct_sin_educacion":0,"pct_educ_superior":27,"brecha_educ":-56,"pct_sin_seguro":6,"pct_sus":47,"pct_seguro_privado":0,"brecha_seguro":12,"pct_salud_publica":25,"pct_med_tradicional":17,"pct_automedicacion":17,"pct_remedios_caseros":25,"pct_viv_desocupada":0,"pct_alquiler":0,"pct_electricidad":86,"pct_sin_electricidad":0,"pct_agua_red":0,"pct_alcantarillado":0,"pct_camara_septica":0,"pct_pozo_ciego":86,"pct_sin_desague":14,"pct_gas_red":0,"pct_gas_garrafa":57,"pct_lena_guano":57,"pct_basura_formal":0,"pct_basura_quema":86,"pct_basura_informal":0,"pct_internet":71,"pct_celular":86,"pct_televisor":14}},{"type":"Feature","geometry":{"type":"Polygon","coordinates":[[[-69.04542,-17.1402],[-69.04647,-17.14033],[-69.04671,-17.14044],[-69.04697,-17.14073],[-69.04723,-17.14074],[-69.04736,-17.1403],[-69.04745,-17.13916],[-69.04653,-17.13886],[-69.04639,-17.13896],[-69.04626,-17.13932],[-69.04606,-17.13929],[-69.04602,-17.1394],[-69.04551,-17.13946],[-69.04542,-17.1402]]]},"properties":{"n":"HUARIPUJO ARRIBA","p":32,"personas_x_ha":11,"masculinidad":146,"pct_menor20":34,"pct_60mas":22,"pct_migrante":53,"dependencia_econ":52,"pct_empleados":19,"pct_cuentapropia":57,"pct_agricultura":43,"pct_comercio":43,"pct_manufactura":0,"pct_construccion":0,"pct_transporte":0,"pct_alojamiento":0,"pct_sin_educacion":10,"pct_educ_superior":10,"brecha_educ":0,"pct_sin_seguro":28,"pct_sus":53,"pct_seguro_privado":0,"brecha_seguro":-4,"pct_salud_publica":27,"pct_med_tradicional":11,"pct_automedicacion":13,"pct_remedios_caseros":22,"pct_viv_desocupada":0,"pct_alquiler":0,"pct_electricidad":88,"pct_sin_electricidad":0,"pct_agua_red":0,"pct_alcantarillado":12,"pct_camara_septica":0,"pct_pozo_ciego":75,"pct_sin_desague":12,"pct_gas_red":0,"pct_gas_garrafa":50,"pct_lena_guano":50,"pct_basura_formal":25,"pct_basura_quema":50,"pct_basura_informal":0,"pct_internet":62,"pct_celular":88,"pct_televisor":12}},{"type":"Feature","geometry":{"type":"Polygon","coordinates":[[[-69.19382,-17.06679],[-69.19327,-17.0668],[-69.19326,-17.06637],[-69.19381,-17.06638],[-69.19382,-17.06679]]]},"properties":{"n":"SANTIAGO DE MACHACA","p":16,"personas_x_ha":57,"masculinidad":60,"pct_menor20":25,"pct_60mas":12,"pct_migrante":19,"dependencia_econ":78,"pct_empleados":11,"pct_cuentapropia":78,"pct_agricultura":33,"pct_comercio":44,"pct_manufactura":0,"pct_construccion":11,"pct_transporte":0,"pct_alojamiento":11,"pct_sin_educacion":0,"pct_educ_superior":25,"brecha_educ":-33,"pct_sin_seguro":25,"pct_sus":69,"pct_seguro_privado":0,"brecha_seguro":13,"pct_salud_publica":21,"pct_med_tradicional":21,"pct_automedicacion":21,"pct_remedios_caseros":21,"pct_viv_desocupada":15,"pct_alquiler":12,"pct_electricidad":100,"pct_sin_electricidad":0,"pct_agua_red":88,"pct_alcantarillado":50,"pct_camara_septica":0,"pct_pozo_ciego":12,"pct_sin_desague":38,"pct_gas_red":0,"pct_gas_garrafa":100,"pct_lena_guano":100,"pct_basura_formal":50,"pct_basura_quema":0,"pct_basura_informal":100,"pct_internet":50,"pct_celular":62,"pct_televisor":62}},{"type":"Feature","geometry":{"type":"Polygon","coordinates":[[[-69.19583,-17.06704],[-69.19529,-17.06697],[-69.19529,-17.06739],[-69.19581,-17.06742],[-69.19583,-17.06704]]]},"properties":{"n":"SANTIAGO DE MACHACA","p":23,"personas_x_ha":87,"masculinidad":92,"pct_menor20":35,"pct_60mas":4,"pct_migrante":30,"dependencia_econ":57,"pct_empleados":0,"pct_cuentapropia":71,"pct_agricultura":29,"pct_comercio":36,"pct_manufactura":7,"pct_construccion":21,"pct_transporte":7,"pct_alojamiento":0,"pct_sin_educacion":0,"pct_educ_superior":7,"brecha_educ":-9,"pct_sin_seguro":14,"pct_sus":86,"pct_seguro_privado":0,"brecha_seguro":-8,"pct_salud_publica":34,"pct_med_tradicional":23,"pct_automedicacion":17,"pct_remedios_caseros":20,"pct_viv_desocupada":0,"pct_alquiler":0,"pct_electricidad":88,"pct_sin_electricidad":12,"pct_agua_red":50,"pct_alcantarillado":25,"pct_camara_septica":0,"pct_pozo_ciego":12,"pct_sin_desague":62,"pct_gas_red":0,"pct_gas_garrafa":75,"pct_lena_guano":75,"pct_basura_formal":25,"pct_basura_quema":25,"pct_basura_informal":25,"pct_internet":38,"pct_celular":75,"pct_televisor":75}},{"type":"Feature","geometry":{"type":"Polygon","coordinates":[[[-69.19383,-17.06687],[-69.19383,-17.06777],[-69.19363,-17.06786],[-69.19344,-17.06686],[-69.19383,-17.06687]]]},"properties":{"n":"SANTIAGO DE MACHACA","p":31,"personas_x_ha":85,"masculinidad":107,"pct_menor20":42,"pct_60mas":3,"pct_migrante":16,"dependencia_econ":63,"pct_empleados":37,"pct_cuentapropia":47,"pct_agricultura":42,"pct_comercio":11,"pct_manufactura":5,"pct_construccion":16,"pct_transporte":11,"pct_alojamiento":0,"pct_sin_educacion":0,"pct_educ_superior":32,"brecha_educ":-23,"pct_sin_seguro":17,"pct_sus":83,"pct_seguro_privado":0,"brecha_seguro":20,"pct_salud_publica":26,"pct_med_tradicional":12,"pct_automedicacion":23,"pct_remedios_caseros":31,"pct_viv_desocupada":3,"pct_alquiler":33,"pct_electricidad":83,"pct_sin_electricidad":17,"pct_agua_red":89,"pct_alcantarillado":72,"pct_camara_septica":11,"pct_pozo_ciego":0,"pct_sin_desague":17,"pct_gas_red":0,"pct_gas_garrafa":89,"pct_lena_guano":89,"pct_basura_formal":22,"pct_basura_quema":6,"pct_basura_informal":111,"pct_internet":72,"pct_celular":78,"pct_televisor":39}},{"type":"Feature","geometry":{"type":"Polygon","coordinates":[[[-69.1921,-17.06814],[-69.19201,-17.06818],[-69.19114,-17.0669],[-69.19161,-17.06687],[-69.19162,-17.06697],[-69.19161,-17.06687],[-69.19189,-17.06688],[-69.1921,-17.06814]]]},"properties":{"n":"SANTIAGO DE MACHACA","p":55,"personas_x_ha":81,"masculinidad":72,"pct_menor20":40,"pct_60mas":25,"pct_migrante":45,"dependencia_econ":57,"pct_empleados":26,"pct_cuentapropia":54,"pct_agricultura":40,"pct_comercio":26,"pct_manufactura":11,"pct_construccion":6,"pct_transporte":3,"pct_alojamiento":0,"pct_sin_educacion":0,"pct_educ_superior":18,"brecha_educ":-33,"pct_sin_seguro":11,"pct_sus":74,"pct_seguro_privado":2,"brecha_seguro":-3,"pct_salud_publica":37,"pct_med_tradicional":12,"pct_automedicacion":13,"pct_remedios_caseros":21,"pct_viv_desocupada":0,"pct_alquiler":0,"pct_electricidad":80,"pct_sin_electricidad":17,"pct_agua_red":83,"pct_alcantarillado":60,"pct_camara_septica":0,"pct_pozo_ciego":13,"pct_sin_desague":27,"pct_gas_red":0,"pct_gas_garrafa":87,"pct_lena_guano":87,"pct_basura_formal":30,"pct_basura_quema":33,"pct_basura_informal":20,"pct_internet":57,"pct_celular":87,"pct_televisor":37}},{"type":"Feature","geometry":{"type":"Polygon","coordinates":[[[-69.19277,-17.068],[-69.19252,-17.06688],[-69.19196,-17.06689],[-69.19222,-17.06809],[-69.19277,-17.068]]]},"properties":{"n":"SANTIAGO DE MACHACA","p":63,"personas_x_ha":79,"masculinidad":75,"pct_menor20":22,"pct_60mas":33,"pct_migrante":14,"dependencia_econ":26,"pct_empleados":10,"pct_cuentapropia":68,"pct_agricultura":30,"pct_comercio":30,"pct_manufactura":10,"pct_construccion":12,"pct_transporte":2,"pct_alojamiento":10,"pct_sin_educacion":0,"pct_educ_superior":2,"brecha_educ":-17,"pct_sin_seguro":10,"pct_sus":84,"pct_seguro_privado":0,"brecha_seguro":10,"pct_salud_publica":34,"pct_med_tradicional":15,"pct_automedicacion":13,"pct_remedios_caseros":26,"pct_viv_desocupada":2,"pct_alquiler":5,"pct_electricidad":81,"pct_sin_electricidad":19,"pct_agua_red":95,"pct_alcantarillado":62,"pct_camara_septica":0,"pct_pozo_ciego":22,"pct_sin_desague":16,"pct_gas_red":0,"pct_gas_garrafa":84,"pct_lena_guano":84,"pct_basura_formal":49,"pct_basura_quema":32,"pct_basura_informal":22,"pct_internet":51,"pct_celular":81,"pct_televisor":27}},{"type":"Feature","geometry":{"type":"Polygon","coordinates":[[[-69.18917,-17.06822],[-69.18955,-17.0683],[-69.19003,-17.06802],[-69.18977,-17.06754],[-69.18901,-17.06803],[-69.18917,-17.06822]]]},"properties":{"n":"SANTIAGO DE MACHACA","p":23,"personas_x_ha":45,"masculinidad":77,"pct_menor20":52,"pct_60mas":17,"pct_migrante":4,"dependencia_econ":57,"pct_empleados":14,"pct_cuentapropia":79,"pct_agricultura":43,"pct_comercio":21,"pct_manufactura":0,"pct_construccion":21,"pct_transporte":7,"pct_alojamiento":7,"pct_sin_educacion":9,"pct_educ_superior":0,"brecha_educ":43,"pct_sin_seguro":14,"pct_sus":86,"pct_seguro_privado":0,"brecha_seguro":14,"pct_salud_publica":23,"pct_med_tradicional":16,"pct_automedicacion":19,"pct_remedios_caseros":33,"pct_viv_desocupada":0,"pct_alquiler":11,"pct_electricidad":89,"pct_sin_electricidad":11,"pct_agua_red":89,"pct_alcantarillado":33,"pct_camara_septica":0,"pct_pozo_ciego":0,"pct_sin_desague":67,"pct_gas_red":0,"pct_gas_garrafa":78,"pct_lena_guano":78,"pct_basura_formal":78,"pct_basura_quema":22,"pct_basura_informal":0,"pct_internet":67,"pct_celular":67,"pct_televisor":56}},{"type":"Feature","geometry":{"type":"Polygon","coordinates":[[[-69.19654,-17.06747],[-69.19591,-17.06743],[-69.19593,-17.06702],[-69.19678,-17.06708],[-69.19677,-17.06728],[-69.19656,-17.06727],[-69.19654,-17.06747]]]},"properties":{"n":"SANTIAGO DE MACHACA","p":20,"personas_x_ha":54,"masculinidad":54,"pct_menor20":25,"pct_60mas":10,"pct_migrante":0,"dependencia_econ":43,"pct_empleados":14,"pct_cuentapropia":79,"pct_agricultura":7,"pct_comercio":50,"pct_manufactura":7,"pct_construccion":21,"pct_transporte":7,"pct_alojamiento":0,"pct_sin_educacion":0,"pct_educ_superior":40,"brecha_educ":28,"pct_sin_seguro":10,"pct_sus":85,"pct_seguro_privado":0,"brecha_seguro":7,"pct_salud_publica":30,"pct_med_tradicional":18,"pct_automedicacion":9,"pct_remedios_caseros":32,"pct_viv_desocupada":0,"pct_alquiler":8,"pct_electricidad":75,"pct_sin_electricidad":25,"pct_agua_red":75,"pct_alcantarillado":50,"pct_camara_septica":0,"pct_pozo_ciego":8,"pct_sin_desague":42,"pct_gas_red":0,"pct_gas_garrafa":83,"pct_lena_guano":83,"pct_basura_formal":8,"pct_basura_quema":42,"pct_basura_informal":33,"pct_internet":75,"pct_celular":92,"pct_televisor":58}},{"type":"Feature","geometry":{"type":"Polygon","coordinates":[[[-69.19258,-17.06634],[-69.19318,-17.06636],[-69.19319,-17.06679],[-69.19258,-17.0668],[-69.19258,-17.06634]]]},"properties":{"n":"SANTIAGO DE MACHACA","p":28,"personas_x_ha":85,"masculinidad":87,"pct_menor20":14,"pct_60mas":21,"pct_migrante":39,"dependencia_econ":30,"pct_empleados":5,"pct_cuentapropia":90,"pct_agricultura":25,"pct_comercio":15,"pct_manufactura":5,"pct_construccion":15,"pct_transporte":0,"pct_alojamiento":20,"pct_sin_educacion":0,"pct_educ_superior":14,"brecha_educ":-29,"pct_sin_seguro":19,"pct_sus":69,"pct_seguro_privado":0,"brecha_seguro":-2,"pct_salud_publica":27,"pct_med_tradicional":17,"pct_automedicacion":15,"pct_remedios_caseros":23,"pct_viv_desocupada":3,"pct_alquiler":12,"pct_electricidad":94,"pct_sin_electricidad":6,"pct_agua_red":88,"pct_alcantarillado":69,"pct_camara_septica":0,"pct_pozo_ciego":0,"pct_sin_desague":19,"pct_gas_red":0,"pct_gas_garrafa":100,"pct_lena_guano":100,"pct_basura_formal":56,"pct_basura_quema":6,"pct_basura_informal":75,"pct_internet":69,"pct_celular":88,"pct_televisor":56}},{"type":"Feature","geometry":{"type":"Polygon","coordinates":[[[-69.19468,-17.06598],[-69.19394,-17.06592],[-69.19392,-17.06629],[-69.19469,-17.06632],[-69.19468,-17.06598]]]},"properties":{"n":"SANTIAGO DE MACHACA","p":15,"personas_x_ha":44,"masculinidad":88,"pct_menor20":20,"pct_60mas":27,"pct_migrante":13,"dependencia_econ":67,"pct_empleados":0,"pct_cuentapropia":78,"pct_agricultura":22,"pct_comercio":22,"pct_manufactura":33,"pct_construccion":0,"pct_transporte":0,"pct_alojamiento":11,"pct_sin_educacion":25,"pct_educ_superior":42,"brecha_educ":-37,"pct_sin_seguro":17,"pct_sus":67,"pct_seguro_privado":0,"brecha_seguro":6,"pct_salud_publica":18,"pct_med_tradicional":18,"pct_automedicacion":20,"pct_remedios_caseros":25,"pct_viv_desocupada":0,"pct_alquiler":0,"pct_electricidad":100,"pct_sin_electricidad":0,"pct_agua_red":100,"pct_alcantarillado":60,"pct_camara_septica":0,"pct_pozo_ciego":20,"pct_sin_desague":20,"pct_gas_red":0,"pct_gas_garrafa":100,"pct_lena_guano":100,"pct_basura_formal":20,"pct_basura_quema":40,"pct_basura_informal":40,"pct_internet":70,"pct_celular":80,"pct_televisor":40}},{"type":"Feature","geometry":{"type":"Polygon","coordinates":[[[-69.19121,-17.06568],[-69.19019,-17.06515],[-69.19002,-17.06512],[-69.19039,-17.06571],[-69.19121,-17.06568]]]},"properties":{"n":"SANTIAGO DE MACHACA","p":19,"personas_x_ha":53,"masculinidad":111,"pct_menor20":32,"pct_60mas":16,"pct_migrante":16,"dependencia_econ":167,"pct_empleados":17,"pct_cuentapropia":50,"pct_agricultura":17,"pct_comercio":17,"pct_manufactura":17,"pct_construccion":17,"pct_transporte":0,"pct_alojamiento":0,"pct_sin_educacion":0,"pct_educ_superior":45,"brecha_educ":14,"pct_sin_seguro":14,"pct_sus":86,"pct_seguro_privado":0,"brecha_seguro":22,"pct_salud_publica":54,"pct_med_tradicional":0,"pct_automedicacion":0,"pct_remedios_caseros":17,"pct_viv_desocupada":0,"pct_alquiler":14,"pct_electricidad":100,"pct_sin_electricidad":0,"pct_agua_red":86,"pct_alcantarillado":57,"pct_camara_septica":0,"pct_pozo_ciego":0,"pct_sin_desague":43,"pct_gas_red":0,"pct_gas_garrafa":100,"pct_lena_guano":100,"pct_basura_formal":0,"pct_basura_quema":100,"pct_basura_informal":0,"pct_internet":0,"pct_celular":43,"pct_televisor":29}},{"type":"Feature","geometry":{"type":"Polygon","coordinates":[[[-69.1958,-17.06532],[-69.19526,-17.06555],[-69.19527,-17.06596],[-69.19592,-17.06611],[-69.1958,-17.06532]]]},"properties":{"n":"SANTIAGO DE MACHACA","p":20,"personas_x_ha":46,"masculinidad":33,"pct_menor20":25,"pct_60mas":15,"pct_migrante":5,"dependencia_econ":150,"pct_empleados":25,"pct_cuentapropia":62,"pct_agricultura":50,"pct_comercio":12,"pct_manufactura":0,"pct_construccion":0,"pct_transporte":12,"pct_alojamiento":25,"pct_sin_educacion":6,"pct_educ_superior":0,"brecha_educ":-50,"pct_sin_seguro":20,"pct_sus":80,"pct_seguro_privado":0,"brecha_seguro":27,"pct_salud_publica":27,"pct_med_tradicional":18,"pct_automedicacion":19,"pct_remedios_caseros":21,"pct_viv_desocupada":0,"pct_alquiler":0,"pct_electricidad":77,"pct_sin_electricidad":23,"pct_agua_red":38,"pct_alcantarillado":8,"pct_camara_septica":8,"pct_pozo_ciego":8,"pct_sin_desague":77,"pct_gas_red":0,"pct_gas_garrafa":85,"pct_lena_guano":85,"pct_basura_formal":62,"pct_basura_quema":15,"pct_basura_informal":0,"pct_internet":77,"pct_celular":100,"pct_televisor":38}},{"type":"Feature","geometry":{"type":"Polygon","coordinates":[[[-69.19604,-17.06616],[-69.19773,-17.06657],[-69.19797,-17.06557],[-69.19702,-17.06527],[-69.19643,-17.06489],[-69.19615,-17.06488],[-69.19604,-17.06616]]]},"properties":{"n":"SANTIAGO DE MACHACA","p":19,"personas_x_ha":7,"masculinidad":58,"pct_menor20":11,"pct_60mas":32,"pct_migrante":11,"dependencia_econ":38,"pct_empleados":8,"pct_cuentapropia":92,"pct_agricultura":38,"pct_comercio":8,"pct_manufactura":31,"pct_construccion":8,"pct_transporte":0,"pct_alojamiento":8,"pct_sin_educacion":6,"pct_educ_superior":12,"brecha_educ":-35,"pct_sin_seguro":20,"pct_sus":73,"pct_seguro_privado":0,"brecha_seguro":30,"pct_salud_publica":38,"pct_med_tradicional":14,"pct_automedicacion":14,"pct_remedios_caseros":30,"pct_viv_desocupada":19,"pct_alquiler":0,"pct_electricidad":85,"pct_sin_electricidad":15,"pct_agua_red":85,"pct_alcantarillado":15,"pct_camara_septica":0,"pct_pozo_ciego":8,"pct_sin_desague":77,"pct_gas_red":0,"pct_gas_garrafa":69,"pct_lena_guano":69,"pct_basura_formal":8,"pct_basura_quema":85,"pct_basura_informal":0,"pct_internet":23,"pct_celular":77,"pct_televisor":15}},{"type":"Feature","geometry":{"type":"Polygon","coordinates":[[[-69.18943,-17.06583],[-69.18971,-17.0664],[-69.18855,-17.06648],[-69.18858,-17.06588],[-69.18943,-17.06583]]]},"properties":{"n":"SANTIAGO DE MACHACA","p":20,"personas_x_ha":27,"masculinidad":82,"pct_menor20":50,"pct_60mas":15,"pct_migrante":5,"dependencia_econ":167,"pct_empleados":17,"pct_cuentapropia":67,"pct_agricultura":67,"pct_comercio":0,"pct_manufactura":17,"pct_construccion":17,"pct_transporte":0,"pct_alojamiento":0,"pct_sin_educacion":0,"pct_educ_superior":12,"brecha_educ":-60,"pct_sin_seguro":27,"pct_sus":73,"pct_seguro_privado":0,"brecha_seguro":-50,"pct_salud_publica":32,"pct_med_tradicional":16,"pct_automedicacion":16,"pct_remedios_caseros":24,"pct_viv_desocupada":0,"pct_alquiler":0,"pct_electricidad":50,"pct_sin_electricidad":50,"pct_agua_red":88,"pct_alcantarillado":25,"pct_camara_septica":0,"pct_pozo_ciego":0,"pct_sin_desague":75,"pct_gas_red":0,"pct_gas_garrafa":88,"pct_lena_guano":88,"pct_basura_formal":0,"pct_basura_quema":38,"pct_basura_informal":0,"pct_internet":50,"pct_celular":50,"pct_televisor":12}},{"type":"Feature","geometry":{"type":"Polygon","coordinates":[[[-69.19149,-17.06403],[-69.1909,-17.0642],[-69.18984,-17.06463],[-69.19005,-17.06484],[-69.19167,-17.06486],[-69.19167,-17.06401],[-69.19152,-17.06402],[-69.19158,-17.06459],[-69.19149,-17.06403]]]},"properties":{"n":"SANTIAGO DE MACHACA","p":44,"personas_x_ha":37,"masculinidad":132,"pct_menor20":34,"pct_60mas":11,"pct_migrante":20,"dependencia_econ":83,"pct_empleados":0,"pct_cuentapropia":75,"pct_agricultura":17,"pct_comercio":38,"pct_manufactura":4,"pct_construccion":8,"pct_transporte":21,"pct_alojamiento":0,"pct_sin_educacion":3,"pct_educ_superior":31,"brecha_educ":-16,"pct_sin_seguro":11,"pct_sus":84,"pct_seguro_privado":0,"brecha_seguro":11,"pct_salud_publica":34,"pct_med_tradicional":19,"pct_automedicacion":16,"pct_remedios_caseros":23,"pct_viv_desocupada":0,"pct_alquiler":5,"pct_electricidad":67,"pct_sin_electricidad":33,"pct_agua_red":62,"pct_alcantarillado":43,"pct_camara_septica":0,"pct_pozo_ciego":5,"pct_sin_desague":52,"pct_gas_red":0,"pct_gas_garrafa":71,"pct_lena_guano":71,"pct_basura_formal":29,"pct_basura_quema":19,"pct_basura_informal":19,"pct_internet":67,"pct_celular":90,"pct_televisor":43}},{"type":"Feature","geometry":{"type":"Polygon","coordinates":[[[-69.19384,-17.0658],[-69.19328,-17.0658],[-69.19328,-17.06538],[-69.19361,-17.0654],[-69.19355,-17.06529],[-69.19328,-17.06537],[-69.19329,-17.06492],[-69.19386,-17.06494],[-69.19384,-17.0658]]]},"properties":{"n":"SANTIAGO DE MACHACA","p":60,"personas_x_ha":102,"masculinidad":100,"pct_menor20":37,"pct_60mas":27,"pct_migrante":12,"dependencia_econ":82,"pct_empleados":3,"pct_cuentapropia":79,"pct_agricultura":48,"pct_comercio":12,"pct_manufactura":18,"pct_construccion":6,"pct_transporte":0,"pct_alojamiento":3,"pct_sin_educacion":5,"pct_educ_superior":10,"brecha_educ":-30,"pct_sin_seguro":12,"pct_sus":87,"pct_seguro_privado":0,"brecha_seguro":-3,"pct_salud_publica":24,"pct_med_tradicional":16,"pct_automedicacion":18,"pct_remedios_caseros":29,"pct_viv_desocupada":3,"pct_alquiler":0,"pct_electricidad":77,"pct_sin_electricidad":19,"pct_agua_red":74,"pct_alcantarillado":55,"pct_camara_septica":3,"pct_pozo_ciego":0,"pct_sin_desague":42,"pct_gas_red":0,"pct_gas_garrafa":81,"pct_lena_guano":84,"pct_basura_formal":42,"pct_basura_quema":16,"pct_basura_informal":0,"pct_internet":48,"pct_celular":74,"pct_televisor":29}},{"type":"Feature","geometry":{"type":"Polygon","coordinates":[[[-69.19386,-17.06417],[-69.19366,-17.06418],[-69.19364,-17.06453],[-69.19369,-17.06418],[-69.19386,-17.06419],[-69.19386,-17.06485],[-69.19328,-17.06486],[-69.19327,-17.06387],[-69.19385,-17.06386],[-69.19386,-17.06417]]]},"properties":{"n":"SANTIAGO DE MACHACA","p":29,"personas_x_ha":43,"masculinidad":53,"pct_menor20":24,"pct_60mas":34,"pct_migrante":28,"dependencia_econ":56,"pct_empleados":11,"pct_cuentapropia":44,"pct_agricultura":50,"pct_comercio":17,"pct_manufactura":6,"pct_construccion":11,"pct_transporte":0,"pct_alojamiento":11,"pct_sin_educacion":0,"pct_educ_superior":5,"brecha_educ":-7,"pct_sin_seguro":11,"pct_sus":86,"pct_seguro_privado":0,"brecha_seguro":-17,"pct_salud_publica":25,"pct_med_tradicional":7,"pct_automedicacion":25,"pct_remedios_caseros":33,"pct_viv_desocupada":0,"pct_alquiler":0,"pct_electricidad":72,"pct_sin_electricidad":22,"pct_agua_red":61,"pct_alcantarillado":33,"pct_camara_septica":0,"pct_pozo_ciego":6,"pct_sin_desague":61,"pct_gas_red":0,"pct_gas_garrafa":67,"pct_lena_guano":67,"pct_basura_formal":28,"pct_basura_quema":39,"pct_basura_informal":0,"pct_internet":44,"pct_celular":94,"pct_televisor":11}},{"type":"Feature","geometry":{"type":"Polygon","coordinates":[[[-69.19249,-17.06484],[-69.19241,-17.06396],[-69.19317,-17.0639],[-69.19321,-17.06485],[-69.19249,-17.06484]]]},"properties":{"n":"SANTIAGO DE MACHACA","p":33,"personas_x_ha":40,"masculinidad":94,"pct_menor20":18,"pct_60mas":39,"pct_migrante":33,"dependencia_econ":63,"pct_empleados":16,"pct_cuentapropia":68,"pct_agricultura":37,"pct_comercio":16,"pct_manufactura":11,"pct_construccion":16,"pct_transporte":0,"pct_alojamiento":0,"pct_sin_educacion":7,"pct_educ_superior":30,"brecha_educ":-38,"pct_sin_seguro":14,"pct_sus":72,"pct_seguro_privado":0,"brecha_seguro":31,"pct_salud_publica":31,"pct_med_tradicional":14,"pct_automedicacion":7,"pct_remedios_caseros":21,"pct_viv_desocupada":6,"pct_alquiler":0,"pct_electricidad":90,"pct_sin_electricidad":10,"pct_agua_red":95,"pct_alcantarillado":65,"pct_camara_septica":0,"pct_pozo_ciego":5,"pct_sin_desague":30,"pct_gas_red":0,"pct_gas_garrafa":95,"pct_lena_guano":95,"pct_basura_formal":75,"pct_basura_quema":10,"pct_basura_informal":20,"pct_internet":30,"pct_celular":60,"pct_televisor":45}},{"type":"Feature","geometry":{"type":"Polygon","coordinates":[[[-69.19518,-17.06588],[-69.19515,-17.0649],[-69.19465,-17.0649],[-69.19473,-17.06588],[-69.19518,-17.06588]]]},"properties":{"n":"SANTIAGO DE MACHACA","p":21,"personas_x_ha":37,"masculinidad":40,"pct_menor20":48,"pct_60mas":14,"pct_migrante":0,"dependencia_econ":75,"pct_empleados":0,"pct_cuentapropia":67,"pct_agricultura":50,"pct_comercio":33,"pct_manufactura":8,"pct_construccion":0,"pct_transporte":0,"pct_alojamiento":0,"pct_sin_educacion":23,"pct_educ_superior":0,"brecha_educ":-30,"pct_sin_seguro":10,"pct_sus":90,"pct_seguro_privado":0,"brecha_seguro":-13,"pct_salud_publica":32,"pct_med_tradicional":17,"pct_automedicacion":12,"pct_remedios_caseros":32,"pct_viv_desocupada":7,"pct_alquiler":0,"pct_electricidad":91,"pct_sin_electricidad":9,"pct_agua_red":64,"pct_alcantarillado":36,"pct_camara_septica":0,"pct_pozo_ciego":0,"pct_sin_desague":64,"pct_gas_red":0,"pct_gas_garrafa":91,"pct_lena_guano":91,"pct_basura_formal":36,"pct_basura_quema":18,"pct_basura_informal":18,"pct_internet":73,"pct_celular":82,"pct_televisor":64}},{"type":"Feature","geometry":{"type":"Polygon","coordinates":[[[-69.19171,-17.06626],[-69.19169,-17.06577],[-69.19046,-17.06581],[-69.1908,-17.06633],[-69.19171,-17.06626]]]},"properties":{"n":"SANTIAGO DE MACHACA","p":35,"personas_x_ha":50,"masculinidad":169,"pct_menor20":26,"pct_60mas":29,"pct_migrante":34,"dependencia_econ":40,"pct_empleados":28,"pct_cuentapropia":68,"pct_agricultura":28,"pct_comercio":12,"pct_manufactura":4,"pct_construccion":20,"pct_transporte":12,"pct_alojamiento":8,"pct_sin_educacion":0,"pct_educ_superior":22,"brecha_educ":-34,"pct_sin_seguro":14,"pct_sus":74,"pct_seguro_privado":0,"brecha_seguro":10,"pct_salud_publica":32,"pct_med_tradicional":10,"pct_automedicacion":22,"pct_remedios_caseros":24,"pct_viv_desocupada":0,"pct_alquiler":0,"pct_electricidad":92,"pct_sin_electricidad":8,"pct_agua_red":83,"pct_alcantarillado":42,"pct_camara_septica":4,"pct_pozo_ciego":4,"pct_sin_desague":50,"pct_gas_red":0,"pct_gas_garrafa":92,"pct_lena_guano":92,"pct_basura_formal":33,"pct_basura_quema":21,"pct_basura_informal":8,"pct_internet":62,"pct_celular":100,"pct_televisor":54}},{"type":"Feature","geometry":{"type":"Polygon","coordinates":[[[-69.19144,-17.06566],[-69.1903,-17.06507],[-69.1903,-17.06491],[-69.19166,-17.06492],[-69.19167,-17.06569],[-69.19144,-17.06566]]]},"properties":{"n":"SANTIAGO DE MACHACA","p":37,"personas_x_ha":46,"masculinidad":95,"pct_menor20":27,"pct_60mas":11,"pct_migrante":27,"dependencia_econ":42,"pct_empleados":4,"pct_cuentapropia":50,"pct_agricultura":77,"pct_comercio":12,"pct_manufactura":0,"pct_construccion":0,"pct_transporte":0,"pct_alojamiento":0,"pct_sin_educacion":0,"pct_educ_superior":36,"brecha_educ":-27,"pct_sin_seguro":14,"pct_sus":78,"pct_seguro_privado":0,"brecha_seguro":-26,"pct_salud_publica":35,"pct_med_tradicional":15,"pct_automedicacion":12,"pct_remedios_caseros":30,"pct_viv_desocupada":2,"pct_alquiler":0,"pct_electricidad":84,"pct_sin_electricidad":16,"pct_agua_red":84,"pct_alcantarillado":60,"pct_camara_septica":4,"pct_pozo_ciego":12,"pct_sin_desague":24,"pct_gas_red":0,"pct_gas_garrafa":88,"pct_lena_guano":88,"pct_basura_formal":0,"pct_basura_quema":44,"pct_basura_informal":0,"pct_internet":84,"pct_celular":92,"pct_televisor":28}},{"type":"Feature","geometry":{"type":"Polygon","coordinates":[[[-69.19686,-17.0665],[-69.19601,-17.06639],[-69.19594,-17.06693],[-69.1968,-17.067],[-69.19686,-17.0665]]]},"properties":{"n":"SANTIAGO DE MACHACA","p":22,"personas_x_ha":38,"masculinidad":120,"pct_menor20":27,"pct_60mas":14,"pct_migrante":41,"dependencia_econ":38,"pct_empleados":31,"pct_cuentapropia":69,"pct_agricultura":0,"pct_comercio":12,"pct_manufactura":25,"pct_construccion":6,"pct_transporte":12,"pct_alojamiento":12,"pct_sin_educacion":0,"pct_educ_superior":50,"brecha_educ":-12,"pct_sin_seguro":9,"pct_sus":45,"pct_seguro_privado":0,"brecha_seguro":-2,"pct_salud_publica":15,"pct_med_tradicional":18,"pct_automedicacion":21,"pct_remedios_caseros":22,"pct_viv_desocupada":31,"pct_alquiler":0,"pct_electricidad":88,"pct_sin_electricidad":12,"pct_agua_red":75,"pct_alcantarillado":12,"pct_camara_septica":0,"pct_pozo_ciego":50,"pct_sin_desague":38,"pct_gas_red":0,"pct_gas_garrafa":88,"pct_lena_guano":88,"pct_basura_formal":75,"pct_basura_quema":25,"pct_basura_informal":0,"pct_internet":100,"pct_celular":100,"pct_televisor":88}},{"type":"Feature","geometry":{"type":"Polygon","coordinates":[[[-69.1953,-17.06639],[-69.19528,-17.06689],[-69.19583,-17.06693],[-69.19587,-17.0664],[-69.1953,-17.06639]]]},"properties":{"n":"SANTIAGO DE MACHACA","p":29,"personas_x_ha":79,"masculinidad":26,"pct_menor20":38,"pct_60mas":10,"pct_migrante":21,"dependencia_econ":53,"pct_empleados":16,"pct_cuentapropia":68,"pct_agricultura":42,"pct_comercio":26,"pct_manufactura":16,"pct_construccion":5,"pct_transporte":0,"pct_alojamiento":0,"pct_sin_educacion":0,"pct_educ_superior":21,"brecha_educ":-38,"pct_sin_seguro":10,"pct_sus":90,"pct_seguro_privado":0,"brecha_seguro":8,"pct_salud_publica":27,"pct_med_tradicional":18,"pct_automedicacion":20,"pct_remedios_caseros":25,"pct_viv_desocupada":0,"pct_alquiler":17,"pct_electricidad":100,"pct_sin_electricidad":0,"pct_agua_red":75,"pct_alcantarillado":83,"pct_camara_septica":0,"pct_pozo_ciego":17,"pct_sin_desague":0,"pct_gas_red":0,"pct_gas_garrafa":100,"pct_lena_guano":100,"pct_basura_formal":58,"pct_basura_quema":8,"pct_basura_informal":17,"pct_internet":50,"pct_celular":92,"pct_televisor":75}},{"type":"Feature","geometry":{"type":"Polygon","coordinates":[[[-69.19259,-17.06575],[-69.19321,-17.06578],[-69.19321,-17.06491],[-69.19251,-17.06493],[-69.19259,-17.06575]]]},"properties":{"n":"SANTIAGO DE MACHACA","p":57,"personas_x_ha":84,"masculinidad":78,"pct_menor20":16,"pct_60mas":35,"pct_migrante":19,"dependencia_econ":73,"pct_empleados":12,"pct_cuentapropia":82,"pct_agricultura":48,"pct_comercio":15,"pct_manufactura":3,"pct_construccion":9,"pct_transporte":3,"pct_alojamiento":12,"pct_sin_educacion":0,"pct_educ_superior":8,"brecha_educ":-25,"pct_sin_seguro":36,"pct_sus":60,"pct_seguro_privado":0,"brecha_seguro":3,"pct_salud_publica":26,"pct_med_tradicional":19,"pct_automedicacion":17,"pct_remedios_caseros":26,"pct_viv_desocupada":12,"pct_alquiler":23,"pct_electricidad":83,"pct_sin_electricidad":17,"pct_agua_red":54,"pct_alcantarillado":46,"pct_camara_septica":6,"pct_pozo_ciego":31,"pct_sin_desague":17,"pct_gas_red":0,"pct_gas_garrafa":94,"pct_lena_guano":94,"pct_basura_formal":40,"pct_basura_quema":23,"pct_basura_informal":17,"pct_internet":57,"pct_celular":89,"pct_televisor":54}},{"type":"Feature","geometry":{"type":"Polygon","coordinates":[[[-69.19178,-17.06573],[-69.19247,-17.06576],[-69.19241,-17.06493],[-69.19176,-17.06496],[-69.19178,-17.06573]]]},"properties":{"n":"SANTIAGO DE MACHACA","p":47,"personas_x_ha":70,"masculinidad":52,"pct_menor20":23,"pct_60mas":28,"pct_migrante":32,"dependencia_econ":44,"pct_empleados":12,"pct_cuentapropia":78,"pct_agricultura":44,"pct_comercio":31,"pct_manufactura":6,"pct_construccion":0,"pct_transporte":6,"pct_alojamiento":9,"pct_sin_educacion":5,"pct_educ_superior":21,"brecha_educ":-17,"pct_sin_seguro":16,"pct_sus":75,"pct_seguro_privado":5,"brecha_seguro":6,"pct_salud_publica":24,"pct_med_tradicional":17,"pct_automedicacion":17,"pct_remedios_caseros":28,"pct_viv_desocupada":0,"pct_alquiler":6,"pct_electricidad":91,"pct_sin_electricidad":9,"pct_agua_red":94,"pct_alcantarillado":50,"pct_camara_septica":3,"pct_pozo_ciego":15,"pct_sin_desague":32,"pct_gas_red":0,"pct_gas_garrafa":85,"pct_lena_guano":85,"pct_basura_formal":38,"pct_basura_quema":15,"pct_basura_informal":53,"pct_internet":38,"pct_celular":94,"pct_televisor":50}},{"type":"Feature","geometry":{"type":"Polygon","coordinates":[[[-69.19035,-17.06581],[-69.18957,-17.06583],[-69.18955,-17.06585],[-69.18984,-17.06638],[-69.19064,-17.06632],[-69.19035,-17.06581]]]},"properties":{"n":"SANTIAGO DE MACHACA","p":34,"personas_x_ha":64,"masculinidad":42,"pct_menor20":21,"pct_60mas":26,"pct_migrante":0,"dependencia_econ":48,"pct_empleados":13,"pct_cuentapropia":65,"pct_agricultura":52,"pct_comercio":13,"pct_manufactura":13,"pct_construccion":9,"pct_transporte":0,"pct_alojamiento":13,"pct_sin_educacion":0,"pct_educ_superior":7,"brecha_educ":-3,"pct_sin_seguro":12,"pct_sus":85,"pct_seguro_privado":0,"brecha_seguro":12,"pct_salud_publica":31,"pct_med_tradicional":15,"pct_automedicacion":18,"pct_remedios_caseros":29,"pct_viv_desocupada":5,"pct_alquiler":0,"pct_electricidad":80,"pct_sin_electricidad":20,"pct_agua_red":80,"pct_alcantarillado":50,"pct_camara_septica":20,"pct_pozo_ciego":10,"pct_sin_desague":20,"pct_gas_red":0,"pct_gas_garrafa":100,"pct_lena_guano":100,"pct_basura_formal":30,"pct_basura_quema":40,"pct_basura_informal":0,"pct_internet":30,"pct_celular":80,"pct_televisor":20}},{"type":"Feature","geometry":{"type":"Polygon","coordinates":[[[-69.19565,-17.06896],[-69.19536,-17.06841],[-69.19486,-17.06742],[-69.19581,-17.0675],[-69.19572,-17.06893],[-69.19565,-17.06896]]]},"properties":{"n":"SANTIAGO DE MACHACA","p":34,"personas_x_ha":39,"masculinidad":62,"pct_menor20":29,"pct_60mas":15,"pct_migrante":18,"dependencia_econ":100,"pct_empleados":18,"pct_cuentapropia":71,"pct_agricultura":29,"pct_comercio":24,"pct_manufactura":6,"pct_construccion":18,"pct_transporte":0,"pct_alojamiento":6,"pct_sin_educacion":20,"pct_educ_superior":24,"brecha_educ":-10,"pct_sin_seguro":3,"pct_sus":91,"pct_seguro_privado":6,"brecha_seguro":-5,"pct_salud_publica":26,"pct_med_tradicional":15,"pct_automedicacion":20,"pct_remedios_caseros":23,"pct_viv_desocupada":0,"pct_alquiler":0,"pct_electricidad":93,"pct_sin_electricidad":7,"pct_agua_red":100,"pct_alcantarillado":43,"pct_camara_septica":7,"pct_pozo_ciego":36,"pct_sin_desague":14,"pct_gas_red":0,"pct_gas_garrafa":93,"pct_lena_guano":93,"pct_basura_formal":71,"pct_basura_quema":29,"pct_basura_informal":0,"pct_internet":79,"pct_celular":100,"pct_televisor":71}},{"type":"Feature","geometry":{"type":"Polygon","coordinates":[[[-69.19338,-17.06685],[-69.19324,-17.0669],[-69.19328,-17.06774],[-69.19343,-17.06795],[-69.19357,-17.06787],[-69.19338,-17.06685]]]},"properties":{"n":"SANTIAGO DE MACHACA","p":19,"personas_x_ha":69,"masculinidad":12,"pct_menor20":26,"pct_60mas":21,"pct_migrante":21,"dependencia_econ":111,"pct_empleados":11,"pct_cuentapropia":78,"pct_agricultura":44,"pct_comercio":33,"pct_manufactura":11,"pct_construccion":0,"pct_transporte":0,"pct_alojamiento":11,"pct_sin_educacion":0,"pct_educ_superior":14,"brecha_educ":-46,"pct_sin_seguro":16,"pct_sus":84,"pct_seguro_privado":0,"brecha_seguro":38,"pct_salud_publica":28,"pct_med_tradicional":13,"pct_automedicacion":17,"pct_remedios_caseros":28,"pct_viv_desocupada":0,"pct_alquiler":0,"pct_electricidad":77,"pct_sin_electricidad":15,"pct_agua_red":69,"pct_alcantarillado":38,"pct_camara_septica":0,"pct_pozo_ciego":8,"pct_sin_desague":54,"pct_gas_red":0,"pct_gas_garrafa":85,"pct_lena_guano":85,"pct_basura_formal":8,"pct_basura_quema":46,"pct_basura_informal":92,"pct_internet":38,"pct_celular":62,"pct_televisor":15}},{"type":"Feature","geometry":{"type":"Polygon","coordinates":[[[-69.19428,-17.06689],[-69.19394,-17.06686],[-69.19394,-17.06773],[-69.1943,-17.06756],[-69.19428,-17.06689]]]},"properties":{"n":"SANTIAGO DE MACHACA","p":36,"personas_x_ha":104,"masculinidad":112,"pct_menor20":31,"pct_60mas":17,"pct_migrante":8,"dependencia_econ":67,"pct_empleados":24,"pct_cuentapropia":57,"pct_agricultura":38,"pct_comercio":14,"pct_manufactura":14,"pct_construccion":10,"pct_transporte":0,"pct_alojamiento":0,"pct_sin_educacion":0,"pct_educ_superior":32,"brecha_educ":10,"pct_sin_seguro":9,"pct_sus":86,"pct_seguro_privado":0,"brecha_seguro":4,"pct_salud_publica":22,"pct_med_tradicional":21,"pct_automedicacion":18,"pct_remedios_caseros":28,"pct_viv_desocupada":3,"pct_alquiler":5,"pct_electricidad":100,"pct_sin_electricidad":0,"pct_agua_red":90,"pct_alcantarillado":70,"pct_camara_septica":0,"pct_pozo_ciego":10,"pct_sin_desague":20,"pct_gas_red":0,"pct_gas_garrafa":85,"pct_lena_guano":85,"pct_basura_formal":45,"pct_basura_quema":30,"pct_basura_informal":20,"pct_internet":55,"pct_celular":90,"pct_televisor":50}},{"type":"Feature","geometry":{"type":"Polygon","coordinates":[[[-69.19286,-17.06795],[-69.19261,-17.06686],[-69.19317,-17.06686],[-69.1932,-17.06792],[-69.19286,-17.06795]]]},"properties":{"n":"SANTIAGO DE MACHACA","p":33,"personas_x_ha":56,"masculinidad":154,"pct_menor20":21,"pct_60mas":27,"pct_migrante":12,"dependencia_econ":27,"pct_empleados":12,"pct_cuentapropia":69,"pct_agricultura":31,"pct_comercio":12,"pct_manufactura":12,"pct_construccion":8,"pct_transporte":12,"pct_alojamiento":15,"pct_sin_educacion":8,"pct_educ_superior":8,"brecha_educ":-46,"pct_sin_seguro":19,"pct_sus":75,"pct_seguro_privado":0,"brecha_seguro":-7,"pct_salud_publica":39,"pct_med_tradicional":8,"pct_automedicacion":19,"pct_remedios_caseros":24,"pct_viv_desocupada":0,"pct_alquiler":4,"pct_electricidad":57,"pct_sin_electricidad":35,"pct_agua_red":65,"pct_alcantarillado":48,"pct_camara_septica":0,"pct_pozo_ciego":13,"pct_sin_desague":39,"pct_gas_red":0,"pct_gas_garrafa":74,"pct_lena_guano":74,"pct_basura_formal":39,"pct_basura_quema":39,"pct_basura_informal":0,"pct_internet":43,"pct_celular":65,"pct_televisor":26}},{"type":"Feature","geometry":{"type":"Polygon","coordinates":[[[-69.19098,-17.06807],[-69.1912,-17.06846],[-69.1919,-17.06821],[-69.19156,-17.06772],[-69.19098,-17.06807]]]},"properties":{"n":"SANTIAGO DE MACHACA","p":31,"personas_x_ha":68,"masculinidad":121,"pct_menor20":23,"pct_60mas":29,"pct_migrante":16,"dependencia_econ":43,"pct_empleados":19,"pct_cuentapropia":48,"pct_agricultura":43,"pct_comercio":10,"pct_manufactura":5,"pct_construccion":29,"pct_transporte":0,"pct_alojamiento":0,"pct_sin_educacion":17,"pct_educ_superior":4,"brecha_educ":-24,"pct_sin_seguro":3,"pct_sus":83,"pct_seguro_privado":0,"brecha_seguro":-7,"pct_salud_publica":27,"pct_med_tradicional":16,"pct_automedicacion":17,"pct_remedios_caseros":23,"pct_viv_desocupada":0,"pct_alquiler":5,"pct_electricidad":80,"pct_sin_electricidad":20,"pct_agua_red":80,"pct_alcantarillado":45,"pct_camara_septica":0,"pct_pozo_ciego":15,"pct_sin_desague":40,"pct_gas_red":0,"pct_gas_garrafa":95,"pct_lena_guano":95,"pct_basura_formal":20,"pct_basura_quema":40,"pct_basura_informal":60,"pct_internet":70,"pct_celular":85,"pct_televisor":35}},{"type":"Feature","geometry":{"type":"Polygon","coordinates":[[[-69.19151,-17.06679],[-69.19146,-17.06635],[-69.19083,-17.06641],[-69.19111,-17.06684],[-69.19151,-17.06679]]]},"properties":{"n":"SANTIAGO DE MACHACA","p":21,"personas_x_ha":71,"masculinidad":110,"pct_menor20":19,"pct_60mas":52,"pct_migrante":10,"dependencia_econ":54,"pct_empleados":15,"pct_cuentapropia":38,"pct_agricultura":46,"pct_comercio":31,"pct_manufactura":0,"pct_construccion":0,"pct_transporte":0,"pct_alojamiento":0,"pct_sin_educacion":0,"pct_educ_superior":25,"brecha_educ":-5,"pct_sin_seguro":15,"pct_sus":80,"pct_seguro_privado":0,"brecha_seguro":30,"pct_salud_publica":41,"pct_med_tradicional":10,"pct_automedicacion":2,"pct_remedios_caseros":29,"pct_viv_desocupada":0,"pct_alquiler":0,"pct_electricidad":92,"pct_sin_electricidad":8,"pct_agua_red":85,"pct_alcantarillado":69,"pct_camara_septica":0,"pct_pozo_ciego":8,"pct_sin_desague":23,"pct_gas_red":0,"pct_gas_garrafa":100,"pct_lena_guano":100,"pct_basura_formal":38,"pct_basura_quema":23,"pct_basura_informal":0,"pct_internet":54,"pct_celular":77,"pct_televisor":23}},{"type":"Feature","geometry":{"type":"Polygon","coordinates":[[[-69.19235,-17.06861],[-69.19224,-17.0682],[-69.19281,-17.0681],[-69.19289,-17.06846],[-69.19235,-17.06861]]]},"properties":{"n":"SANTIAGO DE MACHACA","p":22,"personas_x_ha":79,"masculinidad":29,"pct_menor20":9,"pct_60mas":5,"pct_migrante":14,"dependencia_econ":11,"pct_empleados":6,"pct_cuentapropia":72,"pct_agricultura":50,"pct_comercio":28,"pct_manufactura":11,"pct_construccion":0,"pct_transporte":0,"pct_alojamiento":0,"pct_sin_educacion":6,"pct_educ_superior":28,"brecha_educ":32,"pct_sin_seguro":0,"pct_sus":95,"pct_seguro_privado":0,"brecha_seguro":0,"pct_salud_publica":28,"pct_med_tradicional":11,"pct_automedicacion":20,"pct_remedios_caseros":30,"pct_viv_desocupada":0,"pct_alquiler":8,"pct_electricidad":85,"pct_sin_electricidad":15,"pct_agua_red":85,"pct_alcantarillado":54,"pct_camara_septica":0,"pct_pozo_ciego":38,"pct_sin_desague":8,"pct_gas_red":0,"pct_gas_garrafa":77,"pct_lena_guano":77,"pct_basura_formal":0,"pct_basura_quema":54,"pct_basura_informal":15,"pct_internet":85,"pct_celular":77,"pct_televisor":69}},{"type":"Feature","geometry":{"type":"Polygon","coordinates":[[[-69.1899,-17.06653],[-69.19025,-17.06705],[-69.19066,-17.06679],[-69.19073,-17.06687],[-69.1909,-17.06677],[-69.19071,-17.06641],[-69.1899,-17.06653]]]},"properties":{"n":"SANTIAGO DE MACHACA","p":21,"personas_x_ha":46,"masculinidad":62,"pct_menor20":24,"pct_60mas":33,"pct_migrante":38,"dependencia_econ":40,"pct_empleados":47,"pct_cuentapropia":53,"pct_agricultura":27,"pct_comercio":13,"pct_manufactura":7,"pct_construccion":7,"pct_transporte":7,"pct_alojamiento":7,"pct_sin_educacion":6,"pct_educ_superior":41,"brecha_educ":-29,"pct_sin_seguro":10,"pct_sus":52,"pct_seguro_privado":10,"brecha_seguro":25,"pct_salud_publica":17,"pct_med_tradicional":18,"pct_automedicacion":22,"pct_remedios_caseros":26,"pct_viv_desocupada":0,"pct_alquiler":0,"pct_electricidad":100,"pct_sin_electricidad":0,"pct_agua_red":73,"pct_alcantarillado":73,"pct_camara_septica":0,"pct_pozo_ciego":7,"pct_sin_desague":20,"pct_gas_red":0,"pct_gas_garrafa":100,"pct_lena_guano":100,"pct_basura_formal":13,"pct_basura_quema":20,"pct_basura_informal":13,"pct_internet":67,"pct_celular":100,"pct_televisor":40}},{"type":"Feature","geometry":{"type":"Polygon","coordinates":[[[-69.19395,-17.06385],[-69.19395,-17.06486],[-69.19455,-17.06484],[-69.19448,-17.06383],[-69.19395,-17.06385]]]},"properties":{"n":"SANTIAGO DE MACHACA","p":31,"personas_x_ha":44,"masculinidad":121,"pct_menor20":26,"pct_60mas":6,"pct_migrante":19,"dependencia_econ":55,"pct_empleados":10,"pct_cuentapropia":80,"pct_agricultura":45,"pct_comercio":15,"pct_manufactura":15,"pct_construccion":5,"pct_transporte":15,"pct_alojamiento":0,"pct_sin_educacion":0,"pct_educ_superior":17,"brecha_educ":-15,"pct_sin_seguro":16,"pct_sus":84,"pct_seguro_privado":0,"brecha_seguro":3,"pct_salud_publica":26,"pct_med_tradicional":19,"pct_automedicacion":13,"pct_remedios_caseros":29,"pct_viv_desocupada":32,"pct_alquiler":17,"pct_electricidad":83,"pct_sin_electricidad":11,"pct_agua_red":94,"pct_alcantarillado":33,"pct_camara_septica":0,"pct_pozo_ciego":11,"pct_sin_desague":56,"pct_gas_red":0,"pct_gas_garrafa":94,"pct_lena_guano":94,"pct_basura_formal":33,"pct_basura_quema":28,"pct_basura_informal":56,"pct_internet":50,"pct_celular":89,"pct_televisor":56}},{"type":"Feature","geometry":{"type":"Polygon","coordinates":[[[-69.19016,-17.06713],[-69.18981,-17.0665],[-69.1893,-17.06654],[-69.18975,-17.06738],[-69.19016,-17.06713]]]},"properties":{"n":"SANTIAGO DE MACHACA","p":35,"personas_x_ha":73,"masculinidad":119,"pct_menor20":40,"pct_60mas":23,"pct_migrante":29,"dependencia_econ":59,"pct_empleados":32,"pct_cuentapropia":50,"pct_agricultura":36,"pct_comercio":18,"pct_manufactura":9,"pct_construccion":9,"pct_transporte":14,"pct_alojamiento":5,"pct_sin_educacion":18,"pct_educ_superior":32,"brecha_educ":-23,"pct_sin_seguro":24,"pct_sus":47,"pct_seguro_privado":0,"brecha_seguro":-15,"pct_salud_publica":15,"pct_med_tradicional":22,"pct_automedicacion":18,"pct_remedios_caseros":26,"pct_viv_desocupada":0,"pct_alquiler":0,"pct_electricidad":88,"pct_sin_electricidad":12,"pct_agua_red":100,"pct_alcantarillado":50,"pct_camara_septica":6,"pct_pozo_ciego":31,"pct_sin_desague":12,"pct_gas_red":0,"pct_gas_garrafa":100,"pct_lena_guano":100,"pct_basura_formal":6,"pct_basura_quema":44,"pct_basura_informal":12,"pct_internet":88,"pct_celular":88,"pct_televisor":25}},{"type":"Feature","geometry":{"type":"Polygon","coordinates":[[[-69.19605,-17.06879],[-69.19636,-17.06757],[-69.19591,-17.06752],[-69.19582,-17.06877],[-69.19605,-17.06879]]]},"properties":{"n":"SANTIAGO DE MACHACA","p":46,"personas_x_ha":88,"masculinidad":59,"pct_menor20":59,"pct_60mas":4,"pct_migrante":30,"dependencia_econ":130,"pct_empleados":15,"pct_cuentapropia":70,"pct_agricultura":10,"pct_comercio":25,"pct_manufactura":10,"pct_construccion":25,"pct_transporte":15,"pct_alojamiento":5,"pct_sin_educacion":0,"pct_educ_superior":21,"brecha_educ":-13,"pct_sin_seguro":7,"pct_sus":91,"pct_seguro_privado":0,"brecha_seguro":18,"pct_salud_publica":22,"pct_med_tradicional":17,"pct_automedicacion":27,"pct_remedios_caseros":29,"pct_viv_desocupada":0,"pct_alquiler":0,"pct_electricidad":100,"pct_sin_electricidad":0,"pct_agua_red":93,"pct_alcantarillado":53,"pct_camara_septica":0,"pct_pozo_ciego":47,"pct_sin_desague":0,"pct_gas_red":0,"pct_gas_garrafa":100,"pct_lena_guano":100,"pct_basura_formal":13,"pct_basura_quema":20,"pct_basura_informal":93,"pct_internet":80,"pct_celular":87,"pct_televisor":67}},{"type":"Feature","geometry":{"type":"Polygon","coordinates":[[[-69.19471,-17.0664],[-69.19395,-17.06637],[-69.19393,-17.06678],[-69.19473,-17.06679],[-69.19471,-17.0664]]]},"properties":{"n":"SANTIAGO DE MACHACA","p":25,"personas_x_ha":64,"masculinidad":150,"pct_menor20":20,"pct_60mas":36,"pct_migrante":36,"dependencia_econ":56,"pct_empleados":19,"pct_cuentapropia":62,"pct_agricultura":19,"pct_comercio":31,"pct_manufactura":0,"pct_construccion":12,"pct_transporte":0,"pct_alojamiento":12,"pct_sin_educacion":15,"pct_educ_superior":30,"brecha_educ":-17,"pct_sin_seguro":0,"pct_sus":96,"pct_seguro_privado":0,"brecha_seguro":0,"pct_salud_publica":22,"pct_med_tradicional":13,"pct_automedicacion":23,"pct_remedios_caseros":26,"pct_viv_desocupada":0,"pct_alquiler":6,"pct_electricidad":94,"pct_sin_electricidad":6,"pct_agua_red":94,"pct_alcantarillado":71,"pct_camara_septica":0,"pct_pozo_ciego":18,"pct_sin_desague":6,"pct_gas_red":0,"pct_gas_garrafa":94,"pct_lena_guano":94,"pct_basura_formal":53,"pct_basura_quema":18,"pct_basura_informal":47,"pct_internet":59,"pct_celular":94,"pct_televisor":65}},{"type":"Feature","geometry":{"type":"Polygon","coordinates":[[[-69.19394,-17.06585],[-69.19465,-17.06588],[-69.19454,-17.06491],[-69.19394,-17.06495],[-69.19394,-17.06585]]]},"properties":{"n":"SANTIAGO DE MACHACA","p":35,"personas_x_ha":46,"masculinidad":169,"pct_menor20":26,"pct_60mas":17,"pct_migrante":20,"dependencia_econ":94,"pct_empleados":17,"pct_cuentapropia":67,"pct_agricultura":28,"pct_comercio":33,"pct_manufactura":6,"pct_construccion":11,"pct_transporte":0,"pct_alojamiento":0,"pct_sin_educacion":0,"pct_educ_superior":8,"brecha_educ":13,"pct_sin_seguro":16,"pct_sus":81,"pct_seguro_privado":0,"brecha_seguro":25,"pct_salud_publica":25,"pct_med_tradicional":20,"pct_automedicacion":18,"pct_remedios_caseros":29,"pct_viv_desocupada":7,"pct_alquiler":10,"pct_electricidad":85,"pct_sin_electricidad":15,"pct_agua_red":80,"pct_alcantarillado":45,"pct_camara_septica":0,"pct_pozo_ciego":10,"pct_sin_desague":45,"pct_gas_red":0,"pct_gas_garrafa":90,"pct_lena_guano":90,"pct_basura_formal":55,"pct_basura_quema":15,"pct_basura_informal":10,"pct_internet":60,"pct_celular":80,"pct_televisor":45}},{"type":"Feature","geometry":{"type":"Polygon","coordinates":[[[-69.19375,-17.06887],[-69.19391,-17.06919],[-69.19322,-17.06934],[-69.19315,-17.06901],[-69.19375,-17.06887]]]},"properties":{"n":"SANTIAGO DE MACHACA","p":27,"personas_x_ha":90,"masculinidad":80,"pct_menor20":44,"pct_60mas":7,"pct_migrante":22,"dependencia_econ":125,"pct_empleados":25,"pct_cuentapropia":50,"pct_agricultura":33,"pct_comercio":8,"pct_manufactura":17,"pct_construccion":25,"pct_transporte":8,"pct_alojamiento":0,"pct_sin_educacion":0,"pct_educ_superior":0,"brecha_educ":-50,"pct_sin_seguro":19,"pct_sus":81,"pct_seguro_privado":0,"brecha_seguro":-2,"pct_salud_publica":14,"pct_med_tradicional":26,"pct_automedicacion":26,"pct_remedios_caseros":33,"pct_viv_desocupada":0,"pct_alquiler":9,"pct_electricidad":82,"pct_sin_electricidad":18,"pct_agua_red":73,"pct_alcantarillado":55,"pct_camara_septica":0,"pct_pozo_ciego":9,"pct_sin_desague":36,"pct_gas_red":0,"pct_gas_garrafa":64,"pct_lena_guano":64,"pct_basura_formal":64,"pct_basura_quema":9,"pct_basura_informal":36,"pct_internet":73,"pct_celular":91,"pct_televisor":36}},{"type":"Feature","geometry":{"type":"Polygon","coordinates":[[[-69.19177,-17.06399],[-69.19177,-17.06487],[-69.19241,-17.06485],[-69.19231,-17.06397],[-69.19177,-17.06399]]]},"properties":{"n":"SANTIAGO DE MACHACA","p":32,"personas_x_ha":50,"masculinidad":88,"pct_menor20":12,"pct_60mas":31,"pct_migrante":38,"dependencia_econ":41,"pct_empleados":23,"pct_cuentapropia":68,"pct_agricultura":27,"pct_comercio":23,"pct_manufactura":18,"pct_construccion":9,"pct_transporte":5,"pct_alojamiento":0,"pct_sin_educacion":0,"pct_educ_superior":34,"brecha_educ":-25,"pct_sin_seguro":40,"pct_sus":50,"pct_seguro_privado":0,"brecha_seguro":13,"pct_salud_publica":20,"pct_med_tradicional":16,"pct_automedicacion":18,"pct_remedios_caseros":29,"pct_viv_desocupada":0,"pct_alquiler":6,"pct_electricidad":81,"pct_sin_electricidad":19,"pct_agua_red":88,"pct_alcantarillado":50,"pct_camara_septica":0,"pct_pozo_ciego":19,"pct_sin_desague":31,"pct_gas_red":0,"pct_gas_garrafa":88,"pct_lena_guano":94,"pct_basura_formal":6,"pct_basura_quema":31,"pct_basura_informal":12,"pct_internet":69,"pct_celular":100,"pct_televisor":44}},{"type":"Feature","geometry":{"type":"Polygon","coordinates":[[[-69.19252,-17.06632],[-69.19156,-17.06633],[-69.19157,-17.06679],[-69.19252,-17.0668],[-69.19252,-17.06632]]]},"properties":{"n":"SANTIAGO DE MACHACA","p":21,"personas_x_ha":38,"masculinidad":110,"pct_menor20":14,"pct_60mas":43,"pct_migrante":10,"dependencia_econ":11,"pct_empleados":26,"pct_cuentapropia":53,"pct_agricultura":32,"pct_comercio":37,"pct_manufactura":0,"pct_construccion":11,"pct_transporte":0,"pct_alojamiento":0,"pct_sin_educacion":0,"pct_educ_superior":21,"brecha_educ":-40,"pct_sin_seguro":24,"pct_sus":71,"pct_seguro_privado":0,"brecha_seguro":-12,"pct_salud_publica":40,"pct_med_tradicional":10,"pct_automedicacion":2,"pct_remedios_caseros":38,"pct_viv_desocupada":0,"pct_alquiler":0,"pct_electricidad":93,"pct_sin_electricidad":7,"pct_agua_red":93,"pct_alcantarillado":57,"pct_camara_septica":7,"pct_pozo_ciego":7,"pct_sin_desague":29,"pct_gas_red":0,"pct_gas_garrafa":93,"pct_lena_guano":93,"pct_basura_formal":43,"pct_basura_quema":29,"pct_basura_informal":14,"pct_internet":36,"pct_celular":86,"pct_televisor":29}}]}