{"type":"FeatureCollection","features":[{"type":"Feature","geometry":{"type":"Polygon","coordinates":[[[-68.81263,-15.88634],[-68.81347,-15.88624],[-68.81356,-15.88588],[-68.81266,-15.88603],[-68.81263,-15.88634]]]},"properties":{"n":"ALTO CHEJEPAMPA","p":20,"personas_x_ha":55,"masculinidad":150,"pct_menor20":20,"pct_60mas":15,"pct_migrante":10,"dependencia_econ":33,"pct_empleados":13,"pct_cuentapropia":67,"pct_agricultura":53,"pct_comercio":27,"pct_manufactura":0,"pct_construccion":0,"pct_transporte":7,"pct_alojamiento":7,"pct_sin_educacion":6,"pct_educ_superior":19,"brecha_educ":0,"pct_sin_seguro":35,"pct_sus":55,"pct_seguro_privado":10,"brecha_seguro":-4,"pct_salud_publica":29,"pct_med_tradicional":25,"pct_automedicacion":5,"pct_remedios_caseros":18,"pct_viv_desocupada":0,"pct_alquiler":0,"pct_electricidad":44,"pct_sin_electricidad":56,"pct_agua_red":44,"pct_alcantarillado":0,"pct_camara_septica":6,"pct_pozo_ciego":25,"pct_sin_desague":69,"pct_gas_red":0,"pct_gas_garrafa":69,"pct_lena_guano":25,"pct_basura_formal":6,"pct_basura_quema":75,"pct_basura_informal":12,"pct_internet":31,"pct_celular":94,"pct_televisor":19}},{"type":"Feature","geometry":{"type":"Polygon","coordinates":[[[-68.90627,-15.89772],[-68.90676,-15.89858],[-68.90737,-15.89829],[-68.90674,-15.89746],[-68.90627,-15.89772]]]},"properties":{"n":"ANCORAIMES","p":32,"personas_x_ha":43,"masculinidad":129,"pct_menor20":22,"pct_60mas":31,"pct_migrante":34,"dependencia_econ":68,"pct_empleados":16,"pct_cuentapropia":84,"pct_agricultura":11,"pct_comercio":37,"pct_manufactura":11,"pct_construccion":0,"pct_transporte":5,"pct_alojamiento":11,"pct_sin_educacion":4,"pct_educ_superior":40,"brecha_educ":8,"pct_sin_seguro":6,"pct_sus":41,"pct_seguro_privado":0,"brecha_seguro":-2,"pct_salud_publica":23,"pct_med_tradicional":12,"pct_automedicacion":13,"pct_remedios_caseros":23,"pct_viv_desocupada":0,"pct_alquiler":0,"pct_electricidad":80,"pct_sin_electricidad":20,"pct_agua_red":100,"pct_alcantarillado":67,"pct_camara_septica":0,"pct_pozo_ciego":20,"pct_sin_desague":13,"pct_gas_red":0,"pct_gas_garrafa":80,"pct_lena_guano":13,"pct_basura_formal":60,"pct_basura_quema":27,"pct_basura_informal":7,"pct_internet":47,"pct_celular":93,"pct_televisor":47}},{"type":"Feature","geometry":{"type":"Polygon","coordinates":[[[-68.90348,-15.89833],[-68.90376,-15.89889],[-68.90474,-15.89845],[-68.90441,-15.89785],[-68.90348,-15.89833]]]},"properties":{"n":"ANCORAIMES","p":18,"personas_x_ha":20,"masculinidad":50,"pct_menor20":39,"pct_60mas":17,"pct_migrante":11,"dependencia_econ":42,"pct_empleados":33,"pct_cuentapropia":50,"pct_agricultura":25,"pct_comercio":8,"pct_manufactura":8,"pct_construccion":0,"pct_transporte":0,"pct_alojamiento":25,"pct_sin_educacion":10,"pct_educ_superior":50,"brecha_educ":-25,"pct_sin_seguro":18,"pct_sus":65,"pct_seguro_privado":0,"brecha_seguro":-27,"pct_salud_publica":19,"pct_med_tradicional":6,"pct_automedicacion":19,"pct_remedios_caseros":53,"pct_viv_desocupada":0,"pct_alquiler":0,"pct_electricidad":88,"pct_sin_electricidad":0,"pct_agua_red":88,"pct_alcantarillado":38,"pct_camara_septica":0,"pct_pozo_ciego":25,"pct_sin_desague":38,"pct_gas_red":0,"pct_gas_garrafa":88,"pct_lena_guano":12,"pct_basura_formal":25,"pct_basura_quema":62,"pct_basura_informal":12,"pct_internet":50,"pct_celular":88,"pct_televisor":38}},{"type":"Feature","geometry":{"type":"Polygon","coordinates":[[[-68.90538,-15.89639],[-68.90521,-15.8961],[-68.90456,-15.89644],[-68.90473,-15.89672],[-68.90538,-15.89639]]]},"properties":{"n":"ANCORAIMES","p":23,"personas_x_ha":77,"masculinidad":92,"pct_menor20":48,"pct_60mas":30,"pct_migrante":13,"dependencia_econ":130,"pct_empleados":40,"pct_cuentapropia":40,"pct_agricultura":10,"pct_comercio":10,"pct_manufactura":10,"pct_construccion":0,"pct_transporte":0,"pct_alojamiento":20,"pct_sin_educacion":8,"pct_educ_superior":50,"brecha_educ":-25,"pct_sin_seguro":4,"pct_sus":61,"pct_seguro_privado":0,"brecha_seguro":9,"pct_salud_publica":24,"pct_med_tradicional":11,"pct_automedicacion":8,"pct_remedios_caseros":25,"pct_viv_desocupada":0,"pct_alquiler":0,"pct_electricidad":100,"pct_sin_electricidad":0,"pct_agua_red":100,"pct_alcantarillado":83,"pct_camara_septica":0,"pct_pozo_ciego":0,"pct_sin_desague":17,"pct_gas_red":0,"pct_gas_garrafa":100,"pct_lena_guano":0,"pct_basura_formal":67,"pct_basura_quema":0,"pct_basura_informal":33,"pct_internet":67,"pct_celular":67,"pct_televisor":67}},{"type":"Feature","geometry":{"type":"Polygon","coordinates":[[[-68.90386,-15.8968],[-68.90405,-15.89707],[-68.90467,-15.89673],[-68.90449,-15.89646],[-68.90386,-15.8968]]]},"properties":{"n":"ANCORAIMES","p":27,"personas_x_ha":93,"masculinidad":80,"pct_menor20":37,"pct_60mas":26,"pct_migrante":26,"dependencia_econ":69,"pct_empleados":25,"pct_cuentapropia":50,"pct_agricultura":38,"pct_comercio":12,"pct_manufactura":19,"pct_construccion":6,"pct_transporte":0,"pct_alojamiento":6,"pct_sin_educacion":6,"pct_educ_superior":18,"brecha_educ":-7,"pct_sin_seguro":7,"pct_sus":78,"pct_seguro_privado":0,"brecha_seguro":17,"pct_salud_publica":26,"pct_med_tradicional":23,"pct_automedicacion":15,"pct_remedios_caseros":26,"pct_viv_desocupada":8,"pct_alquiler":0,"pct_electricidad":64,"pct_sin_electricidad":36,"pct_agua_red":55,"pct_alcantarillado":36,"pct_camara_septica":0,"pct_pozo_ciego":0,"pct_sin_desague":64,"pct_gas_red":0,"pct_gas_garrafa":55,"pct_lena_guano":9,"pct_basura_formal":64,"pct_basura_quema":9,"pct_basura_informal":0,"pct_internet":27,"pct_celular":73,"pct_televisor":18}},{"type":"Feature","geometry":{"type":"Polygon","coordinates":[[[-68.90531,-15.89941],[-68.90448,-15.89981],[-68.90496,-15.90082],[-68.90525,-15.90091],[-68.9054,-15.90118],[-68.90594,-15.90141],[-68.90635,-15.90123],[-68.90531,-15.89941]]]},"properties":{"n":"ANCORAIMES","p":15,"personas_x_ha":7,"masculinidad":88,"pct_menor20":13,"pct_60mas":27,"pct_migrante":13,"dependencia_econ":25,"pct_empleados":17,"pct_cuentapropia":67,"pct_agricultura":17,"pct_comercio":33,"pct_manufactura":33,"pct_construccion":8,"pct_transporte":0,"pct_alojamiento":0,"pct_sin_educacion":0,"pct_educ_superior":8,"brecha_educ":-12,"pct_sin_seguro":20,"pct_sus":80,"pct_seguro_privado":0,"brecha_seguro":16,"pct_salud_publica":30,"pct_med_tradicional":15,"pct_automedicacion":12,"pct_remedios_caseros":32,"pct_viv_desocupada":0,"pct_alquiler":0,"pct_electricidad":67,"pct_sin_electricidad":33,"pct_agua_red":78,"pct_alcantarillado":44,"pct_camara_septica":0,"pct_pozo_ciego":0,"pct_sin_desague":56,"pct_gas_red":0,"pct_gas_garrafa":67,"pct_lena_guano":22,"pct_basura_formal":56,"pct_basura_quema":33,"pct_basura_informal":11,"pct_internet":56,"pct_celular":78,"pct_televisor":33}},{"type":"Feature","geometry":{"type":"Polygon","coordinates":[[[-68.90831,-15.89997],[-68.90857,-15.89979],[-68.90746,-15.89838],[-68.90684,-15.89868],[-68.90691,-15.89881],[-68.90732,-15.89895],[-68.90773,-15.89936],[-68.90779,-15.89948],[-68.9075,-15.89966],[-68.90773,-15.9001],[-68.90831,-15.89997]]]},"properties":{"n":"ANCORAIMES","p":23,"personas_x_ha":18,"masculinidad":109,"pct_menor20":26,"pct_60mas":35,"pct_migrante":26,"dependencia_econ":35,"pct_empleados":6,"pct_cuentapropia":82,"pct_agricultura":47,"pct_comercio":0,"pct_manufactura":18,"pct_construccion":6,"pct_transporte":12,"pct_alojamiento":6,"pct_sin_educacion":12,"pct_educ_superior":12,"brecha_educ":-23,"pct_sin_seguro":17,"pct_sus":74,"pct_seguro_privado":0,"brecha_seguro":-2,"pct_salud_publica":32,"pct_med_tradicional":13,"pct_automedicacion":15,"pct_remedios_caseros":22,"pct_viv_desocupada":7,"pct_alquiler":0,"pct_electricidad":62,"pct_sin_electricidad":38,"pct_agua_red":77,"pct_alcantarillado":62,"pct_camara_septica":0,"pct_pozo_ciego":0,"pct_sin_desague":38,"pct_gas_red":0,"pct_gas_garrafa":85,"pct_lena_guano":15,"pct_basura_formal":46,"pct_basura_quema":31,"pct_basura_informal":23,"pct_internet":38,"pct_celular":85,"pct_televisor":31}},{"type":"Feature","geometry":{"type":"Polygon","coordinates":[[[-68.90909,-15.89719],[-68.90811,-15.89645],[-68.90846,-15.89617],[-68.90949,-15.8967],[-68.90939,-15.89697],[-68.90909,-15.89719]]]},"properties":{"n":"ANCORAIMES","p":32,"personas_x_ha":40,"masculinidad":52,"pct_menor20":31,"pct_60mas":16,"pct_migrante":41,"dependencia_econ":60,"pct_empleados":10,"pct_cuentapropia":80,"pct_agricultura":25,"pct_comercio":25,"pct_manufactura":30,"pct_construccion":0,"pct_transporte":5,"pct_alojamiento":0,"pct_sin_educacion":14,"pct_educ_superior":18,"brecha_educ":-32,"pct_sin_seguro":19,"pct_sus":74,"pct_seguro_privado":0,"brecha_seguro":-16,"pct_salud_publica":16,"pct_med_tradicional":16,"pct_automedicacion":21,"pct_remedios_caseros":36,"pct_viv_desocupada":12,"pct_alquiler":0,"pct_electricidad":64,"pct_sin_electricidad":36,"pct_agua_red":79,"pct_alcantarillado":43,"pct_camara_septica":0,"pct_pozo_ciego":0,"pct_sin_desague":57,"pct_gas_red":0,"pct_gas_garrafa":93,"pct_lena_guano":7,"pct_basura_formal":29,"pct_basura_quema":50,"pct_basura_informal":14,"pct_internet":21,"pct_celular":100,"pct_televisor":21}},{"type":"Feature","geometry":{"type":"Polygon","coordinates":[[[-68.9048,-15.89841],[-68.90545,-15.89809],[-68.90508,-15.89748],[-68.90449,-15.8978],[-68.9048,-15.89841]]]},"properties":{"n":"ANCORAIMES","p":17,"personas_x_ha":28,"masculinidad":112,"pct_menor20":12,"pct_60mas":71,"pct_migrante":29,"dependencia_econ":70,"pct_empleados":20,"pct_cuentapropia":50,"pct_agricultura":20,"pct_comercio":20,"pct_manufactura":10,"pct_construccion":20,"pct_transporte":0,"pct_alojamiento":0,"pct_sin_educacion":7,"pct_educ_superior":33,"brecha_educ":28,"pct_sin_seguro":6,"pct_sus":71,"pct_seguro_privado":0,"brecha_seguro":11,"pct_salud_publica":21,"pct_med_tradicional":12,"pct_automedicacion":9,"pct_remedios_caseros":28,"pct_viv_desocupada":0,"pct_alquiler":0,"pct_electricidad":79,"pct_sin_electricidad":14,"pct_agua_red":86,"pct_alcantarillado":71,"pct_camara_septica":0,"pct_pozo_ciego":7,"pct_sin_desague":14,"pct_gas_red":0,"pct_gas_garrafa":93,"pct_lena_guano":7,"pct_basura_formal":64,"pct_basura_quema":0,"pct_basura_informal":29,"pct_internet":43,"pct_celular":93,"pct_televisor":64}},{"type":"Feature","geometry":{"type":"Polygon","coordinates":[[[-68.90672,-15.8986],[-68.90623,-15.89775],[-68.90598,-15.89788],[-68.90643,-15.89873],[-68.90672,-15.8986]]]},"properties":{"n":"ANCORAIMES","p":23,"personas_x_ha":64,"masculinidad":44,"pct_menor20":17,"pct_60mas":26,"pct_migrante":52,"dependencia_econ":109,"pct_empleados":45,"pct_cuentapropia":36,"pct_agricultura":9,"pct_comercio":36,"pct_manufactura":9,"pct_construccion":0,"pct_transporte":0,"pct_alojamiento":18,"pct_sin_educacion":5,"pct_educ_superior":26,"brecha_educ":-23,"pct_sin_seguro":30,"pct_sus":70,"pct_seguro_privado":0,"brecha_seguro":38,"pct_salud_publica":13,"pct_med_tradicional":13,"pct_automedicacion":21,"pct_remedios_caseros":23,"pct_viv_desocupada":0,"pct_alquiler":0,"pct_electricidad":82,"pct_sin_electricidad":18,"pct_agua_red":73,"pct_alcantarillado":64,"pct_camara_septica":0,"pct_pozo_ciego":0,"pct_sin_desague":36,"pct_gas_red":0,"pct_gas_garrafa":73,"pct_lena_guano":18,"pct_basura_formal":45,"pct_basura_quema":9,"pct_basura_informal":45,"pct_internet":64,"pct_celular":100,"pct_televisor":55}},{"type":"Feature","geometry":{"type":"Polygon","coordinates":[[[-68.90414,-15.8966],[-68.90406,-15.89642],[-68.90416,-15.89659],[-68.90448,-15.89641],[-68.90413,-15.89581],[-68.90367,-15.89579],[-68.90341,-15.89603],[-68.90366,-15.89647],[-68.90383,-15.89675],[-68.90414,-15.8966]]]},"properties":{"n":"ANCORAIMES","p":38,"personas_x_ha":51,"masculinidad":73,"pct_menor20":39,"pct_60mas":29,"pct_migrante":16,"dependencia_econ":81,"pct_empleados":38,"pct_cuentapropia":52,"pct_agricultura":29,"pct_comercio":29,"pct_manufactura":5,"pct_construccion":10,"pct_transporte":0,"pct_alojamiento":5,"pct_sin_educacion":26,"pct_educ_superior":35,"brecha_educ":-17,"pct_sin_seguro":8,"pct_sus":79,"pct_seguro_privado":0,"brecha_seguro":8,"pct_salud_publica":22,"pct_med_tradicional":19,"pct_automedicacion":22,"pct_remedios_caseros":24,"pct_viv_desocupada":11,"pct_alquiler":0,"pct_electricidad":80,"pct_sin_electricidad":20,"pct_agua_red":93,"pct_alcantarillado":40,"pct_camara_septica":0,"pct_pozo_ciego":7,"pct_sin_desague":53,"pct_gas_red":0,"pct_gas_garrafa":67,"pct_lena_guano":33,"pct_basura_formal":27,"pct_basura_quema":27,"pct_basura_informal":47,"pct_internet":60,"pct_celular":93,"pct_televisor":40}},{"type":"Feature","geometry":{"type":"Polygon","coordinates":[[[-68.90585,-15.89708],[-68.90618,-15.89768],[-68.90669,-15.8974],[-68.90633,-15.89685],[-68.90585,-15.89708]]]},"properties":{"n":"ANCORAIMES","p":27,"personas_x_ha":58,"masculinidad":42,"pct_menor20":11,"pct_60mas":44,"pct_migrante":33,"dependencia_econ":59,"pct_empleados":6,"pct_cuentapropia":35,"pct_agricultura":12,"pct_comercio":24,"pct_manufactura":0,"pct_construccion":0,"pct_transporte":0,"pct_alojamiento":18,"pct_sin_educacion":4,"pct_educ_superior":38,"brecha_educ":-44,"pct_sin_seguro":11,"pct_sus":70,"pct_seguro_privado":0,"brecha_seguro":-16,"pct_salud_publica":26,"pct_med_tradicional":10,"pct_automedicacion":12,"pct_remedios_caseros":30,"pct_viv_desocupada":0,"pct_alquiler":18,"pct_electricidad":100,"pct_sin_electricidad":0,"pct_agua_red":91,"pct_alcantarillado":45,"pct_camara_septica":9,"pct_pozo_ciego":9,"pct_sin_desague":36,"pct_gas_red":0,"pct_gas_garrafa":91,"pct_lena_guano":9,"pct_basura_formal":91,"pct_basura_quema":9,"pct_basura_informal":0,"pct_internet":73,"pct_celular":91,"pct_televisor":73}},{"type":"Feature","geometry":{"type":"Polygon","coordinates":[[[-68.90343,-15.89826],[-68.90435,-15.89779],[-68.904,-15.89716],[-68.90312,-15.89763],[-68.90343,-15.89826]]]},"properties":{"n":"ANCORAIMES","p":21,"personas_x_ha":24,"masculinidad":162,"pct_menor20":29,"pct_60mas":19,"pct_migrante":24,"dependencia_econ":40,"pct_empleados":27,"pct_cuentapropia":60,"pct_agricultura":33,"pct_comercio":20,"pct_manufactura":7,"pct_construccion":0,"pct_transporte":13,"pct_alojamiento":0,"pct_sin_educacion":0,"pct_educ_superior":33,"brecha_educ":-11,"pct_sin_seguro":0,"pct_sus":70,"pct_seguro_privado":0,"brecha_seguro":0,"pct_salud_publica":18,"pct_med_tradicional":5,"pct_automedicacion":18,"pct_remedios_caseros":41,"pct_viv_desocupada":19,"pct_alquiler":0,"pct_electricidad":77,"pct_sin_electricidad":23,"pct_agua_red":100,"pct_alcantarillado":38,"pct_camara_septica":0,"pct_pozo_ciego":0,"pct_sin_desague":62,"pct_gas_red":0,"pct_gas_garrafa":38,"pct_lena_guano":46,"pct_basura_formal":46,"pct_basura_quema":23,"pct_basura_informal":23,"pct_internet":54,"pct_celular":92,"pct_televisor":69}},{"type":"Feature","geometry":{"type":"Polygon","coordinates":[[[-68.90918,-15.89542],[-68.90726,-15.89637],[-68.90753,-15.8968],[-68.90888,-15.89569],[-68.90918,-15.89542]]]},"properties":{"n":"ANCORAIMES","p":40,"personas_x_ha":54,"masculinidad":90,"pct_menor20":32,"pct_60mas":15,"pct_migrante":48,"dependencia_econ":43,"pct_empleados":11,"pct_cuentapropia":64,"pct_agricultura":14,"pct_comercio":39,"pct_manufactura":14,"pct_construccion":4,"pct_transporte":4,"pct_alojamiento":0,"pct_sin_educacion":11,"pct_educ_superior":41,"brecha_educ":-39,"pct_sin_seguro":35,"pct_sus":35,"pct_seguro_privado":0,"brecha_seguro":34,"pct_salud_publica":20,"pct_med_tradicional":24,"pct_automedicacion":19,"pct_remedios_caseros":28,"pct_viv_desocupada":0,"pct_alquiler":5,"pct_electricidad":73,"pct_sin_electricidad":27,"pct_agua_red":55,"pct_alcantarillado":73,"pct_camara_septica":0,"pct_pozo_ciego":0,"pct_sin_desague":23,"pct_gas_red":0,"pct_gas_garrafa":77,"pct_lena_guano":5,"pct_basura_formal":18,"pct_basura_quema":45,"pct_basura_informal":27,"pct_internet":73,"pct_celular":86,"pct_televisor":36}},{"type":"Feature","geometry":{"type":"Polygon","coordinates":[[[-68.90803,-15.89789],[-68.9071,-15.89722],[-68.90678,-15.89743],[-68.90743,-15.89825],[-68.90803,-15.89789]]]},"properties":{"n":"ANCORAIMES","p":19,"personas_x_ha":29,"masculinidad":73,"pct_menor20":32,"pct_60mas":16,"pct_migrante":42,"dependencia_econ":73,"pct_empleados":9,"pct_cuentapropia":82,"pct_agricultura":0,"pct_comercio":55,"pct_manufactura":9,"pct_construccion":0,"pct_transporte":9,"pct_alojamiento":0,"pct_sin_educacion":8,"pct_educ_superior":38,"brecha_educ":-22,"pct_sin_seguro":16,"pct_sus":79,"pct_seguro_privado":0,"brecha_seguro":16,"pct_salud_publica":81,"pct_med_tradicional":5,"pct_automedicacion":0,"pct_remedios_caseros":0,"pct_viv_desocupada":0,"pct_alquiler":11,"pct_electricidad":56,"pct_sin_electricidad":44,"pct_agua_red":67,"pct_alcantarillado":56,"pct_camara_septica":0,"pct_pozo_ciego":11,"pct_sin_desague":33,"pct_gas_red":0,"pct_gas_garrafa":67,"pct_lena_guano":33,"pct_basura_formal":33,"pct_basura_quema":33,"pct_basura_informal":33,"pct_internet":0,"pct_celular":0,"pct_televisor":44}},{"type":"Feature","geometry":{"type":"Polygon","coordinates":[[[-68.9083,-15.89929],[-68.9096,-15.89866],[-68.90876,-15.89813],[-68.90843,-15.89776],[-68.9075,-15.89835],[-68.9083,-15.89929]]]},"properties":{"n":"ANCORAIMES","p":20,"personas_x_ha":11,"masculinidad":122,"pct_menor20":30,"pct_60mas":20,"pct_migrante":20,"dependencia_econ":82,"pct_empleados":9,"pct_cuentapropia":91,"pct_agricultura":55,"pct_comercio":9,"pct_manufactura":0,"pct_construccion":9,"pct_transporte":9,"pct_alojamiento":0,"pct_sin_educacion":7,"pct_educ_superior":21,"brecha_educ":-38,"pct_sin_seguro":11,"pct_sus":79,"pct_seguro_privado":0,"brecha_seguro":20,"pct_salud_publica":40,"pct_med_tradicional":8,"pct_automedicacion":30,"pct_remedios_caseros":12,"pct_viv_desocupada":0,"pct_alquiler":0,"pct_electricidad":82,"pct_sin_electricidad":18,"pct_agua_red":73,"pct_alcantarillado":36,"pct_camara_septica":0,"pct_pozo_ciego":9,"pct_sin_desague":55,"pct_gas_red":0,"pct_gas_garrafa":82,"pct_lena_guano":18,"pct_basura_formal":55,"pct_basura_quema":27,"pct_basura_informal":18,"pct_internet":55,"pct_celular":73,"pct_televisor":36}},{"type":"Feature","geometry":{"type":"Polygon","coordinates":[[[-68.90836,-15.89768],[-68.9076,-15.89687],[-68.90712,-15.8972],[-68.90805,-15.89786],[-68.90836,-15.89768]]]},"properties":{"n":"ANCORAIMES","p":15,"personas_x_ha":24,"masculinidad":67,"pct_menor20":27,"pct_60mas":27,"pct_migrante":60,"dependencia_econ":88,"pct_empleados":25,"pct_cuentapropia":50,"pct_agricultura":62,"pct_comercio":0,"pct_manufactura":0,"pct_construccion":0,"pct_transporte":0,"pct_alojamiento":0,"pct_sin_educacion":0,"pct_educ_superior":73,"brecha_educ":17,"pct_sin_seguro":7,"pct_sus":93,"pct_seguro_privado":0,"brecha_seguro":17,"pct_salud_publica":37,"pct_med_tradicional":22,"pct_automedicacion":4,"pct_remedios_caseros":33,"pct_viv_desocupada":0,"pct_alquiler":0,"pct_electricidad":88,"pct_sin_electricidad":12,"pct_agua_red":100,"pct_alcantarillado":62,"pct_camara_septica":12,"pct_pozo_ciego":0,"pct_sin_desague":25,"pct_gas_red":0,"pct_gas_garrafa":75,"pct_lena_guano":12,"pct_basura_formal":75,"pct_basura_quema":25,"pct_basura_informal":0,"pct_internet":62,"pct_celular":75,"pct_televisor":50}},{"type":"Feature","geometry":{"type":"Polygon","coordinates":[[[-68.90503,-15.89891],[-68.90475,-15.89907],[-68.90502,-15.8989],[-68.90478,-15.89851],[-68.90375,-15.89901],[-68.9041,-15.89983],[-68.90448,-15.89967],[-68.90429,-15.89927],[-68.90435,-15.89924],[-68.90455,-15.89964],[-68.90524,-15.89932],[-68.90503,-15.89891]]]},"properties":{"n":"ANCORAIMES","p":54,"personas_x_ha":42,"masculinidad":125,"pct_menor20":26,"pct_60mas":11,"pct_migrante":41,"dependencia_econ":54,"pct_empleados":17,"pct_cuentapropia":66,"pct_agricultura":26,"pct_comercio":9,"pct_manufactura":11,"pct_construccion":11,"pct_transporte":9,"pct_alojamiento":3,"pct_sin_educacion":5,"pct_educ_superior":48,"brecha_educ":-23,"pct_sin_seguro":22,"pct_sus":70,"pct_seguro_privado":0,"brecha_seguro":18,"pct_salud_publica":40,"pct_med_tradicional":10,"pct_automedicacion":11,"pct_remedios_caseros":25,"pct_viv_desocupada":4,"pct_alquiler":9,"pct_electricidad":65,"pct_sin_electricidad":35,"pct_agua_red":78,"pct_alcantarillado":74,"pct_camara_septica":0,"pct_pozo_ciego":4,"pct_sin_desague":22,"pct_gas_red":0,"pct_gas_garrafa":74,"pct_lena_guano":0,"pct_basura_formal":17,"pct_basura_quema":22,"pct_basura_informal":48,"pct_internet":57,"pct_celular":91,"pct_televisor":48}},{"type":"Feature","geometry":{"type":"Polygon","coordinates":[[[-68.90595,-15.89791],[-68.90556,-15.89811],[-68.90604,-15.89895],[-68.9064,-15.89874],[-68.90595,-15.89791]]]},"properties":{"n":"ANCORAIMES","p":21,"personas_x_ha":40,"masculinidad":75,"pct_menor20":19,"pct_60mas":33,"pct_migrante":43,"dependencia_econ":40,"pct_empleados":13,"pct_cuentapropia":80,"pct_agricultura":7,"pct_comercio":27,"pct_manufactura":13,"pct_construccion":7,"pct_transporte":7,"pct_alojamiento":13,"pct_sin_educacion":6,"pct_educ_superior":29,"brecha_educ":-29,"pct_sin_seguro":14,"pct_sus":67,"pct_seguro_privado":5,"brecha_seguro":14,"pct_salud_publica":22,"pct_med_tradicional":15,"pct_automedicacion":25,"pct_remedios_caseros":26,"pct_viv_desocupada":0,"pct_alquiler":8,"pct_electricidad":100,"pct_sin_electricidad":0,"pct_agua_red":92,"pct_alcantarillado":85,"pct_camara_septica":0,"pct_pozo_ciego":8,"pct_sin_desague":8,"pct_gas_red":0,"pct_gas_garrafa":100,"pct_lena_guano":0,"pct_basura_formal":77,"pct_basura_quema":15,"pct_basura_informal":8,"pct_internet":77,"pct_celular":100,"pct_televisor":62}},{"type":"Feature","geometry":{"type":"Polygon","coordinates":[[[-68.90443,-15.89776],[-68.90507,-15.89743],[-68.90471,-15.8968],[-68.90408,-15.89713],[-68.90443,-15.89776]]]},"properties":{"n":"ANCORAIMES","p":19,"personas_x_ha":30,"masculinidad":111,"pct_menor20":0,"pct_60mas":47,"pct_migrante":26,"dependencia_econ":20,"pct_empleados":20,"pct_cuentapropia":73,"pct_agricultura":33,"pct_comercio":20,"pct_manufactura":0,"pct_construccion":0,"pct_transporte":0,"pct_alojamiento":13,"pct_sin_educacion":6,"pct_educ_superior":56,"brecha_educ":-3,"pct_sin_seguro":22,"pct_sus":61,"pct_seguro_privado":0,"brecha_seguro":18,"pct_salud_publica":21,"pct_med_tradicional":8,"pct_automedicacion":17,"pct_remedios_caseros":29,"pct_viv_desocupada":6,"pct_alquiler":0,"pct_electricidad":75,"pct_sin_electricidad":25,"pct_agua_red":94,"pct_alcantarillado":69,"pct_camara_septica":0,"pct_pozo_ciego":0,"pct_sin_desague":31,"pct_gas_red":0,"pct_gas_garrafa":88,"pct_lena_guano":6,"pct_basura_formal":44,"pct_basura_quema":12,"pct_basura_informal":38,"pct_internet":44,"pct_celular":81,"pct_televisor":50}},{"type":"Feature","geometry":{"type":"Polygon","coordinates":[[[-68.90549,-15.89814],[-68.90484,-15.89849],[-68.90533,-15.89928],[-68.90597,-15.89896],[-68.90549,-15.89814]]]},"properties":{"n":"ANCORAIMES","p":25,"personas_x_ha":30,"masculinidad":108,"pct_menor20":24,"pct_60mas":20,"pct_migrante":40,"dependencia_econ":47,"pct_empleados":53,"pct_cuentapropia":41,"pct_agricultura":12,"pct_comercio":18,"pct_manufactura":0,"pct_construccion":12,"pct_transporte":0,"pct_alojamiento":12,"pct_sin_educacion":0,"pct_educ_superior":32,"brecha_educ":-25,"pct_sin_seguro":12,"pct_sus":28,"pct_seguro_privado":0,"brecha_seguro":-9,"pct_salud_publica":27,"pct_med_tradicional":6,"pct_automedicacion":10,"pct_remedios_caseros":19,"pct_viv_desocupada":30,"pct_alquiler":0,"pct_electricidad":86,"pct_sin_electricidad":14,"pct_agua_red":93,"pct_alcantarillado":79,"pct_camara_septica":0,"pct_pozo_ciego":7,"pct_sin_desague":14,"pct_gas_red":0,"pct_gas_garrafa":100,"pct_lena_guano":0,"pct_basura_formal":7,"pct_basura_quema":50,"pct_basura_informal":36,"pct_internet":57,"pct_celular":93,"pct_televisor":64}},{"type":"Feature","geometry":{"type":"Polygon","coordinates":[[[-68.90635,-15.89676],[-68.90715,-15.89635],[-68.90679,-15.89575],[-68.90595,-15.89616],[-68.90635,-15.89676]]]},"properties":{"n":"ANCORAIMES","p":25,"personas_x_ha":31,"masculinidad":47,"pct_menor20":16,"pct_60mas":28,"pct_migrante":28,"dependencia_econ":47,"pct_empleados":35,"pct_cuentapropia":47,"pct_agricultura":24,"pct_comercio":12,"pct_manufactura":6,"pct_construccion":0,"pct_transporte":0,"pct_alojamiento":0,"pct_sin_educacion":5,"pct_educ_superior":57,"brecha_educ":-7,"pct_sin_seguro":12,"pct_sus":29,"pct_seguro_privado":0,"brecha_seguro":-18,"pct_salud_publica":20,"pct_med_tradicional":16,"pct_automedicacion":11,"pct_remedios_caseros":18,"pct_viv_desocupada":0,"pct_alquiler":13,"pct_electricidad":87,"pct_sin_electricidad":13,"pct_agua_red":93,"pct_alcantarillado":73,"pct_camara_septica":7,"pct_pozo_ciego":7,"pct_sin_desague":13,"pct_gas_red":0,"pct_gas_garrafa":80,"pct_lena_guano":13,"pct_basura_formal":60,"pct_basura_quema":27,"pct_basura_informal":13,"pct_internet":53,"pct_celular":73,"pct_televisor":33}},{"type":"Feature","geometry":{"type":"Polygon","coordinates":[[[-68.90638,-15.89682],[-68.90675,-15.89737],[-68.90748,-15.89685],[-68.90718,-15.8964],[-68.90638,-15.89682]]]},"properties":{"n":"ANCORAIMES","p":43,"personas_x_ha":65,"masculinidad":79,"pct_menor20":42,"pct_60mas":9,"pct_migrante":51,"dependencia_econ":79,"pct_empleados":29,"pct_cuentapropia":54,"pct_agricultura":8,"pct_comercio":33,"pct_manufactura":12,"pct_construccion":8,"pct_transporte":12,"pct_alojamiento":8,"pct_sin_educacion":4,"pct_educ_superior":46,"brecha_educ":-13,"pct_sin_seguro":12,"pct_sus":67,"pct_seguro_privado":2,"brecha_seguro":8,"pct_salud_publica":17,"pct_med_tradicional":22,"pct_automedicacion":15,"pct_remedios_caseros":26,"pct_viv_desocupada":0,"pct_alquiler":12,"pct_electricidad":94,"pct_sin_electricidad":6,"pct_agua_red":88,"pct_alcantarillado":76,"pct_camara_septica":0,"pct_pozo_ciego":12,"pct_sin_desague":6,"pct_gas_red":0,"pct_gas_garrafa":100,"pct_lena_guano":0,"pct_basura_formal":53,"pct_basura_quema":29,"pct_basura_informal":18,"pct_internet":88,"pct_celular":94,"pct_televisor":76}},{"type":"Feature","geometry":{"type":"Polygon","coordinates":[[[-68.90721,-15.90018],[-68.90762,-15.90012],[-68.90679,-15.89871],[-68.90651,-15.89884],[-68.90721,-15.90018]]]},"properties":{"n":"ANCORAIMES","p":20,"personas_x_ha":30,"masculinidad":25,"pct_menor20":45,"pct_60mas":25,"pct_migrante":35,"dependencia_econ":33,"pct_empleados":7,"pct_cuentapropia":73,"pct_agricultura":27,"pct_comercio":13,"pct_manufactura":13,"pct_construccion":7,"pct_transporte":0,"pct_alojamiento":13,"pct_sin_educacion":8,"pct_educ_superior":15,"brecha_educ":-55,"pct_sin_seguro":0,"pct_sus":95,"pct_seguro_privado":0,"brecha_seguro":0,"pct_salud_publica":19,"pct_med_tradicional":19,"pct_automedicacion":19,"pct_remedios_caseros":19,"pct_viv_desocupada":31,"pct_alquiler":0,"pct_electricidad":50,"pct_sin_electricidad":50,"pct_agua_red":88,"pct_alcantarillado":38,"pct_camara_septica":0,"pct_pozo_ciego":12,"pct_sin_desague":50,"pct_gas_red":0,"pct_gas_garrafa":62,"pct_lena_guano":25,"pct_basura_formal":0,"pct_basura_quema":50,"pct_basura_informal":50,"pct_internet":62,"pct_celular":100,"pct_televisor":12}},{"type":"Feature","geometry":{"type":"Polygon","coordinates":[[[-68.87048,-15.79111],[-68.87056,-15.79052],[-68.87012,-15.79044],[-68.86985,-15.79144],[-68.87002,-15.79153],[-68.87048,-15.79111]]]},"properties":{"n":"CHOJÑAPATA","p":26,"personas_x_ha":49,"masculinidad":160,"pct_menor20":31,"pct_60mas":15,"pct_migrante":8,"dependencia_econ":44,"pct_empleados":0,"pct_cuentapropia":94,"pct_agricultura":100,"pct_comercio":0,"pct_manufactura":0,"pct_construccion":0,"pct_transporte":0,"pct_alojamiento":0,"pct_sin_educacion":0,"pct_educ_superior":0,"brecha_educ":-12,"pct_sin_seguro":8,"pct_sus":92,"pct_seguro_privado":0,"brecha_seguro":-20,"pct_salud_publica":44,"pct_med_tradicional":44,"pct_automedicacion":4,"pct_remedios_caseros":0,"pct_viv_desocupada":0,"pct_alquiler":0,"pct_electricidad":47,"pct_sin_electricidad":53,"pct_agua_red":33,"pct_alcantarillado":0,"pct_camara_septica":0,"pct_pozo_ciego":7,"pct_sin_desague":93,"pct_gas_red":0,"pct_gas_garrafa":53,"pct_lena_guano":47,"pct_basura_formal":47,"pct_basura_quema":33,"pct_basura_informal":0,"pct_internet":0,"pct_celular":87,"pct_televisor":7}},{"type":"Feature","geometry":{"type":"Polygon","coordinates":[[[-68.87094,-15.79147],[-68.87161,-15.79087],[-68.87156,-15.79077],[-68.87058,-15.79118],[-68.87094,-15.79147]]]},"properties":{"n":"CHOJÑAPATA","p":32,"personas_x_ha":99,"masculinidad":68,"pct_menor20":22,"pct_60mas":16,"pct_migrante":28,"dependencia_econ":28,"pct_empleados":12,"pct_cuentapropia":68,"pct_agricultura":56,"pct_comercio":16,"pct_manufactura":12,"pct_construccion":4,"pct_transporte":0,"pct_alojamiento":0,"pct_sin_educacion":8,"pct_educ_superior":4,"brecha_educ":-20,"pct_sin_seguro":13,"pct_sus":84,"pct_seguro_privado":0,"brecha_seguro":20,"pct_salud_publica":28,"pct_med_tradicional":14,"pct_automedicacion":14,"pct_remedios_caseros":36,"pct_viv_desocupada":0,"pct_alquiler":0,"pct_electricidad":56,"pct_sin_electricidad":44,"pct_agua_red":33,"pct_alcantarillado":0,"pct_camara_septica":0,"pct_pozo_ciego":6,"pct_sin_desague":94,"pct_gas_red":0,"pct_gas_garrafa":78,"pct_lena_guano":22,"pct_basura_formal":56,"pct_basura_quema":6,"pct_basura_informal":39,"pct_internet":28,"pct_celular":67,"pct_televisor":22}},{"type":"Feature","geometry":{"type":"Polygon","coordinates":[[[-68.87091,-15.7915],[-68.8707,-15.79139],[-68.8703,-15.79218],[-68.87048,-15.79227],[-68.87091,-15.7915]]]},"properties":{"n":"CHOJÑAPATA","p":16,"personas_x_ha":65,"masculinidad":100,"pct_menor20":44,"pct_60mas":12,"pct_migrante":31,"dependencia_econ":23,"pct_empleados":0,"pct_cuentapropia":77,"pct_agricultura":85,"pct_comercio":8,"pct_manufactura":8,"pct_construccion":0,"pct_transporte":0,"pct_alojamiento":0,"pct_sin_educacion":0,"pct_educ_superior":11,"brecha_educ":35,"pct_sin_seguro":11,"pct_sus":89,"pct_seguro_privado":0,"brecha_seguro":-17,"pct_salud_publica":52,"pct_med_tradicional":15,"pct_automedicacion":19,"pct_remedios_caseros":15,"pct_viv_desocupada":0,"pct_alquiler":0,"pct_electricidad":42,"pct_sin_electricidad":58,"pct_agua_red":0,"pct_alcantarillado":8,"pct_camara_septica":0,"pct_pozo_ciego":8,"pct_sin_desague":83,"pct_gas_red":0,"pct_gas_garrafa":58,"pct_lena_guano":42,"pct_basura_formal":42,"pct_basura_quema":25,"pct_basura_informal":17,"pct_internet":17,"pct_celular":83,"pct_televisor":8}},{"type":"Feature","geometry":{"type":"Polygon","coordinates":[[[-68.86972,-15.79265],[-68.86957,-15.7926],[-68.86966,-15.7924],[-68.86993,-15.7925],[-68.86967,-15.79238],[-68.86971,-15.79228],[-68.87018,-15.79251],[-68.86994,-15.79309],[-68.86945,-15.79288],[-68.86957,-15.79261],[-68.86972,-15.79265]]]},"properties":{"n":"CHOJÑAPATA","p":15,"personas_x_ha":38,"masculinidad":114,"pct_menor20":20,"pct_60mas":27,"pct_migrante":47,"dependencia_econ":25,"pct_empleados":25,"pct_cuentapropia":58,"pct_agricultura":42,"pct_comercio":25,"pct_manufactura":17,"pct_construccion":8,"pct_transporte":0,"pct_alojamiento":0,"pct_sin_educacion":8,"pct_educ_superior":42,"brecha_educ":-23,"pct_sin_seguro":0,"pct_sus":79,"pct_seguro_privado":0,"brecha_seguro":0,"pct_salud_publica":73,"pct_med_tradicional":0,"pct_automedicacion":0,"pct_remedios_caseros":0,"pct_viv_desocupada":0,"pct_alquiler":0,"pct_electricidad":0,"pct_sin_electricidad":100,"pct_agua_red":0,"pct_alcantarillado":0,"pct_camara_septica":0,"pct_pozo_ciego":0,"pct_sin_desague":100,"pct_gas_red":0,"pct_gas_garrafa":78,"pct_lena_guano":22,"pct_basura_formal":0,"pct_basura_quema":33,"pct_basura_informal":0,"pct_internet":0,"pct_celular":33,"pct_televisor":0}},{"type":"Feature","geometry":{"type":"Polygon","coordinates":[[[-68.87178,-15.79053],[-68.87055,-15.79107],[-68.87064,-15.79047],[-68.87074,-15.79034],[-68.87096,-15.79047],[-68.87075,-15.79033],[-68.87136,-15.78964],[-68.87226,-15.79014],[-68.87178,-15.79053]]]},"properties":{"n":"CHOJÑAPATA","p":34,"personas_x_ha":25,"masculinidad":162,"pct_menor20":35,"pct_60mas":15,"pct_migrante":35,"dependencia_econ":62,"pct_empleados":10,"pct_cuentapropia":71,"pct_agricultura":48,"pct_comercio":33,"pct_manufactura":10,"pct_construccion":0,"pct_transporte":5,"pct_alojamiento":0,"pct_sin_educacion":5,"pct_educ_superior":14,"brecha_educ":-32,"pct_sin_seguro":24,"pct_sus":73,"pct_seguro_privado":3,"brecha_seguro":-1,"pct_salud_publica":32,"pct_med_tradicional":15,"pct_automedicacion":13,"pct_remedios_caseros":23,"pct_viv_desocupada":0,"pct_alquiler":0,"pct_electricidad":63,"pct_sin_electricidad":32,"pct_agua_red":47,"pct_alcantarillado":5,"pct_camara_septica":5,"pct_pozo_ciego":37,"pct_sin_desague":53,"pct_gas_red":0,"pct_gas_garrafa":68,"pct_lena_guano":26,"pct_basura_formal":11,"pct_basura_quema":53,"pct_basura_informal":26,"pct_internet":42,"pct_celular":100,"pct_televisor":21}},{"type":"Feature","geometry":{"type":"Polygon","coordinates":[[[-68.79109,-15.94932],[-68.79074,-15.94856],[-68.79042,-15.94868],[-68.79104,-15.9484],[-68.79085,-15.94852],[-68.79126,-15.94929],[-68.79201,-15.94913],[-68.79171,-15.94861],[-68.79159,-15.94866],[-68.79107,-15.94795],[-68.79095,-15.94802],[-68.7907,-15.94769],[-68.78866,-15.9491],[-68.78893,-15.94966],[-68.78916,-15.94957],[-68.78922,-15.94971],[-68.78932,-15.94967],[-68.78936,-15.94977],[-68.78956,-15.9497],[-68.78935,-15.94978],[-68.78932,-15.94969],[-68.78921,-15.94973],[-68.78915,-15.94959],[-68.78893,-15.94967],[-68.78952,-15.9509],[-68.79001,-15.95062],[-68.78971,-15.95023],[-68.78988,-15.95012],[-68.78974,-15.95023],[-68.79002,-15.95061],[-68.79013,-15.9502],[-68.79001,-15.95001],[-68.79017,-15.94989],[-68.78992,-15.94944],[-68.78974,-15.9495],[-68.79017,-15.94931],[-68.78993,-15.94943],[-68.79019,-15.94988],[-68.79052,-15.94963],[-68.79034,-15.94923],[-68.79054,-15.94961],[-68.79109,-15.94932]]]},"properties":{"n":"LIMACACHI - CENTRO LIMA","p":189,"personas_x_ha":34,"masculinidad":83,"pct_menor20":44,"pct_60mas":10,"pct_migrante":10,"dependencia_econ":109,"pct_empleados":3,"pct_cuentapropia":47,"pct_agricultura":50,"pct_comercio":14,"pct_manufactura":3,"pct_construccion":11,"pct_transporte":1,"pct_alojamiento":0,"pct_sin_educacion":20,"pct_educ_superior":2,"brecha_educ":-38,"pct_sin_seguro":16,"pct_sus":84,"pct_seguro_privado":0,"brecha_seguro":4,"pct_salud_publica":21,"pct_med_tradicional":19,"pct_automedicacion":19,"pct_remedios_caseros":23,"pct_viv_desocupada":4,"pct_alquiler":0,"pct_electricidad":73,"pct_sin_electricidad":23,"pct_agua_red":41,"pct_alcantarillado":7,"pct_camara_septica":1,"pct_pozo_ciego":40,"pct_sin_desague":47,"pct_gas_red":0,"pct_gas_garrafa":87,"pct_lena_guano":7,"pct_basura_formal":3,"pct_basura_quema":87,"pct_basura_informal":1,"pct_internet":20,"pct_celular":53,"pct_televisor":50}},{"type":"Feature","geometry":{"type":"Polygon","coordinates":[[[-68.78972,-15.94825],[-68.79104,-15.94732],[-68.79123,-15.94704],[-68.79149,-15.94622],[-68.79076,-15.94593],[-68.79012,-15.94685],[-68.7896,-15.94787],[-68.78966,-15.94792],[-68.78953,-15.94812],[-68.78972,-15.94825]]]},"properties":{"n":"LIMACACHI - CENTRO LIMA","p":22,"personas_x_ha":9,"masculinidad":83,"pct_menor20":41,"pct_60mas":14,"pct_migrante":0,"dependencia_econ":69,"pct_empleados":8,"pct_cuentapropia":54,"pct_agricultura":69,"pct_comercio":0,"pct_manufactura":15,"pct_construccion":8,"pct_transporte":0,"pct_alojamiento":0,"pct_sin_educacion":15,"pct_educ_superior":0,"brecha_educ":-50,"pct_sin_seguro":5,"pct_sus":95,"pct_seguro_privado":0,"brecha_seguro":10,"pct_salud_publica":35,"pct_med_tradicional":20,"pct_automedicacion":9,"pct_remedios_caseros":24,"pct_viv_desocupada":20,"pct_alquiler":0,"pct_electricidad":100,"pct_sin_electricidad":0,"pct_agua_red":17,"pct_alcantarillado":0,"pct_camara_septica":0,"pct_pozo_ciego":33,"pct_sin_desague":67,"pct_gas_red":17,"pct_gas_garrafa":67,"pct_lena_guano":17,"pct_basura_formal":0,"pct_basura_quema":67,"pct_basura_informal":33,"pct_internet":50,"pct_celular":100,"pct_televisor":67}},{"type":"Feature","geometry":{"type":"Polygon","coordinates":[[[-68.8857,-15.91173],[-68.88564,-15.91148],[-68.88585,-15.91142],[-68.88597,-15.91183],[-68.885,-15.91199],[-68.88499,-15.91186],[-68.8857,-15.91173]]]},"properties":{"n":"MOROCOLLO","p":33,"personas_x_ha":135,"masculinidad":65,"pct_menor20":36,"pct_60mas":24,"pct_migrante":6,"dependencia_econ":136,"pct_empleados":0,"pct_cuentapropia":71,"pct_agricultura":43,"pct_comercio":14,"pct_manufactura":0,"pct_construccion":14,"pct_transporte":0,"pct_alojamiento":21,"pct_sin_educacion":17,"pct_educ_superior":22,"brecha_educ":-44,"pct_sin_seguro":15,"pct_sus":79,"pct_seguro_privado":0,"brecha_seguro":13,"pct_salud_publica":52,"pct_med_tradicional":5,"pct_automedicacion":6,"pct_remedios_caseros":26,"pct_viv_desocupada":0,"pct_alquiler":0,"pct_electricidad":56,"pct_sin_electricidad":44,"pct_agua_red":81,"pct_alcantarillado":0,"pct_camara_septica":0,"pct_pozo_ciego":6,"pct_sin_desague":94,"pct_gas_red":0,"pct_gas_garrafa":88,"pct_lena_guano":12,"pct_basura_formal":0,"pct_basura_quema":81,"pct_basura_informal":19,"pct_internet":31,"pct_celular":81,"pct_televisor":6}},{"type":"Feature","geometry":{"type":"Polygon","coordinates":[[[-68.88569,-15.91086],[-68.88514,-15.911],[-68.8852,-15.9113],[-68.8859,-15.91115],[-68.88569,-15.91086]]]},"properties":{"n":"MOROCOLLO","p":26,"personas_x_ha":107,"masculinidad":73,"pct_menor20":42,"pct_60mas":4,"pct_migrante":31,"dependencia_econ":53,"pct_empleados":6,"pct_cuentapropia":88,"pct_agricultura":24,"pct_comercio":29,"pct_manufactura":6,"pct_construccion":0,"pct_transporte":24,"pct_alojamiento":12,"pct_sin_educacion":0,"pct_educ_superior":13,"brecha_educ":-6,"pct_sin_seguro":27,"pct_sus":73,"pct_seguro_privado":0,"brecha_seguro":1,"pct_salud_publica":29,"pct_med_tradicional":21,"pct_automedicacion":9,"pct_remedios_caseros":21,"pct_viv_desocupada":0,"pct_alquiler":0,"pct_electricidad":79,"pct_sin_electricidad":21,"pct_agua_red":71,"pct_alcantarillado":0,"pct_camara_septica":0,"pct_pozo_ciego":21,"pct_sin_desague":79,"pct_gas_red":0,"pct_gas_garrafa":93,"pct_lena_guano":7,"pct_basura_formal":14,"pct_basura_quema":57,"pct_basura_informal":14,"pct_internet":71,"pct_celular":86,"pct_televisor":57}},{"type":"Feature","geometry":{"type":"Polygon","coordinates":[[[-68.8866,-15.91101],[-68.88674,-15.9119],[-68.88609,-15.91202],[-68.8859,-15.91134],[-68.8866,-15.91101]]]},"properties":{"n":"MOROCOLLO","p":21,"personas_x_ha":31,"masculinidad":91,"pct_menor20":33,"pct_60mas":24,"pct_migrante":29,"dependencia_econ":62,"pct_empleados":15,"pct_cuentapropia":69,"pct_agricultura":77,"pct_comercio":8,"pct_manufactura":0,"pct_construccion":0,"pct_transporte":0,"pct_alojamiento":0,"pct_sin_educacion":0,"pct_educ_superior":29,"brecha_educ":0,"pct_sin_seguro":5,"pct_sus":57,"pct_seguro_privado":0,"brecha_seguro":-9,"pct_salud_publica":29,"pct_med_tradicional":20,"pct_automedicacion":18,"pct_remedios_caseros":21,"pct_viv_desocupada":0,"pct_alquiler":0,"pct_electricidad":64,"pct_sin_electricidad":36,"pct_agua_red":73,"pct_alcantarillado":0,"pct_camara_septica":0,"pct_pozo_ciego":27,"pct_sin_desague":73,"pct_gas_red":0,"pct_gas_garrafa":45,"pct_lena_guano":36,"pct_basura_formal":9,"pct_basura_quema":64,"pct_basura_informal":18,"pct_internet":45,"pct_celular":91,"pct_televisor":18}},{"type":"Feature","geometry":{"type":"Polygon","coordinates":[[[-68.88682,-15.9103],[-68.8861,-15.91067],[-68.88623,-15.91092],[-68.88694,-15.91058],[-68.88682,-15.9103]]]},"properties":{"n":"MOROCOLLO","p":23,"personas_x_ha":81,"masculinidad":64,"pct_menor20":48,"pct_60mas":13,"pct_migrante":22,"dependencia_econ":109,"pct_empleados":9,"pct_cuentapropia":45,"pct_agricultura":64,"pct_comercio":27,"pct_manufactura":0,"pct_construccion":0,"pct_transporte":9,"pct_alojamiento":0,"pct_sin_educacion":33,"pct_educ_superior":17,"brecha_educ":-44,"pct_sin_seguro":9,"pct_sus":91,"pct_seguro_privado":0,"brecha_seguro":3,"pct_salud_publica":47,"pct_med_tradicional":0,"pct_automedicacion":0,"pct_remedios_caseros":49,"pct_viv_desocupada":0,"pct_alquiler":0,"pct_electricidad":83,"pct_sin_electricidad":17,"pct_agua_red":0,"pct_alcantarillado":0,"pct_camara_septica":0,"pct_pozo_ciego":17,"pct_sin_desague":83,"pct_gas_red":0,"pct_gas_garrafa":83,"pct_lena_guano":0,"pct_basura_formal":0,"pct_basura_quema":83,"pct_basura_informal":17,"pct_internet":67,"pct_celular":67,"pct_televisor":50}},{"type":"Feature","geometry":{"type":"Polygon","coordinates":[[[-68.79444,-15.94245],[-68.79423,-15.94283],[-68.79285,-15.94306],[-68.79265,-15.94229],[-68.79266,-15.94202],[-68.79297,-15.94177],[-68.7941,-15.9415],[-68.79468,-15.94144],[-68.79504,-15.9412],[-68.7953,-15.9414],[-68.79444,-15.94245]]]},"properties":{"n":"POCOATA ALTA","p":15,"personas_x_ha":5,"masculinidad":25,"pct_menor20":67,"pct_60mas":13,"pct_migrante":0,"dependencia_econ":150,"pct_empleados":0,"pct_cuentapropia":83,"pct_agricultura":50,"pct_comercio":0,"pct_manufactura":0,"pct_construccion":17,"pct_transporte":0,"pct_alojamiento":0,"pct_sin_educacion":20,"pct_educ_superior":0,"brecha_educ":17,"pct_sin_seguro":13,"pct_sus":87,"pct_seguro_privado":0,"brecha_seguro":-17,"pct_salud_publica":47,"pct_med_tradicional":17,"pct_automedicacion":0,"pct_remedios_caseros":33,"pct_viv_desocupada":0,"pct_alquiler":0,"pct_electricidad":75,"pct_sin_electricidad":25,"pct_agua_red":0,"pct_alcantarillado":0,"pct_camara_septica":0,"pct_pozo_ciego":50,"pct_sin_desague":50,"pct_gas_red":0,"pct_gas_garrafa":25,"pct_lena_guano":75,"pct_basura_formal":0,"pct_basura_quema":100,"pct_basura_informal":0,"pct_internet":0,"pct_celular":75,"pct_televisor":75}},{"type":"Feature","geometry":{"type":"Polygon","coordinates":[[[-68.78996,-15.94469],[-68.78985,-15.94492],[-68.78996,-15.94501],[-68.78981,-15.94493],[-68.78994,-15.94468],[-68.78944,-15.94436],[-68.78849,-15.9446],[-68.78891,-15.94493],[-68.79022,-15.9456],[-68.79034,-15.94535],[-68.79024,-15.94561],[-68.79071,-15.94582],[-68.79109,-15.94524],[-68.78996,-15.94469]]]},"properties":{"n":"POCOATA ALTA","p":40,"personas_x_ha":21,"masculinidad":111,"pct_menor20":32,"pct_60mas":18,"pct_migrante":12,"dependencia_econ":48,"pct_empleados":11,"pct_cuentapropia":44,"pct_agricultura":52,"pct_comercio":7,"pct_manufactura":7,"pct_construccion":19,"pct_transporte":4,"pct_alojamiento":4,"pct_sin_educacion":17,"pct_educ_superior":3,"brecha_educ":-23,"pct_sin_seguro":12,"pct_sus":88,"pct_seguro_privado":0,"brecha_seguro":4,"pct_salud_publica":29,"pct_med_tradicional":15,"pct_automedicacion":8,"pct_remedios_caseros":27,"pct_viv_desocupada":6,"pct_alquiler":0,"pct_electricidad":75,"pct_sin_electricidad":25,"pct_agua_red":8,"pct_alcantarillado":0,"pct_camara_septica":0,"pct_pozo_ciego":58,"pct_sin_desague":42,"pct_gas_red":0,"pct_gas_garrafa":33,"pct_lena_guano":50,"pct_basura_formal":0,"pct_basura_quema":58,"pct_basura_informal":8,"pct_internet":25,"pct_celular":92,"pct_televisor":67}},{"type":"Feature","geometry":{"type":"Polygon","coordinates":[[[-68.79101,-15.94396],[-68.79009,-15.9441],[-68.78999,-15.94415],[-68.79076,-15.94469],[-68.79135,-15.94494],[-68.79202,-15.94419],[-68.79159,-15.94399],[-68.79101,-15.94396]]]},"properties":{"n":"POCOATA ALTA","p":35,"personas_x_ha":26,"masculinidad":94,"pct_menor20":23,"pct_60mas":34,"pct_migrante":6,"dependencia_econ":52,"pct_empleados":13,"pct_cuentapropia":70,"pct_agricultura":70,"pct_comercio":4,"pct_manufactura":4,"pct_construccion":9,"pct_transporte":4,"pct_alojamiento":0,"pct_sin_educacion":22,"pct_educ_superior":15,"brecha_educ":-12,"pct_sin_seguro":9,"pct_sus":60,"pct_seguro_privado":0,"brecha_seguro":6,"pct_salud_publica":22,"pct_med_tradicional":17,"pct_automedicacion":9,"pct_remedios_caseros":30,"pct_viv_desocupada":7,"pct_alquiler":0,"pct_electricidad":71,"pct_sin_electricidad":21,"pct_agua_red":14,"pct_alcantarillado":0,"pct_camara_septica":21,"pct_pozo_ciego":64,"pct_sin_desague":14,"pct_gas_red":0,"pct_gas_garrafa":71,"pct_lena_guano":29,"pct_basura_formal":0,"pct_basura_quema":64,"pct_basura_informal":7,"pct_internet":57,"pct_celular":86,"pct_televisor":71}},{"type":"Feature","geometry":{"type":"Polygon","coordinates":[[[-68.78892,-15.9442],[-68.78855,-15.94353],[-68.7887,-15.94349],[-68.7886,-15.94325],[-68.7882,-15.9434],[-68.78772,-15.94295],[-68.78746,-15.94323],[-68.78759,-15.94303],[-68.78747,-15.94292],[-68.78735,-15.94303],[-68.78659,-15.94219],[-68.7857,-15.94213],[-68.78572,-15.94198],[-68.78515,-15.94186],[-68.78463,-15.94189],[-68.78359,-15.94238],[-68.78398,-15.94251],[-68.78451,-15.94346],[-68.78565,-15.94373],[-68.78585,-15.943],[-68.78575,-15.94294],[-68.7859,-15.94297],[-68.7857,-15.94374],[-68.78685,-15.94396],[-68.78758,-15.94426],[-68.78785,-15.94384],[-68.78762,-15.94428],[-68.78828,-15.94453],[-68.78856,-15.94451],[-68.78892,-15.9442]]]},"properties":{"n":"POCOATA ALTA","p":48,"personas_x_ha":6,"masculinidad":153,"pct_menor20":17,"pct_60mas":33,"pct_migrante":8,"dependencia_econ":31,"pct_empleados":22,"pct_cuentapropia":42,"pct_agricultura":50,"pct_comercio":11,"pct_manufactura":6,"pct_construccion":14,"pct_transporte":3,"pct_alojamiento":0,"pct_sin_educacion":30,"pct_educ_superior":18,"brecha_educ":-50,"pct_sin_seguro":38,"pct_sus":60,"pct_seguro_privado":0,"brecha_seguro":11,"pct_salud_publica":27,"pct_med_tradicional":23,"pct_automedicacion":14,"pct_remedios_caseros":29,"pct_viv_desocupada":0,"pct_alquiler":0,"pct_electricidad":85,"pct_sin_electricidad":8,"pct_agua_red":4,"pct_alcantarillado":0,"pct_camara_septica":4,"pct_pozo_ciego":27,"pct_sin_desague":50,"pct_gas_red":0,"pct_gas_garrafa":69,"pct_lena_guano":31,"pct_basura_formal":0,"pct_basura_quema":96,"pct_basura_informal":4,"pct_internet":46,"pct_celular":85,"pct_televisor":62}},{"type":"Feature","geometry":{"type":"Polygon","coordinates":[[[-68.79243,-15.94206],[-68.78906,-15.94339],[-68.78949,-15.94429],[-68.79017,-15.94403],[-68.79144,-15.94387],[-68.79125,-15.94359],[-68.79141,-15.94351],[-68.79128,-15.94359],[-68.79148,-15.94386],[-68.79182,-15.94354],[-68.79186,-15.94359],[-68.7916,-15.94387],[-68.79189,-15.94403],[-68.79203,-15.94405],[-68.79217,-15.94386],[-68.79213,-15.94407],[-68.79245,-15.94401],[-68.79263,-15.94388],[-68.79254,-15.9423],[-68.79243,-15.94206]]]},"properties":{"n":"POCOATA ALTA","p":52,"personas_x_ha":10,"masculinidad":73,"pct_menor20":27,"pct_60mas":35,"pct_migrante":21,"dependencia_econ":41,"pct_empleados":22,"pct_cuentapropia":43,"pct_agricultura":57,"pct_comercio":5,"pct_manufactura":11,"pct_construccion":14,"pct_transporte":0,"pct_alojamiento":0,"pct_sin_educacion":18,"pct_educ_superior":18,"brecha_educ":-16,"pct_sin_seguro":2,"pct_sus":92,"pct_seguro_privado":2,"brecha_seguro":5,"pct_salud_publica":45,"pct_med_tradicional":5,"pct_automedicacion":10,"pct_remedios_caseros":26,"pct_viv_desocupada":0,"pct_alquiler":0,"pct_electricidad":90,"pct_sin_electricidad":10,"pct_agua_red":33,"pct_alcantarillado":0,"pct_camara_septica":0,"pct_pozo_ciego":67,"pct_sin_desague":33,"pct_gas_red":0,"pct_gas_garrafa":52,"pct_lena_guano":48,"pct_basura_formal":5,"pct_basura_quema":90,"pct_basura_informal":0,"pct_internet":62,"pct_celular":76,"pct_televisor":57}},{"type":"Feature","geometry":{"type":"Polygon","coordinates":[[[-68.78993,-15.94703],[-68.78949,-15.94686],[-68.78869,-15.94624],[-68.78812,-15.94717],[-68.78879,-15.94755],[-68.78896,-15.94725],[-68.78881,-15.94756],[-68.7895,-15.94786],[-68.78993,-15.94703]]]},"properties":{"n":"POCOATA CENTRO","p":78,"personas_x_ha":44,"masculinidad":105,"pct_menor20":37,"pct_60mas":19,"pct_migrante":0,"dependencia_econ":64,"pct_empleados":0,"pct_cuentapropia":74,"pct_agricultura":96,"pct_comercio":0,"pct_manufactura":0,"pct_construccion":2,"pct_transporte":0,"pct_alojamiento":0,"pct_sin_educacion":18,"pct_educ_superior":2,"brecha_educ":-15,"pct_sin_seguro":44,"pct_sus":55,"pct_seguro_privado":0,"brecha_seguro":10,"pct_salud_publica":33,"pct_med_tradicional":26,"pct_automedicacion":4,"pct_remedios_caseros":30,"pct_viv_desocupada":13,"pct_alquiler":0,"pct_electricidad":95,"pct_sin_electricidad":5,"pct_agua_red":5,"pct_alcantarillado":0,"pct_camara_septica":0,"pct_pozo_ciego":80,"pct_sin_desague":15,"pct_gas_red":0,"pct_gas_garrafa":35,"pct_lena_guano":65,"pct_basura_formal":0,"pct_basura_quema":100,"pct_basura_informal":0,"pct_internet":0,"pct_celular":40,"pct_televisor":30}},{"type":"Feature","geometry":{"type":"Polygon","coordinates":[[[-68.78853,-15.94638],[-68.78817,-15.94698],[-68.78802,-15.94688],[-68.78804,-15.94681],[-68.788,-15.94689],[-68.78815,-15.947],[-68.78806,-15.94714],[-68.78692,-15.94644],[-68.78738,-15.94588],[-68.78772,-15.94564],[-68.78795,-15.94578],[-68.78787,-15.9459],[-68.78803,-15.94601],[-68.7879,-15.9459],[-68.78797,-15.94579],[-68.78809,-15.94583],[-68.78778,-15.9456],[-68.78835,-15.94463],[-68.78877,-15.94491],[-68.78866,-15.94508],[-68.7888,-15.94493],[-68.78927,-15.94521],[-68.78874,-15.94605],[-68.78847,-15.94587],[-68.78839,-15.94599],[-68.78849,-15.94592],[-68.78872,-15.94608],[-68.78856,-15.94635],[-68.7883,-15.94623],[-68.78853,-15.94638]]]},"properties":{"n":"POCOATA CENTRO","p":97,"personas_x_ha":32,"masculinidad":102,"pct_menor20":38,"pct_60mas":23,"pct_migrante":4,"dependencia_econ":57,"pct_empleados":3,"pct_cuentapropia":56,"pct_agricultura":89,"pct_comercio":3,"pct_manufactura":0,"pct_construccion":0,"pct_transporte":3,"pct_alojamiento":0,"pct_sin_educacion":28,"pct_educ_superior":13,"brecha_educ":-22,"pct_sin_seguro":27,"pct_sus":67,"pct_seguro_privado":0,"brecha_seguro":6,"pct_salud_publica":34,"pct_med_tradicional":20,"pct_automedicacion":10,"pct_remedios_caseros":27,"pct_viv_desocupada":6,"pct_alquiler":0,"pct_electricidad":88,"pct_sin_electricidad":12,"pct_agua_red":19,"pct_alcantarillado":0,"pct_camara_septica":6,"pct_pozo_ciego":75,"pct_sin_desague":16,"pct_gas_red":3,"pct_gas_garrafa":50,"pct_lena_guano":44,"pct_basura_formal":0,"pct_basura_quema":91,"pct_basura_informal":6,"pct_internet":38,"pct_celular":75,"pct_televisor":47}},{"type":"Feature","geometry":{"type":"Polygon","coordinates":[[[-68.78422,-15.94354],[-68.78411,-15.94383],[-68.7844,-15.94522],[-68.78543,-15.9459],[-68.78588,-15.94611],[-68.78622,-15.94563],[-68.78596,-15.94617],[-68.78639,-15.94634],[-68.78682,-15.94644],[-68.78735,-15.94583],[-68.78783,-15.94544],[-68.78753,-15.94525],[-68.78718,-15.94528],[-68.7868,-15.94519],[-68.78666,-15.94527],[-68.78586,-15.9452],[-68.78665,-15.94525],[-68.78684,-15.94515],[-68.78718,-15.94526],[-68.78753,-15.94524],[-68.78783,-15.94542],[-68.78824,-15.94464],[-68.78684,-15.94403],[-68.78441,-15.94351],[-68.78422,-15.94354]]]},"properties":{"n":"POCOATA CENTRO","p":98,"personas_x_ha":11,"masculinidad":139,"pct_menor20":26,"pct_60mas":23,"pct_migrante":2,"dependencia_econ":44,"pct_empleados":18,"pct_cuentapropia":53,"pct_agricultura":81,"pct_comercio":1,"pct_manufactura":1,"pct_construccion":6,"pct_transporte":0,"pct_alojamiento":0,"pct_sin_educacion":16,"pct_educ_superior":8,"brecha_educ":-41,"pct_sin_seguro":4,"pct_sus":91,"pct_seguro_privado":0,"brecha_seguro":-1,"pct_salud_publica":48,"pct_med_tradicional":21,"pct_automedicacion":1,"pct_remedios_caseros":21,"pct_viv_desocupada":0,"pct_alquiler":0,"pct_electricidad":88,"pct_sin_electricidad":12,"pct_agua_red":45,"pct_alcantarillado":2,"pct_camara_septica":2,"pct_pozo_ciego":74,"pct_sin_desague":21,"pct_gas_red":0,"pct_gas_garrafa":55,"pct_lena_guano":45,"pct_basura_formal":0,"pct_basura_quema":88,"pct_basura_informal":10,"pct_internet":43,"pct_celular":76,"pct_televisor":74}},{"type":"Feature","geometry":{"type":"Polygon","coordinates":[[[-68.78933,-15.94522],[-68.78871,-15.94622],[-68.78953,-15.94683],[-68.78997,-15.94697],[-68.7902,-15.94656],[-68.78975,-15.9462],[-68.79021,-15.94654],[-68.79069,-15.94587],[-68.78933,-15.94522]]]},"properties":{"n":"POCOATA CENTRO","p":44,"personas_x_ha":19,"masculinidad":100,"pct_menor20":30,"pct_60mas":25,"pct_migrante":14,"dependencia_econ":62,"pct_empleados":0,"pct_cuentapropia":54,"pct_agricultura":75,"pct_comercio":8,"pct_manufactura":0,"pct_construccion":4,"pct_transporte":0,"pct_alojamiento":0,"pct_sin_educacion":25,"pct_educ_superior":18,"brecha_educ":-21,"pct_sin_seguro":38,"pct_sus":54,"pct_seguro_privado":5,"brecha_seguro":-11,"pct_salud_publica":30,"pct_med_tradicional":27,"pct_automedicacion":1,"pct_remedios_caseros":31,"pct_viv_desocupada":8,"pct_alquiler":0,"pct_electricidad":83,"pct_sin_electricidad":17,"pct_agua_red":17,"pct_alcantarillado":0,"pct_camara_septica":0,"pct_pozo_ciego":83,"pct_sin_desague":17,"pct_gas_red":0,"pct_gas_garrafa":42,"pct_lena_guano":58,"pct_basura_formal":8,"pct_basura_quema":83,"pct_basura_informal":0,"pct_internet":8,"pct_celular":67,"pct_televisor":33}},{"type":"Feature","geometry":{"type":"Polygon","coordinates":[[[-68.78707,-15.95136],[-68.78738,-15.95129],[-68.7872,-15.95053],[-68.78683,-15.95092],[-68.78707,-15.95136]]]},"properties":{"n":"POCOATA CHICO","p":29,"personas_x_ha":91,"masculinidad":164,"pct_menor20":52,"pct_60mas":0,"pct_migrante":28,"dependencia_econ":222,"pct_empleados":11,"pct_cuentapropia":67,"pct_agricultura":44,"pct_comercio":33,"pct_manufactura":11,"pct_construccion":11,"pct_transporte":0,"pct_alojamiento":0,"pct_sin_educacion":0,"pct_educ_superior":7,"brecha_educ":-56,"pct_sin_seguro":45,"pct_sus":55,"pct_seguro_privado":0,"brecha_seguro":43,"pct_salud_publica":24,"pct_med_tradicional":30,"pct_automedicacion":13,"pct_remedios_caseros":27,"pct_viv_desocupada":33,"pct_alquiler":0,"pct_electricidad":50,"pct_sin_electricidad":50,"pct_agua_red":0,"pct_alcantarillado":0,"pct_camara_septica":0,"pct_pozo_ciego":50,"pct_sin_desague":50,"pct_gas_red":0,"pct_gas_garrafa":83,"pct_lena_guano":17,"pct_basura_formal":0,"pct_basura_quema":100,"pct_basura_informal":0,"pct_internet":83,"pct_celular":100,"pct_televisor":67}},{"type":"Feature","geometry":{"type":"Polygon","coordinates":[[[-68.78712,-15.94928],[-68.78749,-15.94861],[-68.78734,-15.94859],[-68.7875,-15.9486],[-68.78755,-15.94851],[-68.78624,-15.94771],[-68.78588,-15.9485],[-68.78652,-15.94882],[-68.78587,-15.94852],[-68.78581,-15.94864],[-68.78712,-15.94928]]]},"properties":{"n":"POCOATA CHICO","p":19,"personas_x_ha":11,"masculinidad":73,"pct_menor20":5,"pct_60mas":74,"pct_migrante":5,"dependencia_econ":19,"pct_empleados":6,"pct_cuentapropia":69,"pct_agricultura":81,"pct_comercio":0,"pct_manufactura":12,"pct_construccion":6,"pct_transporte":0,"pct_alojamiento":0,"pct_sin_educacion":28,"pct_educ_superior":0,"brecha_educ":-15,"pct_sin_seguro":17,"pct_sus":83,"pct_seguro_privado":0,"brecha_seguro":-7,"pct_salud_publica":62,"pct_med_tradicional":4,"pct_automedicacion":8,"pct_remedios_caseros":23,"pct_viv_desocupada":0,"pct_alquiler":0,"pct_electricidad":100,"pct_sin_electricidad":0,"pct_agua_red":23,"pct_alcantarillado":0,"pct_camara_septica":0,"pct_pozo_ciego":15,"pct_sin_desague":77,"pct_gas_red":0,"pct_gas_garrafa":46,"pct_lena_guano":54,"pct_basura_formal":0,"pct_basura_quema":62,"pct_basura_informal":38,"pct_internet":15,"pct_celular":69,"pct_televisor":15}},{"type":"Feature","geometry":{"type":"Polygon","coordinates":[[[-68.78579,-15.95199],[-68.78543,-15.95198],[-68.78579,-15.95197],[-68.78582,-15.95182],[-68.78533,-15.95159],[-68.78505,-15.95155],[-68.78496,-15.9522],[-68.78504,-15.95338],[-68.7857,-15.95327],[-68.78565,-15.95294],[-68.78581,-15.95273],[-68.78581,-15.95258],[-68.78536,-15.9526],[-68.78535,-15.95244],[-68.78567,-15.95244],[-68.78568,-15.95255],[-68.78581,-15.95255],[-68.78579,-15.95199]]]},"properties":{"n":"POCOATA CHICO","p":25,"personas_x_ha":17,"masculinidad":79,"pct_menor20":40,"pct_60mas":16,"pct_migrante":4,"dependencia_econ":178,"pct_empleados":0,"pct_cuentapropia":44,"pct_agricultura":44,"pct_comercio":0,"pct_manufactura":0,"pct_construccion":22,"pct_transporte":0,"pct_alojamiento":0,"pct_sin_educacion":12,"pct_educ_superior":0,"brecha_educ":7,"pct_sin_seguro":4,"pct_sus":96,"pct_seguro_privado":0,"brecha_seguro":10,"pct_salud_publica":93,"pct_med_tradicional":0,"pct_automedicacion":0,"pct_remedios_caseros":4,"pct_viv_desocupada":18,"pct_alquiler":0,"pct_electricidad":67,"pct_sin_electricidad":33,"pct_agua_red":0,"pct_alcantarillado":0,"pct_camara_septica":0,"pct_pozo_ciego":11,"pct_sin_desague":78,"pct_gas_red":0,"pct_gas_garrafa":44,"pct_lena_guano":44,"pct_basura_formal":0,"pct_basura_quema":0,"pct_basura_informal":0,"pct_internet":11,"pct_celular":44,"pct_televisor":33}},{"type":"Feature","geometry":{"type":"Polygon","coordinates":[[[-68.78717,-15.9493],[-68.7878,-15.94964],[-68.78797,-15.9495],[-68.78761,-15.94928],[-68.78799,-15.94948],[-68.7887,-15.94897],[-68.78776,-15.94833],[-68.78717,-15.9493]]]},"properties":{"n":"POCOATA CHICO","p":24,"personas_x_ha":20,"masculinidad":100,"pct_menor20":46,"pct_60mas":8,"pct_migrante":17,"dependencia_econ":320,"pct_empleados":0,"pct_cuentapropia":100,"pct_agricultura":40,"pct_comercio":0,"pct_manufactura":20,"pct_construccion":20,"pct_transporte":0,"pct_alojamiento":0,"pct_sin_educacion":0,"pct_educ_superior":8,"brecha_educ":0,"pct_sin_seguro":0,"pct_sus":100,"pct_seguro_privado":0,"brecha_seguro":0,"pct_salud_publica":51,"pct_med_tradicional":49,"pct_automedicacion":0,"pct_remedios_caseros":0,"pct_viv_desocupada":0,"pct_alquiler":0,"pct_electricidad":86,"pct_sin_electricidad":14,"pct_agua_red":0,"pct_alcantarillado":0,"pct_camara_septica":0,"pct_pozo_ciego":43,"pct_sin_desague":57,"pct_gas_red":0,"pct_gas_garrafa":71,"pct_lena_guano":29,"pct_basura_formal":0,"pct_basura_quema":86,"pct_basura_informal":0,"pct_internet":0,"pct_celular":100,"pct_televisor":71}},{"type":"Feature","geometry":{"type":"Polygon","coordinates":[[[-68.7889,-15.94844],[-68.78906,-15.94855],[-68.78872,-15.94893],[-68.78774,-15.94824],[-68.7878,-15.9481],[-68.78771,-15.94823],[-68.78715,-15.94778],[-68.78759,-15.94692],[-68.78906,-15.94777],[-68.78872,-15.94835],[-68.78796,-15.94788],[-68.78791,-15.94794],[-68.78878,-15.94856],[-68.7889,-15.94844]]]},"properties":{"n":"POCOATA CHICO","p":34,"personas_x_ha":15,"masculinidad":112,"pct_menor20":29,"pct_60mas":32,"pct_migrante":21,"dependencia_econ":36,"pct_empleados":0,"pct_cuentapropia":68,"pct_agricultura":92,"pct_comercio":0,"pct_manufactura":4,"pct_construccion":4,"pct_transporte":0,"pct_alojamiento":0,"pct_sin_educacion":25,"pct_educ_superior":0,"brecha_educ":-43,"pct_sin_seguro":33,"pct_sus":67,"pct_seguro_privado":0,"brecha_seguro":28,"pct_salud_publica":30,"pct_med_tradicional":13,"pct_automedicacion":13,"pct_remedios_caseros":26,"pct_viv_desocupada":0,"pct_alquiler":0,"pct_electricidad":73,"pct_sin_electricidad":27,"pct_agua_red":0,"pct_alcantarillado":0,"pct_camara_septica":7,"pct_pozo_ciego":20,"pct_sin_desague":73,"pct_gas_red":0,"pct_gas_garrafa":73,"pct_lena_guano":27,"pct_basura_formal":0,"pct_basura_quema":73,"pct_basura_informal":0,"pct_internet":40,"pct_celular":73,"pct_televisor":47}},{"type":"Feature","geometry":{"type":"Polygon","coordinates":[[[-68.78755,-15.95005],[-68.78835,-15.94931],[-68.78857,-15.94972],[-68.78838,-15.94929],[-68.7886,-15.94913],[-68.7889,-15.94972],[-68.78862,-15.94984],[-68.78865,-15.9499],[-68.78891,-15.94975],[-68.78908,-15.95009],[-68.78885,-15.95022],[-68.78909,-15.95012],[-68.78922,-15.95035],[-68.78899,-15.95045],[-68.78922,-15.95037],[-68.78938,-15.95071],[-68.78937,-15.95086],[-68.78897,-15.95096],[-68.78881,-15.95112],[-68.78824,-15.9514],[-68.78806,-15.9514],[-68.78805,-15.9511],[-68.78794,-15.95107],[-68.78787,-15.9508],[-68.78816,-15.95072],[-68.7883,-15.9508],[-68.78813,-15.95054],[-68.78853,-15.95028],[-68.78809,-15.95053],[-68.78812,-15.95065],[-68.78786,-15.95073],[-68.78755,-15.95005]]]},"properties":{"n":"POCOATA CHICO","p":93,"personas_x_ha":34,"masculinidad":111,"pct_menor20":38,"pct_60mas":15,"pct_migrante":9,"dependencia_econ":146,"pct_empleados":11,"pct_cuentapropia":70,"pct_agricultura":54,"pct_comercio":14,"pct_manufactura":8,"pct_construccion":24,"pct_transporte":0,"pct_alojamiento":0,"pct_sin_educacion":26,"pct_educ_superior":3,"brecha_educ":-22,"pct_sin_seguro":9,"pct_sus":90,"pct_seguro_privado":0,"brecha_seguro":-6,"pct_salud_publica":56,"pct_med_tradicional":9,"pct_automedicacion":14,"pct_remedios_caseros":14,"pct_viv_desocupada":10,"pct_alquiler":0,"pct_electricidad":82,"pct_sin_electricidad":16,"pct_agua_red":20,"pct_alcantarillado":7,"pct_camara_septica":2,"pct_pozo_ciego":50,"pct_sin_desague":39,"pct_gas_red":0,"pct_gas_garrafa":86,"pct_lena_guano":9,"pct_basura_formal":5,"pct_basura_quema":75,"pct_basura_informal":14,"pct_internet":23,"pct_celular":52,"pct_televisor":32}},{"type":"Feature","geometry":{"type":"Polygon","coordinates":[[[-68.78707,-15.95053],[-68.78671,-15.95036],[-68.78706,-15.95054],[-68.78661,-15.95102],[-68.78642,-15.95089],[-68.78623,-15.9508],[-68.7866,-15.95103],[-68.78624,-15.9514],[-68.78605,-15.95129],[-68.7857,-15.95116],[-68.78622,-15.95142],[-68.78594,-15.95177],[-68.7854,-15.95156],[-68.78549,-15.95136],[-68.78558,-15.95137],[-68.78484,-15.95112],[-68.78515,-15.95046],[-68.7858,-15.95081],[-68.78516,-15.95045],[-68.78522,-15.95033],[-68.7859,-15.95072],[-68.78523,-15.95032],[-68.78533,-15.9501],[-68.78597,-15.95045],[-68.78535,-15.95008],[-68.7854,-15.94996],[-68.7861,-15.95033],[-68.78632,-15.95032],[-68.78613,-15.9503],[-68.78542,-15.94993],[-68.78555,-15.94937],[-68.78737,-15.95015],[-68.7872,-15.95037],[-68.7868,-15.95016],[-68.78718,-15.95039],[-68.78707,-15.95053]]]},"properties":{"n":"POCOATA CHICO","p":100,"personas_x_ha":28,"masculinidad":117,"pct_menor20":45,"pct_60mas":17,"pct_migrante":12,"dependencia_econ":138,"pct_empleados":7,"pct_cuentapropia":36,"pct_agricultura":52,"pct_comercio":26,"pct_manufactura":2,"pct_construccion":10,"pct_transporte":0,"pct_alojamiento":0,"pct_sin_educacion":21,"pct_educ_superior":5,"brecha_educ":-21,"pct_sin_seguro":11,"pct_sus":89,"pct_seguro_privado":0,"brecha_seguro":8,"pct_salud_publica":26,"pct_med_tradicional":22,"pct_automedicacion":11,"pct_remedios_caseros":25,"pct_viv_desocupada":20,"pct_alquiler":0,"pct_electricidad":80,"pct_sin_electricidad":20,"pct_agua_red":29,"pct_alcantarillado":0,"pct_camara_septica":3,"pct_pozo_ciego":49,"pct_sin_desague":46,"pct_gas_red":0,"pct_gas_garrafa":57,"pct_lena_guano":40,"pct_basura_formal":0,"pct_basura_quema":69,"pct_basura_informal":9,"pct_internet":37,"pct_celular":86,"pct_televisor":46}},{"type":"Feature","geometry":{"type":"Polygon","coordinates":[[[-68.7868,-15.95097],[-68.78619,-15.95158],[-68.7863,-15.95175],[-68.78653,-15.95189],[-68.78687,-15.95154],[-68.78673,-15.95141],[-68.78682,-15.95136],[-68.78677,-15.95141],[-68.78689,-15.95152],[-68.78698,-15.95144],[-68.7868,-15.95097]]]},"properties":{"n":"POCOATA CHICO","p":40,"personas_x_ha":90,"masculinidad":111,"pct_menor20":40,"pct_60mas":20,"pct_migrante":0,"dependencia_econ":264,"pct_empleados":0,"pct_cuentapropia":82,"pct_agricultura":55,"pct_comercio":0,"pct_manufactura":9,"pct_construccion":9,"pct_transporte":18,"pct_alojamiento":9,"pct_sin_educacion":44,"pct_educ_superior":8,"brecha_educ":-37,"pct_sin_seguro":2,"pct_sus":98,"pct_seguro_privado":0,"brecha_seguro":-5,"pct_salud_publica":41,"pct_med_tradicional":6,"pct_automedicacion":1,"pct_remedios_caseros":43,"pct_viv_desocupada":0,"pct_alquiler":0,"pct_electricidad":87,"pct_sin_electricidad":13,"pct_agua_red":7,"pct_alcantarillado":0,"pct_camara_septica":0,"pct_pozo_ciego":80,"pct_sin_desague":20,"pct_gas_red":0,"pct_gas_garrafa":87,"pct_lena_guano":0,"pct_basura_formal":7,"pct_basura_quema":53,"pct_basura_informal":0,"pct_internet":20,"pct_celular":80,"pct_televisor":47}},{"type":"Feature","geometry":{"type":"Polygon","coordinates":[[[-68.78676,-15.94649],[-68.78552,-15.94601],[-68.78411,-15.94513],[-68.78359,-15.94618],[-68.78513,-15.94682],[-68.78467,-15.94784],[-68.78459,-15.94781],[-68.78456,-15.94788],[-68.78479,-15.94798],[-68.78465,-15.94827],[-68.78569,-15.94874],[-68.78676,-15.94649]]]},"properties":{"n":"POCOATA CHICO","p":20,"personas_x_ha":3,"masculinidad":100,"pct_menor20":30,"pct_60mas":35,"pct_migrante":5,"dependencia_econ":33,"pct_empleados":7,"pct_cuentapropia":73,"pct_agricultura":93,"pct_comercio":0,"pct_manufactura":0,"pct_construccion":0,"pct_transporte":0,"pct_alojamiento":0,"pct_sin_educacion":7,"pct_educ_superior":14,"brecha_educ":-8,"pct_sin_seguro":5,"pct_sus":95,"pct_seguro_privado":0,"brecha_seguro":10,"pct_salud_publica":74,"pct_med_tradicional":4,"pct_automedicacion":4,"pct_remedios_caseros":0,"pct_viv_desocupada":0,"pct_alquiler":14,"pct_electricidad":57,"pct_sin_electricidad":29,"pct_agua_red":14,"pct_alcantarillado":0,"pct_camara_septica":0,"pct_pozo_ciego":29,"pct_sin_desague":71,"pct_gas_red":0,"pct_gas_garrafa":57,"pct_lena_guano":43,"pct_basura_formal":0,"pct_basura_quema":100,"pct_basura_informal":0,"pct_internet":0,"pct_celular":71,"pct_televisor":86}},{"type":"Feature","geometry":{"type":"Polygon","coordinates":[[[-68.94941,-15.83692],[-68.94904,-15.83663],[-68.94858,-15.83726],[-68.94896,-15.83752],[-68.94941,-15.83692]]]},"properties":{"n":"VILLA MACA MACA","p":18,"personas_x_ha":41,"masculinidad":80,"pct_menor20":22,"pct_60mas":22,"pct_migrante":0,"dependencia_econ":143,"pct_empleados":29,"pct_cuentapropia":71,"pct_agricultura":57,"pct_comercio":0,"pct_manufactura":14,"pct_construccion":0,"pct_transporte":0,"pct_alojamiento":0,"pct_sin_educacion":7,"pct_educ_superior":7,"brecha_educ":-29,"pct_sin_seguro":12,"pct_sus":88,"pct_seguro_privado":0,"brecha_seguro":1,"pct_salud_publica":54,"pct_med_tradicional":18,"pct_automedicacion":4,"pct_remedios_caseros":7,"pct_viv_desocupada":0,"pct_alquiler":0,"pct_electricidad":50,"pct_sin_electricidad":50,"pct_agua_red":86,"pct_alcantarillado":0,"pct_camara_septica":0,"pct_pozo_ciego":14,"pct_sin_desague":86,"pct_gas_red":0,"pct_gas_garrafa":57,"pct_lena_guano":14,"pct_basura_formal":0,"pct_basura_quema":79,"pct_basura_informal":21,"pct_internet":7,"pct_celular":93,"pct_televisor":0}},{"type":"Feature","geometry":{"type":"Polygon","coordinates":[[[-68.94687,-15.83613],[-68.94787,-15.83677],[-68.94829,-15.83612],[-68.94733,-15.83553],[-68.94687,-15.83613]]]},"properties":{"n":"VILLA MACA MACA","p":28,"personas_x_ha":26,"masculinidad":115,"pct_menor20":29,"pct_60mas":14,"pct_migrante":18,"dependencia_econ":80,"pct_empleados":13,"pct_cuentapropia":80,"pct_agricultura":60,"pct_comercio":7,"pct_manufactura":7,"pct_construccion":13,"pct_transporte":0,"pct_alojamiento":0,"pct_sin_educacion":11,"pct_educ_superior":0,"brecha_educ":-41,"pct_sin_seguro":19,"pct_sus":81,"pct_seguro_privado":0,"brecha_seguro":3,"pct_salud_publica":16,"pct_med_tradicional":22,"pct_automedicacion":24,"pct_remedios_caseros":28,"pct_viv_desocupada":6,"pct_alquiler":0,"pct_electricidad":41,"pct_sin_electricidad":59,"pct_agua_red":53,"pct_alcantarillado":0,"pct_camara_septica":0,"pct_pozo_ciego":24,"pct_sin_desague":76,"pct_gas_red":0,"pct_gas_garrafa":71,"pct_lena_guano":12,"pct_basura_formal":6,"pct_basura_quema":65,"pct_basura_informal":29,"pct_internet":65,"pct_celular":76,"pct_televisor":18}},{"type":"Feature","geometry":{"type":"Polygon","coordinates":[[[-68.94902,-15.83655],[-68.94921,-15.83625],[-68.94869,-15.83574],[-68.94839,-15.83613],[-68.94902,-15.83655]]]},"properties":{"n":"VILLA MACA MACA","p":25,"personas_x_ha":67,"masculinidad":79,"pct_menor20":20,"pct_60mas":36,"pct_migrante":4,"dependencia_econ":50,"pct_empleados":6,"pct_cuentapropia":75,"pct_agricultura":50,"pct_comercio":19,"pct_manufactura":12,"pct_construccion":6,"pct_transporte":0,"pct_alojamiento":0,"pct_sin_educacion":15,"pct_educ_superior":5,"brecha_educ":-11,"pct_sin_seguro":17,"pct_sus":83,"pct_seguro_privado":0,"brecha_seguro":36,"pct_salud_publica":52,"pct_med_tradicional":21,"pct_automedicacion":7,"pct_remedios_caseros":7,"pct_viv_desocupada":22,"pct_alquiler":0,"pct_electricidad":36,"pct_sin_electricidad":64,"pct_agua_red":14,"pct_alcantarillado":0,"pct_camara_septica":0,"pct_pozo_ciego":14,"pct_sin_desague":86,"pct_gas_red":0,"pct_gas_garrafa":36,"pct_lena_guano":43,"pct_basura_formal":7,"pct_basura_quema":36,"pct_basura_informal":57,"pct_internet":57,"pct_celular":86,"pct_televisor":21}},{"type":"Feature","geometry":{"type":"Polygon","coordinates":[[[-68.94844,-15.83727],[-68.9479,-15.83689],[-68.94728,-15.83798],[-68.94776,-15.83832],[-68.94844,-15.83727]]]},"properties":{"n":"VILLA MACA MACA","p":28,"personas_x_ha":29,"masculinidad":56,"pct_menor20":21,"pct_60mas":18,"pct_migrante":7,"dependencia_econ":30,"pct_empleados":15,"pct_cuentapropia":60,"pct_agricultura":45,"pct_comercio":5,"pct_manufactura":15,"pct_construccion":15,"pct_transporte":0,"pct_alojamiento":0,"pct_sin_educacion":5,"pct_educ_superior":15,"brecha_educ":-33,"pct_sin_seguro":8,"pct_sus":92,"pct_seguro_privado":0,"brecha_seguro":-12,"pct_salud_publica":44,"pct_med_tradicional":20,"pct_automedicacion":11,"pct_remedios_caseros":18,"pct_viv_desocupada":0,"pct_alquiler":0,"pct_electricidad":57,"pct_sin_electricidad":33,"pct_agua_red":52,"pct_alcantarillado":5,"pct_camara_septica":0,"pct_pozo_ciego":29,"pct_sin_desague":62,"pct_gas_red":0,"pct_gas_garrafa":71,"pct_lena_guano":19,"pct_basura_formal":0,"pct_basura_quema":43,"pct_basura_informal":57,"pct_internet":19,"pct_celular":71,"pct_televisor":10}},{"type":"Feature","geometry":{"type":"Polygon","coordinates":[[[-68.94732,-15.83649],[-68.94704,-15.83683],[-68.94727,-15.83648],[-68.94683,-15.83617],[-68.94646,-15.83667],[-68.94697,-15.83702],[-68.94657,-15.83757],[-68.94723,-15.83789],[-68.94736,-15.83754],[-68.94781,-15.83685],[-68.94732,-15.83649]]]},"properties":{"n":"VILLA MACA MACA","p":24,"personas_x_ha":17,"masculinidad":140,"pct_menor20":17,"pct_60mas":12,"pct_migrante":12,"dependencia_econ":26,"pct_empleados":5,"pct_cuentapropia":95,"pct_agricultura":37,"pct_comercio":26,"pct_manufactura":11,"pct_construccion":11,"pct_transporte":5,"pct_alojamiento":0,"pct_sin_educacion":5,"pct_educ_superior":0,"brecha_educ":-19,"pct_sin_seguro":41,"pct_sus":59,"pct_seguro_privado":0,"brecha_seguro":-44,"pct_salud_publica":24,"pct_med_tradicional":21,"pct_automedicacion":12,"pct_remedios_caseros":25,"pct_viv_desocupada":10,"pct_alquiler":0,"pct_electricidad":74,"pct_sin_electricidad":26,"pct_agua_red":47,"pct_alcantarillado":0,"pct_camara_septica":5,"pct_pozo_ciego":58,"pct_sin_desague":32,"pct_gas_red":0,"pct_gas_garrafa":58,"pct_lena_guano":37,"pct_basura_formal":5,"pct_basura_quema":58,"pct_basura_informal":32,"pct_internet":21,"pct_celular":84,"pct_televisor":37}}]}