{"type":"FeatureCollection","features":[{"type":"Feature","geometry":{"type":"Polygon","coordinates":[[[-67.46064,-17.04331],[-67.46113,-17.04267],[-67.46096,-17.04255],[-67.46093,-17.04236],[-67.46075,-17.04224],[-67.46055,-17.04251],[-67.46062,-17.04269],[-67.46055,-17.04294],[-67.46022,-17.04331],[-67.46028,-17.04337],[-67.46064,-17.04331]]]},"properties":{"n":"ALTO MALLA","p":48,"personas_x_ha":94,"masculinidad":109,"pct_menor20":33,"pct_60mas":17,"pct_migrante":12,"dependencia_econ":88,"pct_empleados":36,"pct_cuentapropia":48,"pct_agricultura":60,"pct_comercio":0,"pct_manufactura":0,"pct_construccion":8,"pct_transporte":0,"pct_alojamiento":12,"pct_sin_educacion":19,"pct_educ_superior":0,"brecha_educ":-12,"pct_sin_seguro":4,"pct_sus":96,"pct_seguro_privado":0,"brecha_seguro":0,"pct_salud_publica":50,"pct_med_tradicional":17,"pct_automedicacion":11,"pct_remedios_caseros":17,"pct_viv_desocupada":0,"pct_alquiler":0,"pct_electricidad":77,"pct_sin_electricidad":23,"pct_agua_red":15,"pct_alcantarillado":0,"pct_camara_septica":0,"pct_pozo_ciego":0,"pct_sin_desague":100,"pct_gas_red":0,"pct_gas_garrafa":69,"pct_lena_guano":31,"pct_basura_formal":31,"pct_basura_quema":31,"pct_basura_informal":38,"pct_internet":31,"pct_celular":92,"pct_televisor":31}},{"type":"Feature","geometry":{"type":"Polygon","coordinates":[[[-67.46076,-17.04042],[-67.46066,-17.04028],[-67.4604,-17.04023],[-67.45993,-17.04056],[-67.46017,-17.04083],[-67.46076,-17.04042]]]},"properties":{"n":"ALTO MALLA","p":27,"personas_x_ha":90,"masculinidad":200,"pct_menor20":56,"pct_60mas":11,"pct_migrante":0,"dependencia_econ":350,"pct_empleados":0,"pct_cuentapropia":67,"pct_agricultura":50,"pct_comercio":0,"pct_manufactura":0,"pct_construccion":0,"pct_transporte":17,"pct_alojamiento":0,"pct_sin_educacion":15,"pct_educ_superior":0,"brecha_educ":19,"pct_sin_seguro":11,"pct_sus":89,"pct_seguro_privado":0,"brecha_seguro":17,"pct_salud_publica":69,"pct_med_tradicional":3,"pct_automedicacion":6,"pct_remedios_caseros":8,"pct_viv_desocupada":7,"pct_alquiler":0,"pct_electricidad":60,"pct_sin_electricidad":40,"pct_agua_red":40,"pct_alcantarillado":0,"pct_camara_septica":0,"pct_pozo_ciego":10,"pct_sin_desague":90,"pct_gas_red":0,"pct_gas_garrafa":60,"pct_lena_guano":40,"pct_basura_formal":100,"pct_basura_quema":0,"pct_basura_informal":0,"pct_internet":50,"pct_celular":90,"pct_televisor":20}},{"type":"Feature","geometry":{"type":"Polygon","coordinates":[[[-67.46037,-17.04187],[-67.4607,-17.04165],[-67.46022,-17.04104],[-67.45991,-17.04125],[-67.46037,-17.04187]]]},"properties":{"n":"ALTO MALLA","p":32,"personas_x_ha":88,"masculinidad":68,"pct_menor20":47,"pct_60mas":0,"pct_migrante":19,"dependencia_econ":158,"pct_empleados":17,"pct_cuentapropia":75,"pct_agricultura":58,"pct_comercio":17,"pct_manufactura":8,"pct_construccion":8,"pct_transporte":8,"pct_alojamiento":0,"pct_sin_educacion":0,"pct_educ_superior":0,"brecha_educ":13,"pct_sin_seguro":7,"pct_sus":93,"pct_seguro_privado":0,"brecha_seguro":-12,"pct_salud_publica":68,"pct_med_tradicional":2,"pct_automedicacion":0,"pct_remedios_caseros":25,"pct_viv_desocupada":0,"pct_alquiler":12,"pct_electricidad":94,"pct_sin_electricidad":6,"pct_agua_red":50,"pct_alcantarillado":12,"pct_camara_septica":6,"pct_pozo_ciego":6,"pct_sin_desague":75,"pct_gas_red":0,"pct_gas_garrafa":81,"pct_lena_guano":19,"pct_basura_formal":69,"pct_basura_quema":19,"pct_basura_informal":6,"pct_internet":25,"pct_celular":81,"pct_televisor":75}},{"type":"Feature","geometry":{"type":"Polygon","coordinates":[[[-67.46102,-17.04194],[-67.46077,-17.04221],[-67.46113,-17.04241],[-67.46118,-17.04262],[-67.46133,-17.04262],[-67.46156,-17.04233],[-67.46149,-17.04202],[-67.46133,-17.04181],[-67.4613,-17.0415],[-67.46111,-17.04149],[-67.46102,-17.04194]]]},"properties":{"n":"ALTO MALLA","p":34,"personas_x_ha":64,"masculinidad":89,"pct_menor20":47,"pct_60mas":18,"pct_migrante":6,"dependencia_econ":89,"pct_empleados":6,"pct_cuentapropia":72,"pct_agricultura":78,"pct_comercio":0,"pct_manufactura":17,"pct_construccion":0,"pct_transporte":0,"pct_alojamiento":6,"pct_sin_educacion":28,"pct_educ_superior":6,"brecha_educ":-25,"pct_sin_seguro":0,"pct_sus":94,"pct_seguro_privado":0,"brecha_seguro":0,"pct_salud_publica":35,"pct_med_tradicional":8,"pct_automedicacion":10,"pct_remedios_caseros":22,"pct_viv_desocupada":0,"pct_alquiler":8,"pct_electricidad":92,"pct_sin_electricidad":8,"pct_agua_red":50,"pct_alcantarillado":0,"pct_camara_septica":17,"pct_pozo_ciego":0,"pct_sin_desague":83,"pct_gas_red":0,"pct_gas_garrafa":50,"pct_lena_guano":50,"pct_basura_formal":58,"pct_basura_quema":8,"pct_basura_informal":33,"pct_internet":42,"pct_celular":83,"pct_televisor":42}},{"type":"Feature","geometry":{"type":"Polygon","coordinates":[[[-67.461,-17.04177],[-67.46098,-17.04156],[-67.46121,-17.04123],[-67.46121,-17.04081],[-67.46111,-17.0407],[-67.461,-17.04073],[-67.46081,-17.04159],[-67.461,-17.04177]]]},"properties":{"n":"ALTO MALLA","p":16,"personas_x_ha":56,"masculinidad":78,"pct_menor20":31,"pct_60mas":19,"pct_migrante":12,"dependencia_econ":78,"pct_empleados":0,"pct_cuentapropia":100,"pct_agricultura":100,"pct_comercio":0,"pct_manufactura":0,"pct_construccion":0,"pct_transporte":0,"pct_alojamiento":0,"pct_sin_educacion":18,"pct_educ_superior":0,"brecha_educ":-7,"pct_sin_seguro":12,"pct_sus":88,"pct_seguro_privado":0,"brecha_seguro":-22,"pct_salud_publica":43,"pct_med_tradicional":7,"pct_automedicacion":7,"pct_remedios_caseros":29,"pct_viv_desocupada":0,"pct_alquiler":0,"pct_electricidad":100,"pct_sin_electricidad":0,"pct_agua_red":36,"pct_alcantarillado":9,"pct_camara_septica":18,"pct_pozo_ciego":9,"pct_sin_desague":64,"pct_gas_red":0,"pct_gas_garrafa":36,"pct_lena_guano":55,"pct_basura_formal":45,"pct_basura_quema":18,"pct_basura_informal":18,"pct_internet":18,"pct_celular":55,"pct_televisor":55}},{"type":"Feature","geometry":{"type":"Polygon","coordinates":[[[-67.50617,-16.99248],[-67.50642,-16.99197],[-67.50613,-16.99164],[-67.50591,-16.99212],[-67.5059,-16.99235],[-67.50617,-16.99248]]]},"properties":{"n":"ATOROMA","p":48,"personas_x_ha":161,"masculinidad":200,"pct_menor20":50,"pct_60mas":10,"pct_migrante":19,"dependencia_econ":129,"pct_empleados":5,"pct_cuentapropia":71,"pct_agricultura":71,"pct_comercio":10,"pct_manufactura":5,"pct_construccion":0,"pct_transporte":0,"pct_alojamiento":0,"pct_sin_educacion":12,"pct_educ_superior":0,"brecha_educ":17,"pct_sin_seguro":27,"pct_sus":73,"pct_seguro_privado":0,"brecha_seguro":12,"pct_salud_publica":43,"pct_med_tradicional":5,"pct_automedicacion":13,"pct_remedios_caseros":21,"pct_viv_desocupada":47,"pct_alquiler":0,"pct_electricidad":85,"pct_sin_electricidad":15,"pct_agua_red":54,"pct_alcantarillado":15,"pct_camara_septica":0,"pct_pozo_ciego":0,"pct_sin_desague":62,"pct_gas_red":0,"pct_gas_garrafa":54,"pct_lena_guano":46,"pct_basura_formal":46,"pct_basura_quema":23,"pct_basura_informal":15,"pct_internet":38,"pct_celular":69,"pct_televisor":23}},{"type":"Feature","geometry":{"type":"Polygon","coordinates":[[[-67.50688,-16.99237],[-67.50682,-16.99233],[-67.50669,-16.99249],[-67.50656,-16.99279],[-67.5067,-16.99269],[-67.50677,-16.99272],[-67.50688,-16.99237]]]},"properties":{"n":"ATOROMA","p":42,"personas_x_ha":591,"masculinidad":110,"pct_menor20":48,"pct_60mas":12,"pct_migrante":5,"dependencia_econ":160,"pct_empleados":0,"pct_cuentapropia":53,"pct_agricultura":73,"pct_comercio":7,"pct_manufactura":0,"pct_construccion":0,"pct_transporte":0,"pct_alojamiento":7,"pct_sin_educacion":16,"pct_educ_superior":0,"brecha_educ":-16,"pct_sin_seguro":56,"pct_sus":44,"pct_seguro_privado":0,"brecha_seguro":22,"pct_salud_publica":26,"pct_med_tradicional":11,"pct_automedicacion":16,"pct_remedios_caseros":29,"pct_viv_desocupada":11,"pct_alquiler":0,"pct_electricidad":100,"pct_sin_electricidad":0,"pct_agua_red":86,"pct_alcantarillado":43,"pct_camara_septica":0,"pct_pozo_ciego":0,"pct_sin_desague":43,"pct_gas_red":0,"pct_gas_garrafa":71,"pct_lena_guano":29,"pct_basura_formal":57,"pct_basura_quema":29,"pct_basura_informal":0,"pct_internet":43,"pct_celular":100,"pct_televisor":57}},{"type":"Feature","geometry":{"type":"Polygon","coordinates":[[[-67.50676,-16.99186],[-67.50682,-16.99144],[-67.50628,-16.99168],[-67.50643,-16.99192],[-67.50676,-16.99186]]]},"properties":{"n":"ATOROMA","p":25,"personas_x_ha":140,"masculinidad":108,"pct_menor20":52,"pct_60mas":0,"pct_migrante":8,"dependencia_econ":67,"pct_empleados":0,"pct_cuentapropia":67,"pct_agricultura":73,"pct_comercio":0,"pct_manufactura":0,"pct_construccion":7,"pct_transporte":0,"pct_alojamiento":0,"pct_sin_educacion":7,"pct_educ_superior":0,"brecha_educ":4,"pct_sin_seguro":4,"pct_sus":96,"pct_seguro_privado":0,"brecha_seguro":8,"pct_salud_publica":46,"pct_med_tradicional":4,"pct_automedicacion":35,"pct_remedios_caseros":4,"pct_viv_desocupada":0,"pct_alquiler":0,"pct_electricidad":75,"pct_sin_electricidad":25,"pct_agua_red":62,"pct_alcantarillado":12,"pct_camara_septica":0,"pct_pozo_ciego":12,"pct_sin_desague":62,"pct_gas_red":0,"pct_gas_garrafa":50,"pct_lena_guano":50,"pct_basura_formal":100,"pct_basura_quema":0,"pct_basura_informal":0,"pct_internet":0,"pct_celular":88,"pct_televisor":62}},{"type":"Feature","geometry":{"type":"Polygon","coordinates":[[[-67.50697,-16.99236],[-67.50713,-16.99224],[-67.50703,-16.99199],[-67.50676,-16.99189],[-67.50653,-16.992],[-67.50676,-16.99223],[-67.50687,-16.99216],[-67.50697,-16.99236]]]},"properties":{"n":"ATOROMA","p":28,"personas_x_ha":166,"masculinidad":155,"pct_menor20":54,"pct_60mas":0,"pct_migrante":7,"dependencia_econ":133,"pct_empleados":8,"pct_cuentapropia":75,"pct_agricultura":83,"pct_comercio":0,"pct_manufactura":0,"pct_construccion":0,"pct_transporte":8,"pct_alojamiento":0,"pct_sin_educacion":0,"pct_educ_superior":8,"brecha_educ":-48,"pct_sin_seguro":14,"pct_sus":86,"pct_seguro_privado":0,"brecha_seguro":9,"pct_salud_publica":35,"pct_med_tradicional":18,"pct_automedicacion":3,"pct_remedios_caseros":32,"pct_viv_desocupada":5,"pct_alquiler":0,"pct_electricidad":67,"pct_sin_electricidad":17,"pct_agua_red":50,"pct_alcantarillado":17,"pct_camara_septica":17,"pct_pozo_ciego":0,"pct_sin_desague":67,"pct_gas_red":0,"pct_gas_garrafa":83,"pct_lena_guano":17,"pct_basura_formal":33,"pct_basura_quema":50,"pct_basura_informal":0,"pct_internet":100,"pct_celular":100,"pct_televisor":33}},{"type":"Feature","geometry":{"type":"Polygon","coordinates":[[[-67.37228,-16.99621],[-67.3725,-16.99612],[-67.37224,-16.99589],[-67.37215,-16.99603],[-67.37228,-16.99621]]]},"properties":{"n":"CHOJÑACOTA","p":53,"personas_x_ha":743,"masculinidad":430,"pct_menor20":21,"pct_60mas":4,"pct_migrante":55,"dependencia_econ":23,"pct_empleados":47,"pct_cuentapropia":12,"pct_agricultura":2,"pct_comercio":5,"pct_manufactura":2,"pct_construccion":0,"pct_transporte":0,"pct_alojamiento":7,"pct_sin_educacion":7,"pct_educ_superior":2,"brecha_educ":-23,"pct_sin_seguro":15,"pct_sus":81,"pct_seguro_privado":0,"brecha_seguro":19,"pct_salud_publica":26,"pct_med_tradicional":20,"pct_automedicacion":20,"pct_remedios_caseros":26,"pct_viv_desocupada":0,"pct_alquiler":4,"pct_electricidad":0,"pct_sin_electricidad":93,"pct_agua_red":0,"pct_alcantarillado":0,"pct_camara_septica":2,"pct_pozo_ciego":24,"pct_sin_desague":70,"pct_gas_red":0,"pct_gas_garrafa":96,"pct_lena_guano":0,"pct_basura_formal":0,"pct_basura_quema":50,"pct_basura_informal":0,"pct_internet":61,"pct_celular":85,"pct_televisor":2}},{"type":"Feature","geometry":{"type":"Polygon","coordinates":[[[-67.37307,-16.99616],[-67.3726,-16.99607],[-67.37242,-16.99632],[-67.37258,-16.99641],[-67.37275,-16.99637],[-67.37297,-16.99631],[-67.37307,-16.99616]]]},"properties":{"n":"CHOJÑACOTA","p":33,"personas_x_ha":224,"masculinidad":450,"pct_menor20":24,"pct_60mas":3,"pct_migrante":55,"dependencia_econ":22,"pct_empleados":33,"pct_cuentapropia":0,"pct_agricultura":0,"pct_comercio":4,"pct_manufactura":4,"pct_construccion":0,"pct_transporte":0,"pct_alojamiento":4,"pct_sin_educacion":4,"pct_educ_superior":14,"brecha_educ":-25,"pct_sin_seguro":39,"pct_sus":58,"pct_seguro_privado":0,"brecha_seguro":7,"pct_salud_publica":32,"pct_med_tradicional":33,"pct_automedicacion":10,"pct_remedios_caseros":13,"pct_viv_desocupada":8,"pct_alquiler":0,"pct_electricidad":0,"pct_sin_electricidad":91,"pct_agua_red":0,"pct_alcantarillado":0,"pct_camara_septica":55,"pct_pozo_ciego":0,"pct_sin_desague":36,"pct_gas_red":0,"pct_gas_garrafa":64,"pct_lena_guano":0,"pct_basura_formal":77,"pct_basura_quema":14,"pct_basura_informal":0,"pct_internet":59,"pct_celular":95,"pct_televisor":0}},{"type":"Feature","geometry":{"type":"Polygon","coordinates":[[[-67.49864,-16.99161],[-67.4983,-16.99094],[-67.49863,-16.99072],[-67.49837,-16.99049],[-67.49825,-16.9906],[-67.49829,-16.99073],[-67.49805,-16.99073],[-67.49798,-16.99085],[-67.49813,-16.99158],[-67.49843,-16.99196],[-67.49865,-16.992],[-67.49871,-16.9916],[-67.49864,-16.99161]]]},"properties":{"n":"JACHAPAMPA","p":25,"personas_x_ha":37,"masculinidad":108,"pct_menor20":28,"pct_60mas":20,"pct_migrante":8,"dependencia_econ":39,"pct_empleados":6,"pct_cuentapropia":89,"pct_agricultura":89,"pct_comercio":0,"pct_manufactura":0,"pct_construccion":0,"pct_transporte":6,"pct_alojamiento":0,"pct_sin_educacion":16,"pct_educ_superior":5,"brecha_educ":-37,"pct_sin_seguro":45,"pct_sus":45,"pct_seguro_privado":0,"brecha_seguro":-18,"pct_salud_publica":25,"pct_med_tradicional":30,"pct_automedicacion":0,"pct_remedios_caseros":30,"pct_viv_desocupada":0,"pct_alquiler":0,"pct_electricidad":100,"pct_sin_electricidad":0,"pct_agua_red":100,"pct_alcantarillado":0,"pct_camara_septica":0,"pct_pozo_ciego":0,"pct_sin_desague":17,"pct_gas_red":0,"pct_gas_garrafa":17,"pct_lena_guano":83,"pct_basura_formal":0,"pct_basura_quema":0,"pct_basura_informal":0,"pct_internet":67,"pct_celular":83,"pct_televisor":50}},{"type":"Feature","geometry":{"type":"Polygon","coordinates":[[[-67.49925,-16.9922],[-67.49869,-16.99205],[-67.49862,-16.99242],[-67.49869,-16.99241],[-67.49873,-16.99258],[-67.49911,-16.99245],[-67.49925,-16.9922]]]},"properties":{"n":"JACHAPAMPA","p":25,"personas_x_ha":96,"masculinidad":79,"pct_menor20":40,"pct_60mas":4,"pct_migrante":12,"dependencia_econ":79,"pct_empleados":0,"pct_cuentapropia":93,"pct_agricultura":64,"pct_comercio":21,"pct_manufactura":7,"pct_construccion":0,"pct_transporte":7,"pct_alojamiento":0,"pct_sin_educacion":0,"pct_educ_superior":0,"brecha_educ":11,"pct_sin_seguro":4,"pct_sus":92,"pct_seguro_privado":0,"brecha_seguro":9,"pct_salud_publica":31,"pct_med_tradicional":16,"pct_automedicacion":9,"pct_remedios_caseros":22,"pct_viv_desocupada":27,"pct_alquiler":0,"pct_electricidad":100,"pct_sin_electricidad":0,"pct_agua_red":100,"pct_alcantarillado":75,"pct_camara_septica":0,"pct_pozo_ciego":0,"pct_sin_desague":12,"pct_gas_red":0,"pct_gas_garrafa":62,"pct_lena_guano":38,"pct_basura_formal":25,"pct_basura_quema":62,"pct_basura_informal":0,"pct_internet":62,"pct_celular":100,"pct_televisor":100}},{"type":"Feature","geometry":{"type":"Polygon","coordinates":[[[-67.49925,-16.99174],[-67.49908,-16.99206],[-67.49925,-16.99215],[-67.4994,-16.99189],[-67.49925,-16.99174]]]},"properties":{"n":"JACHAPAMPA","p":29,"personas_x_ha":340,"masculinidad":93,"pct_menor20":59,"pct_60mas":7,"pct_migrante":34,"dependencia_econ":190,"pct_empleados":0,"pct_cuentapropia":80,"pct_agricultura":80,"pct_comercio":10,"pct_manufactura":0,"pct_construccion":0,"pct_transporte":0,"pct_alojamiento":10,"pct_sin_educacion":0,"pct_educ_superior":0,"brecha_educ":-50,"pct_sin_seguro":31,"pct_sus":69,"pct_seguro_privado":0,"brecha_seguro":9,"pct_salud_publica":37,"pct_med_tradicional":2,"pct_automedicacion":0,"pct_remedios_caseros":58,"pct_viv_desocupada":0,"pct_alquiler":0,"pct_electricidad":100,"pct_sin_electricidad":0,"pct_agua_red":83,"pct_alcantarillado":83,"pct_camara_septica":0,"pct_pozo_ciego":0,"pct_sin_desague":17,"pct_gas_red":0,"pct_gas_garrafa":67,"pct_lena_guano":33,"pct_basura_formal":67,"pct_basura_quema":33,"pct_basura_informal":0,"pct_internet":0,"pct_celular":100,"pct_televisor":17}},{"type":"Feature","geometry":{"type":"Polygon","coordinates":[[[-67.49913,-16.99132],[-67.49893,-16.99151],[-67.49924,-16.99168],[-67.4994,-16.99137],[-67.49913,-16.99132]]]},"properties":{"n":"JACHAPAMPA","p":24,"personas_x_ha":211,"masculinidad":118,"pct_menor20":25,"pct_60mas":29,"pct_migrante":25,"dependencia_econ":41,"pct_empleados":6,"pct_cuentapropia":88,"pct_agricultura":88,"pct_comercio":0,"pct_manufactura":6,"pct_construccion":0,"pct_transporte":0,"pct_alojamiento":6,"pct_sin_educacion":0,"pct_educ_superior":11,"brecha_educ":-22,"pct_sin_seguro":17,"pct_sus":83,"pct_seguro_privado":0,"brecha_seguro":-3,"pct_salud_publica":39,"pct_med_tradicional":20,"pct_automedicacion":2,"pct_remedios_caseros":36,"pct_viv_desocupada":0,"pct_alquiler":0,"pct_electricidad":100,"pct_sin_electricidad":0,"pct_agua_red":89,"pct_alcantarillado":100,"pct_camara_septica":0,"pct_pozo_ciego":0,"pct_sin_desague":0,"pct_gas_red":0,"pct_gas_garrafa":11,"pct_lena_guano":89,"pct_basura_formal":100,"pct_basura_quema":0,"pct_basura_informal":0,"pct_internet":44,"pct_celular":78,"pct_televisor":22}},{"type":"Feature","geometry":{"type":"Polygon","coordinates":[[[-67.49891,-16.99154],[-67.49874,-16.99166],[-67.4987,-16.992],[-67.49904,-16.99205],[-67.49922,-16.99172],[-67.49891,-16.99154]]]},"properties":{"n":"JACHAPAMPA","p":65,"personas_x_ha":306,"masculinidad":91,"pct_menor20":52,"pct_60mas":12,"pct_migrante":35,"dependencia_econ":141,"pct_empleados":11,"pct_cuentapropia":52,"pct_agricultura":74,"pct_comercio":4,"pct_manufactura":7,"pct_construccion":0,"pct_transporte":4,"pct_alojamiento":0,"pct_sin_educacion":6,"pct_educ_superior":0,"brecha_educ":-24,"pct_sin_seguro":25,"pct_sus":68,"pct_seguro_privado":0,"brecha_seguro":-10,"pct_salud_publica":38,"pct_med_tradicional":17,"pct_automedicacion":7,"pct_remedios_caseros":30,"pct_viv_desocupada":0,"pct_alquiler":0,"pct_electricidad":93,"pct_sin_electricidad":7,"pct_agua_red":47,"pct_alcantarillado":93,"pct_camara_septica":7,"pct_pozo_ciego":0,"pct_sin_desague":0,"pct_gas_red":0,"pct_gas_garrafa":73,"pct_lena_guano":27,"pct_basura_formal":47,"pct_basura_quema":53,"pct_basura_informal":0,"pct_internet":47,"pct_celular":73,"pct_televisor":33}},{"type":"Feature","geometry":{"type":"Polygon","coordinates":[[[-67.49836,-16.99203],[-67.49831,-16.99217],[-67.49861,-16.99287],[-67.49864,-16.99205],[-67.49836,-16.99203]]]},"properties":{"n":"JACHAPAMPA","p":37,"personas_x_ha":184,"masculinidad":76,"pct_menor20":54,"pct_60mas":5,"pct_migrante":3,"dependencia_econ":76,"pct_empleados":0,"pct_cuentapropia":71,"pct_agricultura":90,"pct_comercio":0,"pct_manufactura":0,"pct_construccion":0,"pct_transporte":0,"pct_alojamiento":5,"pct_sin_educacion":0,"pct_educ_superior":0,"brecha_educ":13,"pct_sin_seguro":32,"pct_sus":68,"pct_seguro_privado":0,"brecha_seguro":9,"pct_salud_publica":38,"pct_med_tradicional":24,"pct_automedicacion":9,"pct_remedios_caseros":12,"pct_viv_desocupada":0,"pct_alquiler":0,"pct_electricidad":100,"pct_sin_electricidad":0,"pct_agua_red":100,"pct_alcantarillado":100,"pct_camara_septica":0,"pct_pozo_ciego":0,"pct_sin_desague":0,"pct_gas_red":0,"pct_gas_garrafa":88,"pct_lena_guano":12,"pct_basura_formal":75,"pct_basura_quema":25,"pct_basura_informal":0,"pct_internet":12,"pct_celular":75,"pct_televisor":50}},{"type":"Feature","geometry":{"type":"Polygon","coordinates":[[[-67.49948,-16.9918],[-67.49974,-16.99166],[-67.49988,-16.99138],[-67.49944,-16.99139],[-67.49929,-16.99169],[-67.49948,-16.9918]]]},"properties":{"n":"JACHAPAMPA","p":23,"personas_x_ha":125,"masculinidad":109,"pct_menor20":39,"pct_60mas":13,"pct_migrante":17,"dependencia_econ":53,"pct_empleados":13,"pct_cuentapropia":67,"pct_agricultura":67,"pct_comercio":13,"pct_manufactura":7,"pct_construccion":7,"pct_transporte":0,"pct_alojamiento":0,"pct_sin_educacion":0,"pct_educ_superior":0,"brecha_educ":-21,"pct_sin_seguro":4,"pct_sus":96,"pct_seguro_privado":0,"brecha_seguro":-9,"pct_salud_publica":70,"pct_med_tradicional":7,"pct_automedicacion":3,"pct_remedios_caseros":10,"pct_viv_desocupada":14,"pct_alquiler":0,"pct_electricidad":100,"pct_sin_electricidad":0,"pct_agua_red":100,"pct_alcantarillado":83,"pct_camara_septica":0,"pct_pozo_ciego":0,"pct_sin_desague":17,"pct_gas_red":0,"pct_gas_garrafa":100,"pct_lena_guano":0,"pct_basura_formal":83,"pct_basura_quema":0,"pct_basura_informal":17,"pct_internet":0,"pct_celular":83,"pct_televisor":67}},{"type":"Feature","geometry":{"type":"Polygon","coordinates":[[[-67.4489,-17.03777],[-67.4489,-17.03764],[-67.44848,-17.03752],[-67.44738,-17.03765],[-67.44746,-17.03779],[-67.44764,-17.0378],[-67.44744,-17.03783],[-67.44735,-17.03766],[-67.44681,-17.03786],[-67.44689,-17.03811],[-67.44736,-17.03839],[-67.44751,-17.03829],[-67.44743,-17.03797],[-67.44839,-17.0377],[-67.44855,-17.03781],[-67.4489,-17.03777]]]},"properties":{"n":"MALLA","p":41,"personas_x_ha":54,"masculinidad":86,"pct_menor20":37,"pct_60mas":5,"pct_migrante":39,"dependencia_econ":71,"pct_empleados":25,"pct_cuentapropia":54,"pct_agricultura":58,"pct_comercio":4,"pct_manufactura":0,"pct_construccion":0,"pct_transporte":4,"pct_alojamiento":0,"pct_sin_educacion":0,"pct_educ_superior":23,"brecha_educ":-21,"pct_sin_seguro":13,"pct_sus":79,"pct_seguro_privado":0,"brecha_seguro":-3,"pct_salud_publica":27,"pct_med_tradicional":12,"pct_automedicacion":10,"pct_remedios_caseros":30,"pct_viv_desocupada":0,"pct_alquiler":0,"pct_electricidad":91,"pct_sin_electricidad":9,"pct_agua_red":45,"pct_alcantarillado":0,"pct_camara_septica":9,"pct_pozo_ciego":45,"pct_sin_desague":45,"pct_gas_red":0,"pct_gas_garrafa":64,"pct_lena_guano":36,"pct_basura_formal":100,"pct_basura_quema":0,"pct_basura_informal":0,"pct_internet":64,"pct_celular":64,"pct_televisor":55}},{"type":"Feature","geometry":{"type":"Polygon","coordinates":[[[-67.45007,-17.03793],[-67.4498,-17.0381],[-67.44987,-17.03846],[-67.45037,-17.03835],[-67.45007,-17.03793]]]},"properties":{"n":"MALLA","p":24,"personas_x_ha":116,"masculinidad":140,"pct_menor20":29,"pct_60mas":21,"pct_migrante":38,"dependencia_econ":50,"pct_empleados":0,"pct_cuentapropia":69,"pct_agricultura":12,"pct_comercio":6,"pct_manufactura":62,"pct_construccion":0,"pct_transporte":6,"pct_alojamiento":0,"pct_sin_educacion":18,"pct_educ_superior":35,"brecha_educ":-3,"pct_sin_seguro":33,"pct_sus":67,"pct_seguro_privado":0,"brecha_seguro":6,"pct_salud_publica":33,"pct_med_tradicional":15,"pct_automedicacion":24,"pct_remedios_caseros":28,"pct_viv_desocupada":0,"pct_alquiler":0,"pct_electricidad":60,"pct_sin_electricidad":40,"pct_agua_red":60,"pct_alcantarillado":0,"pct_camara_septica":0,"pct_pozo_ciego":10,"pct_sin_desague":70,"pct_gas_red":0,"pct_gas_garrafa":70,"pct_lena_guano":30,"pct_basura_formal":70,"pct_basura_quema":0,"pct_basura_informal":30,"pct_internet":20,"pct_celular":30,"pct_televisor":30}},{"type":"Feature","geometry":{"type":"Polygon","coordinates":[[[-67.44846,-17.03715],[-67.44788,-17.03726],[-67.44768,-17.03746],[-67.44737,-17.03739],[-67.44732,-17.03752],[-67.44777,-17.03756],[-67.44831,-17.03745],[-67.44884,-17.03753],[-67.44921,-17.03742],[-67.44917,-17.03705],[-67.44898,-17.03708],[-67.44896,-17.03693],[-67.44845,-17.03703],[-67.44846,-17.03715]]]},"properties":{"n":"MALLA","p":29,"personas_x_ha":42,"masculinidad":81,"pct_menor20":69,"pct_60mas":3,"pct_migrante":41,"dependencia_econ":142,"pct_empleados":17,"pct_cuentapropia":67,"pct_agricultura":67,"pct_comercio":17,"pct_manufactura":0,"pct_construccion":8,"pct_transporte":0,"pct_alojamiento":0,"pct_sin_educacion":0,"pct_educ_superior":0,"brecha_educ":-10,"pct_sin_seguro":0,"pct_sus":100,"pct_seguro_privado":0,"brecha_seguro":0,"pct_salud_publica":39,"pct_med_tradicional":10,"pct_automedicacion":2,"pct_remedios_caseros":35,"pct_viv_desocupada":0,"pct_alquiler":0,"pct_electricidad":100,"pct_sin_electricidad":0,"pct_agua_red":57,"pct_alcantarillado":14,"pct_camara_septica":57,"pct_pozo_ciego":0,"pct_sin_desague":29,"pct_gas_red":0,"pct_gas_garrafa":100,"pct_lena_guano":0,"pct_basura_formal":100,"pct_basura_quema":0,"pct_basura_informal":0,"pct_internet":57,"pct_celular":100,"pct_televisor":57}},{"type":"Feature","geometry":{"type":"Polygon","coordinates":[[[-67.44965,-17.0393],[-67.45016,-17.03915],[-67.44999,-17.03882],[-67.44959,-17.03902],[-67.44965,-17.0393]]]},"properties":{"n":"MALLA","p":106,"personas_x_ha":535,"masculinidad":100,"pct_menor20":53,"pct_60mas":7,"pct_migrante":44,"dependencia_econ":119,"pct_empleados":15,"pct_cuentapropia":54,"pct_agricultura":38,"pct_comercio":25,"pct_manufactura":6,"pct_construccion":6,"pct_transporte":4,"pct_alojamiento":6,"pct_sin_educacion":9,"pct_educ_superior":11,"brecha_educ":3,"pct_sin_seguro":23,"pct_sus":68,"pct_seguro_privado":1,"brecha_seguro":-2,"pct_salud_publica":55,"pct_med_tradicional":2,"pct_automedicacion":2,"pct_remedios_caseros":30,"pct_viv_desocupada":12,"pct_alquiler":3,"pct_electricidad":86,"pct_sin_electricidad":10,"pct_agua_red":66,"pct_alcantarillado":3,"pct_camara_septica":0,"pct_pozo_ciego":3,"pct_sin_desague":90,"pct_gas_red":0,"pct_gas_garrafa":86,"pct_lena_guano":7,"pct_basura_formal":100,"pct_basura_quema":0,"pct_basura_informal":0,"pct_internet":86,"pct_celular":93,"pct_televisor":69}},{"type":"Feature","geometry":{"type":"Polygon","coordinates":[[[-67.45087,-17.03958],[-67.45049,-17.03974],[-67.45047,-17.03995],[-67.4507,-17.03995],[-67.45101,-17.03976],[-67.45087,-17.03958]]]},"properties":{"n":"MALLA","p":54,"personas_x_ha":369,"masculinidad":116,"pct_menor20":24,"pct_60mas":11,"pct_migrante":24,"dependencia_econ":69,"pct_empleados":25,"pct_cuentapropia":41,"pct_agricultura":41,"pct_comercio":22,"pct_manufactura":0,"pct_construccion":0,"pct_transporte":6,"pct_alojamiento":0,"pct_sin_educacion":5,"pct_educ_superior":29,"brecha_educ":-21,"pct_sin_seguro":24,"pct_sus":72,"pct_seguro_privado":0,"brecha_seguro":0,"pct_salud_publica":31,"pct_med_tradicional":16,"pct_automedicacion":11,"pct_remedios_caseros":24,"pct_viv_desocupada":4,"pct_alquiler":9,"pct_electricidad":86,"pct_sin_electricidad":14,"pct_agua_red":41,"pct_alcantarillado":0,"pct_camara_septica":9,"pct_pozo_ciego":0,"pct_sin_desague":91,"pct_gas_red":0,"pct_gas_garrafa":77,"pct_lena_guano":23,"pct_basura_formal":95,"pct_basura_quema":0,"pct_basura_informal":5,"pct_internet":77,"pct_celular":86,"pct_televisor":50}},{"type":"Feature","geometry":{"type":"Polygon","coordinates":[[[-67.45048,-17.03975],[-67.45009,-17.03987],[-67.45011,-17.03993],[-67.45045,-17.03994],[-67.45048,-17.03975]]]},"properties":{"n":"MALLA","p":33,"personas_x_ha":591,"masculinidad":136,"pct_menor20":30,"pct_60mas":9,"pct_migrante":9,"dependencia_econ":83,"pct_empleados":22,"pct_cuentapropia":39,"pct_agricultura":28,"pct_comercio":11,"pct_manufactura":6,"pct_construccion":17,"pct_transporte":0,"pct_alojamiento":0,"pct_sin_educacion":0,"pct_educ_superior":17,"brecha_educ":-22,"pct_sin_seguro":12,"pct_sus":67,"pct_seguro_privado":0,"brecha_seguro":-4,"pct_salud_publica":35,"pct_med_tradicional":10,"pct_automedicacion":9,"pct_remedios_caseros":35,"pct_viv_desocupada":0,"pct_alquiler":0,"pct_electricidad":90,"pct_sin_electricidad":10,"pct_agua_red":60,"pct_alcantarillado":0,"pct_camara_septica":0,"pct_pozo_ciego":0,"pct_sin_desague":100,"pct_gas_red":0,"pct_gas_garrafa":70,"pct_lena_guano":30,"pct_basura_formal":100,"pct_basura_quema":0,"pct_basura_informal":0,"pct_internet":70,"pct_celular":100,"pct_televisor":50}},{"type":"Feature","geometry":{"type":"Polygon","coordinates":[[[-67.45031,-17.03953],[-67.44995,-17.0397],[-67.44975,-17.03998],[-67.4504,-17.03972],[-67.45031,-17.03953]]]},"properties":{"n":"MALLA","p":101,"personas_x_ha":738,"masculinidad":91,"pct_menor20":37,"pct_60mas":5,"pct_migrante":18,"dependencia_econ":98,"pct_empleados":10,"pct_cuentapropia":67,"pct_agricultura":45,"pct_comercio":10,"pct_manufactura":14,"pct_construccion":10,"pct_transporte":0,"pct_alojamiento":0,"pct_sin_educacion":6,"pct_educ_superior":17,"brecha_educ":-26,"pct_sin_seguro":17,"pct_sus":77,"pct_seguro_privado":0,"brecha_seguro":4,"pct_salud_publica":36,"pct_med_tradicional":10,"pct_automedicacion":11,"pct_remedios_caseros":23,"pct_viv_desocupada":6,"pct_alquiler":3,"pct_electricidad":88,"pct_sin_electricidad":12,"pct_agua_red":59,"pct_alcantarillado":22,"pct_camara_septica":0,"pct_pozo_ciego":31,"pct_sin_desague":47,"pct_gas_red":0,"pct_gas_garrafa":81,"pct_lena_guano":12,"pct_basura_formal":88,"pct_basura_quema":6,"pct_basura_informal":3,"pct_internet":56,"pct_celular":81,"pct_televisor":62}},{"type":"Feature","geometry":{"type":"Polygon","coordinates":[[[-67.44954,-17.03903],[-67.4485,-17.03903],[-67.44903,-17.03936],[-67.44925,-17.03939],[-67.44962,-17.0393],[-67.44954,-17.03903]]]},"properties":{"n":"MALLA","p":39,"personas_x_ha":118,"masculinidad":50,"pct_menor20":31,"pct_60mas":15,"pct_migrante":38,"dependencia_econ":70,"pct_empleados":9,"pct_cuentapropia":74,"pct_agricultura":26,"pct_comercio":26,"pct_manufactura":35,"pct_construccion":0,"pct_transporte":0,"pct_alojamiento":9,"pct_sin_educacion":15,"pct_educ_superior":11,"brecha_educ":-44,"pct_sin_seguro":21,"pct_sus":74,"pct_seguro_privado":0,"brecha_seguro":3,"pct_salud_publica":32,"pct_med_tradicional":9,"pct_automedicacion":13,"pct_remedios_caseros":33,"pct_viv_desocupada":0,"pct_alquiler":0,"pct_electricidad":75,"pct_sin_electricidad":25,"pct_agua_red":75,"pct_alcantarillado":0,"pct_camara_septica":0,"pct_pozo_ciego":0,"pct_sin_desague":75,"pct_gas_red":0,"pct_gas_garrafa":56,"pct_lena_guano":31,"pct_basura_formal":94,"pct_basura_quema":6,"pct_basura_informal":0,"pct_internet":50,"pct_celular":81,"pct_televisor":31}},{"type":"Feature","geometry":{"type":"Polygon","coordinates":[[[-67.44984,-17.0385],[-67.4504,-17.03837],[-67.45047,-17.03843],[-67.45046,-17.03861],[-67.45,-17.03877],[-67.44984,-17.0385]]]},"properties":{"n":"MALLA","p":28,"personas_x_ha":152,"masculinidad":133,"pct_menor20":36,"pct_60mas":7,"pct_migrante":21,"dependencia_econ":65,"pct_empleados":12,"pct_cuentapropia":41,"pct_agricultura":59,"pct_comercio":0,"pct_manufactura":0,"pct_construccion":0,"pct_transporte":0,"pct_alojamiento":0,"pct_sin_educacion":6,"pct_educ_superior":11,"brecha_educ":-33,"pct_sin_seguro":32,"pct_sus":64,"pct_seguro_privado":0,"brecha_seguro":-31,"pct_salud_publica":51,"pct_med_tradicional":0,"pct_automedicacion":0,"pct_remedios_caseros":39,"pct_viv_desocupada":9,"pct_alquiler":0,"pct_electricidad":20,"pct_sin_electricidad":80,"pct_agua_red":20,"pct_alcantarillado":0,"pct_camara_septica":0,"pct_pozo_ciego":0,"pct_sin_desague":100,"pct_gas_red":0,"pct_gas_garrafa":20,"pct_lena_guano":80,"pct_basura_formal":50,"pct_basura_quema":40,"pct_basura_informal":10,"pct_internet":20,"pct_celular":60,"pct_televisor":10}},{"type":"Feature","geometry":{"type":"Polygon","coordinates":[[[-67.45013,-17.04019],[-67.45004,-17.04044],[-67.45015,-17.04076],[-67.45044,-17.03996],[-67.45009,-17.03996],[-67.45013,-17.04019]]]},"properties":{"n":"MALLA","p":41,"personas_x_ha":190,"masculinidad":156,"pct_menor20":46,"pct_60mas":12,"pct_migrante":20,"dependencia_econ":111,"pct_empleados":26,"pct_cuentapropia":53,"pct_agricultura":63,"pct_comercio":11,"pct_manufactura":5,"pct_construccion":11,"pct_transporte":0,"pct_alojamiento":0,"pct_sin_educacion":4,"pct_educ_superior":22,"brecha_educ":-2,"pct_sin_seguro":18,"pct_sus":78,"pct_seguro_privado":0,"brecha_seguro":7,"pct_salud_publica":42,"pct_med_tradicional":12,"pct_automedicacion":16,"pct_remedios_caseros":23,"pct_viv_desocupada":7,"pct_alquiler":0,"pct_electricidad":100,"pct_sin_electricidad":0,"pct_agua_red":40,"pct_alcantarillado":0,"pct_camara_septica":20,"pct_pozo_ciego":10,"pct_sin_desague":70,"pct_gas_red":0,"pct_gas_garrafa":70,"pct_lena_guano":30,"pct_basura_formal":90,"pct_basura_quema":10,"pct_basura_informal":0,"pct_internet":60,"pct_celular":80,"pct_televisor":30}},{"type":"Feature","geometry":{"type":"Polygon","coordinates":[[[-67.45069,-17.03882],[-67.45081,-17.03949],[-67.45088,-17.03953],[-67.45125,-17.03928],[-67.45095,-17.03891],[-67.45087,-17.03867],[-67.45073,-17.03872],[-67.45069,-17.03882]]]},"properties":{"n":"MALLA","p":86,"personas_x_ha":277,"masculinidad":110,"pct_menor20":41,"pct_60mas":7,"pct_migrante":17,"dependencia_econ":112,"pct_empleados":8,"pct_cuentapropia":45,"pct_agricultura":57,"pct_comercio":15,"pct_manufactura":8,"pct_construccion":0,"pct_transporte":0,"pct_alojamiento":0,"pct_sin_educacion":2,"pct_educ_superior":8,"brecha_educ":-14,"pct_sin_seguro":14,"pct_sus":79,"pct_seguro_privado":1,"brecha_seguro":16,"pct_salud_publica":36,"pct_med_tradicional":20,"pct_automedicacion":11,"pct_remedios_caseros":23,"pct_viv_desocupada":0,"pct_alquiler":0,"pct_electricidad":96,"pct_sin_electricidad":4,"pct_agua_red":77,"pct_alcantarillado":4,"pct_camara_septica":0,"pct_pozo_ciego":0,"pct_sin_desague":81,"pct_gas_red":0,"pct_gas_garrafa":77,"pct_lena_guano":23,"pct_basura_formal":81,"pct_basura_quema":4,"pct_basura_informal":15,"pct_internet":62,"pct_celular":88,"pct_televisor":31}},{"type":"Feature","geometry":{"type":"Polygon","coordinates":[[[-67.45004,-17.0401],[-67.45001,-17.03991],[-67.44923,-17.04022],[-67.44931,-17.0404],[-67.44969,-17.04031],[-67.45004,-17.0401]]]},"properties":{"n":"MALLA","p":34,"personas_x_ha":155,"masculinidad":183,"pct_menor20":24,"pct_60mas":9,"pct_migrante":26,"dependencia_econ":62,"pct_empleados":14,"pct_cuentapropia":71,"pct_agricultura":33,"pct_comercio":38,"pct_manufactura":5,"pct_construccion":10,"pct_transporte":5,"pct_alojamiento":5,"pct_sin_educacion":4,"pct_educ_superior":15,"brecha_educ":0,"pct_sin_seguro":24,"pct_sus":76,"pct_seguro_privado":0,"brecha_seguro":23,"pct_salud_publica":57,"pct_med_tradicional":2,"pct_automedicacion":13,"pct_remedios_caseros":17,"pct_viv_desocupada":0,"pct_alquiler":0,"pct_electricidad":72,"pct_sin_electricidad":17,"pct_agua_red":39,"pct_alcantarillado":22,"pct_camara_septica":11,"pct_pozo_ciego":11,"pct_sin_desague":56,"pct_gas_red":0,"pct_gas_garrafa":83,"pct_lena_guano":17,"pct_basura_formal":94,"pct_basura_quema":6,"pct_basura_informal":0,"pct_internet":28,"pct_celular":67,"pct_televisor":56}},{"type":"Feature","geometry":{"type":"Polygon","coordinates":[[[-67.45051,-17.03862],[-67.45002,-17.0388],[-67.4502,-17.03913],[-67.45063,-17.03882],[-67.45069,-17.03861],[-67.45054,-17.03855],[-67.45051,-17.03862]]]},"properties":{"n":"MALLA","p":61,"personas_x_ha":279,"masculinidad":85,"pct_menor20":43,"pct_60mas":7,"pct_migrante":56,"dependencia_econ":91,"pct_empleados":25,"pct_cuentapropia":59,"pct_agricultura":34,"pct_comercio":22,"pct_manufactura":3,"pct_construccion":9,"pct_transporte":0,"pct_alojamiento":3,"pct_sin_educacion":3,"pct_educ_superior":23,"brecha_educ":-33,"pct_sin_seguro":14,"pct_sus":68,"pct_seguro_privado":0,"brecha_seguro":-11,"pct_salud_publica":51,"pct_med_tradicional":11,"pct_automedicacion":4,"pct_remedios_caseros":23,"pct_viv_desocupada":0,"pct_alquiler":0,"pct_electricidad":78,"pct_sin_electricidad":6,"pct_agua_red":61,"pct_alcantarillado":0,"pct_camara_septica":0,"pct_pozo_ciego":0,"pct_sin_desague":100,"pct_gas_red":0,"pct_gas_garrafa":72,"pct_lena_guano":28,"pct_basura_formal":94,"pct_basura_quema":0,"pct_basura_informal":6,"pct_internet":39,"pct_celular":78,"pct_televisor":44}},{"type":"Feature","geometry":{"type":"Polygon","coordinates":[[[-67.44997,-17.0388],[-67.44979,-17.03848],[-67.44953,-17.03849],[-67.44957,-17.03898],[-67.44997,-17.0388]]]},"properties":{"n":"MALLA","p":17,"personas_x_ha":95,"masculinidad":70,"pct_menor20":18,"pct_60mas":18,"pct_migrante":18,"dependencia_econ":42,"pct_empleados":8,"pct_cuentapropia":83,"pct_agricultura":25,"pct_comercio":33,"pct_manufactura":8,"pct_construccion":8,"pct_transporte":8,"pct_alojamiento":0,"pct_sin_educacion":29,"pct_educ_superior":7,"brecha_educ":-24,"pct_sin_seguro":53,"pct_sus":47,"pct_seguro_privado":0,"brecha_seguro":-17,"pct_salud_publica":29,"pct_med_tradicional":18,"pct_automedicacion":18,"pct_remedios_caseros":24,"pct_viv_desocupada":7,"pct_alquiler":0,"pct_electricidad":50,"pct_sin_electricidad":50,"pct_agua_red":17,"pct_alcantarillado":8,"pct_camara_septica":0,"pct_pozo_ciego":8,"pct_sin_desague":83,"pct_gas_red":0,"pct_gas_garrafa":33,"pct_lena_guano":33,"pct_basura_formal":58,"pct_basura_quema":8,"pct_basura_informal":0,"pct_internet":17,"pct_celular":42,"pct_televisor":8}},{"type":"Feature","geometry":{"type":"Polygon","coordinates":[[[-67.44793,-17.03884],[-67.44814,-17.03897],[-67.44953,-17.03899],[-67.4495,-17.03849],[-67.448,-17.03854],[-67.4474,-17.03891],[-67.4472,-17.03892],[-67.44739,-17.0391],[-67.44793,-17.03884]]]},"properties":{"n":"MALLA","p":39,"personas_x_ha":37,"masculinidad":160,"pct_menor20":33,"pct_60mas":10,"pct_migrante":15,"dependencia_econ":86,"pct_empleados":14,"pct_cuentapropia":43,"pct_agricultura":19,"pct_comercio":43,"pct_manufactura":5,"pct_construccion":0,"pct_transporte":0,"pct_alojamiento":0,"pct_sin_educacion":0,"pct_educ_superior":31,"brecha_educ":0,"pct_sin_seguro":23,"pct_sus":69,"pct_seguro_privado":3,"brecha_seguro":-38,"pct_salud_publica":33,"pct_med_tradicional":11,"pct_automedicacion":16,"pct_remedios_caseros":23,"pct_viv_desocupada":0,"pct_alquiler":0,"pct_electricidad":71,"pct_sin_electricidad":21,"pct_agua_red":93,"pct_alcantarillado":14,"pct_camara_septica":7,"pct_pozo_ciego":21,"pct_sin_desague":57,"pct_gas_red":0,"pct_gas_garrafa":71,"pct_lena_guano":14,"pct_basura_formal":100,"pct_basura_quema":0,"pct_basura_informal":0,"pct_internet":43,"pct_celular":71,"pct_televisor":36}},{"type":"Feature","geometry":{"type":"Polygon","coordinates":[[[-67.44983,-17.03978],[-67.45029,-17.03949],[-67.45018,-17.0392],[-67.44966,-17.03934],[-67.44983,-17.03978]]]},"properties":{"n":"MALLA","p":116,"personas_x_ha":498,"masculinidad":100,"pct_menor20":27,"pct_60mas":8,"pct_migrante":37,"dependencia_econ":53,"pct_empleados":12,"pct_cuentapropia":66,"pct_agricultura":45,"pct_comercio":24,"pct_manufactura":7,"pct_construccion":5,"pct_transporte":1,"pct_alojamiento":3,"pct_sin_educacion":0,"pct_educ_superior":14,"brecha_educ":-13,"pct_sin_seguro":21,"pct_sus":72,"pct_seguro_privado":0,"brecha_seguro":-1,"pct_salud_publica":41,"pct_med_tradicional":12,"pct_automedicacion":10,"pct_remedios_caseros":24,"pct_viv_desocupada":11,"pct_alquiler":0,"pct_electricidad":88,"pct_sin_electricidad":12,"pct_agua_red":61,"pct_alcantarillado":9,"pct_camara_septica":0,"pct_pozo_ciego":6,"pct_sin_desague":82,"pct_gas_red":0,"pct_gas_garrafa":91,"pct_lena_guano":6,"pct_basura_formal":94,"pct_basura_quema":6,"pct_basura_informal":0,"pct_internet":48,"pct_celular":79,"pct_televisor":48}},{"type":"Feature","geometry":{"type":"Polygon","coordinates":[[[-67.4498,-17.03982],[-67.44963,-17.03934],[-67.4491,-17.03945],[-67.44846,-17.03906],[-67.44823,-17.03907],[-67.4479,-17.03891],[-67.4474,-17.03921],[-67.44765,-17.03962],[-67.44807,-17.0399],[-67.4484,-17.03981],[-67.44912,-17.03997],[-67.44912,-17.04005],[-67.4493,-17.0401],[-67.44972,-17.03997],[-67.4498,-17.03982]]]},"properties":{"n":"MALLA","p":101,"personas_x_ha":56,"masculinidad":130,"pct_menor20":33,"pct_60mas":9,"pct_migrante":10,"dependencia_econ":75,"pct_empleados":14,"pct_cuentapropia":63,"pct_agricultura":61,"pct_comercio":14,"pct_manufactura":5,"pct_construccion":9,"pct_transporte":0,"pct_alojamiento":0,"pct_sin_educacion":7,"pct_educ_superior":12,"brecha_educ":-30,"pct_sin_seguro":29,"pct_sus":58,"pct_seguro_privado":0,"brecha_seguro":3,"pct_salud_publica":30,"pct_med_tradicional":9,"pct_automedicacion":14,"pct_remedios_caseros":29,"pct_viv_desocupada":0,"pct_alquiler":0,"pct_electricidad":97,"pct_sin_electricidad":3,"pct_agua_red":63,"pct_alcantarillado":10,"pct_camara_septica":3,"pct_pozo_ciego":0,"pct_sin_desague":83,"pct_gas_red":0,"pct_gas_garrafa":73,"pct_lena_guano":27,"pct_basura_formal":97,"pct_basura_quema":0,"pct_basura_informal":0,"pct_internet":17,"pct_celular":77,"pct_televisor":57}},{"type":"Feature","geometry":{"type":"Polygon","coordinates":[[[-67.45155,-17.03943],[-67.45087,-17.03991],[-67.45046,-17.03997],[-67.45021,-17.04068],[-67.45017,-17.04105],[-67.45032,-17.04095],[-67.45097,-17.04083],[-67.45133,-17.04062],[-67.45145,-17.0404],[-67.45166,-17.04025],[-67.45178,-17.03989],[-67.45179,-17.03963],[-67.4517,-17.03955],[-67.45155,-17.03943]]]},"properties":{"n":"MALLA","p":93,"personas_x_ha":58,"masculinidad":94,"pct_menor20":31,"pct_60mas":8,"pct_migrante":51,"dependencia_econ":66,"pct_empleados":34,"pct_cuentapropia":57,"pct_agricultura":32,"pct_comercio":12,"pct_manufactura":11,"pct_construccion":0,"pct_transporte":7,"pct_alojamiento":4,"pct_sin_educacion":2,"pct_educ_superior":39,"brecha_educ":-11,"pct_sin_seguro":13,"pct_sus":67,"pct_seguro_privado":16,"brecha_seguro":5,"pct_salud_publica":30,"pct_med_tradicional":13,"pct_automedicacion":13,"pct_remedios_caseros":29,"pct_viv_desocupada":8,"pct_alquiler":4,"pct_electricidad":87,"pct_sin_electricidad":13,"pct_agua_red":83,"pct_alcantarillado":0,"pct_camara_septica":0,"pct_pozo_ciego":17,"pct_sin_desague":83,"pct_gas_red":0,"pct_gas_garrafa":91,"pct_lena_guano":9,"pct_basura_formal":96,"pct_basura_quema":0,"pct_basura_informal":0,"pct_internet":74,"pct_celular":91,"pct_televisor":43}},{"type":"Feature","geometry":{"type":"Polygon","coordinates":[[[-67.45036,-17.03953],[-67.45076,-17.03941],[-67.45063,-17.03896],[-67.45042,-17.039],[-67.4502,-17.03918],[-67.45036,-17.03953]]]},"properties":{"n":"MALLA","p":78,"personas_x_ha":310,"masculinidad":86,"pct_menor20":38,"pct_60mas":13,"pct_migrante":24,"dependencia_econ":86,"pct_empleados":26,"pct_cuentapropia":45,"pct_agricultura":31,"pct_comercio":26,"pct_manufactura":5,"pct_construccion":0,"pct_transporte":2,"pct_alojamiento":2,"pct_sin_educacion":6,"pct_educ_superior":31,"brecha_educ":-10,"pct_sin_seguro":13,"pct_sus":71,"pct_seguro_privado":0,"brecha_seguro":-3,"pct_salud_publica":25,"pct_med_tradicional":14,"pct_automedicacion":18,"pct_remedios_caseros":21,"pct_viv_desocupada":6,"pct_alquiler":0,"pct_electricidad":83,"pct_sin_electricidad":13,"pct_agua_red":50,"pct_alcantarillado":3,"pct_camara_septica":37,"pct_pozo_ciego":3,"pct_sin_desague":50,"pct_gas_red":0,"pct_gas_garrafa":73,"pct_lena_guano":27,"pct_basura_formal":100,"pct_basura_quema":0,"pct_basura_informal":0,"pct_internet":70,"pct_celular":90,"pct_televisor":50}},{"type":"Feature","geometry":{"type":"Polygon","coordinates":[[[-67.45143,-17.03946],[-67.4513,-17.03929],[-67.45088,-17.03957],[-67.45104,-17.03976],[-67.45143,-17.03946]]]},"properties":{"n":"MALLA","p":94,"personas_x_ha":647,"masculinidad":88,"pct_menor20":47,"pct_60mas":9,"pct_migrante":28,"dependencia_econ":59,"pct_empleados":5,"pct_cuentapropia":44,"pct_agricultura":68,"pct_comercio":7,"pct_manufactura":8,"pct_construccion":3,"pct_transporte":5,"pct_alojamiento":2,"pct_sin_educacion":12,"pct_educ_superior":8,"brecha_educ":-1,"pct_sin_seguro":16,"pct_sus":82,"pct_seguro_privado":0,"brecha_seguro":-13,"pct_salud_publica":39,"pct_med_tradicional":7,"pct_automedicacion":13,"pct_remedios_caseros":25,"pct_viv_desocupada":0,"pct_alquiler":0,"pct_electricidad":87,"pct_sin_electricidad":9,"pct_agua_red":61,"pct_alcantarillado":9,"pct_camara_septica":0,"pct_pozo_ciego":4,"pct_sin_desague":78,"pct_gas_red":0,"pct_gas_garrafa":78,"pct_lena_guano":22,"pct_basura_formal":78,"pct_basura_quema":13,"pct_basura_informal":0,"pct_internet":61,"pct_celular":78,"pct_televisor":74}},{"type":"Feature","geometry":{"type":"Polygon","coordinates":[[[-67.39937,-16.95081],[-67.39938,-16.95056],[-67.39893,-16.95056],[-67.39894,-16.95083],[-67.39937,-16.95081]]]},"properties":{"n":"MALLACHUMA","p":67,"personas_x_ha":495,"masculinidad":379,"pct_menor20":24,"pct_60mas":7,"pct_migrante":12,"dependencia_econ":22,"pct_empleados":5,"pct_cuentapropia":44,"pct_agricultura":67,"pct_comercio":4,"pct_manufactura":2,"pct_construccion":0,"pct_transporte":0,"pct_alojamiento":0,"pct_sin_educacion":18,"pct_educ_superior":0,"brecha_educ":2,"pct_sin_seguro":32,"pct_sus":52,"pct_seguro_privado":0,"brecha_seguro":5,"pct_salud_publica":36,"pct_med_tradicional":16,"pct_automedicacion":9,"pct_remedios_caseros":22,"pct_viv_desocupada":0,"pct_alquiler":3,"pct_electricidad":3,"pct_sin_electricidad":97,"pct_agua_red":0,"pct_alcantarillado":0,"pct_camara_septica":0,"pct_pozo_ciego":0,"pct_sin_desague":100,"pct_gas_red":0,"pct_gas_garrafa":97,"pct_lena_guano":3,"pct_basura_formal":13,"pct_basura_quema":43,"pct_basura_informal":0,"pct_internet":0,"pct_celular":80,"pct_televisor":3}},{"type":"Feature","geometry":{"type":"Polygon","coordinates":[[[-67.39905,-16.95044],[-67.39894,-16.95038],[-67.39908,-16.95009],[-67.39915,-16.9501],[-67.39922,-16.95014],[-67.39905,-16.95044]]]},"properties":{"n":"MALLACHUMA","p":23,"personas_x_ha":418,"masculinidad":667,"pct_menor20":26,"pct_60mas":9,"pct_migrante":13,"dependencia_econ":15,"pct_empleados":0,"pct_cuentapropia":50,"pct_agricultura":35,"pct_comercio":0,"pct_manufactura":0,"pct_construccion":0,"pct_transporte":0,"pct_alojamiento":5,"pct_sin_educacion":0,"pct_educ_superior":0,"brecha_educ":39,"pct_sin_seguro":14,"pct_sus":86,"pct_seguro_privado":0,"brecha_seguro":-23,"pct_salud_publica":25,"pct_med_tradicional":10,"pct_automedicacion":18,"pct_remedios_caseros":22,"pct_viv_desocupada":0,"pct_alquiler":0,"pct_electricidad":5,"pct_sin_electricidad":26,"pct_agua_red":42,"pct_alcantarillado":5,"pct_camara_septica":0,"pct_pozo_ciego":11,"pct_sin_desague":84,"pct_gas_red":0,"pct_gas_garrafa":89,"pct_lena_guano":5,"pct_basura_formal":11,"pct_basura_quema":68,"pct_basura_informal":0,"pct_internet":26,"pct_celular":79,"pct_televisor":0}},{"type":"Feature","geometry":{"type":"Polygon","coordinates":[[[-67.39939,-16.95021],[-67.39945,-16.95003],[-67.39933,-16.94984],[-67.3992,-16.94979],[-67.39908,-16.95005],[-67.39939,-16.95021]]]},"properties":{"n":"MALLACHUMA","p":18,"personas_x_ha":169,"masculinidad":260,"pct_menor20":33,"pct_60mas":0,"pct_migrante":0,"dependencia_econ":42,"pct_empleados":8,"pct_cuentapropia":75,"pct_agricultura":58,"pct_comercio":0,"pct_manufactura":0,"pct_construccion":0,"pct_transporte":0,"pct_alojamiento":17,"pct_sin_educacion":0,"pct_educ_superior":8,"brecha_educ":0,"pct_sin_seguro":18,"pct_sus":59,"pct_seguro_privado":0,"brecha_seguro":25,"pct_salud_publica":24,"pct_med_tradicional":14,"pct_automedicacion":16,"pct_remedios_caseros":29,"pct_viv_desocupada":0,"pct_alquiler":0,"pct_electricidad":0,"pct_sin_electricidad":100,"pct_agua_red":0,"pct_alcantarillado":11,"pct_camara_septica":0,"pct_pozo_ciego":78,"pct_sin_desague":11,"pct_gas_red":0,"pct_gas_garrafa":100,"pct_lena_guano":0,"pct_basura_formal":56,"pct_basura_quema":33,"pct_basura_informal":0,"pct_internet":0,"pct_celular":78,"pct_televisor":0}},{"type":"Feature","geometry":{"type":"Polygon","coordinates":[[[-67.39918,-16.95117],[-67.39919,-16.95141],[-67.39969,-16.9514],[-67.39962,-16.95101],[-67.39934,-16.95101],[-67.39934,-16.95117],[-67.39918,-16.95117]]]},"properties":{"n":"MALLACHUMA","p":37,"personas_x_ha":178,"masculinidad":164,"pct_menor20":27,"pct_60mas":0,"pct_migrante":14,"dependencia_econ":32,"pct_empleados":11,"pct_cuentapropia":46,"pct_agricultura":43,"pct_comercio":7,"pct_manufactura":7,"pct_construccion":0,"pct_transporte":0,"pct_alojamiento":4,"pct_sin_educacion":4,"pct_educ_superior":0,"brecha_educ":-2,"pct_sin_seguro":42,"pct_sus":58,"pct_seguro_privado":0,"brecha_seguro":17,"pct_salud_publica":25,"pct_med_tradicional":19,"pct_automedicacion":15,"pct_remedios_caseros":28,"pct_viv_desocupada":12,"pct_alquiler":0,"pct_electricidad":0,"pct_sin_electricidad":55,"pct_agua_red":0,"pct_alcantarillado":0,"pct_camara_septica":0,"pct_pozo_ciego":45,"pct_sin_desague":50,"pct_gas_red":0,"pct_gas_garrafa":100,"pct_lena_guano":0,"pct_basura_formal":35,"pct_basura_quema":15,"pct_basura_informal":0,"pct_internet":10,"pct_celular":30,"pct_televisor":5}},{"type":"Feature","geometry":{"type":"Polygon","coordinates":[[[-67.39981,-16.95279],[-67.39981,-16.95256],[-67.39958,-16.95226],[-67.39922,-16.95201],[-67.39912,-16.95212],[-67.3994,-16.95298],[-67.39981,-16.95279]]]},"properties":{"n":"MALLACHUMA","p":24,"personas_x_ha":53,"masculinidad":380,"pct_menor20":17,"pct_60mas":8,"pct_migrante":4,"dependencia_econ":33,"pct_empleados":44,"pct_cuentapropia":39,"pct_agricultura":17,"pct_comercio":6,"pct_manufactura":6,"pct_construccion":0,"pct_transporte":0,"pct_alojamiento":6,"pct_sin_educacion":0,"pct_educ_superior":0,"brecha_educ":18,"pct_sin_seguro":21,"pct_sus":46,"pct_seguro_privado":0,"brecha_seguro":26,"pct_salud_publica":28,"pct_med_tradicional":14,"pct_automedicacion":13,"pct_remedios_caseros":25,"pct_viv_desocupada":0,"pct_alquiler":0,"pct_electricidad":0,"pct_sin_electricidad":53,"pct_agua_red":0,"pct_alcantarillado":0,"pct_camara_septica":0,"pct_pozo_ciego":47,"pct_sin_desague":53,"pct_gas_red":0,"pct_gas_garrafa":82,"pct_lena_guano":18,"pct_basura_formal":0,"pct_basura_quema":65,"pct_basura_informal":0,"pct_internet":47,"pct_celular":76,"pct_televisor":53}},{"type":"Feature","geometry":{"type":"Polygon","coordinates":[[[-67.36144,-17.04843],[-67.36191,-17.04851],[-67.36191,-17.04855],[-67.36132,-17.04884],[-67.36123,-17.04877],[-67.36144,-17.04843]]]},"properties":{"n":"RODEO","p":16,"personas_x_ha":91,"masculinidad":167,"pct_menor20":44,"pct_60mas":6,"pct_migrante":56,"dependencia_econ":88,"pct_empleados":38,"pct_cuentapropia":25,"pct_agricultura":25,"pct_comercio":0,"pct_manufactura":0,"pct_construccion":12,"pct_transporte":0,"pct_alojamiento":0,"pct_sin_educacion":0,"pct_educ_superior":38,"brecha_educ":-33,"pct_sin_seguro":36,"pct_sus":64,"pct_seguro_privado":0,"brecha_seguro":-38,"pct_salud_publica":26,"pct_med_tradicional":17,"pct_automedicacion":12,"pct_remedios_caseros":26,"pct_viv_desocupada":0,"pct_alquiler":14,"pct_electricidad":57,"pct_sin_electricidad":14,"pct_agua_red":43,"pct_alcantarillado":14,"pct_camara_septica":57,"pct_pozo_ciego":14,"pct_sin_desague":14,"pct_gas_red":0,"pct_gas_garrafa":100,"pct_lena_guano":0,"pct_basura_formal":14,"pct_basura_quema":14,"pct_basura_informal":29,"pct_internet":57,"pct_celular":71,"pct_televisor":43}},{"type":"Feature","geometry":{"type":"Polygon","coordinates":[[[-67.36142,-17.04837],[-67.36169,-17.04791],[-67.36141,-17.04777],[-67.36124,-17.04824],[-67.36128,-17.04831],[-67.36142,-17.04837]]]},"properties":{"n":"RODEO","p":18,"personas_x_ha":103,"masculinidad":157,"pct_menor20":56,"pct_60mas":0,"pct_migrante":17,"dependencia_econ":125,"pct_empleados":38,"pct_cuentapropia":38,"pct_agricultura":12,"pct_comercio":0,"pct_manufactura":0,"pct_construccion":38,"pct_transporte":0,"pct_alojamiento":0,"pct_sin_educacion":0,"pct_educ_superior":0,"brecha_educ":-80,"pct_sin_seguro":6,"pct_sus":94,"pct_seguro_privado":0,"brecha_seguro":10,"pct_salud_publica":24,"pct_med_tradicional":15,"pct_automedicacion":20,"pct_remedios_caseros":19,"pct_viv_desocupada":29,"pct_alquiler":0,"pct_electricidad":100,"pct_sin_electricidad":0,"pct_agua_red":60,"pct_alcantarillado":40,"pct_camara_septica":20,"pct_pozo_ciego":40,"pct_sin_desague":0,"pct_gas_red":0,"pct_gas_garrafa":100,"pct_lena_guano":0,"pct_basura_formal":0,"pct_basura_quema":0,"pct_basura_informal":0,"pct_internet":80,"pct_celular":100,"pct_televisor":40}},{"type":"Feature","geometry":{"type":"Polygon","coordinates":[[[-67.36109,-17.04975],[-67.36098,-17.04968],[-67.36046,-17.05034],[-67.36036,-17.05083],[-67.36044,-17.05083],[-67.36045,-17.0507],[-67.36066,-17.05065],[-67.36075,-17.0504],[-67.36067,-17.05026],[-67.36109,-17.04975]]]},"properties":{"n":"RODEO","p":21,"personas_x_ha":84,"masculinidad":133,"pct_menor20":48,"pct_60mas":10,"pct_migrante":0,"dependencia_econ":75,"pct_empleados":25,"pct_cuentapropia":58,"pct_agricultura":42,"pct_comercio":17,"pct_manufactura":0,"pct_construccion":8,"pct_transporte":0,"pct_alojamiento":0,"pct_sin_educacion":8,"pct_educ_superior":0,"brecha_educ":0,"pct_sin_seguro":10,"pct_sus":86,"pct_seguro_privado":5,"brecha_seguro":-3,"pct_salud_publica":57,"pct_med_tradicional":9,"pct_automedicacion":3,"pct_remedios_caseros":29,"pct_viv_desocupada":0,"pct_alquiler":0,"pct_electricidad":90,"pct_sin_electricidad":0,"pct_agua_red":90,"pct_alcantarillado":0,"pct_camara_septica":10,"pct_pozo_ciego":60,"pct_sin_desague":20,"pct_gas_red":0,"pct_gas_garrafa":100,"pct_lena_guano":0,"pct_basura_formal":90,"pct_basura_quema":0,"pct_basura_informal":10,"pct_internet":70,"pct_celular":90,"pct_televisor":90}},{"type":"Feature","geometry":{"type":"Polygon","coordinates":[[[-67.3622,-17.04843],[-67.36229,-17.04828],[-67.36195,-17.048],[-67.36172,-17.04829],[-67.3622,-17.04843]]]},"properties":{"n":"RODEO","p":20,"personas_x_ha":126,"masculinidad":100,"pct_menor20":45,"pct_60mas":5,"pct_migrante":55,"dependencia_econ":67,"pct_empleados":8,"pct_cuentapropia":42,"pct_agricultura":17,"pct_comercio":17,"pct_manufactura":17,"pct_construccion":17,"pct_transporte":0,"pct_alojamiento":0,"pct_sin_educacion":8,"pct_educ_superior":8,"brecha_educ":17,"pct_sin_seguro":0,"pct_sus":85,"pct_seguro_privado":0,"brecha_seguro":0,"pct_salud_publica":36,"pct_med_tradicional":11,"pct_automedicacion":22,"pct_remedios_caseros":27,"pct_viv_desocupada":20,"pct_alquiler":0,"pct_electricidad":100,"pct_sin_electricidad":0,"pct_agua_red":71,"pct_alcantarillado":14,"pct_camara_septica":14,"pct_pozo_ciego":57,"pct_sin_desague":14,"pct_gas_red":0,"pct_gas_garrafa":100,"pct_lena_guano":0,"pct_basura_formal":0,"pct_basura_quema":29,"pct_basura_informal":57,"pct_internet":86,"pct_celular":86,"pct_televisor":71}},{"type":"Feature","geometry":{"type":"Polygon","coordinates":[[[-67.36063,-17.0484],[-67.36132,-17.04847],[-67.36092,-17.04909],[-67.3609,-17.04948],[-67.36039,-17.0495],[-67.36041,-17.04895],[-67.36025,-17.04891],[-67.36033,-17.04853],[-67.36063,-17.0484]]]},"properties":{"n":"RODEO","p":42,"personas_x_ha":48,"masculinidad":133,"pct_menor20":55,"pct_60mas":5,"pct_migrante":31,"dependencia_econ":110,"pct_empleados":15,"pct_cuentapropia":60,"pct_agricultura":25,"pct_comercio":0,"pct_manufactura":5,"pct_construccion":5,"pct_transporte":0,"pct_alojamiento":5,"pct_sin_educacion":0,"pct_educ_superior":0,"brecha_educ":-26,"pct_sin_seguro":7,"pct_sus":93,"pct_seguro_privado":0,"brecha_seguro":3,"pct_salud_publica":24,"pct_med_tradicional":15,"pct_automedicacion":21,"pct_remedios_caseros":24,"pct_viv_desocupada":33,"pct_alquiler":8,"pct_electricidad":100,"pct_sin_electricidad":0,"pct_agua_red":17,"pct_alcantarillado":8,"pct_camara_septica":25,"pct_pozo_ciego":8,"pct_sin_desague":58,"pct_gas_red":0,"pct_gas_garrafa":92,"pct_lena_guano":8,"pct_basura_formal":25,"pct_basura_quema":33,"pct_basura_informal":33,"pct_internet":75,"pct_celular":75,"pct_televisor":50}},{"type":"Feature","geometry":{"type":"Polygon","coordinates":[[[-67.36141,-17.04932],[-67.36181,-17.04908],[-67.36188,-17.04916],[-67.36199,-17.04911],[-67.36201,-17.04863],[-67.36142,-17.0489],[-67.36118,-17.04893],[-67.36096,-17.04929],[-67.36123,-17.04942],[-67.36136,-17.04923],[-67.36141,-17.04932]]]},"properties":{"n":"RODEO","p":21,"personas_x_ha":43,"masculinidad":162,"pct_menor20":19,"pct_60mas":19,"pct_migrante":5,"dependencia_econ":43,"pct_empleados":14,"pct_cuentapropia":64,"pct_agricultura":57,"pct_comercio":14,"pct_manufactura":0,"pct_construccion":7,"pct_transporte":0,"pct_alojamiento":0,"pct_sin_educacion":0,"pct_educ_superior":12,"brecha_educ":-33,"pct_sin_seguro":5,"pct_sus":95,"pct_seguro_privado":0,"brecha_seguro":-14,"pct_salud_publica":41,"pct_med_tradicional":19,"pct_automedicacion":0,"pct_remedios_caseros":24,"pct_viv_desocupada":0,"pct_alquiler":0,"pct_electricidad":58,"pct_sin_electricidad":42,"pct_agua_red":83,"pct_alcantarillado":0,"pct_camara_septica":0,"pct_pozo_ciego":58,"pct_sin_desague":42,"pct_gas_red":0,"pct_gas_garrafa":92,"pct_lena_guano":8,"pct_basura_formal":75,"pct_basura_quema":17,"pct_basura_informal":8,"pct_internet":33,"pct_celular":92,"pct_televisor":58}}]}