{"type":"FeatureCollection","features":[{"type":"Feature","geometry":{"type":"Polygon","coordinates":[[[-68.83645,-15.46027],[-68.83652,-15.46015],[-68.83651,-15.45963],[-68.83579,-15.45943],[-68.83562,-15.46003],[-68.83645,-15.46027]]]},"properties":{"n":"AYATA","p":16,"personas_x_ha":26,"masculinidad":60,"pct_menor20":19,"pct_60mas":38,"pct_migrante":25,"dependencia_econ":220,"pct_empleados":20,"pct_cuentapropia":80,"pct_agricultura":20,"pct_comercio":20,"pct_manufactura":40,"pct_construccion":0,"pct_transporte":0,"pct_alojamiento":0,"pct_educ_superior":38,"brecha_educ":-5,"pct_sin_seguro":7,"pct_seguro_privado":0,"brecha_seguro":-10,"pct_med_tradicional":0,"pct_automedicacion":0,"pct_remedios_caseros":0,"pct_viv_desocupada":18,"pct_alquiler":0,"pct_electricidad":100,"pct_agua_red":78,"pct_alcantarillado":0,"pct_gas_red":0,"pct_gas_garrafa":100,"pct_lena_guano":100,"pct_basura_formal":56,"pct_basura_quema":22,"pct_basura_informal":0,"pct_internet":22,"pct_celular":78,"pct_televisor":22}},{"type":"Feature","geometry":{"type":"Polygon","coordinates":[[[-68.83704,-15.45869],[-68.83668,-15.45867],[-68.83656,-15.45959],[-68.83682,-15.45962],[-68.83687,-15.45919],[-68.83704,-15.45869]]]},"properties":{"n":"AYATA","p":23,"personas_x_ha":68,"masculinidad":92,"pct_menor20":39,"pct_60mas":17,"pct_migrante":57,"dependencia_econ":130,"pct_empleados":20,"pct_cuentapropia":80,"pct_agricultura":30,"pct_comercio":30,"pct_manufactura":0,"pct_construccion":10,"pct_transporte":10,"pct_alojamiento":10,"pct_educ_superior":47,"brecha_educ":-11,"pct_sin_seguro":32,"pct_seguro_privado":0,"brecha_seguro":-27,"pct_med_tradicional":9,"pct_automedicacion":2,"pct_remedios_caseros":13,"pct_viv_desocupada":20,"pct_alquiler":0,"pct_electricidad":100,"pct_agua_red":88,"pct_alcantarillado":0,"pct_gas_red":0,"pct_gas_garrafa":88,"pct_lena_guano":88,"pct_basura_formal":38,"pct_basura_quema":25,"pct_basura_informal":25,"pct_internet":50,"pct_celular":100,"pct_televisor":88}},{"type":"Feature","geometry":{"type":"Polygon","coordinates":[[[-68.83576,-15.45935],[-68.83594,-15.45862],[-68.83512,-15.45856],[-68.83497,-15.45924],[-68.83576,-15.45935]]]},"properties":{"n":"AYATA","p":25,"personas_x_ha":35,"masculinidad":127,"pct_menor20":36,"pct_60mas":16,"pct_migrante":48,"dependencia_econ":127,"pct_empleados":27,"pct_cuentapropia":73,"pct_agricultura":18,"pct_comercio":18,"pct_manufactura":9,"pct_construccion":0,"pct_transporte":0,"pct_alojamiento":9,"pct_educ_superior":65,"brecha_educ":-15,"pct_sin_seguro":20,"pct_seguro_privado":0,"brecha_seguro":3,"pct_med_tradicional":5,"pct_automedicacion":14,"pct_remedios_caseros":25,"pct_viv_desocupada":0,"pct_alquiler":0,"pct_electricidad":100,"pct_agua_red":100,"pct_alcantarillado":0,"pct_gas_red":0,"pct_gas_garrafa":67,"pct_lena_guano":67,"pct_basura_formal":22,"pct_basura_quema":44,"pct_basura_informal":22,"pct_internet":56,"pct_celular":78,"pct_televisor":56}},{"type":"Feature","geometry":{"type":"Polygon","coordinates":[[[-68.74917,-15.23914],[-68.74833,-15.23869],[-68.74807,-15.23882],[-68.74811,-15.23888],[-68.74806,-15.23882],[-68.74797,-15.2389],[-68.74857,-15.23964],[-68.74902,-15.23936],[-68.74917,-15.23914]]]},"properties":{"n":"CAMATA","p":111,"personas_x_ha":169,"masculinidad":113,"pct_menor20":38,"pct_60mas":9,"pct_migrante":11,"dependencia_econ":175,"pct_empleados":8,"pct_cuentapropia":78,"pct_agricultura":85,"pct_comercio":20,"pct_manufactura":10,"pct_construccion":5,"pct_transporte":2,"pct_alojamiento":0,"pct_educ_superior":12,"brecha_educ":-5,"pct_sin_seguro":2,"pct_seguro_privado":1,"brecha_seguro":3,"pct_med_tradicional":16,"pct_automedicacion":14,"pct_remedios_caseros":26,"pct_viv_desocupada":0,"pct_alquiler":7,"pct_electricidad":100,"pct_agua_red":80,"pct_alcantarillado":13,"pct_gas_red":0,"pct_gas_garrafa":37,"pct_lena_guano":37,"pct_basura_formal":0,"pct_basura_quema":57,"pct_basura_informal":60,"pct_internet":40,"pct_celular":67,"pct_televisor":67}},{"type":"Feature","geometry":{"type":"Polygon","coordinates":[[[-68.74821,-15.23991],[-68.74783,-15.23945],[-68.74752,-15.2397],[-68.7478,-15.24024],[-68.74821,-15.23991]]]},"properties":{"n":"CAMATA","p":26,"personas_x_ha":77,"masculinidad":160,"pct_menor20":35,"pct_60mas":15,"pct_migrante":27,"dependencia_econ":62,"pct_empleados":12,"pct_cuentapropia":69,"pct_agricultura":56,"pct_comercio":19,"pct_manufactura":6,"pct_construccion":12,"pct_transporte":6,"pct_alojamiento":0,"pct_educ_superior":17,"brecha_educ":-43,"pct_sin_seguro":4,"pct_seguro_privado":0,"brecha_seguro":6,"pct_med_tradicional":12,"pct_automedicacion":8,"pct_remedios_caseros":20,"pct_viv_desocupada":0,"pct_alquiler":30,"pct_electricidad":100,"pct_agua_red":100,"pct_alcantarillado":0,"pct_gas_red":0,"pct_gas_garrafa":50,"pct_lena_guano":50,"pct_basura_formal":0,"pct_basura_quema":30,"pct_basura_informal":80,"pct_internet":20,"pct_celular":80,"pct_televisor":60}},{"type":"Feature","geometry":{"type":"Polygon","coordinates":[[[-68.74757,-15.24034],[-68.74719,-15.24033],[-68.7466,-15.23966],[-68.74652,-15.23973],[-68.74682,-15.24045],[-68.747,-15.24061],[-68.74733,-15.24057],[-68.74757,-15.24034]]]},"properties":{"n":"CAMATA","p":73,"personas_x_ha":171,"masculinidad":135,"pct_menor20":40,"pct_60mas":5,"pct_migrante":37,"dependencia_econ":100,"pct_empleados":9,"pct_cuentapropia":38,"pct_agricultura":41,"pct_comercio":3,"pct_manufactura":0,"pct_construccion":0,"pct_transporte":0,"pct_alojamiento":6,"pct_educ_superior":31,"brecha_educ":-9,"pct_sin_seguro":16,"pct_seguro_privado":3,"brecha_seguro":10,"pct_med_tradicional":12,"pct_automedicacion":13,"pct_remedios_caseros":18,"pct_viv_desocupada":0,"pct_alquiler":5,"pct_electricidad":100,"pct_agua_red":95,"pct_alcantarillado":21,"pct_gas_red":0,"pct_gas_garrafa":37,"pct_lena_guano":37,"pct_basura_formal":5,"pct_basura_quema":47,"pct_basura_informal":74,"pct_internet":42,"pct_celular":89,"pct_televisor":63}},{"type":"Feature","geometry":{"type":"Polygon","coordinates":[[[-68.74887,-15.24006],[-68.74858,-15.23968],[-68.74827,-15.23992],[-68.74861,-15.24033],[-68.74887,-15.24006]]]},"properties":{"n":"CAMATA","p":49,"personas_x_ha":212,"masculinidad":104,"pct_menor20":47,"pct_60mas":8,"pct_migrante":27,"dependencia_econ":277,"pct_empleados":23,"pct_cuentapropia":69,"pct_agricultura":77,"pct_comercio":31,"pct_manufactura":0,"pct_construccion":0,"pct_transporte":8,"pct_alojamiento":0,"pct_educ_superior":11,"brecha_educ":25,"pct_sin_seguro":2,"pct_seguro_privado":0,"brecha_seguro":-5,"pct_med_tradicional":22,"pct_automedicacion":11,"pct_remedios_caseros":32,"pct_viv_desocupada":0,"pct_alquiler":0,"pct_electricidad":100,"pct_agua_red":83,"pct_alcantarillado":17,"pct_gas_red":8,"pct_gas_garrafa":33,"pct_lena_guano":33,"pct_basura_formal":0,"pct_basura_quema":50,"pct_basura_informal":17,"pct_internet":42,"pct_celular":83,"pct_televisor":75}},{"type":"Feature","geometry":{"type":"Polygon","coordinates":[[[-68.74752,-15.23851],[-68.74659,-15.23904],[-68.74659,-15.23916],[-68.74746,-15.23894],[-68.7476,-15.23911],[-68.74785,-15.23891],[-68.74752,-15.23851]]]},"properties":{"n":"CAMATA","p":40,"personas_x_ha":90,"masculinidad":74,"pct_menor20":25,"pct_60mas":20,"pct_migrante":42,"dependencia_econ":74,"pct_empleados":4,"pct_cuentapropia":91,"pct_agricultura":57,"pct_comercio":13,"pct_manufactura":9,"pct_construccion":0,"pct_transporte":4,"pct_alojamiento":0,"pct_educ_superior":17,"brecha_educ":-12,"pct_sin_seguro":5,"pct_seguro_privado":0,"brecha_seguro":1,"pct_med_tradicional":21,"pct_automedicacion":3,"pct_remedios_caseros":26,"pct_viv_desocupada":0,"pct_alquiler":6,"pct_electricidad":94,"pct_agua_red":94,"pct_alcantarillado":12,"pct_gas_red":0,"pct_gas_garrafa":65,"pct_lena_guano":65,"pct_basura_formal":0,"pct_basura_quema":76,"pct_basura_informal":47,"pct_internet":35,"pct_celular":82,"pct_televisor":65}},{"type":"Feature","geometry":{"type":"Polygon","coordinates":[[[-68.74658,-15.23956],[-68.7468,-15.23978],[-68.74699,-15.23959],[-68.74678,-15.23915],[-68.74645,-15.23917],[-68.74658,-15.23956]]]},"properties":{"n":"CAMATA","p":35,"personas_x_ha":148,"masculinidad":94,"pct_menor20":37,"pct_60mas":9,"pct_migrante":37,"dependencia_econ":74,"pct_empleados":16,"pct_cuentapropia":74,"pct_agricultura":47,"pct_comercio":16,"pct_manufactura":32,"pct_construccion":0,"pct_transporte":0,"pct_alojamiento":0,"pct_educ_superior":27,"brecha_educ":-2,"pct_sin_seguro":0,"pct_seguro_privado":0,"brecha_seguro":0,"pct_med_tradicional":13,"pct_automedicacion":13,"pct_remedios_caseros":25,"pct_viv_desocupada":0,"pct_alquiler":33,"pct_electricidad":100,"pct_agua_red":100,"pct_alcantarillado":33,"pct_gas_red":0,"pct_gas_garrafa":80,"pct_lena_guano":80,"pct_basura_formal":27,"pct_basura_quema":60,"pct_basura_informal":27,"pct_internet":33,"pct_celular":53,"pct_televisor":60}},{"type":"Feature","geometry":{"type":"Polygon","coordinates":[[[-68.74649,-15.23949],[-68.74639,-15.23914],[-68.74611,-15.23899],[-68.74594,-15.23903],[-68.74582,-15.23926],[-68.74595,-15.23947],[-68.74609,-15.23939],[-68.74638,-15.23961],[-68.74649,-15.23949]]]},"properties":{"n":"CAMATA","p":37,"personas_x_ha":128,"masculinidad":164,"pct_menor20":24,"pct_60mas":14,"pct_migrante":38,"dependencia_econ":106,"pct_empleados":11,"pct_cuentapropia":67,"pct_agricultura":83,"pct_comercio":17,"pct_manufactura":11,"pct_construccion":6,"pct_transporte":0,"pct_alojamiento":0,"pct_educ_superior":4,"brecha_educ":9,"pct_sin_seguro":0,"pct_seguro_privado":0,"brecha_seguro":0,"pct_med_tradicional":19,"pct_automedicacion":12,"pct_remedios_caseros":22,"pct_viv_desocupada":0,"pct_alquiler":33,"pct_electricidad":100,"pct_agua_red":87,"pct_alcantarillado":7,"pct_gas_red":7,"pct_gas_garrafa":47,"pct_lena_guano":47,"pct_basura_formal":20,"pct_basura_quema":53,"pct_basura_informal":13,"pct_internet":27,"pct_celular":67,"pct_televisor":67}},{"type":"Feature","geometry":{"type":"Polygon","coordinates":[[[-68.74728,-15.24031],[-68.74775,-15.24025],[-68.74731,-15.23941],[-68.7468,-15.23984],[-68.74728,-15.24031]]]},"properties":{"n":"CAMATA","p":57,"personas_x_ha":102,"masculinidad":97,"pct_menor20":42,"pct_60mas":4,"pct_migrante":39,"dependencia_econ":64,"pct_empleados":6,"pct_cuentapropia":82,"pct_agricultura":61,"pct_comercio":30,"pct_manufactura":0,"pct_construccion":3,"pct_transporte":0,"pct_alojamiento":0,"pct_educ_superior":20,"brecha_educ":-3,"pct_sin_seguro":2,"pct_seguro_privado":0,"brecha_seguro":4,"pct_med_tradicional":16,"pct_automedicacion":15,"pct_remedios_caseros":26,"pct_viv_desocupada":0,"pct_alquiler":35,"pct_electricidad":100,"pct_agua_red":82,"pct_alcantarillado":24,"pct_gas_red":0,"pct_gas_garrafa":59,"pct_lena_guano":59,"pct_basura_formal":18,"pct_basura_quema":53,"pct_basura_informal":24,"pct_internet":53,"pct_celular":82,"pct_televisor":59}},{"type":"Feature","geometry":{"type":"Polygon","coordinates":[[[-68.74824,-15.24098],[-68.74798,-15.24061],[-68.74793,-15.24093],[-68.74796,-15.24059],[-68.74777,-15.24029],[-68.74765,-15.24034],[-68.74766,-15.24059],[-68.74757,-15.24074],[-68.74729,-15.24092],[-68.74723,-15.24081],[-68.74715,-15.24092],[-68.74738,-15.24113],[-68.74784,-15.24126],[-68.74824,-15.24098]]]},"properties":{"n":"CAMATA","p":93,"personas_x_ha":161,"masculinidad":111,"pct_menor20":44,"pct_60mas":14,"pct_migrante":2,"dependencia_econ":156,"pct_empleados":14,"pct_cuentapropia":67,"pct_agricultura":78,"pct_comercio":11,"pct_manufactura":11,"pct_construccion":3,"pct_transporte":0,"pct_alojamiento":8,"pct_educ_superior":11,"brecha_educ":-25,"pct_sin_seguro":0,"pct_seguro_privado":0,"brecha_seguro":0,"pct_med_tradicional":12,"pct_automedicacion":12,"pct_remedios_caseros":28,"pct_viv_desocupada":0,"pct_alquiler":4,"pct_electricidad":96,"pct_agua_red":96,"pct_alcantarillado":17,"pct_gas_red":0,"pct_gas_garrafa":30,"pct_lena_guano":30,"pct_basura_formal":22,"pct_basura_quema":48,"pct_basura_informal":26,"pct_internet":26,"pct_celular":61,"pct_televisor":43}},{"type":"Feature","geometry":{"type":"Polygon","coordinates":[[[-68.74805,-15.238],[-68.74751,-15.23803],[-68.74745,-15.23838],[-68.74788,-15.23889],[-68.74828,-15.23853],[-68.7482,-15.23816],[-68.74805,-15.238]]]},"properties":{"n":"CAMATA","p":60,"personas_x_ha":101,"masculinidad":94,"pct_menor20":38,"pct_60mas":7,"pct_migrante":10,"dependencia_econ":157,"pct_empleados":9,"pct_cuentapropia":74,"pct_agricultura":104,"pct_comercio":13,"pct_manufactura":4,"pct_construccion":0,"pct_transporte":0,"pct_alojamiento":0,"pct_educ_superior":15,"brecha_educ":1,"pct_sin_seguro":10,"pct_seguro_privado":0,"brecha_seguro":0,"pct_med_tradicional":18,"pct_automedicacion":11,"pct_remedios_caseros":21,"pct_viv_desocupada":0,"pct_alquiler":13,"pct_electricidad":93,"pct_agua_red":73,"pct_alcantarillado":0,"pct_gas_red":0,"pct_gas_garrafa":53,"pct_lena_guano":53,"pct_basura_formal":0,"pct_basura_quema":87,"pct_basura_informal":27,"pct_internet":27,"pct_celular":67,"pct_televisor":60}},{"type":"Feature","geometry":{"type":"Polygon","coordinates":[[[-68.74855,-15.23966],[-68.74818,-15.23921],[-68.74788,-15.23946],[-68.74825,-15.2399],[-68.74855,-15.23966]]]},"properties":{"n":"CAMATA","p":24,"personas_x_ha":89,"masculinidad":118,"pct_menor20":8,"pct_60mas":42,"pct_migrante":42,"dependencia_econ":77,"pct_empleados":15,"pct_cuentapropia":85,"pct_agricultura":62,"pct_comercio":15,"pct_manufactura":15,"pct_construccion":0,"pct_transporte":0,"pct_alojamiento":0,"pct_educ_superior":24,"brecha_educ":0,"pct_sin_seguro":0,"pct_seguro_privado":0,"brecha_seguro":0,"pct_med_tradicional":15,"pct_automedicacion":6,"pct_remedios_caseros":16,"pct_viv_desocupada":0,"pct_alquiler":14,"pct_electricidad":100,"pct_agua_red":100,"pct_alcantarillado":0,"pct_gas_red":0,"pct_gas_garrafa":43,"pct_lena_guano":43,"pct_basura_formal":0,"pct_basura_quema":14,"pct_basura_informal":114,"pct_internet":29,"pct_celular":86,"pct_televisor":86}},{"type":"Feature","geometry":{"type":"Polygon","coordinates":[[[-68.74825,-15.23995],[-68.74781,-15.24027],[-68.74814,-15.24076],[-68.74856,-15.24036],[-68.74825,-15.23995]]]},"properties":{"n":"CAMATA","p":65,"personas_x_ha":170,"masculinidad":124,"pct_menor20":23,"pct_60mas":8,"pct_migrante":5,"dependencia_econ":59,"pct_empleados":0,"pct_cuentapropia":85,"pct_agricultura":97,"pct_comercio":3,"pct_manufactura":3,"pct_construccion":3,"pct_transporte":0,"pct_alojamiento":0,"pct_educ_superior":14,"brecha_educ":-6,"pct_sin_seguro":2,"pct_seguro_privado":2,"brecha_seguro":3,"pct_med_tradicional":15,"pct_automedicacion":13,"pct_remedios_caseros":21,"pct_viv_desocupada":0,"pct_alquiler":7,"pct_electricidad":93,"pct_agua_red":60,"pct_alcantarillado":13,"pct_gas_red":0,"pct_gas_garrafa":80,"pct_lena_guano":80,"pct_basura_formal":0,"pct_basura_quema":33,"pct_basura_informal":53,"pct_internet":27,"pct_celular":53,"pct_televisor":40}},{"type":"Feature","geometry":{"type":"Polygon","coordinates":[[[-68.74786,-15.23941],[-68.74815,-15.23918],[-68.74795,-15.23891],[-68.74768,-15.23916],[-68.74786,-15.23941]]]},"properties":{"n":"CAMATA","p":44,"personas_x_ha":310,"masculinidad":110,"pct_menor20":43,"pct_60mas":7,"pct_migrante":34,"dependencia_econ":115,"pct_empleados":5,"pct_cuentapropia":95,"pct_agricultura":70,"pct_comercio":25,"pct_manufactura":10,"pct_construccion":5,"pct_transporte":0,"pct_alojamiento":0,"pct_educ_superior":8,"brecha_educ":5,"pct_sin_seguro":15,"pct_seguro_privado":0,"brecha_seguro":-2,"pct_med_tradicional":21,"pct_automedicacion":13,"pct_remedios_caseros":26,"pct_viv_desocupada":7,"pct_alquiler":15,"pct_electricidad":92,"pct_agua_red":77,"pct_alcantarillado":8,"pct_gas_red":0,"pct_gas_garrafa":38,"pct_lena_guano":38,"pct_basura_formal":15,"pct_basura_quema":46,"pct_basura_informal":77,"pct_internet":46,"pct_celular":85,"pct_televisor":85}},{"type":"Feature","geometry":{"type":"Polygon","coordinates":[[[-68.74759,-15.23913],[-68.74746,-15.23897],[-68.7468,-15.23915],[-68.74701,-15.23958],[-68.74759,-15.23913]]]},"properties":{"n":"CAMATA","p":26,"personas_x_ha":96,"masculinidad":117,"pct_menor20":19,"pct_60mas":23,"pct_migrante":23,"dependencia_econ":53,"pct_empleados":13,"pct_cuentapropia":73,"pct_agricultura":47,"pct_comercio":7,"pct_manufactura":13,"pct_construccion":7,"pct_transporte":0,"pct_alojamiento":0,"pct_educ_superior":16,"brecha_educ":24,"pct_sin_seguro":26,"pct_seguro_privado":0,"brecha_seguro":-2,"pct_med_tradicional":9,"pct_automedicacion":5,"pct_remedios_caseros":23,"pct_viv_desocupada":0,"pct_alquiler":25,"pct_electricidad":100,"pct_agua_red":100,"pct_alcantarillado":0,"pct_gas_red":0,"pct_gas_garrafa":50,"pct_lena_guano":50,"pct_basura_formal":12,"pct_basura_quema":25,"pct_basura_informal":125,"pct_internet":38,"pct_celular":88,"pct_televisor":75}}]}