{"type":"FeatureCollection","features":[{"type":"Feature","geometry":{"type":"Polygon","coordinates":[[[-68.49472,-17.2458],[-68.49532,-17.24549],[-68.49559,-17.246],[-68.49505,-17.24628],[-68.49472,-17.2458]]]},"properties":{"n":"CAQUINGORA","p":35,"personas_x_ha":79,"masculinidad":94,"pct_menor20":31,"pct_60mas":31,"pct_migrante":29,"dependencia_econ":79,"pct_empleados":5,"pct_cuentapropia":89,"pct_agricultura":16,"pct_comercio":53,"pct_manufactura":5,"pct_construccion":0,"pct_transporte":5,"pct_alojamiento":5,"pct_sin_educacion":0,"pct_educ_superior":26,"brecha_educ":-32,"pct_sin_seguro":15,"pct_sus":62,"pct_seguro_privado":21,"brecha_seguro":6,"pct_salud_publica":26,"pct_med_tradicional":13,"pct_automedicacion":16,"pct_remedios_caseros":34,"pct_viv_desocupada":0,"pct_alquiler":7,"pct_electricidad":100,"pct_sin_electricidad":0,"pct_agua_red":93,"pct_alcantarillado":0,"pct_camara_septica":7,"pct_pozo_ciego":14,"pct_sin_desague":79,"pct_gas_red":0,"pct_gas_garrafa":100,"pct_lena_guano":0,"pct_basura_formal":0,"pct_basura_quema":43,"pct_basura_informal":57,"pct_internet":64,"pct_celular":93,"pct_televisor":86}},{"type":"Feature","geometry":{"type":"Polygon","coordinates":[[[-68.49638,-17.2457],[-68.49569,-17.24603],[-68.49601,-17.24666],[-68.49669,-17.24636],[-68.49663,-17.24607],[-68.49638,-17.2457]]]},"properties":{"n":"CAQUINGORA","p":35,"personas_x_ha":51,"masculinidad":94,"pct_menor20":34,"pct_60mas":17,"pct_migrante":26,"dependencia_econ":67,"pct_empleados":10,"pct_cuentapropia":67,"pct_agricultura":29,"pct_comercio":52,"pct_manufactura":0,"pct_construccion":0,"pct_transporte":0,"pct_alojamiento":10,"pct_sin_educacion":0,"pct_educ_superior":25,"brecha_educ":-10,"pct_sin_seguro":9,"pct_sus":85,"pct_seguro_privado":0,"brecha_seguro":7,"pct_salud_publica":31,"pct_med_tradicional":18,"pct_automedicacion":10,"pct_remedios_caseros":30,"pct_viv_desocupada":0,"pct_alquiler":0,"pct_electricidad":100,"pct_sin_electricidad":0,"pct_agua_red":100,"pct_alcantarillado":0,"pct_camara_septica":10,"pct_pozo_ciego":40,"pct_sin_desague":50,"pct_gas_red":0,"pct_gas_garrafa":100,"pct_lena_guano":0,"pct_basura_formal":0,"pct_basura_quema":20,"pct_basura_informal":60,"pct_internet":70,"pct_celular":100,"pct_televisor":90}},{"type":"Feature","geometry":{"type":"Polygon","coordinates":[[[-68.49476,-17.24464],[-68.49482,-17.24468],[-68.49463,-17.24574],[-68.49432,-17.24589],[-68.4939,-17.24502],[-68.49476,-17.24464]]]},"properties":{"n":"CAQUINGORA","p":23,"personas_x_ha":30,"masculinidad":156,"pct_menor20":26,"pct_60mas":30,"pct_migrante":48,"dependencia_econ":35,"pct_empleados":18,"pct_cuentapropia":47,"pct_agricultura":12,"pct_comercio":35,"pct_manufactura":29,"pct_construccion":0,"pct_transporte":12,"pct_alojamiento":0,"pct_sin_educacion":0,"pct_educ_superior":29,"brecha_educ":-33,"pct_sin_seguro":17,"pct_sus":70,"pct_seguro_privado":0,"brecha_seguro":10,"pct_salud_publica":23,"pct_med_tradicional":17,"pct_automedicacion":19,"pct_remedios_caseros":24,"pct_viv_desocupada":0,"pct_alquiler":0,"pct_electricidad":91,"pct_sin_electricidad":9,"pct_agua_red":73,"pct_alcantarillado":0,"pct_camara_septica":9,"pct_pozo_ciego":36,"pct_sin_desague":55,"pct_gas_red":0,"pct_gas_garrafa":100,"pct_lena_guano":0,"pct_basura_formal":9,"pct_basura_quema":9,"pct_basura_informal":82,"pct_internet":36,"pct_celular":100,"pct_televisor":73}},{"type":"Feature","geometry":{"type":"Polygon","coordinates":[[[-68.49656,-17.24708],[-68.49619,-17.24705],[-68.49603,-17.24672],[-68.49667,-17.24644],[-68.49656,-17.24708]]]},"properties":{"n":"CAQUINGORA","p":17,"personas_x_ha":58,"masculinidad":55,"pct_menor20":47,"pct_60mas":12,"pct_migrante":24,"dependencia_econ":112,"pct_empleados":12,"pct_cuentapropia":88,"pct_agricultura":0,"pct_comercio":75,"pct_manufactura":12,"pct_construccion":0,"pct_transporte":0,"pct_alojamiento":0,"pct_sin_educacion":0,"pct_educ_superior":22,"brecha_educ":-33,"pct_sin_seguro":6,"pct_sus":71,"pct_seguro_privado":0,"brecha_seguro":-9,"pct_salud_publica":35,"pct_med_tradicional":0,"pct_automedicacion":11,"pct_remedios_caseros":43,"pct_viv_desocupada":12,"pct_alquiler":0,"pct_electricidad":100,"pct_sin_electricidad":0,"pct_agua_red":100,"pct_alcantarillado":0,"pct_camara_septica":0,"pct_pozo_ciego":20,"pct_sin_desague":80,"pct_gas_red":0,"pct_gas_garrafa":100,"pct_lena_guano":0,"pct_basura_formal":0,"pct_basura_quema":20,"pct_basura_informal":80,"pct_internet":0,"pct_celular":100,"pct_televisor":80}},{"type":"Feature","geometry":{"type":"Polygon","coordinates":[[[-68.49493,-17.2446],[-68.49504,-17.24363],[-68.49532,-17.24357],[-68.49536,-17.24463],[-68.49502,-17.24478],[-68.49493,-17.2446]]]},"properties":{"n":"CAQUINGORA","p":26,"personas_x_ha":55,"masculinidad":136,"pct_menor20":31,"pct_60mas":12,"pct_migrante":27,"dependencia_econ":62,"pct_empleados":31,"pct_cuentapropia":62,"pct_agricultura":6,"pct_comercio":38,"pct_manufactura":0,"pct_construccion":12,"pct_transporte":6,"pct_alojamiento":6,"pct_sin_educacion":0,"pct_educ_superior":21,"brecha_educ":-23,"pct_sin_seguro":4,"pct_sus":96,"pct_seguro_privado":0,"brecha_seguro":7,"pct_salud_publica":31,"pct_med_tradicional":15,"pct_automedicacion":12,"pct_remedios_caseros":31,"pct_viv_desocupada":0,"pct_alquiler":0,"pct_electricidad":89,"pct_sin_electricidad":0,"pct_agua_red":67,"pct_alcantarillado":0,"pct_camara_septica":11,"pct_pozo_ciego":11,"pct_sin_desague":78,"pct_gas_red":0,"pct_gas_garrafa":100,"pct_lena_guano":0,"pct_basura_formal":0,"pct_basura_quema":11,"pct_basura_informal":89,"pct_internet":56,"pct_celular":56,"pct_televisor":44}},{"type":"Feature","geometry":{"type":"Polygon","coordinates":[[[-68.495,-17.24637],[-68.49562,-17.24607],[-68.49593,-17.24669],[-68.49535,-17.24693],[-68.495,-17.24637]]]},"properties":{"n":"CAQUINGORA","p":54,"personas_x_ha":101,"masculinidad":145,"pct_menor20":35,"pct_60mas":15,"pct_migrante":33,"dependencia_econ":59,"pct_empleados":18,"pct_cuentapropia":76,"pct_agricultura":3,"pct_comercio":53,"pct_manufactura":15,"pct_construccion":0,"pct_transporte":9,"pct_alojamiento":3,"pct_sin_educacion":0,"pct_educ_superior":23,"brecha_educ":-28,"pct_sin_seguro":20,"pct_sus":72,"pct_seguro_privado":0,"brecha_seguro":-12,"pct_salud_publica":31,"pct_med_tradicional":11,"pct_automedicacion":12,"pct_remedios_caseros":29,"pct_viv_desocupada":0,"pct_alquiler":6,"pct_electricidad":94,"pct_sin_electricidad":0,"pct_agua_red":62,"pct_alcantarillado":0,"pct_camara_septica":25,"pct_pozo_ciego":31,"pct_sin_desague":44,"pct_gas_red":0,"pct_gas_garrafa":100,"pct_lena_guano":0,"pct_basura_formal":6,"pct_basura_quema":25,"pct_basura_informal":69,"pct_internet":69,"pct_celular":100,"pct_televisor":81}},{"type":"Feature","geometry":{"type":"Polygon","coordinates":[[[-68.49527,-17.24545],[-68.49499,-17.24491],[-68.49486,-17.24491],[-68.49472,-17.2457],[-68.49527,-17.24545]]]},"properties":{"n":"CAQUINGORA","p":15,"personas_x_ha":53,"masculinidad":114,"pct_menor20":13,"pct_60mas":20,"pct_migrante":20,"dependencia_econ":15,"pct_empleados":15,"pct_cuentapropia":54,"pct_agricultura":31,"pct_comercio":38,"pct_manufactura":0,"pct_construccion":8,"pct_transporte":0,"pct_alojamiento":0,"pct_sin_educacion":0,"pct_educ_superior":23,"brecha_educ":-14,"pct_sin_seguro":21,"pct_sus":79,"pct_seguro_privado":0,"brecha_seguro":43,"pct_salud_publica":45,"pct_med_tradicional":14,"pct_automedicacion":7,"pct_remedios_caseros":34,"pct_viv_desocupada":0,"pct_alquiler":0,"pct_electricidad":100,"pct_sin_electricidad":0,"pct_agua_red":83,"pct_alcantarillado":17,"pct_camara_septica":17,"pct_pozo_ciego":33,"pct_sin_desague":33,"pct_gas_red":0,"pct_gas_garrafa":100,"pct_lena_guano":0,"pct_basura_formal":0,"pct_basura_quema":17,"pct_basura_informal":83,"pct_internet":67,"pct_celular":67,"pct_televisor":83}},{"type":"Feature","geometry":{"type":"Polygon","coordinates":[[[-68.4961,-17.24525],[-68.49542,-17.24539],[-68.49543,-17.24468],[-68.49602,-17.24445],[-68.4961,-17.24525]]]},"properties":{"n":"CAQUINGORA","p":17,"personas_x_ha":29,"masculinidad":55,"pct_menor20":35,"pct_60mas":18,"pct_migrante":18,"dependencia_econ":55,"pct_empleados":18,"pct_cuentapropia":27,"pct_agricultura":27,"pct_comercio":36,"pct_manufactura":9,"pct_construccion":0,"pct_transporte":0,"pct_alojamiento":0,"pct_sin_educacion":0,"pct_educ_superior":9,"brecha_educ":-27,"pct_sin_seguro":0,"pct_sus":100,"pct_seguro_privado":0,"brecha_seguro":0,"pct_salud_publica":37,"pct_med_tradicional":22,"pct_automedicacion":19,"pct_remedios_caseros":22,"pct_viv_desocupada":0,"pct_alquiler":0,"pct_electricidad":100,"pct_sin_electricidad":0,"pct_agua_red":71,"pct_alcantarillado":0,"pct_camara_septica":0,"pct_pozo_ciego":43,"pct_sin_desague":57,"pct_gas_red":0,"pct_gas_garrafa":86,"pct_lena_guano":14,"pct_basura_formal":0,"pct_basura_quema":14,"pct_basura_informal":86,"pct_internet":57,"pct_celular":100,"pct_televisor":57}},{"type":"Feature","geometry":{"type":"Polygon","coordinates":[[[-68.49607,-17.24697],[-68.49579,-17.24709],[-68.49588,-17.2474],[-68.49565,-17.24746],[-68.49539,-17.24698],[-68.49598,-17.24677],[-68.49607,-17.24697]]]},"properties":{"n":"CAQUINGORA","p":27,"personas_x_ha":96,"masculinidad":125,"pct_menor20":52,"pct_60mas":0,"pct_migrante":0,"dependencia_econ":80,"pct_empleados":27,"pct_cuentapropia":53,"pct_agricultura":0,"pct_comercio":67,"pct_manufactura":33,"pct_construccion":0,"pct_transporte":0,"pct_alojamiento":0,"pct_sin_educacion":0,"pct_educ_superior":7,"brecha_educ":-17,"pct_sin_seguro":26,"pct_sus":74,"pct_seguro_privado":0,"brecha_seguro":-13,"pct_salud_publica":79,"pct_med_tradicional":0,"pct_automedicacion":0,"pct_remedios_caseros":21,"pct_viv_desocupada":0,"pct_alquiler":20,"pct_electricidad":100,"pct_sin_electricidad":0,"pct_agua_red":100,"pct_alcantarillado":0,"pct_camara_septica":0,"pct_pozo_ciego":20,"pct_sin_desague":80,"pct_gas_red":0,"pct_gas_garrafa":100,"pct_lena_guano":0,"pct_basura_formal":0,"pct_basura_quema":40,"pct_basura_informal":60,"pct_internet":20,"pct_celular":100,"pct_televisor":40}},{"type":"Feature","geometry":{"type":"Polygon","coordinates":[[[-68.49654,-17.24807],[-68.49656,-17.24715],[-68.496,-17.24705],[-68.49584,-17.24711],[-68.49593,-17.24743],[-68.49643,-17.2481],[-68.49654,-17.24807]]]},"properties":{"n":"CAQUINGORA","p":28,"personas_x_ha":49,"masculinidad":115,"pct_menor20":46,"pct_60mas":7,"pct_migrante":54,"dependencia_econ":93,"pct_empleados":7,"pct_cuentapropia":86,"pct_agricultura":0,"pct_comercio":71,"pct_manufactura":0,"pct_construccion":7,"pct_transporte":0,"pct_alojamiento":0,"pct_sin_educacion":0,"pct_educ_superior":47,"brecha_educ":12,"pct_sin_seguro":4,"pct_sus":96,"pct_seguro_privado":0,"brecha_seguro":8,"pct_salud_publica":35,"pct_med_tradicional":8,"pct_automedicacion":10,"pct_remedios_caseros":36,"pct_viv_desocupada":0,"pct_alquiler":0,"pct_electricidad":67,"pct_sin_electricidad":33,"pct_agua_red":83,"pct_alcantarillado":0,"pct_camara_septica":0,"pct_pozo_ciego":17,"pct_sin_desague":67,"pct_gas_red":0,"pct_gas_garrafa":83,"pct_lena_guano":17,"pct_basura_formal":0,"pct_basura_quema":33,"pct_basura_informal":67,"pct_internet":67,"pct_celular":100,"pct_televisor":67}},{"type":"Feature","geometry":{"type":"Polygon","coordinates":[[[-68.45109,-17.16757],[-68.45142,-17.16755],[-68.45141,-17.16707],[-68.45106,-17.16708],[-68.45109,-17.16757]]]},"properties":{"n":"CORO CORO","p":52,"personas_x_ha":261,"masculinidad":73,"pct_menor20":40,"pct_60mas":2,"pct_migrante":48,"dependencia_econ":132,"pct_empleados":36,"pct_cuentapropia":27,"pct_agricultura":9,"pct_comercio":14,"pct_manufactura":5,"pct_construccion":14,"pct_transporte":0,"pct_alojamiento":0,"pct_sin_educacion":3,"pct_educ_superior":16,"brecha_educ":-29,"pct_sin_seguro":0,"pct_sus":61,"pct_seguro_privado":6,"brecha_seguro":0,"pct_salud_publica":23,"pct_med_tradicional":13,"pct_automedicacion":12,"pct_remedios_caseros":26,"pct_viv_desocupada":0,"pct_alquiler":6,"pct_electricidad":56,"pct_sin_electricidad":6,"pct_agua_red":50,"pct_alcantarillado":11,"pct_camara_septica":6,"pct_pozo_ciego":6,"pct_sin_desague":61,"pct_gas_red":0,"pct_gas_garrafa":100,"pct_lena_guano":0,"pct_basura_formal":89,"pct_basura_quema":6,"pct_basura_informal":0,"pct_internet":72,"pct_celular":89,"pct_televisor":83}},{"type":"Feature","geometry":{"type":"Polygon","coordinates":[[[-68.45044,-17.17461],[-68.45032,-17.1721],[-68.44996,-17.17213],[-68.44926,-17.17244],[-68.44922,-17.17255],[-68.44951,-17.17304],[-68.4494,-17.17345],[-68.44957,-17.17378],[-68.44962,-17.17441],[-68.44972,-17.17449],[-68.45044,-17.17461]]]},"properties":{"n":"CORO CORO","p":65,"personas_x_ha":26,"masculinidad":67,"pct_menor20":42,"pct_60mas":18,"pct_migrante":52,"dependencia_econ":117,"pct_empleados":47,"pct_cuentapropia":40,"pct_agricultura":3,"pct_comercio":33,"pct_manufactura":17,"pct_construccion":3,"pct_transporte":7,"pct_alojamiento":3,"pct_sin_educacion":3,"pct_educ_superior":33,"brecha_educ":-8,"pct_sin_seguro":11,"pct_sus":54,"pct_seguro_privado":2,"brecha_seguro":8,"pct_salud_publica":24,"pct_med_tradicional":7,"pct_automedicacion":20,"pct_remedios_caseros":26,"pct_viv_desocupada":0,"pct_alquiler":16,"pct_electricidad":94,"pct_sin_electricidad":6,"pct_agua_red":100,"pct_alcantarillado":94,"pct_camara_septica":0,"pct_pozo_ciego":0,"pct_sin_desague":6,"pct_gas_red":0,"pct_gas_garrafa":94,"pct_lena_guano":0,"pct_basura_formal":97,"pct_basura_quema":0,"pct_basura_informal":3,"pct_internet":71,"pct_celular":94,"pct_televisor":84}},{"type":"Feature","geometry":{"type":"Polygon","coordinates":[[[-68.44968,-17.17167],[-68.44911,-17.17214],[-68.44924,-17.17236],[-68.44989,-17.17206],[-68.44968,-17.17167]]]},"properties":{"n":"CORO CORO","p":15,"personas_x_ha":48,"masculinidad":150,"pct_menor20":47,"pct_60mas":20,"pct_migrante":73,"dependencia_econ":275,"pct_empleados":75,"pct_cuentapropia":25,"pct_agricultura":0,"pct_comercio":0,"pct_manufactura":0,"pct_construccion":0,"pct_transporte":50,"pct_alojamiento":0,"pct_sin_educacion":0,"pct_educ_superior":22,"brecha_educ":-17,"pct_sin_seguro":13,"pct_sus":33,"pct_seguro_privado":0,"brecha_seguro":-6,"pct_salud_publica":20,"pct_med_tradicional":20,"pct_automedicacion":18,"pct_remedios_caseros":22,"pct_viv_desocupada":0,"pct_alquiler":0,"pct_electricidad":56,"pct_sin_electricidad":44,"pct_agua_red":78,"pct_alcantarillado":44,"pct_camara_septica":0,"pct_pozo_ciego":11,"pct_sin_desague":44,"pct_gas_red":0,"pct_gas_garrafa":78,"pct_lena_guano":0,"pct_basura_formal":89,"pct_basura_quema":11,"pct_basura_informal":0,"pct_internet":78,"pct_celular":100,"pct_televisor":67}},{"type":"Feature","geometry":{"type":"Polygon","coordinates":[[[-68.45299,-17.17703],[-68.45333,-17.17766],[-68.45368,-17.17739],[-68.45328,-17.17681],[-68.45299,-17.17703]]]},"properties":{"n":"CORO CORO","p":17,"personas_x_ha":50,"masculinidad":89,"pct_menor20":35,"pct_60mas":18,"pct_migrante":53,"dependencia_econ":70,"pct_empleados":60,"pct_cuentapropia":30,"pct_agricultura":0,"pct_comercio":20,"pct_manufactura":10,"pct_construccion":10,"pct_transporte":0,"pct_alojamiento":0,"pct_sin_educacion":0,"pct_educ_superior":55,"brecha_educ":-40,"pct_sin_seguro":0,"pct_sus":12,"pct_seguro_privado":0,"brecha_seguro":0,"pct_salud_publica":21,"pct_med_tradicional":13,"pct_automedicacion":19,"pct_remedios_caseros":21,"pct_viv_desocupada":0,"pct_alquiler":38,"pct_electricidad":100,"pct_sin_electricidad":0,"pct_agua_red":88,"pct_alcantarillado":62,"pct_camara_septica":25,"pct_pozo_ciego":0,"pct_sin_desague":0,"pct_gas_red":0,"pct_gas_garrafa":100,"pct_lena_guano":0,"pct_basura_formal":62,"pct_basura_quema":0,"pct_basura_informal":38,"pct_internet":75,"pct_celular":75,"pct_televisor":88}},{"type":"Feature","geometry":{"type":"Polygon","coordinates":[[[-68.44099,-17.17774],[-68.43994,-17.1777],[-68.43992,-17.17789],[-68.43999,-17.17798],[-68.44035,-17.17801],[-68.44108,-17.17787],[-68.44099,-17.17774]]]},"properties":{"n":"CORO CORO","p":28,"personas_x_ha":85,"masculinidad":300,"pct_menor20":50,"pct_60mas":7,"pct_migrante":11,"dependencia_econ":27,"pct_empleados":9,"pct_cuentapropia":82,"pct_agricultura":41,"pct_comercio":5,"pct_manufactura":0,"pct_construccion":36,"pct_transporte":5,"pct_alojamiento":0,"pct_sin_educacion":0,"pct_educ_superior":12,"brecha_educ":-50,"pct_sin_seguro":0,"pct_sus":86,"pct_seguro_privado":0,"brecha_seguro":0,"pct_salud_publica":22,"pct_med_tradicional":20,"pct_automedicacion":22,"pct_remedios_caseros":29,"pct_viv_desocupada":0,"pct_alquiler":12,"pct_electricidad":88,"pct_sin_electricidad":0,"pct_agua_red":88,"pct_alcantarillado":38,"pct_camara_septica":0,"pct_pozo_ciego":50,"pct_sin_desague":12,"pct_gas_red":0,"pct_gas_garrafa":100,"pct_lena_guano":0,"pct_basura_formal":100,"pct_basura_quema":0,"pct_basura_informal":0,"pct_internet":75,"pct_celular":88,"pct_televisor":62}},{"type":"Feature","geometry":{"type":"Polygon","coordinates":[[[-68.45463,-17.18166],[-68.45473,-17.18165],[-68.45458,-17.18049],[-68.454,-17.18052],[-68.45397,-17.18057],[-68.45463,-17.18166]]]},"properties":{"n":"CORO CORO","p":15,"personas_x_ha":27,"masculinidad":150,"pct_menor20":20,"pct_60mas":27,"pct_migrante":20,"dependencia_econ":36,"pct_empleados":27,"pct_cuentapropia":64,"pct_agricultura":0,"pct_comercio":18,"pct_manufactura":9,"pct_construccion":0,"pct_transporte":45,"pct_alojamiento":0,"pct_sin_educacion":0,"pct_educ_superior":54,"brecha_educ":-2,"pct_sin_seguro":20,"pct_sus":67,"pct_seguro_privado":0,"brecha_seguro":6,"pct_salud_publica":19,"pct_med_tradicional":22,"pct_automedicacion":20,"pct_remedios_caseros":24,"pct_viv_desocupada":15,"pct_alquiler":0,"pct_electricidad":78,"pct_sin_electricidad":22,"pct_agua_red":78,"pct_alcantarillado":22,"pct_camara_septica":0,"pct_pozo_ciego":11,"pct_sin_desague":56,"pct_gas_red":0,"pct_gas_garrafa":78,"pct_lena_guano":22,"pct_basura_formal":22,"pct_basura_quema":67,"pct_basura_informal":11,"pct_internet":78,"pct_celular":89,"pct_televisor":67}},{"type":"Feature","geometry":{"type":"Polygon","coordinates":[[[-68.44268,-17.17692],[-68.44284,-17.17619],[-68.44271,-17.17614],[-68.44249,-17.17637],[-68.44241,-17.17703],[-68.44268,-17.17692]]]},"properties":{"n":"CORO CORO","p":33,"personas_x_ha":128,"masculinidad":1000,"pct_menor20":76,"pct_60mas":9,"pct_migrante":6,"dependencia_econ":43,"pct_empleados":26,"pct_cuentapropia":65,"pct_agricultura":35,"pct_comercio":30,"pct_manufactura":4,"pct_construccion":17,"pct_transporte":9,"pct_alojamiento":4,"pct_sin_educacion":0,"pct_educ_superior":11,"brecha_educ":-27,"pct_sin_seguro":3,"pct_sus":94,"pct_seguro_privado":0,"brecha_seguro":3,"pct_salud_publica":94,"pct_med_tradicional":0,"pct_automedicacion":0,"pct_remedios_caseros":3,"pct_viv_desocupada":0,"pct_alquiler":11,"pct_electricidad":89,"pct_sin_electricidad":11,"pct_agua_red":67,"pct_alcantarillado":11,"pct_camara_septica":0,"pct_pozo_ciego":33,"pct_sin_desague":33,"pct_gas_red":0,"pct_gas_garrafa":78,"pct_lena_guano":11,"pct_basura_formal":89,"pct_basura_quema":0,"pct_basura_informal":11,"pct_internet":56,"pct_celular":89,"pct_televisor":33}},{"type":"Feature","geometry":{"type":"Polygon","coordinates":[[[-68.45411,-17.17801],[-68.45389,-17.17735],[-68.45335,-17.1777],[-68.45359,-17.17822],[-68.45411,-17.17801]]]},"properties":{"n":"CORO CORO","p":41,"personas_x_ha":86,"masculinidad":95,"pct_menor20":15,"pct_60mas":27,"pct_migrante":44,"dependencia_econ":41,"pct_empleados":45,"pct_cuentapropia":41,"pct_agricultura":7,"pct_comercio":28,"pct_manufactura":10,"pct_construccion":7,"pct_transporte":3,"pct_alojamiento":0,"pct_sin_educacion":3,"pct_educ_superior":39,"brecha_educ":-11,"pct_sin_seguro":8,"pct_sus":40,"pct_seguro_privado":5,"brecha_seguro":5,"pct_salud_publica":19,"pct_med_tradicional":16,"pct_automedicacion":12,"pct_remedios_caseros":22,"pct_viv_desocupada":6,"pct_alquiler":6,"pct_electricidad":94,"pct_sin_electricidad":6,"pct_agua_red":81,"pct_alcantarillado":44,"pct_camara_septica":0,"pct_pozo_ciego":0,"pct_sin_desague":12,"pct_gas_red":0,"pct_gas_garrafa":88,"pct_lena_guano":6,"pct_basura_formal":88,"pct_basura_quema":12,"pct_basura_informal":0,"pct_internet":75,"pct_celular":88,"pct_televisor":88}},{"type":"Feature","geometry":{"type":"Polygon","coordinates":[[[-68.45443,-17.17984],[-68.45423,-17.1789],[-68.45396,-17.17893],[-68.45402,-17.17941],[-68.45437,-17.18042],[-68.45458,-17.18039],[-68.45457,-17.18005],[-68.45443,-17.17984]]]},"properties":{"n":"CORO CORO","p":16,"personas_x_ha":34,"masculinidad":100,"pct_menor20":38,"pct_60mas":31,"pct_migrante":69,"dependencia_econ":220,"pct_empleados":0,"pct_cuentapropia":80,"pct_agricultura":0,"pct_comercio":40,"pct_manufactura":0,"pct_construccion":0,"pct_transporte":20,"pct_alojamiento":0,"pct_sin_educacion":0,"pct_educ_superior":10,"brecha_educ":5,"pct_sin_seguro":31,"pct_sus":56,"pct_seguro_privado":0,"brecha_seguro":-12,"pct_salud_publica":19,"pct_med_tradicional":17,"pct_automedicacion":23,"pct_remedios_caseros":28,"pct_viv_desocupada":33,"pct_alquiler":0,"pct_electricidad":75,"pct_sin_electricidad":25,"pct_agua_red":75,"pct_alcantarillado":25,"pct_camara_septica":0,"pct_pozo_ciego":0,"pct_sin_desague":50,"pct_gas_red":0,"pct_gas_garrafa":100,"pct_lena_guano":0,"pct_basura_formal":88,"pct_basura_quema":0,"pct_basura_informal":12,"pct_internet":75,"pct_celular":88,"pct_televisor":75}},{"type":"Feature","geometry":{"type":"Polygon","coordinates":[[[-68.44124,-17.17817],[-68.44263,-17.17722],[-68.44261,-17.17703],[-68.44111,-17.17795],[-68.44124,-17.17817]]]},"properties":{"n":"CORO CORO","p":70,"personas_x_ha":147,"masculinidad":338,"pct_menor20":66,"pct_60mas":10,"pct_migrante":21,"dependencia_econ":94,"pct_empleados":53,"pct_cuentapropia":22,"pct_agricultura":31,"pct_comercio":11,"pct_manufactura":14,"pct_construccion":28,"pct_transporte":0,"pct_alojamiento":6,"pct_sin_educacion":8,"pct_educ_superior":29,"brecha_educ":-56,"pct_sin_seguro":14,"pct_sus":61,"pct_seguro_privado":3,"brecha_seguro":19,"pct_salud_publica":24,"pct_med_tradicional":11,"pct_automedicacion":18,"pct_remedios_caseros":18,"pct_viv_desocupada":0,"pct_alquiler":25,"pct_electricidad":100,"pct_sin_electricidad":0,"pct_agua_red":94,"pct_alcantarillado":56,"pct_camara_septica":0,"pct_pozo_ciego":19,"pct_sin_desague":19,"pct_gas_red":0,"pct_gas_garrafa":81,"pct_lena_guano":0,"pct_basura_formal":88,"pct_basura_quema":0,"pct_basura_informal":6,"pct_internet":75,"pct_celular":94,"pct_televisor":62}},{"type":"Feature","geometry":{"type":"Polygon","coordinates":[[[-68.45088,-17.17278],[-68.45076,-17.17212],[-68.45041,-17.1721],[-68.45046,-17.17318],[-68.45063,-17.17317],[-68.45069,-17.17393],[-68.45084,-17.17392],[-68.45082,-17.17279],[-68.45088,-17.17278]]]},"properties":{"n":"CORO CORO","p":67,"personas_x_ha":102,"masculinidad":86,"pct_menor20":31,"pct_60mas":13,"pct_migrante":39,"dependencia_econ":116,"pct_empleados":52,"pct_cuentapropia":42,"pct_agricultura":6,"pct_comercio":16,"pct_manufactura":13,"pct_construccion":6,"pct_transporte":10,"pct_alojamiento":10,"pct_sin_educacion":7,"pct_educ_superior":17,"brecha_educ":-17,"pct_sin_seguro":3,"pct_sus":48,"pct_seguro_privado":0,"brecha_seguro":0,"pct_salud_publica":21,"pct_med_tradicional":13,"pct_automedicacion":17,"pct_remedios_caseros":21,"pct_viv_desocupada":0,"pct_alquiler":0,"pct_electricidad":100,"pct_sin_electricidad":0,"pct_agua_red":76,"pct_alcantarillado":93,"pct_camara_septica":3,"pct_pozo_ciego":0,"pct_sin_desague":3,"pct_gas_red":0,"pct_gas_garrafa":100,"pct_lena_guano":0,"pct_basura_formal":93,"pct_basura_quema":0,"pct_basura_informal":7,"pct_internet":66,"pct_celular":90,"pct_televisor":90}},{"type":"Feature","geometry":{"type":"Polygon","coordinates":[[[-68.45351,-17.17558],[-68.45338,-17.17511],[-68.45292,-17.1752],[-68.45215,-17.17517],[-68.45208,-17.17524],[-68.45273,-17.17581],[-68.45291,-17.17567],[-68.45351,-17.17558]]]},"properties":{"n":"CORO CORO","p":24,"personas_x_ha":35,"masculinidad":60,"pct_menor20":8,"pct_60mas":46,"pct_migrante":25,"dependencia_econ":14,"pct_empleados":43,"pct_cuentapropia":43,"pct_agricultura":0,"pct_comercio":24,"pct_manufactura":5,"pct_construccion":5,"pct_transporte":0,"pct_alojamiento":10,"pct_sin_educacion":9,"pct_educ_superior":52,"brecha_educ":-36,"pct_sin_seguro":25,"pct_sus":67,"pct_seguro_privado":0,"brecha_seguro":-4,"pct_salud_publica":28,"pct_med_tradicional":12,"pct_automedicacion":16,"pct_remedios_caseros":19,"pct_viv_desocupada":35,"pct_alquiler":0,"pct_electricidad":86,"pct_sin_electricidad":14,"pct_agua_red":86,"pct_alcantarillado":79,"pct_camara_septica":7,"pct_pozo_ciego":0,"pct_sin_desague":14,"pct_gas_red":0,"pct_gas_garrafa":93,"pct_lena_guano":0,"pct_basura_formal":79,"pct_basura_quema":7,"pct_basura_informal":14,"pct_internet":79,"pct_celular":93,"pct_televisor":79}},{"type":"Feature","geometry":{"type":"Polygon","coordinates":[[[-68.44897,-17.175],[-68.44876,-17.17505],[-68.44885,-17.17543],[-68.44906,-17.17538],[-68.44897,-17.175]]]},"properties":{"n":"CORO CORO","p":36,"personas_x_ha":355,"masculinidad":177,"pct_menor20":42,"pct_60mas":0,"pct_migrante":94,"dependencia_econ":89,"pct_empleados":58,"pct_cuentapropia":32,"pct_agricultura":0,"pct_comercio":26,"pct_manufactura":0,"pct_construccion":5,"pct_transporte":0,"pct_alojamiento":0,"pct_sin_educacion":0,"pct_educ_superior":77,"brecha_educ":0,"pct_sin_seguro":14,"pct_sus":39,"pct_seguro_privado":0,"brecha_seguro":-2,"pct_salud_publica":19,"pct_med_tradicional":16,"pct_automedicacion":14,"pct_remedios_caseros":33,"pct_viv_desocupada":0,"pct_alquiler":100,"pct_electricidad":100,"pct_sin_electricidad":0,"pct_agua_red":70,"pct_alcantarillado":100,"pct_camara_septica":0,"pct_pozo_ciego":0,"pct_sin_desague":0,"pct_gas_red":0,"pct_gas_garrafa":100,"pct_lena_guano":0,"pct_basura_formal":100,"pct_basura_quema":0,"pct_basura_informal":0,"pct_internet":100,"pct_celular":100,"pct_televisor":100}},{"type":"Feature","geometry":{"type":"Polygon","coordinates":[[[-68.45047,-17.16957],[-68.45027,-17.17038],[-68.45069,-17.17046],[-68.45078,-17.16961],[-68.45047,-17.16957]]]},"properties":{"n":"CORO CORO","p":25,"personas_x_ha":68,"masculinidad":56,"pct_menor20":48,"pct_60mas":12,"pct_migrante":16,"dependencia_econ":178,"pct_empleados":78,"pct_cuentapropia":11,"pct_agricultura":11,"pct_comercio":0,"pct_manufactura":0,"pct_construccion":0,"pct_transporte":0,"pct_alojamiento":11,"pct_sin_educacion":8,"pct_educ_superior":31,"brecha_educ":-22,"pct_sin_seguro":4,"pct_sus":56,"pct_seguro_privado":0,"brecha_seguro":-6,"pct_salud_publica":13,"pct_med_tradicional":17,"pct_automedicacion":15,"pct_remedios_caseros":21,"pct_viv_desocupada":8,"pct_alquiler":0,"pct_electricidad":100,"pct_sin_electricidad":0,"pct_agua_red":91,"pct_alcantarillado":100,"pct_camara_septica":0,"pct_pozo_ciego":0,"pct_sin_desague":0,"pct_gas_red":0,"pct_gas_garrafa":100,"pct_lena_guano":0,"pct_basura_formal":82,"pct_basura_quema":18,"pct_basura_informal":0,"pct_internet":73,"pct_celular":91,"pct_televisor":82}},{"type":"Feature","geometry":{"type":"Polygon","coordinates":[[[-68.44859,-17.17468],[-68.44934,-17.17474],[-68.44933,-17.17447],[-68.4492,-17.17436],[-68.44855,-17.17438],[-68.44859,-17.17468]]]},"properties":{"n":"CORO CORO","p":24,"personas_x_ha":78,"masculinidad":100,"pct_menor20":33,"pct_60mas":29,"pct_migrante":12,"dependencia_econ":167,"pct_empleados":78,"pct_cuentapropia":0,"pct_agricultura":0,"pct_comercio":11,"pct_manufactura":22,"pct_construccion":11,"pct_transporte":0,"pct_alojamiento":11,"pct_sin_educacion":0,"pct_educ_superior":12,"brecha_educ":-25,"pct_sin_seguro":4,"pct_sus":75,"pct_seguro_privado":0,"brecha_seguro":8,"pct_salud_publica":16,"pct_med_tradicional":16,"pct_automedicacion":22,"pct_remedios_caseros":27,"pct_viv_desocupada":0,"pct_alquiler":0,"pct_electricidad":73,"pct_sin_electricidad":18,"pct_agua_red":82,"pct_alcantarillado":73,"pct_camara_septica":0,"pct_pozo_ciego":18,"pct_sin_desague":9,"pct_gas_red":0,"pct_gas_garrafa":91,"pct_lena_guano":0,"pct_basura_formal":73,"pct_basura_quema":0,"pct_basura_informal":9,"pct_internet":82,"pct_celular":91,"pct_televisor":73}},{"type":"Feature","geometry":{"type":"Polygon","coordinates":[[[-68.45454,-17.17704],[-68.45548,-17.17728],[-68.45558,-17.17662],[-68.45502,-17.1767],[-68.45495,-17.1768],[-68.45461,-17.17672],[-68.45454,-17.17704]]]},"properties":{"n":"CORO CORO","p":26,"personas_x_ha":49,"masculinidad":136,"pct_menor20":19,"pct_60mas":23,"pct_migrante":38,"dependencia_econ":86,"pct_empleados":21,"pct_cuentapropia":36,"pct_agricultura":14,"pct_comercio":14,"pct_manufactura":14,"pct_construccion":0,"pct_transporte":0,"pct_alojamiento":0,"pct_sin_educacion":5,"pct_educ_superior":33,"brecha_educ":-30,"pct_sin_seguro":36,"pct_sus":40,"pct_seguro_privado":12,"brecha_seguro":-7,"pct_salud_publica":21,"pct_med_tradicional":12,"pct_automedicacion":18,"pct_remedios_caseros":18,"pct_viv_desocupada":31,"pct_alquiler":12,"pct_electricidad":88,"pct_sin_electricidad":12,"pct_agua_red":38,"pct_alcantarillado":88,"pct_camara_septica":0,"pct_pozo_ciego":0,"pct_sin_desague":12,"pct_gas_red":0,"pct_gas_garrafa":88,"pct_lena_guano":0,"pct_basura_formal":100,"pct_basura_quema":0,"pct_basura_informal":0,"pct_internet":62,"pct_celular":88,"pct_televisor":88}},{"type":"Feature","geometry":{"type":"Polygon","coordinates":[[[-68.4524,-17.17595],[-68.45296,-17.177],[-68.45327,-17.17677],[-68.45284,-17.17599],[-68.45258,-17.17577],[-68.4524,-17.17595]]]},"properties":{"n":"CORO CORO","p":17,"personas_x_ha":33,"masculinidad":70,"pct_menor20":41,"pct_60mas":18,"pct_migrante":24,"dependencia_econ":143,"pct_empleados":71,"pct_cuentapropia":14,"pct_agricultura":0,"pct_comercio":14,"pct_manufactura":0,"pct_construccion":14,"pct_transporte":0,"pct_alojamiento":0,"pct_sin_educacion":0,"pct_educ_superior":40,"brecha_educ":-14,"pct_sin_seguro":0,"pct_sus":18,"pct_seguro_privado":0,"brecha_seguro":0,"pct_salud_publica":7,"pct_med_tradicional":0,"pct_automedicacion":0,"pct_remedios_caseros":47,"pct_viv_desocupada":13,"pct_alquiler":0,"pct_electricidad":100,"pct_sin_electricidad":0,"pct_agua_red":67,"pct_alcantarillado":100,"pct_camara_septica":0,"pct_pozo_ciego":0,"pct_sin_desague":0,"pct_gas_red":0,"pct_gas_garrafa":100,"pct_lena_guano":0,"pct_basura_formal":83,"pct_basura_quema":0,"pct_basura_informal":17,"pct_internet":83,"pct_celular":100,"pct_televisor":100}},{"type":"Feature","geometry":{"type":"Polygon","coordinates":[[[-68.45313,-17.17608],[-68.45307,-17.17621],[-68.45326,-17.17659],[-68.45384,-17.17598],[-68.45352,-17.17561],[-68.45291,-17.17572],[-68.45275,-17.17584],[-68.45313,-17.17608]]]},"properties":{"n":"CORO CORO","p":32,"personas_x_ha":51,"masculinidad":78,"pct_menor20":41,"pct_60mas":16,"pct_migrante":22,"dependencia_econ":146,"pct_empleados":31,"pct_cuentapropia":54,"pct_agricultura":15,"pct_comercio":23,"pct_manufactura":0,"pct_construccion":0,"pct_transporte":15,"pct_alojamiento":0,"pct_sin_educacion":0,"pct_educ_superior":30,"brecha_educ":-4,"pct_sin_seguro":6,"pct_sus":53,"pct_seguro_privado":0,"brecha_seguro":2,"pct_salud_publica":33,"pct_med_tradicional":9,"pct_automedicacion":21,"pct_remedios_caseros":17,"pct_viv_desocupada":38,"pct_alquiler":20,"pct_electricidad":100,"pct_sin_electricidad":0,"pct_agua_red":90,"pct_alcantarillado":90,"pct_camara_septica":0,"pct_pozo_ciego":0,"pct_sin_desague":10,"pct_gas_red":0,"pct_gas_garrafa":100,"pct_lena_guano":0,"pct_basura_formal":40,"pct_basura_quema":40,"pct_basura_informal":20,"pct_internet":90,"pct_celular":100,"pct_televisor":90}},{"type":"Feature","geometry":{"type":"Polygon","coordinates":[[[-68.45382,-17.17587],[-68.45419,-17.17618],[-68.45457,-17.17553],[-68.45421,-17.17549],[-68.45362,-17.17556],[-68.45382,-17.17587]]]},"properties":{"n":"CORO CORO","p":32,"personas_x_ha":73,"masculinidad":68,"pct_menor20":31,"pct_60mas":22,"pct_migrante":31,"dependencia_econ":167,"pct_empleados":50,"pct_cuentapropia":50,"pct_agricultura":0,"pct_comercio":25,"pct_manufactura":25,"pct_construccion":0,"pct_transporte":17,"pct_alojamiento":8,"pct_sin_educacion":14,"pct_educ_superior":14,"brecha_educ":-31,"pct_sin_seguro":3,"pct_sus":75,"pct_seguro_privado":0,"brecha_seguro":8,"pct_salud_publica":28,"pct_med_tradicional":9,"pct_automedicacion":12,"pct_remedios_caseros":26,"pct_viv_desocupada":0,"pct_alquiler":0,"pct_electricidad":85,"pct_sin_electricidad":15,"pct_agua_red":77,"pct_alcantarillado":62,"pct_camara_septica":0,"pct_pozo_ciego":15,"pct_sin_desague":23,"pct_gas_red":0,"pct_gas_garrafa":100,"pct_lena_guano":0,"pct_basura_formal":92,"pct_basura_quema":0,"pct_basura_informal":0,"pct_internet":62,"pct_celular":85,"pct_televisor":62}},{"type":"Feature","geometry":{"type":"Polygon","coordinates":[[[-68.45519,-17.17443],[-68.45426,-17.17401],[-68.45402,-17.17449],[-68.45409,-17.17478],[-68.45416,-17.17491],[-68.45441,-17.17488],[-68.45483,-17.17505],[-68.45519,-17.17443]]]},"properties":{"n":"CORO CORO","p":24,"personas_x_ha":27,"masculinidad":167,"pct_menor20":29,"pct_60mas":25,"pct_migrante":17,"dependencia_econ":200,"pct_empleados":12,"pct_cuentapropia":75,"pct_agricultura":0,"pct_comercio":25,"pct_manufactura":25,"pct_construccion":0,"pct_transporte":12,"pct_alojamiento":12,"pct_sin_educacion":0,"pct_educ_superior":24,"brecha_educ":-9,"pct_sin_seguro":22,"pct_sus":61,"pct_seguro_privado":0,"brecha_seguro":-1,"pct_salud_publica":54,"pct_med_tradicional":0,"pct_automedicacion":0,"pct_remedios_caseros":14,"pct_viv_desocupada":43,"pct_alquiler":0,"pct_electricidad":44,"pct_sin_electricidad":44,"pct_agua_red":56,"pct_alcantarillado":33,"pct_camara_septica":0,"pct_pozo_ciego":0,"pct_sin_desague":67,"pct_gas_red":0,"pct_gas_garrafa":89,"pct_lena_guano":11,"pct_basura_formal":56,"pct_basura_quema":22,"pct_basura_informal":11,"pct_internet":22,"pct_celular":44,"pct_televisor":22}},{"type":"Feature","geometry":{"type":"Polygon","coordinates":[[[-68.4419,-17.17292],[-68.44148,-17.17283],[-68.44144,-17.17305],[-68.44127,-17.17303],[-68.44121,-17.1734],[-68.44154,-17.17342],[-68.44164,-17.17332],[-68.4418,-17.17331],[-68.4419,-17.17292]]]},"properties":{"n":"CORO CORO","p":25,"personas_x_ha":77,"masculinidad":108,"pct_menor20":36,"pct_60mas":20,"pct_migrante":28,"dependencia_econ":92,"pct_empleados":31,"pct_cuentapropia":62,"pct_agricultura":8,"pct_comercio":23,"pct_manufactura":8,"pct_construccion":15,"pct_transporte":8,"pct_alojamiento":8,"pct_sin_educacion":0,"pct_educ_superior":0,"brecha_educ":-47,"pct_sin_seguro":4,"pct_sus":64,"pct_seguro_privado":0,"brecha_seguro":8,"pct_salud_publica":35,"pct_med_tradicional":0,"pct_automedicacion":5,"pct_remedios_caseros":35,"pct_viv_desocupada":0,"pct_alquiler":0,"pct_electricidad":88,"pct_sin_electricidad":0,"pct_agua_red":75,"pct_alcantarillado":12,"pct_camara_septica":0,"pct_pozo_ciego":38,"pct_sin_desague":38,"pct_gas_red":0,"pct_gas_garrafa":100,"pct_lena_guano":0,"pct_basura_formal":100,"pct_basura_quema":0,"pct_basura_informal":0,"pct_internet":38,"pct_celular":88,"pct_televisor":75}},{"type":"Feature","geometry":{"type":"Polygon","coordinates":[[[-68.4511,-17.16924],[-68.45084,-17.16932],[-68.45074,-17.17051],[-68.45095,-17.17059],[-68.45109,-17.17022],[-68.4511,-17.16924]]]},"properties":{"n":"CORO CORO","p":46,"personas_x_ha":109,"masculinidad":100,"pct_menor20":28,"pct_60mas":15,"pct_migrante":20,"dependencia_econ":92,"pct_empleados":50,"pct_cuentapropia":42,"pct_agricultura":4,"pct_comercio":21,"pct_manufactura":17,"pct_construccion":8,"pct_transporte":0,"pct_alojamiento":0,"pct_sin_educacion":0,"pct_educ_superior":44,"brecha_educ":-16,"pct_sin_seguro":9,"pct_sus":33,"pct_seguro_privado":0,"brecha_seguro":17,"pct_salud_publica":25,"pct_med_tradicional":9,"pct_automedicacion":17,"pct_remedios_caseros":19,"pct_viv_desocupada":5,"pct_alquiler":6,"pct_electricidad":100,"pct_sin_electricidad":0,"pct_agua_red":76,"pct_alcantarillado":82,"pct_camara_septica":0,"pct_pozo_ciego":6,"pct_sin_desague":12,"pct_gas_red":0,"pct_gas_garrafa":100,"pct_lena_guano":0,"pct_basura_formal":71,"pct_basura_quema":12,"pct_basura_informal":18,"pct_internet":76,"pct_celular":100,"pct_televisor":88}},{"type":"Feature","geometry":{"type":"Polygon","coordinates":[[[-68.45111,-17.168],[-68.45122,-17.16982],[-68.45153,-17.16985],[-68.45134,-17.16955],[-68.45141,-17.16799],[-68.45111,-17.168]]]},"properties":{"n":"CORO CORO","p":36,"personas_x_ha":77,"masculinidad":125,"pct_menor20":36,"pct_60mas":3,"pct_migrante":31,"dependencia_econ":71,"pct_empleados":43,"pct_cuentapropia":24,"pct_agricultura":5,"pct_comercio":14,"pct_manufactura":0,"pct_construccion":19,"pct_transporte":10,"pct_alojamiento":14,"pct_sin_educacion":0,"pct_educ_superior":29,"brecha_educ":-21,"pct_sin_seguro":14,"pct_sus":44,"pct_seguro_privado":0,"brecha_seguro":14,"pct_salud_publica":21,"pct_med_tradicional":17,"pct_automedicacion":6,"pct_remedios_caseros":35,"pct_viv_desocupada":6,"pct_alquiler":0,"pct_electricidad":79,"pct_sin_electricidad":21,"pct_agua_red":100,"pct_alcantarillado":79,"pct_camara_septica":0,"pct_pozo_ciego":7,"pct_sin_desague":14,"pct_gas_red":0,"pct_gas_garrafa":79,"pct_lena_guano":0,"pct_basura_formal":100,"pct_basura_quema":0,"pct_basura_informal":0,"pct_internet":79,"pct_celular":79,"pct_televisor":79}},{"type":"Feature","geometry":{"type":"Polygon","coordinates":[[[-68.45107,-17.17391],[-68.45095,-17.17304],[-68.45086,-17.17296],[-68.45088,-17.17392],[-68.45107,-17.17391]]]},"properties":{"n":"CORO CORO","p":60,"personas_x_ha":371,"masculinidad":76,"pct_menor20":50,"pct_60mas":7,"pct_migrante":37,"dependencia_econ":253,"pct_empleados":65,"pct_cuentapropia":35,"pct_agricultura":0,"pct_comercio":6,"pct_manufactura":18,"pct_construccion":24,"pct_transporte":0,"pct_alojamiento":6,"pct_sin_educacion":3,"pct_educ_superior":13,"brecha_educ":-8,"pct_sin_seguro":3,"pct_sus":50,"pct_seguro_privado":0,"brecha_seguro":1,"pct_salud_publica":16,"pct_med_tradicional":14,"pct_automedicacion":11,"pct_remedios_caseros":25,"pct_viv_desocupada":0,"pct_alquiler":0,"pct_electricidad":83,"pct_sin_electricidad":11,"pct_agua_red":56,"pct_alcantarillado":56,"pct_camara_septica":0,"pct_pozo_ciego":0,"pct_sin_desague":39,"pct_gas_red":0,"pct_gas_garrafa":89,"pct_lena_guano":0,"pct_basura_formal":100,"pct_basura_quema":0,"pct_basura_informal":0,"pct_internet":72,"pct_celular":89,"pct_televisor":89}},{"type":"Feature","geometry":{"type":"Polygon","coordinates":[[[-68.44155,-17.17234],[-68.44138,-17.17218],[-68.44102,-17.17212],[-68.4409,-17.17245],[-68.44155,-17.17263],[-68.44153,-17.17276],[-68.44206,-17.17286],[-68.44189,-17.17241],[-68.44155,-17.17234]]]},"properties":{"n":"CORO CORO","p":26,"personas_x_ha":52,"masculinidad":136,"pct_menor20":38,"pct_60mas":27,"pct_migrante":50,"dependencia_econ":117,"pct_empleados":17,"pct_cuentapropia":50,"pct_agricultura":17,"pct_comercio":33,"pct_manufactura":17,"pct_construccion":0,"pct_transporte":0,"pct_alojamiento":0,"pct_sin_educacion":0,"pct_educ_superior":25,"brecha_educ":-40,"pct_sin_seguro":0,"pct_sus":46,"pct_seguro_privado":0,"brecha_seguro":0,"pct_salud_publica":21,"pct_med_tradicional":13,"pct_automedicacion":12,"pct_remedios_caseros":18,"pct_viv_desocupada":0,"pct_alquiler":0,"pct_electricidad":100,"pct_sin_electricidad":0,"pct_agua_red":92,"pct_alcantarillado":25,"pct_camara_septica":17,"pct_pozo_ciego":17,"pct_sin_desague":33,"pct_gas_red":0,"pct_gas_garrafa":100,"pct_lena_guano":0,"pct_basura_formal":100,"pct_basura_quema":0,"pct_basura_informal":0,"pct_internet":67,"pct_celular":83,"pct_televisor":75}},{"type":"Feature","geometry":{"type":"Polygon","coordinates":[[[-68.45385,-17.18149],[-68.45367,-17.18176],[-68.45306,-17.1819],[-68.45322,-17.18237],[-68.45342,-17.18235],[-68.45376,-17.18217],[-68.45384,-17.18208],[-68.45379,-17.18192],[-68.45461,-17.18187],[-68.45437,-17.18142],[-68.45385,-17.18149]]]},"properties":{"n":"CORO CORO","p":18,"personas_x_ha":23,"masculinidad":100,"pct_menor20":33,"pct_60mas":17,"pct_migrante":33,"dependencia_econ":64,"pct_empleados":18,"pct_cuentapropia":55,"pct_agricultura":18,"pct_comercio":27,"pct_manufactura":9,"pct_construccion":9,"pct_transporte":0,"pct_alojamiento":0,"pct_sin_educacion":0,"pct_educ_superior":8,"brecha_educ":-7,"pct_sin_seguro":17,"pct_sus":67,"pct_seguro_privado":0,"brecha_seguro":11,"pct_salud_publica":24,"pct_med_tradicional":11,"pct_automedicacion":17,"pct_remedios_caseros":35,"pct_viv_desocupada":0,"pct_alquiler":0,"pct_electricidad":25,"pct_sin_electricidad":50,"pct_agua_red":12,"pct_alcantarillado":12,"pct_camara_septica":0,"pct_pozo_ciego":25,"pct_sin_desague":62,"pct_gas_red":12,"pct_gas_garrafa":62,"pct_lena_guano":25,"pct_basura_formal":0,"pct_basura_quema":75,"pct_basura_informal":25,"pct_internet":62,"pct_celular":62,"pct_televisor":12}},{"type":"Feature","geometry":{"type":"Polygon","coordinates":[[[-68.45377,-17.18008],[-68.45376,-17.1789],[-68.45373,-17.17877],[-68.45316,-17.17897],[-68.45359,-17.1801],[-68.45377,-17.18008]]]},"properties":{"n":"CORO CORO","p":16,"personas_x_ha":26,"masculinidad":100,"pct_menor20":38,"pct_60mas":25,"pct_migrante":44,"dependencia_econ":78,"pct_empleados":56,"pct_cuentapropia":33,"pct_agricultura":11,"pct_comercio":11,"pct_manufactura":0,"pct_construccion":11,"pct_transporte":11,"pct_alojamiento":22,"pct_sin_educacion":0,"pct_educ_superior":10,"brecha_educ":-40,"pct_sin_seguro":12,"pct_sus":88,"pct_seguro_privado":0,"brecha_seguro":0,"pct_salud_publica":29,"pct_med_tradicional":8,"pct_automedicacion":29,"pct_remedios_caseros":29,"pct_viv_desocupada":17,"pct_alquiler":0,"pct_electricidad":71,"pct_sin_electricidad":29,"pct_agua_red":43,"pct_alcantarillado":0,"pct_camara_septica":0,"pct_pozo_ciego":43,"pct_sin_desague":57,"pct_gas_red":0,"pct_gas_garrafa":57,"pct_lena_guano":14,"pct_basura_formal":43,"pct_basura_quema":29,"pct_basura_informal":29,"pct_internet":71,"pct_celular":71,"pct_televisor":43}},{"type":"Feature","geometry":{"type":"Polygon","coordinates":[[[-68.45386,-17.17601],[-68.45327,-17.17659],[-68.45339,-17.17682],[-68.45399,-17.17679],[-68.45413,-17.17623],[-68.45386,-17.17601]]]},"properties":{"n":"CORO CORO","p":35,"personas_x_ha":70,"masculinidad":67,"pct_menor20":20,"pct_60mas":40,"pct_migrante":46,"dependencia_econ":127,"pct_empleados":33,"pct_cuentapropia":60,"pct_agricultura":13,"pct_comercio":27,"pct_manufactura":7,"pct_construccion":0,"pct_transporte":20,"pct_alojamiento":7,"pct_sin_educacion":0,"pct_educ_superior":37,"brecha_educ":-14,"pct_sin_seguro":9,"pct_sus":56,"pct_seguro_privado":0,"brecha_seguro":-3,"pct_salud_publica":28,"pct_med_tradicional":9,"pct_automedicacion":15,"pct_remedios_caseros":22,"pct_viv_desocupada":10,"pct_alquiler":11,"pct_electricidad":95,"pct_sin_electricidad":5,"pct_agua_red":84,"pct_alcantarillado":58,"pct_camara_septica":0,"pct_pozo_ciego":0,"pct_sin_desague":32,"pct_gas_red":0,"pct_gas_garrafa":100,"pct_lena_guano":0,"pct_basura_formal":95,"pct_basura_quema":0,"pct_basura_informal":5,"pct_internet":68,"pct_celular":89,"pct_televisor":63}},{"type":"Feature","geometry":{"type":"Polygon","coordinates":[[[-68.45442,-17.17703],[-68.45452,-17.17671],[-68.45414,-17.17647],[-68.45402,-17.177],[-68.45442,-17.17703]]]},"properties":{"n":"CORO CORO","p":21,"personas_x_ha":96,"masculinidad":62,"pct_menor20":19,"pct_60mas":24,"pct_migrante":48,"dependencia_econ":91,"pct_empleados":45,"pct_cuentapropia":45,"pct_agricultura":0,"pct_comercio":18,"pct_manufactura":9,"pct_construccion":0,"pct_transporte":0,"pct_alojamiento":9,"pct_sin_educacion":6,"pct_educ_superior":53,"brecha_educ":-6,"pct_sin_seguro":19,"pct_sus":67,"pct_seguro_privado":0,"brecha_seguro":10,"pct_salud_publica":25,"pct_med_tradicional":9,"pct_automedicacion":14,"pct_remedios_caseros":25,"pct_viv_desocupada":0,"pct_alquiler":0,"pct_electricidad":100,"pct_sin_electricidad":0,"pct_agua_red":78,"pct_alcantarillado":78,"pct_camara_septica":0,"pct_pozo_ciego":11,"pct_sin_desague":11,"pct_gas_red":0,"pct_gas_garrafa":100,"pct_lena_guano":0,"pct_basura_formal":100,"pct_basura_quema":0,"pct_basura_informal":0,"pct_internet":67,"pct_celular":89,"pct_televisor":89}},{"type":"Feature","geometry":{"type":"Polygon","coordinates":[[[-68.45472,-17.1762],[-68.45433,-17.17603],[-68.45412,-17.17641],[-68.45453,-17.17665],[-68.45472,-17.1762]]]},"properties":{"n":"CORO CORO","p":16,"personas_x_ha":65,"masculinidad":100,"pct_menor20":31,"pct_60mas":31,"pct_migrante":38,"dependencia_econ":129,"pct_empleados":29,"pct_cuentapropia":43,"pct_agricultura":0,"pct_comercio":29,"pct_manufactura":14,"pct_construccion":0,"pct_transporte":0,"pct_alojamiento":0,"pct_sin_educacion":0,"pct_educ_superior":27,"brecha_educ":-23,"pct_sin_seguro":12,"pct_sus":38,"pct_seguro_privado":0,"brecha_seguro":0,"pct_salud_publica":24,"pct_med_tradicional":16,"pct_automedicacion":18,"pct_remedios_caseros":18,"pct_viv_desocupada":0,"pct_alquiler":10,"pct_electricidad":100,"pct_sin_electricidad":0,"pct_agua_red":90,"pct_alcantarillado":100,"pct_camara_septica":0,"pct_pozo_ciego":0,"pct_sin_desague":0,"pct_gas_red":0,"pct_gas_garrafa":100,"pct_lena_guano":0,"pct_basura_formal":100,"pct_basura_quema":0,"pct_basura_informal":0,"pct_internet":80,"pct_celular":100,"pct_televisor":80}},{"type":"Feature","geometry":{"type":"Polygon","coordinates":[[[-68.45283,-17.17455],[-68.45212,-17.17499],[-68.45219,-17.17512],[-68.45321,-17.17509],[-68.45363,-17.17476],[-68.4533,-17.17449],[-68.45348,-17.17406],[-68.45304,-17.17387],[-68.45266,-17.17453],[-68.45233,-17.17479],[-68.45281,-17.17452],[-68.45299,-17.17418],[-68.45283,-17.17455]]]},"properties":{"n":"CORO CORO","p":37,"personas_x_ha":33,"masculinidad":106,"pct_menor20":11,"pct_60mas":35,"pct_migrante":41,"dependencia_econ":71,"pct_empleados":81,"pct_cuentapropia":10,"pct_agricultura":10,"pct_comercio":0,"pct_manufactura":10,"pct_construccion":0,"pct_transporte":5,"pct_alojamiento":0,"pct_sin_educacion":0,"pct_educ_superior":44,"brecha_educ":-23,"pct_sin_seguro":11,"pct_sus":25,"pct_seguro_privado":0,"brecha_seguro":-11,"pct_salud_publica":17,"pct_med_tradicional":7,"pct_automedicacion":25,"pct_remedios_caseros":22,"pct_viv_desocupada":6,"pct_alquiler":15,"pct_electricidad":100,"pct_sin_electricidad":0,"pct_agua_red":96,"pct_alcantarillado":77,"pct_camara_septica":4,"pct_pozo_ciego":0,"pct_sin_desague":19,"pct_gas_red":4,"pct_gas_garrafa":81,"pct_lena_guano":0,"pct_basura_formal":96,"pct_basura_quema":0,"pct_basura_informal":4,"pct_internet":46,"pct_celular":92,"pct_televisor":81}},{"type":"Feature","geometry":{"type":"Polygon","coordinates":[[[-68.45044,-17.17322],[-68.45054,-17.17462],[-68.4511,-17.17473],[-68.45107,-17.17397],[-68.45067,-17.17397],[-68.45056,-17.17319],[-68.45044,-17.17322]]]},"properties":{"n":"CORO CORO","p":40,"personas_x_ha":64,"masculinidad":122,"pct_menor20":28,"pct_60mas":28,"pct_migrante":48,"dependencia_econ":60,"pct_empleados":52,"pct_cuentapropia":40,"pct_agricultura":8,"pct_comercio":20,"pct_manufactura":8,"pct_construccion":4,"pct_transporte":8,"pct_alojamiento":0,"pct_sin_educacion":10,"pct_educ_superior":37,"brecha_educ":-13,"pct_sin_seguro":5,"pct_sus":70,"pct_seguro_privado":0,"brecha_seguro":-1,"pct_salud_publica":18,"pct_med_tradicional":15,"pct_automedicacion":15,"pct_remedios_caseros":23,"pct_viv_desocupada":4,"pct_alquiler":5,"pct_electricidad":89,"pct_sin_electricidad":5,"pct_agua_red":63,"pct_alcantarillado":74,"pct_camara_septica":0,"pct_pozo_ciego":0,"pct_sin_desague":26,"pct_gas_red":0,"pct_gas_garrafa":100,"pct_lena_guano":0,"pct_basura_formal":100,"pct_basura_quema":0,"pct_basura_informal":0,"pct_internet":84,"pct_celular":89,"pct_televisor":79}},{"type":"Feature","geometry":{"type":"Polygon","coordinates":[[[-68.44232,-17.17605],[-68.44102,-17.17573],[-68.44077,-17.17689],[-68.44123,-17.17777],[-68.44205,-17.17725],[-68.44232,-17.17605]]]},"properties":{"n":"CORO CORO","p":38,"personas_x_ha":15,"masculinidad":217,"pct_menor20":39,"pct_60mas":11,"pct_migrante":18,"dependencia_econ":81,"pct_empleados":33,"pct_cuentapropia":19,"pct_agricultura":10,"pct_comercio":10,"pct_manufactura":10,"pct_construccion":10,"pct_transporte":24,"pct_alojamiento":0,"pct_sin_educacion":0,"pct_educ_superior":39,"brecha_educ":18,"pct_sin_seguro":6,"pct_sus":39,"pct_seguro_privado":0,"brecha_seguro":-4,"pct_salud_publica":20,"pct_med_tradicional":6,"pct_automedicacion":16,"pct_remedios_caseros":20,"pct_viv_desocupada":0,"pct_alquiler":0,"pct_electricidad":100,"pct_sin_electricidad":0,"pct_agua_red":100,"pct_alcantarillado":36,"pct_camara_septica":0,"pct_pozo_ciego":18,"pct_sin_desague":36,"pct_gas_red":0,"pct_gas_garrafa":100,"pct_lena_guano":0,"pct_basura_formal":100,"pct_basura_quema":0,"pct_basura_informal":0,"pct_internet":64,"pct_celular":64,"pct_televisor":73}},{"type":"Feature","geometry":{"type":"Polygon","coordinates":[[[-68.45559,-17.17652],[-68.45588,-17.17586],[-68.45598,-17.17522],[-68.45507,-17.17518],[-68.45495,-17.17591],[-68.45463,-17.17667],[-68.45494,-17.17672],[-68.45559,-17.17652]]]},"properties":{"n":"CORO CORO","p":38,"personas_x_ha":25,"masculinidad":111,"pct_menor20":37,"pct_60mas":13,"pct_migrante":39,"dependencia_econ":153,"pct_empleados":47,"pct_cuentapropia":53,"pct_agricultura":0,"pct_comercio":33,"pct_manufactura":13,"pct_construccion":0,"pct_transporte":13,"pct_alojamiento":7,"pct_sin_educacion":0,"pct_educ_superior":36,"brecha_educ":-16,"pct_sin_seguro":11,"pct_sus":53,"pct_seguro_privado":0,"brecha_seguro":-1,"pct_salud_publica":20,"pct_med_tradicional":14,"pct_automedicacion":17,"pct_remedios_caseros":26,"pct_viv_desocupada":4,"pct_alquiler":12,"pct_electricidad":88,"pct_sin_electricidad":12,"pct_agua_red":56,"pct_alcantarillado":75,"pct_camara_septica":0,"pct_pozo_ciego":0,"pct_sin_desague":25,"pct_gas_red":0,"pct_gas_garrafa":88,"pct_lena_guano":0,"pct_basura_formal":94,"pct_basura_quema":6,"pct_basura_informal":0,"pct_internet":94,"pct_celular":94,"pct_televisor":69}},{"type":"Feature","geometry":{"type":"Polygon","coordinates":[[[-68.45012,-17.16698],[-68.45086,-17.16693],[-68.45081,-17.1662],[-68.45034,-17.16621],[-68.45005,-17.16652],[-68.45012,-17.16698]]]},"properties":{"n":"CORO CORO","p":20,"personas_x_ha":31,"masculinidad":186,"pct_menor20":50,"pct_60mas":0,"pct_migrante":85,"dependencia_econ":null,"pct_empleados":null,"pct_cuentapropia":null,"pct_agricultura":null,"pct_comercio":null,"pct_manufactura":null,"pct_construccion":null,"pct_transporte":null,"pct_alojamiento":null,"pct_sin_educacion":0,"pct_educ_superior":30,"brecha_educ":17,"pct_sin_seguro":5,"pct_sus":90,"pct_seguro_privado":0,"brecha_seguro":-14,"pct_salud_publica":5,"pct_med_tradicional":37,"pct_automedicacion":0,"pct_remedios_caseros":5,"pct_viv_desocupada":0,"pct_alquiler":14,"pct_electricidad":86,"pct_sin_electricidad":14,"pct_agua_red":57,"pct_alcantarillado":14,"pct_camara_septica":0,"pct_pozo_ciego":14,"pct_sin_desague":57,"pct_gas_red":0,"pct_gas_garrafa":86,"pct_lena_guano":0,"pct_basura_formal":86,"pct_basura_quema":14,"pct_basura_informal":0,"pct_internet":71,"pct_celular":86,"pct_televisor":57}},{"type":"Feature","geometry":{"type":"Polygon","coordinates":[[[-68.45267,-17.17442],[-68.45257,-17.17432],[-68.45182,-17.17467],[-68.45161,-17.17468],[-68.45149,-17.17461],[-68.45135,-17.17435],[-68.45117,-17.17433],[-68.45117,-17.17475],[-68.45177,-17.17502],[-68.4519,-17.17501],[-68.45267,-17.17442]]]},"properties":{"n":"CORO CORO","p":35,"personas_x_ha":61,"masculinidad":84,"pct_menor20":37,"pct_60mas":23,"pct_migrante":54,"dependencia_econ":133,"pct_empleados":33,"pct_cuentapropia":47,"pct_agricultura":20,"pct_comercio":7,"pct_manufactura":0,"pct_construccion":0,"pct_transporte":13,"pct_alojamiento":20,"pct_sin_educacion":0,"pct_educ_superior":27,"brecha_educ":5,"pct_sin_seguro":20,"pct_sus":34,"pct_seguro_privado":0,"brecha_seguro":-2,"pct_salud_publica":16,"pct_med_tradicional":10,"pct_automedicacion":16,"pct_remedios_caseros":27,"pct_viv_desocupada":7,"pct_alquiler":8,"pct_electricidad":100,"pct_sin_electricidad":0,"pct_agua_red":85,"pct_alcantarillado":77,"pct_camara_septica":0,"pct_pozo_ciego":0,"pct_sin_desague":15,"pct_gas_red":0,"pct_gas_garrafa":92,"pct_lena_guano":0,"pct_basura_formal":100,"pct_basura_quema":0,"pct_basura_informal":0,"pct_internet":54,"pct_celular":92,"pct_televisor":85}},{"type":"Feature","geometry":{"type":"Polygon","coordinates":[[[-68.45262,-17.17793],[-68.45332,-17.17778],[-68.45302,-17.17724],[-68.45241,-17.17758],[-68.45262,-17.17793]]]},"properties":{"n":"CORO CORO","p":27,"personas_x_ha":64,"masculinidad":108,"pct_menor20":22,"pct_60mas":19,"pct_migrante":56,"dependencia_econ":80,"pct_empleados":53,"pct_cuentapropia":40,"pct_agricultura":13,"pct_comercio":20,"pct_manufactura":20,"pct_construccion":0,"pct_transporte":7,"pct_alojamiento":0,"pct_sin_educacion":5,"pct_educ_superior":57,"brecha_educ":-1,"pct_sin_seguro":0,"pct_sus":48,"pct_seguro_privado":0,"brecha_seguro":0,"pct_salud_publica":32,"pct_med_tradicional":9,"pct_automedicacion":3,"pct_remedios_caseros":28,"pct_viv_desocupada":6,"pct_alquiler":0,"pct_electricidad":86,"pct_sin_electricidad":14,"pct_agua_red":93,"pct_alcantarillado":79,"pct_camara_septica":0,"pct_pozo_ciego":0,"pct_sin_desague":21,"pct_gas_red":0,"pct_gas_garrafa":100,"pct_lena_guano":0,"pct_basura_formal":93,"pct_basura_quema":0,"pct_basura_informal":0,"pct_internet":93,"pct_celular":100,"pct_televisor":86}},{"type":"Feature","geometry":{"type":"Polygon","coordinates":[[[-68.45486,-17.17956],[-68.45503,-17.17988],[-68.45535,-17.17979],[-68.455,-17.1791],[-68.45517,-17.17824],[-68.45433,-17.17821],[-68.45431,-17.17909],[-68.45444,-17.17957],[-68.45486,-17.17956]]]},"properties":{"n":"CORO CORO","p":56,"personas_x_ha":42,"masculinidad":87,"pct_menor20":30,"pct_60mas":21,"pct_migrante":45,"dependencia_econ":100,"pct_empleados":54,"pct_cuentapropia":39,"pct_agricultura":4,"pct_comercio":36,"pct_manufactura":11,"pct_construccion":0,"pct_transporte":4,"pct_alojamiento":0,"pct_sin_educacion":5,"pct_educ_superior":46,"brecha_educ":-7,"pct_sin_seguro":4,"pct_sus":55,"pct_seguro_privado":2,"brecha_seguro":-7,"pct_salud_publica":19,"pct_med_tradicional":19,"pct_automedicacion":19,"pct_remedios_caseros":23,"pct_viv_desocupada":7,"pct_alquiler":0,"pct_electricidad":94,"pct_sin_electricidad":6,"pct_agua_red":33,"pct_alcantarillado":56,"pct_camara_septica":6,"pct_pozo_ciego":17,"pct_sin_desague":22,"pct_gas_red":0,"pct_gas_garrafa":89,"pct_lena_guano":11,"pct_basura_formal":83,"pct_basura_quema":6,"pct_basura_informal":11,"pct_internet":72,"pct_celular":100,"pct_televisor":89}},{"type":"Feature","geometry":{"type":"Polygon","coordinates":[[[-68.45289,-17.1785],[-68.45353,-17.17824],[-68.45333,-17.17781],[-68.45263,-17.17797],[-68.45289,-17.1785]]]},"properties":{"n":"CORO CORO","p":23,"personas_x_ha":50,"masculinidad":53,"pct_menor20":35,"pct_60mas":9,"pct_migrante":17,"dependencia_econ":44,"pct_empleados":31,"pct_cuentapropia":44,"pct_agricultura":0,"pct_comercio":25,"pct_manufactura":12,"pct_construccion":0,"pct_transporte":6,"pct_alojamiento":19,"pct_sin_educacion":0,"pct_educ_superior":44,"brecha_educ":-10,"pct_sin_seguro":4,"pct_sus":43,"pct_seguro_privado":0,"brecha_seguro":-7,"pct_salud_publica":18,"pct_med_tradicional":15,"pct_automedicacion":18,"pct_remedios_caseros":24,"pct_viv_desocupada":21,"pct_alquiler":10,"pct_electricidad":60,"pct_sin_electricidad":30,"pct_agua_red":60,"pct_alcantarillado":40,"pct_camara_septica":10,"pct_pozo_ciego":0,"pct_sin_desague":50,"pct_gas_red":0,"pct_gas_garrafa":100,"pct_lena_guano":0,"pct_basura_formal":90,"pct_basura_quema":0,"pct_basura_informal":10,"pct_internet":70,"pct_celular":90,"pct_televisor":70}},{"type":"Feature","geometry":{"type":"Polygon","coordinates":[[[-68.44826,-17.17525],[-68.44801,-17.1754],[-68.44812,-17.17573],[-68.44806,-17.17577],[-68.4481,-17.17593],[-68.44836,-17.17584],[-68.44826,-17.17525]]]},"properties":{"n":"CORO CORO","p":15,"personas_x_ha":83,"masculinidad":50,"pct_menor20":67,"pct_60mas":13,"pct_migrante":27,"dependencia_econ":88,"pct_empleados":50,"pct_cuentapropia":25,"pct_agricultura":50,"pct_comercio":12,"pct_manufactura":0,"pct_construccion":12,"pct_transporte":0,"pct_alojamiento":0,"pct_sin_educacion":0,"pct_educ_superior":0,"brecha_educ":0,"pct_sin_seguro":7,"pct_sus":57,"pct_seguro_privado":7,"brecha_seguro":25,"pct_salud_publica":27,"pct_med_tradicional":5,"pct_automedicacion":22,"pct_remedios_caseros":24,"pct_viv_desocupada":22,"pct_alquiler":0,"pct_electricidad":83,"pct_sin_electricidad":17,"pct_agua_red":100,"pct_alcantarillado":83,"pct_camara_septica":0,"pct_pozo_ciego":0,"pct_sin_desague":17,"pct_gas_red":0,"pct_gas_garrafa":100,"pct_lena_guano":0,"pct_basura_formal":33,"pct_basura_quema":33,"pct_basura_informal":33,"pct_internet":67,"pct_celular":100,"pct_televisor":83}},{"type":"Feature","geometry":{"type":"Polygon","coordinates":[[[-68.44289,-17.18106],[-68.44293,-17.18144],[-68.44278,-17.18143],[-68.44285,-17.18106],[-68.44259,-17.18105],[-68.44256,-17.18163],[-68.44304,-17.18166],[-68.44314,-17.18146],[-68.44315,-17.18107],[-68.44289,-17.18106]]]},"properties":{"n":"CORO CORO","p":74,"personas_x_ha":218,"masculinidad":393,"pct_menor20":53,"pct_60mas":0,"pct_migrante":65,"dependencia_econ":53,"pct_empleados":44,"pct_cuentapropia":27,"pct_agricultura":22,"pct_comercio":4,"pct_manufactura":0,"pct_construccion":0,"pct_transporte":22,"pct_alojamiento":0,"pct_sin_educacion":0,"pct_educ_superior":55,"brecha_educ":-12,"pct_sin_seguro":19,"pct_sus":33,"pct_seguro_privado":0,"brecha_seguro":-27,"pct_salud_publica":34,"pct_med_tradicional":0,"pct_automedicacion":5,"pct_remedios_caseros":13,"pct_viv_desocupada":0,"pct_alquiler":55,"pct_electricidad":100,"pct_sin_electricidad":0,"pct_agua_red":100,"pct_alcantarillado":81,"pct_camara_septica":3,"pct_pozo_ciego":0,"pct_sin_desague":16,"pct_gas_red":0,"pct_gas_garrafa":94,"pct_lena_guano":3,"pct_basura_formal":48,"pct_basura_quema":19,"pct_basura_informal":32,"pct_internet":77,"pct_celular":81,"pct_televisor":68}},{"type":"Feature","geometry":{"type":"Polygon","coordinates":[[[-68.44717,-17.1745],[-68.44763,-17.17458],[-68.44812,-17.17493],[-68.4479,-17.17521],[-68.44767,-17.17527],[-68.44768,-17.1754],[-68.44814,-17.17522],[-68.44826,-17.17487],[-68.44741,-17.17434],[-68.44717,-17.1745]]]},"properties":{"n":"CORO CORO","p":26,"personas_x_ha":90,"masculinidad":189,"pct_menor20":50,"pct_60mas":8,"pct_migrante":31,"dependencia_econ":86,"pct_empleados":36,"pct_cuentapropia":36,"pct_agricultura":29,"pct_comercio":21,"pct_manufactura":7,"pct_construccion":14,"pct_transporte":0,"pct_alojamiento":0,"pct_sin_educacion":0,"pct_educ_superior":0,"brecha_educ":12,"pct_sin_seguro":4,"pct_sus":31,"pct_seguro_privado":0,"brecha_seguro":6,"pct_salud_publica":16,"pct_med_tradicional":11,"pct_automedicacion":19,"pct_remedios_caseros":21,"pct_viv_desocupada":0,"pct_alquiler":0,"pct_electricidad":100,"pct_sin_electricidad":0,"pct_agua_red":100,"pct_alcantarillado":100,"pct_camara_septica":0,"pct_pozo_ciego":0,"pct_sin_desague":0,"pct_gas_red":0,"pct_gas_garrafa":100,"pct_lena_guano":0,"pct_basura_formal":38,"pct_basura_quema":50,"pct_basura_informal":12,"pct_internet":88,"pct_celular":100,"pct_televisor":100}},{"type":"Feature","geometry":{"type":"Polygon","coordinates":[[[-68.4934,-17.21231],[-68.49264,-17.21219],[-68.4925,-17.21312],[-68.49317,-17.21329],[-68.4934,-17.21231]]]},"properties":{"n":"GENERAL JOSE MANUEL PANDO","p":23,"personas_x_ha":27,"masculinidad":53,"pct_menor20":22,"pct_60mas":22,"pct_migrante":26,"dependencia_econ":69,"pct_empleados":15,"pct_cuentapropia":77,"pct_agricultura":8,"pct_comercio":15,"pct_manufactura":23,"pct_construccion":0,"pct_transporte":0,"pct_alojamiento":8,"pct_sin_educacion":0,"pct_educ_superior":44,"brecha_educ":8,"pct_sin_seguro":0,"pct_sus":82,"pct_seguro_privado":5,"brecha_seguro":0,"pct_salud_publica":32,"pct_med_tradicional":11,"pct_automedicacion":14,"pct_remedios_caseros":20,"pct_viv_desocupada":0,"pct_alquiler":0,"pct_electricidad":80,"pct_sin_electricidad":20,"pct_agua_red":90,"pct_alcantarillado":40,"pct_camara_septica":0,"pct_pozo_ciego":10,"pct_sin_desague":50,"pct_gas_red":0,"pct_gas_garrafa":100,"pct_lena_guano":0,"pct_basura_formal":0,"pct_basura_quema":100,"pct_basura_informal":0,"pct_internet":60,"pct_celular":90,"pct_televisor":40}},{"type":"Feature","geometry":{"type":"Polygon","coordinates":[[[-68.4911,-17.21405],[-68.49135,-17.21328],[-68.48993,-17.21294],[-68.4897,-17.21372],[-68.4911,-17.21405]]]},"properties":{"n":"GENERAL JOSE MANUEL PANDO","p":22,"personas_x_ha":16,"masculinidad":57,"pct_menor20":18,"pct_60mas":32,"pct_migrante":23,"dependencia_econ":38,"pct_empleados":0,"pct_cuentapropia":100,"pct_agricultura":38,"pct_comercio":56,"pct_manufactura":0,"pct_construccion":0,"pct_transporte":0,"pct_alojamiento":6,"pct_sin_educacion":11,"pct_educ_superior":22,"brecha_educ":-26,"pct_sin_seguro":0,"pct_sus":91,"pct_seguro_privado":0,"brecha_seguro":0,"pct_salud_publica":41,"pct_med_tradicional":8,"pct_automedicacion":18,"pct_remedios_caseros":24,"pct_viv_desocupada":0,"pct_alquiler":0,"pct_electricidad":73,"pct_sin_electricidad":9,"pct_agua_red":64,"pct_alcantarillado":45,"pct_camara_septica":9,"pct_pozo_ciego":9,"pct_sin_desague":36,"pct_gas_red":0,"pct_gas_garrafa":82,"pct_lena_guano":18,"pct_basura_formal":0,"pct_basura_quema":91,"pct_basura_informal":9,"pct_internet":55,"pct_celular":91,"pct_televisor":36}},{"type":"Feature","geometry":{"type":"Polygon","coordinates":[[[-68.49144,-17.21342],[-68.49223,-17.21367],[-68.49209,-17.21424],[-68.49123,-17.21407],[-68.49144,-17.21342]]]},"properties":{"n":"GENERAL JOSE MANUEL PANDO","p":30,"personas_x_ha":47,"masculinidad":114,"pct_menor20":53,"pct_60mas":0,"pct_migrante":27,"dependencia_econ":150,"pct_empleados":42,"pct_cuentapropia":42,"pct_agricultura":0,"pct_comercio":25,"pct_manufactura":8,"pct_construccion":0,"pct_transporte":25,"pct_alojamiento":8,"pct_sin_educacion":0,"pct_educ_superior":29,"brecha_educ":-22,"pct_sin_seguro":7,"pct_sus":93,"pct_seguro_privado":0,"brecha_seguro":-1,"pct_salud_publica":69,"pct_med_tradicional":5,"pct_automedicacion":5,"pct_remedios_caseros":13,"pct_viv_desocupada":0,"pct_alquiler":0,"pct_electricidad":70,"pct_sin_electricidad":20,"pct_agua_red":70,"pct_alcantarillado":40,"pct_camara_septica":0,"pct_pozo_ciego":20,"pct_sin_desague":40,"pct_gas_red":0,"pct_gas_garrafa":90,"pct_lena_guano":10,"pct_basura_formal":0,"pct_basura_quema":60,"pct_basura_informal":40,"pct_internet":90,"pct_celular":90,"pct_televisor":60}},{"type":"Feature","geometry":{"type":"Polygon","coordinates":[[[-68.48999,-17.21225],[-68.48918,-17.212],[-68.48924,-17.21169],[-68.49009,-17.21182],[-68.48999,-17.21225]]]},"properties":{"n":"GENERAL JOSE MANUEL PANDO","p":35,"personas_x_ha":88,"masculinidad":84,"pct_menor20":23,"pct_60mas":11,"pct_migrante":17,"dependencia_econ":67,"pct_empleados":14,"pct_cuentapropia":67,"pct_agricultura":29,"pct_comercio":24,"pct_manufactura":14,"pct_construccion":0,"pct_transporte":10,"pct_alojamiento":0,"pct_sin_educacion":7,"pct_educ_superior":11,"brecha_educ":2,"pct_sin_seguro":3,"pct_sus":86,"pct_seguro_privado":0,"brecha_seguro":6,"pct_salud_publica":32,"pct_med_tradicional":18,"pct_automedicacion":14,"pct_remedios_caseros":26,"pct_viv_desocupada":16,"pct_alquiler":0,"pct_electricidad":67,"pct_sin_electricidad":33,"pct_agua_red":73,"pct_alcantarillado":47,"pct_camara_septica":0,"pct_pozo_ciego":0,"pct_sin_desague":53,"pct_gas_red":7,"pct_gas_garrafa":80,"pct_lena_guano":7,"pct_basura_formal":13,"pct_basura_quema":87,"pct_basura_informal":0,"pct_internet":53,"pct_celular":67,"pct_televisor":53}},{"type":"Feature","geometry":{"type":"Polygon","coordinates":[[[-68.4907,-17.21248],[-68.49009,-17.21229],[-68.4902,-17.21183],[-68.4908,-17.21193],[-68.4907,-17.21248]]]},"properties":{"n":"GENERAL JOSE MANUEL PANDO","p":24,"personas_x_ha":62,"masculinidad":60,"pct_menor20":17,"pct_60mas":25,"pct_migrante":29,"dependencia_econ":300,"pct_empleados":17,"pct_cuentapropia":67,"pct_agricultura":33,"pct_comercio":33,"pct_manufactura":0,"pct_construccion":17,"pct_transporte":0,"pct_alojamiento":0,"pct_sin_educacion":5,"pct_educ_superior":14,"brecha_educ":-15,"pct_sin_seguro":38,"pct_sus":58,"pct_seguro_privado":4,"brecha_seguro":11,"pct_salud_publica":40,"pct_med_tradicional":5,"pct_automedicacion":2,"pct_remedios_caseros":38,"pct_viv_desocupada":7,"pct_alquiler":0,"pct_electricidad":62,"pct_sin_electricidad":38,"pct_agua_red":54,"pct_alcantarillado":31,"pct_camara_septica":0,"pct_pozo_ciego":0,"pct_sin_desague":69,"pct_gas_red":0,"pct_gas_garrafa":92,"pct_lena_guano":8,"pct_basura_formal":8,"pct_basura_quema":85,"pct_basura_informal":0,"pct_internet":62,"pct_celular":92,"pct_televisor":31}},{"type":"Feature","geometry":{"type":"Polygon","coordinates":[[[-68.49235,-17.21323],[-68.49224,-17.21358],[-68.49146,-17.2133],[-68.49159,-17.21294],[-68.49235,-17.21323]]]},"properties":{"n":"GENERAL JOSE MANUEL PANDO","p":22,"personas_x_ha":58,"masculinidad":38,"pct_menor20":32,"pct_60mas":23,"pct_migrante":27,"dependencia_econ":100,"pct_empleados":9,"pct_cuentapropia":45,"pct_agricultura":18,"pct_comercio":27,"pct_manufactura":0,"pct_construccion":0,"pct_transporte":0,"pct_alojamiento":18,"pct_sin_educacion":7,"pct_educ_superior":33,"brecha_educ":5,"pct_sin_seguro":0,"pct_sus":95,"pct_seguro_privado":0,"brecha_seguro":0,"pct_salud_publica":24,"pct_med_tradicional":22,"pct_automedicacion":21,"pct_remedios_caseros":17,"pct_viv_desocupada":0,"pct_alquiler":0,"pct_electricidad":90,"pct_sin_electricidad":0,"pct_agua_red":80,"pct_alcantarillado":50,"pct_camara_septica":0,"pct_pozo_ciego":0,"pct_sin_desague":50,"pct_gas_red":0,"pct_gas_garrafa":100,"pct_lena_guano":0,"pct_basura_formal":0,"pct_basura_quema":60,"pct_basura_informal":20,"pct_internet":90,"pct_celular":100,"pct_televisor":80}},{"type":"Feature","geometry":{"type":"Polygon","coordinates":[[[-68.49007,-17.21238],[-68.48994,-17.21287],[-68.49089,-17.2131],[-68.49105,-17.21273],[-68.49007,-17.21238]]]},"properties":{"n":"GENERAL JOSE MANUEL PANDO","p":32,"personas_x_ha":59,"masculinidad":88,"pct_menor20":31,"pct_60mas":12,"pct_migrante":38,"dependencia_econ":82,"pct_empleados":12,"pct_cuentapropia":53,"pct_agricultura":53,"pct_comercio":12,"pct_manufactura":0,"pct_construccion":0,"pct_transporte":12,"pct_alojamiento":6,"pct_sin_educacion":0,"pct_educ_superior":14,"brecha_educ":-18,"pct_sin_seguro":10,"pct_sus":87,"pct_seguro_privado":0,"brecha_seguro":8,"pct_salud_publica":37,"pct_med_tradicional":14,"pct_automedicacion":18,"pct_remedios_caseros":19,"pct_viv_desocupada":14,"pct_alquiler":0,"pct_electricidad":80,"pct_sin_electricidad":20,"pct_agua_red":100,"pct_alcantarillado":47,"pct_camara_septica":0,"pct_pozo_ciego":0,"pct_sin_desague":53,"pct_gas_red":0,"pct_gas_garrafa":93,"pct_lena_guano":7,"pct_basura_formal":40,"pct_basura_quema":13,"pct_basura_informal":27,"pct_internet":47,"pct_celular":67,"pct_televisor":53}},{"type":"Feature","geometry":{"type":"Polygon","coordinates":[[[-68.49252,-17.21217],[-68.49239,-17.21308],[-68.49158,-17.2128],[-68.49168,-17.21206],[-68.49252,-17.21217]]]},"properties":{"n":"GENERAL JOSE MANUEL PANDO","p":28,"personas_x_ha":33,"masculinidad":133,"pct_menor20":14,"pct_60mas":36,"pct_migrante":14,"dependencia_econ":65,"pct_empleados":29,"pct_cuentapropia":47,"pct_agricultura":18,"pct_comercio":6,"pct_manufactura":35,"pct_construccion":6,"pct_transporte":12,"pct_alojamiento":6,"pct_sin_educacion":17,"pct_educ_superior":21,"brecha_educ":-31,"pct_sin_seguro":0,"pct_sus":100,"pct_seguro_privado":0,"brecha_seguro":0,"pct_salud_publica":27,"pct_med_tradicional":12,"pct_automedicacion":14,"pct_remedios_caseros":27,"pct_viv_desocupada":0,"pct_alquiler":7,"pct_electricidad":87,"pct_sin_electricidad":13,"pct_agua_red":27,"pct_alcantarillado":20,"pct_camara_septica":0,"pct_pozo_ciego":7,"pct_sin_desague":73,"pct_gas_red":0,"pct_gas_garrafa":93,"pct_lena_guano":0,"pct_basura_formal":7,"pct_basura_quema":67,"pct_basura_informal":27,"pct_internet":53,"pct_celular":80,"pct_televisor":60}},{"type":"Feature","geometry":{"type":"Polygon","coordinates":[[[-68.49087,-17.21195],[-68.49076,-17.2125],[-68.49151,-17.21277],[-68.49164,-17.21205],[-68.49087,-17.21195]]]},"properties":{"n":"GENERAL JOSE MANUEL PANDO","p":32,"personas_x_ha":52,"masculinidad":68,"pct_menor20":41,"pct_60mas":9,"pct_migrante":31,"dependencia_econ":68,"pct_empleados":11,"pct_cuentapropia":79,"pct_agricultura":16,"pct_comercio":42,"pct_manufactura":11,"pct_construccion":11,"pct_transporte":0,"pct_alojamiento":5,"pct_sin_educacion":0,"pct_educ_superior":11,"brecha_educ":-42,"pct_sin_seguro":10,"pct_sus":87,"pct_seguro_privado":0,"brecha_seguro":-3,"pct_salud_publica":33,"pct_med_tradicional":18,"pct_automedicacion":12,"pct_remedios_caseros":31,"pct_viv_desocupada":19,"pct_alquiler":7,"pct_electricidad":79,"pct_sin_electricidad":21,"pct_agua_red":86,"pct_alcantarillado":43,"pct_camara_septica":0,"pct_pozo_ciego":0,"pct_sin_desague":57,"pct_gas_red":0,"pct_gas_garrafa":100,"pct_lena_guano":0,"pct_basura_formal":14,"pct_basura_quema":50,"pct_basura_informal":29,"pct_internet":86,"pct_celular":100,"pct_televisor":71}},{"type":"Feature","geometry":{"type":"Polygon","coordinates":[[[-68.49236,-17.21361],[-68.49304,-17.21379],[-68.49313,-17.21344],[-68.49245,-17.21326],[-68.49236,-17.21361]]]},"properties":{"n":"GENERAL JOSE MANUEL PANDO","p":19,"personas_x_ha":61,"masculinidad":73,"pct_menor20":32,"pct_60mas":21,"pct_migrante":26,"dependencia_econ":217,"pct_empleados":33,"pct_cuentapropia":50,"pct_agricultura":0,"pct_comercio":33,"pct_manufactura":50,"pct_construccion":0,"pct_transporte":17,"pct_alojamiento":0,"pct_sin_educacion":7,"pct_educ_superior":27,"brecha_educ":-9,"pct_sin_seguro":16,"pct_sus":79,"pct_seguro_privado":5,"brecha_seguro":-6,"pct_salud_publica":22,"pct_med_tradicional":22,"pct_automedicacion":18,"pct_remedios_caseros":23,"pct_viv_desocupada":0,"pct_alquiler":22,"pct_electricidad":89,"pct_sin_electricidad":11,"pct_agua_red":89,"pct_alcantarillado":56,"pct_camara_septica":0,"pct_pozo_ciego":11,"pct_sin_desague":33,"pct_gas_red":0,"pct_gas_garrafa":100,"pct_lena_guano":0,"pct_basura_formal":0,"pct_basura_quema":100,"pct_basura_informal":0,"pct_internet":78,"pct_celular":78,"pct_televisor":33}},{"type":"Feature","geometry":{"type":"Polygon","coordinates":[[[-68.48986,-17.21283],[-68.48904,-17.21262],[-68.48916,-17.21209],[-68.48999,-17.21235],[-68.48986,-17.21283]]]},"properties":{"n":"GENERAL JOSE MANUEL PANDO","p":26,"personas_x_ha":49,"masculinidad":73,"pct_menor20":46,"pct_60mas":8,"pct_migrante":19,"dependencia_econ":136,"pct_empleados":9,"pct_cuentapropia":45,"pct_agricultura":36,"pct_comercio":27,"pct_manufactura":9,"pct_construccion":18,"pct_transporte":9,"pct_alojamiento":0,"pct_sin_educacion":13,"pct_educ_superior":13,"brecha_educ":-9,"pct_sin_seguro":4,"pct_sus":77,"pct_seguro_privado":4,"brecha_seguro":9,"pct_salud_publica":25,"pct_med_tradicional":18,"pct_automedicacion":16,"pct_remedios_caseros":29,"pct_viv_desocupada":0,"pct_alquiler":8,"pct_electricidad":58,"pct_sin_electricidad":33,"pct_agua_red":75,"pct_alcantarillado":50,"pct_camara_septica":8,"pct_pozo_ciego":0,"pct_sin_desague":42,"pct_gas_red":0,"pct_gas_garrafa":100,"pct_lena_guano":0,"pct_basura_formal":8,"pct_basura_quema":50,"pct_basura_informal":33,"pct_internet":25,"pct_celular":83,"pct_televisor":50}},{"type":"Feature","geometry":{"type":"Polygon","coordinates":[[[-68.64802,-17.1408],[-68.64787,-17.14021],[-68.64751,-17.14028],[-68.64764,-17.14088],[-68.64802,-17.1408]]]},"properties":{"n":"JANCKO MARCA","p":16,"personas_x_ha":57,"masculinidad":78,"pct_menor20":0,"pct_60mas":50,"pct_migrante":12,"dependencia_econ":7,"pct_empleados":13,"pct_cuentapropia":73,"pct_agricultura":33,"pct_comercio":20,"pct_manufactura":7,"pct_construccion":0,"pct_transporte":7,"pct_alojamiento":7,"pct_sin_educacion":0,"pct_educ_superior":50,"brecha_educ":-8,"pct_sin_seguro":12,"pct_sus":81,"pct_seguro_privado":0,"brecha_seguro":-22,"pct_salud_publica":19,"pct_med_tradicional":14,"pct_automedicacion":15,"pct_remedios_caseros":25,"pct_viv_desocupada":0,"pct_alquiler":0,"pct_electricidad":86,"pct_sin_electricidad":14,"pct_agua_red":79,"pct_alcantarillado":7,"pct_camara_septica":7,"pct_pozo_ciego":79,"pct_sin_desague":7,"pct_gas_red":0,"pct_gas_garrafa":93,"pct_lena_guano":7,"pct_basura_formal":21,"pct_basura_quema":57,"pct_basura_informal":0,"pct_internet":36,"pct_celular":86,"pct_televisor":57}},{"type":"Feature","geometry":{"type":"Polygon","coordinates":[[[-68.23959,-17.17013],[-68.23943,-17.16957],[-68.2389,-17.16968],[-68.23904,-17.17027],[-68.23959,-17.17013]]]},"properties":{"n":"TOPOHOCO","p":16,"personas_x_ha":40,"masculinidad":129,"pct_menor20":25,"pct_60mas":44,"pct_migrante":0,"dependencia_econ":33,"pct_empleados":25,"pct_cuentapropia":75,"pct_agricultura":33,"pct_comercio":42,"pct_manufactura":8,"pct_construccion":0,"pct_transporte":0,"pct_alojamiento":0,"pct_sin_educacion":8,"pct_educ_superior":8,"brecha_educ":-36,"pct_sin_seguro":12,"pct_sus":88,"pct_seguro_privado":0,"brecha_seguro":-29,"pct_salud_publica":27,"pct_med_tradicional":14,"pct_automedicacion":14,"pct_remedios_caseros":29,"pct_viv_desocupada":7,"pct_alquiler":0,"pct_electricidad":73,"pct_sin_electricidad":27,"pct_agua_red":36,"pct_alcantarillado":0,"pct_camara_septica":18,"pct_pozo_ciego":18,"pct_sin_desague":55,"pct_gas_red":0,"pct_gas_garrafa":82,"pct_lena_guano":18,"pct_basura_formal":45,"pct_basura_quema":18,"pct_basura_informal":18,"pct_internet":45,"pct_celular":91,"pct_televisor":64}},{"type":"Feature","geometry":{"type":"Polygon","coordinates":[[[-68.23966,-17.17012],[-68.24038,-17.16997],[-68.24021,-17.16938],[-68.23951,-17.16956],[-68.23966,-17.17012]]]},"properties":{"n":"TOPOHOCO","p":20,"personas_x_ha":38,"masculinidad":186,"pct_menor20":25,"pct_60mas":25,"pct_migrante":0,"dependencia_econ":18,"pct_empleados":29,"pct_cuentapropia":59,"pct_agricultura":53,"pct_comercio":18,"pct_manufactura":6,"pct_construccion":6,"pct_transporte":6,"pct_alojamiento":0,"pct_sin_educacion":7,"pct_educ_superior":7,"brecha_educ":-6,"pct_sin_seguro":30,"pct_sus":50,"pct_seguro_privado":5,"brecha_seguro":2,"pct_salud_publica":23,"pct_med_tradicional":24,"pct_automedicacion":14,"pct_remedios_caseros":24,"pct_viv_desocupada":6,"pct_alquiler":0,"pct_electricidad":73,"pct_sin_electricidad":27,"pct_agua_red":47,"pct_alcantarillado":7,"pct_camara_septica":0,"pct_pozo_ciego":40,"pct_sin_desague":53,"pct_gas_red":0,"pct_gas_garrafa":87,"pct_lena_guano":7,"pct_basura_formal":20,"pct_basura_quema":33,"pct_basura_informal":20,"pct_internet":60,"pct_celular":87,"pct_televisor":27}}]}