{"type":"FeatureCollection","features":[{"type":"Feature","geometry":{"type":"Polygon","coordinates":[[[-69.31263,-15.49263],[-69.31228,-15.49228],[-69.31145,-15.49299],[-69.3118,-15.49335],[-69.31263,-15.49263]]]},"properties":{"n":"JUNTA DE VECINOS WIRUPAYA","p":18,"personas_x_ha":27,"masculinidad":157,"pct_menor20":28,"pct_60mas":11,"pct_migrante":33,"dependencia_econ":38,"pct_empleados":8,"pct_cuentapropia":77,"pct_agricultura":31,"pct_comercio":54,"pct_manufactura":0,"pct_construccion":0,"pct_transporte":0,"pct_alojamiento":0,"pct_sin_educacion":8,"pct_educ_superior":15,"brecha_educ":-28,"pct_sin_seguro":33,"pct_sus":61,"pct_seguro_privado":6,"brecha_seguro":-16,"pct_salud_publica":24,"pct_med_tradicional":21,"pct_automedicacion":15,"pct_remedios_caseros":25,"pct_viv_desocupada":0,"pct_alquiler":12,"pct_electricidad":88,"pct_sin_electricidad":12,"pct_agua_red":100,"pct_alcantarillado":0,"pct_camara_septica":0,"pct_pozo_ciego":38,"pct_sin_desague":62,"pct_gas_red":0,"pct_gas_garrafa":100,"pct_lena_guano":100,"pct_basura_formal":38,"pct_basura_quema":25,"pct_basura_informal":50,"pct_internet":88,"pct_celular":100,"pct_televisor":62}},{"type":"Feature","geometry":{"type":"Polygon","coordinates":[[[-69.31016,-15.49219],[-69.31001,-15.49231],[-69.31049,-15.49285],[-69.31088,-15.49252],[-69.31016,-15.49178],[-69.3098,-15.49207],[-69.30999,-15.49228],[-69.31016,-15.49219]]]},"properties":{"n":"JUNTA DE VECINOS WIRUPAYA","p":29,"personas_x_ha":48,"masculinidad":81,"pct_menor20":21,"pct_60mas":14,"pct_migrante":3,"dependencia_econ":61,"pct_empleados":0,"pct_cuentapropia":83,"pct_agricultura":78,"pct_comercio":11,"pct_manufactura":0,"pct_construccion":0,"pct_transporte":0,"pct_alojamiento":0,"pct_sin_educacion":4,"pct_educ_superior":8,"brecha_educ":-59,"pct_sin_seguro":15,"pct_sus":85,"pct_seguro_privado":0,"brecha_seguro":-29,"pct_salud_publica":32,"pct_med_tradicional":9,"pct_automedicacion":12,"pct_remedios_caseros":25,"pct_viv_desocupada":0,"pct_alquiler":8,"pct_electricidad":85,"pct_sin_electricidad":15,"pct_agua_red":23,"pct_alcantarillado":0,"pct_camara_septica":0,"pct_pozo_ciego":15,"pct_sin_desague":85,"pct_gas_red":0,"pct_gas_garrafa":77,"pct_lena_guano":77,"pct_basura_formal":0,"pct_basura_quema":77,"pct_basura_informal":0,"pct_internet":38,"pct_celular":62,"pct_televisor":38}},{"type":"Feature","geometry":{"type":"Polygon","coordinates":[[[-69.31069,-15.49064],[-69.30982,-15.49133],[-69.31014,-15.49168],[-69.31103,-15.49097],[-69.31069,-15.49064]]]},"properties":{"n":"JUNTA DE VECINOS WIRUPAYA","p":17,"personas_x_ha":25,"masculinidad":55,"pct_menor20":0,"pct_60mas":12,"pct_migrante":6,"dependencia_econ":6,"pct_empleados":6,"pct_cuentapropia":69,"pct_agricultura":62,"pct_comercio":12,"pct_manufactura":0,"pct_construccion":12,"pct_transporte":0,"pct_alojamiento":6,"pct_sin_educacion":6,"pct_educ_superior":24,"brecha_educ":-55,"pct_sin_seguro":38,"pct_sus":62,"pct_seguro_privado":0,"brecha_seguro":4,"pct_salud_publica":38,"pct_med_tradicional":22,"pct_automedicacion":10,"pct_remedios_caseros":15,"pct_viv_desocupada":33,"pct_alquiler":0,"pct_electricidad":100,"pct_sin_electricidad":0,"pct_agua_red":8,"pct_alcantarillado":0,"pct_camara_septica":0,"pct_pozo_ciego":8,"pct_sin_desague":92,"pct_gas_red":0,"pct_gas_garrafa":100,"pct_lena_guano":100,"pct_basura_formal":67,"pct_basura_quema":33,"pct_basura_informal":0,"pct_internet":25,"pct_celular":75,"pct_televisor":8}},{"type":"Feature","geometry":{"type":"Polygon","coordinates":[[[-69.31003,-15.49319],[-69.31041,-15.49288],[-69.30974,-15.49215],[-69.30936,-15.49244],[-69.31003,-15.49319]]]},"properties":{"n":"JUNTA DE VECINOS WIRUPAYA","p":24,"personas_x_ha":41,"masculinidad":100,"pct_menor20":29,"pct_60mas":12,"pct_migrante":12,"dependencia_econ":100,"pct_empleados":25,"pct_cuentapropia":58,"pct_agricultura":17,"pct_comercio":25,"pct_manufactura":17,"pct_construccion":25,"pct_transporte":0,"pct_alojamiento":0,"pct_sin_educacion":18,"pct_educ_superior":0,"brecha_educ":-17,"pct_sin_seguro":33,"pct_sus":67,"pct_seguro_privado":0,"brecha_seguro":0,"pct_salud_publica":44,"pct_med_tradicional":13,"pct_automedicacion":10,"pct_remedios_caseros":29,"pct_viv_desocupada":0,"pct_alquiler":0,"pct_electricidad":92,"pct_sin_electricidad":8,"pct_agua_red":0,"pct_alcantarillado":0,"pct_camara_septica":0,"pct_pozo_ciego":15,"pct_sin_desague":85,"pct_gas_red":0,"pct_gas_garrafa":92,"pct_lena_guano":92,"pct_basura_formal":15,"pct_basura_quema":85,"pct_basura_informal":0,"pct_internet":8,"pct_celular":62,"pct_televisor":77}},{"type":"Feature","geometry":{"type":"Polygon","coordinates":[[[-69.31195,-15.49364],[-69.31152,-15.4932],[-69.31143,-15.49327],[-69.3115,-15.49318],[-69.311,-15.49262],[-69.31058,-15.49296],[-69.31122,-15.4942],[-69.31195,-15.49364]]]},"properties":{"n":"JUNTA DE VECINOS WIRUPAYA","p":22,"personas_x_ha":19,"masculinidad":100,"pct_menor20":23,"pct_60mas":14,"pct_migrante":23,"dependencia_econ":47,"pct_empleados":27,"pct_cuentapropia":73,"pct_agricultura":33,"pct_comercio":7,"pct_manufactura":0,"pct_construccion":13,"pct_transporte":40,"pct_alojamiento":0,"pct_sin_educacion":12,"pct_educ_superior":6,"brecha_educ":-6,"pct_sin_seguro":27,"pct_sus":73,"pct_seguro_privado":0,"brecha_seguro":18,"pct_salud_publica":27,"pct_med_tradicional":24,"pct_automedicacion":13,"pct_remedios_caseros":27,"pct_viv_desocupada":0,"pct_alquiler":0,"pct_electricidad":36,"pct_sin_electricidad":64,"pct_agua_red":21,"pct_alcantarillado":0,"pct_camara_septica":0,"pct_pozo_ciego":7,"pct_sin_desague":93,"pct_gas_red":0,"pct_gas_garrafa":57,"pct_lena_guano":57,"pct_basura_formal":21,"pct_basura_quema":50,"pct_basura_informal":14,"pct_internet":79,"pct_celular":93,"pct_televisor":36}},{"type":"Feature","geometry":{"type":"Polygon","coordinates":[[[-69.31159,-15.49191],[-69.31179,-15.49175],[-69.31115,-15.4911],[-69.31095,-15.49126],[-69.31159,-15.49191]]]},"properties":{"n":"JUNTA DE VECINOS WIRUPAYA","p":31,"personas_x_ha":108,"masculinidad":121,"pct_menor20":29,"pct_60mas":13,"pct_migrante":19,"dependencia_econ":29,"pct_empleados":12,"pct_cuentapropia":75,"pct_agricultura":33,"pct_comercio":38,"pct_manufactura":4,"pct_construccion":4,"pct_transporte":12,"pct_alojamiento":0,"pct_sin_educacion":0,"pct_educ_superior":9,"brecha_educ":-8,"pct_sin_seguro":16,"pct_sus":77,"pct_seguro_privado":6,"brecha_seguro":3,"pct_salud_publica":18,"pct_med_tradicional":19,"pct_automedicacion":25,"pct_remedios_caseros":29,"pct_viv_desocupada":25,"pct_alquiler":0,"pct_electricidad":100,"pct_sin_electricidad":0,"pct_agua_red":47,"pct_alcantarillado":0,"pct_camara_septica":0,"pct_pozo_ciego":13,"pct_sin_desague":87,"pct_gas_red":0,"pct_gas_garrafa":100,"pct_lena_guano":100,"pct_basura_formal":0,"pct_basura_quema":100,"pct_basura_informal":0,"pct_internet":73,"pct_celular":93,"pct_televisor":0}},{"type":"Feature","geometry":{"type":"Polygon","coordinates":[[[-69.31224,-15.49221],[-69.31196,-15.4919],[-69.31204,-15.49175],[-69.31106,-15.49258],[-69.3114,-15.49296],[-69.31224,-15.49221]]]},"properties":{"n":"JUNTA DE VECINOS WIRUPAYA","p":27,"personas_x_ha":40,"masculinidad":145,"pct_menor20":26,"pct_60mas":19,"pct_migrante":37,"dependencia_econ":42,"pct_empleados":5,"pct_cuentapropia":84,"pct_agricultura":37,"pct_comercio":47,"pct_manufactura":0,"pct_construccion":5,"pct_transporte":5,"pct_alojamiento":0,"pct_sin_educacion":5,"pct_educ_superior":15,"brecha_educ":-40,"pct_sin_seguro":67,"pct_sus":22,"pct_seguro_privado":0,"brecha_seguro":-10,"pct_salud_publica":28,"pct_med_tradicional":12,"pct_automedicacion":12,"pct_remedios_caseros":16,"pct_viv_desocupada":38,"pct_alquiler":15,"pct_electricidad":100,"pct_sin_electricidad":0,"pct_agua_red":8,"pct_alcantarillado":0,"pct_camara_septica":0,"pct_pozo_ciego":15,"pct_sin_desague":77,"pct_gas_red":8,"pct_gas_garrafa":85,"pct_lena_guano":85,"pct_basura_formal":23,"pct_basura_quema":69,"pct_basura_informal":0,"pct_internet":15,"pct_celular":77,"pct_televisor":46}},{"type":"Feature","geometry":{"type":"Polygon","coordinates":[[[-69.31011,-15.49171],[-69.30975,-15.49139],[-69.30897,-15.49205],[-69.30932,-15.49236],[-69.31011,-15.49171]]]},"properties":{"n":"JUNTA DE VECINOS WIRUPAYA","p":23,"personas_x_ha":39,"masculinidad":130,"pct_menor20":39,"pct_60mas":4,"pct_migrante":35,"dependencia_econ":64,"pct_empleados":0,"pct_cuentapropia":86,"pct_agricultura":79,"pct_comercio":7,"pct_manufactura":0,"pct_construccion":0,"pct_transporte":7,"pct_alojamiento":0,"pct_sin_educacion":7,"pct_educ_superior":21,"brecha_educ":-4,"pct_sin_seguro":57,"pct_sus":43,"pct_seguro_privado":0,"brecha_seguro":29,"pct_salud_publica":34,"pct_med_tradicional":34,"pct_automedicacion":11,"pct_remedios_caseros":14,"pct_viv_desocupada":0,"pct_alquiler":0,"pct_electricidad":36,"pct_sin_electricidad":64,"pct_agua_red":36,"pct_alcantarillado":0,"pct_camara_septica":0,"pct_pozo_ciego":0,"pct_sin_desague":100,"pct_gas_red":0,"pct_gas_garrafa":82,"pct_lena_guano":82,"pct_basura_formal":0,"pct_basura_quema":91,"pct_basura_informal":18,"pct_internet":82,"pct_celular":100,"pct_televisor":18}},{"type":"Feature","geometry":{"type":"Polygon","coordinates":[[[-69.25271,-15.53258],[-69.25257,-15.53227],[-69.25187,-15.53249],[-69.25198,-15.53284],[-69.25271,-15.53258]]]},"properties":{"n":"PUERTO ACOSTA","p":18,"personas_x_ha":56,"masculinidad":200,"pct_menor20":28,"pct_60mas":6,"pct_migrante":50,"dependencia_econ":50,"pct_empleados":50,"pct_cuentapropia":42,"pct_agricultura":0,"pct_comercio":17,"pct_manufactura":0,"pct_construccion":0,"pct_transporte":25,"pct_alojamiento":0,"pct_sin_educacion":0,"pct_educ_superior":54,"brecha_educ":-25,"pct_sin_seguro":17,"pct_sus":33,"pct_seguro_privado":0,"brecha_seguro":-50,"pct_salud_publica":21,"pct_med_tradicional":12,"pct_automedicacion":17,"pct_remedios_caseros":21,"pct_viv_desocupada":25,"pct_alquiler":25,"pct_electricidad":100,"pct_sin_electricidad":0,"pct_agua_red":100,"pct_alcantarillado":100,"pct_camara_septica":0,"pct_pozo_ciego":0,"pct_sin_desague":0,"pct_gas_red":0,"pct_gas_garrafa":75,"pct_lena_guano":75,"pct_basura_formal":88,"pct_basura_quema":0,"pct_basura_informal":0,"pct_internet":75,"pct_celular":88,"pct_televisor":62}},{"type":"Feature","geometry":{"type":"Polygon","coordinates":[[[-69.25404,-15.53244],[-69.25384,-15.53256],[-69.25384,-15.53309],[-69.25421,-15.53299],[-69.25404,-15.53244]]]},"properties":{"n":"PUERTO ACOSTA","p":16,"personas_x_ha":73,"masculinidad":220,"pct_menor20":19,"pct_60mas":31,"pct_migrante":19,"dependencia_econ":14,"pct_empleados":21,"pct_cuentapropia":57,"pct_agricultura":21,"pct_comercio":29,"pct_manufactura":7,"pct_construccion":7,"pct_transporte":7,"pct_alojamiento":7,"pct_sin_educacion":7,"pct_educ_superior":13,"brecha_educ":20,"pct_sin_seguro":12,"pct_sus":88,"pct_seguro_privado":0,"brecha_seguro":-11,"pct_salud_publica":30,"pct_med_tradicional":19,"pct_automedicacion":13,"pct_remedios_caseros":25,"pct_viv_desocupada":0,"pct_alquiler":0,"pct_electricidad":77,"pct_sin_electricidad":23,"pct_agua_red":62,"pct_alcantarillado":54,"pct_camara_septica":0,"pct_pozo_ciego":8,"pct_sin_desague":23,"pct_gas_red":0,"pct_gas_garrafa":69,"pct_lena_guano":69,"pct_basura_formal":85,"pct_basura_quema":8,"pct_basura_informal":0,"pct_internet":62,"pct_celular":85,"pct_televisor":62}},{"type":"Feature","geometry":{"type":"Polygon","coordinates":[[[-69.25274,-15.53628],[-69.25301,-15.53624],[-69.25282,-15.53567],[-69.25267,-15.53572],[-69.25282,-15.53566],[-69.25267,-15.53518],[-69.252,-15.53538],[-69.25211,-15.53575],[-69.2524,-15.53606],[-69.25274,-15.53628]]]},"properties":{"n":"PUERTO ACOSTA","p":28,"personas_x_ha":38,"masculinidad":87,"pct_menor20":36,"pct_60mas":32,"pct_migrante":25,"dependencia_econ":65,"pct_empleados":12,"pct_cuentapropia":53,"pct_agricultura":24,"pct_comercio":29,"pct_manufactura":6,"pct_construccion":0,"pct_transporte":24,"pct_alojamiento":0,"pct_sin_educacion":6,"pct_educ_superior":6,"brecha_educ":-55,"pct_sin_seguro":20,"pct_sus":72,"pct_seguro_privado":0,"brecha_seguro":-6,"pct_salud_publica":30,"pct_med_tradicional":14,"pct_automedicacion":12,"pct_remedios_caseros":18,"pct_viv_desocupada":9,"pct_alquiler":0,"pct_electricidad":93,"pct_sin_electricidad":7,"pct_agua_red":79,"pct_alcantarillado":50,"pct_camara_septica":0,"pct_pozo_ciego":0,"pct_sin_desague":50,"pct_gas_red":0,"pct_gas_garrafa":93,"pct_lena_guano":93,"pct_basura_formal":100,"pct_basura_quema":0,"pct_basura_informal":0,"pct_internet":57,"pct_celular":79,"pct_televisor":57}},{"type":"Feature","geometry":{"type":"Polygon","coordinates":[[[-69.25197,-15.53966],[-69.25153,-15.53905],[-69.25122,-15.53849],[-69.25099,-15.53942],[-69.25088,-15.54028],[-69.25197,-15.53966]]]},"properties":{"n":"PUERTO ACOSTA","p":24,"personas_x_ha":22,"masculinidad":85,"pct_menor20":29,"pct_60mas":4,"pct_migrante":21,"dependencia_econ":50,"pct_empleados":19,"pct_cuentapropia":62,"pct_agricultura":31,"pct_comercio":31,"pct_manufactura":0,"pct_construccion":12,"pct_transporte":25,"pct_alojamiento":0,"pct_sin_educacion":0,"pct_educ_superior":6,"brecha_educ":-4,"pct_sin_seguro":33,"pct_sus":67,"pct_seguro_privado":0,"brecha_seguro":22,"pct_salud_publica":26,"pct_med_tradicional":18,"pct_automedicacion":27,"pct_remedios_caseros":26,"pct_viv_desocupada":0,"pct_alquiler":0,"pct_electricidad":78,"pct_sin_electricidad":11,"pct_agua_red":78,"pct_alcantarillado":0,"pct_camara_septica":0,"pct_pozo_ciego":56,"pct_sin_desague":22,"pct_gas_red":0,"pct_gas_garrafa":67,"pct_lena_guano":67,"pct_basura_formal":33,"pct_basura_quema":22,"pct_basura_informal":0,"pct_internet":44,"pct_celular":67,"pct_televisor":44}},{"type":"Feature","geometry":{"type":"Polygon","coordinates":[[[-69.25111,-15.53309],[-69.25098,-15.53254],[-69.25015,-15.53329],[-69.25021,-15.53334],[-69.25111,-15.53309]]]},"properties":{"n":"PUERTO ACOSTA","p":16,"personas_x_ha":41,"masculinidad":78,"pct_menor20":19,"pct_60mas":31,"pct_migrante":25,"dependencia_econ":129,"pct_empleados":14,"pct_cuentapropia":14,"pct_agricultura":29,"pct_comercio":14,"pct_manufactura":0,"pct_construccion":14,"pct_transporte":14,"pct_alojamiento":0,"pct_sin_educacion":7,"pct_educ_superior":21,"brecha_educ":-50,"pct_sin_seguro":20,"pct_sus":80,"pct_seguro_privado":0,"brecha_seguro":-38,"pct_salud_publica":18,"pct_med_tradicional":21,"pct_automedicacion":16,"pct_remedios_caseros":29,"pct_viv_desocupada":8,"pct_alquiler":0,"pct_electricidad":100,"pct_sin_electricidad":0,"pct_agua_red":100,"pct_alcantarillado":100,"pct_camara_septica":0,"pct_pozo_ciego":0,"pct_sin_desague":0,"pct_gas_red":0,"pct_gas_garrafa":100,"pct_lena_guano":100,"pct_basura_formal":11,"pct_basura_quema":0,"pct_basura_informal":0,"pct_internet":44,"pct_celular":67,"pct_televisor":56}},{"type":"Feature","geometry":{"type":"Polygon","coordinates":[[[-69.25321,-15.53412],[-69.25298,-15.5334],[-69.25222,-15.53364],[-69.25244,-15.53437],[-69.25321,-15.53412]]]},"properties":{"n":"PUERTO ACOSTA","p":21,"personas_x_ha":29,"masculinidad":17,"pct_menor20":43,"pct_60mas":0,"pct_migrante":43,"dependencia_econ":54,"pct_empleados":15,"pct_cuentapropia":23,"pct_agricultura":23,"pct_comercio":15,"pct_manufactura":8,"pct_construccion":8,"pct_transporte":0,"pct_alojamiento":23,"pct_sin_educacion":0,"pct_educ_superior":42,"brecha_educ":-36,"pct_sin_seguro":45,"pct_sus":50,"pct_seguro_privado":5,"brecha_seguro":-14,"pct_salud_publica":28,"pct_med_tradicional":19,"pct_automedicacion":19,"pct_remedios_caseros":28,"pct_viv_desocupada":0,"pct_alquiler":8,"pct_electricidad":100,"pct_sin_electricidad":0,"pct_agua_red":83,"pct_alcantarillado":100,"pct_camara_septica":0,"pct_pozo_ciego":0,"pct_sin_desague":0,"pct_gas_red":0,"pct_gas_garrafa":100,"pct_lena_guano":100,"pct_basura_formal":100,"pct_basura_quema":0,"pct_basura_informal":0,"pct_internet":58,"pct_celular":92,"pct_televisor":92}},{"type":"Feature","geometry":{"type":"Polygon","coordinates":[[[-69.25113,-15.53315],[-69.25068,-15.5333],[-69.25091,-15.53398],[-69.25134,-15.53385],[-69.25113,-15.53315]]]},"properties":{"n":"PUERTO ACOSTA","p":45,"personas_x_ha":110,"masculinidad":45,"pct_menor20":47,"pct_60mas":13,"pct_migrante":20,"dependencia_econ":105,"pct_empleados":9,"pct_cuentapropia":77,"pct_agricultura":0,"pct_comercio":41,"pct_manufactura":27,"pct_construccion":5,"pct_transporte":0,"pct_alojamiento":9,"pct_sin_educacion":4,"pct_educ_superior":33,"brecha_educ":-24,"pct_sin_seguro":5,"pct_sus":90,"pct_seguro_privado":0,"brecha_seguro":4,"pct_salud_publica":30,"pct_med_tradicional":15,"pct_automedicacion":14,"pct_remedios_caseros":28,"pct_viv_desocupada":6,"pct_alquiler":14,"pct_electricidad":100,"pct_sin_electricidad":0,"pct_agua_red":100,"pct_alcantarillado":86,"pct_camara_septica":0,"pct_pozo_ciego":0,"pct_sin_desague":14,"pct_gas_red":0,"pct_gas_garrafa":100,"pct_lena_guano":100,"pct_basura_formal":93,"pct_basura_quema":7,"pct_basura_informal":0,"pct_internet":36,"pct_celular":93,"pct_televisor":93}},{"type":"Feature","geometry":{"type":"Polygon","coordinates":[[[-69.25472,-15.53445],[-69.25476,-15.53375],[-69.25414,-15.5339],[-69.25419,-15.53416],[-69.25436,-15.53405],[-69.25436,-15.53412],[-69.2542,-15.53417],[-69.25437,-15.53469],[-69.25472,-15.53445]]]},"properties":{"n":"PUERTO ACOSTA","p":39,"personas_x_ha":79,"masculinidad":129,"pct_menor20":49,"pct_60mas":5,"pct_migrante":69,"dependencia_econ":124,"pct_empleados":6,"pct_cuentapropia":71,"pct_agricultura":24,"pct_comercio":35,"pct_manufactura":0,"pct_construccion":12,"pct_transporte":24,"pct_alojamiento":6,"pct_sin_educacion":5,"pct_educ_superior":24,"brecha_educ":-33,"pct_sin_seguro":32,"pct_sus":63,"pct_seguro_privado":0,"brecha_seguro":33,"pct_salud_publica":29,"pct_med_tradicional":1,"pct_automedicacion":34,"pct_remedios_caseros":32,"pct_viv_desocupada":0,"pct_alquiler":0,"pct_electricidad":89,"pct_sin_electricidad":11,"pct_agua_red":100,"pct_alcantarillado":67,"pct_camara_septica":0,"pct_pozo_ciego":0,"pct_sin_desague":33,"pct_gas_red":0,"pct_gas_garrafa":67,"pct_lena_guano":67,"pct_basura_formal":89,"pct_basura_quema":11,"pct_basura_informal":0,"pct_internet":89,"pct_celular":89,"pct_televisor":78}},{"type":"Feature","geometry":{"type":"Polygon","coordinates":[[[-69.24904,-15.53468],[-69.24845,-15.53502],[-69.24875,-15.53533],[-69.24864,-15.53544],[-69.24902,-15.53606],[-69.24926,-15.5362],[-69.24987,-15.53571],[-69.24904,-15.53468]]]},"properties":{"n":"PUERTO ACOSTA","p":17,"personas_x_ha":13,"masculinidad":55,"pct_menor20":41,"pct_60mas":0,"pct_migrante":35,"dependencia_econ":183,"pct_empleados":0,"pct_cuentapropia":33,"pct_agricultura":83,"pct_comercio":0,"pct_manufactura":0,"pct_construccion":0,"pct_transporte":0,"pct_alojamiento":0,"pct_sin_educacion":0,"pct_educ_superior":0,"brecha_educ":38,"pct_sin_seguro":6,"pct_sus":88,"pct_seguro_privado":6,"brecha_seguro":-9,"pct_salud_publica":57,"pct_med_tradicional":21,"pct_automedicacion":7,"pct_remedios_caseros":4,"pct_viv_desocupada":0,"pct_alquiler":0,"pct_electricidad":89,"pct_sin_electricidad":11,"pct_agua_red":89,"pct_alcantarillado":33,"pct_camara_septica":0,"pct_pozo_ciego":0,"pct_sin_desague":56,"pct_gas_red":0,"pct_gas_garrafa":89,"pct_lena_guano":89,"pct_basura_formal":100,"pct_basura_quema":0,"pct_basura_informal":0,"pct_internet":44,"pct_celular":100,"pct_televisor":67}},{"type":"Feature","geometry":{"type":"Polygon","coordinates":[[[-69.24974,-15.5389],[-69.24986,-15.53898],[-69.25109,-15.53862],[-69.25113,-15.53849],[-69.25096,-15.53801],[-69.25069,-15.53808],[-69.25025,-15.53814],[-69.25096,-15.538],[-69.25077,-15.53738],[-69.25054,-15.53746],[-69.25058,-15.5376],[-69.25041,-15.53766],[-69.25043,-15.5378],[-69.24998,-15.53792],[-69.25042,-15.53779],[-69.2504,-15.53764],[-69.25056,-15.53759],[-69.25052,-15.53746],[-69.25077,-15.53737],[-69.25061,-15.53671],[-69.2496,-15.53722],[-69.24957,-15.53748],[-69.24969,-15.5378],[-69.24954,-15.53799],[-69.24974,-15.5389]]]},"properties":{"n":"PUERTO ACOSTA","p":25,"personas_x_ha":9,"masculinidad":178,"pct_menor20":48,"pct_60mas":8,"pct_migrante":28,"dependencia_econ":67,"pct_empleados":13,"pct_cuentapropia":73,"pct_agricultura":47,"pct_comercio":20,"pct_manufactura":7,"pct_construccion":7,"pct_transporte":7,"pct_alojamiento":0,"pct_sin_educacion":0,"pct_educ_superior":38,"brecha_educ":-13,"pct_sin_seguro":40,"pct_sus":44,"pct_seguro_privado":8,"brecha_seguro":28,"pct_salud_publica":15,"pct_med_tradicional":10,"pct_automedicacion":27,"pct_remedios_caseros":31,"pct_viv_desocupada":30,"pct_alquiler":8,"pct_electricidad":85,"pct_sin_electricidad":15,"pct_agua_red":69,"pct_alcantarillado":0,"pct_camara_septica":0,"pct_pozo_ciego":15,"pct_sin_desague":54,"pct_gas_red":0,"pct_gas_garrafa":92,"pct_lena_guano":92,"pct_basura_formal":31,"pct_basura_quema":54,"pct_basura_informal":0,"pct_internet":77,"pct_celular":92,"pct_televisor":54}},{"type":"Feature","geometry":{"type":"Polygon","coordinates":[[[-69.25218,-15.53368],[-69.25184,-15.53377],[-69.25206,-15.53449],[-69.2524,-15.53439],[-69.25218,-15.53368]]]},"properties":{"n":"PUERTO ACOSTA","p":21,"personas_x_ha":65,"masculinidad":75,"pct_menor20":24,"pct_60mas":38,"pct_migrante":48,"dependencia_econ":162,"pct_empleados":38,"pct_cuentapropia":25,"pct_agricultura":62,"pct_comercio":0,"pct_manufactura":0,"pct_construccion":0,"pct_transporte":12,"pct_alojamiento":0,"pct_sin_educacion":0,"pct_educ_superior":44,"brecha_educ":-25,"pct_sin_seguro":10,"pct_sus":81,"pct_seguro_privado":0,"brecha_seguro":3,"pct_salud_publica":28,"pct_med_tradicional":9,"pct_automedicacion":17,"pct_remedios_caseros":26,"pct_viv_desocupada":17,"pct_alquiler":11,"pct_electricidad":100,"pct_sin_electricidad":0,"pct_agua_red":78,"pct_alcantarillado":78,"pct_camara_septica":0,"pct_pozo_ciego":11,"pct_sin_desague":11,"pct_gas_red":0,"pct_gas_garrafa":89,"pct_lena_guano":89,"pct_basura_formal":78,"pct_basura_quema":22,"pct_basura_informal":0,"pct_internet":67,"pct_celular":89,"pct_televisor":56}},{"type":"Feature","geometry":{"type":"Polygon","coordinates":[[[-69.25284,-15.54154],[-69.25261,-15.54111],[-69.25233,-15.54026],[-69.25188,-15.54043],[-69.25177,-15.5404],[-69.25168,-15.54021],[-69.2519,-15.54039],[-69.25231,-15.54023],[-69.25206,-15.53974],[-69.25145,-15.53999],[-69.25083,-15.54037],[-69.2508,-15.54098],[-69.25099,-15.5413],[-69.25159,-15.54182],[-69.25206,-15.54186],[-69.25212,-15.5417],[-69.25284,-15.54154]]]},"properties":{"n":"PUERTO ACOSTA","p":20,"personas_x_ha":6,"masculinidad":82,"pct_menor20":20,"pct_60mas":30,"pct_migrante":35,"dependencia_econ":54,"pct_empleados":38,"pct_cuentapropia":46,"pct_agricultura":38,"pct_comercio":8,"pct_manufactura":15,"pct_construccion":0,"pct_transporte":8,"pct_alojamiento":23,"pct_sin_educacion":12,"pct_educ_superior":12,"brecha_educ":-7,"pct_sin_seguro":22,"pct_sus":78,"pct_seguro_privado":0,"brecha_seguro":5,"pct_salud_publica":26,"pct_med_tradicional":16,"pct_automedicacion":10,"pct_remedios_caseros":30,"pct_viv_desocupada":21,"pct_alquiler":0,"pct_electricidad":50,"pct_sin_electricidad":50,"pct_agua_red":88,"pct_alcantarillado":0,"pct_camara_septica":0,"pct_pozo_ciego":0,"pct_sin_desague":100,"pct_gas_red":0,"pct_gas_garrafa":38,"pct_lena_guano":38,"pct_basura_formal":0,"pct_basura_quema":88,"pct_basura_informal":25,"pct_internet":50,"pct_celular":62,"pct_televisor":38}},{"type":"Feature","geometry":{"type":"Polygon","coordinates":[[[-69.25342,-15.53496],[-69.25272,-15.53515],[-69.25309,-15.53618],[-69.25353,-15.53552],[-69.25342,-15.53496]]]},"properties":{"n":"PUERTO ACOSTA","p":44,"personas_x_ha":62,"masculinidad":100,"pct_menor20":30,"pct_60mas":18,"pct_migrante":30,"dependencia_econ":100,"pct_empleados":14,"pct_cuentapropia":64,"pct_agricultura":23,"pct_comercio":36,"pct_manufactura":5,"pct_construccion":5,"pct_transporte":14,"pct_alojamiento":5,"pct_sin_educacion":13,"pct_educ_superior":29,"brecha_educ":-17,"pct_sin_seguro":34,"pct_sus":64,"pct_seguro_privado":0,"brecha_seguro":14,"pct_salud_publica":31,"pct_med_tradicional":9,"pct_automedicacion":18,"pct_remedios_caseros":29,"pct_viv_desocupada":13,"pct_alquiler":11,"pct_electricidad":94,"pct_sin_electricidad":6,"pct_agua_red":89,"pct_alcantarillado":83,"pct_camara_septica":0,"pct_pozo_ciego":0,"pct_sin_desague":17,"pct_gas_red":0,"pct_gas_garrafa":100,"pct_lena_guano":100,"pct_basura_formal":100,"pct_basura_quema":0,"pct_basura_informal":0,"pct_internet":78,"pct_celular":94,"pct_televisor":67}},{"type":"Feature","geometry":{"type":"Polygon","coordinates":[[[-69.25545,-15.53259],[-69.25482,-15.53247],[-69.25518,-15.53149],[-69.25394,-15.53155],[-69.25394,-15.5318],[-69.25421,-15.53179],[-69.25394,-15.53182],[-69.25394,-15.53199],[-69.25401,-15.5323],[-69.25419,-15.53253],[-69.25432,-15.5325],[-69.25419,-15.53254],[-69.25426,-15.53299],[-69.25545,-15.53259]]]},"properties":{"n":"PUERTO ACOSTA","p":23,"personas_x_ha":14,"masculinidad":229,"pct_menor20":30,"pct_60mas":17,"pct_migrante":22,"dependencia_econ":38,"pct_empleados":12,"pct_cuentapropia":75,"pct_agricultura":62,"pct_comercio":6,"pct_manufactura":0,"pct_construccion":12,"pct_transporte":6,"pct_alojamiento":0,"pct_sin_educacion":0,"pct_educ_superior":13,"brecha_educ":0,"pct_sin_seguro":35,"pct_sus":65,"pct_seguro_privado":0,"brecha_seguro":32,"pct_salud_publica":24,"pct_med_tradicional":20,"pct_automedicacion":20,"pct_remedios_caseros":26,"pct_viv_desocupada":5,"pct_alquiler":8,"pct_electricidad":85,"pct_sin_electricidad":15,"pct_agua_red":92,"pct_alcantarillado":38,"pct_camara_septica":0,"pct_pozo_ciego":15,"pct_sin_desague":46,"pct_gas_red":0,"pct_gas_garrafa":77,"pct_lena_guano":77,"pct_basura_formal":92,"pct_basura_quema":8,"pct_basura_informal":0,"pct_internet":69,"pct_celular":100,"pct_televisor":62}},{"type":"Feature","geometry":{"type":"Polygon","coordinates":[[[-69.25302,-15.53633],[-69.25303,-15.53692],[-69.25284,-15.5382],[-69.25231,-15.53655],[-69.25243,-15.53637],[-69.25302,-15.53633]]]},"properties":{"n":"PUERTO ACOSTA","p":25,"personas_x_ha":26,"masculinidad":56,"pct_menor20":36,"pct_60mas":12,"pct_migrante":20,"dependencia_econ":60,"pct_empleados":7,"pct_cuentapropia":80,"pct_agricultura":27,"pct_comercio":27,"pct_manufactura":7,"pct_construccion":13,"pct_transporte":20,"pct_alojamiento":0,"pct_sin_educacion":0,"pct_educ_superior":25,"brecha_educ":-23,"pct_sin_seguro":35,"pct_sus":65,"pct_seguro_privado":0,"brecha_seguro":-2,"pct_salud_publica":30,"pct_med_tradicional":21,"pct_automedicacion":12,"pct_remedios_caseros":27,"pct_viv_desocupada":25,"pct_alquiler":0,"pct_electricidad":50,"pct_sin_electricidad":50,"pct_agua_red":92,"pct_alcantarillado":50,"pct_camara_septica":0,"pct_pozo_ciego":8,"pct_sin_desague":42,"pct_gas_red":0,"pct_gas_garrafa":83,"pct_lena_guano":83,"pct_basura_formal":25,"pct_basura_quema":25,"pct_basura_informal":100,"pct_internet":33,"pct_celular":50,"pct_televisor":42}},{"type":"Feature","geometry":{"type":"Polygon","coordinates":[[[-69.25306,-15.53339],[-69.25327,-15.53412],[-69.25364,-15.534],[-69.25359,-15.53373],[-69.25373,-15.53319],[-69.25306,-15.53339]]]},"properties":{"n":"PUERTO ACOSTA","p":32,"personas_x_ha":68,"masculinidad":45,"pct_menor20":34,"pct_60mas":12,"pct_migrante":28,"dependencia_econ":100,"pct_empleados":25,"pct_cuentapropia":56,"pct_agricultura":12,"pct_comercio":12,"pct_manufactura":19,"pct_construccion":0,"pct_transporte":6,"pct_alojamiento":6,"pct_sin_educacion":5,"pct_educ_superior":36,"brecha_educ":-13,"pct_sin_seguro":9,"pct_sus":62,"pct_seguro_privado":0,"brecha_seguro":1,"pct_salud_publica":25,"pct_med_tradicional":17,"pct_automedicacion":17,"pct_remedios_caseros":23,"pct_viv_desocupada":0,"pct_alquiler":0,"pct_electricidad":100,"pct_sin_electricidad":0,"pct_agua_red":86,"pct_alcantarillado":79,"pct_camara_septica":0,"pct_pozo_ciego":0,"pct_sin_desague":7,"pct_gas_red":0,"pct_gas_garrafa":100,"pct_lena_guano":100,"pct_basura_formal":100,"pct_basura_quema":0,"pct_basura_informal":0,"pct_internet":86,"pct_celular":93,"pct_televisor":86}},{"type":"Feature","geometry":{"type":"Polygon","coordinates":[[[-69.25371,-15.53314],[-69.25364,-15.53252],[-69.25344,-15.53194],[-69.2532,-15.53235],[-69.2528,-15.5326],[-69.253,-15.53334],[-69.25371,-15.53314]]]},"properties":{"n":"PUERTO ACOSTA","p":31,"personas_x_ha":36,"masculinidad":55,"pct_menor20":13,"pct_60mas":42,"pct_migrante":39,"dependencia_econ":35,"pct_empleados":17,"pct_cuentapropia":70,"pct_agricultura":13,"pct_comercio":30,"pct_manufactura":4,"pct_construccion":0,"pct_transporte":9,"pct_alojamiento":4,"pct_sin_educacion":7,"pct_educ_superior":48,"brecha_educ":-29,"pct_sin_seguro":13,"pct_sus":52,"pct_seguro_privado":0,"brecha_seguro":22,"pct_salud_publica":25,"pct_med_tradicional":8,"pct_automedicacion":16,"pct_remedios_caseros":23,"pct_viv_desocupada":6,"pct_alquiler":0,"pct_electricidad":88,"pct_sin_electricidad":12,"pct_agua_red":100,"pct_alcantarillado":56,"pct_camara_septica":6,"pct_pozo_ciego":12,"pct_sin_desague":19,"pct_gas_red":0,"pct_gas_garrafa":94,"pct_lena_guano":94,"pct_basura_formal":94,"pct_basura_quema":0,"pct_basura_informal":0,"pct_internet":88,"pct_celular":100,"pct_televisor":88}},{"type":"Feature","geometry":{"type":"Polygon","coordinates":[[[-69.25531,-15.53367],[-69.25514,-15.53333],[-69.25401,-15.53357],[-69.2541,-15.53388],[-69.25474,-15.53371],[-69.25531,-15.53367]]]},"properties":{"n":"PUERTO ACOSTA","p":16,"personas_x_ha":37,"masculinidad":129,"pct_menor20":44,"pct_60mas":12,"pct_migrante":31,"dependencia_econ":100,"pct_empleados":12,"pct_cuentapropia":75,"pct_agricultura":25,"pct_comercio":25,"pct_manufactura":0,"pct_construccion":12,"pct_transporte":0,"pct_alojamiento":12,"pct_sin_educacion":11,"pct_educ_superior":11,"brecha_educ":0,"pct_sin_seguro":7,"pct_sus":93,"pct_seguro_privado":0,"brecha_seguro":-17,"pct_salud_publica":26,"pct_med_tradicional":26,"pct_automedicacion":21,"pct_remedios_caseros":28,"pct_viv_desocupada":18,"pct_alquiler":12,"pct_electricidad":88,"pct_sin_electricidad":12,"pct_agua_red":100,"pct_alcantarillado":25,"pct_camara_septica":0,"pct_pozo_ciego":0,"pct_sin_desague":75,"pct_gas_red":0,"pct_gas_garrafa":100,"pct_lena_guano":100,"pct_basura_formal":100,"pct_basura_quema":0,"pct_basura_informal":0,"pct_internet":62,"pct_celular":88,"pct_televisor":50}},{"type":"Feature","geometry":{"type":"Polygon","coordinates":[[[-69.25146,-15.53127],[-69.2511,-15.53016],[-69.25029,-15.53047],[-69.25084,-15.53146],[-69.25146,-15.53127]]]},"properties":{"n":"PUERTO ACOSTA","p":22,"personas_x_ha":21,"masculinidad":69,"pct_menor20":23,"pct_60mas":36,"pct_migrante":36,"dependencia_econ":100,"pct_empleados":18,"pct_cuentapropia":73,"pct_agricultura":9,"pct_comercio":55,"pct_manufactura":0,"pct_construccion":0,"pct_transporte":9,"pct_alojamiento":9,"pct_sin_educacion":29,"pct_educ_superior":12,"brecha_educ":-46,"pct_sin_seguro":14,"pct_sus":86,"pct_seguro_privado":0,"brecha_seguro":-4,"pct_salud_publica":30,"pct_med_tradicional":7,"pct_automedicacion":9,"pct_remedios_caseros":33,"pct_viv_desocupada":7,"pct_alquiler":0,"pct_electricidad":82,"pct_sin_electricidad":18,"pct_agua_red":76,"pct_alcantarillado":71,"pct_camara_septica":0,"pct_pozo_ciego":6,"pct_sin_desague":24,"pct_gas_red":0,"pct_gas_garrafa":88,"pct_lena_guano":94,"pct_basura_formal":59,"pct_basura_quema":35,"pct_basura_informal":0,"pct_internet":53,"pct_celular":88,"pct_televisor":41}},{"type":"Feature","geometry":{"type":"Polygon","coordinates":[[[-69.25179,-15.5338],[-69.25143,-15.53391],[-69.25167,-15.53462],[-69.25203,-15.5345],[-69.25179,-15.5338]]]},"properties":{"n":"PUERTO ACOSTA","p":46,"personas_x_ha":128,"masculinidad":84,"pct_menor20":17,"pct_60mas":26,"pct_migrante":33,"dependencia_econ":53,"pct_empleados":17,"pct_cuentapropia":60,"pct_agricultura":7,"pct_comercio":37,"pct_manufactura":3,"pct_construccion":0,"pct_transporte":10,"pct_alojamiento":7,"pct_sin_educacion":3,"pct_educ_superior":41,"brecha_educ":-30,"pct_sin_seguro":26,"pct_sus":52,"pct_seguro_privado":2,"brecha_seguro":-13,"pct_salud_publica":27,"pct_med_tradicional":8,"pct_automedicacion":17,"pct_remedios_caseros":29,"pct_viv_desocupada":6,"pct_alquiler":8,"pct_electricidad":92,"pct_sin_electricidad":4,"pct_agua_red":67,"pct_alcantarillado":67,"pct_camara_septica":8,"pct_pozo_ciego":0,"pct_sin_desague":21,"pct_gas_red":0,"pct_gas_garrafa":96,"pct_lena_guano":96,"pct_basura_formal":96,"pct_basura_quema":0,"pct_basura_informal":8,"pct_internet":46,"pct_celular":96,"pct_televisor":79}},{"type":"Feature","geometry":{"type":"Polygon","coordinates":[[[-69.24933,-15.53235],[-69.2491,-15.53187],[-69.2489,-15.53189],[-69.24886,-15.5316],[-69.24832,-15.53172],[-69.24749,-15.53164],[-69.24756,-15.53189],[-69.248,-15.53183],[-69.24803,-15.53273],[-69.24858,-15.53306],[-69.24859,-15.53287],[-69.24897,-15.53294],[-69.24916,-15.5327],[-69.24923,-15.53275],[-69.24945,-15.53265],[-69.24936,-15.53242],[-69.24864,-15.5323],[-69.24933,-15.53235]]]},"properties":{"n":"PUERTO ACOSTA","p":57,"personas_x_ha":32,"masculinidad":84,"pct_menor20":26,"pct_60mas":25,"pct_migrante":23,"dependencia_econ":34,"pct_empleados":12,"pct_cuentapropia":73,"pct_agricultura":34,"pct_comercio":34,"pct_manufactura":10,"pct_construccion":5,"pct_transporte":7,"pct_alojamiento":5,"pct_sin_educacion":2,"pct_educ_superior":21,"brecha_educ":-40,"pct_sin_seguro":22,"pct_sus":71,"pct_seguro_privado":0,"brecha_seguro":7,"pct_salud_publica":26,"pct_med_tradicional":14,"pct_automedicacion":20,"pct_remedios_caseros":26,"pct_viv_desocupada":11,"pct_alquiler":3,"pct_electricidad":88,"pct_sin_electricidad":12,"pct_agua_red":91,"pct_alcantarillado":64,"pct_camara_septica":0,"pct_pozo_ciego":6,"pct_sin_desague":30,"pct_gas_red":0,"pct_gas_garrafa":88,"pct_lena_guano":88,"pct_basura_formal":52,"pct_basura_quema":24,"pct_basura_informal":30,"pct_internet":36,"pct_celular":88,"pct_televisor":70}},{"type":"Feature","geometry":{"type":"Polygon","coordinates":[[[-69.25146,-15.53131],[-69.25089,-15.53155],[-69.25117,-15.53208],[-69.25118,-15.53254],[-69.25181,-15.53244],[-69.25146,-15.53131]]]},"properties":{"n":"PUERTO ACOSTA","p":29,"personas_x_ha":38,"masculinidad":107,"pct_menor20":34,"pct_60mas":14,"pct_migrante":28,"dependencia_econ":71,"pct_empleados":12,"pct_cuentapropia":76,"pct_agricultura":41,"pct_comercio":18,"pct_manufactura":0,"pct_construccion":6,"pct_transporte":12,"pct_alojamiento":0,"pct_sin_educacion":5,"pct_educ_superior":11,"brecha_educ":-33,"pct_sin_seguro":32,"pct_sus":68,"pct_seguro_privado":0,"brecha_seguro":21,"pct_salud_publica":28,"pct_med_tradicional":22,"pct_automedicacion":18,"pct_remedios_caseros":20,"pct_viv_desocupada":0,"pct_alquiler":0,"pct_electricidad":100,"pct_sin_electricidad":0,"pct_agua_red":92,"pct_alcantarillado":67,"pct_camara_septica":0,"pct_pozo_ciego":8,"pct_sin_desague":25,"pct_gas_red":0,"pct_gas_garrafa":100,"pct_lena_guano":100,"pct_basura_formal":58,"pct_basura_quema":0,"pct_basura_informal":50,"pct_internet":75,"pct_celular":92,"pct_televisor":75}},{"type":"Feature","geometry":{"type":"Polygon","coordinates":[[[-69.25198,-15.53531],[-69.25264,-15.53511],[-69.25257,-15.53488],[-69.25197,-15.53519],[-69.25198,-15.53531]]]},"properties":{"n":"PUERTO ACOSTA","p":17,"personas_x_ha":110,"masculinidad":89,"pct_menor20":24,"pct_60mas":24,"pct_migrante":24,"dependencia_econ":143,"pct_empleados":0,"pct_cuentapropia":100,"pct_agricultura":43,"pct_comercio":57,"pct_manufactura":0,"pct_construccion":0,"pct_transporte":0,"pct_alojamiento":0,"pct_sin_educacion":15,"pct_educ_superior":15,"brecha_educ":-26,"pct_sin_seguro":6,"pct_sus":94,"pct_seguro_privado":0,"brecha_seguro":-11,"pct_salud_publica":34,"pct_med_tradicional":10,"pct_automedicacion":7,"pct_remedios_caseros":34,"pct_viv_desocupada":0,"pct_alquiler":0,"pct_electricidad":90,"pct_sin_electricidad":10,"pct_agua_red":40,"pct_alcantarillado":100,"pct_camara_septica":0,"pct_pozo_ciego":0,"pct_sin_desague":0,"pct_gas_red":0,"pct_gas_garrafa":100,"pct_lena_guano":100,"pct_basura_formal":80,"pct_basura_quema":10,"pct_basura_informal":20,"pct_internet":70,"pct_celular":70,"pct_televisor":40}},{"type":"Feature","geometry":{"type":"Polygon","coordinates":[[[-69.25157,-15.53464],[-69.25147,-15.53437],[-69.25119,-15.53444],[-69.25106,-15.53399],[-69.25058,-15.53412],[-69.25067,-15.53443],[-69.25089,-15.53437],[-69.25067,-15.53444],[-69.25082,-15.53487],[-69.25157,-15.53464]]]},"properties":{"n":"PUERTO ACOSTA","p":29,"personas_x_ha":51,"masculinidad":81,"pct_menor20":38,"pct_60mas":21,"pct_migrante":45,"dependencia_econ":61,"pct_empleados":33,"pct_cuentapropia":39,"pct_agricultura":11,"pct_comercio":11,"pct_manufactura":17,"pct_construccion":22,"pct_transporte":22,"pct_alojamiento":11,"pct_sin_educacion":0,"pct_educ_superior":28,"brecha_educ":-33,"pct_sin_seguro":28,"pct_sus":62,"pct_seguro_privado":0,"brecha_seguro":20,"pct_salud_publica":24,"pct_med_tradicional":15,"pct_automedicacion":18,"pct_remedios_caseros":28,"pct_viv_desocupada":6,"pct_alquiler":7,"pct_electricidad":100,"pct_sin_electricidad":0,"pct_agua_red":100,"pct_alcantarillado":86,"pct_camara_septica":0,"pct_pozo_ciego":0,"pct_sin_desague":14,"pct_gas_red":0,"pct_gas_garrafa":93,"pct_lena_guano":93,"pct_basura_formal":93,"pct_basura_quema":7,"pct_basura_informal":0,"pct_internet":79,"pct_celular":93,"pct_televisor":64}},{"type":"Feature","geometry":{"type":"Polygon","coordinates":[[[-69.2539,-15.53776],[-69.2539,-15.53743],[-69.25425,-15.53752],[-69.25421,-15.53738],[-69.25366,-15.53699],[-69.25366,-15.53682],[-69.25342,-15.53672],[-69.25333,-15.53639],[-69.25317,-15.53622],[-69.25314,-15.5371],[-69.2529,-15.5385],[-69.25315,-15.53888],[-69.25357,-15.53925],[-69.25371,-15.53912],[-69.25371,-15.53896],[-69.25345,-15.53881],[-69.25369,-15.53863],[-69.25358,-15.53845],[-69.25383,-15.53821],[-69.25379,-15.53778],[-69.2539,-15.53776]]]},"properties":{"n":"PUERTO ACOSTA","p":26,"personas_x_ha":12,"masculinidad":53,"pct_menor20":19,"pct_60mas":15,"pct_migrante":35,"dependencia_econ":100,"pct_empleados":8,"pct_cuentapropia":69,"pct_agricultura":54,"pct_comercio":23,"pct_manufactura":8,"pct_construccion":0,"pct_transporte":8,"pct_alojamiento":0,"pct_sin_educacion":5,"pct_educ_superior":5,"brecha_educ":7,"pct_sin_seguro":46,"pct_sus":54,"pct_seguro_privado":0,"brecha_seguro":14,"pct_salud_publica":44,"pct_med_tradicional":15,"pct_automedicacion":15,"pct_remedios_caseros":22,"pct_viv_desocupada":17,"pct_alquiler":0,"pct_electricidad":94,"pct_sin_electricidad":6,"pct_agua_red":81,"pct_alcantarillado":56,"pct_camara_septica":0,"pct_pozo_ciego":0,"pct_sin_desague":44,"pct_gas_red":0,"pct_gas_garrafa":81,"pct_lena_guano":81,"pct_basura_formal":75,"pct_basura_quema":12,"pct_basura_informal":25,"pct_internet":44,"pct_celular":62,"pct_televisor":69}},{"type":"Feature","geometry":{"type":"Polygon","coordinates":[[[-69.24961,-15.53716],[-69.2506,-15.53668],[-69.24992,-15.53575],[-69.24925,-15.5363],[-69.24945,-15.53647],[-69.24926,-15.53665],[-69.24968,-15.53701],[-69.24961,-15.53716]]]},"properties":{"n":"PUERTO ACOSTA","p":30,"personas_x_ha":25,"masculinidad":150,"pct_menor20":40,"pct_60mas":7,"pct_migrante":3,"dependencia_econ":58,"pct_empleados":11,"pct_cuentapropia":63,"pct_agricultura":37,"pct_comercio":21,"pct_manufactura":11,"pct_construccion":5,"pct_transporte":16,"pct_alojamiento":0,"pct_sin_educacion":0,"pct_educ_superior":28,"brecha_educ":8,"pct_sin_seguro":43,"pct_sus":53,"pct_seguro_privado":3,"brecha_seguro":17,"pct_salud_publica":25,"pct_med_tradicional":24,"pct_automedicacion":16,"pct_remedios_caseros":25,"pct_viv_desocupada":5,"pct_alquiler":0,"pct_electricidad":100,"pct_sin_electricidad":0,"pct_agua_red":71,"pct_alcantarillado":29,"pct_camara_septica":7,"pct_pozo_ciego":21,"pct_sin_desague":29,"pct_gas_red":0,"pct_gas_garrafa":86,"pct_lena_guano":86,"pct_basura_formal":71,"pct_basura_quema":29,"pct_basura_informal":0,"pct_internet":50,"pct_celular":71,"pct_televisor":71}},{"type":"Feature","geometry":{"type":"Polygon","coordinates":[[[-69.25318,-15.5314],[-69.2528,-15.53135],[-69.25237,-15.53083],[-69.25254,-15.53075],[-69.25241,-15.53036],[-69.25229,-15.53023],[-69.25219,-15.53027],[-69.25203,-15.52996],[-69.25189,-15.52989],[-69.25201,-15.52959],[-69.25188,-15.5295],[-69.25126,-15.52927],[-69.2512,-15.52971],[-69.25107,-15.52969],[-69.25104,-15.52981],[-69.25067,-15.52976],[-69.25063,-15.52987],[-69.25114,-15.53003],[-69.25119,-15.52982],[-69.25116,-15.53002],[-69.25151,-15.52999],[-69.25154,-15.52982],[-69.25167,-15.5298],[-69.25182,-15.52985],[-69.25155,-15.52982],[-69.25152,-15.53],[-69.25188,-15.5302],[-69.25194,-15.53037],[-69.25158,-15.53008],[-69.25115,-15.53013],[-69.25149,-15.53125],[-69.25188,-15.53114],[-69.25177,-15.53074],[-69.25215,-15.53191],[-69.25309,-15.53171],[-69.25318,-15.5314]]]},"properties":{"n":"PUERTO ACOSTA","p":51,"personas_x_ha":17,"masculinidad":96,"pct_menor20":22,"pct_60mas":27,"pct_migrante":24,"dependencia_econ":44,"pct_empleados":9,"pct_cuentapropia":74,"pct_agricultura":41,"pct_comercio":18,"pct_manufactura":3,"pct_construccion":3,"pct_transporte":29,"pct_alojamiento":3,"pct_sin_educacion":8,"pct_educ_superior":13,"brecha_educ":-25,"pct_sin_seguro":33,"pct_sus":65,"pct_seguro_privado":0,"brecha_seguro":8,"pct_salud_publica":16,"pct_med_tradicional":22,"pct_automedicacion":19,"pct_remedios_caseros":25,"pct_viv_desocupada":24,"pct_alquiler":4,"pct_electricidad":74,"pct_sin_electricidad":26,"pct_agua_red":81,"pct_alcantarillado":59,"pct_camara_septica":0,"pct_pozo_ciego":0,"pct_sin_desague":41,"pct_gas_red":0,"pct_gas_garrafa":78,"pct_lena_guano":78,"pct_basura_formal":52,"pct_basura_quema":41,"pct_basura_informal":15,"pct_internet":48,"pct_celular":85,"pct_televisor":59}},{"type":"Feature","geometry":{"type":"Polygon","coordinates":[[[-69.25162,-15.5347],[-69.25083,-15.53493],[-69.25108,-15.53557],[-69.25149,-15.53619],[-69.25202,-15.53597],[-69.25162,-15.5347]]]},"properties":{"n":"PUERTO ACOSTA","p":38,"personas_x_ha":32,"masculinidad":90,"pct_menor20":29,"pct_60mas":16,"pct_migrante":26,"dependencia_econ":81,"pct_empleados":33,"pct_cuentapropia":52,"pct_agricultura":24,"pct_comercio":29,"pct_manufactura":0,"pct_construccion":5,"pct_transporte":19,"pct_alojamiento":0,"pct_sin_educacion":4,"pct_educ_superior":19,"brecha_educ":-9,"pct_sin_seguro":26,"pct_sus":63,"pct_seguro_privado":0,"brecha_seguro":13,"pct_salud_publica":20,"pct_med_tradicional":15,"pct_automedicacion":17,"pct_remedios_caseros":27,"pct_viv_desocupada":12,"pct_alquiler":5,"pct_electricidad":95,"pct_sin_electricidad":5,"pct_agua_red":95,"pct_alcantarillado":68,"pct_camara_septica":0,"pct_pozo_ciego":0,"pct_sin_desague":26,"pct_gas_red":0,"pct_gas_garrafa":89,"pct_lena_guano":89,"pct_basura_formal":89,"pct_basura_quema":11,"pct_basura_informal":0,"pct_internet":68,"pct_celular":95,"pct_televisor":68}},{"type":"Feature","geometry":{"type":"Polygon","coordinates":[[[-69.24858,-15.53334],[-69.24858,-15.53317],[-69.24805,-15.53288],[-69.24806,-15.53332],[-69.24858,-15.53334]]]},"properties":{"n":"PUERTO ACOSTA","p":25,"personas_x_ha":124,"masculinidad":108,"pct_menor20":32,"pct_60mas":16,"pct_migrante":32,"dependencia_econ":67,"pct_empleados":7,"pct_cuentapropia":80,"pct_agricultura":47,"pct_comercio":33,"pct_manufactura":7,"pct_construccion":7,"pct_transporte":7,"pct_alojamiento":0,"pct_sin_educacion":0,"pct_educ_superior":12,"brecha_educ":-54,"pct_sin_seguro":36,"pct_sus":48,"pct_seguro_privado":0,"brecha_seguro":-11,"pct_salud_publica":23,"pct_med_tradicional":20,"pct_automedicacion":19,"pct_remedios_caseros":24,"pct_viv_desocupada":0,"pct_alquiler":8,"pct_electricidad":85,"pct_sin_electricidad":15,"pct_agua_red":62,"pct_alcantarillado":46,"pct_camara_septica":0,"pct_pozo_ciego":23,"pct_sin_desague":15,"pct_gas_red":0,"pct_gas_garrafa":92,"pct_lena_guano":92,"pct_basura_formal":62,"pct_basura_quema":0,"pct_basura_informal":15,"pct_internet":69,"pct_celular":92,"pct_televisor":38}},{"type":"Feature","geometry":{"type":"Polygon","coordinates":[[[-69.24811,-15.53404],[-69.24872,-15.53393],[-69.24867,-15.53347],[-69.24812,-15.53342],[-69.24797,-15.53384],[-69.24809,-15.53342],[-69.24623,-15.53316],[-69.24613,-15.53361],[-69.24626,-15.53376],[-69.24651,-15.53343],[-69.24683,-15.53363],[-69.24735,-15.53351],[-69.24736,-15.5337],[-69.24767,-15.53405],[-69.24762,-15.53414],[-69.24819,-15.53449],[-69.24801,-15.53482],[-69.24839,-15.53518],[-69.24846,-15.53509],[-69.24832,-15.53491],[-69.24841,-15.53498],[-69.2486,-15.53481],[-69.24848,-15.53471],[-69.24869,-15.53446],[-69.24883,-15.53476],[-69.24901,-15.53466],[-69.24873,-15.53395],[-69.24811,-15.53404]]]},"properties":{"n":"PUERTO ACOSTA","p":77,"personas_x_ha":34,"masculinidad":141,"pct_menor20":29,"pct_60mas":18,"pct_migrante":14,"dependencia_econ":133,"pct_empleados":18,"pct_cuentapropia":61,"pct_agricultura":33,"pct_comercio":15,"pct_manufactura":3,"pct_construccion":3,"pct_transporte":18,"pct_alojamiento":0,"pct_sin_educacion":7,"pct_educ_superior":18,"brecha_educ":-23,"pct_sin_seguro":14,"pct_sus":78,"pct_seguro_privado":0,"brecha_seguro":12,"pct_salud_publica":30,"pct_med_tradicional":21,"pct_automedicacion":14,"pct_remedios_caseros":22,"pct_viv_desocupada":5,"pct_alquiler":3,"pct_electricidad":97,"pct_sin_electricidad":3,"pct_agua_red":91,"pct_alcantarillado":66,"pct_camara_septica":0,"pct_pozo_ciego":9,"pct_sin_desague":20,"pct_gas_red":0,"pct_gas_garrafa":97,"pct_lena_guano":97,"pct_basura_formal":91,"pct_basura_quema":6,"pct_basura_informal":6,"pct_internet":31,"pct_celular":63,"pct_televisor":69}},{"type":"Feature","geometry":{"type":"Polygon","coordinates":[[[-69.25218,-15.5336],[-69.25195,-15.53291],[-69.25119,-15.53313],[-69.25143,-15.53384],[-69.25218,-15.5336]]]},"properties":{"n":"PUERTO ACOSTA","p":42,"personas_x_ha":59,"masculinidad":68,"pct_menor20":29,"pct_60mas":29,"pct_migrante":31,"dependencia_econ":35,"pct_empleados":16,"pct_cuentapropia":77,"pct_agricultura":6,"pct_comercio":52,"pct_manufactura":0,"pct_construccion":10,"pct_transporte":19,"pct_alojamiento":3,"pct_sin_educacion":13,"pct_educ_superior":17,"brecha_educ":-22,"pct_sin_seguro":20,"pct_sus":73,"pct_seguro_privado":0,"brecha_seguro":27,"pct_salud_publica":40,"pct_med_tradicional":5,"pct_automedicacion":22,"pct_remedios_caseros":24,"pct_viv_desocupada":9,"pct_alquiler":13,"pct_electricidad":96,"pct_sin_electricidad":4,"pct_agua_red":100,"pct_alcantarillado":78,"pct_camara_septica":0,"pct_pozo_ciego":4,"pct_sin_desague":17,"pct_gas_red":0,"pct_gas_garrafa":100,"pct_lena_guano":100,"pct_basura_formal":100,"pct_basura_quema":0,"pct_basura_informal":0,"pct_internet":48,"pct_celular":87,"pct_televisor":70}},{"type":"Feature","geometry":{"type":"Polygon","coordinates":[[[-69.25412,-15.53477],[-69.25349,-15.53493],[-69.25357,-15.53544],[-69.25388,-15.5353],[-69.25412,-15.53477]]]},"properties":{"n":"PUERTO ACOSTA","p":18,"personas_x_ha":61,"masculinidad":100,"pct_menor20":33,"pct_60mas":33,"pct_migrante":39,"dependencia_econ":125,"pct_empleados":12,"pct_cuentapropia":50,"pct_agricultura":25,"pct_comercio":0,"pct_manufactura":0,"pct_construccion":12,"pct_transporte":38,"pct_alojamiento":0,"pct_sin_educacion":0,"pct_educ_superior":15,"brecha_educ":-67,"pct_sin_seguro":41,"pct_sus":53,"pct_seguro_privado":0,"brecha_seguro":7,"pct_salud_publica":20,"pct_med_tradicional":21,"pct_automedicacion":18,"pct_remedios_caseros":25,"pct_viv_desocupada":0,"pct_alquiler":0,"pct_electricidad":100,"pct_sin_electricidad":0,"pct_agua_red":100,"pct_alcantarillado":100,"pct_camara_septica":0,"pct_pozo_ciego":0,"pct_sin_desague":0,"pct_gas_red":0,"pct_gas_garrafa":88,"pct_lena_guano":88,"pct_basura_formal":88,"pct_basura_quema":0,"pct_basura_informal":25,"pct_internet":50,"pct_celular":88,"pct_televisor":88}},{"type":"Feature","geometry":{"type":"Polygon","coordinates":[[[-69.11262,-15.5299],[-69.11223,-15.53052],[-69.11257,-15.53069],[-69.11293,-15.53006],[-69.11262,-15.5299]]]},"properties":{"n":"TAYPI CHIÑAYA","p":16,"personas_x_ha":50,"masculinidad":129,"pct_menor20":31,"pct_60mas":6,"pct_migrante":25,"dependencia_econ":60,"pct_empleados":0,"pct_cuentapropia":60,"pct_agricultura":80,"pct_comercio":0,"pct_manufactura":0,"pct_construccion":20,"pct_transporte":0,"pct_alojamiento":0,"pct_sin_educacion":9,"pct_educ_superior":0,"brecha_educ":-30,"pct_sin_seguro":31,"pct_sus":69,"pct_seguro_privado":0,"brecha_seguro":5,"pct_salud_publica":25,"pct_med_tradicional":28,"pct_automedicacion":12,"pct_remedios_caseros":31,"pct_viv_desocupada":0,"pct_alquiler":0,"pct_electricidad":38,"pct_sin_electricidad":62,"pct_agua_red":38,"pct_alcantarillado":0,"pct_camara_septica":0,"pct_pozo_ciego":25,"pct_sin_desague":75,"pct_gas_red":0,"pct_gas_garrafa":50,"pct_lena_guano":50,"pct_basura_formal":12,"pct_basura_quema":50,"pct_basura_informal":25,"pct_internet":25,"pct_celular":62,"pct_televisor":12}},{"type":"Feature","geometry":{"type":"Polygon","coordinates":[[[-69.1121,-15.53057],[-69.11144,-15.53022],[-69.11129,-15.53046],[-69.11147,-15.53055],[-69.11151,-15.53047],[-69.11199,-15.53077],[-69.1121,-15.53057]]]},"properties":{"n":"TAYPI CHIÑAYA","p":20,"personas_x_ha":97,"masculinidad":150,"pct_menor20":40,"pct_60mas":15,"pct_migrante":0,"dependencia_econ":82,"pct_empleados":9,"pct_cuentapropia":45,"pct_agricultura":45,"pct_comercio":18,"pct_manufactura":0,"pct_construccion":18,"pct_transporte":9,"pct_alojamiento":9,"pct_sin_educacion":0,"pct_educ_superior":0,"brecha_educ":17,"pct_sin_seguro":35,"pct_sus":65,"pct_seguro_privado":0,"brecha_seguro":-4,"pct_salud_publica":49,"pct_med_tradicional":0,"pct_automedicacion":0,"pct_remedios_caseros":51,"pct_viv_desocupada":23,"pct_alquiler":0,"pct_electricidad":71,"pct_sin_electricidad":29,"pct_agua_red":86,"pct_alcantarillado":0,"pct_camara_septica":0,"pct_pozo_ciego":14,"pct_sin_desague":86,"pct_gas_red":0,"pct_gas_garrafa":57,"pct_lena_guano":57,"pct_basura_formal":0,"pct_basura_quema":71,"pct_basura_informal":29,"pct_internet":0,"pct_celular":71,"pct_televisor":0}},{"type":"Feature","geometry":{"type":"Polygon","coordinates":[[[-69.11265,-15.52931],[-69.11293,-15.52883],[-69.11248,-15.52845],[-69.11213,-15.52905],[-69.11265,-15.52931]]]},"properties":{"n":"TAYPI CHIÑAYA","p":16,"personas_x_ha":37,"masculinidad":100,"pct_menor20":44,"pct_60mas":12,"pct_migrante":62,"dependencia_econ":60,"pct_empleados":10,"pct_cuentapropia":90,"pct_agricultura":30,"pct_comercio":30,"pct_manufactura":20,"pct_construccion":0,"pct_transporte":0,"pct_alojamiento":10,"pct_sin_educacion":10,"pct_educ_superior":10,"brecha_educ":-20,"pct_sin_seguro":0,"pct_sus":100,"pct_seguro_privado":0,"brecha_seguro":0,"pct_salud_publica":32,"pct_med_tradicional":8,"pct_automedicacion":26,"pct_remedios_caseros":18,"pct_viv_desocupada":0,"pct_alquiler":0,"pct_electricidad":100,"pct_sin_electricidad":0,"pct_agua_red":75,"pct_alcantarillado":0,"pct_camara_septica":0,"pct_pozo_ciego":25,"pct_sin_desague":75,"pct_gas_red":0,"pct_gas_garrafa":100,"pct_lena_guano":100,"pct_basura_formal":0,"pct_basura_quema":75,"pct_basura_informal":0,"pct_internet":50,"pct_celular":100,"pct_televisor":25}},{"type":"Feature","geometry":{"type":"Polygon","coordinates":[[[-69.1121,-15.52913],[-69.11193,-15.52945],[-69.11259,-15.52976],[-69.11276,-15.52946],[-69.1121,-15.52913]]]},"properties":{"n":"TAYPI CHIÑAYA","p":15,"personas_x_ha":46,"masculinidad":36,"pct_menor20":33,"pct_60mas":20,"pct_migrante":7,"dependencia_econ":88,"pct_empleados":0,"pct_cuentapropia":38,"pct_agricultura":100,"pct_comercio":0,"pct_manufactura":0,"pct_construccion":0,"pct_transporte":0,"pct_alojamiento":0,"pct_sin_educacion":10,"pct_educ_superior":0,"brecha_educ":8,"pct_sin_seguro":0,"pct_sus":100,"pct_seguro_privado":0,"brecha_seguro":0,"pct_salud_publica":83,"pct_med_tradicional":11,"pct_automedicacion":0,"pct_remedios_caseros":6,"pct_viv_desocupada":29,"pct_alquiler":0,"pct_electricidad":67,"pct_sin_electricidad":33,"pct_agua_red":83,"pct_alcantarillado":0,"pct_camara_septica":0,"pct_pozo_ciego":0,"pct_sin_desague":100,"pct_gas_red":0,"pct_gas_garrafa":50,"pct_lena_guano":67,"pct_basura_formal":0,"pct_basura_quema":100,"pct_basura_informal":0,"pct_internet":33,"pct_celular":100,"pct_televisor":50}}]}