{"type":"FeatureCollection","features":[{"type":"Feature","geometry":{"type":"Polygon","coordinates":[[[-67.72488,-16.19408],[-67.72507,-16.19412],[-67.72511,-16.1939],[-67.72466,-16.19353],[-67.72469,-16.1934],[-67.72497,-16.19351],[-67.72556,-16.19398],[-67.72503,-16.19316],[-67.72497,-16.19138],[-67.72415,-16.19121],[-67.72394,-16.19192],[-67.72408,-16.19234],[-67.72399,-16.1933],[-67.72385,-16.19353],[-67.72379,-16.19385],[-67.72453,-16.19467],[-67.72465,-16.19417],[-67.72488,-16.19408]]]},"properties":{"n":"COROICO","p":32,"personas_x_ha":9,"masculinidad":78,"pct_menor20":28,"pct_60mas":22,"pct_migrante":59,"dependencia_econ":76,"pct_empleados":53,"pct_cuentapropia":29,"pct_agricultura":6,"pct_comercio":6,"pct_manufactura":0,"pct_construccion":0,"pct_transporte":0,"pct_alojamiento":35,"pct_sin_educacion":5,"pct_educ_superior":67,"brecha_educ":-15,"pct_sin_seguro":13,"pct_sus":77,"pct_seguro_privado":0,"brecha_seguro":4,"pct_salud_publica":31,"pct_med_tradicional":11,"pct_automedicacion":14,"pct_remedios_caseros":22,"pct_viv_desocupada":0,"pct_alquiler":58,"pct_electricidad":100,"pct_sin_electricidad":0,"pct_agua_red":100,"pct_alcantarillado":83,"pct_camara_septica":17,"pct_pozo_ciego":0,"pct_sin_desague":0,"pct_gas_red":8,"pct_gas_garrafa":83,"pct_lena_guano":8,"pct_basura_formal":75,"pct_basura_quema":8,"pct_basura_informal":0,"pct_internet":75,"pct_celular":100,"pct_televisor":75}},{"type":"Feature","geometry":{"type":"Polygon","coordinates":[[[-67.73122,-16.18679],[-67.73063,-16.18677],[-67.73024,-16.18697],[-67.72935,-16.18768],[-67.72935,-16.1882],[-67.72978,-16.1889],[-67.72912,-16.18842],[-67.72814,-16.18804],[-67.72831,-16.1876],[-67.72906,-16.1868],[-67.72918,-16.18689],[-67.72919,-16.18688],[-67.72906,-16.1868],[-67.72936,-16.18646],[-67.72967,-16.18626],[-67.73018,-16.18609],[-67.73161,-16.18587],[-67.73206,-16.18627],[-67.73211,-16.18648],[-67.73122,-16.18679]]]},"properties":{"n":"COROICO","p":80,"personas_x_ha":18,"masculinidad":95,"pct_menor20":31,"pct_60mas":31,"pct_migrante":48,"dependencia_econ":95,"pct_empleados":29,"pct_cuentapropia":59,"pct_agricultura":12,"pct_comercio":17,"pct_manufactura":10,"pct_construccion":5,"pct_transporte":7,"pct_alojamiento":17,"pct_sin_educacion":0,"pct_educ_superior":42,"brecha_educ":-10,"pct_sin_seguro":10,"pct_sus":63,"pct_seguro_privado":3,"brecha_seguro":-15,"pct_salud_publica":31,"pct_med_tradicional":13,"pct_automedicacion":19,"pct_remedios_caseros":21,"pct_viv_desocupada":6,"pct_alquiler":15,"pct_electricidad":97,"pct_sin_electricidad":3,"pct_agua_red":100,"pct_alcantarillado":72,"pct_camara_septica":10,"pct_pozo_ciego":8,"pct_sin_desague":8,"pct_gas_red":46,"pct_gas_garrafa":49,"pct_lena_guano":5,"pct_basura_formal":87,"pct_basura_quema":0,"pct_basura_informal":0,"pct_internet":72,"pct_celular":90,"pct_televisor":85}},{"type":"Feature","geometry":{"type":"Polygon","coordinates":[[[-67.72489,-16.18725],[-67.72714,-16.18681],[-67.72746,-16.18748],[-67.72605,-16.1876],[-67.72553,-16.18757],[-67.72541,-16.18767],[-67.72489,-16.18725]]]},"properties":{"n":"COROICO","p":33,"personas_x_ha":22,"masculinidad":94,"pct_menor20":39,"pct_60mas":9,"pct_migrante":39,"dependencia_econ":100,"pct_empleados":56,"pct_cuentapropia":38,"pct_agricultura":0,"pct_comercio":25,"pct_manufactura":0,"pct_construccion":12,"pct_transporte":25,"pct_alojamiento":12,"pct_sin_educacion":0,"pct_educ_superior":43,"brecha_educ":6,"pct_sin_seguro":12,"pct_sus":66,"pct_seguro_privado":0,"brecha_seguro":0,"pct_salud_publica":31,"pct_med_tradicional":7,"pct_automedicacion":24,"pct_remedios_caseros":24,"pct_viv_desocupada":0,"pct_alquiler":33,"pct_electricidad":100,"pct_sin_electricidad":0,"pct_agua_red":100,"pct_alcantarillado":33,"pct_camara_septica":0,"pct_pozo_ciego":27,"pct_sin_desague":40,"pct_gas_red":13,"pct_gas_garrafa":87,"pct_lena_guano":0,"pct_basura_formal":93,"pct_basura_quema":0,"pct_basura_informal":0,"pct_internet":87,"pct_celular":100,"pct_televisor":87}},{"type":"Feature","geometry":{"type":"Polygon","coordinates":[[[-67.72502,-16.18846],[-67.72555,-16.18764],[-67.72738,-16.18755],[-67.72767,-16.18763],[-67.72763,-16.18786],[-67.72743,-16.18785],[-67.72661,-16.18817],[-67.72634,-16.18833],[-67.72596,-16.18879],[-67.72507,-16.1893],[-67.72495,-16.18917],[-67.72454,-16.18907],[-67.72436,-16.18884],[-67.72502,-16.18846]]]},"properties":{"n":"COROICO","p":149,"personas_x_ha":55,"masculinidad":104,"pct_menor20":25,"pct_60mas":21,"pct_migrante":38,"dependencia_econ":48,"pct_empleados":32,"pct_cuentapropia":47,"pct_agricultura":12,"pct_comercio":21,"pct_manufactura":11,"pct_construccion":4,"pct_transporte":7,"pct_alojamiento":19,"pct_sin_educacion":2,"pct_educ_superior":40,"brecha_educ":-3,"pct_sin_seguro":8,"pct_sus":73,"pct_seguro_privado":1,"brecha_seguro":3,"pct_salud_publica":37,"pct_med_tradicional":9,"pct_automedicacion":19,"pct_remedios_caseros":18,"pct_viv_desocupada":6,"pct_alquiler":51,"pct_electricidad":100,"pct_sin_electricidad":0,"pct_agua_red":98,"pct_alcantarillado":93,"pct_camara_septica":3,"pct_pozo_ciego":2,"pct_sin_desague":2,"pct_gas_red":31,"pct_gas_garrafa":64,"pct_lena_guano":2,"pct_basura_formal":100,"pct_basura_quema":0,"pct_basura_informal":0,"pct_internet":80,"pct_celular":84,"pct_televisor":84}},{"type":"Feature","geometry":{"type":"Polygon","coordinates":[[[-67.72718,-16.1896],[-67.72759,-16.18921],[-67.72742,-16.18897],[-67.72697,-16.18922],[-67.72718,-16.1896]]]},"properties":{"n":"COROICO","p":43,"personas_x_ha":164,"masculinidad":87,"pct_menor20":30,"pct_60mas":9,"pct_migrante":56,"dependencia_econ":68,"pct_empleados":20,"pct_cuentapropia":64,"pct_agricultura":16,"pct_comercio":20,"pct_manufactura":12,"pct_construccion":4,"pct_transporte":4,"pct_alojamiento":16,"pct_sin_educacion":0,"pct_educ_superior":31,"brecha_educ":7,"pct_sin_seguro":21,"pct_sus":62,"pct_seguro_privado":2,"brecha_seguro":9,"pct_salud_publica":24,"pct_med_tradicional":16,"pct_automedicacion":16,"pct_remedios_caseros":25,"pct_viv_desocupada":15,"pct_alquiler":28,"pct_electricidad":100,"pct_sin_electricidad":0,"pct_agua_red":100,"pct_alcantarillado":94,"pct_camara_septica":6,"pct_pozo_ciego":0,"pct_sin_desague":0,"pct_gas_red":39,"pct_gas_garrafa":22,"pct_lena_guano":0,"pct_basura_formal":100,"pct_basura_quema":0,"pct_basura_informal":0,"pct_internet":83,"pct_celular":94,"pct_televisor":83}},{"type":"Feature","geometry":{"type":"Polygon","coordinates":[[[-67.72797,-16.19585],[-67.72775,-16.19572],[-67.72754,-16.19527],[-67.72752,-16.19486],[-67.7277,-16.19447],[-67.72765,-16.19436],[-67.72671,-16.19365],[-67.72768,-16.19222],[-67.72792,-16.19236],[-67.72772,-16.1927],[-67.72781,-16.19316],[-67.72799,-16.19344],[-67.72851,-16.19387],[-67.72862,-16.19407],[-67.72873,-16.195],[-67.72873,-16.19554],[-67.72842,-16.19593],[-67.72797,-16.19585]]]},"properties":{"n":"COROICO","p":23,"personas_x_ha":5,"masculinidad":130,"pct_menor20":13,"pct_60mas":22,"pct_migrante":61,"dependencia_econ":22,"pct_empleados":28,"pct_cuentapropia":39,"pct_agricultura":28,"pct_comercio":33,"pct_manufactura":6,"pct_construccion":6,"pct_transporte":6,"pct_alojamiento":0,"pct_sin_educacion":10,"pct_educ_superior":15,"brecha_educ":-24,"pct_sin_seguro":23,"pct_sus":64,"pct_seguro_privado":5,"brecha_seguro":-13,"pct_salud_publica":31,"pct_med_tradicional":11,"pct_automedicacion":23,"pct_remedios_caseros":21,"pct_viv_desocupada":0,"pct_alquiler":8,"pct_electricidad":100,"pct_sin_electricidad":0,"pct_agua_red":83,"pct_alcantarillado":50,"pct_camara_septica":0,"pct_pozo_ciego":25,"pct_sin_desague":8,"pct_gas_red":0,"pct_gas_garrafa":92,"pct_lena_guano":8,"pct_basura_formal":75,"pct_basura_quema":17,"pct_basura_informal":8,"pct_internet":67,"pct_celular":75,"pct_televisor":42}},{"type":"Feature","geometry":{"type":"Polygon","coordinates":[[[-67.73723,-16.18996],[-67.73699,-16.19038],[-67.73698,-16.19081],[-67.73637,-16.19151],[-67.73681,-16.19158],[-67.73701,-16.19169],[-67.7374,-16.19162],[-67.73785,-16.19146],[-67.7379,-16.19124],[-67.73862,-16.19072],[-67.73878,-16.19033],[-67.73853,-16.18986],[-67.73861,-16.18908],[-67.73875,-16.18871],[-67.73757,-16.18838],[-67.73723,-16.1885],[-67.73718,-16.18875],[-67.73687,-16.18913],[-67.73675,-16.18951],[-67.73723,-16.18996]]]},"properties":{"n":"COROICO","p":21,"personas_x_ha":4,"masculinidad":162,"pct_menor20":29,"pct_60mas":10,"pct_migrante":62,"dependencia_econ":162,"pct_empleados":50,"pct_cuentapropia":50,"pct_agricultura":50,"pct_comercio":0,"pct_manufactura":0,"pct_construccion":0,"pct_transporte":12,"pct_alojamiento":0,"pct_sin_educacion":0,"pct_educ_superior":27,"brecha_educ":-39,"pct_sin_seguro":14,"pct_sus":71,"pct_seguro_privado":10,"brecha_seguro":23,"pct_salud_publica":47,"pct_med_tradicional":11,"pct_automedicacion":24,"pct_remedios_caseros":8,"pct_viv_desocupada":0,"pct_alquiler":12,"pct_electricidad":75,"pct_sin_electricidad":12,"pct_agua_red":25,"pct_alcantarillado":12,"pct_camara_septica":12,"pct_pozo_ciego":50,"pct_sin_desague":25,"pct_gas_red":0,"pct_gas_garrafa":12,"pct_lena_guano":75,"pct_basura_formal":12,"pct_basura_quema":38,"pct_basura_informal":25,"pct_internet":88,"pct_celular":100,"pct_televisor":62}},{"type":"Feature","geometry":{"type":"Polygon","coordinates":[[[-67.72806,-16.19006],[-67.72731,-16.19078],[-67.72683,-16.19082],[-67.72588,-16.1913],[-67.72667,-16.19039],[-67.72733,-16.18996],[-67.72747,-16.18961],[-67.72767,-16.18937],[-67.72773,-16.18945],[-67.72758,-16.18964],[-67.72806,-16.19006]]]},"properties":{"n":"COROICO","p":40,"personas_x_ha":29,"masculinidad":100,"pct_menor20":28,"pct_60mas":12,"pct_migrante":42,"dependencia_econ":54,"pct_empleados":50,"pct_cuentapropia":35,"pct_agricultura":4,"pct_comercio":27,"pct_manufactura":8,"pct_construccion":12,"pct_transporte":4,"pct_alojamiento":0,"pct_sin_educacion":0,"pct_educ_superior":50,"brecha_educ":-20,"pct_sin_seguro":5,"pct_sus":56,"pct_seguro_privado":0,"brecha_seguro":0,"pct_salud_publica":20,"pct_med_tradicional":10,"pct_automedicacion":24,"pct_remedios_caseros":23,"pct_viv_desocupada":0,"pct_alquiler":27,"pct_electricidad":100,"pct_sin_electricidad":0,"pct_agua_red":100,"pct_alcantarillado":100,"pct_camara_septica":0,"pct_pozo_ciego":0,"pct_sin_desague":0,"pct_gas_red":73,"pct_gas_garrafa":27,"pct_lena_guano":0,"pct_basura_formal":100,"pct_basura_quema":0,"pct_basura_informal":0,"pct_internet":91,"pct_celular":100,"pct_televisor":91}},{"type":"Feature","geometry":{"type":"Polygon","coordinates":[[[-67.72741,-16.18952],[-67.72729,-16.18988],[-67.72668,-16.19027],[-67.72635,-16.19069],[-67.72622,-16.1906],[-67.72636,-16.19012],[-67.72671,-16.19004],[-67.72741,-16.18952]]]},"properties":{"n":"COROICO","p":83,"personas_x_ha":182,"masculinidad":108,"pct_menor20":34,"pct_60mas":14,"pct_migrante":47,"dependencia_econ":78,"pct_empleados":28,"pct_cuentapropia":63,"pct_agricultura":2,"pct_comercio":43,"pct_manufactura":2,"pct_construccion":2,"pct_transporte":9,"pct_alojamiento":26,"pct_sin_educacion":4,"pct_educ_superior":46,"brecha_educ":0,"pct_sin_seguro":13,"pct_sus":79,"pct_seguro_privado":0,"brecha_seguro":-3,"pct_salud_publica":27,"pct_med_tradicional":11,"pct_automedicacion":18,"pct_remedios_caseros":23,"pct_viv_desocupada":0,"pct_alquiler":48,"pct_electricidad":100,"pct_sin_electricidad":0,"pct_agua_red":100,"pct_alcantarillado":100,"pct_camara_septica":0,"pct_pozo_ciego":0,"pct_sin_desague":0,"pct_gas_red":39,"pct_gas_garrafa":55,"pct_lena_guano":0,"pct_basura_formal":97,"pct_basura_quema":0,"pct_basura_informal":3,"pct_internet":85,"pct_celular":97,"pct_televisor":82}},{"type":"Feature","geometry":{"type":"Polygon","coordinates":[[[-67.72655,-16.18946],[-67.72695,-16.18928],[-67.72668,-16.18883],[-67.72631,-16.18905],[-67.72649,-16.18939],[-67.72655,-16.18946]]]},"properties":{"n":"COROICO","p":33,"personas_x_ha":123,"masculinidad":38,"pct_menor20":24,"pct_60mas":18,"pct_migrante":39,"dependencia_econ":57,"pct_empleados":14,"pct_cuentapropia":67,"pct_agricultura":5,"pct_comercio":29,"pct_manufactura":5,"pct_construccion":5,"pct_transporte":5,"pct_alojamiento":19,"pct_sin_educacion":4,"pct_educ_superior":40,"brecha_educ":1,"pct_sin_seguro":16,"pct_sus":75,"pct_seguro_privado":0,"brecha_seguro":9,"pct_salud_publica":28,"pct_med_tradicional":13,"pct_automedicacion":20,"pct_remedios_caseros":20,"pct_viv_desocupada":5,"pct_alquiler":31,"pct_electricidad":100,"pct_sin_electricidad":0,"pct_agua_red":100,"pct_alcantarillado":88,"pct_camara_septica":0,"pct_pozo_ciego":0,"pct_sin_desague":12,"pct_gas_red":19,"pct_gas_garrafa":81,"pct_lena_guano":0,"pct_basura_formal":88,"pct_basura_quema":0,"pct_basura_informal":12,"pct_internet":81,"pct_celular":100,"pct_televisor":94}},{"type":"Feature","geometry":{"type":"Polygon","coordinates":[[[-67.72775,-16.18837],[-67.72799,-16.1881],[-67.72768,-16.18793],[-67.7276,-16.18817],[-67.72775,-16.18837]]]},"properties":{"n":"COROICO","p":24,"personas_x_ha":204,"masculinidad":85,"pct_menor20":42,"pct_60mas":21,"pct_migrante":50,"dependencia_econ":71,"pct_empleados":21,"pct_cuentapropia":57,"pct_agricultura":0,"pct_comercio":7,"pct_manufactura":21,"pct_construccion":7,"pct_transporte":7,"pct_alojamiento":43,"pct_sin_educacion":0,"pct_educ_superior":57,"brecha_educ":-11,"pct_sin_seguro":9,"pct_sus":68,"pct_seguro_privado":23,"brecha_seguro":2,"pct_salud_publica":22,"pct_med_tradicional":21,"pct_automedicacion":10,"pct_remedios_caseros":25,"pct_viv_desocupada":0,"pct_alquiler":40,"pct_electricidad":100,"pct_sin_electricidad":0,"pct_agua_red":100,"pct_alcantarillado":100,"pct_camara_septica":0,"pct_pozo_ciego":0,"pct_sin_desague":0,"pct_gas_red":60,"pct_gas_garrafa":40,"pct_lena_guano":0,"pct_basura_formal":100,"pct_basura_quema":0,"pct_basura_informal":0,"pct_internet":70,"pct_celular":90,"pct_televisor":100}},{"type":"Feature","geometry":{"type":"Polygon","coordinates":[[[-67.72767,-16.18756],[-67.72841,-16.18655],[-67.72923,-16.18619],[-67.72931,-16.18644],[-67.72782,-16.18796],[-67.7277,-16.18788],[-67.7278,-16.18766],[-67.72767,-16.18756]]]},"properties":{"n":"COROICO","p":68,"personas_x_ha":60,"masculinidad":94,"pct_menor20":22,"pct_60mas":32,"pct_migrante":43,"dependencia_econ":94,"pct_empleados":35,"pct_cuentapropia":53,"pct_agricultura":0,"pct_comercio":21,"pct_manufactura":0,"pct_construccion":3,"pct_transporte":9,"pct_alojamiento":21,"pct_sin_educacion":4,"pct_educ_superior":56,"brecha_educ":-13,"pct_sin_seguro":14,"pct_sus":57,"pct_seguro_privado":0,"brecha_seguro":-3,"pct_salud_publica":33,"pct_med_tradicional":5,"pct_automedicacion":20,"pct_remedios_caseros":24,"pct_viv_desocupada":6,"pct_alquiler":20,"pct_electricidad":97,"pct_sin_electricidad":3,"pct_agua_red":93,"pct_alcantarillado":93,"pct_camara_septica":3,"pct_pozo_ciego":3,"pct_sin_desague":0,"pct_gas_red":50,"pct_gas_garrafa":47,"pct_lena_guano":0,"pct_basura_formal":97,"pct_basura_quema":0,"pct_basura_informal":3,"pct_internet":87,"pct_celular":97,"pct_televisor":90}},{"type":"Feature","geometry":{"type":"Polygon","coordinates":[[[-67.72828,-16.18864],[-67.72956,-16.18907],[-67.72974,-16.18895],[-67.72913,-16.18848],[-67.72811,-16.18808],[-67.72774,-16.18844],[-67.72786,-16.18871],[-67.72828,-16.18864]]]},"properties":{"n":"COROICO","p":31,"personas_x_ha":32,"masculinidad":82,"pct_menor20":16,"pct_60mas":16,"pct_migrante":48,"dependencia_econ":35,"pct_empleados":13,"pct_cuentapropia":52,"pct_agricultura":17,"pct_comercio":26,"pct_manufactura":0,"pct_construccion":4,"pct_transporte":9,"pct_alojamiento":13,"pct_sin_educacion":4,"pct_educ_superior":59,"brecha_educ":-14,"pct_sin_seguro":29,"pct_sus":71,"pct_seguro_privado":0,"brecha_seguro":25,"pct_salud_publica":29,"pct_med_tradicional":8,"pct_automedicacion":25,"pct_remedios_caseros":22,"pct_viv_desocupada":7,"pct_alquiler":9,"pct_electricidad":100,"pct_sin_electricidad":0,"pct_agua_red":91,"pct_alcantarillado":100,"pct_camara_septica":0,"pct_pozo_ciego":0,"pct_sin_desague":0,"pct_gas_red":9,"pct_gas_garrafa":91,"pct_lena_guano":0,"pct_basura_formal":91,"pct_basura_quema":9,"pct_basura_informal":0,"pct_internet":82,"pct_celular":100,"pct_televisor":100}},{"type":"Feature","geometry":{"type":"Polygon","coordinates":[[[-67.72763,-16.19769],[-67.72722,-16.19771],[-67.72716,-16.19899],[-67.72744,-16.199],[-67.72746,-16.19872],[-67.72783,-16.19823],[-67.72785,-16.19669],[-67.72618,-16.19536],[-67.72609,-16.19559],[-67.72613,-16.19648],[-67.72623,-16.19679],[-67.72648,-16.19695],[-67.72724,-16.1971],[-67.72667,-16.19703],[-67.72631,-16.1969],[-67.72615,-16.19669],[-67.72612,-16.19648],[-67.72606,-16.19648],[-67.7263,-16.19761],[-67.72644,-16.19779],[-67.72652,-16.19779],[-67.72651,-16.19769],[-67.72671,-16.19769],[-67.72664,-16.19725],[-67.72673,-16.19768],[-67.72714,-16.19768],[-67.72709,-16.19727],[-67.72717,-16.19768],[-67.72763,-16.19769]]]},"properties":{"n":"COROICO","p":68,"personas_x_ha":17,"masculinidad":70,"pct_menor20":15,"pct_60mas":22,"pct_migrante":47,"dependencia_econ":15,"pct_empleados":49,"pct_cuentapropia":36,"pct_agricultura":10,"pct_comercio":15,"pct_manufactura":0,"pct_construccion":3,"pct_transporte":7,"pct_alojamiento":19,"pct_sin_educacion":3,"pct_educ_superior":32,"brecha_educ":2,"pct_sin_seguro":7,"pct_sus":73,"pct_seguro_privado":0,"brecha_seguro":-1,"pct_salud_publica":29,"pct_med_tradicional":12,"pct_automedicacion":17,"pct_remedios_caseros":21,"pct_viv_desocupada":6,"pct_alquiler":27,"pct_electricidad":100,"pct_sin_electricidad":0,"pct_agua_red":100,"pct_alcantarillado":67,"pct_camara_septica":27,"pct_pozo_ciego":0,"pct_sin_desague":0,"pct_gas_red":33,"pct_gas_garrafa":67,"pct_lena_guano":0,"pct_basura_formal":93,"pct_basura_quema":7,"pct_basura_informal":0,"pct_internet":87,"pct_celular":100,"pct_televisor":87}},{"type":"Feature","geometry":{"type":"Polygon","coordinates":[[[-67.72673,-16.18994],[-67.72626,-16.19012],[-67.72621,-16.19038],[-67.72596,-16.19034],[-67.72582,-16.19049],[-67.7257,-16.19039],[-67.7263,-16.18967],[-67.7265,-16.18955],[-67.72673,-16.18994]]]},"properties":{"n":"COROICO","p":34,"personas_x_ha":81,"masculinidad":62,"pct_menor20":18,"pct_60mas":26,"pct_migrante":35,"dependencia_econ":48,"pct_empleados":30,"pct_cuentapropia":48,"pct_agricultura":0,"pct_comercio":30,"pct_manufactura":0,"pct_construccion":4,"pct_transporte":4,"pct_alojamiento":26,"pct_sin_educacion":3,"pct_educ_superior":48,"brecha_educ":-29,"pct_sin_seguro":12,"pct_sus":56,"pct_seguro_privado":3,"brecha_seguro":6,"pct_salud_publica":18,"pct_med_tradicional":19,"pct_automedicacion":20,"pct_remedios_caseros":24,"pct_viv_desocupada":0,"pct_alquiler":40,"pct_electricidad":100,"pct_sin_electricidad":0,"pct_agua_red":100,"pct_alcantarillado":100,"pct_camara_septica":0,"pct_pozo_ciego":0,"pct_sin_desague":0,"pct_gas_red":27,"pct_gas_garrafa":73,"pct_lena_guano":0,"pct_basura_formal":100,"pct_basura_quema":0,"pct_basura_informal":0,"pct_internet":87,"pct_celular":100,"pct_televisor":93}},{"type":"Feature","geometry":{"type":"Polygon","coordinates":[[[-67.72623,-16.18966],[-67.72519,-16.19075],[-67.72514,-16.19098],[-67.72495,-16.19121],[-67.72416,-16.19111],[-67.72425,-16.19076],[-67.7244,-16.19053],[-67.72527,-16.18994],[-67.726,-16.1893],[-67.72623,-16.18966]]]},"properties":{"n":"COROICO","p":84,"personas_x_ha":50,"masculinidad":121,"pct_menor20":23,"pct_60mas":36,"pct_migrante":33,"dependencia_econ":73,"pct_empleados":54,"pct_cuentapropia":35,"pct_agricultura":6,"pct_comercio":8,"pct_manufactura":10,"pct_construccion":15,"pct_transporte":10,"pct_alojamiento":17,"pct_sin_educacion":0,"pct_educ_superior":38,"brecha_educ":-5,"pct_sin_seguro":8,"pct_sus":73,"pct_seguro_privado":8,"brecha_seguro":-4,"pct_salud_publica":33,"pct_med_tradicional":10,"pct_automedicacion":12,"pct_remedios_caseros":23,"pct_viv_desocupada":6,"pct_alquiler":37,"pct_electricidad":100,"pct_sin_electricidad":0,"pct_agua_red":98,"pct_alcantarillado":98,"pct_camara_septica":0,"pct_pozo_ciego":0,"pct_sin_desague":2,"pct_gas_red":46,"pct_gas_garrafa":49,"pct_lena_guano":0,"pct_basura_formal":93,"pct_basura_quema":2,"pct_basura_informal":0,"pct_internet":56,"pct_celular":85,"pct_televisor":78}},{"type":"Feature","geometry":{"type":"Polygon","coordinates":[[[-67.72638,-16.19479],[-67.72617,-16.19526],[-67.72744,-16.19524],[-67.72747,-16.19466],[-67.7276,-16.19442],[-67.72629,-16.19341],[-67.72568,-16.1928],[-67.72558,-16.19204],[-67.72518,-16.19202],[-67.72506,-16.19255],[-67.72527,-16.19314],[-67.72606,-16.19397],[-67.72638,-16.19479]]]},"properties":{"n":"COROICO","p":21,"personas_x_ha":6,"masculinidad":75,"pct_menor20":24,"pct_60mas":24,"pct_migrante":33,"dependencia_econ":33,"pct_empleados":7,"pct_cuentapropia":60,"pct_agricultura":33,"pct_comercio":27,"pct_manufactura":27,"pct_construccion":0,"pct_transporte":0,"pct_alojamiento":0,"pct_sin_educacion":0,"pct_educ_superior":60,"brecha_educ":16,"pct_sin_seguro":5,"pct_sus":85,"pct_seguro_privado":0,"brecha_seguro":-9,"pct_salud_publica":39,"pct_med_tradicional":17,"pct_automedicacion":17,"pct_remedios_caseros":20,"pct_viv_desocupada":0,"pct_alquiler":17,"pct_electricidad":83,"pct_sin_electricidad":0,"pct_agua_red":83,"pct_alcantarillado":25,"pct_camara_septica":17,"pct_pozo_ciego":25,"pct_sin_desague":33,"pct_gas_red":17,"pct_gas_garrafa":75,"pct_lena_guano":8,"pct_basura_formal":75,"pct_basura_quema":25,"pct_basura_informal":0,"pct_internet":58,"pct_celular":75,"pct_televisor":83}},{"type":"Feature","geometry":{"type":"Polygon","coordinates":[[[-67.72546,-16.19663],[-67.72597,-16.19665],[-67.726,-16.19549],[-67.72582,-16.19558],[-67.72559,-16.19595],[-67.7258,-16.19556],[-67.72608,-16.1952],[-67.72598,-16.19513],[-67.72561,-16.19523],[-67.72539,-16.19551],[-67.72546,-16.19663]]]},"properties":{"n":"COROICO","p":20,"personas_x_ha":22,"masculinidad":54,"pct_menor20":5,"pct_60mas":35,"pct_migrante":70,"dependencia_econ":67,"pct_empleados":25,"pct_cuentapropia":50,"pct_agricultura":8,"pct_comercio":17,"pct_manufactura":0,"pct_construccion":0,"pct_transporte":0,"pct_alojamiento":17,"pct_sin_educacion":0,"pct_educ_superior":53,"brecha_educ":-8,"pct_sin_seguro":32,"pct_sus":42,"pct_seguro_privado":0,"brecha_seguro":-27,"pct_salud_publica":28,"pct_med_tradicional":5,"pct_automedicacion":19,"pct_remedios_caseros":21,"pct_viv_desocupada":0,"pct_alquiler":36,"pct_electricidad":100,"pct_sin_electricidad":0,"pct_agua_red":79,"pct_alcantarillado":71,"pct_camara_septica":0,"pct_pozo_ciego":7,"pct_sin_desague":21,"pct_gas_red":7,"pct_gas_garrafa":79,"pct_lena_guano":14,"pct_basura_formal":79,"pct_basura_quema":7,"pct_basura_informal":0,"pct_internet":79,"pct_celular":93,"pct_televisor":86}},{"type":"Feature","geometry":{"type":"Polygon","coordinates":[[[-67.72598,-16.19672],[-67.72538,-16.1967],[-67.7249,-16.19629],[-67.72425,-16.19602],[-67.72411,-16.19553],[-67.72388,-16.19551],[-67.72388,-16.19581],[-67.72372,-16.19578],[-67.7236,-16.19664],[-67.72338,-16.19671],[-67.72292,-16.19656],[-67.7228,-16.19713],[-67.72285,-16.19727],[-67.72356,-16.19723],[-67.72373,-16.19694],[-67.72402,-16.19701],[-67.72414,-16.19684],[-67.72384,-16.19733],[-67.72382,-16.19778],[-67.72402,-16.19818],[-67.72422,-16.19839],[-67.72456,-16.19782],[-67.72423,-16.1984],[-67.7246,-16.19884],[-67.72439,-16.19861],[-67.72416,-16.19872],[-67.72427,-16.19889],[-67.72414,-16.19871],[-67.72438,-16.1986],[-67.724,-16.19818],[-67.72381,-16.19778],[-67.72381,-16.19732],[-67.72399,-16.19701],[-67.72374,-16.19697],[-67.72357,-16.19726],[-67.72286,-16.1973],[-67.72329,-16.1987],[-67.72438,-16.19982],[-67.72584,-16.19969],[-67.72586,-16.1994],[-67.72575,-16.19888],[-67.72588,-16.19939],[-67.72586,-16.19969],[-67.72598,-16.19968],[-67.7261,-16.19951],[-67.72619,-16.19906],[-67.72579,-16.19828],[-67.7262,-16.19902],[-67.72635,-16.19821],[-67.72598,-16.19672]]]},"properties":{"n":"COROICO","p":63,"personas_x_ha":5,"masculinidad":110,"pct_menor20":27,"pct_60mas":24,"pct_migrante":56,"dependencia_econ":57,"pct_empleados":45,"pct_cuentapropia":38,"pct_agricultura":20,"pct_comercio":15,"pct_manufactura":10,"pct_construccion":5,"pct_transporte":2,"pct_alojamiento":15,"pct_sin_educacion":2,"pct_educ_superior":37,"brecha_educ":8,"pct_sin_seguro":22,"pct_sus":54,"pct_seguro_privado":2,"brecha_seguro":-8,"pct_salud_publica":29,"pct_med_tradicional":18,"pct_automedicacion":18,"pct_remedios_caseros":22,"pct_viv_desocupada":0,"pct_alquiler":28,"pct_electricidad":97,"pct_sin_electricidad":3,"pct_agua_red":38,"pct_alcantarillado":21,"pct_camara_septica":31,"pct_pozo_ciego":38,"pct_sin_desague":10,"pct_gas_red":0,"pct_gas_garrafa":93,"pct_lena_guano":3,"pct_basura_formal":86,"pct_basura_quema":14,"pct_basura_informal":0,"pct_internet":69,"pct_celular":79,"pct_televisor":48}},{"type":"Feature","geometry":{"type":"Polygon","coordinates":[[[-67.72814,-16.18772],[-67.7279,-16.18793],[-67.72787,-16.18797],[-67.72801,-16.18806],[-67.72814,-16.18793],[-67.72814,-16.18772]]]},"properties":{"n":"COROICO","p":15,"personas_x_ha":269,"masculinidad":25,"pct_menor20":20,"pct_60mas":0,"pct_migrante":20,"dependencia_econ":150,"pct_empleados":33,"pct_cuentapropia":33,"pct_agricultura":0,"pct_comercio":17,"pct_manufactura":0,"pct_construccion":17,"pct_transporte":0,"pct_alojamiento":0,"pct_sin_educacion":0,"pct_educ_superior":50,"brecha_educ":0,"pct_sin_seguro":7,"pct_sus":80,"pct_seguro_privado":0,"brecha_seguro":-8,"pct_salud_publica":31,"pct_med_tradicional":3,"pct_automedicacion":26,"pct_remedios_caseros":28,"pct_viv_desocupada":0,"pct_alquiler":44,"pct_electricidad":100,"pct_sin_electricidad":0,"pct_agua_red":100,"pct_alcantarillado":78,"pct_camara_septica":0,"pct_pozo_ciego":0,"pct_sin_desague":11,"pct_gas_red":0,"pct_gas_garrafa":100,"pct_lena_guano":0,"pct_basura_formal":89,"pct_basura_quema":0,"pct_basura_informal":11,"pct_internet":67,"pct_celular":78,"pct_televisor":56}},{"type":"Feature","geometry":{"type":"Polygon","coordinates":[[[-67.71161,-16.19206],[-67.71193,-16.19138],[-67.71204,-16.19083],[-67.71201,-16.19069],[-67.71176,-16.19045],[-67.71055,-16.191],[-67.71025,-16.19263],[-67.71136,-16.1928],[-67.71161,-16.19231],[-67.71161,-16.19206]]]},"properties":{"n":"COROICO","p":16,"personas_x_ha":5,"masculinidad":100,"pct_menor20":44,"pct_60mas":6,"pct_migrante":12,"dependencia_econ":60,"pct_empleados":0,"pct_cuentapropia":90,"pct_agricultura":40,"pct_comercio":50,"pct_manufactura":10,"pct_construccion":0,"pct_transporte":0,"pct_alojamiento":0,"pct_sin_educacion":0,"pct_educ_superior":22,"brecha_educ":-25,"pct_sin_seguro":31,"pct_sus":69,"pct_seguro_privado":0,"brecha_seguro":-12,"pct_salud_publica":33,"pct_med_tradicional":9,"pct_automedicacion":20,"pct_remedios_caseros":31,"pct_viv_desocupada":20,"pct_alquiler":0,"pct_electricidad":83,"pct_sin_electricidad":17,"pct_agua_red":67,"pct_alcantarillado":0,"pct_camara_septica":0,"pct_pozo_ciego":100,"pct_sin_desague":0,"pct_gas_red":0,"pct_gas_garrafa":67,"pct_lena_guano":33,"pct_basura_formal":0,"pct_basura_quema":100,"pct_basura_informal":0,"pct_internet":83,"pct_celular":100,"pct_televisor":100}},{"type":"Feature","geometry":{"type":"Polygon","coordinates":[[[-67.72647,-16.18952],[-67.72626,-16.18962],[-67.72605,-16.18925],[-67.72629,-16.1891],[-67.72647,-16.18952]]]},"properties":{"n":"COROICO","p":36,"personas_x_ha":252,"masculinidad":64,"pct_menor20":25,"pct_60mas":31,"pct_migrante":44,"dependencia_econ":44,"pct_empleados":20,"pct_cuentapropia":76,"pct_agricultura":0,"pct_comercio":36,"pct_manufactura":4,"pct_construccion":4,"pct_transporte":12,"pct_alojamiento":12,"pct_sin_educacion":0,"pct_educ_superior":61,"brecha_educ":-12,"pct_sin_seguro":3,"pct_sus":60,"pct_seguro_privado":3,"brecha_seguro":7,"pct_salud_publica":40,"pct_med_tradicional":14,"pct_automedicacion":10,"pct_remedios_caseros":14,"pct_viv_desocupada":14,"pct_alquiler":17,"pct_electricidad":100,"pct_sin_electricidad":0,"pct_agua_red":100,"pct_alcantarillado":100,"pct_camara_septica":0,"pct_pozo_ciego":0,"pct_sin_desague":0,"pct_gas_red":67,"pct_gas_garrafa":33,"pct_lena_guano":0,"pct_basura_formal":100,"pct_basura_quema":0,"pct_basura_informal":0,"pct_internet":100,"pct_celular":100,"pct_televisor":100}},{"type":"Feature","geometry":{"type":"Polygon","coordinates":[[[-67.72511,-16.18997],[-67.72576,-16.18941],[-67.7259,-16.18891],[-67.7246,-16.18965],[-67.72389,-16.18982],[-67.72342,-16.19006],[-67.72398,-16.1907],[-67.72511,-16.18997]]]},"properties":{"n":"COROICO","p":99,"personas_x_ha":57,"masculinidad":102,"pct_menor20":23,"pct_60mas":21,"pct_migrante":37,"dependencia_econ":67,"pct_empleados":45,"pct_cuentapropia":41,"pct_agricultura":12,"pct_comercio":21,"pct_manufactura":7,"pct_construccion":16,"pct_transporte":10,"pct_alojamiento":3,"pct_sin_educacion":3,"pct_educ_superior":41,"brecha_educ":-4,"pct_sin_seguro":16,"pct_sus":63,"pct_seguro_privado":6,"brecha_seguro":0,"pct_salud_publica":34,"pct_med_tradicional":6,"pct_automedicacion":19,"pct_remedios_caseros":19,"pct_viv_desocupada":19,"pct_alquiler":21,"pct_electricidad":100,"pct_sin_electricidad":0,"pct_agua_red":98,"pct_alcantarillado":95,"pct_camara_septica":0,"pct_pozo_ciego":0,"pct_sin_desague":5,"pct_gas_red":51,"pct_gas_garrafa":49,"pct_lena_guano":0,"pct_basura_formal":100,"pct_basura_quema":0,"pct_basura_informal":0,"pct_internet":70,"pct_celular":91,"pct_televisor":81}},{"type":"Feature","geometry":{"type":"Polygon","coordinates":[[[-67.72741,-16.18892],[-67.72726,-16.18864],[-67.72675,-16.18885],[-67.72694,-16.18917],[-67.72741,-16.18892]]]},"properties":{"n":"COROICO","p":29,"personas_x_ha":126,"masculinidad":93,"pct_menor20":28,"pct_60mas":10,"pct_migrante":45,"dependencia_econ":45,"pct_empleados":40,"pct_cuentapropia":55,"pct_agricultura":5,"pct_comercio":0,"pct_manufactura":35,"pct_construccion":10,"pct_transporte":5,"pct_alojamiento":25,"pct_sin_educacion":5,"pct_educ_superior":52,"brecha_educ":3,"pct_sin_seguro":7,"pct_sus":83,"pct_seguro_privado":3,"brecha_seguro":14,"pct_salud_publica":30,"pct_med_tradicional":5,"pct_automedicacion":26,"pct_remedios_caseros":28,"pct_viv_desocupada":0,"pct_alquiler":25,"pct_electricidad":100,"pct_sin_electricidad":0,"pct_agua_red":75,"pct_alcantarillado":88,"pct_camara_septica":0,"pct_pozo_ciego":12,"pct_sin_desague":0,"pct_gas_red":25,"pct_gas_garrafa":75,"pct_lena_guano":0,"pct_basura_formal":62,"pct_basura_quema":0,"pct_basura_informal":0,"pct_internet":88,"pct_celular":100,"pct_televisor":75}},{"type":"Feature","geometry":{"type":"Polygon","coordinates":[[[-67.7303,-16.18855],[-67.73063,-16.18853],[-67.73098,-16.18865],[-67.73134,-16.188],[-67.73258,-16.18745],[-67.7329,-16.18704],[-67.73234,-16.18653],[-67.73122,-16.18687],[-67.73075,-16.18682],[-67.73033,-16.18701],[-67.7294,-16.18776],[-67.7294,-16.18792],[-67.73015,-16.18799],[-67.7294,-16.18794],[-67.72946,-16.18827],[-67.72977,-16.18872],[-67.7303,-16.18855]]]},"properties":{"n":"COROICO","p":49,"personas_x_ha":10,"masculinidad":96,"pct_menor20":37,"pct_60mas":16,"pct_migrante":20,"dependencia_econ":60,"pct_empleados":27,"pct_cuentapropia":43,"pct_agricultura":13,"pct_comercio":7,"pct_manufactura":20,"pct_construccion":13,"pct_transporte":3,"pct_alojamiento":13,"pct_sin_educacion":0,"pct_educ_superior":33,"brecha_educ":-13,"pct_sin_seguro":10,"pct_sus":85,"pct_seguro_privado":2,"brecha_seguro":4,"pct_salud_publica":37,"pct_med_tradicional":14,"pct_automedicacion":21,"pct_remedios_caseros":20,"pct_viv_desocupada":5,"pct_alquiler":18,"pct_electricidad":100,"pct_sin_electricidad":0,"pct_agua_red":88,"pct_alcantarillado":59,"pct_camara_septica":0,"pct_pozo_ciego":6,"pct_sin_desague":0,"pct_gas_red":12,"pct_gas_garrafa":88,"pct_lena_guano":0,"pct_basura_formal":59,"pct_basura_quema":12,"pct_basura_informal":12,"pct_internet":71,"pct_celular":94,"pct_televisor":82}},{"type":"Feature","geometry":{"type":"Polygon","coordinates":[[[-67.72088,-16.192],[-67.7229,-16.19161],[-67.72337,-16.19134],[-67.72392,-16.19079],[-67.72334,-16.19009],[-67.7227,-16.19037],[-67.72238,-16.19063],[-67.72181,-16.19082],[-67.72133,-16.19075],[-67.72089,-16.19048],[-67.72062,-16.19052],[-67.71979,-16.19125],[-67.7196,-16.19155],[-67.71827,-16.19223],[-67.71815,-16.19252],[-67.71831,-16.19259],[-67.71852,-16.19252],[-67.71831,-16.1926],[-67.71814,-16.19253],[-67.7182,-16.19232],[-67.71826,-16.19222],[-67.71854,-16.19209],[-67.71826,-16.19203],[-67.71785,-16.19211],[-67.7169,-16.19174],[-67.71656,-16.19176],[-67.7164,-16.19197],[-67.71637,-16.19241],[-67.71621,-16.19265],[-67.71584,-16.19297],[-67.7152,-16.19301],[-67.71523,-16.19328],[-67.71909,-16.19375],[-67.71949,-16.19333],[-67.71965,-16.19298],[-67.72001,-16.19285],[-67.72088,-16.192]]]},"properties":{"n":"COROICO","p":115,"personas_x_ha":9,"masculinidad":74,"pct_menor20":31,"pct_60mas":17,"pct_migrante":45,"dependencia_econ":61,"pct_empleados":48,"pct_cuentapropia":42,"pct_agricultura":25,"pct_comercio":20,"pct_manufactura":3,"pct_construccion":11,"pct_transporte":3,"pct_alojamiento":11,"pct_sin_educacion":8,"pct_educ_superior":40,"brecha_educ":0,"pct_sin_seguro":13,"pct_sus":70,"pct_seguro_privado":2,"brecha_seguro":-1,"pct_salud_publica":27,"pct_med_tradicional":14,"pct_automedicacion":20,"pct_remedios_caseros":26,"pct_viv_desocupada":4,"pct_alquiler":31,"pct_electricidad":100,"pct_sin_electricidad":0,"pct_agua_red":95,"pct_alcantarillado":41,"pct_camara_septica":38,"pct_pozo_ciego":15,"pct_sin_desague":5,"pct_gas_red":18,"pct_gas_garrafa":79,"pct_lena_guano":3,"pct_basura_formal":77,"pct_basura_quema":13,"pct_basura_informal":5,"pct_internet":72,"pct_celular":87,"pct_televisor":77}},{"type":"Feature","geometry":{"type":"Polygon","coordinates":[[[-67.71094,-16.19022],[-67.71013,-16.18886],[-67.71,-16.18831],[-67.71044,-16.18821],[-67.7108,-16.18796],[-67.71125,-16.1881],[-67.71156,-16.18839],[-67.71163,-16.18881],[-67.71139,-16.18954],[-67.71147,-16.18985],[-67.71179,-16.1903],[-67.71127,-16.19061],[-67.71094,-16.19022]]]},"properties":{"n":"COROICO","p":20,"personas_x_ha":6,"masculinidad":82,"pct_menor20":15,"pct_60mas":5,"pct_migrante":25,"dependencia_econ":25,"pct_empleados":19,"pct_cuentapropia":69,"pct_agricultura":50,"pct_comercio":19,"pct_manufactura":0,"pct_construccion":6,"pct_transporte":6,"pct_alojamiento":6,"pct_sin_educacion":0,"pct_educ_superior":29,"brecha_educ":-8,"pct_sin_seguro":10,"pct_sus":65,"pct_seguro_privado":20,"brecha_seguro":2,"pct_salud_publica":29,"pct_med_tradicional":9,"pct_automedicacion":20,"pct_remedios_caseros":25,"pct_viv_desocupada":59,"pct_alquiler":0,"pct_electricidad":83,"pct_sin_electricidad":17,"pct_agua_red":83,"pct_alcantarillado":0,"pct_camara_septica":0,"pct_pozo_ciego":83,"pct_sin_desague":0,"pct_gas_red":17,"pct_gas_garrafa":50,"pct_lena_guano":33,"pct_basura_formal":0,"pct_basura_quema":33,"pct_basura_informal":33,"pct_internet":67,"pct_celular":83,"pct_televisor":50}},{"type":"Feature","geometry":{"type":"Polygon","coordinates":[[[-67.72138,-16.19067],[-67.72121,-16.19012],[-67.72079,-16.18978],[-67.7203,-16.19009],[-67.71982,-16.19068],[-67.72006,-16.1909],[-67.72045,-16.19051],[-67.72082,-16.19039],[-67.72138,-16.19067]]]},"properties":{"n":"COROICO","p":29,"personas_x_ha":34,"masculinidad":93,"pct_menor20":24,"pct_60mas":0,"pct_migrante":48,"dependencia_econ":32,"pct_empleados":23,"pct_cuentapropia":55,"pct_agricultura":36,"pct_comercio":9,"pct_manufactura":5,"pct_construccion":5,"pct_transporte":5,"pct_alojamiento":23,"pct_sin_educacion":0,"pct_educ_superior":36,"brecha_educ":-5,"pct_sin_seguro":14,"pct_sus":72,"pct_seguro_privado":0,"brecha_seguro":1,"pct_salud_publica":26,"pct_med_tradicional":14,"pct_automedicacion":27,"pct_remedios_caseros":28,"pct_viv_desocupada":10,"pct_alquiler":0,"pct_electricidad":100,"pct_sin_electricidad":0,"pct_agua_red":22,"pct_alcantarillado":0,"pct_camara_septica":33,"pct_pozo_ciego":56,"pct_sin_desague":0,"pct_gas_red":11,"pct_gas_garrafa":89,"pct_lena_guano":0,"pct_basura_formal":78,"pct_basura_quema":22,"pct_basura_informal":0,"pct_internet":89,"pct_celular":100,"pct_televisor":100}},{"type":"Feature","geometry":{"type":"Polygon","coordinates":[[[-67.72242,-16.19179],[-67.72302,-16.19159],[-67.7231,-16.19164],[-67.72397,-16.19118],[-67.72408,-16.19123],[-67.72404,-16.19143],[-67.72374,-16.19158],[-67.72368,-16.19179],[-67.72301,-16.19199],[-67.72267,-16.19199],[-67.72197,-16.19224],[-67.72153,-16.19221],[-67.72143,-16.19197],[-67.72242,-16.19179]]]},"properties":{"n":"COROICO","p":31,"personas_x_ha":31,"masculinidad":121,"pct_menor20":45,"pct_60mas":6,"pct_migrante":39,"dependencia_econ":107,"pct_empleados":20,"pct_cuentapropia":73,"pct_agricultura":20,"pct_comercio":13,"pct_manufactura":0,"pct_construccion":13,"pct_transporte":27,"pct_alojamiento":13,"pct_sin_educacion":0,"pct_educ_superior":29,"brecha_educ":-14,"pct_sin_seguro":13,"pct_sus":87,"pct_seguro_privado":0,"brecha_seguro":24,"pct_salud_publica":25,"pct_med_tradicional":16,"pct_automedicacion":25,"pct_remedios_caseros":28,"pct_viv_desocupada":0,"pct_alquiler":10,"pct_electricidad":70,"pct_sin_electricidad":30,"pct_agua_red":60,"pct_alcantarillado":0,"pct_camara_septica":10,"pct_pozo_ciego":20,"pct_sin_desague":70,"pct_gas_red":0,"pct_gas_garrafa":100,"pct_lena_guano":0,"pct_basura_formal":70,"pct_basura_quema":30,"pct_basura_informal":0,"pct_internet":40,"pct_celular":60,"pct_televisor":50}},{"type":"Feature","geometry":{"type":"Polygon","coordinates":[[[-67.72546,-16.19167],[-67.72626,-16.19076],[-67.72617,-16.19064],[-67.72532,-16.19136],[-67.72529,-16.19151],[-67.72546,-16.19167]]]},"properties":{"n":"COROICO","p":60,"personas_x_ha":165,"masculinidad":94,"pct_menor20":22,"pct_60mas":23,"pct_migrante":53,"dependencia_econ":43,"pct_empleados":19,"pct_cuentapropia":69,"pct_agricultura":7,"pct_comercio":45,"pct_manufactura":5,"pct_construccion":5,"pct_transporte":5,"pct_alojamiento":7,"pct_sin_educacion":4,"pct_educ_superior":40,"brecha_educ":-12,"pct_sin_seguro":15,"pct_sus":68,"pct_seguro_privado":8,"brecha_seguro":11,"pct_salud_publica":26,"pct_med_tradicional":10,"pct_automedicacion":15,"pct_remedios_caseros":28,"pct_viv_desocupada":0,"pct_alquiler":22,"pct_electricidad":100,"pct_sin_electricidad":0,"pct_agua_red":100,"pct_alcantarillado":96,"pct_camara_septica":0,"pct_pozo_ciego":0,"pct_sin_desague":4,"pct_gas_red":41,"pct_gas_garrafa":59,"pct_lena_guano":0,"pct_basura_formal":100,"pct_basura_quema":0,"pct_basura_informal":0,"pct_internet":74,"pct_celular":93,"pct_televisor":93}},{"type":"Feature","geometry":{"type":"Polygon","coordinates":[[[-67.72619,-16.19045],[-67.72599,-16.1904],[-67.7258,-16.19061],[-67.72561,-16.19043],[-67.72525,-16.19079],[-67.72504,-16.19129],[-67.72515,-16.19137],[-67.72538,-16.19122],[-67.72614,-16.19061],[-67.72619,-16.19045]]]},"properties":{"n":"COROICO","p":51,"personas_x_ha":102,"masculinidad":76,"pct_menor20":22,"pct_60mas":27,"pct_migrante":45,"dependencia_econ":71,"pct_empleados":36,"pct_cuentapropia":57,"pct_agricultura":4,"pct_comercio":43,"pct_manufactura":0,"pct_construccion":14,"pct_transporte":7,"pct_alojamiento":7,"pct_sin_educacion":0,"pct_educ_superior":47,"brecha_educ":1,"pct_sin_seguro":15,"pct_sus":62,"pct_seguro_privado":0,"brecha_seguro":9,"pct_salud_publica":24,"pct_med_tradicional":17,"pct_automedicacion":18,"pct_remedios_caseros":21,"pct_viv_desocupada":6,"pct_alquiler":27,"pct_electricidad":95,"pct_sin_electricidad":0,"pct_agua_red":91,"pct_alcantarillado":95,"pct_camara_septica":0,"pct_pozo_ciego":0,"pct_sin_desague":5,"pct_gas_red":45,"pct_gas_garrafa":55,"pct_lena_guano":0,"pct_basura_formal":91,"pct_basura_quema":0,"pct_basura_informal":0,"pct_internet":91,"pct_celular":100,"pct_televisor":86}},{"type":"Feature","geometry":{"type":"Polygon","coordinates":[[[-67.72185,-16.19073],[-67.72151,-16.18972],[-67.72219,-16.18956],[-67.72188,-16.18916],[-67.72206,-16.1889],[-67.72226,-16.1888],[-67.72247,-16.18901],[-67.72294,-16.18924],[-67.72338,-16.19],[-67.72262,-16.19033],[-67.72232,-16.19061],[-67.72185,-16.19073]]]},"properties":{"n":"COROICO","p":115,"personas_x_ha":50,"masculinidad":85,"pct_menor20":29,"pct_60mas":12,"pct_migrante":42,"dependencia_econ":61,"pct_empleados":24,"pct_cuentapropia":55,"pct_agricultura":18,"pct_comercio":31,"pct_manufactura":6,"pct_construccion":8,"pct_transporte":3,"pct_alojamiento":6,"pct_sin_educacion":2,"pct_educ_superior":45,"brecha_educ":-15,"pct_sin_seguro":16,"pct_sus":55,"pct_seguro_privado":3,"brecha_seguro":10,"pct_salud_publica":29,"pct_med_tradicional":9,"pct_automedicacion":22,"pct_remedios_caseros":25,"pct_viv_desocupada":0,"pct_alquiler":27,"pct_electricidad":96,"pct_sin_electricidad":4,"pct_agua_red":96,"pct_alcantarillado":73,"pct_camara_septica":8,"pct_pozo_ciego":15,"pct_sin_desague":4,"pct_gas_red":50,"pct_gas_garrafa":50,"pct_lena_guano":0,"pct_basura_formal":100,"pct_basura_quema":0,"pct_basura_informal":0,"pct_internet":92,"pct_celular":100,"pct_televisor":88}},{"type":"Feature","geometry":{"type":"Polygon","coordinates":[[[-67.72923,-16.18906],[-67.72829,-16.1887],[-67.72789,-16.18876],[-67.72838,-16.18953],[-67.7285,-16.18954],[-67.72893,-16.1892],[-67.72909,-16.18919],[-67.72923,-16.18906]]]},"properties":{"n":"COROICO","p":35,"personas_x_ha":49,"masculinidad":150,"pct_menor20":23,"pct_60mas":26,"pct_migrante":43,"dependencia_econ":62,"pct_empleados":24,"pct_cuentapropia":52,"pct_agricultura":0,"pct_comercio":10,"pct_manufactura":0,"pct_construccion":14,"pct_transporte":14,"pct_alojamiento":38,"pct_sin_educacion":4,"pct_educ_superior":46,"brecha_educ":-8,"pct_sin_seguro":15,"pct_sus":76,"pct_seguro_privado":3,"brecha_seguro":-1,"pct_salud_publica":29,"pct_med_tradicional":13,"pct_automedicacion":18,"pct_remedios_caseros":28,"pct_viv_desocupada":0,"pct_alquiler":30,"pct_electricidad":100,"pct_sin_electricidad":0,"pct_agua_red":80,"pct_alcantarillado":90,"pct_camara_septica":10,"pct_pozo_ciego":0,"pct_sin_desague":0,"pct_gas_red":20,"pct_gas_garrafa":80,"pct_lena_guano":0,"pct_basura_formal":100,"pct_basura_quema":0,"pct_basura_informal":0,"pct_internet":100,"pct_celular":100,"pct_televisor":100}},{"type":"Feature","geometry":{"type":"Polygon","coordinates":[[[-67.72722,-16.18577],[-67.72784,-16.18632],[-67.72817,-16.18635],[-67.72887,-16.1861],[-67.72971,-16.18617],[-67.72999,-16.18608],[-67.73016,-16.18593],[-67.72985,-16.18543],[-67.72929,-16.18565],[-67.72809,-16.18563],[-67.72723,-16.18495],[-67.7269,-16.18523],[-67.72704,-16.18577],[-67.72722,-16.18577]]]},"properties":{"n":"COROICO","p":32,"personas_x_ha":13,"masculinidad":78,"pct_menor20":28,"pct_60mas":16,"pct_migrante":53,"dependencia_econ":52,"pct_empleados":38,"pct_cuentapropia":48,"pct_agricultura":5,"pct_comercio":24,"pct_manufactura":5,"pct_construccion":19,"pct_transporte":0,"pct_alojamiento":5,"pct_sin_educacion":4,"pct_educ_superior":43,"brecha_educ":-5,"pct_sin_seguro":10,"pct_sus":65,"pct_seguro_privado":0,"brecha_seguro":8,"pct_salud_publica":20,"pct_med_tradicional":15,"pct_automedicacion":16,"pct_remedios_caseros":22,"pct_viv_desocupada":0,"pct_alquiler":12,"pct_electricidad":88,"pct_sin_electricidad":6,"pct_agua_red":94,"pct_alcantarillado":38,"pct_camara_septica":19,"pct_pozo_ciego":38,"pct_sin_desague":6,"pct_gas_red":12,"pct_gas_garrafa":88,"pct_lena_guano":0,"pct_basura_formal":88,"pct_basura_quema":0,"pct_basura_informal":6,"pct_internet":62,"pct_celular":100,"pct_televisor":81}},{"type":"Feature","geometry":{"type":"Polygon","coordinates":[[[-67.72947,-16.1962],[-67.72979,-16.19654],[-67.72994,-16.19725],[-67.72987,-16.19746],[-67.72971,-16.19753],[-67.72944,-16.1975],[-67.7292,-16.19724],[-67.72924,-16.19674],[-67.72904,-16.19638],[-67.72947,-16.1962]]]},"properties":{"n":"COROICO","p":20,"personas_x_ha":22,"masculinidad":150,"pct_menor20":40,"pct_60mas":25,"pct_migrante":45,"dependencia_econ":122,"pct_empleados":0,"pct_cuentapropia":78,"pct_agricultura":22,"pct_comercio":22,"pct_manufactura":0,"pct_construccion":22,"pct_transporte":22,"pct_alojamiento":0,"pct_sin_educacion":0,"pct_educ_superior":17,"brecha_educ":0,"pct_sin_seguro":10,"pct_sus":90,"pct_seguro_privado":0,"brecha_seguro":17,"pct_salud_publica":95,"pct_med_tradicional":0,"pct_automedicacion":0,"pct_remedios_caseros":5,"pct_viv_desocupada":0,"pct_alquiler":25,"pct_electricidad":88,"pct_sin_electricidad":12,"pct_agua_red":0,"pct_alcantarillado":0,"pct_camara_septica":38,"pct_pozo_ciego":38,"pct_sin_desague":25,"pct_gas_red":0,"pct_gas_garrafa":62,"pct_lena_guano":25,"pct_basura_formal":38,"pct_basura_quema":62,"pct_basura_informal":0,"pct_internet":25,"pct_celular":75,"pct_televisor":62}},{"type":"Feature","geometry":{"type":"Polygon","coordinates":[[[-67.71275,-16.1915],[-67.71299,-16.19095],[-67.71291,-16.19078],[-67.71221,-16.19085],[-67.71207,-16.19096],[-67.712,-16.19141],[-67.7117,-16.19198],[-67.71169,-16.19235],[-67.71141,-16.19297],[-67.7114,-16.19314],[-67.71162,-16.19346],[-67.71296,-16.1918],[-67.71275,-16.1915]]]},"properties":{"n":"COROICO","p":16,"personas_x_ha":6,"masculinidad":129,"pct_menor20":19,"pct_60mas":19,"pct_migrante":19,"dependencia_econ":45,"pct_empleados":9,"pct_cuentapropia":91,"pct_agricultura":36,"pct_comercio":55,"pct_manufactura":0,"pct_construccion":9,"pct_transporte":0,"pct_alojamiento":0,"pct_sin_educacion":0,"pct_educ_superior":15,"brecha_educ":-14,"pct_sin_seguro":12,"pct_sus":75,"pct_seguro_privado":0,"brecha_seguro":-3,"pct_salud_publica":34,"pct_med_tradicional":11,"pct_automedicacion":18,"pct_remedios_caseros":25,"pct_viv_desocupada":15,"pct_alquiler":0,"pct_electricidad":100,"pct_sin_electricidad":0,"pct_agua_red":100,"pct_alcantarillado":0,"pct_camara_septica":29,"pct_pozo_ciego":71,"pct_sin_desague":0,"pct_gas_red":0,"pct_gas_garrafa":86,"pct_lena_guano":14,"pct_basura_formal":29,"pct_basura_quema":43,"pct_basura_informal":0,"pct_internet":57,"pct_celular":86,"pct_televisor":100}},{"type":"Feature","geometry":{"type":"Polygon","coordinates":[[[-67.71657,-16.19073],[-67.71691,-16.19067],[-67.71685,-16.19017],[-67.71666,-16.18995],[-67.71648,-16.18988],[-67.71634,-16.18991],[-67.71562,-16.19047],[-67.71604,-16.19104],[-67.71657,-16.19073]]]},"properties":{"n":"COROICO","p":16,"personas_x_ha":15,"masculinidad":60,"pct_menor20":31,"pct_60mas":12,"pct_migrante":31,"dependencia_econ":78,"pct_empleados":56,"pct_cuentapropia":44,"pct_agricultura":33,"pct_comercio":0,"pct_manufactura":11,"pct_construccion":22,"pct_transporte":0,"pct_alojamiento":22,"pct_sin_educacion":0,"pct_educ_superior":17,"brecha_educ":-12,"pct_sin_seguro":19,"pct_sus":75,"pct_seguro_privado":0,"brecha_seguro":-3,"pct_salud_publica":19,"pct_med_tradicional":16,"pct_automedicacion":18,"pct_remedios_caseros":21,"pct_viv_desocupada":0,"pct_alquiler":0,"pct_electricidad":57,"pct_sin_electricidad":43,"pct_agua_red":86,"pct_alcantarillado":0,"pct_camara_septica":29,"pct_pozo_ciego":57,"pct_sin_desague":14,"pct_gas_red":0,"pct_gas_garrafa":57,"pct_lena_guano":43,"pct_basura_formal":14,"pct_basura_quema":71,"pct_basura_informal":0,"pct_internet":86,"pct_celular":100,"pct_televisor":43}},{"type":"Feature","geometry":{"type":"Polygon","coordinates":[[[-67.72332,-16.1892],[-67.72422,-16.18887],[-67.72451,-16.18914],[-67.72487,-16.18922],[-67.72497,-16.18935],[-67.72462,-16.18955],[-67.72392,-16.18974],[-67.72341,-16.18997],[-67.72297,-16.18922],[-67.72313,-16.18919],[-67.72333,-16.18928],[-67.7235,-16.18955],[-67.72332,-16.1892]]]},"properties":{"n":"COROICO","p":80,"personas_x_ha":61,"masculinidad":122,"pct_menor20":39,"pct_60mas":10,"pct_migrante":44,"dependencia_econ":82,"pct_empleados":32,"pct_cuentapropia":52,"pct_agricultura":7,"pct_comercio":14,"pct_manufactura":11,"pct_construccion":20,"pct_transporte":9,"pct_alojamiento":14,"pct_sin_educacion":4,"pct_educ_superior":41,"brecha_educ":-13,"pct_sin_seguro":8,"pct_sus":68,"pct_seguro_privado":3,"brecha_seguro":9,"pct_salud_publica":24,"pct_med_tradicional":12,"pct_automedicacion":22,"pct_remedios_caseros":24,"pct_viv_desocupada":3,"pct_alquiler":27,"pct_electricidad":100,"pct_sin_electricidad":0,"pct_agua_red":91,"pct_alcantarillado":76,"pct_camara_septica":6,"pct_pozo_ciego":12,"pct_sin_desague":3,"pct_gas_red":52,"pct_gas_garrafa":48,"pct_lena_guano":0,"pct_basura_formal":91,"pct_basura_quema":3,"pct_basura_informal":0,"pct_internet":91,"pct_celular":100,"pct_televisor":91}},{"type":"Feature","geometry":{"type":"Polygon","coordinates":[[[-67.72751,-16.18815],[-67.7276,-16.18791],[-67.72749,-16.18789],[-67.7271,-16.188],[-67.72738,-16.18851],[-67.72762,-16.1884],[-67.72751,-16.18815]]]},"properties":{"n":"COROICO","p":37,"personas_x_ha":161,"masculinidad":118,"pct_menor20":14,"pct_60mas":14,"pct_migrante":65,"dependencia_econ":23,"pct_empleados":30,"pct_cuentapropia":50,"pct_agricultura":3,"pct_comercio":27,"pct_manufactura":3,"pct_construccion":3,"pct_transporte":7,"pct_alojamiento":13,"pct_sin_educacion":0,"pct_educ_superior":64,"brecha_educ":4,"pct_sin_seguro":14,"pct_sus":51,"pct_seguro_privado":5,"brecha_seguro":-19,"pct_salud_publica":23,"pct_med_tradicional":14,"pct_automedicacion":13,"pct_remedios_caseros":18,"pct_viv_desocupada":0,"pct_alquiler":7,"pct_electricidad":93,"pct_sin_electricidad":7,"pct_agua_red":100,"pct_alcantarillado":100,"pct_camara_septica":0,"pct_pozo_ciego":0,"pct_sin_desague":0,"pct_gas_red":43,"pct_gas_garrafa":43,"pct_lena_guano":0,"pct_basura_formal":100,"pct_basura_quema":0,"pct_basura_informal":0,"pct_internet":71,"pct_celular":86,"pct_televisor":93}},{"type":"Feature","geometry":{"type":"Polygon","coordinates":[[[-67.72776,-16.18939],[-67.72752,-16.18891],[-67.72785,-16.18876],[-67.72805,-16.18917],[-67.72776,-16.18939]]]},"properties":{"n":"COROICO","p":63,"personas_x_ha":279,"masculinidad":125,"pct_menor20":32,"pct_60mas":17,"pct_migrante":41,"dependencia_econ":85,"pct_empleados":15,"pct_cuentapropia":74,"pct_agricultura":3,"pct_comercio":53,"pct_manufactura":9,"pct_construccion":0,"pct_transporte":3,"pct_alojamiento":6,"pct_sin_educacion":0,"pct_educ_superior":44,"brecha_educ":-14,"pct_sin_seguro":11,"pct_sus":76,"pct_seguro_privado":0,"brecha_seguro":-6,"pct_salud_publica":21,"pct_med_tradicional":17,"pct_automedicacion":19,"pct_remedios_caseros":24,"pct_viv_desocupada":4,"pct_alquiler":38,"pct_electricidad":100,"pct_sin_electricidad":0,"pct_agua_red":96,"pct_alcantarillado":100,"pct_camara_septica":0,"pct_pozo_ciego":0,"pct_sin_desague":0,"pct_gas_red":46,"pct_gas_garrafa":50,"pct_lena_guano":0,"pct_basura_formal":100,"pct_basura_quema":0,"pct_basura_informal":0,"pct_internet":79,"pct_celular":83,"pct_televisor":88}},{"type":"Feature","geometry":{"type":"Polygon","coordinates":[[[-67.7264,-16.19879],[-67.72641,-16.19789],[-67.72655,-16.1979],[-67.72659,-16.19774],[-67.72714,-16.19775],[-67.72708,-16.19947],[-67.72627,-16.1995],[-67.7264,-16.19879]]]},"properties":{"n":"COROICO","p":23,"personas_x_ha":15,"masculinidad":92,"pct_menor20":22,"pct_60mas":13,"pct_migrante":48,"dependencia_econ":53,"pct_empleados":33,"pct_cuentapropia":53,"pct_agricultura":27,"pct_comercio":0,"pct_manufactura":7,"pct_construccion":0,"pct_transporte":20,"pct_alojamiento":13,"pct_sin_educacion":0,"pct_educ_superior":28,"brecha_educ":11,"pct_sin_seguro":17,"pct_sus":48,"pct_seguro_privado":4,"brecha_seguro":2,"pct_salud_publica":32,"pct_med_tradicional":9,"pct_automedicacion":15,"pct_remedios_caseros":22,"pct_viv_desocupada":0,"pct_alquiler":36,"pct_electricidad":100,"pct_sin_electricidad":0,"pct_agua_red":82,"pct_alcantarillado":91,"pct_camara_septica":9,"pct_pozo_ciego":0,"pct_sin_desague":0,"pct_gas_red":27,"pct_gas_garrafa":73,"pct_lena_guano":0,"pct_basura_formal":91,"pct_basura_quema":9,"pct_basura_informal":0,"pct_internet":91,"pct_celular":82,"pct_televisor":82}},{"type":"Feature","geometry":{"type":"Polygon","coordinates":[[[-67.73339,-16.1882],[-67.73349,-16.18832],[-67.73327,-16.18855],[-67.73306,-16.18869],[-67.7328,-16.18874],[-67.73269,-16.1885],[-67.73339,-16.1882]]]},"properties":{"n":"COROICO","p":42,"personas_x_ha":167,"masculinidad":100,"pct_menor20":26,"pct_60mas":10,"pct_migrante":33,"dependencia_econ":41,"pct_empleados":33,"pct_cuentapropia":59,"pct_agricultura":30,"pct_comercio":30,"pct_manufactura":7,"pct_construccion":7,"pct_transporte":0,"pct_alojamiento":4,"pct_sin_educacion":3,"pct_educ_superior":33,"brecha_educ":-7,"pct_sin_seguro":27,"pct_sus":73,"pct_seguro_privado":0,"brecha_seguro":12,"pct_salud_publica":27,"pct_med_tradicional":15,"pct_automedicacion":17,"pct_remedios_caseros":24,"pct_viv_desocupada":0,"pct_alquiler":6,"pct_electricidad":62,"pct_sin_electricidad":25,"pct_agua_red":38,"pct_alcantarillado":12,"pct_camara_septica":19,"pct_pozo_ciego":31,"pct_sin_desague":38,"pct_gas_red":6,"pct_gas_garrafa":25,"pct_lena_guano":50,"pct_basura_formal":19,"pct_basura_quema":25,"pct_basura_informal":6,"pct_internet":56,"pct_celular":81,"pct_televisor":56}},{"type":"Feature","geometry":{"type":"Polygon","coordinates":[[[-67.72641,-16.18837],[-67.72672,-16.18878],[-67.72703,-16.18868],[-67.72735,-16.18851],[-67.72706,-16.18803],[-67.72641,-16.18837]]]},"properties":{"n":"COROICO","p":42,"personas_x_ha":91,"masculinidad":91,"pct_menor20":24,"pct_60mas":40,"pct_migrante":31,"dependencia_econ":32,"pct_empleados":10,"pct_cuentapropia":65,"pct_agricultura":0,"pct_comercio":16,"pct_manufactura":32,"pct_construccion":3,"pct_transporte":0,"pct_alojamiento":13,"pct_sin_educacion":3,"pct_educ_superior":42,"brecha_educ":-6,"pct_sin_seguro":24,"pct_sus":63,"pct_seguro_privado":0,"brecha_seguro":13,"pct_salud_publica":28,"pct_med_tradicional":8,"pct_automedicacion":17,"pct_remedios_caseros":29,"pct_viv_desocupada":5,"pct_alquiler":33,"pct_electricidad":94,"pct_sin_electricidad":0,"pct_agua_red":89,"pct_alcantarillado":94,"pct_camara_septica":0,"pct_pozo_ciego":0,"pct_sin_desague":6,"pct_gas_red":56,"pct_gas_garrafa":44,"pct_lena_guano":0,"pct_basura_formal":100,"pct_basura_quema":0,"pct_basura_informal":0,"pct_internet":83,"pct_celular":100,"pct_televisor":94}},{"type":"Feature","geometry":{"type":"Polygon","coordinates":[[[-67.72616,-16.19319],[-67.72907,-16.19021],[-67.72896,-16.19012],[-67.72881,-16.19019],[-67.72862,-16.19022],[-67.72895,-16.19011],[-67.72864,-16.18981],[-67.72819,-16.19004],[-67.72778,-16.19054],[-67.72745,-16.19078],[-67.72718,-16.19087],[-67.72726,-16.19102],[-67.72719,-16.19091],[-67.72718,-16.19087],[-67.72707,-16.19088],[-67.72714,-16.19103],[-67.72708,-16.19106],[-67.72706,-16.19088],[-67.72684,-16.19089],[-67.72695,-16.19105],[-67.72685,-16.19107],[-67.72687,-16.19126],[-67.72683,-16.1909],[-67.72668,-16.19096],[-67.72604,-16.19128],[-67.72562,-16.19177],[-67.72573,-16.1923],[-67.7257,-16.1927],[-67.72616,-16.19319]]]},"properties":{"n":"COROICO","p":185,"personas_x_ha":38,"masculinidad":106,"pct_menor20":38,"pct_60mas":10,"pct_migrante":39,"dependencia_econ":95,"pct_empleados":35,"pct_cuentapropia":47,"pct_agricultura":14,"pct_comercio":20,"pct_manufactura":4,"pct_construccion":15,"pct_transporte":7,"pct_alojamiento":12,"pct_sin_educacion":3,"pct_educ_superior":38,"brecha_educ":-15,"pct_sin_seguro":7,"pct_sus":79,"pct_seguro_privado":2,"brecha_seguro":-1,"pct_salud_publica":34,"pct_med_tradicional":9,"pct_automedicacion":21,"pct_remedios_caseros":24,"pct_viv_desocupada":5,"pct_alquiler":25,"pct_electricidad":100,"pct_sin_electricidad":0,"pct_agua_red":96,"pct_alcantarillado":49,"pct_camara_septica":7,"pct_pozo_ciego":21,"pct_sin_desague":0,"pct_gas_red":18,"pct_gas_garrafa":75,"pct_lena_guano":5,"pct_basura_formal":84,"pct_basura_quema":9,"pct_basura_informal":2,"pct_internet":79,"pct_celular":98,"pct_televisor":86}},{"type":"Feature","geometry":{"type":"Polygon","coordinates":[[[-67.72712,-16.18964],[-67.72678,-16.18987],[-67.72657,-16.18951],[-67.72695,-16.18931],[-67.72712,-16.18964]]]},"properties":{"n":"COROICO","p":31,"personas_x_ha":156,"masculinidad":94,"pct_menor20":32,"pct_60mas":19,"pct_migrante":32,"dependencia_econ":82,"pct_empleados":18,"pct_cuentapropia":71,"pct_agricultura":0,"pct_comercio":71,"pct_manufactura":0,"pct_construccion":12,"pct_transporte":6,"pct_alojamiento":0,"pct_sin_educacion":0,"pct_educ_superior":62,"brecha_educ":-14,"pct_sin_seguro":16,"pct_sus":81,"pct_seguro_privado":0,"brecha_seguro":20,"pct_salud_publica":33,"pct_med_tradicional":9,"pct_automedicacion":21,"pct_remedios_caseros":25,"pct_viv_desocupada":0,"pct_alquiler":29,"pct_electricidad":100,"pct_sin_electricidad":0,"pct_agua_red":100,"pct_alcantarillado":100,"pct_camara_septica":0,"pct_pozo_ciego":0,"pct_sin_desague":0,"pct_gas_red":57,"pct_gas_garrafa":43,"pct_lena_guano":0,"pct_basura_formal":100,"pct_basura_quema":0,"pct_basura_informal":0,"pct_internet":71,"pct_celular":100,"pct_televisor":100}},{"type":"Feature","geometry":{"type":"Polygon","coordinates":[[[-67.72594,-16.18894],[-67.72579,-16.18941],[-67.72663,-16.18878],[-67.72635,-16.18843],[-67.72594,-16.18894]]]},"properties":{"n":"COROICO","p":84,"personas_x_ha":233,"masculinidad":95,"pct_menor20":26,"pct_60mas":25,"pct_migrante":48,"dependencia_econ":68,"pct_empleados":44,"pct_cuentapropia":28,"pct_agricultura":6,"pct_comercio":12,"pct_manufactura":0,"pct_construccion":10,"pct_transporte":4,"pct_alojamiento":20,"pct_sin_educacion":2,"pct_educ_superior":51,"brecha_educ":1,"pct_sin_seguro":18,"pct_sus":48,"pct_seguro_privado":5,"brecha_seguro":-6,"pct_salud_publica":27,"pct_med_tradicional":11,"pct_automedicacion":14,"pct_remedios_caseros":24,"pct_viv_desocupada":0,"pct_alquiler":59,"pct_electricidad":100,"pct_sin_electricidad":0,"pct_agua_red":100,"pct_alcantarillado":95,"pct_camara_septica":5,"pct_pozo_ciego":0,"pct_sin_desague":0,"pct_gas_red":20,"pct_gas_garrafa":76,"pct_lena_guano":0,"pct_basura_formal":95,"pct_basura_quema":0,"pct_basura_informal":5,"pct_internet":95,"pct_celular":98,"pct_televisor":93}},{"type":"Feature","geometry":{"type":"Polygon","coordinates":[[[-67.73034,-16.19006],[-67.73156,-16.18942],[-67.73074,-16.18862],[-67.72985,-16.18886],[-67.72998,-16.18922],[-67.72989,-16.18957],[-67.72978,-16.18957],[-67.72966,-16.18987],[-67.73034,-16.19006]]]},"properties":{"n":"COROICO","p":18,"personas_x_ha":9,"masculinidad":100,"pct_menor20":28,"pct_60mas":17,"pct_migrante":28,"dependencia_econ":38,"pct_empleados":31,"pct_cuentapropia":46,"pct_agricultura":31,"pct_comercio":23,"pct_manufactura":0,"pct_construccion":0,"pct_transporte":8,"pct_alojamiento":31,"pct_sin_educacion":8,"pct_educ_superior":38,"brecha_educ":12,"pct_sin_seguro":6,"pct_sus":72,"pct_seguro_privado":0,"brecha_seguro":11,"pct_salud_publica":22,"pct_med_tradicional":9,"pct_automedicacion":20,"pct_remedios_caseros":26,"pct_viv_desocupada":0,"pct_alquiler":22,"pct_electricidad":100,"pct_sin_electricidad":0,"pct_agua_red":100,"pct_alcantarillado":89,"pct_camara_septica":0,"pct_pozo_ciego":0,"pct_sin_desague":0,"pct_gas_red":22,"pct_gas_garrafa":67,"pct_lena_guano":11,"pct_basura_formal":100,"pct_basura_quema":0,"pct_basura_informal":0,"pct_internet":89,"pct_celular":100,"pct_televisor":89}},{"type":"Feature","geometry":{"type":"Polygon","coordinates":[[[-67.73503,-16.18882],[-67.73331,-16.18943],[-67.73364,-16.1907],[-67.73488,-16.19031],[-67.73474,-16.19005],[-67.73468,-16.18969],[-67.73502,-16.18917],[-67.7351,-16.18886],[-67.73503,-16.18882]]]},"properties":{"n":"COROICO","p":17,"personas_x_ha":7,"masculinidad":240,"pct_menor20":29,"pct_60mas":0,"pct_migrante":35,"dependencia_econ":55,"pct_empleados":9,"pct_cuentapropia":82,"pct_agricultura":45,"pct_comercio":18,"pct_manufactura":0,"pct_construccion":0,"pct_transporte":36,"pct_alojamiento":0,"pct_sin_educacion":0,"pct_educ_superior":50,"brecha_educ":0,"pct_sin_seguro":18,"pct_sus":82,"pct_seguro_privado":0,"brecha_seguro":-3,"pct_salud_publica":50,"pct_med_tradicional":13,"pct_automedicacion":23,"pct_remedios_caseros":13,"pct_viv_desocupada":0,"pct_alquiler":0,"pct_electricidad":75,"pct_sin_electricidad":25,"pct_agua_red":62,"pct_alcantarillado":0,"pct_camara_septica":0,"pct_pozo_ciego":50,"pct_sin_desague":38,"pct_gas_red":0,"pct_gas_garrafa":0,"pct_lena_guano":88,"pct_basura_formal":12,"pct_basura_quema":62,"pct_basura_informal":0,"pct_internet":75,"pct_celular":75,"pct_televisor":12}},{"type":"Feature","geometry":{"type":"Polygon","coordinates":[[[-67.69817,-16.20088],[-67.69764,-16.20033],[-67.69755,-16.2003],[-67.69781,-16.201],[-67.69817,-16.20088]]]},"properties":{"n":"CRUZ LOMA","p":20,"personas_x_ha":111,"masculinidad":82,"pct_menor20":30,"pct_60mas":25,"pct_migrante":40,"dependencia_econ":54,"pct_empleados":0,"pct_cuentapropia":77,"pct_agricultura":46,"pct_comercio":31,"pct_manufactura":0,"pct_construccion":8,"pct_transporte":0,"pct_alojamiento":8,"pct_sin_educacion":7,"pct_educ_superior":7,"brecha_educ":-10,"pct_sin_seguro":15,"pct_sus":85,"pct_seguro_privado":0,"brecha_seguro":-7,"pct_salud_publica":45,"pct_med_tradicional":2,"pct_automedicacion":17,"pct_remedios_caseros":19,"pct_viv_desocupada":0,"pct_alquiler":0,"pct_electricidad":100,"pct_sin_electricidad":0,"pct_agua_red":92,"pct_alcantarillado":100,"pct_camara_septica":0,"pct_pozo_ciego":0,"pct_sin_desague":0,"pct_gas_red":0,"pct_gas_garrafa":92,"pct_lena_guano":8,"pct_basura_formal":8,"pct_basura_quema":67,"pct_basura_informal":25,"pct_internet":17,"pct_celular":83,"pct_televisor":58}},{"type":"Feature","geometry":{"type":"Polygon","coordinates":[[[-67.69758,-16.20018],[-67.69822,-16.20085],[-67.69848,-16.20049],[-67.69891,-16.20069],[-67.69909,-16.20067],[-67.69914,-16.20057],[-67.69801,-16.20002],[-67.69783,-16.2],[-67.69758,-16.20018]]]},"properties":{"n":"CRUZ LOMA","p":53,"personas_x_ha":74,"masculinidad":152,"pct_menor20":38,"pct_60mas":28,"pct_migrante":32,"dependencia_econ":73,"pct_empleados":13,"pct_cuentapropia":70,"pct_agricultura":63,"pct_comercio":10,"pct_manufactura":0,"pct_construccion":3,"pct_transporte":7,"pct_alojamiento":7,"pct_sin_educacion":12,"pct_educ_superior":15,"brecha_educ":-15,"pct_sin_seguro":4,"pct_sus":76,"pct_seguro_privado":4,"brecha_seguro":-2,"pct_salud_publica":23,"pct_med_tradicional":17,"pct_automedicacion":21,"pct_remedios_caseros":24,"pct_viv_desocupada":0,"pct_alquiler":5,"pct_electricidad":100,"pct_sin_electricidad":0,"pct_agua_red":82,"pct_alcantarillado":82,"pct_camara_septica":0,"pct_pozo_ciego":0,"pct_sin_desague":18,"pct_gas_red":0,"pct_gas_garrafa":86,"pct_lena_guano":14,"pct_basura_formal":0,"pct_basura_quema":45,"pct_basura_informal":36,"pct_internet":50,"pct_celular":77,"pct_televisor":77}},{"type":"Feature","geometry":{"type":"Polygon","coordinates":[[[-67.69669,-16.19994],[-67.69662,-16.20012],[-67.69725,-16.20044],[-67.69775,-16.20126],[-67.69789,-16.20129],[-67.69739,-16.20025],[-67.69669,-16.19994]]]},"properties":{"n":"CRUZ LOMA","p":54,"personas_x_ha":155,"masculinidad":86,"pct_menor20":28,"pct_60mas":22,"pct_migrante":28,"dependencia_econ":64,"pct_empleados":3,"pct_cuentapropia":73,"pct_agricultura":64,"pct_comercio":15,"pct_manufactura":3,"pct_construccion":9,"pct_transporte":6,"pct_alojamiento":0,"pct_sin_educacion":22,"pct_educ_superior":18,"brecha_educ":-6,"pct_sin_seguro":24,"pct_sus":76,"pct_seguro_privado":0,"brecha_seguro":0,"pct_salud_publica":24,"pct_med_tradicional":10,"pct_automedicacion":22,"pct_remedios_caseros":26,"pct_viv_desocupada":0,"pct_alquiler":8,"pct_electricidad":100,"pct_sin_electricidad":0,"pct_agua_red":100,"pct_alcantarillado":100,"pct_camara_septica":0,"pct_pozo_ciego":0,"pct_sin_desague":0,"pct_gas_red":0,"pct_gas_garrafa":100,"pct_lena_guano":0,"pct_basura_formal":12,"pct_basura_quema":65,"pct_basura_informal":4,"pct_internet":62,"pct_celular":96,"pct_televisor":81}},{"type":"Feature","geometry":{"type":"Polygon","coordinates":[[[-67.69699,-16.20074],[-67.69643,-16.20076],[-67.69629,-16.20113],[-67.69638,-16.20166],[-67.69732,-16.20214],[-67.69756,-16.20197],[-67.69787,-16.20144],[-67.69767,-16.20124],[-67.69732,-16.20061],[-67.69699,-16.20074]]]},"properties":{"n":"CRUZ LOMA","p":17,"personas_x_ha":9,"masculinidad":112,"pct_menor20":12,"pct_60mas":24,"pct_migrante":18,"dependencia_econ":75,"pct_empleados":0,"pct_cuentapropia":75,"pct_agricultura":50,"pct_comercio":0,"pct_manufactura":0,"pct_construccion":0,"pct_transporte":25,"pct_alojamiento":25,"pct_sin_educacion":15,"pct_educ_superior":0,"brecha_educ":-15,"pct_sin_seguro":31,"pct_sus":69,"pct_seguro_privado":0,"brecha_seguro":18,"pct_salud_publica":31,"pct_med_tradicional":14,"pct_automedicacion":20,"pct_remedios_caseros":20,"pct_viv_desocupada":0,"pct_alquiler":15,"pct_electricidad":85,"pct_sin_electricidad":15,"pct_agua_red":69,"pct_alcantarillado":38,"pct_camara_septica":8,"pct_pozo_ciego":0,"pct_sin_desague":46,"pct_gas_red":0,"pct_gas_garrafa":54,"pct_lena_guano":38,"pct_basura_formal":46,"pct_basura_quema":38,"pct_basura_informal":8,"pct_internet":23,"pct_celular":38,"pct_televisor":38}},{"type":"Feature","geometry":{"type":"Polygon","coordinates":[[[-67.69871,-16.19782],[-67.69833,-16.19767],[-67.69806,-16.19777],[-67.69784,-16.19801],[-67.69723,-16.19788],[-67.69725,-16.19746],[-67.69743,-16.19724],[-67.69765,-16.19667],[-67.69873,-16.1964],[-67.69908,-16.19718],[-67.69897,-16.1978],[-67.69886,-16.19796],[-67.69877,-16.19797],[-67.69871,-16.19782]]]},"properties":{"n":"CRUZ LOMA","p":23,"personas_x_ha":9,"masculinidad":28,"pct_menor20":35,"pct_60mas":9,"pct_migrante":70,"dependencia_econ":50,"pct_empleados":42,"pct_cuentapropia":33,"pct_agricultura":50,"pct_comercio":0,"pct_manufactura":8,"pct_construccion":0,"pct_transporte":0,"pct_alojamiento":0,"pct_sin_educacion":0,"pct_educ_superior":46,"brecha_educ":-9,"pct_sin_seguro":0,"pct_sus":72,"pct_seguro_privado":0,"brecha_seguro":0,"pct_salud_publica":21,"pct_med_tradicional":11,"pct_automedicacion":13,"pct_remedios_caseros":17,"pct_viv_desocupada":0,"pct_alquiler":14,"pct_electricidad":86,"pct_sin_electricidad":14,"pct_agua_red":100,"pct_alcantarillado":14,"pct_camara_septica":29,"pct_pozo_ciego":43,"pct_sin_desague":14,"pct_gas_red":0,"pct_gas_garrafa":100,"pct_lena_guano":0,"pct_basura_formal":14,"pct_basura_quema":57,"pct_basura_informal":14,"pct_internet":71,"pct_celular":100,"pct_televisor":71}},{"type":"Feature","geometry":{"type":"Polygon","coordinates":[[[-67.69658,-16.20003],[-67.6963,-16.19951],[-67.69635,-16.19941],[-67.69681,-16.19969],[-67.69658,-16.20003]]]},"properties":{"n":"CRUZ LOMA","p":21,"personas_x_ha":129,"masculinidad":91,"pct_menor20":43,"pct_60mas":14,"pct_migrante":52,"dependencia_econ":82,"pct_empleados":0,"pct_cuentapropia":64,"pct_agricultura":82,"pct_comercio":9,"pct_manufactura":0,"pct_construccion":0,"pct_transporte":0,"pct_alojamiento":9,"pct_sin_educacion":0,"pct_educ_superior":0,"brecha_educ":11,"pct_sin_seguro":5,"pct_sus":95,"pct_seguro_privado":0,"brecha_seguro":11,"pct_salud_publica":33,"pct_med_tradicional":3,"pct_automedicacion":10,"pct_remedios_caseros":33,"pct_viv_desocupada":0,"pct_alquiler":33,"pct_electricidad":100,"pct_sin_electricidad":0,"pct_agua_red":89,"pct_alcantarillado":89,"pct_camara_septica":0,"pct_pozo_ciego":0,"pct_sin_desague":11,"pct_gas_red":0,"pct_gas_garrafa":100,"pct_lena_guano":0,"pct_basura_formal":11,"pct_basura_quema":89,"pct_basura_informal":0,"pct_internet":33,"pct_celular":78,"pct_televisor":56}},{"type":"Feature","geometry":{"type":"Polygon","coordinates":[[[-67.69789,-16.19992],[-67.69749,-16.20007],[-67.69737,-16.20003],[-67.69654,-16.19944],[-67.69681,-16.19931],[-67.69744,-16.1995],[-67.69793,-16.19953],[-67.69845,-16.19927],[-67.69884,-16.19965],[-67.69886,-16.19988],[-67.69877,-16.19988],[-67.69865,-16.20017],[-67.69789,-16.19992]]]},"properties":{"n":"CRUZ LOMA","p":81,"personas_x_ha":61,"masculinidad":102,"pct_menor20":38,"pct_60mas":19,"pct_migrante":26,"dependencia_econ":78,"pct_empleados":11,"pct_cuentapropia":78,"pct_agricultura":51,"pct_comercio":13,"pct_manufactura":4,"pct_construccion":11,"pct_transporte":0,"pct_alojamiento":4,"pct_sin_educacion":4,"pct_educ_superior":14,"brecha_educ":6,"pct_sin_seguro":8,"pct_sus":92,"pct_seguro_privado":0,"brecha_seguro":-5,"pct_salud_publica":26,"pct_med_tradicional":18,"pct_automedicacion":22,"pct_remedios_caseros":23,"pct_viv_desocupada":0,"pct_alquiler":11,"pct_electricidad":97,"pct_sin_electricidad":3,"pct_agua_red":94,"pct_alcantarillado":86,"pct_camara_septica":0,"pct_pozo_ciego":3,"pct_sin_desague":11,"pct_gas_red":0,"pct_gas_garrafa":94,"pct_lena_guano":6,"pct_basura_formal":0,"pct_basura_quema":64,"pct_basura_informal":36,"pct_internet":50,"pct_celular":86,"pct_televisor":72}},{"type":"Feature","geometry":{"type":"Polygon","coordinates":[[[-67.69822,-16.20145],[-67.69797,-16.20145],[-67.69766,-16.20195],[-67.69731,-16.20227],[-67.69719,-16.20256],[-67.69725,-16.20298],[-67.69743,-16.20293],[-67.69767,-16.20238],[-67.69809,-16.20195],[-67.69822,-16.20145]]]},"properties":{"n":"CRUZ LOMA","p":18,"personas_x_ha":28,"masculinidad":50,"pct_menor20":50,"pct_60mas":11,"pct_migrante":17,"dependencia_econ":100,"pct_empleados":11,"pct_cuentapropia":67,"pct_agricultura":100,"pct_comercio":0,"pct_manufactura":0,"pct_construccion":0,"pct_transporte":0,"pct_alojamiento":0,"pct_sin_educacion":0,"pct_educ_superior":11,"brecha_educ":-50,"pct_sin_seguro":17,"pct_sus":83,"pct_seguro_privado":0,"brecha_seguro":0,"pct_salud_publica":36,"pct_med_tradicional":18,"pct_automedicacion":20,"pct_remedios_caseros":26,"pct_viv_desocupada":0,"pct_alquiler":14,"pct_electricidad":100,"pct_sin_electricidad":0,"pct_agua_red":100,"pct_alcantarillado":0,"pct_camara_septica":0,"pct_pozo_ciego":71,"pct_sin_desague":29,"pct_gas_red":0,"pct_gas_garrafa":86,"pct_lena_guano":14,"pct_basura_formal":0,"pct_basura_quema":57,"pct_basura_informal":0,"pct_internet":71,"pct_celular":100,"pct_televisor":57}},{"type":"Feature","geometry":{"type":"Polygon","coordinates":[[[-67.69824,-16.19776],[-67.69859,-16.19781],[-67.6987,-16.1981],[-67.69842,-16.19849],[-67.6979,-16.19875],[-67.69775,-16.19809],[-67.69791,-16.19805],[-67.69824,-16.19776]]]},"properties":{"n":"CRUZ LOMA","p":36,"personas_x_ha":50,"masculinidad":100,"pct_menor20":31,"pct_60mas":3,"pct_migrante":39,"dependencia_econ":57,"pct_empleados":0,"pct_cuentapropia":87,"pct_agricultura":65,"pct_comercio":22,"pct_manufactura":0,"pct_construccion":0,"pct_transporte":0,"pct_alojamiento":0,"pct_sin_educacion":4,"pct_educ_superior":30,"brecha_educ":-16,"pct_sin_seguro":26,"pct_sus":69,"pct_seguro_privado":0,"brecha_seguro":7,"pct_salud_publica":31,"pct_med_tradicional":15,"pct_automedicacion":15,"pct_remedios_caseros":28,"pct_viv_desocupada":20,"pct_alquiler":0,"pct_electricidad":100,"pct_sin_electricidad":0,"pct_agua_red":86,"pct_alcantarillado":29,"pct_camara_septica":43,"pct_pozo_ciego":0,"pct_sin_desague":29,"pct_gas_red":0,"pct_gas_garrafa":57,"pct_lena_guano":43,"pct_basura_formal":14,"pct_basura_quema":14,"pct_basura_informal":0,"pct_internet":71,"pct_celular":100,"pct_televisor":71}},{"type":"Feature","geometry":{"type":"Polygon","coordinates":[[[-67.73814,-16.14448],[-67.73814,-16.1446],[-67.7386,-16.14458],[-67.73859,-16.14444],[-67.73814,-16.14448]]]},"properties":{"n":"MURURATA","p":25,"personas_x_ha":329,"masculinidad":92,"pct_menor20":60,"pct_60mas":0,"pct_migrante":80,"dependencia_econ":79,"pct_empleados":36,"pct_cuentapropia":43,"pct_agricultura":57,"pct_comercio":7,"pct_manufactura":7,"pct_construccion":0,"pct_transporte":0,"pct_alojamiento":21,"pct_sin_educacion":0,"pct_educ_superior":60,"brecha_educ":8,"pct_sin_seguro":0,"pct_sus":92,"pct_seguro_privado":0,"brecha_seguro":0,"pct_salud_publica":31,"pct_med_tradicional":7,"pct_automedicacion":22,"pct_remedios_caseros":33,"pct_viv_desocupada":11,"pct_alquiler":12,"pct_electricidad":100,"pct_sin_electricidad":0,"pct_agua_red":100,"pct_alcantarillado":50,"pct_camara_septica":0,"pct_pozo_ciego":0,"pct_sin_desague":50,"pct_gas_red":0,"pct_gas_garrafa":100,"pct_lena_guano":0,"pct_basura_formal":0,"pct_basura_quema":50,"pct_basura_informal":0,"pct_internet":100,"pct_celular":100,"pct_televisor":62}},{"type":"Feature","geometry":{"type":"Polygon","coordinates":[[[-67.73807,-16.14461],[-67.73809,-16.14388],[-67.73763,-16.1439],[-67.73764,-16.14435],[-67.73777,-16.14455],[-67.73807,-16.14461]]]},"properties":{"n":"MURURATA","p":27,"personas_x_ha":76,"masculinidad":80,"pct_menor20":41,"pct_60mas":11,"pct_migrante":56,"dependencia_econ":69,"pct_empleados":6,"pct_cuentapropia":88,"pct_agricultura":50,"pct_comercio":0,"pct_manufactura":6,"pct_construccion":0,"pct_transporte":6,"pct_alojamiento":19,"pct_sin_educacion":0,"pct_educ_superior":12,"brecha_educ":9,"pct_sin_seguro":19,"pct_sus":78,"pct_seguro_privado":0,"brecha_seguro":27,"pct_salud_publica":30,"pct_med_tradicional":16,"pct_automedicacion":17,"pct_remedios_caseros":25,"pct_viv_desocupada":0,"pct_alquiler":0,"pct_electricidad":92,"pct_sin_electricidad":8,"pct_agua_red":100,"pct_alcantarillado":38,"pct_camara_septica":8,"pct_pozo_ciego":8,"pct_sin_desague":46,"pct_gas_red":0,"pct_gas_garrafa":92,"pct_lena_guano":0,"pct_basura_formal":8,"pct_basura_quema":23,"pct_basura_informal":31,"pct_internet":92,"pct_celular":92,"pct_televisor":77}},{"type":"Feature","geometry":{"type":"Polygon","coordinates":[[[-67.73802,-16.14521],[-67.73797,-16.14466],[-67.73869,-16.14467],[-67.73875,-16.14487],[-67.73861,-16.14519],[-67.73802,-16.14521]]]},"properties":{"n":"MURURATA","p":22,"personas_x_ha":49,"masculinidad":47,"pct_menor20":45,"pct_60mas":32,"pct_migrante":45,"dependencia_econ":69,"pct_empleados":15,"pct_cuentapropia":85,"pct_agricultura":62,"pct_comercio":15,"pct_manufactura":0,"pct_construccion":0,"pct_transporte":8,"pct_alojamiento":15,"pct_sin_educacion":15,"pct_educ_superior":15,"brecha_educ":31,"pct_sin_seguro":27,"pct_sus":73,"pct_seguro_privado":0,"brecha_seguro":23,"pct_salud_publica":23,"pct_med_tradicional":16,"pct_automedicacion":18,"pct_remedios_caseros":22,"pct_viv_desocupada":15,"pct_alquiler":0,"pct_electricidad":91,"pct_sin_electricidad":9,"pct_agua_red":91,"pct_alcantarillado":55,"pct_camara_septica":9,"pct_pozo_ciego":9,"pct_sin_desague":27,"pct_gas_red":0,"pct_gas_garrafa":91,"pct_lena_guano":0,"pct_basura_formal":0,"pct_basura_quema":55,"pct_basura_informal":9,"pct_internet":55,"pct_celular":82,"pct_televisor":73}},{"type":"Feature","geometry":{"type":"Polygon","coordinates":[[[-67.7387,-16.14396],[-67.73861,-16.14397],[-67.73867,-16.14456],[-67.73873,-16.14458],[-67.73881,-16.14455],[-67.7387,-16.14396]]]},"properties":{"n":"MURURATA","p":23,"personas_x_ha":284,"masculinidad":64,"pct_menor20":39,"pct_60mas":4,"pct_migrante":65,"dependencia_econ":92,"pct_empleados":33,"pct_cuentapropia":50,"pct_agricultura":8,"pct_comercio":25,"pct_manufactura":17,"pct_construccion":0,"pct_transporte":8,"pct_alojamiento":8,"pct_sin_educacion":7,"pct_educ_superior":33,"brecha_educ":2,"pct_sin_seguro":4,"pct_sus":83,"pct_seguro_privado":9,"brecha_seguro":11,"pct_salud_publica":43,"pct_med_tradicional":15,"pct_automedicacion":17,"pct_remedios_caseros":15,"pct_viv_desocupada":0,"pct_alquiler":0,"pct_electricidad":100,"pct_sin_electricidad":0,"pct_agua_red":100,"pct_alcantarillado":71,"pct_camara_septica":0,"pct_pozo_ciego":0,"pct_sin_desague":29,"pct_gas_red":0,"pct_gas_garrafa":100,"pct_lena_guano":0,"pct_basura_formal":14,"pct_basura_quema":43,"pct_basura_informal":43,"pct_internet":71,"pct_celular":100,"pct_televisor":71}},{"type":"Feature","geometry":{"type":"Polygon","coordinates":[[[-67.73614,-16.14329],[-67.73615,-16.14287],[-67.7364,-16.14263],[-67.73666,-16.14255],[-67.73696,-16.14232],[-67.73714,-16.14249],[-67.73683,-16.1428],[-67.73678,-16.14329],[-67.73614,-16.14329]]]},"properties":{"n":"MURURATA","p":18,"personas_x_ha":30,"masculinidad":125,"pct_menor20":22,"pct_60mas":28,"pct_migrante":61,"dependencia_econ":80,"pct_empleados":20,"pct_cuentapropia":70,"pct_agricultura":40,"pct_comercio":20,"pct_manufactura":0,"pct_construccion":10,"pct_transporte":0,"pct_alojamiento":20,"pct_sin_educacion":0,"pct_educ_superior":21,"brecha_educ":-14,"pct_sin_seguro":17,"pct_sus":56,"pct_seguro_privado":17,"brecha_seguro":7,"pct_salud_publica":23,"pct_med_tradicional":9,"pct_automedicacion":19,"pct_remedios_caseros":28,"pct_viv_desocupada":0,"pct_alquiler":38,"pct_electricidad":88,"pct_sin_electricidad":12,"pct_agua_red":100,"pct_alcantarillado":38,"pct_camara_septica":25,"pct_pozo_ciego":25,"pct_sin_desague":12,"pct_gas_red":0,"pct_gas_garrafa":88,"pct_lena_guano":0,"pct_basura_formal":12,"pct_basura_quema":25,"pct_basura_informal":62,"pct_internet":75,"pct_celular":88,"pct_televisor":88}},{"type":"Feature","geometry":{"type":"Polygon","coordinates":[[[-67.73865,-16.14276],[-67.73784,-16.14259],[-67.73798,-16.14231],[-67.73921,-16.14214],[-67.73866,-16.14252],[-67.73865,-16.14276]]]},"properties":{"n":"MURURATA","p":27,"personas_x_ha":55,"masculinidad":93,"pct_menor20":22,"pct_60mas":4,"pct_migrante":41,"dependencia_econ":56,"pct_empleados":25,"pct_cuentapropia":69,"pct_agricultura":62,"pct_comercio":6,"pct_manufactura":0,"pct_construccion":6,"pct_transporte":0,"pct_alojamiento":6,"pct_sin_educacion":0,"pct_educ_superior":21,"brecha_educ":-22,"pct_sin_seguro":25,"pct_sus":67,"pct_seguro_privado":0,"brecha_seguro":33,"pct_salud_publica":33,"pct_med_tradicional":9,"pct_automedicacion":21,"pct_remedios_caseros":25,"pct_viv_desocupada":0,"pct_alquiler":0,"pct_electricidad":80,"pct_sin_electricidad":20,"pct_agua_red":87,"pct_alcantarillado":0,"pct_camara_septica":7,"pct_pozo_ciego":53,"pct_sin_desague":40,"pct_gas_red":0,"pct_gas_garrafa":93,"pct_lena_guano":7,"pct_basura_formal":0,"pct_basura_quema":93,"pct_basura_informal":0,"pct_internet":60,"pct_celular":93,"pct_televisor":53}},{"type":"Feature","geometry":{"type":"Polygon","coordinates":[[[-67.73895,-16.14307],[-67.73883,-16.14365],[-67.7387,-16.14388],[-67.73815,-16.14391],[-67.73818,-16.14321],[-67.73839,-16.14315],[-67.73861,-16.14285],[-67.73895,-16.14307]]]},"properties":{"n":"MURURATA","p":43,"personas_x_ha":60,"masculinidad":65,"pct_menor20":42,"pct_60mas":12,"pct_migrante":58,"dependencia_econ":83,"pct_empleados":17,"pct_cuentapropia":70,"pct_agricultura":48,"pct_comercio":13,"pct_manufactura":0,"pct_construccion":0,"pct_transporte":4,"pct_alojamiento":35,"pct_sin_educacion":8,"pct_educ_superior":21,"brecha_educ":-7,"pct_sin_seguro":20,"pct_sus":68,"pct_seguro_privado":0,"brecha_seguro":-3,"pct_salud_publica":34,"pct_med_tradicional":9,"pct_automedicacion":24,"pct_remedios_caseros":18,"pct_viv_desocupada":0,"pct_alquiler":10,"pct_electricidad":90,"pct_sin_electricidad":10,"pct_agua_red":85,"pct_alcantarillado":35,"pct_camara_septica":0,"pct_pozo_ciego":5,"pct_sin_desague":55,"pct_gas_red":0,"pct_gas_garrafa":100,"pct_lena_guano":0,"pct_basura_formal":5,"pct_basura_quema":65,"pct_basura_informal":20,"pct_internet":75,"pct_celular":95,"pct_televisor":65}},{"type":"Feature","geometry":{"type":"Polygon","coordinates":[[[-67.73936,-16.14312],[-67.73905,-16.14312],[-67.73891,-16.14364],[-67.73923,-16.14369],[-67.73936,-16.14312]]]},"properties":{"n":"MURURATA","p":18,"personas_x_ha":81,"masculinidad":100,"pct_menor20":28,"pct_60mas":17,"pct_migrante":50,"dependencia_econ":64,"pct_empleados":18,"pct_cuentapropia":73,"pct_agricultura":64,"pct_comercio":18,"pct_manufactura":0,"pct_construccion":0,"pct_transporte":0,"pct_alojamiento":0,"pct_sin_educacion":31,"pct_educ_superior":38,"brecha_educ":-42,"pct_sin_seguro":33,"pct_sus":61,"pct_seguro_privado":6,"brecha_seguro":-22,"pct_salud_publica":26,"pct_med_tradicional":14,"pct_automedicacion":14,"pct_remedios_caseros":21,"pct_viv_desocupada":0,"pct_alquiler":0,"pct_electricidad":100,"pct_sin_electricidad":0,"pct_agua_red":89,"pct_alcantarillado":44,"pct_camara_septica":0,"pct_pozo_ciego":22,"pct_sin_desague":33,"pct_gas_red":0,"pct_gas_garrafa":100,"pct_lena_guano":0,"pct_basura_formal":22,"pct_basura_quema":67,"pct_basura_informal":0,"pct_internet":56,"pct_celular":78,"pct_televisor":89}},{"type":"Feature","geometry":{"type":"Polygon","coordinates":[[[-67.77469,-16.1101],[-67.77277,-16.11042],[-67.7729,-16.11084],[-67.77317,-16.11075],[-67.77317,-16.11065],[-67.77361,-16.11062],[-67.77369,-16.11086],[-67.77385,-16.11096],[-67.77473,-16.11035],[-67.77469,-16.1101]]]},"properties":{"n":"SUAPI","p":38,"personas_x_ha":38,"masculinidad":100,"pct_menor20":24,"pct_60mas":24,"pct_migrante":53,"dependencia_econ":73,"pct_empleados":9,"pct_cuentapropia":77,"pct_agricultura":23,"pct_comercio":45,"pct_manufactura":9,"pct_construccion":0,"pct_transporte":0,"pct_alojamiento":5,"pct_sin_educacion":3,"pct_educ_superior":20,"brecha_educ":6,"pct_sin_seguro":18,"pct_sus":79,"pct_seguro_privado":3,"brecha_seguro":-5,"pct_salud_publica":25,"pct_med_tradicional":13,"pct_automedicacion":18,"pct_remedios_caseros":25,"pct_viv_desocupada":0,"pct_alquiler":20,"pct_electricidad":95,"pct_sin_electricidad":5,"pct_agua_red":100,"pct_alcantarillado":75,"pct_camara_septica":5,"pct_pozo_ciego":5,"pct_sin_desague":15,"pct_gas_red":0,"pct_gas_garrafa":90,"pct_lena_guano":10,"pct_basura_formal":35,"pct_basura_quema":35,"pct_basura_informal":30,"pct_internet":80,"pct_celular":100,"pct_televisor":75}},{"type":"Feature","geometry":{"type":"Polygon","coordinates":[[[-67.77278,-16.11137],[-67.77248,-16.11111],[-67.77253,-16.11104],[-67.77319,-16.1108],[-67.7732,-16.11094],[-67.77295,-16.11141],[-67.77278,-16.11137]]]},"properties":{"n":"SUAPI","p":18,"personas_x_ha":64,"masculinidad":100,"pct_menor20":39,"pct_60mas":17,"pct_migrante":83,"dependencia_econ":64,"pct_empleados":9,"pct_cuentapropia":82,"pct_agricultura":64,"pct_comercio":18,"pct_manufactura":0,"pct_construccion":0,"pct_transporte":0,"pct_alojamiento":0,"pct_sin_educacion":0,"pct_educ_superior":33,"brecha_educ":67,"pct_sin_seguro":39,"pct_sus":61,"pct_seguro_privado":0,"brecha_seguro":-33,"pct_salud_publica":20,"pct_med_tradicional":13,"pct_automedicacion":17,"pct_remedios_caseros":22,"pct_viv_desocupada":0,"pct_alquiler":0,"pct_electricidad":100,"pct_sin_electricidad":0,"pct_agua_red":100,"pct_alcantarillado":80,"pct_camara_septica":0,"pct_pozo_ciego":0,"pct_sin_desague":20,"pct_gas_red":0,"pct_gas_garrafa":90,"pct_lena_guano":10,"pct_basura_formal":30,"pct_basura_quema":50,"pct_basura_informal":20,"pct_internet":70,"pct_celular":80,"pct_televisor":70}},{"type":"Feature","geometry":{"type":"Polygon","coordinates":[[[-67.77365,-16.11145],[-67.77372,-16.11095],[-67.77357,-16.11084],[-67.77337,-16.11084],[-67.77295,-16.11161],[-67.77317,-16.1117],[-67.77365,-16.11145]]]},"properties":{"n":"SUAPI","p":28,"personas_x_ha":58,"masculinidad":133,"pct_menor20":25,"pct_60mas":18,"pct_migrante":57,"dependencia_econ":75,"pct_empleados":31,"pct_cuentapropia":62,"pct_agricultura":50,"pct_comercio":12,"pct_manufactura":0,"pct_construccion":19,"pct_transporte":0,"pct_alojamiento":6,"pct_sin_educacion":9,"pct_educ_superior":36,"brecha_educ":17,"pct_sin_seguro":11,"pct_sus":75,"pct_seguro_privado":0,"brecha_seguro":4,"pct_salud_publica":31,"pct_med_tradicional":11,"pct_automedicacion":16,"pct_remedios_caseros":19,"pct_viv_desocupada":0,"pct_alquiler":0,"pct_electricidad":100,"pct_sin_electricidad":0,"pct_agua_red":69,"pct_alcantarillado":62,"pct_camara_septica":6,"pct_pozo_ciego":12,"pct_sin_desague":19,"pct_gas_red":0,"pct_gas_garrafa":94,"pct_lena_guano":6,"pct_basura_formal":6,"pct_basura_quema":56,"pct_basura_informal":25,"pct_internet":88,"pct_celular":94,"pct_televisor":69}},{"type":"Feature","geometry":{"type":"Polygon","coordinates":[[[-67.77519,-16.11038],[-67.77497,-16.11035],[-67.77466,-16.11043],[-67.77416,-16.11083],[-67.77437,-16.11116],[-67.77452,-16.11123],[-67.77533,-16.11079],[-67.77519,-16.11038]]]},"properties":{"n":"SUAPI","p":17,"personas_x_ha":24,"masculinidad":55,"pct_menor20":18,"pct_60mas":35,"pct_migrante":82,"dependencia_econ":31,"pct_empleados":23,"pct_cuentapropia":69,"pct_agricultura":38,"pct_comercio":23,"pct_manufactura":8,"pct_construccion":23,"pct_transporte":0,"pct_alojamiento":0,"pct_sin_educacion":7,"pct_educ_superior":27,"brecha_educ":-30,"pct_sin_seguro":0,"pct_sus":100,"pct_seguro_privado":0,"brecha_seguro":0,"pct_salud_publica":36,"pct_med_tradicional":16,"pct_automedicacion":18,"pct_remedios_caseros":24,"pct_viv_desocupada":0,"pct_alquiler":10,"pct_electricidad":90,"pct_sin_electricidad":10,"pct_agua_red":70,"pct_alcantarillado":40,"pct_camara_septica":0,"pct_pozo_ciego":0,"pct_sin_desague":60,"pct_gas_red":0,"pct_gas_garrafa":70,"pct_lena_guano":20,"pct_basura_formal":20,"pct_basura_quema":60,"pct_basura_informal":10,"pct_internet":60,"pct_celular":90,"pct_televisor":50}}]}