{"type":"FeatureCollection","features":[{"type":"Feature","geometry":{"type":"Polygon","coordinates":[[[-68.23534,-17.36102],[-68.23563,-17.36099],[-68.23561,-17.36005],[-68.23508,-17.36019],[-68.23534,-17.36102]]]},"properties":{"n":"ILATA GRANDE","p":24,"personas_x_ha":53,"masculinidad":243,"pct_menor20":21,"pct_60mas":21,"pct_migrante":38,"dependencia_econ":14,"pct_empleados":33,"pct_cuentapropia":57,"pct_agricultura":38,"pct_comercio":5,"pct_manufactura":14,"pct_construccion":19,"pct_transporte":5,"pct_alojamiento":0,"pct_sin_educacion":0,"pct_educ_superior":5,"brecha_educ":-59,"pct_sin_seguro":17,"pct_sus":78,"pct_seguro_privado":0,"brecha_seguro":24,"pct_salud_publica":24,"pct_med_tradicional":18,"pct_automedicacion":22,"pct_remedios_caseros":29,"pct_viv_desocupada":20,"pct_alquiler":0,"pct_electricidad":60,"pct_sin_electricidad":40,"pct_agua_red":0,"pct_alcantarillado":0,"pct_camara_septica":0,"pct_pozo_ciego":10,"pct_sin_desague":90,"pct_gas_red":0,"pct_gas_garrafa":50,"pct_lena_guano":50,"pct_basura_formal":10,"pct_basura_quema":60,"pct_basura_informal":0,"pct_internet":70,"pct_celular":80,"pct_televisor":20}},{"type":"Feature","geometry":{"type":"Polygon","coordinates":[[[-68.31893,-17.28282],[-68.31883,-17.28365],[-68.31945,-17.28363],[-68.3195,-17.28285],[-68.31893,-17.28282]]]},"properties":{"n":"PUJRATA","p":17,"personas_x_ha":29,"masculinidad":70,"pct_menor20":24,"pct_60mas":29,"pct_migrante":47,"dependencia_econ":21,"pct_empleados":7,"pct_cuentapropia":79,"pct_agricultura":79,"pct_comercio":7,"pct_manufactura":0,"pct_construccion":0,"pct_transporte":7,"pct_alojamiento":0,"pct_sin_educacion":0,"pct_educ_superior":8,"brecha_educ":24,"pct_sin_seguro":12,"pct_sus":65,"pct_seguro_privado":0,"brecha_seguro":4,"pct_salud_publica":27,"pct_med_tradicional":29,"pct_automedicacion":7,"pct_remedios_caseros":25,"pct_viv_desocupada":24,"pct_alquiler":0,"pct_electricidad":33,"pct_sin_electricidad":67,"pct_agua_red":0,"pct_alcantarillado":0,"pct_camara_septica":0,"pct_pozo_ciego":0,"pct_sin_desague":100,"pct_gas_red":0,"pct_gas_garrafa":42,"pct_lena_guano":50,"pct_basura_formal":0,"pct_basura_quema":83,"pct_basura_informal":17,"pct_internet":58,"pct_celular":75,"pct_televisor":0}},{"type":"Feature","geometry":{"type":"Polygon","coordinates":[[[-68.35493,-17.47983],[-68.35502,-17.47896],[-68.35454,-17.4789],[-68.35451,-17.4798],[-68.35493,-17.47983]]]},"properties":{"n":"SANTIAGO DE CALLAPA","p":16,"personas_x_ha":33,"masculinidad":220,"pct_menor20":12,"pct_60mas":31,"pct_migrante":6,"dependencia_econ":60,"pct_empleados":10,"pct_cuentapropia":80,"pct_agricultura":50,"pct_comercio":10,"pct_manufactura":20,"pct_construccion":20,"pct_transporte":0,"pct_alojamiento":0,"pct_sin_educacion":0,"pct_educ_superior":20,"brecha_educ":20,"pct_sin_seguro":31,"pct_sus":50,"pct_seguro_privado":0,"brecha_seguro":16,"pct_salud_publica":30,"pct_med_tradicional":21,"pct_automedicacion":9,"pct_remedios_caseros":27,"pct_viv_desocupada":33,"pct_alquiler":0,"pct_electricidad":60,"pct_sin_electricidad":40,"pct_agua_red":10,"pct_alcantarillado":0,"pct_camara_septica":0,"pct_pozo_ciego":40,"pct_sin_desague":60,"pct_gas_red":0,"pct_gas_garrafa":100,"pct_lena_guano":100,"pct_basura_formal":0,"pct_basura_quema":70,"pct_basura_informal":60,"pct_internet":10,"pct_celular":40,"pct_televisor":20}},{"type":"Feature","geometry":{"type":"Polygon","coordinates":[[[-68.35541,-17.47988],[-68.35549,-17.47903],[-68.35507,-17.47897],[-68.35503,-17.47982],[-68.35541,-17.47988]]]},"properties":{"n":"SANTIAGO DE CALLAPA","p":18,"personas_x_ha":42,"masculinidad":100,"pct_menor20":6,"pct_60mas":56,"pct_migrante":39,"dependencia_econ":12,"pct_empleados":38,"pct_cuentapropia":38,"pct_agricultura":25,"pct_comercio":19,"pct_manufactura":6,"pct_construccion":0,"pct_transporte":6,"pct_alojamiento":0,"pct_sin_educacion":0,"pct_educ_superior":35,"brecha_educ":-53,"pct_sin_seguro":22,"pct_sus":61,"pct_seguro_privado":11,"brecha_seguro":22,"pct_salud_publica":23,"pct_med_tradicional":14,"pct_automedicacion":14,"pct_remedios_caseros":20,"pct_viv_desocupada":5,"pct_alquiler":0,"pct_electricidad":100,"pct_sin_electricidad":0,"pct_agua_red":33,"pct_alcantarillado":8,"pct_camara_septica":17,"pct_pozo_ciego":25,"pct_sin_desague":50,"pct_gas_red":0,"pct_gas_garrafa":92,"pct_lena_guano":92,"pct_basura_formal":8,"pct_basura_quema":42,"pct_basura_informal":83,"pct_internet":50,"pct_celular":83,"pct_televisor":33}},{"type":"Feature","geometry":{"type":"Polygon","coordinates":[[[-68.35454,-17.47883],[-68.35503,-17.4789],[-68.35506,-17.47798],[-68.35456,-17.47799],[-68.35454,-17.47883]]]},"properties":{"n":"SANTIAGO DE CALLAPA","p":20,"personas_x_ha":38,"masculinidad":122,"pct_menor20":10,"pct_60mas":20,"pct_migrante":25,"dependencia_econ":46,"pct_empleados":23,"pct_cuentapropia":54,"pct_agricultura":38,"pct_comercio":15,"pct_manufactura":0,"pct_construccion":8,"pct_transporte":15,"pct_alojamiento":0,"pct_sin_educacion":6,"pct_educ_superior":24,"brecha_educ":-38,"pct_sin_seguro":16,"pct_sus":74,"pct_seguro_privado":0,"brecha_seguro":9,"pct_salud_publica":34,"pct_med_tradicional":11,"pct_automedicacion":8,"pct_remedios_caseros":24,"pct_viv_desocupada":22,"pct_alquiler":0,"pct_electricidad":100,"pct_sin_electricidad":0,"pct_agua_red":0,"pct_alcantarillado":0,"pct_camara_septica":10,"pct_pozo_ciego":30,"pct_sin_desague":60,"pct_gas_red":0,"pct_gas_garrafa":50,"pct_lena_guano":50,"pct_basura_formal":0,"pct_basura_quema":50,"pct_basura_informal":100,"pct_internet":10,"pct_celular":40,"pct_televisor":0}},{"type":"Feature","geometry":{"type":"Polygon","coordinates":[[[-68.35552,-17.47855],[-68.35512,-17.47846],[-68.35509,-17.47892],[-68.35551,-17.47898],[-68.35552,-17.47855]]]},"properties":{"n":"SANTIAGO DE CALLAPA","p":16,"personas_x_ha":69,"masculinidad":100,"pct_menor20":12,"pct_60mas":38,"pct_migrante":12,"dependencia_econ":27,"pct_empleados":9,"pct_cuentapropia":73,"pct_agricultura":18,"pct_comercio":36,"pct_manufactura":0,"pct_construccion":0,"pct_transporte":9,"pct_alojamiento":0,"pct_sin_educacion":8,"pct_educ_superior":50,"brecha_educ":-33,"pct_sin_seguro":8,"pct_sus":58,"pct_seguro_privado":8,"brecha_seguro":17,"pct_salud_publica":32,"pct_med_tradicional":16,"pct_automedicacion":16,"pct_remedios_caseros":20,"pct_viv_desocupada":0,"pct_alquiler":8,"pct_electricidad":92,"pct_sin_electricidad":8,"pct_agua_red":23,"pct_alcantarillado":0,"pct_camara_septica":0,"pct_pozo_ciego":69,"pct_sin_desague":31,"pct_gas_red":0,"pct_gas_garrafa":92,"pct_lena_guano":92,"pct_basura_formal":15,"pct_basura_quema":62,"pct_basura_informal":31,"pct_internet":46,"pct_celular":77,"pct_televisor":46}},{"type":"Feature","geometry":{"type":"Polygon","coordinates":[[[-68.35449,-17.47882],[-68.35451,-17.47798],[-68.35396,-17.47796],[-68.35365,-17.47813],[-68.35327,-17.47855],[-68.35449,-17.47882]]]},"properties":{"n":"SANTIAGO DE CALLAPA","p":16,"personas_x_ha":18,"masculinidad":129,"pct_menor20":44,"pct_60mas":6,"pct_migrante":19,"dependencia_econ":129,"pct_empleados":29,"pct_cuentapropia":43,"pct_agricultura":0,"pct_comercio":43,"pct_manufactura":14,"pct_construccion":14,"pct_transporte":14,"pct_alojamiento":0,"pct_sin_educacion":0,"pct_educ_superior":22,"brecha_educ":40,"pct_sin_seguro":7,"pct_sus":80,"pct_seguro_privado":0,"brecha_seguro":12,"pct_salud_publica":59,"pct_med_tradicional":5,"pct_automedicacion":5,"pct_remedios_caseros":5,"pct_viv_desocupada":33,"pct_alquiler":0,"pct_electricidad":100,"pct_sin_electricidad":0,"pct_agua_red":0,"pct_alcantarillado":0,"pct_camara_septica":0,"pct_pozo_ciego":83,"pct_sin_desague":17,"pct_gas_red":0,"pct_gas_garrafa":100,"pct_lena_guano":100,"pct_basura_formal":0,"pct_basura_quema":100,"pct_basura_informal":0,"pct_internet":67,"pct_celular":100,"pct_televisor":100}},{"type":"Feature","geometry":{"type":"Polygon","coordinates":[[[-68.3557,-17.47905],[-68.35555,-17.47905],[-68.3555,-17.47987],[-68.35563,-17.47988],[-68.3557,-17.47905]]]},"properties":{"n":"SANTIAGO DE CALLAPA","p":23,"personas_x_ha":149,"masculinidad":64,"pct_menor20":26,"pct_60mas":61,"pct_migrante":26,"dependencia_econ":64,"pct_empleados":7,"pct_cuentapropia":71,"pct_agricultura":43,"pct_comercio":29,"pct_manufactura":0,"pct_construccion":7,"pct_transporte":0,"pct_alojamiento":0,"pct_sin_educacion":6,"pct_educ_superior":6,"brecha_educ":-55,"pct_sin_seguro":14,"pct_sus":62,"pct_seguro_privado":0,"brecha_seguro":-3,"pct_salud_publica":32,"pct_med_tradicional":10,"pct_automedicacion":10,"pct_remedios_caseros":29,"pct_viv_desocupada":22,"pct_alquiler":0,"pct_electricidad":83,"pct_sin_electricidad":8,"pct_agua_red":8,"pct_alcantarillado":0,"pct_camara_septica":0,"pct_pozo_ciego":17,"pct_sin_desague":83,"pct_gas_red":0,"pct_gas_garrafa":75,"pct_lena_guano":75,"pct_basura_formal":0,"pct_basura_quema":67,"pct_basura_informal":50,"pct_internet":58,"pct_celular":92,"pct_televisor":25}},{"type":"Feature","geometry":{"type":"Polygon","coordinates":[[[-68.35589,-17.47871],[-68.35592,-17.47899],[-68.35646,-17.47894],[-68.35656,-17.47807],[-68.35607,-17.47798],[-68.35604,-17.4787],[-68.35589,-17.47871]]]},"properties":{"n":"SANTIAGO DE CALLAPA","p":23,"personas_x_ha":41,"masculinidad":109,"pct_menor20":17,"pct_60mas":30,"pct_migrante":17,"dependencia_econ":64,"pct_empleados":7,"pct_cuentapropia":79,"pct_agricultura":14,"pct_comercio":21,"pct_manufactura":21,"pct_construccion":7,"pct_transporte":14,"pct_alojamiento":14,"pct_sin_educacion":0,"pct_educ_superior":10,"brecha_educ":-23,"pct_sin_seguro":26,"pct_sus":68,"pct_seguro_privado":5,"brecha_seguro":2,"pct_salud_publica":48,"pct_med_tradicional":26,"pct_automedicacion":3,"pct_remedios_caseros":19,"pct_viv_desocupada":36,"pct_alquiler":0,"pct_electricidad":75,"pct_sin_electricidad":19,"pct_agua_red":0,"pct_alcantarillado":0,"pct_camara_septica":0,"pct_pozo_ciego":56,"pct_sin_desague":44,"pct_gas_red":0,"pct_gas_garrafa":88,"pct_lena_guano":88,"pct_basura_formal":0,"pct_basura_quema":50,"pct_basura_informal":88,"pct_internet":38,"pct_celular":62,"pct_televisor":31}}]}