{"type":"FeatureCollection","features":[{"type":"Feature","geometry":{"type":"Polygon","coordinates":[[[-68.74638,-16.19086],[-68.74646,-16.19122],[-68.74737,-16.19107],[-68.74706,-16.19073],[-68.74638,-16.19086]]]},"properties":{"n":"CHUA COCANI","p":29,"personas_x_ha":79,"masculinidad":61,"pct_menor20":52,"pct_60mas":0,"pct_migrante":28,"dependencia_econ":164,"pct_empleados":36,"pct_cuentapropia":36,"pct_agricultura":55,"pct_comercio":18,"pct_manufactura":55,"pct_construccion":9,"pct_transporte":0,"pct_alojamiento":0,"pct_educ_superior":7,"brecha_educ":0,"pct_sin_seguro":18,"pct_seguro_privado":0,"brecha_seguro":19,"pct_med_tradicional":17,"pct_automedicacion":18,"pct_remedios_caseros":19,"pct_viv_desocupada":0,"pct_alquiler":0,"pct_electricidad":100,"pct_agua_red":60,"pct_alcantarillado":10,"pct_gas_red":0,"pct_gas_garrafa":100,"pct_lena_guano":100,"pct_basura_formal":90,"pct_basura_quema":0,"pct_basura_informal":20,"pct_internet":60,"pct_celular":90,"pct_televisor":70}},{"type":"Feature","geometry":{"type":"Polygon","coordinates":[[[-68.74568,-16.19146],[-68.74514,-16.19154],[-68.7452,-16.1919],[-68.74575,-16.19181],[-68.74568,-16.19146]]]},"properties":{"n":"CHUA COCANI","p":17,"personas_x_ha":72,"masculinidad":89,"pct_menor20":6,"pct_60mas":6,"pct_migrante":35,"dependencia_econ":6,"pct_empleados":38,"pct_cuentapropia":56,"pct_agricultura":12,"pct_comercio":12,"pct_manufactura":12,"pct_construccion":6,"pct_transporte":6,"pct_alojamiento":19,"pct_educ_superior":38,"brecha_educ":-22,"pct_sin_seguro":29,"pct_seguro_privado":0,"brecha_seguro":15,"pct_med_tradicional":15,"pct_automedicacion":18,"pct_remedios_caseros":19,"pct_viv_desocupada":0,"pct_alquiler":0,"pct_electricidad":75,"pct_agua_red":75,"pct_alcantarillado":0,"pct_gas_red":0,"pct_gas_garrafa":100,"pct_lena_guano":100,"pct_basura_formal":75,"pct_basura_quema":25,"pct_basura_informal":0,"pct_internet":75,"pct_celular":88,"pct_televisor":62}},{"type":"Feature","geometry":{"type":"Polygon","coordinates":[[[-68.74536,-16.19283],[-68.74591,-16.19274],[-68.74577,-16.19191],[-68.74523,-16.19201],[-68.74536,-16.19283]]]},"properties":{"n":"CHUA COCANI","p":23,"personas_x_ha":42,"masculinidad":77,"pct_menor20":35,"pct_60mas":17,"pct_migrante":43,"dependencia_econ":83,"pct_empleados":33,"pct_cuentapropia":50,"pct_agricultura":25,"pct_comercio":33,"pct_manufactura":17,"pct_construccion":0,"pct_transporte":0,"pct_alojamiento":8,"pct_educ_superior":33,"brecha_educ":10,"pct_sin_seguro":23,"pct_seguro_privado":0,"brecha_seguro":-1,"pct_med_tradicional":10,"pct_automedicacion":16,"pct_remedios_caseros":25,"pct_viv_desocupada":0,"pct_alquiler":0,"pct_electricidad":82,"pct_agua_red":82,"pct_alcantarillado":0,"pct_gas_red":0,"pct_gas_garrafa":82,"pct_lena_guano":82,"pct_basura_formal":82,"pct_basura_quema":9,"pct_basura_informal":0,"pct_internet":73,"pct_celular":91,"pct_televisor":64}},{"type":"Feature","geometry":{"type":"Polygon","coordinates":[[[-68.74512,-16.19144],[-68.74567,-16.19134],[-68.7456,-16.19099],[-68.74506,-16.19108],[-68.74512,-16.19144]]]},"properties":{"n":"CHUA COCANI","p":23,"personas_x_ha":97,"masculinidad":130,"pct_menor20":30,"pct_60mas":9,"pct_migrante":13,"dependencia_econ":109,"pct_empleados":36,"pct_cuentapropia":18,"pct_agricultura":55,"pct_comercio":9,"pct_manufactura":0,"pct_construccion":27,"pct_transporte":0,"pct_alojamiento":0,"pct_educ_superior":19,"brecha_educ":-11,"pct_sin_seguro":13,"pct_seguro_privado":0,"brecha_seguro":23,"pct_med_tradicional":19,"pct_automedicacion":12,"pct_remedios_caseros":21,"pct_viv_desocupada":0,"pct_alquiler":0,"pct_electricidad":100,"pct_agua_red":86,"pct_alcantarillado":14,"pct_gas_red":0,"pct_gas_garrafa":100,"pct_lena_guano":100,"pct_basura_formal":71,"pct_basura_quema":14,"pct_basura_informal":29,"pct_internet":71,"pct_celular":100,"pct_televisor":86}},{"type":"Feature","geometry":{"type":"Polygon","coordinates":[[[-68.74334,-16.19299],[-68.74337,-16.19318],[-68.74363,-16.19314],[-68.74348,-16.19231],[-68.74294,-16.19239],[-68.74296,-16.19251],[-68.74309,-16.19249],[-68.74296,-16.19253],[-68.74308,-16.19323],[-68.74336,-16.19318],[-68.74334,-16.19299]]]},"properties":{"n":"CHUA COCANI","p":34,"personas_x_ha":61,"masculinidad":79,"pct_menor20":24,"pct_60mas":6,"pct_migrante":32,"dependencia_econ":57,"pct_empleados":33,"pct_cuentapropia":52,"pct_agricultura":19,"pct_comercio":24,"pct_manufactura":19,"pct_construccion":5,"pct_transporte":0,"pct_alojamiento":14,"pct_educ_superior":41,"brecha_educ":-7,"pct_sin_seguro":12,"pct_seguro_privado":0,"brecha_seguro":-10,"pct_med_tradicional":17,"pct_automedicacion":10,"pct_remedios_caseros":25,"pct_viv_desocupada":0,"pct_alquiler":6,"pct_electricidad":81,"pct_agua_red":56,"pct_alcantarillado":0,"pct_gas_red":0,"pct_gas_garrafa":81,"pct_lena_guano":81,"pct_basura_formal":75,"pct_basura_quema":25,"pct_basura_informal":0,"pct_internet":69,"pct_celular":88,"pct_televisor":50}},{"type":"Feature","geometry":{"type":"Polygon","coordinates":[[[-68.74331,-16.19063],[-68.74341,-16.19125],[-68.74395,-16.19114],[-68.74385,-16.19053],[-68.74331,-16.19063]]]},"properties":{"n":"CHUA COCANI","p":31,"personas_x_ha":74,"masculinidad":72,"pct_menor20":26,"pct_60mas":19,"pct_migrante":48,"dependencia_econ":94,"pct_empleados":19,"pct_cuentapropia":81,"pct_agricultura":19,"pct_comercio":25,"pct_manufactura":38,"pct_construccion":6,"pct_transporte":0,"pct_alojamiento":6,"pct_educ_superior":22,"brecha_educ":-32,"pct_sin_seguro":19,"pct_seguro_privado":0,"brecha_seguro":20,"pct_med_tradicional":10,"pct_automedicacion":19,"pct_remedios_caseros":29,"pct_viv_desocupada":0,"pct_alquiler":0,"pct_electricidad":85,"pct_agua_red":46,"pct_alcantarillado":0,"pct_gas_red":0,"pct_gas_garrafa":100,"pct_lena_guano":100,"pct_basura_formal":92,"pct_basura_quema":8,"pct_basura_informal":0,"pct_internet":62,"pct_celular":92,"pct_televisor":69}},{"type":"Feature","geometry":{"type":"Polygon","coordinates":[[[-68.7442,-16.19248],[-68.74404,-16.1925],[-68.74419,-16.19246],[-68.74415,-16.19219],[-68.7436,-16.19229],[-68.74374,-16.19311],[-68.74429,-16.19301],[-68.74422,-16.19261],[-68.74404,-16.19262],[-68.74422,-16.19259],[-68.7442,-16.19248]]]},"properties":{"n":"CHUA COCANI","p":27,"personas_x_ha":49,"masculinidad":59,"pct_menor20":22,"pct_60mas":37,"pct_migrante":41,"dependencia_econ":69,"pct_empleados":12,"pct_cuentapropia":56,"pct_agricultura":81,"pct_comercio":12,"pct_manufactura":0,"pct_construccion":0,"pct_transporte":0,"pct_alojamiento":6,"pct_educ_superior":24,"brecha_educ":-33,"pct_sin_seguro":48,"pct_seguro_privado":4,"brecha_seguro":3,"pct_med_tradicional":11,"pct_automedicacion":23,"pct_remedios_caseros":24,"pct_viv_desocupada":6,"pct_alquiler":0,"pct_electricidad":73,"pct_agua_red":60,"pct_alcantarillado":0,"pct_gas_red":0,"pct_gas_garrafa":93,"pct_lena_guano":93,"pct_basura_formal":80,"pct_basura_quema":13,"pct_basura_informal":0,"pct_internet":47,"pct_celular":60,"pct_televisor":47}},{"type":"Feature","geometry":{"type":"Polygon","coordinates":[[[-68.74253,-16.1908],[-68.74199,-16.19096],[-68.74208,-16.19147],[-68.74264,-16.19138],[-68.74253,-16.1908]]]},"properties":{"n":"CHUA COCANI","p":20,"personas_x_ha":52,"masculinidad":186,"pct_menor20":35,"pct_60mas":0,"pct_migrante":35,"dependencia_econ":36,"pct_empleados":21,"pct_cuentapropia":71,"pct_agricultura":57,"pct_comercio":7,"pct_manufactura":7,"pct_construccion":14,"pct_transporte":0,"pct_alojamiento":0,"pct_educ_superior":15,"brecha_educ":-17,"pct_sin_seguro":16,"pct_seguro_privado":0,"brecha_seguro":2,"pct_med_tradicional":0,"pct_automedicacion":0,"pct_remedios_caseros":5,"pct_viv_desocupada":0,"pct_alquiler":22,"pct_electricidad":89,"pct_agua_red":100,"pct_alcantarillado":22,"pct_gas_red":0,"pct_gas_garrafa":89,"pct_lena_guano":89,"pct_basura_formal":89,"pct_basura_quema":0,"pct_basura_informal":0,"pct_internet":78,"pct_celular":89,"pct_televisor":56}},{"type":"Feature","geometry":{"type":"Polygon","coordinates":[[[-68.74309,-16.18949],[-68.74323,-16.19035],[-68.74379,-16.19024],[-68.74365,-16.18941],[-68.74309,-16.18949]]]},"properties":{"n":"CHUA COCANI","p":42,"personas_x_ha":73,"masculinidad":133,"pct_menor20":33,"pct_60mas":10,"pct_migrante":29,"dependencia_econ":68,"pct_empleados":28,"pct_cuentapropia":56,"pct_agricultura":16,"pct_comercio":44,"pct_manufactura":8,"pct_construccion":20,"pct_transporte":0,"pct_alojamiento":4,"pct_educ_superior":23,"brecha_educ":-36,"pct_sin_seguro":14,"pct_seguro_privado":2,"brecha_seguro":15,"pct_med_tradicional":24,"pct_automedicacion":22,"pct_remedios_caseros":25,"pct_viv_desocupada":4,"pct_alquiler":0,"pct_electricidad":91,"pct_agua_red":70,"pct_alcantarillado":0,"pct_gas_red":0,"pct_gas_garrafa":87,"pct_lena_guano":87,"pct_basura_formal":74,"pct_basura_quema":22,"pct_basura_informal":9,"pct_internet":74,"pct_celular":100,"pct_televisor":65}},{"type":"Feature","geometry":{"type":"Polygon","coordinates":[[[-68.7439,-16.19022],[-68.74428,-16.19015],[-68.74413,-16.18932],[-68.74376,-16.18939],[-68.7439,-16.19022]]]},"properties":{"n":"CHUA COCANI","p":32,"personas_x_ha":83,"masculinidad":52,"pct_menor20":28,"pct_60mas":12,"pct_migrante":9,"dependencia_econ":220,"pct_empleados":10,"pct_cuentapropia":70,"pct_agricultura":40,"pct_comercio":60,"pct_manufactura":10,"pct_construccion":10,"pct_transporte":0,"pct_alojamiento":50,"pct_educ_superior":21,"brecha_educ":-39,"pct_sin_seguro":7,"pct_seguro_privado":0,"brecha_seguro":18,"pct_med_tradicional":16,"pct_automedicacion":22,"pct_remedios_caseros":23,"pct_viv_desocupada":0,"pct_alquiler":0,"pct_electricidad":100,"pct_agua_red":100,"pct_alcantarillado":0,"pct_gas_red":0,"pct_gas_garrafa":100,"pct_lena_guano":100,"pct_basura_formal":100,"pct_basura_quema":0,"pct_basura_informal":0,"pct_internet":60,"pct_celular":73,"pct_televisor":93}},{"type":"Feature","geometry":{"type":"Polygon","coordinates":[[[-68.7416,-16.1926],[-68.74172,-16.19345],[-68.74231,-16.19336],[-68.74216,-16.19252],[-68.7416,-16.1926]]]},"properties":{"n":"CHUA COCANI","p":21,"personas_x_ha":35,"masculinidad":75,"pct_menor20":33,"pct_60mas":10,"pct_migrante":43,"dependencia_econ":91,"pct_empleados":36,"pct_cuentapropia":64,"pct_agricultura":27,"pct_comercio":27,"pct_manufactura":0,"pct_construccion":27,"pct_transporte":0,"pct_alojamiento":18,"pct_educ_superior":21,"brecha_educ":8,"pct_sin_seguro":24,"pct_seguro_privado":5,"brecha_seguro":17,"pct_med_tradicional":16,"pct_automedicacion":19,"pct_remedios_caseros":17,"pct_viv_desocupada":0,"pct_alquiler":0,"pct_electricidad":69,"pct_agua_red":46,"pct_alcantarillado":0,"pct_gas_red":0,"pct_gas_garrafa":92,"pct_lena_guano":92,"pct_basura_formal":85,"pct_basura_quema":15,"pct_basura_informal":0,"pct_internet":62,"pct_celular":77,"pct_televisor":54}},{"type":"Feature","geometry":{"type":"Polygon","coordinates":[[[-68.74258,-16.19046],[-68.74313,-16.19037],[-68.74298,-16.1895],[-68.74242,-16.1896],[-68.74258,-16.19046]]]},"properties":{"n":"CHUA COCANI","p":17,"personas_x_ha":29,"masculinidad":89,"pct_menor20":24,"pct_60mas":6,"pct_migrante":24,"dependencia_econ":89,"pct_empleados":33,"pct_cuentapropia":44,"pct_agricultura":56,"pct_comercio":33,"pct_manufactura":0,"pct_construccion":0,"pct_transporte":0,"pct_alojamiento":11,"pct_educ_superior":54,"brecha_educ":-33,"pct_sin_seguro":18,"pct_seguro_privado":0,"brecha_seguro":14,"pct_med_tradicional":10,"pct_automedicacion":20,"pct_remedios_caseros":20,"pct_viv_desocupada":0,"pct_alquiler":0,"pct_electricidad":80,"pct_agua_red":100,"pct_alcantarillado":0,"pct_gas_red":0,"pct_gas_garrafa":80,"pct_lena_guano":80,"pct_basura_formal":100,"pct_basura_quema":0,"pct_basura_informal":0,"pct_internet":80,"pct_celular":100,"pct_televisor":60}},{"type":"Feature","geometry":{"type":"Polygon","coordinates":[[[-68.74486,-16.19004],[-68.74542,-16.18994],[-68.74528,-16.18915],[-68.74472,-16.18922],[-68.74486,-16.19004]]]},"properties":{"n":"CHUA COCANI","p":26,"personas_x_ha":46,"masculinidad":136,"pct_menor20":35,"pct_60mas":19,"pct_migrante":12,"dependencia_econ":108,"pct_empleados":8,"pct_cuentapropia":83,"pct_agricultura":25,"pct_comercio":25,"pct_manufactura":8,"pct_construccion":8,"pct_transporte":0,"pct_alojamiento":0,"pct_educ_superior":19,"brecha_educ":-6,"pct_sin_seguro":16,"pct_seguro_privado":0,"brecha_seguro":12,"pct_med_tradicional":17,"pct_automedicacion":8,"pct_remedios_caseros":23,"pct_viv_desocupada":0,"pct_alquiler":6,"pct_electricidad":83,"pct_agua_red":33,"pct_alcantarillado":0,"pct_gas_red":0,"pct_gas_garrafa":78,"pct_lena_guano":78,"pct_basura_formal":89,"pct_basura_quema":6,"pct_basura_informal":0,"pct_internet":50,"pct_celular":72,"pct_televisor":61}},{"type":"Feature","geometry":{"type":"Polygon","coordinates":[[[-68.74449,-16.19346],[-68.74533,-16.19332],[-68.74527,-16.19294],[-68.74444,-16.19309],[-68.74449,-16.19346]]]},"properties":{"n":"CHUA COCANI","p":24,"personas_x_ha":61,"masculinidad":60,"pct_menor20":25,"pct_60mas":25,"pct_migrante":38,"dependencia_econ":100,"pct_empleados":8,"pct_cuentapropia":75,"pct_agricultura":58,"pct_comercio":33,"pct_manufactura":0,"pct_construccion":0,"pct_transporte":0,"pct_alojamiento":0,"pct_educ_superior":16,"brecha_educ":4,"pct_sin_seguro":21,"pct_seguro_privado":0,"brecha_seguro":20,"pct_med_tradicional":18,"pct_automedicacion":12,"pct_remedios_caseros":22,"pct_viv_desocupada":0,"pct_alquiler":7,"pct_electricidad":79,"pct_agua_red":43,"pct_alcantarillado":0,"pct_gas_red":0,"pct_gas_garrafa":93,"pct_lena_guano":93,"pct_basura_formal":79,"pct_basura_quema":14,"pct_basura_informal":0,"pct_internet":64,"pct_celular":79,"pct_televisor":36}},{"type":"Feature","geometry":{"type":"Polygon","coordinates":[[[-68.74292,-16.18856],[-68.74307,-16.18938],[-68.74363,-16.18929],[-68.74346,-16.18848],[-68.74292,-16.18856]]]},"properties":{"n":"CHUA COCANI","p":35,"personas_x_ha":63,"masculinidad":52,"pct_menor20":31,"pct_60mas":26,"pct_migrante":34,"dependencia_econ":119,"pct_empleados":31,"pct_cuentapropia":56,"pct_agricultura":44,"pct_comercio":12,"pct_manufactura":0,"pct_construccion":19,"pct_transporte":6,"pct_alojamiento":12,"pct_educ_superior":12,"brecha_educ":-12,"pct_sin_seguro":26,"pct_seguro_privado":0,"brecha_seguro":-2,"pct_med_tradicional":12,"pct_automedicacion":22,"pct_remedios_caseros":24,"pct_viv_desocupada":0,"pct_alquiler":0,"pct_electricidad":75,"pct_agua_red":69,"pct_alcantarillado":0,"pct_gas_red":0,"pct_gas_garrafa":75,"pct_lena_guano":75,"pct_basura_formal":100,"pct_basura_quema":0,"pct_basura_informal":0,"pct_internet":56,"pct_celular":88,"pct_televisor":50}},{"type":"Feature","geometry":{"type":"Polygon","coordinates":[[[-68.74503,-16.19093],[-68.74558,-16.19087],[-68.74545,-16.1902],[-68.74491,-16.19029],[-68.74503,-16.19093]]]},"properties":{"n":"CHUA COCANI","p":33,"personas_x_ha":72,"masculinidad":74,"pct_menor20":27,"pct_60mas":18,"pct_migrante":21,"dependencia_econ":60,"pct_empleados":20,"pct_cuentapropia":55,"pct_agricultura":15,"pct_comercio":25,"pct_manufactura":0,"pct_construccion":10,"pct_transporte":5,"pct_alojamiento":10,"pct_educ_superior":22,"brecha_educ":-13,"pct_sin_seguro":12,"pct_seguro_privado":3,"brecha_seguro":-8,"pct_med_tradicional":14,"pct_automedicacion":7,"pct_remedios_caseros":22,"pct_viv_desocupada":6,"pct_alquiler":0,"pct_electricidad":82,"pct_agua_red":94,"pct_alcantarillado":0,"pct_gas_red":0,"pct_gas_garrafa":94,"pct_lena_guano":94,"pct_basura_formal":94,"pct_basura_quema":6,"pct_basura_informal":0,"pct_internet":29,"pct_celular":71,"pct_televisor":53}},{"type":"Feature","geometry":{"type":"Polygon","coordinates":[[[-68.7448,-16.19032],[-68.74443,-16.1904],[-68.74455,-16.19104],[-68.74492,-16.19095],[-68.7448,-16.19032]]]},"properties":{"n":"CHUA COCANI","p":48,"personas_x_ha":162,"masculinidad":66,"pct_menor20":50,"pct_60mas":4,"pct_migrante":54,"dependencia_econ":129,"pct_empleados":29,"pct_cuentapropia":71,"pct_agricultura":19,"pct_comercio":48,"pct_manufactura":19,"pct_construccion":0,"pct_transporte":0,"pct_alojamiento":14,"pct_educ_superior":50,"brecha_educ":-6,"pct_sin_seguro":6,"pct_seguro_privado":0,"brecha_seguro":16,"pct_med_tradicional":14,"pct_automedicacion":18,"pct_remedios_caseros":25,"pct_viv_desocupada":6,"pct_alquiler":0,"pct_electricidad":88,"pct_agua_red":19,"pct_alcantarillado":12,"pct_gas_red":0,"pct_gas_garrafa":100,"pct_lena_guano":100,"pct_basura_formal":94,"pct_basura_quema":0,"pct_basura_informal":0,"pct_internet":62,"pct_celular":94,"pct_televisor":69}},{"type":"Feature","geometry":{"type":"Polygon","coordinates":[[[-68.74509,-16.19192],[-68.74502,-16.19156],[-68.74466,-16.19162],[-68.74471,-16.19198],[-68.74509,-16.19192]]]},"properties":{"n":"CHUA COCANI","p":23,"personas_x_ha":140,"masculinidad":109,"pct_menor20":17,"pct_60mas":13,"pct_migrante":26,"dependencia_econ":44,"pct_empleados":44,"pct_cuentapropia":56,"pct_agricultura":50,"pct_comercio":19,"pct_manufactura":6,"pct_construccion":25,"pct_transporte":0,"pct_alojamiento":12,"pct_educ_superior":16,"brecha_educ":-3,"pct_sin_seguro":30,"pct_seguro_privado":0,"brecha_seguro":6,"pct_med_tradicional":3,"pct_automedicacion":16,"pct_remedios_caseros":16,"pct_viv_desocupada":0,"pct_alquiler":0,"pct_electricidad":100,"pct_agua_red":100,"pct_alcantarillado":0,"pct_gas_red":0,"pct_gas_garrafa":100,"pct_lena_guano":100,"pct_basura_formal":100,"pct_basura_quema":0,"pct_basura_informal":0,"pct_internet":62,"pct_celular":75,"pct_televisor":62}},{"type":"Feature","geometry":{"type":"Polygon","coordinates":[[[-68.74374,-16.18928],[-68.74411,-16.18922],[-68.74395,-16.18841],[-68.74358,-16.18847],[-68.74374,-16.18928]]]},"properties":{"n":"CHUA COCANI","p":27,"personas_x_ha":73,"masculinidad":125,"pct_menor20":19,"pct_60mas":15,"pct_migrante":22,"dependencia_econ":136,"pct_empleados":18,"pct_cuentapropia":45,"pct_agricultura":82,"pct_comercio":0,"pct_manufactura":9,"pct_construccion":0,"pct_transporte":0,"pct_alojamiento":0,"pct_educ_superior":26,"brecha_educ":-15,"pct_sin_seguro":4,"pct_seguro_privado":0,"brecha_seguro":7,"pct_med_tradicional":19,"pct_automedicacion":13,"pct_remedios_caseros":25,"pct_viv_desocupada":8,"pct_alquiler":8,"pct_electricidad":83,"pct_agua_red":50,"pct_alcantarillado":0,"pct_gas_red":0,"pct_gas_garrafa":83,"pct_lena_guano":83,"pct_basura_formal":83,"pct_basura_quema":17,"pct_basura_informal":0,"pct_internet":58,"pct_celular":83,"pct_televisor":42}},{"type":"Feature","geometry":{"type":"Polygon","coordinates":[[[-68.74557,-16.19017],[-68.74569,-16.19086],[-68.74625,-16.19076],[-68.74612,-16.19008],[-68.74557,-16.19017]]]},"properties":{"n":"CHUA COCANI","p":41,"personas_x_ha":87,"masculinidad":95,"pct_menor20":49,"pct_60mas":10,"pct_migrante":46,"dependencia_econ":128,"pct_empleados":50,"pct_cuentapropia":50,"pct_agricultura":22,"pct_comercio":28,"pct_manufactura":0,"pct_construccion":11,"pct_transporte":0,"pct_alojamiento":0,"pct_educ_superior":48,"brecha_educ":-9,"pct_sin_seguro":22,"pct_seguro_privado":0,"brecha_seguro":-4,"pct_med_tradicional":8,"pct_automedicacion":16,"pct_remedios_caseros":26,"pct_viv_desocupada":11,"pct_alquiler":12,"pct_electricidad":81,"pct_agua_red":62,"pct_alcantarillado":0,"pct_gas_red":0,"pct_gas_garrafa":88,"pct_lena_guano":88,"pct_basura_formal":69,"pct_basura_quema":19,"pct_basura_informal":0,"pct_internet":69,"pct_celular":100,"pct_televisor":69}},{"type":"Feature","geometry":{"type":"Polygon","coordinates":[[[-68.74441,-16.18822],[-68.74434,-16.18779],[-68.74389,-16.18738],[-68.74405,-16.18828],[-68.74441,-16.18822]]]},"properties":{"n":"CHUA COCANI","p":19,"personas_x_ha":61,"masculinidad":46,"pct_menor20":26,"pct_60mas":11,"pct_migrante":26,"dependencia_econ":171,"pct_empleados":71,"pct_cuentapropia":14,"pct_agricultura":14,"pct_comercio":0,"pct_manufactura":0,"pct_construccion":0,"pct_transporte":0,"pct_alojamiento":14,"pct_educ_superior":20,"brecha_educ":-50,"pct_sin_seguro":5,"pct_seguro_privado":0,"brecha_seguro":-8,"pct_med_tradicional":9,"pct_automedicacion":2,"pct_remedios_caseros":35,"pct_viv_desocupada":0,"pct_alquiler":10,"pct_electricidad":90,"pct_agua_red":100,"pct_alcantarillado":10,"pct_gas_red":0,"pct_gas_garrafa":80,"pct_lena_guano":80,"pct_basura_formal":70,"pct_basura_quema":20,"pct_basura_informal":20,"pct_internet":50,"pct_celular":90,"pct_televisor":50}},{"type":"Feature","geometry":{"type":"Polygon","coordinates":[[[-68.74413,-16.19205],[-68.74407,-16.19172],[-68.74351,-16.19182],[-68.74358,-16.19218],[-68.74413,-16.19205]]]},"properties":{"n":"CHUA COCANI","p":28,"personas_x_ha":113,"masculinidad":115,"pct_menor20":36,"pct_60mas":25,"pct_migrante":36,"dependencia_econ":115,"pct_empleados":0,"pct_cuentapropia":85,"pct_agricultura":23,"pct_comercio":15,"pct_manufactura":15,"pct_construccion":8,"pct_transporte":15,"pct_alojamiento":15,"pct_educ_superior":22,"brecha_educ":-44,"pct_sin_seguro":4,"pct_seguro_privado":4,"brecha_seguro":7,"pct_med_tradicional":10,"pct_automedicacion":20,"pct_remedios_caseros":20,"pct_viv_desocupada":0,"pct_alquiler":18,"pct_electricidad":100,"pct_agua_red":100,"pct_alcantarillado":18,"pct_gas_red":0,"pct_gas_garrafa":100,"pct_lena_guano":100,"pct_basura_formal":82,"pct_basura_quema":9,"pct_basura_informal":0,"pct_internet":64,"pct_celular":100,"pct_televisor":73}},{"type":"Feature","geometry":{"type":"Polygon","coordinates":[[[-68.75042,-16.19033],[-68.75105,-16.19027],[-68.75102,-16.18986],[-68.75136,-16.18978],[-68.75124,-16.18916],[-68.75106,-16.18899],[-68.75053,-16.18874],[-68.75014,-16.18881],[-68.75025,-16.18944],[-68.75064,-16.18937],[-68.75065,-16.18939],[-68.75068,-16.18967],[-68.75061,-16.18939],[-68.75026,-16.18945],[-68.75042,-16.19033]]]},"properties":{"n":"CHUA COCANI","p":50,"personas_x_ha":32,"masculinidad":67,"pct_menor20":38,"pct_60mas":8,"pct_migrante":24,"dependencia_econ":133,"pct_empleados":38,"pct_cuentapropia":62,"pct_agricultura":5,"pct_comercio":38,"pct_manufactura":10,"pct_construccion":5,"pct_transporte":19,"pct_alojamiento":5,"pct_educ_superior":25,"brecha_educ":2,"pct_sin_seguro":4,"pct_seguro_privado":0,"brecha_seguro":11,"pct_med_tradicional":15,"pct_automedicacion":11,"pct_remedios_caseros":30,"pct_viv_desocupada":0,"pct_alquiler":0,"pct_electricidad":94,"pct_agua_red":83,"pct_alcantarillado":6,"pct_gas_red":0,"pct_gas_garrafa":78,"pct_lena_guano":78,"pct_basura_formal":6,"pct_basura_quema":94,"pct_basura_informal":0,"pct_internet":67,"pct_celular":78,"pct_televisor":67}},{"type":"Feature","geometry":{"type":"Polygon","coordinates":[[[-68.74571,-16.19097],[-68.74578,-16.19132],[-68.74634,-16.19124],[-68.74627,-16.19088],[-68.74571,-16.19097]]]},"properties":{"n":"CHUA COCANI","p":18,"personas_x_ha":72,"masculinidad":125,"pct_menor20":6,"pct_60mas":17,"pct_migrante":0,"dependencia_econ":100,"pct_empleados":22,"pct_cuentapropia":44,"pct_agricultura":33,"pct_comercio":0,"pct_manufactura":11,"pct_construccion":11,"pct_transporte":22,"pct_alojamiento":0,"pct_educ_superior":41,"brecha_educ":10,"pct_sin_seguro":17,"pct_seguro_privado":0,"brecha_seguro":7,"pct_med_tradicional":5,"pct_automedicacion":0,"pct_remedios_caseros":5,"pct_viv_desocupada":0,"pct_alquiler":0,"pct_electricidad":100,"pct_agua_red":29,"pct_alcantarillado":0,"pct_gas_red":0,"pct_gas_garrafa":100,"pct_lena_guano":100,"pct_basura_formal":100,"pct_basura_quema":0,"pct_basura_informal":0,"pct_internet":57,"pct_celular":100,"pct_televisor":86}},{"type":"Feature","geometry":{"type":"Polygon","coordinates":[[[-68.74375,-16.18725],[-68.74345,-16.18761],[-68.74357,-16.18834],[-68.74394,-16.18828],[-68.74375,-16.18725]]]},"properties":{"n":"CHUA COCANI","p":21,"personas_x_ha":52,"masculinidad":110,"pct_menor20":19,"pct_60mas":10,"pct_migrante":48,"dependencia_econ":75,"pct_empleados":33,"pct_cuentapropia":58,"pct_agricultura":67,"pct_comercio":17,"pct_manufactura":50,"pct_construccion":0,"pct_transporte":0,"pct_alojamiento":0,"pct_educ_superior":12,"brecha_educ":-28,"pct_sin_seguro":30,"pct_seguro_privado":0,"brecha_seguro":-6,"pct_med_tradicional":3,"pct_automedicacion":12,"pct_remedios_caseros":16,"pct_viv_desocupada":0,"pct_alquiler":0,"pct_electricidad":90,"pct_agua_red":70,"pct_alcantarillado":0,"pct_gas_red":0,"pct_gas_garrafa":90,"pct_lena_guano":90,"pct_basura_formal":80,"pct_basura_quema":20,"pct_basura_informal":0,"pct_internet":30,"pct_celular":90,"pct_televisor":50}},{"type":"Feature","geometry":{"type":"Polygon","coordinates":[[[-68.74395,-16.1905],[-68.74407,-16.19112],[-68.74444,-16.19106],[-68.74431,-16.19043],[-68.74395,-16.1905]]]},"properties":{"n":"CHUA COCANI","p":23,"personas_x_ha":80,"masculinidad":77,"pct_menor20":35,"pct_60mas":4,"pct_migrante":48,"dependencia_econ":109,"pct_empleados":18,"pct_cuentapropia":64,"pct_agricultura":45,"pct_comercio":27,"pct_manufactura":0,"pct_construccion":0,"pct_transporte":0,"pct_alojamiento":18,"pct_educ_superior":33,"brecha_educ":-6,"pct_sin_seguro":23,"pct_seguro_privado":5,"brecha_seguro":18,"pct_med_tradicional":8,"pct_automedicacion":11,"pct_remedios_caseros":21,"pct_viv_desocupada":6,"pct_alquiler":0,"pct_electricidad":64,"pct_agua_red":64,"pct_alcantarillado":14,"pct_gas_red":0,"pct_gas_garrafa":71,"pct_lena_guano":71,"pct_basura_formal":36,"pct_basura_quema":64,"pct_basura_informal":0,"pct_internet":57,"pct_celular":71,"pct_televisor":29}},{"type":"Feature","geometry":{"type":"Polygon","coordinates":[[[-68.75015,-16.19076],[-68.75047,-16.19113],[-68.75086,-16.19112],[-68.75082,-16.19039],[-68.75051,-16.19041],[-68.75053,-16.1908],[-68.75048,-16.19042],[-68.74993,-16.19046],[-68.75014,-16.19075],[-68.75025,-16.19072],[-68.75034,-16.19072],[-68.75015,-16.19076]]]},"properties":{"n":"CHUA COCANI","p":26,"personas_x_ha":47,"masculinidad":62,"pct_menor20":27,"pct_60mas":27,"pct_migrante":31,"dependencia_econ":136,"pct_empleados":18,"pct_cuentapropia":55,"pct_agricultura":45,"pct_comercio":27,"pct_manufactura":9,"pct_construccion":0,"pct_transporte":18,"pct_alojamiento":18,"pct_educ_superior":25,"brecha_educ":12,"pct_sin_seguro":8,"pct_seguro_privado":19,"brecha_seguro":4,"pct_med_tradicional":3,"pct_automedicacion":8,"pct_remedios_caseros":14,"pct_viv_desocupada":0,"pct_alquiler":8,"pct_electricidad":100,"pct_agua_red":54,"pct_alcantarillado":23,"pct_gas_red":0,"pct_gas_garrafa":92,"pct_lena_guano":92,"pct_basura_formal":31,"pct_basura_quema":69,"pct_basura_informal":0,"pct_internet":8,"pct_celular":62,"pct_televisor":62}},{"type":"Feature","geometry":{"type":"Polygon","coordinates":[[[-68.74599,-16.19322],[-68.74594,-16.19284],[-68.74539,-16.19293],[-68.74545,-16.1933],[-68.74599,-16.19322]]]},"properties":{"n":"CHUA COCANI","p":21,"personas_x_ha":84,"masculinidad":110,"pct_menor20":48,"pct_60mas":10,"pct_migrante":48,"dependencia_econ":162,"pct_empleados":38,"pct_cuentapropia":50,"pct_agricultura":38,"pct_comercio":50,"pct_manufactura":12,"pct_construccion":0,"pct_transporte":0,"pct_alojamiento":12,"pct_educ_superior":15,"brecha_educ":-29,"pct_sin_seguro":10,"pct_seguro_privado":0,"brecha_seguro":18,"pct_med_tradicional":21,"pct_automedicacion":17,"pct_remedios_caseros":30,"pct_viv_desocupada":0,"pct_alquiler":11,"pct_electricidad":78,"pct_agua_red":78,"pct_alcantarillado":0,"pct_gas_red":0,"pct_gas_garrafa":78,"pct_lena_guano":78,"pct_basura_formal":67,"pct_basura_quema":33,"pct_basura_informal":0,"pct_internet":22,"pct_celular":78,"pct_televisor":33}},{"type":"Feature","geometry":{"type":"Polygon","coordinates":[[[-68.74852,-16.18419],[-68.74846,-16.18388],[-68.74849,-16.18419],[-68.74811,-16.18423],[-68.74805,-16.18361],[-68.74865,-16.18356],[-68.74851,-16.18192],[-68.74908,-16.18187],[-68.74934,-16.18427],[-68.74844,-16.1844],[-68.74845,-16.18479],[-68.74823,-16.18485],[-68.7482,-16.18466],[-68.74697,-16.18476],[-68.74688,-16.18377],[-68.74693,-16.18293],[-68.74712,-16.18206],[-68.74847,-16.18193],[-68.74854,-16.18277],[-68.7479,-16.18282],[-68.74855,-16.1828],[-68.74861,-16.18352],[-68.74703,-16.18368],[-68.74799,-16.18366],[-68.74805,-16.18434],[-68.74768,-16.18437],[-68.74762,-16.18388],[-68.74766,-16.18437],[-68.74715,-16.18445],[-68.74805,-16.18437],[-68.74807,-16.18451],[-68.74813,-16.18451],[-68.74811,-16.18426],[-68.74894,-16.18415],[-68.74881,-16.18416],[-68.7488,-16.1839],[-68.74878,-16.18416],[-68.74852,-16.18419]]]},"properties":{"n":"CHUA COCANI","p":244,"personas_x_ha":36,"masculinidad":961,"pct_menor20":79,"pct_60mas":0,"pct_migrante":93,"dependencia_econ":102,"pct_empleados":43,"pct_cuentapropia":33,"pct_agricultura":12,"pct_comercio":15,"pct_manufactura":12,"pct_construccion":25,"pct_transporte":6,"pct_alojamiento":11,"pct_educ_superior":28,"brecha_educ":0,"pct_sin_seguro":10,"pct_seguro_privado":1,"brecha_seguro":11,"pct_med_tradicional":14,"pct_automedicacion":15,"pct_remedios_caseros":22,"pct_viv_desocupada":0,"pct_alquiler":92,"pct_electricidad":92,"pct_agua_red":92,"pct_alcantarillado":67,"pct_gas_red":0,"pct_gas_garrafa":75,"pct_lena_guano":75,"pct_basura_formal":50,"pct_basura_quema":8,"pct_basura_informal":0,"pct_internet":100,"pct_celular":100,"pct_televisor":92}},{"type":"Feature","geometry":{"type":"Polygon","coordinates":[[[-68.74906,-16.19275],[-68.7498,-16.19254],[-68.75009,-16.19229],[-68.75007,-16.19124],[-68.75014,-16.19115],[-68.74969,-16.19056],[-68.74834,-16.19084],[-68.74785,-16.19131],[-68.74783,-16.19144],[-68.74906,-16.19275]]]},"properties":{"n":"CHUA COCANI","p":24,"personas_x_ha":6,"masculinidad":118,"pct_menor20":29,"pct_60mas":4,"pct_migrante":58,"dependencia_econ":41,"pct_empleados":24,"pct_cuentapropia":65,"pct_agricultura":24,"pct_comercio":35,"pct_manufactura":12,"pct_construccion":0,"pct_transporte":0,"pct_alojamiento":0,"pct_educ_superior":44,"brecha_educ":-12,"pct_sin_seguro":17,"pct_seguro_privado":0,"brecha_seguro":-3,"pct_med_tradicional":6,"pct_automedicacion":3,"pct_remedios_caseros":6,"pct_viv_desocupada":0,"pct_alquiler":0,"pct_electricidad":82,"pct_agua_red":82,"pct_alcantarillado":18,"pct_gas_red":0,"pct_gas_garrafa":91,"pct_lena_guano":91,"pct_basura_formal":45,"pct_basura_quema":55,"pct_basura_informal":0,"pct_internet":73,"pct_celular":73,"pct_televisor":64}},{"type":"Feature","geometry":{"type":"Polygon","coordinates":[[[-68.74423,-16.1893],[-68.74439,-16.19013],[-68.74475,-16.19006],[-68.7446,-16.18924],[-68.74423,-16.1893]]]},"properties":{"n":"CHUA COCANI","p":17,"personas_x_ha":44,"masculinidad":89,"pct_menor20":0,"pct_60mas":41,"pct_migrante":35,"dependencia_econ":70,"pct_empleados":20,"pct_cuentapropia":70,"pct_agricultura":50,"pct_comercio":40,"pct_manufactura":0,"pct_construccion":10,"pct_transporte":0,"pct_alojamiento":0,"pct_educ_superior":41,"brecha_educ":-65,"pct_sin_seguro":6,"pct_seguro_privado":6,"brecha_seguro":-11,"pct_med_tradicional":0,"pct_automedicacion":0,"pct_remedios_caseros":5,"pct_viv_desocupada":0,"pct_alquiler":7,"pct_electricidad":100,"pct_agua_red":57,"pct_alcantarillado":0,"pct_gas_red":0,"pct_gas_garrafa":100,"pct_lena_guano":100,"pct_basura_formal":79,"pct_basura_quema":7,"pct_basura_informal":14,"pct_internet":29,"pct_celular":86,"pct_televisor":36}},{"type":"Feature","geometry":{"type":"Polygon","coordinates":[[[-68.76842,-16.17976],[-68.76763,-16.17989],[-68.76795,-16.18092],[-68.76882,-16.18078],[-68.76842,-16.17976]]]},"properties":{"n":"CHUA VISALAYA BAJO","p":18,"personas_x_ha":17,"masculinidad":50,"pct_menor20":28,"pct_60mas":17,"pct_migrante":28,"dependencia_econ":29,"pct_empleados":29,"pct_cuentapropia":71,"pct_agricultura":29,"pct_comercio":7,"pct_manufactura":21,"pct_construccion":0,"pct_transporte":7,"pct_alojamiento":14,"pct_educ_superior":8,"brecha_educ":-18,"pct_sin_seguro":44,"pct_seguro_privado":0,"brecha_seguro":8,"pct_med_tradicional":14,"pct_automedicacion":24,"pct_remedios_caseros":27,"pct_viv_desocupada":0,"pct_alquiler":0,"pct_electricidad":57,"pct_agua_red":71,"pct_alcantarillado":0,"pct_gas_red":0,"pct_gas_garrafa":71,"pct_lena_guano":71,"pct_basura_formal":0,"pct_basura_quema":100,"pct_basura_informal":0,"pct_internet":14,"pct_celular":86,"pct_televisor":29}},{"type":"Feature","geometry":{"type":"Polygon","coordinates":[[[-68.76858,-16.17886],[-68.76822,-16.17861],[-68.76813,-16.17867],[-68.76954,-16.18239],[-68.77145,-16.18126],[-68.77101,-16.18063],[-68.76979,-16.18001],[-68.76858,-16.17886]]]},"properties":{"n":"CHUA VISALAYA BAJO","p":52,"personas_x_ha":9,"masculinidad":100,"pct_menor20":33,"pct_60mas":8,"pct_migrante":42,"dependencia_econ":52,"pct_empleados":39,"pct_cuentapropia":42,"pct_agricultura":33,"pct_comercio":21,"pct_manufactura":12,"pct_construccion":6,"pct_transporte":0,"pct_alojamiento":0,"pct_educ_superior":23,"brecha_educ":-19,"pct_sin_seguro":8,"pct_seguro_privado":0,"brecha_seguro":-9,"pct_med_tradicional":17,"pct_automedicacion":14,"pct_remedios_caseros":20,"pct_viv_desocupada":0,"pct_alquiler":0,"pct_electricidad":68,"pct_agua_red":59,"pct_alcantarillado":0,"pct_gas_red":0,"pct_gas_garrafa":86,"pct_lena_guano":86,"pct_basura_formal":14,"pct_basura_quema":68,"pct_basura_informal":0,"pct_internet":64,"pct_celular":91,"pct_televisor":82}},{"type":"Feature","geometry":{"type":"Polygon","coordinates":[[[-68.76805,-16.18348],[-68.76849,-16.18318],[-68.76809,-16.18249],[-68.76793,-16.18255],[-68.76776,-16.18307],[-68.76805,-16.18348]]]},"properties":{"n":"CHUA VISALAYA BAJO","p":32,"personas_x_ha":69,"masculinidad":60,"pct_menor20":34,"pct_60mas":22,"pct_migrante":66,"dependencia_econ":94,"pct_empleados":38,"pct_cuentapropia":38,"pct_agricultura":31,"pct_comercio":25,"pct_manufactura":0,"pct_construccion":6,"pct_transporte":0,"pct_alojamiento":12,"pct_educ_superior":43,"brecha_educ":-36,"pct_sin_seguro":6,"pct_seguro_privado":0,"brecha_seguro":-10,"pct_med_tradicional":12,"pct_automedicacion":20,"pct_remedios_caseros":27,"pct_viv_desocupada":0,"pct_alquiler":0,"pct_electricidad":100,"pct_agua_red":92,"pct_alcantarillado":0,"pct_gas_red":0,"pct_gas_garrafa":100,"pct_lena_guano":100,"pct_basura_formal":0,"pct_basura_quema":100,"pct_basura_informal":0,"pct_internet":83,"pct_celular":100,"pct_televisor":83}},{"type":"Feature","geometry":{"type":"Polygon","coordinates":[[[-68.76939,-16.18348],[-68.7691,-16.18308],[-68.76872,-16.18335],[-68.769,-16.18375],[-68.76939,-16.18348]]]},"properties":{"n":"CHUA VISALAYA BAJO","p":23,"personas_x_ha":83,"masculinidad":92,"pct_menor20":35,"pct_60mas":17,"pct_migrante":65,"dependencia_econ":64,"pct_empleados":29,"pct_cuentapropia":64,"pct_agricultura":14,"pct_comercio":14,"pct_manufactura":14,"pct_construccion":7,"pct_transporte":14,"pct_alojamiento":21,"pct_educ_superior":53,"brecha_educ":-23,"pct_sin_seguro":13,"pct_seguro_privado":0,"brecha_seguro":27,"pct_med_tradicional":18,"pct_automedicacion":17,"pct_remedios_caseros":16,"pct_viv_desocupada":0,"pct_alquiler":0,"pct_electricidad":83,"pct_agua_red":100,"pct_alcantarillado":8,"pct_gas_red":0,"pct_gas_garrafa":100,"pct_lena_guano":100,"pct_basura_formal":17,"pct_basura_quema":58,"pct_basura_informal":17,"pct_internet":67,"pct_celular":100,"pct_televisor":33}},{"type":"Feature","geometry":{"type":"Polygon","coordinates":[[[-68.76964,-16.18343],[-68.76905,-16.18384],[-68.76936,-16.18427],[-68.76965,-16.18392],[-68.76964,-16.18343]]]},"properties":{"n":"CHUA VISALAYA BAJO","p":36,"personas_x_ha":106,"masculinidad":89,"pct_menor20":31,"pct_60mas":11,"pct_migrante":75,"dependencia_econ":44,"pct_empleados":20,"pct_cuentapropia":44,"pct_agricultura":48,"pct_comercio":28,"pct_manufactura":8,"pct_construccion":0,"pct_transporte":8,"pct_alojamiento":0,"pct_educ_superior":28,"brecha_educ":-17,"pct_sin_seguro":23,"pct_seguro_privado":0,"brecha_seguro":-8,"pct_med_tradicional":18,"pct_automedicacion":17,"pct_remedios_caseros":30,"pct_viv_desocupada":7,"pct_alquiler":0,"pct_electricidad":92,"pct_agua_red":77,"pct_alcantarillado":0,"pct_gas_red":0,"pct_gas_garrafa":100,"pct_lena_guano":100,"pct_basura_formal":46,"pct_basura_quema":54,"pct_basura_informal":0,"pct_internet":85,"pct_celular":100,"pct_televisor":69}},{"type":"Feature","geometry":{"type":"Polygon","coordinates":[[[-68.76857,-16.18311],[-68.76894,-16.18284],[-68.76865,-16.18245],[-68.76828,-16.18273],[-68.76857,-16.18311]]]},"properties":{"n":"CHUA VISALAYA BAJO","p":27,"personas_x_ha":100,"masculinidad":93,"pct_menor20":26,"pct_60mas":15,"pct_migrante":19,"dependencia_econ":69,"pct_empleados":25,"pct_cuentapropia":62,"pct_agricultura":38,"pct_comercio":12,"pct_manufactura":12,"pct_construccion":0,"pct_transporte":6,"pct_alojamiento":0,"pct_educ_superior":45,"brecha_educ":-33,"pct_sin_seguro":19,"pct_seguro_privado":0,"brecha_seguro":-36,"pct_med_tradicional":7,"pct_automedicacion":21,"pct_remedios_caseros":26,"pct_viv_desocupada":0,"pct_alquiler":0,"pct_electricidad":78,"pct_agua_red":78,"pct_alcantarillado":0,"pct_gas_red":0,"pct_gas_garrafa":67,"pct_lena_guano":67,"pct_basura_formal":0,"pct_basura_quema":89,"pct_basura_informal":0,"pct_internet":56,"pct_celular":89,"pct_televisor":78}},{"type":"Feature","geometry":{"type":"Polygon","coordinates":[[[-68.76577,-16.18323],[-68.76487,-16.18322],[-68.76455,-16.18332],[-68.76438,-16.18362],[-68.76404,-16.18352],[-68.76363,-16.18372],[-68.76428,-16.18435],[-68.76582,-16.18347],[-68.76577,-16.18323]]]},"properties":{"n":"CHUA VISALAYA BAJO","p":17,"personas_x_ha":12,"masculinidad":55,"pct_menor20":47,"pct_60mas":12,"pct_migrante":71,"dependencia_econ":112,"pct_empleados":12,"pct_cuentapropia":88,"pct_agricultura":25,"pct_comercio":38,"pct_manufactura":12,"pct_construccion":25,"pct_transporte":0,"pct_alojamiento":12,"pct_educ_superior":11,"brecha_educ":-17,"pct_sin_seguro":29,"pct_seguro_privado":0,"brecha_seguro":6,"pct_med_tradicional":16,"pct_automedicacion":25,"pct_remedios_caseros":25,"pct_viv_desocupada":0,"pct_alquiler":0,"pct_electricidad":25,"pct_agua_red":75,"pct_alcantarillado":0,"pct_gas_red":0,"pct_gas_garrafa":88,"pct_lena_guano":88,"pct_basura_formal":0,"pct_basura_quema":75,"pct_basura_informal":25,"pct_internet":100,"pct_celular":100,"pct_televisor":75}},{"type":"Feature","geometry":{"type":"Polygon","coordinates":[[[-68.76948,-16.18246],[-68.76929,-16.18196],[-68.76871,-16.18241],[-68.769,-16.1828],[-68.76948,-16.18246]]]},"properties":{"n":"CHUA VISALAYA BAJO","p":28,"personas_x_ha":71,"masculinidad":180,"pct_menor20":32,"pct_60mas":11,"pct_migrante":39,"dependencia_econ":100,"pct_empleados":14,"pct_cuentapropia":79,"pct_agricultura":36,"pct_comercio":7,"pct_manufactura":29,"pct_construccion":21,"pct_transporte":7,"pct_alojamiento":7,"pct_educ_superior":45,"brecha_educ":-13,"pct_sin_seguro":32,"pct_seguro_privado":0,"brecha_seguro":34,"pct_med_tradicional":12,"pct_automedicacion":18,"pct_remedios_caseros":22,"pct_viv_desocupada":0,"pct_alquiler":0,"pct_electricidad":58,"pct_agua_red":100,"pct_alcantarillado":0,"pct_gas_red":0,"pct_gas_garrafa":83,"pct_lena_guano":83,"pct_basura_formal":0,"pct_basura_quema":67,"pct_basura_informal":0,"pct_internet":67,"pct_celular":92,"pct_televisor":17}},{"type":"Feature","geometry":{"type":"Polygon","coordinates":[[[-68.76779,-16.18406],[-68.76805,-16.18444],[-68.76842,-16.18417],[-68.76817,-16.1838],[-68.76779,-16.18406]]]},"properties":{"n":"CHUA VISALAYA BAJO","p":43,"personas_x_ha":173,"masculinidad":87,"pct_menor20":30,"pct_60mas":14,"pct_migrante":23,"dependencia_econ":169,"pct_empleados":50,"pct_cuentapropia":38,"pct_agricultura":31,"pct_comercio":25,"pct_manufactura":6,"pct_construccion":0,"pct_transporte":0,"pct_alojamiento":6,"pct_educ_superior":33,"brecha_educ":-31,"pct_sin_seguro":12,"pct_seguro_privado":0,"brecha_seguro":16,"pct_med_tradicional":21,"pct_automedicacion":18,"pct_remedios_caseros":22,"pct_viv_desocupada":0,"pct_alquiler":0,"pct_electricidad":100,"pct_agua_red":94,"pct_alcantarillado":0,"pct_gas_red":0,"pct_gas_garrafa":100,"pct_lena_guano":100,"pct_basura_formal":6,"pct_basura_quema":94,"pct_basura_informal":0,"pct_internet":69,"pct_celular":88,"pct_televisor":88}}]}