{"type":"FeatureCollection","features":[{"type":"Feature","geometry":{"type":"Polygon","coordinates":[[[-69.03271,-16.5685],[-69.03256,-16.56811],[-69.03176,-16.56844],[-69.03192,-16.56879],[-69.03271,-16.5685]]]},"properties":{"n":"DESAGUADERO","p":32,"personas_x_ha":74,"masculinidad":68,"pct_menor20":38,"pct_60mas":0,"pct_migrante":31,"dependencia_econ":129,"pct_empleados":21,"pct_cuentapropia":79,"pct_agricultura":0,"pct_comercio":50,"pct_manufactura":0,"pct_construccion":0,"pct_transporte":36,"pct_alojamiento":0,"pct_educ_superior":19,"brecha_educ":-18,"pct_sin_seguro":22,"pct_seguro_privado":6,"brecha_seguro":15,"pct_med_tradicional":18,"pct_automedicacion":22,"pct_remedios_caseros":24,"pct_viv_desocupada":22,"pct_alquiler":10,"pct_electricidad":100,"pct_agua_red":90,"pct_alcantarillado":90,"pct_gas_red":50,"pct_gas_garrafa":50,"pct_lena_guano":50,"pct_basura_formal":100,"pct_basura_quema":0,"pct_basura_informal":0,"pct_internet":100,"pct_celular":100,"pct_televisor":80}},{"type":"Feature","geometry":{"type":"Polygon","coordinates":[[[-69.0336,-16.56614],[-69.03267,-16.56652],[-69.03267,-16.56655],[-69.03304,-16.56696],[-69.0338,-16.56673],[-69.0336,-16.56614]]]},"properties":{"n":"DESAGUADERO","p":63,"personas_x_ha":96,"masculinidad":117,"pct_menor20":41,"pct_60mas":6,"pct_migrante":38,"dependencia_econ":121,"pct_empleados":4,"pct_cuentapropia":79,"pct_agricultura":11,"pct_comercio":43,"pct_manufactura":4,"pct_construccion":0,"pct_transporte":36,"pct_alojamiento":7,"pct_educ_superior":27,"brecha_educ":-44,"pct_sin_seguro":34,"pct_seguro_privado":0,"brecha_seguro":-3,"pct_med_tradicional":10,"pct_automedicacion":24,"pct_remedios_caseros":30,"pct_viv_desocupada":7,"pct_alquiler":8,"pct_electricidad":100,"pct_agua_red":88,"pct_alcantarillado":100,"pct_gas_red":36,"pct_gas_garrafa":64,"pct_lena_guano":64,"pct_basura_formal":100,"pct_basura_quema":0,"pct_basura_informal":0,"pct_internet":80,"pct_celular":96,"pct_televisor":92}},{"type":"Feature","geometry":{"type":"Polygon","coordinates":[[[-69.03511,-16.56635],[-69.03462,-16.56653],[-69.03486,-16.56706],[-69.03533,-16.56685],[-69.03511,-16.56635]]]},"properties":{"n":"DESAGUADERO","p":54,"personas_x_ha":148,"masculinidad":74,"pct_menor20":17,"pct_60mas":17,"pct_migrante":61,"dependencia_econ":20,"pct_empleados":13,"pct_cuentapropia":80,"pct_agricultura":0,"pct_comercio":49,"pct_manufactura":11,"pct_construccion":2,"pct_transporte":18,"pct_alojamiento":7,"pct_educ_superior":32,"brecha_educ":-47,"pct_sin_seguro":30,"pct_seguro_privado":0,"brecha_seguro":17,"pct_med_tradicional":16,"pct_automedicacion":20,"pct_remedios_caseros":26,"pct_viv_desocupada":0,"pct_alquiler":22,"pct_electricidad":96,"pct_agua_red":83,"pct_alcantarillado":91,"pct_gas_red":48,"pct_gas_garrafa":52,"pct_lena_guano":52,"pct_basura_formal":96,"pct_basura_quema":0,"pct_basura_informal":0,"pct_internet":74,"pct_celular":91,"pct_televisor":78}},{"type":"Feature","geometry":{"type":"Polygon","coordinates":[[[-69.03478,-16.56566],[-69.03428,-16.56585],[-69.03458,-16.56647],[-69.03507,-16.56626],[-69.03478,-16.56566]]]},"properties":{"n":"DESAGUADERO","p":62,"personas_x_ha":138,"masculinidad":138,"pct_menor20":34,"pct_60mas":19,"pct_migrante":47,"dependencia_econ":88,"pct_empleados":3,"pct_cuentapropia":94,"pct_agricultura":3,"pct_comercio":58,"pct_manufactura":6,"pct_construccion":0,"pct_transporte":18,"pct_alojamiento":3,"pct_educ_superior":33,"brecha_educ":-24,"pct_sin_seguro":18,"pct_seguro_privado":2,"brecha_seguro":-9,"pct_med_tradicional":15,"pct_automedicacion":21,"pct_remedios_caseros":26,"pct_viv_desocupada":8,"pct_alquiler":13,"pct_electricidad":100,"pct_agua_red":91,"pct_alcantarillado":87,"pct_gas_red":30,"pct_gas_garrafa":61,"pct_lena_guano":61,"pct_basura_formal":96,"pct_basura_quema":0,"pct_basura_informal":9,"pct_internet":57,"pct_celular":91,"pct_televisor":96}},{"type":"Feature","geometry":{"type":"Polygon","coordinates":[[[-69.0244,-16.57278],[-69.02385,-16.5722],[-69.02447,-16.57165],[-69.02502,-16.57221],[-69.0244,-16.57278]]]},"properties":{"n":"DESAGUADERO","p":25,"personas_x_ha":31,"masculinidad":79,"pct_menor20":44,"pct_60mas":4,"pct_migrante":8,"dependencia_econ":127,"pct_empleados":0,"pct_cuentapropia":100,"pct_agricultura":9,"pct_comercio":18,"pct_manufactura":0,"pct_construccion":0,"pct_transporte":64,"pct_alojamiento":9,"pct_educ_superior":7,"brecha_educ":-29,"pct_sin_seguro":12,"pct_seguro_privado":0,"brecha_seguro":11,"pct_med_tradicional":15,"pct_automedicacion":8,"pct_remedios_caseros":28,"pct_viv_desocupada":0,"pct_alquiler":25,"pct_electricidad":100,"pct_agua_red":100,"pct_alcantarillado":38,"pct_gas_red":0,"pct_gas_garrafa":100,"pct_lena_guano":100,"pct_basura_formal":88,"pct_basura_quema":12,"pct_basura_informal":0,"pct_internet":88,"pct_celular":100,"pct_televisor":100}},{"type":"Feature","geometry":{"type":"Polygon","coordinates":[[[-69.02843,-16.57238],[-69.02829,-16.57203],[-69.02761,-16.57226],[-69.02773,-16.5726],[-69.02843,-16.57238]]]},"properties":{"n":"DESAGUADERO","p":41,"personas_x_ha":123,"masculinidad":95,"pct_menor20":54,"pct_60mas":0,"pct_migrante":7,"dependencia_econ":310,"pct_empleados":0,"pct_cuentapropia":100,"pct_agricultura":0,"pct_comercio":30,"pct_manufactura":0,"pct_construccion":10,"pct_transporte":60,"pct_alojamiento":0,"pct_educ_superior":16,"brecha_educ":10,"pct_sin_seguro":17,"pct_seguro_privado":0,"brecha_seguro":-4,"pct_med_tradicional":2,"pct_automedicacion":5,"pct_remedios_caseros":5,"pct_viv_desocupada":0,"pct_alquiler":11,"pct_electricidad":100,"pct_agua_red":100,"pct_alcantarillado":67,"pct_gas_red":0,"pct_gas_garrafa":100,"pct_lena_guano":100,"pct_basura_formal":78,"pct_basura_quema":22,"pct_basura_informal":0,"pct_internet":89,"pct_celular":89,"pct_televisor":89}},{"type":"Feature","geometry":{"type":"Polygon","coordinates":[[[-69.02765,-16.57196],[-69.0277,-16.57209],[-69.02827,-16.57189],[-69.02807,-16.57139],[-69.02738,-16.57162],[-69.02746,-16.57188],[-69.02765,-16.57196]]]},"properties":{"n":"DESAGUADERO","p":34,"personas_x_ha":75,"masculinidad":100,"pct_menor20":38,"pct_60mas":15,"pct_migrante":18,"dependencia_econ":112,"pct_empleados":0,"pct_cuentapropia":81,"pct_agricultura":25,"pct_comercio":38,"pct_manufactura":19,"pct_construccion":0,"pct_transporte":38,"pct_alojamiento":0,"pct_educ_superior":14,"brecha_educ":-14,"pct_sin_seguro":15,"pct_seguro_privado":0,"brecha_seguro":-7,"pct_med_tradicional":12,"pct_automedicacion":24,"pct_remedios_caseros":25,"pct_viv_desocupada":0,"pct_alquiler":0,"pct_electricidad":100,"pct_agua_red":91,"pct_alcantarillado":82,"pct_gas_red":9,"pct_gas_garrafa":91,"pct_lena_guano":91,"pct_basura_formal":91,"pct_basura_quema":0,"pct_basura_informal":0,"pct_internet":64,"pct_celular":91,"pct_televisor":82}},{"type":"Feature","geometry":{"type":"Polygon","coordinates":[[[-69.02899,-16.57111],[-69.02821,-16.57134],[-69.02836,-16.57185],[-69.02903,-16.57166],[-69.02899,-16.57111]]]},"properties":{"n":"DESAGUADERO","p":45,"personas_x_ha":88,"masculinidad":96,"pct_menor20":42,"pct_60mas":11,"pct_migrante":20,"dependencia_econ":100,"pct_empleados":5,"pct_cuentapropia":71,"pct_agricultura":43,"pct_comercio":29,"pct_manufactura":0,"pct_construccion":5,"pct_transporte":19,"pct_alojamiento":10,"pct_educ_superior":16,"brecha_educ":-43,"pct_sin_seguro":22,"pct_seguro_privado":0,"brecha_seguro":-13,"pct_med_tradicional":13,"pct_automedicacion":23,"pct_remedios_caseros":26,"pct_viv_desocupada":19,"pct_alquiler":15,"pct_electricidad":85,"pct_agua_red":100,"pct_alcantarillado":69,"pct_gas_red":31,"pct_gas_garrafa":69,"pct_lena_guano":69,"pct_basura_formal":100,"pct_basura_quema":0,"pct_basura_informal":0,"pct_internet":77,"pct_celular":85,"pct_televisor":62}},{"type":"Feature","geometry":{"type":"Polygon","coordinates":[[[-69.03385,-16.57144],[-69.03375,-16.57118],[-69.03349,-16.57128],[-69.03374,-16.57116],[-69.03354,-16.57064],[-69.03282,-16.57088],[-69.03313,-16.57177],[-69.03385,-16.57144]]]},"properties":{"n":"DESAGUADERO","p":73,"personas_x_ha":84,"masculinidad":109,"pct_menor20":42,"pct_60mas":5,"pct_migrante":22,"dependencia_econ":152,"pct_empleados":14,"pct_cuentapropia":83,"pct_agricultura":10,"pct_comercio":34,"pct_manufactura":3,"pct_construccion":0,"pct_transporte":41,"pct_alojamiento":7,"pct_educ_superior":19,"brecha_educ":6,"pct_sin_seguro":23,"pct_seguro_privado":0,"brecha_seguro":1,"pct_med_tradicional":21,"pct_automedicacion":16,"pct_remedios_caseros":24,"pct_viv_desocupada":13,"pct_alquiler":0,"pct_electricidad":95,"pct_agua_red":84,"pct_alcantarillado":79,"pct_gas_red":0,"pct_gas_garrafa":100,"pct_lena_guano":100,"pct_basura_formal":89,"pct_basura_quema":0,"pct_basura_informal":21,"pct_internet":89,"pct_celular":100,"pct_televisor":84}},{"type":"Feature","geometry":{"type":"Polygon","coordinates":[[[-69.03019,-16.57059],[-69.03059,-16.57165],[-69.03176,-16.57121],[-69.03128,-16.57011],[-69.03019,-16.57059]]]},"properties":{"n":"DESAGUADERO","p":70,"personas_x_ha":40,"masculinidad":100,"pct_menor20":36,"pct_60mas":10,"pct_migrante":27,"dependencia_econ":75,"pct_empleados":18,"pct_cuentapropia":82,"pct_agricultura":0,"pct_comercio":32,"pct_manufactura":8,"pct_construccion":2,"pct_transporte":38,"pct_alojamiento":8,"pct_educ_superior":19,"brecha_educ":-12,"pct_sin_seguro":22,"pct_seguro_privado":0,"brecha_seguro":21,"pct_med_tradicional":14,"pct_automedicacion":15,"pct_remedios_caseros":33,"pct_viv_desocupada":0,"pct_alquiler":5,"pct_electricidad":100,"pct_agua_red":100,"pct_alcantarillado":100,"pct_gas_red":10,"pct_gas_garrafa":90,"pct_lena_guano":90,"pct_basura_formal":100,"pct_basura_quema":0,"pct_basura_informal":0,"pct_internet":90,"pct_celular":100,"pct_televisor":85}},{"type":"Feature","geometry":{"type":"Polygon","coordinates":[[[-69.03422,-16.57031],[-69.03409,-16.56977],[-69.03342,-16.57002],[-69.03363,-16.5705],[-69.03422,-16.57031]]]},"properties":{"n":"DESAGUADERO","p":21,"personas_x_ha":47,"masculinidad":62,"pct_menor20":43,"pct_60mas":0,"pct_migrante":33,"dependencia_econ":133,"pct_empleados":33,"pct_cuentapropia":44,"pct_agricultura":33,"pct_comercio":11,"pct_manufactura":0,"pct_construccion":22,"pct_transporte":22,"pct_alojamiento":11,"pct_educ_superior":8,"brecha_educ":-55,"pct_sin_seguro":19,"pct_seguro_privado":0,"brecha_seguro":10,"pct_med_tradicional":11,"pct_automedicacion":5,"pct_remedios_caseros":41,"pct_viv_desocupada":42,"pct_alquiler":14,"pct_electricidad":86,"pct_agua_red":100,"pct_alcantarillado":86,"pct_gas_red":14,"pct_gas_garrafa":86,"pct_lena_guano":86,"pct_basura_formal":100,"pct_basura_quema":0,"pct_basura_informal":0,"pct_internet":100,"pct_celular":100,"pct_televisor":57}},{"type":"Feature","geometry":{"type":"Polygon","coordinates":[[[-69.03104,-16.56908],[-69.03182,-16.56883],[-69.03168,-16.56847],[-69.03091,-16.56871],[-69.03104,-16.56908]]]},"properties":{"n":"DESAGUADERO","p":41,"personas_x_ha":103,"masculinidad":78,"pct_menor20":41,"pct_60mas":0,"pct_migrante":37,"dependencia_econ":86,"pct_empleados":14,"pct_cuentapropia":86,"pct_agricultura":0,"pct_comercio":36,"pct_manufactura":0,"pct_construccion":0,"pct_transporte":32,"pct_alojamiento":0,"pct_educ_superior":25,"brecha_educ":-29,"pct_sin_seguro":24,"pct_seguro_privado":0,"brecha_seguro":-4,"pct_med_tradicional":21,"pct_automedicacion":7,"pct_remedios_caseros":36,"pct_viv_desocupada":0,"pct_alquiler":0,"pct_electricidad":100,"pct_agua_red":100,"pct_alcantarillado":70,"pct_gas_red":40,"pct_gas_garrafa":60,"pct_lena_guano":60,"pct_basura_formal":100,"pct_basura_quema":0,"pct_basura_informal":0,"pct_internet":70,"pct_celular":70,"pct_televisor":70}},{"type":"Feature","geometry":{"type":"Polygon","coordinates":[[[-69.03478,-16.56953],[-69.03423,-16.56972],[-69.03439,-16.57029],[-69.03496,-16.57014],[-69.03478,-16.56953]]]},"properties":{"n":"DESAGUADERO","p":32,"personas_x_ha":71,"masculinidad":300,"pct_menor20":25,"pct_60mas":6,"pct_migrante":25,"dependencia_econ":41,"pct_empleados":9,"pct_cuentapropia":82,"pct_agricultura":5,"pct_comercio":14,"pct_manufactura":0,"pct_construccion":27,"pct_transporte":41,"pct_alojamiento":18,"pct_educ_superior":9,"brecha_educ":-9,"pct_sin_seguro":37,"pct_seguro_privado":0,"brecha_seguro":48,"pct_med_tradicional":11,"pct_automedicacion":29,"pct_remedios_caseros":22,"pct_viv_desocupada":33,"pct_alquiler":36,"pct_electricidad":100,"pct_agua_red":100,"pct_alcantarillado":100,"pct_gas_red":36,"pct_gas_garrafa":64,"pct_lena_guano":64,"pct_basura_formal":100,"pct_basura_quema":0,"pct_basura_informal":0,"pct_internet":73,"pct_celular":100,"pct_televisor":91}},{"type":"Feature","geometry":{"type":"Polygon","coordinates":[[[-69.03274,-16.56864],[-69.03197,-16.56892],[-69.03223,-16.56952],[-69.03297,-16.56919],[-69.03274,-16.56864]]]},"properties":{"n":"DESAGUADERO","p":67,"personas_x_ha":106,"masculinidad":116,"pct_menor20":45,"pct_60mas":9,"pct_migrante":13,"dependencia_econ":131,"pct_empleados":21,"pct_cuentapropia":59,"pct_agricultura":21,"pct_comercio":14,"pct_manufactura":3,"pct_construccion":3,"pct_transporte":34,"pct_alojamiento":10,"pct_educ_superior":15,"brecha_educ":-17,"pct_sin_seguro":16,"pct_seguro_privado":0,"brecha_seguro":13,"pct_med_tradicional":18,"pct_automedicacion":20,"pct_remedios_caseros":24,"pct_viv_desocupada":0,"pct_alquiler":0,"pct_electricidad":100,"pct_agua_red":100,"pct_alcantarillado":95,"pct_gas_red":27,"pct_gas_garrafa":73,"pct_lena_guano":73,"pct_basura_formal":100,"pct_basura_quema":0,"pct_basura_informal":0,"pct_internet":86,"pct_celular":95,"pct_televisor":100}},{"type":"Feature","geometry":{"type":"Polygon","coordinates":[[[-69.03611,-16.56583],[-69.0369,-16.56548],[-69.03678,-16.56482],[-69.03625,-16.56399],[-69.03554,-16.56445],[-69.03611,-16.56583]]]},"properties":{"n":"DESAGUADERO","p":59,"personas_x_ha":33,"masculinidad":79,"pct_menor20":44,"pct_60mas":5,"pct_migrante":41,"dependencia_econ":157,"pct_empleados":17,"pct_cuentapropia":78,"pct_agricultura":0,"pct_comercio":65,"pct_manufactura":0,"pct_construccion":4,"pct_transporte":17,"pct_alojamiento":0,"pct_educ_superior":45,"brecha_educ":-10,"pct_sin_seguro":22,"pct_seguro_privado":0,"brecha_seguro":2,"pct_med_tradicional":5,"pct_automedicacion":19,"pct_remedios_caseros":24,"pct_viv_desocupada":23,"pct_alquiler":48,"pct_electricidad":100,"pct_agua_red":100,"pct_alcantarillado":71,"pct_gas_red":14,"pct_gas_garrafa":62,"pct_lena_guano":62,"pct_basura_formal":100,"pct_basura_quema":0,"pct_basura_informal":0,"pct_internet":76,"pct_celular":90,"pct_televisor":90}},{"type":"Feature","geometry":{"type":"Polygon","coordinates":[[[-69.03615,-16.56645],[-69.03597,-16.566],[-69.03523,-16.56634],[-69.03546,-16.56678],[-69.03615,-16.56645]]]},"properties":{"n":"DESAGUADERO","p":33,"personas_x_ha":67,"masculinidad":74,"pct_menor20":45,"pct_60mas":6,"pct_migrante":55,"dependencia_econ":106,"pct_empleados":19,"pct_cuentapropia":62,"pct_agricultura":0,"pct_comercio":38,"pct_manufactura":12,"pct_construccion":0,"pct_transporte":6,"pct_alojamiento":25,"pct_educ_superior":42,"brecha_educ":-29,"pct_sin_seguro":31,"pct_seguro_privado":0,"brecha_seguro":33,"pct_med_tradicional":12,"pct_automedicacion":26,"pct_remedios_caseros":27,"pct_viv_desocupada":0,"pct_alquiler":30,"pct_electricidad":100,"pct_agua_red":100,"pct_alcantarillado":90,"pct_gas_red":10,"pct_gas_garrafa":80,"pct_lena_guano":80,"pct_basura_formal":90,"pct_basura_quema":0,"pct_basura_informal":0,"pct_internet":100,"pct_celular":100,"pct_televisor":90}},{"type":"Feature","geometry":{"type":"Polygon","coordinates":[[[-69.03432,-16.56799],[-69.03415,-16.56747],[-69.03369,-16.56763],[-69.03387,-16.56813],[-69.03432,-16.56799]]]},"properties":{"n":"DESAGUADERO","p":46,"personas_x_ha":141,"masculinidad":130,"pct_menor20":22,"pct_60mas":30,"pct_migrante":54,"dependencia_econ":70,"pct_empleados":0,"pct_cuentapropia":96,"pct_agricultura":11,"pct_comercio":22,"pct_manufactura":33,"pct_construccion":0,"pct_transporte":19,"pct_alojamiento":7,"pct_educ_superior":17,"brecha_educ":-28,"pct_sin_seguro":26,"pct_seguro_privado":0,"brecha_seguro":2,"pct_med_tradicional":17,"pct_automedicacion":18,"pct_remedios_caseros":23,"pct_viv_desocupada":0,"pct_alquiler":12,"pct_electricidad":100,"pct_agua_red":94,"pct_alcantarillado":88,"pct_gas_red":41,"pct_gas_garrafa":59,"pct_lena_guano":59,"pct_basura_formal":88,"pct_basura_quema":6,"pct_basura_informal":12,"pct_internet":71,"pct_celular":88,"pct_televisor":82}},{"type":"Feature","geometry":{"type":"Polygon","coordinates":[[[-69.03289,-16.56699],[-69.03183,-16.56577],[-69.03179,-16.56579],[-69.0323,-16.56718],[-69.03289,-16.56699]]]},"properties":{"n":"DESAGUADERO","p":43,"personas_x_ha":70,"masculinidad":139,"pct_menor20":35,"pct_60mas":9,"pct_migrante":28,"dependencia_econ":95,"pct_empleados":14,"pct_cuentapropia":82,"pct_agricultura":14,"pct_comercio":9,"pct_manufactura":9,"pct_construccion":0,"pct_transporte":64,"pct_alojamiento":0,"pct_educ_superior":27,"brecha_educ":-11,"pct_sin_seguro":17,"pct_seguro_privado":0,"brecha_seguro":0,"pct_med_tradicional":19,"pct_automedicacion":19,"pct_remedios_caseros":26,"pct_viv_desocupada":0,"pct_alquiler":8,"pct_electricidad":100,"pct_agua_red":92,"pct_alcantarillado":100,"pct_gas_red":25,"pct_gas_garrafa":75,"pct_lena_guano":75,"pct_basura_formal":100,"pct_basura_quema":0,"pct_basura_informal":0,"pct_internet":75,"pct_celular":92,"pct_televisor":92}},{"type":"Feature","geometry":{"type":"Polygon","coordinates":[[[-69.03452,-16.56825],[-69.03463,-16.56863],[-69.0354,-16.56838],[-69.03514,-16.5679],[-69.03452,-16.56825]]]},"properties":{"n":"DESAGUADERO","p":65,"personas_x_ha":146,"masculinidad":67,"pct_menor20":34,"pct_60mas":15,"pct_migrante":29,"dependencia_econ":160,"pct_empleados":4,"pct_cuentapropia":88,"pct_agricultura":8,"pct_comercio":64,"pct_manufactura":8,"pct_construccion":4,"pct_transporte":20,"pct_alojamiento":4,"pct_educ_superior":39,"brecha_educ":-12,"pct_sin_seguro":22,"pct_seguro_privado":0,"brecha_seguro":-12,"pct_med_tradicional":14,"pct_automedicacion":19,"pct_remedios_caseros":27,"pct_viv_desocupada":10,"pct_alquiler":18,"pct_electricidad":100,"pct_agua_red":95,"pct_alcantarillado":95,"pct_gas_red":55,"pct_gas_garrafa":41,"pct_lena_guano":41,"pct_basura_formal":100,"pct_basura_quema":0,"pct_basura_informal":0,"pct_internet":73,"pct_celular":91,"pct_televisor":86}},{"type":"Feature","geometry":{"type":"Polygon","coordinates":[[[-69.03426,-16.5674],[-69.0345,-16.56817],[-69.03512,-16.56779],[-69.03479,-16.56716],[-69.03426,-16.5674]]]},"properties":{"n":"DESAGUADERO","p":73,"personas_x_ha":120,"masculinidad":43,"pct_menor20":36,"pct_60mas":18,"pct_migrante":44,"dependencia_econ":170,"pct_empleados":11,"pct_cuentapropia":81,"pct_agricultura":7,"pct_comercio":56,"pct_manufactura":0,"pct_construccion":4,"pct_transporte":33,"pct_alojamiento":7,"pct_educ_superior":28,"brecha_educ":-13,"pct_sin_seguro":11,"pct_seguro_privado":0,"brecha_seguro":-3,"pct_med_tradicional":22,"pct_automedicacion":16,"pct_remedios_caseros":25,"pct_viv_desocupada":23,"pct_alquiler":30,"pct_electricidad":100,"pct_agua_red":100,"pct_alcantarillado":96,"pct_gas_red":26,"pct_gas_garrafa":65,"pct_lena_guano":65,"pct_basura_formal":100,"pct_basura_quema":0,"pct_basura_informal":0,"pct_internet":61,"pct_celular":78,"pct_televisor":74}},{"type":"Feature","geometry":{"type":"Polygon","coordinates":[[[-69.03187,-16.56494],[-69.03013,-16.56342],[-69.03006,-16.56347],[-69.03146,-16.56513],[-69.03187,-16.56494]]]},"properties":{"n":"DESAGUADERO","p":56,"personas_x_ha":75,"masculinidad":124,"pct_menor20":45,"pct_60mas":5,"pct_migrante":32,"dependencia_econ":75,"pct_empleados":12,"pct_cuentapropia":75,"pct_agricultura":19,"pct_comercio":34,"pct_manufactura":0,"pct_construccion":3,"pct_transporte":28,"pct_alojamiento":12,"pct_educ_superior":34,"brecha_educ":-10,"pct_sin_seguro":20,"pct_seguro_privado":0,"brecha_seguro":-1,"pct_med_tradicional":7,"pct_automedicacion":24,"pct_remedios_caseros":32,"pct_viv_desocupada":17,"pct_alquiler":30,"pct_electricidad":100,"pct_agua_red":95,"pct_alcantarillado":5,"pct_gas_red":0,"pct_gas_garrafa":100,"pct_lena_guano":100,"pct_basura_formal":95,"pct_basura_quema":5,"pct_basura_informal":0,"pct_internet":95,"pct_celular":100,"pct_televisor":85}},{"type":"Feature","geometry":{"type":"Polygon","coordinates":[[[-69.02892,-16.57029],[-69.02886,-16.56969],[-69.02845,-16.56981],[-69.02878,-16.57033],[-69.02892,-16.57029]]]},"properties":{"n":"DESAGUADERO","p":32,"personas_x_ha":158,"masculinidad":129,"pct_menor20":38,"pct_60mas":3,"pct_migrante":19,"dependencia_econ":78,"pct_empleados":11,"pct_cuentapropia":89,"pct_agricultura":0,"pct_comercio":17,"pct_manufactura":0,"pct_construccion":0,"pct_transporte":56,"pct_alojamiento":22,"pct_educ_superior":0,"brecha_educ":-8,"pct_sin_seguro":9,"pct_seguro_privado":0,"brecha_seguro":4,"pct_med_tradicional":15,"pct_automedicacion":16,"pct_remedios_caseros":26,"pct_viv_desocupada":9,"pct_alquiler":10,"pct_electricidad":100,"pct_agua_red":100,"pct_alcantarillado":80,"pct_gas_red":0,"pct_gas_garrafa":100,"pct_lena_guano":100,"pct_basura_formal":100,"pct_basura_quema":0,"pct_basura_informal":0,"pct_internet":90,"pct_celular":100,"pct_televisor":100}},{"type":"Feature","geometry":{"type":"Polygon","coordinates":[[[-69.0317,-16.56832],[-69.03252,-16.56799],[-69.03225,-16.56735],[-69.03145,-16.56759],[-69.0317,-16.56832]]]},"properties":{"n":"DESAGUADERO","p":47,"personas_x_ha":60,"masculinidad":96,"pct_menor20":45,"pct_60mas":4,"pct_migrante":32,"dependencia_econ":96,"pct_empleados":8,"pct_cuentapropia":79,"pct_agricultura":17,"pct_comercio":29,"pct_manufactura":0,"pct_construccion":0,"pct_transporte":38,"pct_alojamiento":4,"pct_educ_superior":4,"brecha_educ":-13,"pct_sin_seguro":28,"pct_seguro_privado":0,"brecha_seguro":-3,"pct_med_tradicional":21,"pct_automedicacion":18,"pct_remedios_caseros":28,"pct_viv_desocupada":6,"pct_alquiler":23,"pct_electricidad":100,"pct_agua_red":100,"pct_alcantarillado":69,"pct_gas_red":31,"pct_gas_garrafa":69,"pct_lena_guano":69,"pct_basura_formal":100,"pct_basura_quema":0,"pct_basura_informal":0,"pct_internet":85,"pct_celular":100,"pct_televisor":100}},{"type":"Feature","geometry":{"type":"Polygon","coordinates":[[[-69.03038,-16.5678],[-69.02977,-16.56611],[-69.02841,-16.56669],[-69.02874,-16.56721],[-69.02886,-16.56755],[-69.02892,-16.56827],[-69.03038,-16.5678]]]},"properties":{"n":"DESAGUADERO","p":102,"personas_x_ha":35,"masculinidad":104,"pct_menor20":40,"pct_60mas":10,"pct_migrante":31,"dependencia_econ":112,"pct_empleados":15,"pct_cuentapropia":81,"pct_agricultura":6,"pct_comercio":31,"pct_manufactura":2,"pct_construccion":8,"pct_transporte":40,"pct_alojamiento":17,"pct_educ_superior":21,"brecha_educ":-19,"pct_sin_seguro":23,"pct_seguro_privado":1,"brecha_seguro":5,"pct_med_tradicional":22,"pct_automedicacion":16,"pct_remedios_caseros":25,"pct_viv_desocupada":0,"pct_alquiler":7,"pct_electricidad":96,"pct_agua_red":93,"pct_alcantarillado":71,"pct_gas_red":18,"pct_gas_garrafa":82,"pct_lena_guano":82,"pct_basura_formal":82,"pct_basura_quema":14,"pct_basura_informal":7,"pct_internet":71,"pct_celular":89,"pct_televisor":79}},{"type":"Feature","geometry":{"type":"Polygon","coordinates":[[[-69.03743,-16.56722],[-69.03729,-16.56685],[-69.03662,-16.56717],[-69.03699,-16.56793],[-69.03749,-16.56778],[-69.03729,-16.56726],[-69.03743,-16.56722]]]},"properties":{"n":"DESAGUADERO","p":34,"personas_x_ha":51,"masculinidad":70,"pct_menor20":44,"pct_60mas":9,"pct_migrante":65,"dependencia_econ":112,"pct_empleados":0,"pct_cuentapropia":100,"pct_agricultura":0,"pct_comercio":69,"pct_manufactura":0,"pct_construccion":6,"pct_transporte":25,"pct_alojamiento":6,"pct_educ_superior":32,"brecha_educ":-21,"pct_sin_seguro":41,"pct_seguro_privado":0,"brecha_seguro":-9,"pct_med_tradicional":21,"pct_automedicacion":12,"pct_remedios_caseros":31,"pct_viv_desocupada":11,"pct_alquiler":11,"pct_electricidad":100,"pct_agua_red":89,"pct_alcantarillado":78,"pct_gas_red":56,"pct_gas_garrafa":33,"pct_lena_guano":33,"pct_basura_formal":78,"pct_basura_quema":0,"pct_basura_informal":44,"pct_internet":89,"pct_celular":100,"pct_televisor":78}},{"type":"Feature","geometry":{"type":"Polygon","coordinates":[[[-69.03437,-16.56953],[-69.03431,-16.5693],[-69.0344,-16.56955],[-69.03476,-16.56942],[-69.03452,-16.56872],[-69.03399,-16.56891],[-69.03416,-16.5696],[-69.03437,-16.56953]]]},"properties":{"n":"DESAGUADERO","p":102,"personas_x_ha":191,"masculinidad":104,"pct_menor20":29,"pct_60mas":8,"pct_migrante":47,"dependencia_econ":65,"pct_empleados":11,"pct_cuentapropia":84,"pct_agricultura":19,"pct_comercio":37,"pct_manufactura":5,"pct_construccion":3,"pct_transporte":18,"pct_alojamiento":6,"pct_educ_superior":18,"brecha_educ":-36,"pct_sin_seguro":29,"pct_seguro_privado":0,"brecha_seguro":20,"pct_med_tradicional":17,"pct_automedicacion":20,"pct_remedios_caseros":25,"pct_viv_desocupada":0,"pct_alquiler":48,"pct_electricidad":100,"pct_agua_red":93,"pct_alcantarillado":69,"pct_gas_red":28,"pct_gas_garrafa":52,"pct_lena_guano":52,"pct_basura_formal":97,"pct_basura_quema":3,"pct_basura_informal":0,"pct_internet":72,"pct_celular":90,"pct_televisor":59}},{"type":"Feature","geometry":{"type":"Polygon","coordinates":[[[-69.03416,-16.56576],[-69.03392,-16.56527],[-69.03337,-16.56535],[-69.03365,-16.56598],[-69.03416,-16.56576]]]},"properties":{"n":"DESAGUADERO","p":30,"personas_x_ha":70,"masculinidad":150,"pct_menor20":20,"pct_60mas":20,"pct_migrante":23,"dependencia_econ":58,"pct_empleados":11,"pct_cuentapropia":79,"pct_agricultura":11,"pct_comercio":26,"pct_manufactura":0,"pct_construccion":0,"pct_transporte":26,"pct_alojamiento":37,"pct_educ_superior":12,"brecha_educ":-33,"pct_sin_seguro":20,"pct_seguro_privado":0,"brecha_seguro":6,"pct_med_tradicional":17,"pct_automedicacion":17,"pct_remedios_caseros":20,"pct_viv_desocupada":10,"pct_alquiler":7,"pct_electricidad":100,"pct_agua_red":79,"pct_alcantarillado":100,"pct_gas_red":57,"pct_gas_garrafa":43,"pct_lena_guano":43,"pct_basura_formal":100,"pct_basura_quema":0,"pct_basura_informal":0,"pct_internet":50,"pct_celular":100,"pct_televisor":100}},{"type":"Feature","geometry":{"type":"Polygon","coordinates":[[[-69.03472,-16.56554],[-69.03447,-16.56505],[-69.03401,-16.56526],[-69.03425,-16.56576],[-69.03472,-16.56554]]]},"properties":{"n":"DESAGUADERO","p":87,"personas_x_ha":240,"masculinidad":67,"pct_menor20":30,"pct_60mas":20,"pct_migrante":45,"dependencia_econ":113,"pct_empleados":33,"pct_cuentapropia":62,"pct_agricultura":0,"pct_comercio":41,"pct_manufactura":3,"pct_construccion":0,"pct_transporte":23,"pct_alojamiento":28,"pct_educ_superior":25,"brecha_educ":-20,"pct_sin_seguro":24,"pct_seguro_privado":0,"brecha_seguro":-3,"pct_med_tradicional":14,"pct_automedicacion":18,"pct_remedios_caseros":24,"pct_viv_desocupada":3,"pct_alquiler":14,"pct_electricidad":97,"pct_agua_red":90,"pct_alcantarillado":90,"pct_gas_red":41,"pct_gas_garrafa":59,"pct_lena_guano":59,"pct_basura_formal":97,"pct_basura_quema":0,"pct_basura_informal":7,"pct_internet":59,"pct_celular":69,"pct_televisor":52}},{"type":"Feature","geometry":{"type":"Polygon","coordinates":[[[-69.03571,-16.56519],[-69.03541,-16.5645],[-69.03458,-16.56499],[-69.03485,-16.56552],[-69.03571,-16.56519]]]},"properties":{"n":"DESAGUADERO","p":95,"personas_x_ha":120,"masculinidad":90,"pct_menor20":18,"pct_60mas":14,"pct_migrante":53,"dependencia_econ":47,"pct_empleados":13,"pct_cuentapropia":67,"pct_agricultura":8,"pct_comercio":47,"pct_manufactura":8,"pct_construccion":0,"pct_transporte":18,"pct_alojamiento":5,"pct_educ_superior":39,"brecha_educ":-17,"pct_sin_seguro":27,"pct_seguro_privado":0,"brecha_seguro":-7,"pct_med_tradicional":12,"pct_automedicacion":16,"pct_remedios_caseros":26,"pct_viv_desocupada":10,"pct_alquiler":10,"pct_electricidad":100,"pct_agua_red":93,"pct_alcantarillado":90,"pct_gas_red":17,"pct_gas_garrafa":77,"pct_lena_guano":77,"pct_basura_formal":100,"pct_basura_quema":0,"pct_basura_informal":0,"pct_internet":90,"pct_celular":100,"pct_televisor":87}},{"type":"Feature","geometry":{"type":"Polygon","coordinates":[[[-69.0338,-16.56431],[-69.03372,-16.56455],[-69.03394,-16.56507],[-69.03445,-16.56487],[-69.03535,-16.56432],[-69.0352,-16.56407],[-69.03409,-16.56474],[-69.03393,-16.56429],[-69.0338,-16.56431]]]},"properties":{"n":"DESAGUADERO","p":76,"personas_x_ha":110,"masculinidad":85,"pct_menor20":30,"pct_60mas":14,"pct_migrante":62,"dependencia_econ":85,"pct_empleados":10,"pct_cuentapropia":85,"pct_agricultura":0,"pct_comercio":68,"pct_manufactura":5,"pct_construccion":2,"pct_transporte":15,"pct_alojamiento":10,"pct_educ_superior":26,"brecha_educ":-21,"pct_sin_seguro":34,"pct_seguro_privado":3,"brecha_seguro":11,"pct_med_tradicional":14,"pct_automedicacion":17,"pct_remedios_caseros":26,"pct_viv_desocupada":3,"pct_alquiler":21,"pct_electricidad":100,"pct_agua_red":90,"pct_alcantarillado":69,"pct_gas_red":17,"pct_gas_garrafa":79,"pct_lena_guano":79,"pct_basura_formal":97,"pct_basura_quema":0,"pct_basura_informal":7,"pct_internet":72,"pct_celular":97,"pct_televisor":76}},{"type":"Feature","geometry":{"type":"Polygon","coordinates":[[[-69.02804,-16.57124],[-69.02786,-16.57072],[-69.02716,-16.57098],[-69.02731,-16.57147],[-69.02804,-16.57124]]]},"properties":{"n":"DESAGUADERO","p":71,"personas_x_ha":145,"masculinidad":87,"pct_menor20":44,"pct_60mas":1,"pct_migrante":17,"dependencia_econ":106,"pct_empleados":24,"pct_cuentapropia":53,"pct_agricultura":18,"pct_comercio":15,"pct_manufactura":3,"pct_construccion":9,"pct_transporte":21,"pct_alojamiento":18,"pct_educ_superior":22,"brecha_educ":-18,"pct_sin_seguro":14,"pct_seguro_privado":0,"brecha_seguro":19,"pct_med_tradicional":14,"pct_automedicacion":21,"pct_remedios_caseros":26,"pct_viv_desocupada":0,"pct_alquiler":11,"pct_electricidad":94,"pct_agua_red":94,"pct_alcantarillado":83,"pct_gas_red":28,"pct_gas_garrafa":72,"pct_lena_guano":72,"pct_basura_formal":100,"pct_basura_quema":0,"pct_basura_informal":0,"pct_internet":78,"pct_celular":100,"pct_televisor":94}},{"type":"Feature","geometry":{"type":"Polygon","coordinates":[[[-69.02745,-16.57215],[-69.02724,-16.57166],[-69.02658,-16.5719],[-69.02677,-16.57238],[-69.02745,-16.57215]]]},"properties":{"n":"DESAGUADERO","p":33,"personas_x_ha":70,"masculinidad":83,"pct_menor20":42,"pct_60mas":0,"pct_migrante":12,"dependencia_econ":136,"pct_empleados":21,"pct_cuentapropia":71,"pct_agricultura":7,"pct_comercio":14,"pct_manufactura":0,"pct_construccion":7,"pct_transporte":50,"pct_alojamiento":14,"pct_educ_superior":15,"brecha_educ":0,"pct_sin_seguro":9,"pct_seguro_privado":0,"brecha_seguro":8,"pct_med_tradicional":23,"pct_automedicacion":9,"pct_remedios_caseros":27,"pct_viv_desocupada":0,"pct_alquiler":0,"pct_electricidad":80,"pct_agua_red":40,"pct_alcantarillado":30,"pct_gas_red":0,"pct_gas_garrafa":90,"pct_lena_guano":90,"pct_basura_formal":100,"pct_basura_quema":0,"pct_basura_informal":0,"pct_internet":80,"pct_celular":100,"pct_televisor":80}},{"type":"Feature","geometry":{"type":"Polygon","coordinates":[[[-69.03172,-16.57066],[-69.03193,-16.57115],[-69.03267,-16.57083],[-69.03246,-16.57039],[-69.03172,-16.57066]]]},"properties":{"n":"DESAGUADERO","p":68,"personas_x_ha":132,"masculinidad":106,"pct_menor20":47,"pct_60mas":3,"pct_migrante":15,"dependencia_econ":152,"pct_empleados":7,"pct_cuentapropia":78,"pct_agricultura":15,"pct_comercio":41,"pct_manufactura":4,"pct_construccion":0,"pct_transporte":26,"pct_alojamiento":15,"pct_educ_superior":8,"brecha_educ":-43,"pct_sin_seguro":12,"pct_seguro_privado":0,"brecha_seguro":12,"pct_med_tradicional":19,"pct_automedicacion":13,"pct_remedios_caseros":31,"pct_viv_desocupada":18,"pct_alquiler":0,"pct_electricidad":93,"pct_agua_red":93,"pct_alcantarillado":93,"pct_gas_red":0,"pct_gas_garrafa":100,"pct_lena_guano":100,"pct_basura_formal":93,"pct_basura_quema":7,"pct_basura_informal":0,"pct_internet":64,"pct_celular":86,"pct_televisor":100}},{"type":"Feature","geometry":{"type":"Polygon","coordinates":[[[-69.03124,-16.56992],[-69.03093,-16.56922],[-69.02979,-16.56962],[-69.03012,-16.57045],[-69.03124,-16.56992]]]},"properties":{"n":"DESAGUADERO","p":95,"personas_x_ha":75,"masculinidad":90,"pct_menor20":40,"pct_60mas":16,"pct_migrante":41,"dependencia_econ":150,"pct_empleados":8,"pct_cuentapropia":84,"pct_agricultura":5,"pct_comercio":32,"pct_manufactura":8,"pct_construccion":0,"pct_transporte":32,"pct_alojamiento":11,"pct_educ_superior":22,"brecha_educ":-28,"pct_sin_seguro":20,"pct_seguro_privado":3,"brecha_seguro":-8,"pct_med_tradicional":14,"pct_automedicacion":17,"pct_remedios_caseros":26,"pct_viv_desocupada":6,"pct_alquiler":3,"pct_electricidad":100,"pct_agua_red":97,"pct_alcantarillado":90,"pct_gas_red":40,"pct_gas_garrafa":60,"pct_lena_guano":60,"pct_basura_formal":100,"pct_basura_quema":0,"pct_basura_informal":0,"pct_internet":60,"pct_celular":80,"pct_televisor":77}},{"type":"Feature","geometry":{"type":"Polygon","coordinates":[[[-69.03329,-16.56996],[-69.03302,-16.56934],[-69.0323,-16.56964],[-69.03256,-16.57026],[-69.03329,-16.56996]]]},"properties":{"n":"DESAGUADERO","p":43,"personas_x_ha":64,"masculinidad":105,"pct_menor20":21,"pct_60mas":7,"pct_migrante":9,"dependencia_econ":95,"pct_empleados":14,"pct_cuentapropia":86,"pct_agricultura":14,"pct_comercio":50,"pct_manufactura":0,"pct_construccion":5,"pct_transporte":14,"pct_alojamiento":5,"pct_educ_superior":6,"brecha_educ":-46,"pct_sin_seguro":25,"pct_seguro_privado":0,"brecha_seguro":10,"pct_med_tradicional":21,"pct_automedicacion":19,"pct_remedios_caseros":19,"pct_viv_desocupada":12,"pct_alquiler":6,"pct_electricidad":94,"pct_agua_red":78,"pct_alcantarillado":67,"pct_gas_red":44,"pct_gas_garrafa":56,"pct_lena_guano":56,"pct_basura_formal":94,"pct_basura_quema":6,"pct_basura_informal":0,"pct_internet":50,"pct_celular":89,"pct_televisor":72}},{"type":"Feature","geometry":{"type":"Polygon","coordinates":[[[-69.03354,-16.56603],[-69.03324,-16.56536],[-69.03268,-16.56529],[-69.03204,-16.56505],[-69.03159,-16.56526],[-69.03257,-16.56644],[-69.03354,-16.56603]]]},"properties":{"n":"DESAGUADERO","p":139,"personas_x_ha":77,"masculinidad":117,"pct_menor20":35,"pct_60mas":14,"pct_migrante":39,"dependencia_econ":124,"pct_empleados":13,"pct_cuentapropia":82,"pct_agricultura":0,"pct_comercio":37,"pct_manufactura":3,"pct_construccion":2,"pct_transporte":34,"pct_alojamiento":21,"pct_educ_superior":18,"brecha_educ":-30,"pct_sin_seguro":19,"pct_seguro_privado":0,"brecha_seguro":5,"pct_med_tradicional":11,"pct_automedicacion":20,"pct_remedios_caseros":24,"pct_viv_desocupada":4,"pct_alquiler":7,"pct_electricidad":98,"pct_agua_red":86,"pct_alcantarillado":70,"pct_gas_red":23,"pct_gas_garrafa":74,"pct_lena_guano":74,"pct_basura_formal":98,"pct_basura_quema":2,"pct_basura_informal":0,"pct_internet":81,"pct_celular":95,"pct_televisor":84}},{"type":"Feature","geometry":{"type":"Polygon","coordinates":[[[-69.03692,-16.56807],[-69.03604,-16.56829],[-69.03613,-16.56865],[-69.03597,-16.56906],[-69.03716,-16.56871],[-69.03692,-16.56807]]]},"properties":{"n":"DESAGUADERO","p":24,"personas_x_ha":28,"masculinidad":118,"pct_menor20":25,"pct_60mas":17,"pct_migrante":42,"dependencia_econ":167,"pct_empleados":33,"pct_cuentapropia":67,"pct_agricultura":0,"pct_comercio":33,"pct_manufactura":0,"pct_construccion":0,"pct_transporte":44,"pct_alojamiento":0,"pct_educ_superior":33,"brecha_educ":10,"pct_sin_seguro":17,"pct_seguro_privado":0,"brecha_seguro":-3,"pct_med_tradicional":13,"pct_automedicacion":21,"pct_remedios_caseros":21,"pct_viv_desocupada":0,"pct_alquiler":22,"pct_electricidad":100,"pct_agua_red":67,"pct_alcantarillado":89,"pct_gas_red":67,"pct_gas_garrafa":33,"pct_lena_guano":33,"pct_basura_formal":100,"pct_basura_quema":0,"pct_basura_informal":0,"pct_internet":89,"pct_celular":100,"pct_televisor":89}},{"type":"Feature","geometry":{"type":"Polygon","coordinates":[[[-69.02541,-16.57302],[-69.02491,-16.57251],[-69.0245,-16.57285],[-69.02499,-16.57338],[-69.02541,-16.57302]]]},"properties":{"n":"DESAGUADERO","p":20,"personas_x_ha":40,"masculinidad":100,"pct_menor20":35,"pct_60mas":0,"pct_migrante":30,"dependencia_econ":54,"pct_empleados":0,"pct_cuentapropia":85,"pct_agricultura":15,"pct_comercio":15,"pct_manufactura":0,"pct_construccion":0,"pct_transporte":54,"pct_alojamiento":0,"pct_educ_superior":23,"brecha_educ":-28,"pct_sin_seguro":5,"pct_seguro_privado":0,"brecha_seguro":10,"pct_med_tradicional":15,"pct_automedicacion":18,"pct_remedios_caseros":15,"pct_viv_desocupada":0,"pct_alquiler":0,"pct_electricidad":100,"pct_agua_red":90,"pct_alcantarillado":60,"pct_gas_red":10,"pct_gas_garrafa":90,"pct_lena_guano":90,"pct_basura_formal":100,"pct_basura_quema":0,"pct_basura_informal":0,"pct_internet":80,"pct_celular":90,"pct_televisor":70}},{"type":"Feature","geometry":{"type":"Polygon","coordinates":[[[-69.03427,-16.57043],[-69.03363,-16.5706],[-69.03428,-16.57217],[-69.03458,-16.57141],[-69.03442,-16.57091],[-69.03405,-16.57105],[-69.03401,-16.57096],[-69.03406,-16.57103],[-69.03442,-16.57089],[-69.03427,-16.57043]]]},"properties":{"n":"DESAGUADERO","p":60,"personas_x_ha":58,"masculinidad":76,"pct_menor20":42,"pct_60mas":2,"pct_migrante":23,"dependencia_econ":88,"pct_empleados":9,"pct_cuentapropia":78,"pct_agricultura":28,"pct_comercio":25,"pct_manufactura":12,"pct_construccion":3,"pct_transporte":22,"pct_alojamiento":6,"pct_educ_superior":11,"brecha_educ":-21,"pct_sin_seguro":27,"pct_seguro_privado":0,"brecha_seguro":0,"pct_med_tradicional":10,"pct_automedicacion":24,"pct_remedios_caseros":27,"pct_viv_desocupada":12,"pct_alquiler":6,"pct_electricidad":94,"pct_agua_red":62,"pct_alcantarillado":69,"pct_gas_red":0,"pct_gas_garrafa":100,"pct_lena_guano":100,"pct_basura_formal":81,"pct_basura_quema":12,"pct_basura_informal":12,"pct_internet":88,"pct_celular":100,"pct_televisor":94}},{"type":"Feature","geometry":{"type":"Polygon","coordinates":[[[-69.0362,-16.5673],[-69.03579,-16.56755],[-69.03601,-16.56822],[-69.03685,-16.56799],[-69.03656,-16.5672],[-69.0362,-16.5673]]]},"properties":{"n":"DESAGUADERO","p":77,"personas_x_ha":91,"masculinidad":114,"pct_menor20":39,"pct_60mas":10,"pct_migrante":45,"dependencia_econ":141,"pct_empleados":16,"pct_cuentapropia":78,"pct_agricultura":9,"pct_comercio":28,"pct_manufactura":9,"pct_construccion":6,"pct_transporte":28,"pct_alojamiento":12,"pct_educ_superior":19,"brecha_educ":-30,"pct_sin_seguro":26,"pct_seguro_privado":0,"brecha_seguro":-3,"pct_med_tradicional":8,"pct_automedicacion":20,"pct_remedios_caseros":29,"pct_viv_desocupada":3,"pct_alquiler":4,"pct_electricidad":96,"pct_agua_red":80,"pct_alcantarillado":80,"pct_gas_red":52,"pct_gas_garrafa":48,"pct_lena_guano":48,"pct_basura_formal":96,"pct_basura_quema":0,"pct_basura_informal":8,"pct_internet":64,"pct_celular":72,"pct_televisor":68}},{"type":"Feature","geometry":{"type":"Polygon","coordinates":[[[-69.02795,-16.56932],[-69.02753,-16.56947],[-69.02771,-16.56998],[-69.02826,-16.56979],[-69.02795,-16.56932]]]},"properties":{"n":"DESAGUADERO","p":33,"personas_x_ha":98,"masculinidad":136,"pct_menor20":33,"pct_60mas":3,"pct_migrante":6,"dependencia_econ":74,"pct_empleados":0,"pct_cuentapropia":79,"pct_agricultura":5,"pct_comercio":26,"pct_manufactura":11,"pct_construccion":0,"pct_transporte":47,"pct_alojamiento":5,"pct_educ_superior":0,"brecha_educ":-33,"pct_sin_seguro":6,"pct_seguro_privado":0,"brecha_seguro":-2,"pct_med_tradicional":26,"pct_automedicacion":15,"pct_remedios_caseros":31,"pct_viv_desocupada":0,"pct_alquiler":0,"pct_electricidad":100,"pct_agua_red":100,"pct_alcantarillado":33,"pct_gas_red":0,"pct_gas_garrafa":100,"pct_lena_guano":100,"pct_basura_formal":100,"pct_basura_quema":0,"pct_basura_informal":0,"pct_internet":44,"pct_celular":100,"pct_televisor":89}},{"type":"Feature","geometry":{"type":"Polygon","coordinates":[[[-69.03377,-16.56832],[-69.03288,-16.5686],[-69.03308,-16.56913],[-69.03387,-16.5688],[-69.03377,-16.56832]]]},"properties":{"n":"DESAGUADERO","p":23,"personas_x_ha":39,"masculinidad":53,"pct_menor20":26,"pct_60mas":17,"pct_migrante":52,"dependencia_econ":29,"pct_empleados":6,"pct_cuentapropia":76,"pct_agricultura":6,"pct_comercio":47,"pct_manufactura":0,"pct_construccion":6,"pct_transporte":24,"pct_alojamiento":6,"pct_educ_superior":24,"brecha_educ":-36,"pct_sin_seguro":41,"pct_seguro_privado":5,"brecha_seguro":14,"pct_med_tradicional":9,"pct_automedicacion":29,"pct_remedios_caseros":29,"pct_viv_desocupada":0,"pct_alquiler":27,"pct_electricidad":100,"pct_agua_red":91,"pct_alcantarillado":82,"pct_gas_red":9,"pct_gas_garrafa":82,"pct_lena_guano":82,"pct_basura_formal":100,"pct_basura_quema":0,"pct_basura_informal":0,"pct_internet":82,"pct_celular":100,"pct_televisor":64}},{"type":"Feature","geometry":{"type":"Polygon","coordinates":[[[-69.03511,-16.57066],[-69.03602,-16.5709],[-69.03577,-16.57138],[-69.03586,-16.57143],[-69.03551,-16.57195],[-69.0347,-16.57142],[-69.03511,-16.57066]]]},"properties":{"n":"DESAGUADERO","p":44,"personas_x_ha":38,"masculinidad":120,"pct_menor20":36,"pct_60mas":5,"pct_migrante":36,"dependencia_econ":91,"pct_empleados":9,"pct_cuentapropia":74,"pct_agricultura":22,"pct_comercio":52,"pct_manufactura":9,"pct_construccion":4,"pct_transporte":22,"pct_alojamiento":0,"pct_educ_superior":14,"brecha_educ":-13,"pct_sin_seguro":26,"pct_seguro_privado":0,"brecha_seguro":27,"pct_med_tradicional":19,"pct_automedicacion":11,"pct_remedios_caseros":24,"pct_viv_desocupada":0,"pct_alquiler":11,"pct_electricidad":100,"pct_agua_red":78,"pct_alcantarillado":67,"pct_gas_red":0,"pct_gas_garrafa":100,"pct_lena_guano":100,"pct_basura_formal":100,"pct_basura_quema":0,"pct_basura_informal":0,"pct_internet":78,"pct_celular":100,"pct_televisor":89}},{"type":"Feature","geometry":{"type":"Polygon","coordinates":[[[-69.02371,-16.57228],[-69.02331,-16.57264],[-69.02389,-16.57323],[-69.02429,-16.57285],[-69.02371,-16.57228]]]},"properties":{"n":"DESAGUADERO","p":48,"personas_x_ha":85,"masculinidad":78,"pct_menor20":44,"pct_60mas":8,"pct_migrante":17,"dependencia_econ":100,"pct_empleados":29,"pct_cuentapropia":62,"pct_agricultura":17,"pct_comercio":25,"pct_manufactura":0,"pct_construccion":12,"pct_transporte":17,"pct_alojamiento":12,"pct_educ_superior":30,"brecha_educ":11,"pct_sin_seguro":11,"pct_seguro_privado":0,"brecha_seguro":-11,"pct_med_tradicional":14,"pct_automedicacion":25,"pct_remedios_caseros":26,"pct_viv_desocupada":0,"pct_alquiler":0,"pct_electricidad":100,"pct_agua_red":100,"pct_alcantarillado":18,"pct_gas_red":18,"pct_gas_garrafa":73,"pct_lena_guano":73,"pct_basura_formal":64,"pct_basura_quema":36,"pct_basura_informal":0,"pct_internet":91,"pct_celular":100,"pct_televisor":73}},{"type":"Feature","geometry":{"type":"Polygon","coordinates":[[[-69.02722,-16.56875],[-69.02647,-16.56896],[-69.0263,-16.56857],[-69.02702,-16.56833],[-69.02722,-16.56875]]]},"properties":{"n":"DESAGUADERO","p":27,"personas_x_ha":67,"masculinidad":80,"pct_menor20":33,"pct_60mas":0,"pct_migrante":33,"dependencia_econ":80,"pct_empleados":20,"pct_cuentapropia":67,"pct_agricultura":27,"pct_comercio":7,"pct_manufactura":0,"pct_construccion":27,"pct_transporte":20,"pct_alojamiento":13,"pct_educ_superior":11,"brecha_educ":-25,"pct_sin_seguro":4,"pct_seguro_privado":0,"brecha_seguro":8,"pct_med_tradicional":11,"pct_automedicacion":11,"pct_remedios_caseros":23,"pct_viv_desocupada":0,"pct_alquiler":44,"pct_electricidad":89,"pct_agua_red":44,"pct_alcantarillado":0,"pct_gas_red":0,"pct_gas_garrafa":100,"pct_lena_guano":100,"pct_basura_formal":44,"pct_basura_quema":56,"pct_basura_informal":0,"pct_internet":67,"pct_celular":89,"pct_televisor":56}},{"type":"Feature","geometry":{"type":"Polygon","coordinates":[[[-69.03186,-16.56892],[-69.03108,-16.56917],[-69.03136,-16.56988],[-69.03211,-16.56958],[-69.03186,-16.56892]]]},"properties":{"n":"DESAGUADERO","p":36,"personas_x_ha":48,"masculinidad":80,"pct_menor20":42,"pct_60mas":8,"pct_migrante":14,"dependencia_econ":177,"pct_empleados":8,"pct_cuentapropia":85,"pct_agricultura":8,"pct_comercio":46,"pct_manufactura":8,"pct_construccion":8,"pct_transporte":31,"pct_alojamiento":8,"pct_educ_superior":18,"brecha_educ":-30,"pct_sin_seguro":9,"pct_seguro_privado":0,"brecha_seguro":7,"pct_med_tradicional":21,"pct_automedicacion":20,"pct_remedios_caseros":25,"pct_viv_desocupada":16,"pct_alquiler":9,"pct_electricidad":100,"pct_agua_red":64,"pct_alcantarillado":100,"pct_gas_red":64,"pct_gas_garrafa":36,"pct_lena_guano":36,"pct_basura_formal":82,"pct_basura_quema":18,"pct_basura_informal":0,"pct_internet":91,"pct_celular":100,"pct_televisor":100}},{"type":"Feature","geometry":{"type":"Polygon","coordinates":[[[-69.03175,-16.56609],[-69.0301,-16.56661],[-69.03051,-16.56777],[-69.03219,-16.5672],[-69.03175,-16.56609]]]},"properties":{"n":"DESAGUADERO","p":55,"personas_x_ha":21,"masculinidad":139,"pct_menor20":47,"pct_60mas":5,"pct_migrante":47,"dependencia_econ":150,"pct_empleados":5,"pct_cuentapropia":95,"pct_agricultura":0,"pct_comercio":41,"pct_manufactura":5,"pct_construccion":5,"pct_transporte":41,"pct_alojamiento":5,"pct_educ_superior":28,"brecha_educ":-36,"pct_sin_seguro":31,"pct_seguro_privado":0,"brecha_seguro":1,"pct_med_tradicional":9,"pct_automedicacion":23,"pct_remedios_caseros":30,"pct_viv_desocupada":10,"pct_alquiler":19,"pct_electricidad":100,"pct_agua_red":94,"pct_alcantarillado":75,"pct_gas_red":56,"pct_gas_garrafa":44,"pct_lena_guano":44,"pct_basura_formal":100,"pct_basura_quema":0,"pct_basura_informal":0,"pct_internet":94,"pct_celular":100,"pct_televisor":88}},{"type":"Feature","geometry":{"type":"Polygon","coordinates":[[[-69.03465,-16.56869],[-69.0349,-16.56939],[-69.03578,-16.56911],[-69.03602,-16.56869],[-69.0359,-16.56834],[-69.03465,-16.56869]]]},"properties":{"n":"DESAGUADERO","p":152,"personas_x_ha":142,"masculinidad":95,"pct_menor20":38,"pct_60mas":8,"pct_migrante":36,"dependencia_econ":88,"pct_empleados":22,"pct_cuentapropia":69,"pct_agricultura":6,"pct_comercio":32,"pct_manufactura":11,"pct_construccion":2,"pct_transporte":31,"pct_alojamiento":2,"pct_educ_superior":28,"brecha_educ":-9,"pct_sin_seguro":23,"pct_seguro_privado":0,"brecha_seguro":5,"pct_med_tradicional":20,"pct_automedicacion":21,"pct_remedios_caseros":25,"pct_viv_desocupada":5,"pct_alquiler":24,"pct_electricidad":96,"pct_agua_red":89,"pct_alcantarillado":87,"pct_gas_red":40,"pct_gas_garrafa":56,"pct_lena_guano":56,"pct_basura_formal":89,"pct_basura_quema":0,"pct_basura_informal":22,"pct_internet":91,"pct_celular":98,"pct_televisor":84}},{"type":"Feature","geometry":{"type":"Polygon","coordinates":[[[-69.02882,-16.56906],[-69.02809,-16.56929],[-69.02837,-16.56974],[-69.02886,-16.56955],[-69.02882,-16.56906]]]},"properties":{"n":"DESAGUADERO","p":37,"personas_x_ha":88,"masculinidad":95,"pct_menor20":41,"pct_60mas":3,"pct_migrante":32,"dependencia_econ":147,"pct_empleados":20,"pct_cuentapropia":60,"pct_agricultura":20,"pct_comercio":33,"pct_manufactura":0,"pct_construccion":7,"pct_transporte":47,"pct_alojamiento":0,"pct_educ_superior":22,"brecha_educ":-24,"pct_sin_seguro":8,"pct_seguro_privado":0,"brecha_seguro":-5,"pct_med_tradicional":17,"pct_automedicacion":23,"pct_remedios_caseros":28,"pct_viv_desocupada":0,"pct_alquiler":18,"pct_electricidad":100,"pct_agua_red":100,"pct_alcantarillado":100,"pct_gas_red":9,"pct_gas_garrafa":91,"pct_lena_guano":91,"pct_basura_formal":100,"pct_basura_quema":0,"pct_basura_informal":0,"pct_internet":100,"pct_celular":100,"pct_televisor":91}},{"type":"Feature","geometry":{"type":"Polygon","coordinates":[[[-69.02968,-16.56965],[-69.02904,-16.56983],[-69.02915,-16.57086],[-69.03002,-16.57051],[-69.02968,-16.56965]]]},"properties":{"n":"DESAGUADERO","p":56,"personas_x_ha":60,"masculinidad":124,"pct_menor20":30,"pct_60mas":9,"pct_migrante":45,"dependencia_econ":167,"pct_empleados":10,"pct_cuentapropia":48,"pct_agricultura":24,"pct_comercio":33,"pct_manufactura":0,"pct_construccion":0,"pct_transporte":19,"pct_alojamiento":5,"pct_educ_superior":29,"brecha_educ":-40,"pct_sin_seguro":33,"pct_seguro_privado":0,"brecha_seguro":1,"pct_med_tradicional":16,"pct_automedicacion":20,"pct_remedios_caseros":25,"pct_viv_desocupada":0,"pct_alquiler":12,"pct_electricidad":100,"pct_agua_red":94,"pct_alcantarillado":76,"pct_gas_red":18,"pct_gas_garrafa":82,"pct_lena_guano":82,"pct_basura_formal":100,"pct_basura_quema":0,"pct_basura_informal":0,"pct_internet":88,"pct_celular":88,"pct_televisor":88}},{"type":"Feature","geometry":{"type":"Polygon","coordinates":[[[-69.03448,-16.56646],[-69.03422,-16.56588],[-69.0337,-16.56607],[-69.03394,-16.56665],[-69.03448,-16.56646]]]},"properties":{"n":"DESAGUADERO","p":57,"personas_x_ha":126,"masculinidad":68,"pct_menor20":30,"pct_60mas":18,"pct_migrante":49,"dependencia_econ":58,"pct_empleados":25,"pct_cuentapropia":67,"pct_agricultura":6,"pct_comercio":50,"pct_manufactura":0,"pct_construccion":6,"pct_transporte":17,"pct_alojamiento":3,"pct_educ_superior":15,"brecha_educ":-38,"pct_sin_seguro":26,"pct_seguro_privado":0,"brecha_seguro":7,"pct_med_tradicional":21,"pct_automedicacion":11,"pct_remedios_caseros":26,"pct_viv_desocupada":5,"pct_alquiler":33,"pct_electricidad":100,"pct_agua_red":83,"pct_alcantarillado":100,"pct_gas_red":72,"pct_gas_garrafa":28,"pct_lena_guano":28,"pct_basura_formal":94,"pct_basura_quema":0,"pct_basura_informal":11,"pct_internet":78,"pct_celular":94,"pct_televisor":89}},{"type":"Feature","geometry":{"type":"Polygon","coordinates":[[[-69.03304,-16.57183],[-69.03266,-16.57094],[-69.03192,-16.57126],[-69.03225,-16.57205],[-69.03304,-16.57183]]]},"properties":{"n":"DESAGUADERO","p":41,"personas_x_ha":45,"masculinidad":86,"pct_menor20":32,"pct_60mas":12,"pct_migrante":15,"dependencia_econ":64,"pct_empleados":12,"pct_cuentapropia":76,"pct_agricultura":16,"pct_comercio":36,"pct_manufactura":0,"pct_construccion":0,"pct_transporte":32,"pct_alojamiento":4,"pct_educ_superior":11,"brecha_educ":-31,"pct_sin_seguro":8,"pct_seguro_privado":0,"brecha_seguro":6,"pct_med_tradicional":18,"pct_automedicacion":18,"pct_remedios_caseros":22,"pct_viv_desocupada":12,"pct_alquiler":21,"pct_electricidad":93,"pct_agua_red":71,"pct_alcantarillado":71,"pct_gas_red":7,"pct_gas_garrafa":93,"pct_lena_guano":93,"pct_basura_formal":79,"pct_basura_quema":7,"pct_basura_informal":29,"pct_internet":64,"pct_celular":93,"pct_televisor":71}},{"type":"Feature","geometry":{"type":"Polygon","coordinates":[[[-69.03075,-16.5663],[-69.03054,-16.56579],[-69.02987,-16.56606],[-69.03005,-16.56655],[-69.03075,-16.5663]]]},"properties":{"n":"DESAGUADERO","p":34,"personas_x_ha":70,"masculinidad":89,"pct_menor20":35,"pct_60mas":6,"pct_migrante":15,"dependencia_econ":112,"pct_empleados":25,"pct_cuentapropia":75,"pct_agricultura":0,"pct_comercio":25,"pct_manufactura":0,"pct_construccion":6,"pct_transporte":44,"pct_alojamiento":6,"pct_educ_superior":9,"brecha_educ":13,"pct_sin_seguro":26,"pct_seguro_privado":0,"brecha_seguro":-3,"pct_med_tradicional":21,"pct_automedicacion":18,"pct_remedios_caseros":29,"pct_viv_desocupada":0,"pct_alquiler":0,"pct_electricidad":100,"pct_agua_red":90,"pct_alcantarillado":70,"pct_gas_red":20,"pct_gas_garrafa":80,"pct_lena_guano":80,"pct_basura_formal":90,"pct_basura_quema":10,"pct_basura_informal":0,"pct_internet":50,"pct_celular":90,"pct_televisor":70}},{"type":"Feature","geometry":{"type":"Polygon","coordinates":[[[-69.02866,-16.56772],[-69.02848,-16.5671],[-69.02762,-16.56634],[-69.02655,-16.5676],[-69.02771,-16.56853],[-69.02799,-16.56916],[-69.02877,-16.56892],[-69.02866,-16.56772]]]},"properties":{"n":"DESAGUADERO","p":63,"personas_x_ha":15,"masculinidad":103,"pct_menor20":35,"pct_60mas":5,"pct_migrante":37,"dependencia_econ":80,"pct_empleados":20,"pct_cuentapropia":60,"pct_agricultura":9,"pct_comercio":31,"pct_manufactura":3,"pct_construccion":6,"pct_transporte":34,"pct_alojamiento":11,"pct_educ_superior":14,"brecha_educ":-2,"pct_sin_seguro":11,"pct_seguro_privado":0,"brecha_seguro":10,"pct_med_tradicional":17,"pct_automedicacion":17,"pct_remedios_caseros":24,"pct_viv_desocupada":12,"pct_alquiler":0,"pct_electricidad":100,"pct_agua_red":89,"pct_alcantarillado":74,"pct_gas_red":5,"pct_gas_garrafa":95,"pct_lena_guano":95,"pct_basura_formal":84,"pct_basura_quema":11,"pct_basura_informal":0,"pct_internet":68,"pct_celular":95,"pct_televisor":100}},{"type":"Feature","geometry":{"type":"Polygon","coordinates":[[[-69.03059,-16.56439],[-69.03136,-16.56529],[-69.03122,-16.5654],[-69.02981,-16.56588],[-69.02921,-16.56425],[-69.02951,-16.56413],[-69.02961,-16.5644],[-69.03039,-16.5641],[-69.03055,-16.56434],[-69.03,-16.56456],[-69.03002,-16.56462],[-69.03059,-16.56439]]]},"properties":{"n":"DESAGUADERO","p":95,"personas_x_ha":37,"masculinidad":121,"pct_menor20":38,"pct_60mas":4,"pct_migrante":32,"dependencia_econ":98,"pct_empleados":23,"pct_cuentapropia":58,"pct_agricultura":19,"pct_comercio":21,"pct_manufactura":0,"pct_construccion":4,"pct_transporte":27,"pct_alojamiento":21,"pct_educ_superior":23,"brecha_educ":-14,"pct_sin_seguro":12,"pct_seguro_privado":0,"brecha_seguro":4,"pct_med_tradicional":20,"pct_automedicacion":24,"pct_remedios_caseros":24,"pct_viv_desocupada":22,"pct_alquiler":11,"pct_electricidad":96,"pct_agua_red":89,"pct_alcantarillado":39,"pct_gas_red":7,"pct_gas_garrafa":93,"pct_lena_guano":93,"pct_basura_formal":89,"pct_basura_quema":7,"pct_basura_informal":7,"pct_internet":82,"pct_celular":89,"pct_televisor":75}},{"type":"Feature","geometry":{"type":"Polygon","coordinates":[[[-69.03576,-16.56531],[-69.03488,-16.56559],[-69.03517,-16.56622],[-69.03597,-16.56587],[-69.03576,-16.56531]]]},"properties":{"n":"DESAGUADERO","p":66,"personas_x_ha":90,"masculinidad":89,"pct_menor20":26,"pct_60mas":21,"pct_migrante":48,"dependencia_econ":97,"pct_empleados":6,"pct_cuentapropia":88,"pct_agricultura":9,"pct_comercio":47,"pct_manufactura":3,"pct_construccion":6,"pct_transporte":9,"pct_alojamiento":9,"pct_educ_superior":19,"brecha_educ":-31,"pct_sin_seguro":37,"pct_seguro_privado":0,"brecha_seguro":-17,"pct_med_tradicional":15,"pct_automedicacion":17,"pct_remedios_caseros":25,"pct_viv_desocupada":14,"pct_alquiler":12,"pct_electricidad":100,"pct_agua_red":85,"pct_alcantarillado":96,"pct_gas_red":19,"pct_gas_garrafa":81,"pct_lena_guano":81,"pct_basura_formal":96,"pct_basura_quema":4,"pct_basura_informal":0,"pct_internet":77,"pct_celular":92,"pct_televisor":81}},{"type":"Feature","geometry":{"type":"Polygon","coordinates":[[[-69.02927,-16.57279],[-69.02878,-16.57297],[-69.02895,-16.57356],[-69.02933,-16.57346],[-69.02927,-16.57279]]]},"properties":{"n":"DESAGUADERO","p":31,"personas_x_ha":83,"masculinidad":94,"pct_menor20":39,"pct_60mas":13,"pct_migrante":10,"dependencia_econ":400,"pct_empleados":0,"pct_cuentapropia":100,"pct_agricultura":17,"pct_comercio":67,"pct_manufactura":0,"pct_construccion":0,"pct_transporte":133,"pct_alojamiento":17,"pct_educ_superior":5,"brecha_educ":-34,"pct_sin_seguro":23,"pct_seguro_privado":0,"brecha_seguro":47,"pct_med_tradicional":24,"pct_automedicacion":19,"pct_remedios_caseros":28,"pct_viv_desocupada":0,"pct_alquiler":50,"pct_electricidad":100,"pct_agua_red":100,"pct_alcantarillado":0,"pct_gas_red":0,"pct_gas_garrafa":100,"pct_lena_guano":100,"pct_basura_formal":40,"pct_basura_quema":60,"pct_basura_informal":0,"pct_internet":60,"pct_celular":80,"pct_televisor":70}},{"type":"Feature","geometry":{"type":"Polygon","coordinates":[[[-69.027,-16.57091],[-69.02682,-16.57039],[-69.02612,-16.57065],[-69.02628,-16.57111],[-69.027,-16.57091]]]},"properties":{"n":"DESAGUADERO","p":43,"personas_x_ha":87,"masculinidad":115,"pct_menor20":40,"pct_60mas":7,"pct_migrante":21,"dependencia_econ":179,"pct_empleados":14,"pct_cuentapropia":57,"pct_agricultura":50,"pct_comercio":0,"pct_manufactura":0,"pct_construccion":0,"pct_transporte":29,"pct_alojamiento":0,"pct_educ_superior":0,"brecha_educ":-25,"pct_sin_seguro":36,"pct_seguro_privado":0,"brecha_seguro":-6,"pct_med_tradicional":18,"pct_automedicacion":9,"pct_remedios_caseros":22,"pct_viv_desocupada":0,"pct_alquiler":0,"pct_electricidad":100,"pct_agua_red":100,"pct_alcantarillado":78,"pct_gas_red":11,"pct_gas_garrafa":89,"pct_lena_guano":89,"pct_basura_formal":89,"pct_basura_quema":11,"pct_basura_informal":0,"pct_internet":44,"pct_celular":89,"pct_televisor":67}},{"type":"Feature","geometry":{"type":"Polygon","coordinates":[[[-69.03006,-16.57065],[-69.02918,-16.57105],[-69.02934,-16.57212],[-69.03049,-16.5717],[-69.03006,-16.57065]]]},"properties":{"n":"DESAGUADERO","p":78,"personas_x_ha":53,"masculinidad":90,"pct_menor20":37,"pct_60mas":12,"pct_migrante":29,"dependencia_econ":100,"pct_empleados":8,"pct_cuentapropia":87,"pct_agricultura":5,"pct_comercio":28,"pct_manufactura":8,"pct_construccion":8,"pct_transporte":23,"pct_alojamiento":15,"pct_educ_superior":12,"brecha_educ":-24,"pct_sin_seguro":23,"pct_seguro_privado":0,"brecha_seguro":-3,"pct_med_tradicional":16,"pct_automedicacion":17,"pct_remedios_caseros":25,"pct_viv_desocupada":7,"pct_alquiler":12,"pct_electricidad":100,"pct_agua_red":83,"pct_alcantarillado":75,"pct_gas_red":4,"pct_gas_garrafa":96,"pct_lena_guano":96,"pct_basura_formal":100,"pct_basura_quema":0,"pct_basura_informal":0,"pct_internet":67,"pct_celular":88,"pct_televisor":88}},{"type":"Feature","geometry":{"type":"Polygon","coordinates":[[[-69.02742,-16.56949],[-69.02675,-16.5697],[-69.02689,-16.57021],[-69.02758,-16.57002],[-69.02742,-16.56949]]]},"properties":{"n":"DESAGUADERO","p":26,"personas_x_ha":54,"masculinidad":73,"pct_menor20":50,"pct_60mas":0,"pct_migrante":12,"dependencia_econ":189,"pct_empleados":0,"pct_cuentapropia":89,"pct_agricultura":0,"pct_comercio":33,"pct_manufactura":11,"pct_construccion":0,"pct_transporte":67,"pct_alojamiento":0,"pct_educ_superior":0,"brecha_educ":-28,"pct_sin_seguro":8,"pct_seguro_privado":0,"brecha_seguro":20,"pct_med_tradicional":16,"pct_automedicacion":21,"pct_remedios_caseros":21,"pct_viv_desocupada":0,"pct_alquiler":17,"pct_electricidad":100,"pct_agua_red":83,"pct_alcantarillado":83,"pct_gas_red":17,"pct_gas_garrafa":83,"pct_lena_guano":83,"pct_basura_formal":100,"pct_basura_quema":0,"pct_basura_informal":0,"pct_internet":83,"pct_celular":100,"pct_televisor":100}},{"type":"Feature","geometry":{"type":"Polygon","coordinates":[[[-69.02673,-16.56959],[-69.02738,-16.56937],[-69.02721,-16.56886],[-69.02658,-16.56902],[-69.02673,-16.56959]]]},"properties":{"n":"DESAGUADERO","p":17,"personas_x_ha":36,"masculinidad":70,"pct_menor20":35,"pct_60mas":12,"pct_migrante":53,"dependencia_econ":143,"pct_empleados":0,"pct_cuentapropia":86,"pct_agricultura":14,"pct_comercio":14,"pct_manufactura":0,"pct_construccion":14,"pct_transporte":29,"pct_alojamiento":0,"pct_educ_superior":0,"brecha_educ":-17,"pct_sin_seguro":12,"pct_seguro_privado":0,"brecha_seguro":29,"pct_med_tradicional":20,"pct_automedicacion":22,"pct_remedios_caseros":24,"pct_viv_desocupada":0,"pct_alquiler":33,"pct_electricidad":83,"pct_agua_red":83,"pct_alcantarillado":50,"pct_gas_red":17,"pct_gas_garrafa":83,"pct_lena_guano":83,"pct_basura_formal":83,"pct_basura_quema":17,"pct_basura_informal":0,"pct_internet":67,"pct_celular":100,"pct_televisor":100}},{"type":"Feature","geometry":{"type":"Polygon","coordinates":[[[-69.03616,-16.57068],[-69.03519,-16.57051],[-69.03585,-16.5692],[-69.03703,-16.56885],[-69.03682,-16.5695],[-69.03616,-16.57068]]]},"properties":{"n":"DESAGUADERO","p":27,"personas_x_ha":13,"masculinidad":170,"pct_menor20":56,"pct_60mas":7,"pct_migrante":26,"dependencia_econ":333,"pct_empleados":17,"pct_cuentapropia":50,"pct_agricultura":50,"pct_comercio":0,"pct_manufactura":0,"pct_construccion":0,"pct_transporte":33,"pct_alojamiento":17,"pct_educ_superior":8,"brecha_educ":-17,"pct_sin_seguro":19,"pct_seguro_privado":0,"brecha_seguro":12,"pct_med_tradicional":21,"pct_automedicacion":19,"pct_remedios_caseros":22,"pct_viv_desocupada":0,"pct_alquiler":25,"pct_electricidad":88,"pct_agua_red":88,"pct_alcantarillado":88,"pct_gas_red":25,"pct_gas_garrafa":62,"pct_lena_guano":62,"pct_basura_formal":88,"pct_basura_quema":12,"pct_basura_informal":0,"pct_internet":88,"pct_celular":100,"pct_televisor":75}},{"type":"Feature","geometry":{"type":"Polygon","coordinates":[[[-69.03295,-16.57657],[-69.03264,-16.57785],[-69.03231,-16.57885],[-69.0321,-16.57672],[-69.03295,-16.57657]]]},"properties":{"n":"DESAGUADERO","p":20,"personas_x_ha":17,"masculinidad":233,"pct_menor20":20,"pct_60mas":45,"pct_migrante":50,"dependencia_econ":100,"pct_empleados":30,"pct_cuentapropia":50,"pct_agricultura":70,"pct_comercio":0,"pct_manufactura":0,"pct_construccion":50,"pct_transporte":10,"pct_alojamiento":0,"pct_educ_superior":12,"brecha_educ":-25,"pct_sin_seguro":15,"pct_seguro_privado":0,"brecha_seguro":-2,"pct_med_tradicional":23,"pct_automedicacion":9,"pct_remedios_caseros":29,"pct_viv_desocupada":0,"pct_alquiler":0,"pct_electricidad":12,"pct_agua_red":88,"pct_alcantarillado":0,"pct_gas_red":0,"pct_gas_garrafa":38,"pct_lena_guano":38,"pct_basura_formal":12,"pct_basura_quema":88,"pct_basura_informal":0,"pct_internet":25,"pct_celular":75,"pct_televisor":12}},{"type":"Feature","geometry":{"type":"Polygon","coordinates":[[[-69.03659,-16.56703],[-69.03715,-16.5668],[-69.03694,-16.56639],[-69.03636,-16.56651],[-69.03659,-16.56703]]]},"properties":{"n":"DESAGUADERO","p":26,"personas_x_ha":67,"masculinidad":117,"pct_menor20":27,"pct_60mas":12,"pct_migrante":58,"dependencia_econ":86,"pct_empleados":7,"pct_cuentapropia":79,"pct_agricultura":0,"pct_comercio":50,"pct_manufactura":7,"pct_construccion":0,"pct_transporte":29,"pct_alojamiento":0,"pct_educ_superior":37,"brecha_educ":-9,"pct_sin_seguro":15,"pct_seguro_privado":0,"brecha_seguro":-2,"pct_med_tradicional":12,"pct_automedicacion":21,"pct_remedios_caseros":27,"pct_viv_desocupada":25,"pct_alquiler":0,"pct_electricidad":100,"pct_agua_red":100,"pct_alcantarillado":78,"pct_gas_red":22,"pct_gas_garrafa":78,"pct_lena_guano":78,"pct_basura_formal":89,"pct_basura_quema":0,"pct_basura_informal":22,"pct_internet":78,"pct_celular":100,"pct_televisor":89}},{"type":"Feature","geometry":{"type":"Polygon","coordinates":[[[-69.029,-16.5697],[-69.03089,-16.56911],[-69.03044,-16.56794],[-69.02889,-16.56845],[-69.029,-16.5697]]]},"properties":{"n":"DESAGUADERO","p":80,"personas_x_ha":29,"masculinidad":90,"pct_menor20":35,"pct_60mas":8,"pct_migrante":36,"dependencia_econ":82,"pct_empleados":18,"pct_cuentapropia":73,"pct_agricultura":9,"pct_comercio":34,"pct_manufactura":5,"pct_construccion":0,"pct_transporte":30,"pct_alojamiento":5,"pct_educ_superior":19,"brecha_educ":-13,"pct_sin_seguro":22,"pct_seguro_privado":0,"brecha_seguro":14,"pct_med_tradicional":12,"pct_automedicacion":23,"pct_remedios_caseros":27,"pct_viv_desocupada":29,"pct_alquiler":35,"pct_electricidad":96,"pct_agua_red":91,"pct_alcantarillado":91,"pct_gas_red":43,"pct_gas_garrafa":57,"pct_lena_guano":57,"pct_basura_formal":96,"pct_basura_quema":4,"pct_basura_informal":0,"pct_internet":74,"pct_celular":87,"pct_televisor":65}},{"type":"Feature","geometry":{"type":"Polygon","coordinates":[[[-69.02721,-16.57149],[-69.02704,-16.571],[-69.02633,-16.57125],[-69.02652,-16.57173],[-69.02721,-16.57149]]]},"properties":{"n":"DESAGUADERO","p":26,"personas_x_ha":54,"masculinidad":62,"pct_menor20":35,"pct_60mas":4,"pct_migrante":23,"dependencia_econ":117,"pct_empleados":8,"pct_cuentapropia":75,"pct_agricultura":0,"pct_comercio":25,"pct_manufactura":0,"pct_construccion":0,"pct_transporte":50,"pct_alojamiento":25,"pct_educ_superior":18,"brecha_educ":-39,"pct_sin_seguro":15,"pct_seguro_privado":0,"brecha_seguro":-9,"pct_med_tradicional":21,"pct_automedicacion":17,"pct_remedios_caseros":28,"pct_viv_desocupada":0,"pct_alquiler":29,"pct_electricidad":100,"pct_agua_red":100,"pct_alcantarillado":57,"pct_gas_red":14,"pct_gas_garrafa":86,"pct_lena_guano":86,"pct_basura_formal":100,"pct_basura_quema":0,"pct_basura_informal":0,"pct_internet":100,"pct_celular":100,"pct_televisor":86}},{"type":"Feature","geometry":{"type":"Polygon","coordinates":[[[-69.03095,-16.57191],[-69.03188,-16.57157],[-69.03181,-16.57136],[-69.03066,-16.57178],[-69.03069,-16.57188],[-69.03081,-16.57184],[-69.03095,-16.57191]]]},"properties":{"n":"DESAGUADERO","p":40,"personas_x_ha":129,"masculinidad":122,"pct_menor20":42,"pct_60mas":2,"pct_migrante":18,"dependencia_econ":186,"pct_empleados":0,"pct_cuentapropia":100,"pct_agricultura":14,"pct_comercio":21,"pct_manufactura":0,"pct_construccion":14,"pct_transporte":50,"pct_alojamiento":7,"pct_educ_superior":8,"brecha_educ":-16,"pct_sin_seguro":32,"pct_seguro_privado":0,"brecha_seguro":9,"pct_med_tradicional":16,"pct_automedicacion":21,"pct_remedios_caseros":24,"pct_viv_desocupada":0,"pct_alquiler":0,"pct_electricidad":100,"pct_agua_red":44,"pct_alcantarillado":78,"pct_gas_red":33,"pct_gas_garrafa":67,"pct_lena_guano":67,"pct_basura_formal":89,"pct_basura_quema":0,"pct_basura_informal":22,"pct_internet":67,"pct_celular":89,"pct_televisor":89}},{"type":"Feature","geometry":{"type":"Polygon","coordinates":[[[-69.03523,-16.56785],[-69.03546,-16.56837],[-69.03589,-16.56824],[-69.0357,-16.5676],[-69.03523,-16.56785]]]},"properties":{"n":"DESAGUADERO","p":93,"personas_x_ha":244,"masculinidad":94,"pct_menor20":39,"pct_60mas":10,"pct_migrante":39,"dependencia_econ":111,"pct_empleados":23,"pct_cuentapropia":75,"pct_agricultura":5,"pct_comercio":48,"pct_manufactura":2,"pct_construccion":2,"pct_transporte":20,"pct_alojamiento":9,"pct_educ_superior":36,"brecha_educ":-20,"pct_sin_seguro":29,"pct_seguro_privado":0,"brecha_seguro":-4,"pct_med_tradicional":13,"pct_automedicacion":23,"pct_remedios_caseros":29,"pct_viv_desocupada":0,"pct_alquiler":21,"pct_electricidad":96,"pct_agua_red":92,"pct_alcantarillado":88,"pct_gas_red":54,"pct_gas_garrafa":46,"pct_lena_guano":46,"pct_basura_formal":88,"pct_basura_quema":8,"pct_basura_informal":8,"pct_internet":71,"pct_celular":83,"pct_televisor":71}},{"type":"Feature","geometry":{"type":"Polygon","coordinates":[[[-69.02955,-16.57569],[-69.02966,-16.57641],[-69.0294,-16.57647],[-69.02932,-16.57611],[-69.0289,-16.57622],[-69.02882,-16.57584],[-69.02955,-16.57569]]]},"properties":{"n":"DESAGUADERO","p":33,"personas_x_ha":74,"masculinidad":136,"pct_menor20":52,"pct_60mas":0,"pct_migrante":24,"dependencia_econ":200,"pct_empleados":18,"pct_cuentapropia":82,"pct_agricultura":0,"pct_comercio":18,"pct_manufactura":0,"pct_construccion":0,"pct_transporte":36,"pct_alojamiento":27,"pct_educ_superior":38,"brecha_educ":-12,"pct_sin_seguro":29,"pct_seguro_privado":0,"brecha_seguro":37,"pct_med_tradicional":15,"pct_automedicacion":25,"pct_remedios_caseros":26,"pct_viv_desocupada":8,"pct_alquiler":0,"pct_electricidad":67,"pct_agua_red":78,"pct_alcantarillado":22,"pct_gas_red":0,"pct_gas_garrafa":100,"pct_lena_guano":100,"pct_basura_formal":44,"pct_basura_quema":44,"pct_basura_informal":0,"pct_internet":67,"pct_celular":78,"pct_televisor":67}},{"type":"Feature","geometry":{"type":"Polygon","coordinates":[[[-69.03623,-16.56654],[-69.03571,-16.56677],[-69.03602,-16.5673],[-69.03649,-16.56704],[-69.03623,-16.56654]]]},"properties":{"n":"DESAGUADERO","p":51,"personas_x_ha":124,"masculinidad":292,"pct_menor20":12,"pct_60mas":12,"pct_migrante":59,"dependencia_econ":28,"pct_empleados":57,"pct_cuentapropia":42,"pct_agricultura":0,"pct_comercio":18,"pct_manufactura":8,"pct_construccion":10,"pct_transporte":10,"pct_alojamiento":2,"pct_educ_superior":58,"brecha_educ":-21,"pct_sin_seguro":16,"pct_seguro_privado":0,"brecha_seguro":-12,"pct_med_tradicional":12,"pct_automedicacion":20,"pct_remedios_caseros":19,"pct_viv_desocupada":47,"pct_alquiler":10,"pct_electricidad":90,"pct_agua_red":90,"pct_alcantarillado":90,"pct_gas_red":20,"pct_gas_garrafa":80,"pct_lena_guano":80,"pct_basura_formal":90,"pct_basura_quema":10,"pct_basura_informal":0,"pct_internet":60,"pct_celular":80,"pct_televisor":60}},{"type":"Feature","geometry":{"type":"Polygon","coordinates":[[[-69.03519,-16.56776],[-69.03564,-16.56746],[-69.03534,-16.56694],[-69.0349,-16.56716],[-69.03519,-16.56776]]]},"properties":{"n":"DESAGUADERO","p":32,"personas_x_ha":77,"masculinidad":167,"pct_menor20":41,"pct_60mas":6,"pct_migrante":50,"dependencia_econ":167,"pct_empleados":25,"pct_cuentapropia":75,"pct_agricultura":0,"pct_comercio":33,"pct_manufactura":0,"pct_construccion":0,"pct_transporte":17,"pct_alojamiento":17,"pct_educ_superior":20,"brecha_educ":-14,"pct_sin_seguro":42,"pct_seguro_privado":0,"brecha_seguro":0,"pct_med_tradicional":3,"pct_automedicacion":3,"pct_remedios_caseros":28,"pct_viv_desocupada":29,"pct_alquiler":10,"pct_electricidad":100,"pct_agua_red":90,"pct_alcantarillado":90,"pct_gas_red":10,"pct_gas_garrafa":90,"pct_lena_guano":90,"pct_basura_formal":100,"pct_basura_quema":0,"pct_basura_informal":0,"pct_internet":60,"pct_celular":80,"pct_televisor":80}},{"type":"Feature","geometry":{"type":"Polygon","coordinates":[[[-69.03161,-16.56836],[-69.03133,-16.56763],[-69.03057,-16.56787],[-69.03084,-16.56861],[-69.03161,-16.56836]]]},"properties":{"n":"DESAGUADERO","p":75,"personas_x_ha":95,"masculinidad":121,"pct_menor20":36,"pct_60mas":15,"pct_migrante":29,"dependencia_econ":103,"pct_empleados":19,"pct_cuentapropia":76,"pct_agricultura":3,"pct_comercio":35,"pct_manufactura":3,"pct_construccion":0,"pct_transporte":32,"pct_alojamiento":14,"pct_educ_superior":18,"brecha_educ":-33,"pct_sin_seguro":18,"pct_seguro_privado":0,"brecha_seguro":-6,"pct_med_tradicional":18,"pct_automedicacion":22,"pct_remedios_caseros":26,"pct_viv_desocupada":7,"pct_alquiler":4,"pct_electricidad":100,"pct_agua_red":100,"pct_alcantarillado":96,"pct_gas_red":48,"pct_gas_garrafa":52,"pct_lena_guano":52,"pct_basura_formal":93,"pct_basura_quema":7,"pct_basura_informal":0,"pct_internet":63,"pct_celular":89,"pct_televisor":74}},{"type":"Feature","geometry":{"type":"Polygon","coordinates":[[[-69.03282,-16.56849],[-69.03375,-16.5682],[-69.03351,-16.56773],[-69.03268,-16.56805],[-69.03282,-16.56849]]]},"properties":{"n":"DESAGUADERO","p":57,"personas_x_ha":98,"masculinidad":90,"pct_menor20":21,"pct_60mas":9,"pct_migrante":32,"dependencia_econ":50,"pct_empleados":11,"pct_cuentapropia":87,"pct_agricultura":0,"pct_comercio":55,"pct_manufactura":5,"pct_construccion":0,"pct_transporte":24,"pct_alojamiento":5,"pct_educ_superior":25,"brecha_educ":-26,"pct_sin_seguro":28,"pct_seguro_privado":0,"brecha_seguro":10,"pct_med_tradicional":12,"pct_automedicacion":19,"pct_remedios_caseros":27,"pct_viv_desocupada":0,"pct_alquiler":20,"pct_electricidad":100,"pct_agua_red":100,"pct_alcantarillado":100,"pct_gas_red":20,"pct_gas_garrafa":80,"pct_lena_guano":80,"pct_basura_formal":100,"pct_basura_quema":0,"pct_basura_informal":0,"pct_internet":87,"pct_celular":100,"pct_televisor":87}},{"type":"Feature","geometry":{"type":"Polygon","coordinates":[[[-69.03475,-16.56707],[-69.03451,-16.56658],[-69.034,-16.56675],[-69.03423,-16.56732],[-69.03475,-16.56707]]]},"properties":{"n":"DESAGUADERO","p":62,"personas_x_ha":152,"masculinidad":94,"pct_menor20":23,"pct_60mas":18,"pct_migrante":35,"dependencia_econ":82,"pct_empleados":24,"pct_cuentapropia":53,"pct_agricultura":3,"pct_comercio":71,"pct_manufactura":0,"pct_construccion":3,"pct_transporte":12,"pct_alojamiento":6,"pct_educ_superior":29,"brecha_educ":-10,"pct_sin_seguro":27,"pct_seguro_privado":0,"brecha_seguro":5,"pct_med_tradicional":19,"pct_automedicacion":22,"pct_remedios_caseros":22,"pct_viv_desocupada":8,"pct_alquiler":29,"pct_electricidad":100,"pct_agua_red":100,"pct_alcantarillado":100,"pct_gas_red":33,"pct_gas_garrafa":57,"pct_lena_guano":57,"pct_basura_formal":100,"pct_basura_quema":0,"pct_basura_informal":0,"pct_internet":90,"pct_celular":90,"pct_televisor":62}},{"type":"Feature","geometry":{"type":"Polygon","coordinates":[[[-69.02445,-16.57385],[-69.02491,-16.57346],[-69.02437,-16.57298],[-69.02399,-16.57335],[-69.02445,-16.57385]]]},"properties":{"n":"DESAGUADERO","p":33,"personas_x_ha":66,"masculinidad":65,"pct_menor20":48,"pct_60mas":3,"pct_migrante":12,"dependencia_econ":154,"pct_empleados":0,"pct_cuentapropia":85,"pct_agricultura":54,"pct_comercio":0,"pct_manufactura":0,"pct_construccion":0,"pct_transporte":15,"pct_alojamiento":23,"pct_educ_superior":0,"brecha_educ":-3,"pct_sin_seguro":30,"pct_seguro_privado":0,"brecha_seguro":-12,"pct_med_tradicional":9,"pct_automedicacion":14,"pct_remedios_caseros":28,"pct_viv_desocupada":0,"pct_alquiler":0,"pct_electricidad":100,"pct_agua_red":88,"pct_alcantarillado":38,"pct_gas_red":0,"pct_gas_garrafa":100,"pct_lena_guano":100,"pct_basura_formal":100,"pct_basura_quema":0,"pct_basura_informal":0,"pct_internet":75,"pct_celular":100,"pct_televisor":88}},{"type":"Feature","geometry":{"type":"Polygon","coordinates":[[[-69.02763,-16.57013],[-69.02696,-16.57034],[-69.0271,-16.57084],[-69.02783,-16.57063],[-69.02763,-16.57013]]]},"properties":{"n":"DESAGUADERO","p":38,"personas_x_ha":79,"masculinidad":124,"pct_menor20":53,"pct_60mas":0,"pct_migrante":18,"dependencia_econ":245,"pct_empleados":18,"pct_cuentapropia":55,"pct_agricultura":18,"pct_comercio":18,"pct_manufactura":0,"pct_construccion":18,"pct_transporte":27,"pct_alojamiento":18,"pct_educ_superior":22,"brecha_educ":-18,"pct_sin_seguro":5,"pct_seguro_privado":0,"brecha_seguro":-12,"pct_med_tradicional":7,"pct_automedicacion":29,"pct_remedios_caseros":31,"pct_viv_desocupada":0,"pct_alquiler":14,"pct_electricidad":100,"pct_agua_red":100,"pct_alcantarillado":71,"pct_gas_red":43,"pct_gas_garrafa":57,"pct_lena_guano":57,"pct_basura_formal":100,"pct_basura_quema":0,"pct_basura_informal":0,"pct_internet":86,"pct_celular":100,"pct_televisor":100}},{"type":"Feature","geometry":{"type":"Polygon","coordinates":[[[-69.03348,-16.57052],[-69.03331,-16.57007],[-69.03259,-16.57038],[-69.0328,-16.57079],[-69.03348,-16.57052]]]},"properties":{"n":"DESAGUADERO","p":31,"personas_x_ha":67,"masculinidad":55,"pct_menor20":45,"pct_60mas":3,"pct_migrante":19,"dependencia_econ":88,"pct_empleados":12,"pct_cuentapropia":75,"pct_agricultura":12,"pct_comercio":38,"pct_manufactura":0,"pct_construccion":12,"pct_transporte":12,"pct_alojamiento":19,"pct_educ_superior":6,"brecha_educ":-26,"pct_sin_seguro":30,"pct_seguro_privado":0,"brecha_seguro":15,"pct_med_tradicional":16,"pct_automedicacion":22,"pct_remedios_caseros":26,"pct_viv_desocupada":27,"pct_alquiler":10,"pct_electricidad":100,"pct_agua_red":90,"pct_alcantarillado":90,"pct_gas_red":20,"pct_gas_garrafa":80,"pct_lena_guano":80,"pct_basura_formal":100,"pct_basura_quema":0,"pct_basura_informal":0,"pct_internet":70,"pct_celular":100,"pct_televisor":90}},{"type":"Feature","geometry":{"type":"Polygon","coordinates":[[[-69.03219,-16.56972],[-69.03146,-16.57003],[-69.03165,-16.57055],[-69.03243,-16.57027],[-69.03219,-16.56972]]]},"properties":{"n":"DESAGUADERO","p":76,"personas_x_ha":128,"masculinidad":100,"pct_menor20":47,"pct_60mas":5,"pct_migrante":18,"dependencia_econ":138,"pct_empleados":6,"pct_cuentapropia":81,"pct_agricultura":9,"pct_comercio":44,"pct_manufactura":0,"pct_construccion":0,"pct_transporte":41,"pct_alojamiento":0,"pct_educ_superior":22,"brecha_educ":-12,"pct_sin_seguro":33,"pct_seguro_privado":0,"brecha_seguro":18,"pct_med_tradicional":11,"pct_automedicacion":20,"pct_remedios_caseros":26,"pct_viv_desocupada":4,"pct_alquiler":0,"pct_electricidad":100,"pct_agua_red":95,"pct_alcantarillado":95,"pct_gas_red":47,"pct_gas_garrafa":53,"pct_lena_guano":53,"pct_basura_formal":95,"pct_basura_quema":5,"pct_basura_informal":0,"pct_internet":79,"pct_celular":89,"pct_televisor":84}},{"type":"Feature","geometry":{"type":"Polygon","coordinates":[[[-69.03408,-16.56964],[-69.03388,-16.56895],[-69.03317,-16.56928],[-69.03339,-16.56993],[-69.03408,-16.56964]]]},"properties":{"n":"DESAGUADERO","p":58,"personas_x_ha":88,"masculinidad":100,"pct_menor20":41,"pct_60mas":3,"pct_migrante":12,"dependencia_econ":138,"pct_empleados":4,"pct_cuentapropia":92,"pct_agricultura":12,"pct_comercio":29,"pct_manufactura":4,"pct_construccion":0,"pct_transporte":38,"pct_alojamiento":8,"pct_educ_superior":15,"brecha_educ":-19,"pct_sin_seguro":14,"pct_seguro_privado":2,"brecha_seguro":0,"pct_med_tradicional":10,"pct_automedicacion":24,"pct_remedios_caseros":28,"pct_viv_desocupada":25,"pct_alquiler":13,"pct_electricidad":100,"pct_agua_red":100,"pct_alcantarillado":60,"pct_gas_red":47,"pct_gas_garrafa":53,"pct_lena_guano":53,"pct_basura_formal":80,"pct_basura_quema":7,"pct_basura_informal":27,"pct_internet":60,"pct_celular":87,"pct_televisor":73}},{"type":"Feature","geometry":{"type":"Polygon","coordinates":[[[-69.0349,-16.56948],[-69.03514,-16.57032],[-69.03518,-16.57032],[-69.03567,-16.5693],[-69.0349,-16.56948]]]},"properties":{"n":"DESAGUADERO","p":85,"personas_x_ha":182,"masculinidad":102,"pct_menor20":38,"pct_60mas":7,"pct_migrante":36,"dependencia_econ":136,"pct_empleados":14,"pct_cuentapropia":56,"pct_agricultura":19,"pct_comercio":47,"pct_manufactura":0,"pct_construccion":0,"pct_transporte":31,"pct_alojamiento":0,"pct_educ_superior":16,"brecha_educ":-14,"pct_sin_seguro":27,"pct_seguro_privado":1,"brecha_seguro":5,"pct_med_tradicional":15,"pct_automedicacion":14,"pct_remedios_caseros":28,"pct_viv_desocupada":10,"pct_alquiler":20,"pct_electricidad":100,"pct_agua_red":96,"pct_alcantarillado":96,"pct_gas_red":28,"pct_gas_garrafa":72,"pct_lena_guano":72,"pct_basura_formal":84,"pct_basura_quema":4,"pct_basura_informal":24,"pct_internet":52,"pct_celular":92,"pct_televisor":72}},{"type":"Feature","geometry":{"type":"Polygon","coordinates":[[[-69.033,-16.5671],[-69.03235,-16.56729],[-69.03262,-16.56795],[-69.03344,-16.56763],[-69.033,-16.5671]]]},"properties":{"n":"DESAGUADERO","p":26,"personas_x_ha":40,"masculinidad":100,"pct_menor20":27,"pct_60mas":0,"pct_migrante":42,"dependencia_econ":100,"pct_empleados":23,"pct_cuentapropia":77,"pct_agricultura":0,"pct_comercio":31,"pct_manufactura":0,"pct_construccion":0,"pct_transporte":31,"pct_alojamiento":0,"pct_educ_superior":32,"brecha_educ":-23,"pct_sin_seguro":14,"pct_seguro_privado":0,"brecha_seguro":-9,"pct_med_tradicional":12,"pct_automedicacion":18,"pct_remedios_caseros":24,"pct_viv_desocupada":33,"pct_alquiler":25,"pct_electricidad":100,"pct_agua_red":100,"pct_alcantarillado":88,"pct_gas_red":50,"pct_gas_garrafa":50,"pct_lena_guano":50,"pct_basura_formal":100,"pct_basura_quema":0,"pct_basura_informal":0,"pct_internet":88,"pct_celular":100,"pct_televisor":100}},{"type":"Feature","geometry":{"type":"Polygon","coordinates":[[[-69.02594,-16.57255],[-69.02549,-16.57201],[-69.02499,-16.57242],[-69.02549,-16.57294],[-69.02594,-16.57255]]]},"properties":{"n":"DESAGUADERO","p":24,"personas_x_ha":43,"masculinidad":100,"pct_menor20":29,"pct_60mas":8,"pct_migrante":8,"dependencia_econ":77,"pct_empleados":0,"pct_cuentapropia":92,"pct_agricultura":15,"pct_comercio":31,"pct_manufactura":0,"pct_construccion":8,"pct_transporte":31,"pct_alojamiento":15,"pct_educ_superior":18,"brecha_educ":-47,"pct_sin_seguro":30,"pct_seguro_privado":0,"brecha_seguro":-23,"pct_med_tradicional":25,"pct_automedicacion":23,"pct_remedios_caseros":31,"pct_viv_desocupada":0,"pct_alquiler":12,"pct_electricidad":100,"pct_agua_red":100,"pct_alcantarillado":12,"pct_gas_red":12,"pct_gas_garrafa":88,"pct_lena_guano":88,"pct_basura_formal":88,"pct_basura_quema":12,"pct_basura_informal":0,"pct_internet":62,"pct_celular":88,"pct_televisor":75}},{"type":"Feature","geometry":{"type":"Polygon","coordinates":[[[-68.95551,-16.58944],[-68.95563,-16.59005],[-68.95625,-16.58995],[-68.95597,-16.58924],[-68.95551,-16.58944]]]},"properties":{"n":"SAN JUAN DE HUANCOLLO","p":22,"personas_x_ha":47,"masculinidad":100,"pct_menor20":41,"pct_60mas":23,"pct_migrante":27,"dependencia_econ":162,"pct_empleados":12,"pct_cuentapropia":62,"pct_agricultura":75,"pct_comercio":12,"pct_manufactura":12,"pct_construccion":0,"pct_transporte":0,"pct_alojamiento":12,"pct_educ_superior":8,"brecha_educ":-62,"pct_sin_seguro":5,"pct_seguro_privado":0,"brecha_seguro":9,"pct_med_tradicional":3,"pct_automedicacion":12,"pct_remedios_caseros":21,"pct_viv_desocupada":0,"pct_alquiler":0,"pct_electricidad":88,"pct_agua_red":75,"pct_alcantarillado":12,"pct_gas_red":0,"pct_gas_garrafa":100,"pct_lena_guano":100,"pct_basura_formal":12,"pct_basura_quema":88,"pct_basura_informal":0,"pct_internet":25,"pct_celular":88,"pct_televisor":50}}]}