{"type":"FeatureCollection","features":[{"type":"Feature","geometry":{"type":"Polygon","coordinates":[[[-68.61298,-16.78844],[-68.61294,-16.78823],[-68.61334,-16.78791],[-68.61356,-16.78785],[-68.61368,-16.78737],[-68.61339,-16.7873],[-68.61333,-16.78747],[-68.61318,-16.7874],[-68.61312,-16.78751],[-68.61296,-16.78738],[-68.61278,-16.78742],[-68.61226,-16.78806],[-68.61277,-16.78848],[-68.61298,-16.78844]]]},"properties":{"n":"ACHUMA SANTA ANA","p":17,"personas_x_ha":17,"masculinidad":143,"pct_menor20":41,"pct_60mas":24,"pct_migrante":12,"dependencia_econ":55,"pct_empleados":9,"pct_cuentapropia":64,"pct_agricultura":64,"pct_comercio":9,"pct_manufactura":0,"pct_construccion":9,"pct_transporte":0,"pct_alojamiento":0,"pct_sin_educacion":0,"pct_educ_superior":30,"brecha_educ":-8,"pct_sin_seguro":6,"pct_sus":82,"pct_seguro_privado":0,"brecha_seguro":10,"pct_salud_publica":71,"pct_med_tradicional":5,"pct_automedicacion":5,"pct_remedios_caseros":5,"pct_viv_desocupada":0,"pct_alquiler":0,"pct_electricidad":86,"pct_sin_electricidad":14,"pct_agua_red":86,"pct_alcantarillado":0,"pct_camara_septica":0,"pct_pozo_ciego":71,"pct_sin_desague":29,"pct_gas_red":0,"pct_gas_garrafa":71,"pct_lena_guano":71,"pct_basura_formal":14,"pct_basura_quema":86,"pct_basura_informal":0,"pct_internet":29,"pct_celular":100,"pct_televisor":43}},{"type":"Feature","geometry":{"type":"Polygon","coordinates":[[[-68.58049,-16.79463],[-68.58104,-16.79437],[-68.58051,-16.79368],[-68.58065,-16.79354],[-68.58039,-16.79319],[-68.57975,-16.79272],[-68.57961,-16.79285],[-68.5799,-16.79358],[-68.58049,-16.79463]]]},"properties":{"n":"CHAMA","p":27,"personas_x_ha":21,"masculinidad":170,"pct_menor20":52,"pct_60mas":7,"pct_migrante":30,"dependencia_econ":80,"pct_empleados":27,"pct_cuentapropia":60,"pct_agricultura":20,"pct_comercio":20,"pct_manufactura":7,"pct_construccion":7,"pct_transporte":0,"pct_alojamiento":7,"pct_sin_educacion":0,"pct_educ_superior":46,"brecha_educ":0,"pct_sin_seguro":4,"pct_sus":81,"pct_seguro_privado":0,"brecha_seguro":6,"pct_salud_publica":31,"pct_med_tradicional":6,"pct_automedicacion":21,"pct_remedios_caseros":23,"pct_viv_desocupada":0,"pct_alquiler":14,"pct_electricidad":100,"pct_sin_electricidad":0,"pct_agua_red":86,"pct_alcantarillado":14,"pct_camara_septica":14,"pct_pozo_ciego":43,"pct_sin_desague":29,"pct_gas_red":0,"pct_gas_garrafa":86,"pct_lena_guano":86,"pct_basura_formal":14,"pct_basura_quema":71,"pct_basura_informal":0,"pct_internet":71,"pct_celular":86,"pct_televisor":71}},{"type":"Feature","geometry":{"type":"Polygon","coordinates":[[[-68.57916,-16.79589],[-68.57929,-16.79551],[-68.57991,-16.79533],[-68.58057,-16.79535],[-68.5805,-16.7955],[-68.57976,-16.79561],[-68.58014,-16.79676],[-68.57968,-16.79689],[-68.57948,-16.79603],[-68.57916,-16.79589]]]},"properties":{"n":"CHAMA","p":18,"personas_x_ha":17,"masculinidad":100,"pct_menor20":33,"pct_60mas":22,"pct_migrante":6,"dependencia_econ":80,"pct_empleados":30,"pct_cuentapropia":60,"pct_agricultura":30,"pct_comercio":10,"pct_manufactura":10,"pct_construccion":0,"pct_transporte":10,"pct_alojamiento":0,"pct_sin_educacion":0,"pct_educ_superior":54,"brecha_educ":-17,"pct_sin_seguro":28,"pct_sus":67,"pct_seguro_privado":0,"brecha_seguro":-33,"pct_salud_publica":42,"pct_med_tradicional":5,"pct_automedicacion":18,"pct_remedios_caseros":24,"pct_viv_desocupada":0,"pct_alquiler":0,"pct_electricidad":71,"pct_sin_electricidad":29,"pct_agua_red":100,"pct_alcantarillado":0,"pct_camara_septica":0,"pct_pozo_ciego":43,"pct_sin_desague":57,"pct_gas_red":0,"pct_gas_garrafa":86,"pct_lena_guano":86,"pct_basura_formal":29,"pct_basura_quema":43,"pct_basura_informal":0,"pct_internet":71,"pct_celular":100,"pct_televisor":29}},{"type":"Feature","geometry":{"type":"Polygon","coordinates":[[[-68.57522,-16.79696],[-68.57779,-16.79593],[-68.5777,-16.79572],[-68.57753,-16.79578],[-68.57746,-16.79564],[-68.57658,-16.79604],[-68.57636,-16.79569],[-68.5761,-16.79576],[-68.57596,-16.79615],[-68.57517,-16.79624],[-68.57522,-16.79696]]]},"properties":{"n":"CHAMA","p":15,"personas_x_ha":9,"masculinidad":36,"pct_menor20":47,"pct_60mas":13,"pct_migrante":20,"dependencia_econ":67,"pct_empleados":33,"pct_cuentapropia":56,"pct_agricultura":56,"pct_comercio":0,"pct_manufactura":0,"pct_construccion":11,"pct_transporte":0,"pct_alojamiento":22,"pct_sin_educacion":0,"pct_educ_superior":56,"brecha_educ":-29,"pct_sin_seguro":13,"pct_sus":53,"pct_seguro_privado":0,"brecha_seguro":-18,"pct_salud_publica":18,"pct_med_tradicional":12,"pct_automedicacion":14,"pct_remedios_caseros":27,"pct_viv_desocupada":0,"pct_alquiler":0,"pct_electricidad":67,"pct_sin_electricidad":17,"pct_agua_red":100,"pct_alcantarillado":0,"pct_camara_septica":0,"pct_pozo_ciego":17,"pct_sin_desague":50,"pct_gas_red":0,"pct_gas_garrafa":83,"pct_lena_guano":83,"pct_basura_formal":17,"pct_basura_quema":83,"pct_basura_informal":0,"pct_internet":67,"pct_celular":100,"pct_televisor":17}},{"type":"Feature","geometry":{"type":"Polygon","coordinates":[[[-68.5807,-16.79518],[-68.58197,-16.79515],[-68.58181,-16.7947],[-68.58093,-16.79447],[-68.58048,-16.79468],[-68.5807,-16.79518]]]},"properties":{"n":"CHAMA","p":19,"personas_x_ha":21,"masculinidad":90,"pct_menor20":21,"pct_60mas":16,"pct_migrante":21,"dependencia_econ":90,"pct_empleados":30,"pct_cuentapropia":30,"pct_agricultura":50,"pct_comercio":0,"pct_manufactura":10,"pct_construccion":10,"pct_transporte":10,"pct_alojamiento":0,"pct_sin_educacion":0,"pct_educ_superior":27,"brecha_educ":-14,"pct_sin_seguro":11,"pct_sus":58,"pct_seguro_privado":0,"brecha_seguro":22,"pct_salud_publica":44,"pct_med_tradicional":12,"pct_automedicacion":15,"pct_remedios_caseros":15,"pct_viv_desocupada":0,"pct_alquiler":11,"pct_electricidad":89,"pct_sin_electricidad":11,"pct_agua_red":100,"pct_alcantarillado":11,"pct_camara_septica":33,"pct_pozo_ciego":44,"pct_sin_desague":11,"pct_gas_red":0,"pct_gas_garrafa":100,"pct_lena_guano":100,"pct_basura_formal":33,"pct_basura_quema":44,"pct_basura_informal":0,"pct_internet":22,"pct_celular":78,"pct_televisor":56}},{"type":"Feature","geometry":{"type":"Polygon","coordinates":[[[-68.57594,-16.79705],[-68.57804,-16.79735],[-68.57785,-16.79608],[-68.57586,-16.79687],[-68.57594,-16.79705]]]},"properties":{"n":"CHAMA","p":15,"personas_x_ha":8,"masculinidad":114,"pct_menor20":53,"pct_60mas":0,"pct_migrante":73,"dependencia_econ":150,"pct_empleados":33,"pct_cuentapropia":50,"pct_agricultura":17,"pct_comercio":33,"pct_manufactura":0,"pct_construccion":0,"pct_transporte":33,"pct_alojamiento":0,"pct_sin_educacion":0,"pct_educ_superior":43,"brecha_educ":0,"pct_sin_seguro":13,"pct_sus":67,"pct_seguro_privado":0,"brecha_seguro":25,"pct_salud_publica":61,"pct_med_tradicional":0,"pct_automedicacion":6,"pct_remedios_caseros":22,"pct_viv_desocupada":14,"pct_alquiler":0,"pct_electricidad":75,"pct_sin_electricidad":25,"pct_agua_red":75,"pct_alcantarillado":0,"pct_camara_septica":25,"pct_pozo_ciego":25,"pct_sin_desague":50,"pct_gas_red":0,"pct_gas_garrafa":75,"pct_lena_guano":75,"pct_basura_formal":0,"pct_basura_quema":75,"pct_basura_informal":0,"pct_internet":0,"pct_celular":0,"pct_televisor":25}},{"type":"Feature","geometry":{"type":"Polygon","coordinates":[[[-68.86584,-16.67862],[-68.86506,-16.67818],[-68.86487,-16.67852],[-68.86565,-16.67892],[-68.86584,-16.67862]]]},"properties":{"n":"CORPA","p":25,"personas_x_ha":62,"masculinidad":79,"pct_menor20":20,"pct_60mas":36,"pct_migrante":8,"dependencia_econ":67,"pct_empleados":27,"pct_cuentapropia":73,"pct_agricultura":53,"pct_comercio":20,"pct_manufactura":0,"pct_construccion":7,"pct_transporte":0,"pct_alojamiento":0,"pct_sin_educacion":0,"pct_educ_superior":30,"brecha_educ":-8,"pct_sin_seguro":20,"pct_sus":72,"pct_seguro_privado":8,"brecha_seguro":-19,"pct_salud_publica":26,"pct_med_tradicional":21,"pct_automedicacion":18,"pct_remedios_caseros":25,"pct_viv_desocupada":0,"pct_alquiler":0,"pct_electricidad":100,"pct_sin_electricidad":0,"pct_agua_red":93,"pct_alcantarillado":7,"pct_camara_septica":0,"pct_pozo_ciego":60,"pct_sin_desague":27,"pct_gas_red":0,"pct_gas_garrafa":100,"pct_lena_guano":100,"pct_basura_formal":67,"pct_basura_quema":7,"pct_basura_informal":53,"pct_internet":60,"pct_celular":87,"pct_televisor":67}},{"type":"Feature","geometry":{"type":"Polygon","coordinates":[[[-68.86674,-16.67906],[-68.86593,-16.67864],[-68.86575,-16.67897],[-68.86656,-16.67938],[-68.86674,-16.67906]]]},"properties":{"n":"CORPA","p":47,"personas_x_ha":117,"masculinidad":81,"pct_menor20":32,"pct_60mas":6,"pct_migrante":17,"dependencia_econ":147,"pct_empleados":0,"pct_cuentapropia":84,"pct_agricultura":47,"pct_comercio":16,"pct_manufactura":11,"pct_construccion":5,"pct_transporte":0,"pct_alojamiento":11,"pct_sin_educacion":0,"pct_educ_superior":30,"brecha_educ":-7,"pct_sin_seguro":17,"pct_sus":72,"pct_seguro_privado":7,"brecha_seguro":-4,"pct_salud_publica":45,"pct_med_tradicional":21,"pct_automedicacion":3,"pct_remedios_caseros":24,"pct_viv_desocupada":0,"pct_alquiler":0,"pct_electricidad":100,"pct_sin_electricidad":0,"pct_agua_red":100,"pct_alcantarillado":0,"pct_camara_septica":7,"pct_pozo_ciego":21,"pct_sin_desague":64,"pct_gas_red":0,"pct_gas_garrafa":100,"pct_lena_guano":100,"pct_basura_formal":21,"pct_basura_quema":36,"pct_basura_informal":0,"pct_internet":79,"pct_celular":93,"pct_televisor":79}},{"type":"Feature","geometry":{"type":"Polygon","coordinates":[[[-68.86526,-16.67784],[-68.86506,-16.67809],[-68.86591,-16.6785],[-68.86596,-16.67833],[-68.86552,-16.67819],[-68.86526,-16.67784]]]},"properties":{"n":"CORPA","p":16,"personas_x_ha":75,"masculinidad":78,"pct_menor20":12,"pct_60mas":12,"pct_migrante":25,"dependencia_econ":60,"pct_empleados":20,"pct_cuentapropia":70,"pct_agricultura":20,"pct_comercio":20,"pct_manufactura":10,"pct_construccion":0,"pct_transporte":0,"pct_alojamiento":0,"pct_sin_educacion":0,"pct_educ_superior":57,"brecha_educ":-8,"pct_sin_seguro":12,"pct_sus":62,"pct_seguro_privado":0,"brecha_seguro":-22,"pct_salud_publica":18,"pct_med_tradicional":20,"pct_automedicacion":23,"pct_remedios_caseros":22,"pct_viv_desocupada":0,"pct_alquiler":11,"pct_electricidad":89,"pct_sin_electricidad":11,"pct_agua_red":89,"pct_alcantarillado":0,"pct_camara_septica":0,"pct_pozo_ciego":56,"pct_sin_desague":44,"pct_gas_red":0,"pct_gas_garrafa":89,"pct_lena_guano":89,"pct_basura_formal":78,"pct_basura_quema":11,"pct_basura_informal":22,"pct_internet":67,"pct_celular":78,"pct_televisor":67}},{"type":"Feature","geometry":{"type":"Polygon","coordinates":[[[-68.86383,-16.68051],[-68.86443,-16.68104],[-68.86463,-16.68071],[-68.86393,-16.68033],[-68.86383,-16.68051]]]},"properties":{"n":"CORPA","p":17,"personas_x_ha":60,"masculinidad":70,"pct_menor20":29,"pct_60mas":18,"pct_migrante":6,"dependencia_econ":183,"pct_empleados":0,"pct_cuentapropia":67,"pct_agricultura":17,"pct_comercio":50,"pct_manufactura":0,"pct_construccion":0,"pct_transporte":0,"pct_alojamiento":0,"pct_sin_educacion":17,"pct_educ_superior":17,"brecha_educ":-37,"pct_sin_seguro":6,"pct_sus":88,"pct_seguro_privado":0,"brecha_seguro":14,"pct_salud_publica":33,"pct_med_tradicional":30,"pct_automedicacion":35,"pct_remedios_caseros":0,"pct_viv_desocupada":0,"pct_alquiler":0,"pct_electricidad":100,"pct_sin_electricidad":0,"pct_agua_red":100,"pct_alcantarillado":29,"pct_camara_septica":0,"pct_pozo_ciego":43,"pct_sin_desague":29,"pct_gas_red":0,"pct_gas_garrafa":100,"pct_lena_guano":100,"pct_basura_formal":0,"pct_basura_quema":86,"pct_basura_informal":0,"pct_internet":29,"pct_celular":57,"pct_televisor":43}},{"type":"Feature","geometry":{"type":"Polygon","coordinates":[[[-68.86388,-16.68006],[-68.86426,-16.67937],[-68.86394,-16.6792],[-68.86352,-16.67992],[-68.86388,-16.68006]]]},"properties":{"n":"CORPA","p":25,"personas_x_ha":69,"masculinidad":92,"pct_menor20":44,"pct_60mas":0,"pct_migrante":20,"dependencia_econ":92,"pct_empleados":23,"pct_cuentapropia":62,"pct_agricultura":23,"pct_comercio":8,"pct_manufactura":15,"pct_construccion":0,"pct_transporte":8,"pct_alojamiento":23,"pct_sin_educacion":0,"pct_educ_superior":21,"brecha_educ":-4,"pct_sin_seguro":8,"pct_sus":80,"pct_seguro_privado":0,"brecha_seguro":1,"pct_salud_publica":31,"pct_med_tradicional":17,"pct_automedicacion":18,"pct_remedios_caseros":16,"pct_viv_desocupada":0,"pct_alquiler":0,"pct_electricidad":78,"pct_sin_electricidad":22,"pct_agua_red":56,"pct_alcantarillado":0,"pct_camara_septica":11,"pct_pozo_ciego":0,"pct_sin_desague":89,"pct_gas_red":0,"pct_gas_garrafa":100,"pct_lena_guano":100,"pct_basura_formal":67,"pct_basura_quema":33,"pct_basura_informal":0,"pct_internet":67,"pct_celular":89,"pct_televisor":56}},{"type":"Feature","geometry":{"type":"Polygon","coordinates":[[[-68.86488,-16.68027],[-68.86411,-16.67985],[-68.8639,-16.6802],[-68.86468,-16.68062],[-68.86488,-16.68027]]]},"properties":{"n":"CORPA","p":19,"personas_x_ha":45,"masculinidad":36,"pct_menor20":26,"pct_60mas":16,"pct_migrante":16,"dependencia_econ":58,"pct_empleados":25,"pct_cuentapropia":8,"pct_agricultura":58,"pct_comercio":0,"pct_manufactura":8,"pct_construccion":0,"pct_transporte":0,"pct_alojamiento":0,"pct_sin_educacion":7,"pct_educ_superior":21,"brecha_educ":-33,"pct_sin_seguro":5,"pct_sus":68,"pct_seguro_privado":0,"brecha_seguro":-7,"pct_salud_publica":19,"pct_med_tradicional":31,"pct_automedicacion":17,"pct_remedios_caseros":15,"pct_viv_desocupada":0,"pct_alquiler":0,"pct_electricidad":69,"pct_sin_electricidad":31,"pct_agua_red":100,"pct_alcantarillado":0,"pct_camara_septica":0,"pct_pozo_ciego":15,"pct_sin_desague":85,"pct_gas_red":0,"pct_gas_garrafa":77,"pct_lena_guano":77,"pct_basura_formal":31,"pct_basura_quema":69,"pct_basura_informal":0,"pct_internet":69,"pct_celular":92,"pct_televisor":38}},{"type":"Feature","geometry":{"type":"Polygon","coordinates":[[[-68.86532,-16.67995],[-68.86521,-16.68012],[-68.86511,-16.68006],[-68.86501,-16.68024],[-68.86579,-16.68066],[-68.86598,-16.68031],[-68.86532,-16.67995]]]},"properties":{"n":"CORPA","p":21,"personas_x_ha":53,"masculinidad":62,"pct_menor20":24,"pct_60mas":24,"pct_migrante":19,"dependencia_econ":31,"pct_empleados":44,"pct_cuentapropia":44,"pct_agricultura":56,"pct_comercio":0,"pct_manufactura":12,"pct_construccion":0,"pct_transporte":6,"pct_alojamiento":0,"pct_sin_educacion":0,"pct_educ_superior":31,"brecha_educ":-19,"pct_sin_seguro":14,"pct_sus":67,"pct_seguro_privado":0,"brecha_seguro":17,"pct_salud_publica":27,"pct_med_tradicional":25,"pct_automedicacion":6,"pct_remedios_caseros":20,"pct_viv_desocupada":0,"pct_alquiler":0,"pct_electricidad":50,"pct_sin_electricidad":50,"pct_agua_red":71,"pct_alcantarillado":0,"pct_camara_septica":0,"pct_pozo_ciego":21,"pct_sin_desague":64,"pct_gas_red":0,"pct_gas_garrafa":79,"pct_lena_guano":79,"pct_basura_formal":71,"pct_basura_quema":29,"pct_basura_informal":0,"pct_internet":64,"pct_celular":100,"pct_televisor":50}},{"type":"Feature","geometry":{"type":"Polygon","coordinates":[[[-68.86759,-16.6794],[-68.86768,-16.67924],[-68.86698,-16.67888],[-68.86691,-16.67904],[-68.86759,-16.6794]]]},"properties":{"n":"CORPA","p":17,"personas_x_ha":99,"masculinidad":89,"pct_menor20":35,"pct_60mas":0,"pct_migrante":18,"dependencia_econ":42,"pct_empleados":42,"pct_cuentapropia":42,"pct_agricultura":25,"pct_comercio":17,"pct_manufactura":8,"pct_construccion":0,"pct_transporte":8,"pct_alojamiento":17,"pct_sin_educacion":9,"pct_educ_superior":45,"brecha_educ":-13,"pct_sin_seguro":24,"pct_sus":59,"pct_seguro_privado":0,"brecha_seguro":-21,"pct_salud_publica":23,"pct_med_tradicional":21,"pct_automedicacion":18,"pct_remedios_caseros":23,"pct_viv_desocupada":11,"pct_alquiler":0,"pct_electricidad":83,"pct_sin_electricidad":17,"pct_agua_red":100,"pct_alcantarillado":0,"pct_camara_septica":0,"pct_pozo_ciego":50,"pct_sin_desague":50,"pct_gas_red":0,"pct_gas_garrafa":100,"pct_lena_guano":100,"pct_basura_formal":67,"pct_basura_quema":17,"pct_basura_informal":0,"pct_internet":83,"pct_celular":100,"pct_televisor":50}},{"type":"Feature","geometry":{"type":"Polygon","coordinates":[[[-68.86753,-16.67949],[-68.86683,-16.67912],[-68.86665,-16.67943],[-68.86735,-16.67982],[-68.86753,-16.67949]]]},"properties":{"n":"CORPA","p":40,"personas_x_ha":115,"masculinidad":208,"pct_menor20":48,"pct_60mas":0,"pct_migrante":15,"dependencia_econ":74,"pct_empleados":13,"pct_cuentapropia":57,"pct_agricultura":39,"pct_comercio":17,"pct_manufactura":4,"pct_construccion":13,"pct_transporte":13,"pct_alojamiento":0,"pct_sin_educacion":0,"pct_educ_superior":39,"brecha_educ":0,"pct_sin_seguro":0,"pct_sus":100,"pct_seguro_privado":0,"brecha_seguro":0,"pct_salud_publica":28,"pct_med_tradicional":18,"pct_automedicacion":9,"pct_remedios_caseros":22,"pct_viv_desocupada":6,"pct_alquiler":7,"pct_electricidad":87,"pct_sin_electricidad":13,"pct_agua_red":93,"pct_alcantarillado":7,"pct_camara_septica":0,"pct_pozo_ciego":27,"pct_sin_desague":67,"pct_gas_red":0,"pct_gas_garrafa":93,"pct_lena_guano":93,"pct_basura_formal":60,"pct_basura_quema":20,"pct_basura_informal":0,"pct_internet":67,"pct_celular":93,"pct_televisor":73}},{"type":"Feature","geometry":{"type":"Polygon","coordinates":[[[-68.86589,-16.67546],[-68.86586,-16.67557],[-68.86472,-16.67526],[-68.86481,-16.67481],[-68.86488,-16.67474],[-68.86579,-16.67481],[-68.8661,-16.67493],[-68.86599,-16.67541],[-68.86625,-16.67557],[-68.86621,-16.67568],[-68.86587,-16.67558],[-68.86589,-16.67546]]]},"properties":{"n":"CORPA","p":15,"personas_x_ha":14,"masculinidad":200,"pct_menor20":47,"pct_60mas":13,"pct_migrante":0,"dependencia_econ":150,"pct_empleados":0,"pct_cuentapropia":50,"pct_agricultura":67,"pct_comercio":17,"pct_manufactura":0,"pct_construccion":17,"pct_transporte":0,"pct_alojamiento":0,"pct_sin_educacion":0,"pct_educ_superior":25,"brecha_educ":-25,"pct_sin_seguro":13,"pct_sus":80,"pct_seguro_privado":0,"brecha_seguro":20,"pct_salud_publica":39,"pct_med_tradicional":13,"pct_automedicacion":16,"pct_remedios_caseros":13,"pct_viv_desocupada":18,"pct_alquiler":0,"pct_electricidad":100,"pct_sin_electricidad":0,"pct_agua_red":83,"pct_alcantarillado":0,"pct_camara_septica":17,"pct_pozo_ciego":33,"pct_sin_desague":17,"pct_gas_red":0,"pct_gas_garrafa":100,"pct_lena_guano":100,"pct_basura_formal":17,"pct_basura_quema":83,"pct_basura_informal":0,"pct_internet":50,"pct_celular":100,"pct_televisor":67}},{"type":"Feature","geometry":{"type":"Polygon","coordinates":[[[-68.86708,-16.68025],[-68.8673,-16.6799],[-68.86657,-16.67954],[-68.86639,-16.67987],[-68.86708,-16.68025]]]},"properties":{"n":"CORPA","p":31,"personas_x_ha":80,"masculinidad":94,"pct_menor20":35,"pct_60mas":10,"pct_migrante":19,"dependencia_econ":94,"pct_empleados":19,"pct_cuentapropia":69,"pct_agricultura":62,"pct_comercio":0,"pct_manufactura":6,"pct_construccion":0,"pct_transporte":0,"pct_alojamiento":12,"pct_sin_educacion":5,"pct_educ_superior":50,"brecha_educ":17,"pct_sin_seguro":6,"pct_sus":77,"pct_seguro_privado":0,"brecha_seguro":-12,"pct_salud_publica":22,"pct_med_tradicional":15,"pct_automedicacion":15,"pct_remedios_caseros":24,"pct_viv_desocupada":0,"pct_alquiler":6,"pct_electricidad":88,"pct_sin_electricidad":0,"pct_agua_red":88,"pct_alcantarillado":0,"pct_camara_septica":6,"pct_pozo_ciego":6,"pct_sin_desague":82,"pct_gas_red":0,"pct_gas_garrafa":88,"pct_lena_guano":88,"pct_basura_formal":59,"pct_basura_quema":0,"pct_basura_informal":82,"pct_internet":71,"pct_celular":94,"pct_televisor":47}},{"type":"Feature","geometry":{"type":"Polygon","coordinates":[[[-68.86475,-16.67953],[-68.8652,-16.6788],[-68.86487,-16.67858],[-68.86439,-16.67935],[-68.86475,-16.67953]]]},"properties":{"n":"CORPA","p":34,"personas_x_ha":78,"masculinidad":100,"pct_menor20":41,"pct_60mas":6,"pct_migrante":15,"dependencia_econ":79,"pct_empleados":37,"pct_cuentapropia":47,"pct_agricultura":42,"pct_comercio":21,"pct_manufactura":5,"pct_construccion":5,"pct_transporte":0,"pct_alojamiento":0,"pct_sin_educacion":0,"pct_educ_superior":40,"brecha_educ":25,"pct_sin_seguro":3,"pct_sus":65,"pct_seguro_privado":0,"brecha_seguro":6,"pct_salud_publica":28,"pct_med_tradicional":20,"pct_automedicacion":12,"pct_remedios_caseros":23,"pct_viv_desocupada":0,"pct_alquiler":0,"pct_electricidad":93,"pct_sin_electricidad":7,"pct_agua_red":100,"pct_alcantarillado":0,"pct_camara_septica":0,"pct_pozo_ciego":50,"pct_sin_desague":43,"pct_gas_red":0,"pct_gas_garrafa":100,"pct_lena_guano":100,"pct_basura_formal":71,"pct_basura_quema":14,"pct_basura_informal":14,"pct_internet":57,"pct_celular":86,"pct_televisor":64}},{"type":"Feature","geometry":{"type":"Polygon","coordinates":[[[-68.86711,-16.6784],[-68.86632,-16.67797],[-68.86608,-16.67832],[-68.86692,-16.67873],[-68.86711,-16.6784]]]},"properties":{"n":"CORPA","p":37,"personas_x_ha":85,"masculinidad":68,"pct_menor20":46,"pct_60mas":8,"pct_migrante":8,"dependencia_econ":147,"pct_empleados":13,"pct_cuentapropia":67,"pct_agricultura":60,"pct_comercio":7,"pct_manufactura":13,"pct_construccion":0,"pct_transporte":7,"pct_alojamiento":0,"pct_sin_educacion":5,"pct_educ_superior":50,"brecha_educ":-25,"pct_sin_seguro":6,"pct_sus":94,"pct_seguro_privado":0,"brecha_seguro":-10,"pct_salud_publica":32,"pct_med_tradicional":17,"pct_automedicacion":18,"pct_remedios_caseros":22,"pct_viv_desocupada":6,"pct_alquiler":0,"pct_electricidad":79,"pct_sin_electricidad":21,"pct_agua_red":93,"pct_alcantarillado":0,"pct_camara_septica":14,"pct_pozo_ciego":29,"pct_sin_desague":57,"pct_gas_red":0,"pct_gas_garrafa":100,"pct_lena_guano":100,"pct_basura_formal":86,"pct_basura_quema":0,"pct_basura_informal":14,"pct_internet":86,"pct_celular":100,"pct_televisor":57}},{"type":"Feature","geometry":{"type":"Polygon","coordinates":[[[-68.86702,-16.68035],[-68.86634,-16.67995],[-68.86614,-16.68029],[-68.86683,-16.68067],[-68.86702,-16.68035]]]},"properties":{"n":"CORPA","p":34,"personas_x_ha":91,"masculinidad":89,"pct_menor20":44,"pct_60mas":3,"pct_migrante":26,"dependencia_econ":89,"pct_empleados":22,"pct_cuentapropia":44,"pct_agricultura":50,"pct_comercio":17,"pct_manufactura":6,"pct_construccion":0,"pct_transporte":0,"pct_alojamiento":0,"pct_sin_educacion":0,"pct_educ_superior":42,"brecha_educ":-22,"pct_sin_seguro":9,"pct_sus":56,"pct_seguro_privado":3,"brecha_seguro":19,"pct_salud_publica":25,"pct_med_tradicional":15,"pct_automedicacion":19,"pct_remedios_caseros":17,"pct_viv_desocupada":0,"pct_alquiler":0,"pct_electricidad":91,"pct_sin_electricidad":9,"pct_agua_red":100,"pct_alcantarillado":0,"pct_camara_septica":0,"pct_pozo_ciego":18,"pct_sin_desague":73,"pct_gas_red":0,"pct_gas_garrafa":91,"pct_lena_guano":91,"pct_basura_formal":82,"pct_basura_quema":9,"pct_basura_informal":0,"pct_internet":55,"pct_celular":100,"pct_televisor":64}},{"type":"Feature","geometry":{"type":"Polygon","coordinates":[[[-68.86584,-16.68081],[-68.86564,-16.68114],[-68.86632,-16.68151],[-68.86653,-16.68118],[-68.86584,-16.68081]]]},"properties":{"n":"CORPA","p":30,"personas_x_ha":82,"masculinidad":114,"pct_menor20":40,"pct_60mas":7,"pct_migrante":7,"dependencia_econ":76,"pct_empleados":18,"pct_cuentapropia":76,"pct_agricultura":47,"pct_comercio":12,"pct_manufactura":0,"pct_construccion":6,"pct_transporte":6,"pct_alojamiento":6,"pct_sin_educacion":11,"pct_educ_superior":33,"brecha_educ":-28,"pct_sin_seguro":10,"pct_sus":67,"pct_seguro_privado":0,"brecha_seguro":5,"pct_salud_publica":25,"pct_med_tradicional":21,"pct_automedicacion":14,"pct_remedios_caseros":27,"pct_viv_desocupada":0,"pct_alquiler":0,"pct_electricidad":60,"pct_sin_electricidad":40,"pct_agua_red":93,"pct_alcantarillado":0,"pct_camara_septica":0,"pct_pozo_ciego":0,"pct_sin_desague":100,"pct_gas_red":0,"pct_gas_garrafa":47,"pct_lena_guano":47,"pct_basura_formal":73,"pct_basura_quema":13,"pct_basura_informal":0,"pct_internet":60,"pct_celular":73,"pct_televisor":33}},{"type":"Feature","geometry":{"type":"Polygon","coordinates":[[[-68.86783,-16.67898],[-68.86764,-16.67888],[-68.8677,-16.67878],[-68.86723,-16.67847],[-68.86703,-16.67877],[-68.86775,-16.67914],[-68.86783,-16.67898]]]},"properties":{"n":"CORPA","p":20,"personas_x_ha":71,"masculinidad":67,"pct_menor20":35,"pct_60mas":20,"pct_migrante":15,"dependencia_econ":54,"pct_empleados":15,"pct_cuentapropia":62,"pct_agricultura":69,"pct_comercio":0,"pct_manufactura":15,"pct_construccion":0,"pct_transporte":8,"pct_alojamiento":0,"pct_sin_educacion":8,"pct_educ_superior":8,"brecha_educ":-40,"pct_sin_seguro":10,"pct_sus":85,"pct_seguro_privado":0,"brecha_seguro":-17,"pct_salud_publica":34,"pct_med_tradicional":18,"pct_automedicacion":10,"pct_remedios_caseros":22,"pct_viv_desocupada":8,"pct_alquiler":8,"pct_electricidad":100,"pct_sin_electricidad":0,"pct_agua_red":83,"pct_alcantarillado":17,"pct_camara_septica":0,"pct_pozo_ciego":8,"pct_sin_desague":67,"pct_gas_red":0,"pct_gas_garrafa":100,"pct_lena_guano":100,"pct_basura_formal":58,"pct_basura_quema":17,"pct_basura_informal":33,"pct_internet":42,"pct_celular":92,"pct_televisor":58}},{"type":"Feature","geometry":{"type":"Polygon","coordinates":[[[-68.86609,-16.68037],[-68.86589,-16.68071],[-68.86659,-16.68109],[-68.86678,-16.68075],[-68.86609,-16.68037]]]},"properties":{"n":"CORPA","p":33,"personas_x_ha":89,"masculinidad":83,"pct_menor20":39,"pct_60mas":6,"pct_migrante":3,"dependencia_econ":65,"pct_empleados":25,"pct_cuentapropia":55,"pct_agricultura":50,"pct_comercio":5,"pct_manufactura":15,"pct_construccion":15,"pct_transporte":0,"pct_alojamiento":0,"pct_sin_educacion":0,"pct_educ_superior":40,"brecha_educ":-20,"pct_sin_seguro":12,"pct_sus":79,"pct_seguro_privado":0,"brecha_seguro":14,"pct_salud_publica":25,"pct_med_tradicional":22,"pct_automedicacion":17,"pct_remedios_caseros":24,"pct_viv_desocupada":0,"pct_alquiler":0,"pct_electricidad":59,"pct_sin_electricidad":35,"pct_agua_red":59,"pct_alcantarillado":0,"pct_camara_septica":0,"pct_pozo_ciego":53,"pct_sin_desague":47,"pct_gas_red":0,"pct_gas_garrafa":65,"pct_lena_guano":65,"pct_basura_formal":76,"pct_basura_quema":18,"pct_basura_informal":0,"pct_internet":88,"pct_celular":100,"pct_televisor":47}},{"type":"Feature","geometry":{"type":"Polygon","coordinates":[[[-68.86497,-16.68032],[-68.86476,-16.68066],[-68.86555,-16.68109],[-68.86575,-16.68075],[-68.86497,-16.68032]]]},"properties":{"n":"CORPA","p":34,"personas_x_ha":80,"masculinidad":79,"pct_menor20":29,"pct_60mas":18,"pct_migrante":15,"dependencia_econ":55,"pct_empleados":9,"pct_cuentapropia":55,"pct_agricultura":59,"pct_comercio":5,"pct_manufactura":14,"pct_construccion":5,"pct_transporte":0,"pct_alojamiento":0,"pct_sin_educacion":0,"pct_educ_superior":33,"brecha_educ":-16,"pct_sin_seguro":18,"pct_sus":62,"pct_seguro_privado":0,"brecha_seguro":4,"pct_salud_publica":21,"pct_med_tradicional":20,"pct_automedicacion":21,"pct_remedios_caseros":25,"pct_viv_desocupada":0,"pct_alquiler":12,"pct_electricidad":76,"pct_sin_electricidad":18,"pct_agua_red":94,"pct_alcantarillado":6,"pct_camara_septica":0,"pct_pozo_ciego":35,"pct_sin_desague":59,"pct_gas_red":0,"pct_gas_garrafa":88,"pct_lena_guano":94,"pct_basura_formal":76,"pct_basura_quema":18,"pct_basura_informal":12,"pct_internet":47,"pct_celular":71,"pct_televisor":18}},{"type":"Feature","geometry":{"type":"Polygon","coordinates":[[[-68.86503,-16.68002],[-68.86512,-16.67984],[-68.86435,-16.67942],[-68.86415,-16.67977],[-68.86484,-16.68014],[-68.86494,-16.67997],[-68.86503,-16.68002]]]},"properties":{"n":"CORPA","p":39,"personas_x_ha":98,"masculinidad":77,"pct_menor20":49,"pct_60mas":5,"pct_migrante":10,"dependencia_econ":86,"pct_empleados":24,"pct_cuentapropia":52,"pct_agricultura":33,"pct_comercio":5,"pct_manufactura":10,"pct_construccion":14,"pct_transporte":0,"pct_alojamiento":5,"pct_sin_educacion":5,"pct_educ_superior":40,"brecha_educ":33,"pct_sin_seguro":5,"pct_sus":66,"pct_seguro_privado":0,"brecha_seguro":2,"pct_salud_publica":28,"pct_med_tradicional":17,"pct_automedicacion":19,"pct_remedios_caseros":25,"pct_viv_desocupada":0,"pct_alquiler":6,"pct_electricidad":94,"pct_sin_electricidad":6,"pct_agua_red":88,"pct_alcantarillado":0,"pct_camara_septica":12,"pct_pozo_ciego":12,"pct_sin_desague":65,"pct_gas_red":0,"pct_gas_garrafa":82,"pct_lena_guano":82,"pct_basura_formal":71,"pct_basura_quema":18,"pct_basura_informal":0,"pct_internet":71,"pct_celular":88,"pct_televisor":47}},{"type":"Feature","geometry":{"type":"Polygon","coordinates":[[[-68.86627,-16.6816],[-68.86559,-16.68122],[-68.86539,-16.68154],[-68.86597,-16.68211],[-68.86627,-16.6816]]]},"properties":{"n":"CORPA","p":25,"personas_x_ha":55,"masculinidad":92,"pct_menor20":28,"pct_60mas":8,"pct_migrante":8,"dependencia_econ":14,"pct_empleados":5,"pct_cuentapropia":73,"pct_agricultura":50,"pct_comercio":23,"pct_manufactura":14,"pct_construccion":5,"pct_transporte":0,"pct_alojamiento":5,"pct_sin_educacion":0,"pct_educ_superior":28,"brecha_educ":-10,"pct_sin_seguro":0,"pct_sus":92,"pct_seguro_privado":0,"brecha_seguro":0,"pct_salud_publica":31,"pct_med_tradicional":13,"pct_automedicacion":12,"pct_remedios_caseros":30,"pct_viv_desocupada":6,"pct_alquiler":0,"pct_electricidad":88,"pct_sin_electricidad":12,"pct_agua_red":75,"pct_alcantarillado":25,"pct_camara_septica":6,"pct_pozo_ciego":12,"pct_sin_desague":56,"pct_gas_red":0,"pct_gas_garrafa":100,"pct_lena_guano":100,"pct_basura_formal":94,"pct_basura_quema":6,"pct_basura_informal":0,"pct_internet":50,"pct_celular":69,"pct_televisor":50}},{"type":"Feature","geometry":{"type":"Polygon","coordinates":[[[-68.64021,-16.79188],[-68.64023,-16.79034],[-68.63953,-16.79031],[-68.63936,-16.79185],[-68.64021,-16.79188]]]},"properties":{"n":"CUIPA ESPAÑA","p":21,"personas_x_ha":15,"masculinidad":50,"pct_menor20":24,"pct_60mas":10,"pct_migrante":10,"dependencia_econ":27,"pct_empleados":7,"pct_cuentapropia":87,"pct_agricultura":60,"pct_comercio":7,"pct_manufactura":20,"pct_construccion":7,"pct_transporte":0,"pct_alojamiento":0,"pct_sin_educacion":0,"pct_educ_superior":14,"brecha_educ":-33,"pct_sin_seguro":11,"pct_sus":84,"pct_seguro_privado":0,"brecha_seguro":-17,"pct_salud_publica":53,"pct_med_tradicional":15,"pct_automedicacion":6,"pct_remedios_caseros":18,"pct_viv_desocupada":12,"pct_alquiler":0,"pct_electricidad":67,"pct_sin_electricidad":33,"pct_agua_red":73,"pct_alcantarillado":7,"pct_camara_septica":0,"pct_pozo_ciego":40,"pct_sin_desague":53,"pct_gas_red":0,"pct_gas_garrafa":93,"pct_lena_guano":93,"pct_basura_formal":0,"pct_basura_quema":80,"pct_basura_informal":0,"pct_internet":27,"pct_celular":73,"pct_televisor":27}},{"type":"Feature","geometry":{"type":"Polygon","coordinates":[[[-68.64053,-16.79195],[-68.63935,-16.79192],[-68.63909,-16.79433],[-68.64008,-16.79437],[-68.63999,-16.79302],[-68.64053,-16.79195]]]},"properties":{"n":"CUIPA ESPAÑA","p":21,"personas_x_ha":8,"masculinidad":62,"pct_menor20":48,"pct_60mas":19,"pct_migrante":5,"dependencia_econ":91,"pct_empleados":0,"pct_cuentapropia":82,"pct_agricultura":91,"pct_comercio":0,"pct_manufactura":9,"pct_construccion":0,"pct_transporte":0,"pct_alojamiento":0,"pct_sin_educacion":0,"pct_educ_superior":18,"brecha_educ":-29,"pct_sin_seguro":0,"pct_sus":100,"pct_seguro_privado":0,"brecha_seguro":0,"pct_salud_publica":33,"pct_med_tradicional":23,"pct_automedicacion":11,"pct_remedios_caseros":33,"pct_viv_desocupada":15,"pct_alquiler":0,"pct_electricidad":55,"pct_sin_electricidad":45,"pct_agua_red":0,"pct_alcantarillado":18,"pct_camara_septica":0,"pct_pozo_ciego":55,"pct_sin_desague":27,"pct_gas_red":0,"pct_gas_garrafa":18,"pct_lena_guano":27,"pct_basura_formal":0,"pct_basura_quema":82,"pct_basura_informal":0,"pct_internet":45,"pct_celular":82,"pct_televisor":9}},{"type":"Feature","geometry":{"type":"Polygon","coordinates":[[[-68.63837,-16.78832],[-68.63806,-16.78812],[-68.63806,-16.78804],[-68.6387,-16.78783],[-68.63902,-16.78783],[-68.63915,-16.78796],[-68.63937,-16.78801],[-68.63939,-16.78823],[-68.63963,-16.78821],[-68.63947,-16.78981],[-68.63842,-16.78987],[-68.63852,-16.78953],[-68.63837,-16.78832]]]},"properties":{"n":"CUIPA ESPAÑA","p":16,"personas_x_ha":6,"masculinidad":45,"pct_menor20":25,"pct_60mas":19,"pct_migrante":12,"dependencia_econ":33,"pct_empleados":17,"pct_cuentapropia":58,"pct_agricultura":25,"pct_comercio":8,"pct_manufactura":8,"pct_construccion":33,"pct_transporte":0,"pct_alojamiento":17,"pct_sin_educacion":0,"pct_educ_superior":17,"brecha_educ":-37,"pct_sin_seguro":50,"pct_sus":38,"pct_seguro_privado":12,"brecha_seguro":44,"pct_salud_publica":29,"pct_med_tradicional":20,"pct_automedicacion":20,"pct_remedios_caseros":14,"pct_viv_desocupada":9,"pct_alquiler":10,"pct_electricidad":40,"pct_sin_electricidad":50,"pct_agua_red":0,"pct_alcantarillado":0,"pct_camara_septica":0,"pct_pozo_ciego":50,"pct_sin_desague":40,"pct_gas_red":0,"pct_gas_garrafa":70,"pct_lena_guano":90,"pct_basura_formal":0,"pct_basura_quema":50,"pct_basura_informal":40,"pct_internet":40,"pct_celular":80,"pct_televisor":20}},{"type":"Feature","geometry":{"type":"Polygon","coordinates":[[[-68.64033,-16.7899],[-68.6408,-16.78994],[-68.64084,-16.78944],[-68.64037,-16.78943],[-68.64033,-16.7899]]]},"properties":{"n":"CUIPA ESPAÑA","p":22,"personas_x_ha":79,"masculinidad":120,"pct_menor20":36,"pct_60mas":9,"pct_migrante":0,"dependencia_econ":36,"pct_empleados":43,"pct_cuentapropia":57,"pct_agricultura":21,"pct_comercio":14,"pct_manufactura":14,"pct_construccion":21,"pct_transporte":0,"pct_alojamiento":0,"pct_sin_educacion":0,"pct_educ_superior":0,"brecha_educ":-66,"pct_sin_seguro":0,"pct_sus":100,"pct_seguro_privado":0,"brecha_seguro":0,"pct_salud_publica":32,"pct_med_tradicional":18,"pct_automedicacion":9,"pct_remedios_caseros":20,"pct_viv_desocupada":0,"pct_alquiler":0,"pct_electricidad":91,"pct_sin_electricidad":9,"pct_agua_red":45,"pct_alcantarillado":45,"pct_camara_septica":0,"pct_pozo_ciego":45,"pct_sin_desague":0,"pct_gas_red":0,"pct_gas_garrafa":45,"pct_lena_guano":100,"pct_basura_formal":9,"pct_basura_quema":27,"pct_basura_informal":0,"pct_internet":36,"pct_celular":55,"pct_televisor":45}},{"type":"Feature","geometry":{"type":"Polygon","coordinates":[[[-68.958,-16.74533],[-68.95788,-16.74576],[-68.95793,-16.74512],[-68.95718,-16.74515],[-68.95718,-16.74569],[-68.9575,-16.74568],[-68.9575,-16.74596],[-68.95729,-16.74597],[-68.95729,-16.74627],[-68.95806,-16.74631],[-68.95805,-16.74681],[-68.95827,-16.74684],[-68.95847,-16.74536],[-68.958,-16.74533]]]},"properties":{"n":"IROHITO URUS","p":26,"personas_x_ha":17,"masculinidad":189,"pct_menor20":35,"pct_60mas":12,"pct_migrante":12,"dependencia_econ":73,"pct_empleados":0,"pct_cuentapropia":47,"pct_agricultura":80,"pct_comercio":20,"pct_manufactura":0,"pct_construccion":0,"pct_transporte":0,"pct_alojamiento":0,"pct_sin_educacion":6,"pct_educ_superior":12,"brecha_educ":-38,"pct_sin_seguro":15,"pct_sus":85,"pct_seguro_privado":0,"brecha_seguro":7,"pct_salud_publica":23,"pct_med_tradicional":23,"pct_automedicacion":7,"pct_remedios_caseros":29,"pct_viv_desocupada":12,"pct_alquiler":14,"pct_electricidad":100,"pct_sin_electricidad":0,"pct_agua_red":14,"pct_alcantarillado":0,"pct_camara_septica":0,"pct_pozo_ciego":100,"pct_sin_desague":0,"pct_gas_red":0,"pct_gas_garrafa":100,"pct_lena_guano":100,"pct_basura_formal":0,"pct_basura_quema":100,"pct_basura_informal":0,"pct_internet":43,"pct_celular":86,"pct_televisor":43}},{"type":"Feature","geometry":{"type":"Polygon","coordinates":[[[-68.95827,-16.74071],[-68.95782,-16.74074],[-68.95782,-16.74112],[-68.95728,-16.74111],[-68.95725,-16.74291],[-68.95801,-16.74297],[-68.95827,-16.74071]]]},"properties":{"n":"IROHITO URUS","p":25,"personas_x_ha":12,"masculinidad":79,"pct_menor20":36,"pct_60mas":28,"pct_migrante":52,"dependencia_econ":32,"pct_empleados":16,"pct_cuentapropia":47,"pct_agricultura":53,"pct_comercio":11,"pct_manufactura":16,"pct_construccion":11,"pct_transporte":0,"pct_alojamiento":0,"pct_sin_educacion":6,"pct_educ_superior":12,"brecha_educ":-19,"pct_sin_seguro":8,"pct_sus":92,"pct_seguro_privado":0,"brecha_seguro":18,"pct_salud_publica":28,"pct_med_tradicional":19,"pct_automedicacion":9,"pct_remedios_caseros":24,"pct_viv_desocupada":0,"pct_alquiler":0,"pct_electricidad":100,"pct_sin_electricidad":0,"pct_agua_red":12,"pct_alcantarillado":0,"pct_camara_septica":0,"pct_pozo_ciego":88,"pct_sin_desague":0,"pct_gas_red":0,"pct_gas_garrafa":100,"pct_lena_guano":100,"pct_basura_formal":25,"pct_basura_quema":50,"pct_basura_informal":0,"pct_internet":50,"pct_celular":88,"pct_televisor":0}},{"type":"Feature","geometry":{"type":"Polygon","coordinates":[[[-68.80686,-16.74238],[-68.80719,-16.74267],[-68.80761,-16.74227],[-68.80733,-16.74187],[-68.80686,-16.74238]]]},"properties":{"n":"JESUS DE MACHACA","p":15,"personas_x_ha":42,"masculinidad":67,"pct_menor20":20,"pct_60mas":33,"pct_migrante":33,"dependencia_econ":88,"pct_empleados":12,"pct_cuentapropia":62,"pct_agricultura":25,"pct_comercio":38,"pct_manufactura":12,"pct_construccion":0,"pct_transporte":0,"pct_alojamiento":25,"pct_sin_educacion":17,"pct_educ_superior":0,"brecha_educ":-25,"pct_sin_seguro":27,"pct_sus":73,"pct_seguro_privado":0,"brecha_seguro":-17,"pct_salud_publica":17,"pct_med_tradicional":20,"pct_automedicacion":22,"pct_remedios_caseros":23,"pct_viv_desocupada":0,"pct_alquiler":14,"pct_electricidad":86,"pct_sin_electricidad":14,"pct_agua_red":100,"pct_alcantarillado":0,"pct_camara_septica":0,"pct_pozo_ciego":86,"pct_sin_desague":14,"pct_gas_red":0,"pct_gas_garrafa":71,"pct_lena_guano":100,"pct_basura_formal":29,"pct_basura_quema":71,"pct_basura_informal":0,"pct_internet":86,"pct_celular":86,"pct_televisor":43}},{"type":"Feature","geometry":{"type":"Polygon","coordinates":[[[-68.80571,-16.74287],[-68.80541,-16.74322],[-68.80581,-16.7436],[-68.80607,-16.74321],[-68.80571,-16.74287]]]},"properties":{"n":"JESUS DE MACHACA","p":22,"personas_x_ha":76,"masculinidad":83,"pct_menor20":18,"pct_60mas":27,"pct_migrante":0,"dependencia_econ":50,"pct_empleados":29,"pct_cuentapropia":29,"pct_agricultura":57,"pct_comercio":14,"pct_manufactura":0,"pct_construccion":21,"pct_transporte":0,"pct_alojamiento":0,"pct_sin_educacion":0,"pct_educ_superior":29,"brecha_educ":11,"pct_sin_seguro":5,"pct_sus":95,"pct_seguro_privado":0,"brecha_seguro":10,"pct_salud_publica":67,"pct_med_tradicional":20,"pct_automedicacion":0,"pct_remedios_caseros":0,"pct_viv_desocupada":0,"pct_alquiler":0,"pct_electricidad":71,"pct_sin_electricidad":29,"pct_agua_red":86,"pct_alcantarillado":14,"pct_camara_septica":0,"pct_pozo_ciego":57,"pct_sin_desague":29,"pct_gas_red":0,"pct_gas_garrafa":71,"pct_lena_guano":71,"pct_basura_formal":0,"pct_basura_quema":100,"pct_basura_informal":0,"pct_internet":71,"pct_celular":86,"pct_televisor":14}},{"type":"Feature","geometry":{"type":"Polygon","coordinates":[[[-68.8084,-16.74615],[-68.80761,-16.74529],[-68.80728,-16.74565],[-68.80814,-16.74643],[-68.8084,-16.74615]]]},"properties":{"n":"JESUS DE MACHACA","p":25,"personas_x_ha":41,"masculinidad":127,"pct_menor20":32,"pct_60mas":16,"pct_migrante":44,"dependencia_econ":47,"pct_empleados":29,"pct_cuentapropia":71,"pct_agricultura":12,"pct_comercio":6,"pct_manufactura":53,"pct_construccion":0,"pct_transporte":6,"pct_alojamiento":6,"pct_sin_educacion":6,"pct_educ_superior":18,"brecha_educ":9,"pct_sin_seguro":24,"pct_sus":60,"pct_seguro_privado":16,"brecha_seguro":10,"pct_salud_publica":29,"pct_med_tradicional":4,"pct_automedicacion":22,"pct_remedios_caseros":29,"pct_viv_desocupada":0,"pct_alquiler":0,"pct_electricidad":85,"pct_sin_electricidad":15,"pct_agua_red":62,"pct_alcantarillado":0,"pct_camara_septica":0,"pct_pozo_ciego":85,"pct_sin_desague":15,"pct_gas_red":0,"pct_gas_garrafa":100,"pct_lena_guano":100,"pct_basura_formal":62,"pct_basura_quema":23,"pct_basura_informal":15,"pct_internet":77,"pct_celular":100,"pct_televisor":69}},{"type":"Feature","geometry":{"type":"Polygon","coordinates":[[[-68.80577,-16.74365],[-68.80537,-16.74327],[-68.80505,-16.74362],[-68.8055,-16.74403],[-68.80577,-16.74365]]]},"properties":{"n":"JESUS DE MACHACA","p":23,"personas_x_ha":71,"masculinidad":130,"pct_menor20":43,"pct_60mas":4,"pct_migrante":43,"dependencia_econ":130,"pct_empleados":40,"pct_cuentapropia":50,"pct_agricultura":10,"pct_comercio":30,"pct_manufactura":20,"pct_construccion":0,"pct_transporte":0,"pct_alojamiento":10,"pct_sin_educacion":8,"pct_educ_superior":31,"brecha_educ":-36,"pct_sin_seguro":0,"pct_sus":86,"pct_seguro_privado":5,"brecha_seguro":0,"pct_salud_publica":38,"pct_med_tradicional":15,"pct_automedicacion":15,"pct_remedios_caseros":19,"pct_viv_desocupada":0,"pct_alquiler":0,"pct_electricidad":90,"pct_sin_electricidad":10,"pct_agua_red":90,"pct_alcantarillado":0,"pct_camara_septica":0,"pct_pozo_ciego":80,"pct_sin_desague":20,"pct_gas_red":0,"pct_gas_garrafa":80,"pct_lena_guano":100,"pct_basura_formal":20,"pct_basura_quema":60,"pct_basura_informal":40,"pct_internet":70,"pct_celular":100,"pct_televisor":60}},{"type":"Feature","geometry":{"type":"Polygon","coordinates":[[[-68.8056,-16.74606],[-68.80617,-16.74546],[-68.80583,-16.74514],[-68.80532,-16.74579],[-68.8056,-16.74606]]]},"properties":{"n":"JESUS DE MACHACA","p":16,"personas_x_ha":38,"masculinidad":100,"pct_menor20":38,"pct_60mas":19,"pct_migrante":56,"dependencia_econ":50,"pct_empleados":0,"pct_cuentapropia":80,"pct_agricultura":30,"pct_comercio":20,"pct_manufactura":20,"pct_construccion":0,"pct_transporte":10,"pct_alojamiento":0,"pct_sin_educacion":11,"pct_educ_superior":56,"brecha_educ":-25,"pct_sin_seguro":43,"pct_sus":57,"pct_seguro_privado":0,"brecha_seguro":29,"pct_salud_publica":68,"pct_med_tradicional":5,"pct_automedicacion":11,"pct_remedios_caseros":5,"pct_viv_desocupada":0,"pct_alquiler":25,"pct_electricidad":62,"pct_sin_electricidad":38,"pct_agua_red":75,"pct_alcantarillado":0,"pct_camara_septica":0,"pct_pozo_ciego":25,"pct_sin_desague":75,"pct_gas_red":0,"pct_gas_garrafa":88,"pct_lena_guano":88,"pct_basura_formal":38,"pct_basura_quema":38,"pct_basura_informal":25,"pct_internet":50,"pct_celular":75,"pct_televisor":50}},{"type":"Feature","geometry":{"type":"Polygon","coordinates":[[[-68.80765,-16.74522],[-68.80796,-16.7449],[-68.80731,-16.74429],[-68.80701,-16.74464],[-68.80765,-16.74522]]]},"properties":{"n":"JESUS DE MACHACA","p":24,"personas_x_ha":49,"masculinidad":41,"pct_menor20":25,"pct_60mas":21,"pct_migrante":67,"dependencia_econ":118,"pct_empleados":27,"pct_cuentapropia":64,"pct_agricultura":9,"pct_comercio":36,"pct_manufactura":18,"pct_construccion":0,"pct_transporte":9,"pct_alojamiento":0,"pct_sin_educacion":6,"pct_educ_superior":22,"brecha_educ":-46,"pct_sin_seguro":29,"pct_sus":38,"pct_seguro_privado":0,"brecha_seguro":-21,"pct_salud_publica":41,"pct_med_tradicional":9,"pct_automedicacion":9,"pct_remedios_caseros":21,"pct_viv_desocupada":18,"pct_alquiler":11,"pct_electricidad":100,"pct_sin_electricidad":0,"pct_agua_red":100,"pct_alcantarillado":0,"pct_camara_septica":11,"pct_pozo_ciego":56,"pct_sin_desague":33,"pct_gas_red":0,"pct_gas_garrafa":100,"pct_lena_guano":100,"pct_basura_formal":100,"pct_basura_quema":0,"pct_basura_informal":0,"pct_internet":56,"pct_celular":89,"pct_televisor":44}},{"type":"Feature","geometry":{"type":"Polygon","coordinates":[[[-68.80781,-16.74464],[-68.80802,-16.74481],[-68.80867,-16.7441],[-68.80799,-16.7435],[-68.80738,-16.74422],[-68.80779,-16.74462],[-68.80818,-16.74421],[-68.80781,-16.74464]]]},"properties":{"n":"JESUS DE MACHACA","p":42,"personas_x_ha":41,"masculinidad":91,"pct_menor20":21,"pct_60mas":31,"pct_migrante":48,"dependencia_econ":44,"pct_empleados":37,"pct_cuentapropia":59,"pct_agricultura":15,"pct_comercio":37,"pct_manufactura":11,"pct_construccion":4,"pct_transporte":4,"pct_alojamiento":11,"pct_sin_educacion":3,"pct_educ_superior":32,"brecha_educ":-15,"pct_sin_seguro":24,"pct_sus":66,"pct_seguro_privado":0,"brecha_seguro":18,"pct_salud_publica":31,"pct_med_tradicional":7,"pct_automedicacion":21,"pct_remedios_caseros":23,"pct_viv_desocupada":8,"pct_alquiler":0,"pct_electricidad":89,"pct_sin_electricidad":11,"pct_agua_red":68,"pct_alcantarillado":0,"pct_camara_septica":5,"pct_pozo_ciego":32,"pct_sin_desague":63,"pct_gas_red":0,"pct_gas_garrafa":89,"pct_lena_guano":95,"pct_basura_formal":37,"pct_basura_quema":11,"pct_basura_informal":105,"pct_internet":42,"pct_celular":68,"pct_televisor":26}},{"type":"Feature","geometry":{"type":"Polygon","coordinates":[[[-68.80788,-16.74252],[-68.80755,-16.74301],[-68.80801,-16.74343],[-68.80833,-16.74299],[-68.80788,-16.74252]]]},"properties":{"n":"JESUS DE MACHACA","p":19,"personas_x_ha":45,"masculinidad":90,"pct_menor20":21,"pct_60mas":26,"pct_migrante":63,"dependencia_econ":111,"pct_empleados":22,"pct_cuentapropia":67,"pct_agricultura":11,"pct_comercio":33,"pct_manufactura":22,"pct_construccion":0,"pct_transporte":11,"pct_alojamiento":0,"pct_sin_educacion":13,"pct_educ_superior":27,"brecha_educ":-56,"pct_sin_seguro":29,"pct_sus":59,"pct_seguro_privado":0,"brecha_seguro":32,"pct_salud_publica":26,"pct_med_tradicional":11,"pct_automedicacion":24,"pct_remedios_caseros":30,"pct_viv_desocupada":0,"pct_alquiler":0,"pct_electricidad":80,"pct_sin_electricidad":20,"pct_agua_red":90,"pct_alcantarillado":10,"pct_camara_septica":0,"pct_pozo_ciego":40,"pct_sin_desague":50,"pct_gas_red":0,"pct_gas_garrafa":100,"pct_lena_guano":100,"pct_basura_formal":30,"pct_basura_quema":50,"pct_basura_informal":20,"pct_internet":100,"pct_celular":100,"pct_televisor":80}},{"type":"Feature","geometry":{"type":"Polygon","coordinates":[[[-68.80802,-16.74097],[-68.80776,-16.74091],[-68.80741,-16.74101],[-68.80681,-16.74164],[-68.80717,-16.74195],[-68.80802,-16.74097]]]},"properties":{"n":"JESUS DE MACHACA","p":16,"personas_x_ha":25,"masculinidad":129,"pct_menor20":12,"pct_60mas":12,"pct_migrante":31,"dependencia_econ":60,"pct_empleados":10,"pct_cuentapropia":60,"pct_agricultura":50,"pct_comercio":10,"pct_manufactura":0,"pct_construccion":0,"pct_transporte":20,"pct_alojamiento":0,"pct_sin_educacion":7,"pct_educ_superior":14,"brecha_educ":-43,"pct_sin_seguro":12,"pct_sus":88,"pct_seguro_privado":0,"brecha_seguro":-3,"pct_salud_publica":32,"pct_med_tradicional":12,"pct_automedicacion":18,"pct_remedios_caseros":18,"pct_viv_desocupada":0,"pct_alquiler":0,"pct_electricidad":67,"pct_sin_electricidad":33,"pct_agua_red":58,"pct_alcantarillado":8,"pct_camara_septica":0,"pct_pozo_ciego":33,"pct_sin_desague":58,"pct_gas_red":0,"pct_gas_garrafa":100,"pct_lena_guano":100,"pct_basura_formal":8,"pct_basura_quema":58,"pct_basura_informal":33,"pct_internet":17,"pct_celular":67,"pct_televisor":17}},{"type":"Feature","geometry":{"type":"Polygon","coordinates":[[[-68.80919,-16.74376],[-68.80837,-16.74311],[-68.80849,-16.74296],[-68.81128,-16.74258],[-68.81116,-16.74305],[-68.81031,-16.74406],[-68.80963,-16.74332],[-68.80919,-16.74376]]]},"properties":{"n":"JESUS DE MACHACA","p":18,"personas_x_ha":7,"masculinidad":50,"pct_menor20":22,"pct_60mas":22,"pct_migrante":61,"dependencia_econ":100,"pct_empleados":0,"pct_cuentapropia":67,"pct_agricultura":56,"pct_comercio":44,"pct_manufactura":0,"pct_construccion":0,"pct_transporte":0,"pct_alojamiento":0,"pct_sin_educacion":7,"pct_educ_superior":21,"brecha_educ":-22,"pct_sin_seguro":39,"pct_sus":56,"pct_seguro_privado":0,"brecha_seguro":17,"pct_salud_publica":30,"pct_med_tradicional":14,"pct_automedicacion":14,"pct_remedios_caseros":30,"pct_viv_desocupada":0,"pct_alquiler":0,"pct_electricidad":71,"pct_sin_electricidad":29,"pct_agua_red":71,"pct_alcantarillado":14,"pct_camara_septica":0,"pct_pozo_ciego":71,"pct_sin_desague":14,"pct_gas_red":0,"pct_gas_garrafa":86,"pct_lena_guano":100,"pct_basura_formal":71,"pct_basura_quema":0,"pct_basura_informal":29,"pct_internet":29,"pct_celular":43,"pct_televisor":0}},{"type":"Feature","geometry":{"type":"Polygon","coordinates":[[[-68.80475,-16.7482],[-68.8061,-16.74725],[-68.80657,-16.74656],[-68.80606,-16.74604],[-68.80572,-16.74638],[-68.80523,-16.74591],[-68.80403,-16.74733],[-68.80475,-16.7482]]]},"properties":{"n":"JESUS DE MACHACA","p":19,"personas_x_ha":5,"masculinidad":46,"pct_menor20":11,"pct_60mas":32,"pct_migrante":53,"dependencia_econ":73,"pct_empleados":9,"pct_cuentapropia":55,"pct_agricultura":64,"pct_comercio":9,"pct_manufactura":0,"pct_construccion":0,"pct_transporte":0,"pct_alojamiento":27,"pct_sin_educacion":6,"pct_educ_superior":0,"brecha_educ":-30,"pct_sin_seguro":16,"pct_sus":79,"pct_seguro_privado":5,"brecha_seguro":-23,"pct_salud_publica":31,"pct_med_tradicional":10,"pct_automedicacion":6,"pct_remedios_caseros":35,"pct_viv_desocupada":0,"pct_alquiler":0,"pct_electricidad":57,"pct_sin_electricidad":29,"pct_agua_red":86,"pct_alcantarillado":0,"pct_camara_septica":0,"pct_pozo_ciego":57,"pct_sin_desague":43,"pct_gas_red":0,"pct_gas_garrafa":100,"pct_lena_guano":100,"pct_basura_formal":29,"pct_basura_quema":43,"pct_basura_informal":29,"pct_internet":57,"pct_celular":86,"pct_televisor":57}},{"type":"Feature","geometry":{"type":"Polygon","coordinates":[[[-68.80538,-16.74474],[-68.80464,-16.74406],[-68.80434,-16.74437],[-68.80345,-16.74502],[-68.80292,-16.74571],[-68.80358,-16.74644],[-68.80538,-16.74474]]]},"properties":{"n":"JESUS DE MACHACA","p":22,"personas_x_ha":7,"masculinidad":120,"pct_menor20":55,"pct_60mas":18,"pct_migrante":68,"dependencia_econ":100,"pct_empleados":36,"pct_cuentapropia":45,"pct_agricultura":18,"pct_comercio":18,"pct_manufactura":9,"pct_construccion":0,"pct_transporte":0,"pct_alojamiento":9,"pct_sin_educacion":0,"pct_educ_superior":45,"brecha_educ":-3,"pct_sin_seguro":27,"pct_sus":55,"pct_seguro_privado":0,"brecha_seguro":13,"pct_salud_publica":36,"pct_med_tradicional":7,"pct_automedicacion":8,"pct_remedios_caseros":29,"pct_viv_desocupada":0,"pct_alquiler":0,"pct_electricidad":62,"pct_sin_electricidad":25,"pct_agua_red":75,"pct_alcantarillado":0,"pct_camara_septica":12,"pct_pozo_ciego":62,"pct_sin_desague":25,"pct_gas_red":0,"pct_gas_garrafa":100,"pct_lena_guano":100,"pct_basura_formal":0,"pct_basura_quema":25,"pct_basura_informal":50,"pct_internet":75,"pct_celular":75,"pct_televisor":50}},{"type":"Feature","geometry":{"type":"Polygon","coordinates":[[[-68.80675,-16.74242],[-68.80642,-16.74209],[-68.80577,-16.74281],[-68.80613,-16.74314],[-68.80675,-16.74242]]]},"properties":{"n":"JESUS DE MACHACA","p":37,"personas_x_ha":67,"masculinidad":68,"pct_menor20":32,"pct_60mas":14,"pct_migrante":24,"dependencia_econ":48,"pct_empleados":16,"pct_cuentapropia":68,"pct_agricultura":56,"pct_comercio":20,"pct_manufactura":4,"pct_construccion":4,"pct_transporte":0,"pct_alojamiento":0,"pct_sin_educacion":0,"pct_educ_superior":4,"brecha_educ":-20,"pct_sin_seguro":5,"pct_sus":95,"pct_seguro_privado":0,"brecha_seguro":2,"pct_salud_publica":33,"pct_med_tradicional":22,"pct_automedicacion":8,"pct_remedios_caseros":22,"pct_viv_desocupada":0,"pct_alquiler":0,"pct_electricidad":100,"pct_sin_electricidad":0,"pct_agua_red":83,"pct_alcantarillado":8,"pct_camara_septica":33,"pct_pozo_ciego":8,"pct_sin_desague":42,"pct_gas_red":0,"pct_gas_garrafa":92,"pct_lena_guano":92,"pct_basura_formal":42,"pct_basura_quema":42,"pct_basura_informal":17,"pct_internet":83,"pct_celular":92,"pct_televisor":58}},{"type":"Feature","geometry":{"type":"Polygon","coordinates":[[[-68.81029,-16.74408],[-68.80964,-16.7434],[-68.80887,-16.74417],[-68.80958,-16.74486],[-68.81029,-16.74408]]]},"properties":{"n":"JESUS DE MACHACA","p":26,"personas_x_ha":21,"masculinidad":73,"pct_menor20":35,"pct_60mas":19,"pct_migrante":54,"dependencia_econ":73,"pct_empleados":33,"pct_cuentapropia":60,"pct_agricultura":7,"pct_comercio":47,"pct_manufactura":13,"pct_construccion":7,"pct_transporte":7,"pct_alojamiento":0,"pct_sin_educacion":6,"pct_educ_superior":29,"brecha_educ":-11,"pct_sin_seguro":19,"pct_sus":46,"pct_seguro_privado":8,"brecha_seguro":-2,"pct_salud_publica":19,"pct_med_tradicional":13,"pct_automedicacion":13,"pct_remedios_caseros":29,"pct_viv_desocupada":0,"pct_alquiler":0,"pct_electricidad":100,"pct_sin_electricidad":0,"pct_agua_red":90,"pct_alcantarillado":0,"pct_camara_septica":20,"pct_pozo_ciego":70,"pct_sin_desague":10,"pct_gas_red":0,"pct_gas_garrafa":100,"pct_lena_guano":100,"pct_basura_formal":40,"pct_basura_quema":0,"pct_basura_informal":100,"pct_internet":70,"pct_celular":90,"pct_televisor":60}},{"type":"Feature","geometry":{"type":"Polygon","coordinates":[[[-68.80802,-16.74494],[-68.80769,-16.74528],[-68.80848,-16.74607],[-68.80885,-16.74568],[-68.80802,-16.74494]]]},"properties":{"n":"JESUS DE MACHACA","p":15,"personas_x_ha":21,"masculinidad":200,"pct_menor20":13,"pct_60mas":27,"pct_migrante":20,"dependencia_econ":25,"pct_empleados":17,"pct_cuentapropia":67,"pct_agricultura":17,"pct_comercio":0,"pct_manufactura":8,"pct_construccion":0,"pct_transporte":17,"pct_alojamiento":0,"pct_sin_educacion":8,"pct_educ_superior":38,"brecha_educ":-14,"pct_sin_seguro":13,"pct_sus":67,"pct_seguro_privado":0,"brecha_seguro":20,"pct_salud_publica":61,"pct_med_tradicional":17,"pct_automedicacion":0,"pct_remedios_caseros":0,"pct_viv_desocupada":11,"pct_alquiler":12,"pct_electricidad":75,"pct_sin_electricidad":12,"pct_agua_red":75,"pct_alcantarillado":0,"pct_camara_septica":12,"pct_pozo_ciego":75,"pct_sin_desague":12,"pct_gas_red":0,"pct_gas_garrafa":88,"pct_lena_guano":88,"pct_basura_formal":100,"pct_basura_quema":0,"pct_basura_informal":0,"pct_internet":88,"pct_celular":100,"pct_televisor":88}},{"type":"Feature","geometry":{"type":"Polygon","coordinates":[[[-68.80952,-16.74493],[-68.80874,-16.74415],[-68.80806,-16.74487],[-68.8089,-16.74565],[-68.80952,-16.74493]]]},"properties":{"n":"JESUS DE MACHACA","p":32,"personas_x_ha":25,"masculinidad":191,"pct_menor20":31,"pct_60mas":6,"pct_migrante":50,"dependencia_econ":100,"pct_empleados":25,"pct_cuentapropia":31,"pct_agricultura":19,"pct_comercio":19,"pct_manufactura":25,"pct_construccion":6,"pct_transporte":6,"pct_alojamiento":0,"pct_sin_educacion":0,"pct_educ_superior":27,"brecha_educ":-11,"pct_sin_seguro":25,"pct_sus":62,"pct_seguro_privado":0,"brecha_seguro":10,"pct_salud_publica":28,"pct_med_tradicional":15,"pct_automedicacion":27,"pct_remedios_caseros":27,"pct_viv_desocupada":0,"pct_alquiler":7,"pct_electricidad":93,"pct_sin_electricidad":7,"pct_agua_red":100,"pct_alcantarillado":0,"pct_camara_septica":0,"pct_pozo_ciego":87,"pct_sin_desague":13,"pct_gas_red":0,"pct_gas_garrafa":100,"pct_lena_guano":100,"pct_basura_formal":7,"pct_basura_quema":27,"pct_basura_informal":133,"pct_internet":93,"pct_celular":100,"pct_televisor":40}},{"type":"Feature","geometry":{"type":"Polygon","coordinates":[[[-68.80605,-16.74599],[-68.8066,-16.74651],[-68.80686,-16.74609],[-68.80622,-16.74553],[-68.80558,-16.74619],[-68.80572,-16.74632],[-68.80605,-16.74599]]]},"properties":{"n":"JESUS DE MACHACA","p":23,"personas_x_ha":37,"masculinidad":64,"pct_menor20":30,"pct_60mas":17,"pct_migrante":35,"dependencia_econ":53,"pct_empleados":13,"pct_cuentapropia":33,"pct_agricultura":53,"pct_comercio":0,"pct_manufactura":0,"pct_construccion":0,"pct_transporte":7,"pct_alojamiento":0,"pct_sin_educacion":0,"pct_educ_superior":19,"brecha_educ":-13,"pct_sin_seguro":9,"pct_sus":91,"pct_seguro_privado":0,"brecha_seguro":4,"pct_salud_publica":51,"pct_med_tradicional":8,"pct_automedicacion":10,"pct_remedios_caseros":15,"pct_viv_desocupada":0,"pct_alquiler":0,"pct_electricidad":89,"pct_sin_electricidad":11,"pct_agua_red":100,"pct_alcantarillado":0,"pct_camara_septica":0,"pct_pozo_ciego":67,"pct_sin_desague":33,"pct_gas_red":0,"pct_gas_garrafa":89,"pct_lena_guano":89,"pct_basura_formal":11,"pct_basura_quema":78,"pct_basura_informal":22,"pct_internet":22,"pct_celular":44,"pct_televisor":33}},{"type":"Feature","geometry":{"type":"Polygon","coordinates":[[[-68.8076,-16.74077],[-68.8073,-16.74031],[-68.80685,-16.73994],[-68.80643,-16.7404],[-68.80628,-16.74027],[-68.80584,-16.74063],[-68.80643,-16.74191],[-68.80705,-16.74123],[-68.8076,-16.74077]]]},"properties":{"n":"JESUS DE MACHACA","p":46,"personas_x_ha":22,"masculinidad":119,"pct_menor20":41,"pct_60mas":13,"pct_migrante":46,"dependencia_econ":44,"pct_empleados":16,"pct_cuentapropia":56,"pct_agricultura":47,"pct_comercio":12,"pct_manufactura":22,"pct_construccion":12,"pct_transporte":0,"pct_alojamiento":0,"pct_sin_educacion":4,"pct_educ_superior":11,"brecha_educ":-32,"pct_sin_seguro":15,"pct_sus":76,"pct_seguro_privado":0,"brecha_seguro":10,"pct_salud_publica":25,"pct_med_tradicional":23,"pct_automedicacion":13,"pct_remedios_caseros":23,"pct_viv_desocupada":0,"pct_alquiler":0,"pct_electricidad":83,"pct_sin_electricidad":8,"pct_agua_red":58,"pct_alcantarillado":0,"pct_camara_septica":8,"pct_pozo_ciego":58,"pct_sin_desague":33,"pct_gas_red":0,"pct_gas_garrafa":100,"pct_lena_guano":100,"pct_basura_formal":0,"pct_basura_quema":67,"pct_basura_informal":0,"pct_internet":67,"pct_celular":100,"pct_televisor":42}},{"type":"Feature","geometry":{"type":"Polygon","coordinates":[[[-68.80617,-16.74401],[-68.80587,-16.74433],[-68.80614,-16.7446],[-68.80643,-16.74424],[-68.80617,-16.74401]]]},"properties":{"n":"JESUS DE MACHACA","p":18,"personas_x_ha":88,"masculinidad":64,"pct_menor20":6,"pct_60mas":33,"pct_migrante":17,"dependencia_econ":31,"pct_empleados":0,"pct_cuentapropia":92,"pct_agricultura":23,"pct_comercio":23,"pct_manufactura":23,"pct_construccion":15,"pct_transporte":8,"pct_alojamiento":0,"pct_sin_educacion":0,"pct_educ_superior":38,"brecha_educ":-19,"pct_sin_seguro":13,"pct_sus":87,"pct_seguro_privado":0,"brecha_seguro":-22,"pct_salud_publica":70,"pct_med_tradicional":4,"pct_automedicacion":4,"pct_remedios_caseros":4,"pct_viv_desocupada":0,"pct_alquiler":0,"pct_electricidad":100,"pct_sin_electricidad":0,"pct_agua_red":100,"pct_alcantarillado":14,"pct_camara_septica":14,"pct_pozo_ciego":57,"pct_sin_desague":14,"pct_gas_red":0,"pct_gas_garrafa":100,"pct_lena_guano":100,"pct_basura_formal":71,"pct_basura_quema":0,"pct_basura_informal":29,"pct_internet":14,"pct_celular":43,"pct_televisor":29}},{"type":"Feature","geometry":{"type":"Polygon","coordinates":[[[-68.80456,-16.74319],[-68.80499,-16.74357],[-68.8053,-16.74323],[-68.80486,-16.74284],[-68.80456,-16.74319]]]},"properties":{"n":"JESUS DE MACHACA","p":20,"personas_x_ha":61,"masculinidad":150,"pct_menor20":45,"pct_60mas":10,"pct_migrante":30,"dependencia_econ":100,"pct_empleados":50,"pct_cuentapropia":50,"pct_agricultura":50,"pct_comercio":0,"pct_manufactura":20,"pct_construccion":0,"pct_transporte":10,"pct_alojamiento":10,"pct_sin_educacion":0,"pct_educ_superior":55,"brecha_educ":25,"pct_sin_seguro":10,"pct_sus":90,"pct_seguro_privado":0,"brecha_seguro":17,"pct_salud_publica":37,"pct_med_tradicional":8,"pct_automedicacion":8,"pct_remedios_caseros":27,"pct_viv_desocupada":0,"pct_alquiler":11,"pct_electricidad":89,"pct_sin_electricidad":11,"pct_agua_red":100,"pct_alcantarillado":0,"pct_camara_septica":0,"pct_pozo_ciego":56,"pct_sin_desague":44,"pct_gas_red":0,"pct_gas_garrafa":100,"pct_lena_guano":100,"pct_basura_formal":0,"pct_basura_quema":78,"pct_basura_informal":0,"pct_internet":44,"pct_celular":100,"pct_televisor":44}},{"type":"Feature","geometry":{"type":"Polygon","coordinates":[[[-68.80433,-16.7416],[-68.80395,-16.74184],[-68.80486,-16.74274],[-68.80519,-16.7424],[-68.80433,-16.7416]]]},"properties":{"n":"JESUS DE MACHACA","p":29,"personas_x_ha":44,"masculinidad":71,"pct_menor20":45,"pct_60mas":7,"pct_migrante":31,"dependencia_econ":81,"pct_empleados":0,"pct_cuentapropia":44,"pct_agricultura":25,"pct_comercio":0,"pct_manufactura":6,"pct_construccion":0,"pct_transporte":0,"pct_alojamiento":0,"pct_sin_educacion":0,"pct_educ_superior":19,"brecha_educ":-30,"pct_sin_seguro":7,"pct_sus":79,"pct_seguro_privado":0,"brecha_seguro":17,"pct_salud_publica":31,"pct_med_tradicional":12,"pct_automedicacion":22,"pct_remedios_caseros":24,"pct_viv_desocupada":17,"pct_alquiler":0,"pct_electricidad":90,"pct_sin_electricidad":10,"pct_agua_red":80,"pct_alcantarillado":0,"pct_camara_septica":0,"pct_pozo_ciego":60,"pct_sin_desague":40,"pct_gas_red":0,"pct_gas_garrafa":80,"pct_lena_guano":80,"pct_basura_formal":40,"pct_basura_quema":50,"pct_basura_informal":0,"pct_internet":60,"pct_celular":70,"pct_televisor":50}},{"type":"Feature","geometry":{"type":"Polygon","coordinates":[[[-68.76787,-16.77323],[-68.76783,-16.77285],[-68.76718,-16.77292],[-68.76721,-16.77331],[-68.76787,-16.77323]]]},"properties":{"n":"KALLA BAJA","p":15,"personas_x_ha":49,"masculinidad":67,"pct_menor20":27,"pct_60mas":20,"pct_migrante":13,"dependencia_econ":36,"pct_empleados":27,"pct_cuentapropia":36,"pct_agricultura":45,"pct_comercio":9,"pct_manufactura":18,"pct_construccion":0,"pct_transporte":0,"pct_alojamiento":0,"pct_sin_educacion":9,"pct_educ_superior":18,"brecha_educ":-14,"pct_sin_seguro":0,"pct_sus":60,"pct_seguro_privado":0,"brecha_seguro":0,"pct_salud_publica":22,"pct_med_tradicional":16,"pct_automedicacion":17,"pct_remedios_caseros":23,"pct_viv_desocupada":10,"pct_alquiler":0,"pct_electricidad":86,"pct_sin_electricidad":14,"pct_agua_red":86,"pct_alcantarillado":0,"pct_camara_septica":0,"pct_pozo_ciego":86,"pct_sin_desague":0,"pct_gas_red":0,"pct_gas_garrafa":86,"pct_lena_guano":86,"pct_basura_formal":14,"pct_basura_quema":71,"pct_basura_informal":29,"pct_internet":71,"pct_celular":100,"pct_televisor":57}},{"type":"Feature","geometry":{"type":"Polygon","coordinates":[[[-68.7666,-16.77408],[-68.76718,-16.77403],[-68.76713,-16.77339],[-68.76656,-16.77343],[-68.7666,-16.77408]]]},"properties":{"n":"KALLA BAJA","p":26,"personas_x_ha":58,"masculinidad":53,"pct_menor20":38,"pct_60mas":27,"pct_migrante":27,"dependencia_econ":73,"pct_empleados":7,"pct_cuentapropia":60,"pct_agricultura":67,"pct_comercio":0,"pct_manufactura":13,"pct_construccion":0,"pct_transporte":0,"pct_alojamiento":0,"pct_sin_educacion":12,"pct_educ_superior":38,"brecha_educ":-16,"pct_sin_seguro":8,"pct_sus":88,"pct_seguro_privado":4,"brecha_seguro":5,"pct_salud_publica":24,"pct_med_tradicional":22,"pct_automedicacion":8,"pct_remedios_caseros":27,"pct_viv_desocupada":0,"pct_alquiler":0,"pct_electricidad":91,"pct_sin_electricidad":9,"pct_agua_red":55,"pct_alcantarillado":0,"pct_camara_septica":9,"pct_pozo_ciego":82,"pct_sin_desague":9,"pct_gas_red":0,"pct_gas_garrafa":91,"pct_lena_guano":100,"pct_basura_formal":0,"pct_basura_quema":82,"pct_basura_informal":18,"pct_internet":82,"pct_celular":91,"pct_televisor":55}},{"type":"Feature","geometry":{"type":"Polygon","coordinates":[[[-68.76582,-16.77504],[-68.76608,-16.77647],[-68.76597,-16.77653],[-68.76607,-16.77697],[-68.76709,-16.77679],[-68.76737,-16.77636],[-68.76727,-16.77492],[-68.76582,-16.77504]]]},"properties":{"n":"KALLA BAJA","p":26,"personas_x_ha":9,"masculinidad":189,"pct_menor20":27,"pct_60mas":19,"pct_migrante":27,"dependencia_econ":37,"pct_empleados":37,"pct_cuentapropia":42,"pct_agricultura":42,"pct_comercio":11,"pct_manufactura":11,"pct_construccion":5,"pct_transporte":0,"pct_alojamiento":0,"pct_sin_educacion":5,"pct_educ_superior":53,"brecha_educ":-12,"pct_sin_seguro":23,"pct_sus":38,"pct_seguro_privado":8,"brecha_seguro":1,"pct_salud_publica":19,"pct_med_tradicional":18,"pct_automedicacion":12,"pct_remedios_caseros":22,"pct_viv_desocupada":0,"pct_alquiler":0,"pct_electricidad":75,"pct_sin_electricidad":25,"pct_agua_red":58,"pct_alcantarillado":0,"pct_camara_septica":0,"pct_pozo_ciego":67,"pct_sin_desague":33,"pct_gas_red":0,"pct_gas_garrafa":83,"pct_lena_guano":100,"pct_basura_formal":0,"pct_basura_quema":67,"pct_basura_informal":17,"pct_internet":58,"pct_celular":100,"pct_televisor":33}},{"type":"Feature","geometry":{"type":"Polygon","coordinates":[[[-68.76655,-16.77455],[-68.76657,-16.7749],[-68.7658,-16.77497],[-68.76551,-16.77485],[-68.76545,-16.7744],[-68.76558,-16.77426],[-68.7665,-16.77417],[-68.76655,-16.77452],[-68.76645,-16.77456],[-68.76655,-16.77455]]]},"properties":{"n":"KALLA BAJA","p":19,"personas_x_ha":21,"masculinidad":138,"pct_menor20":32,"pct_60mas":11,"pct_migrante":37,"dependencia_econ":80,"pct_empleados":20,"pct_cuentapropia":60,"pct_agricultura":60,"pct_comercio":10,"pct_manufactura":0,"pct_construccion":0,"pct_transporte":0,"pct_alojamiento":10,"pct_sin_educacion":0,"pct_educ_superior":25,"brecha_educ":-50,"pct_sin_seguro":6,"pct_sus":78,"pct_seguro_privado":0,"brecha_seguro":10,"pct_salud_publica":30,"pct_med_tradicional":21,"pct_automedicacion":13,"pct_remedios_caseros":23,"pct_viv_desocupada":0,"pct_alquiler":0,"pct_electricidad":78,"pct_sin_electricidad":22,"pct_agua_red":78,"pct_alcantarillado":0,"pct_camara_septica":44,"pct_pozo_ciego":22,"pct_sin_desague":33,"pct_gas_red":0,"pct_gas_garrafa":100,"pct_lena_guano":100,"pct_basura_formal":11,"pct_basura_quema":78,"pct_basura_informal":22,"pct_internet":44,"pct_celular":100,"pct_televisor":44}},{"type":"Feature","geometry":{"type":"Polygon","coordinates":[[[-68.768,-16.77479],[-68.76791,-16.77379],[-68.76726,-16.77386],[-68.76735,-16.77485],[-68.768,-16.77479]]]},"properties":{"n":"KALLA BAJA","p":26,"personas_x_ha":33,"masculinidad":136,"pct_menor20":35,"pct_60mas":12,"pct_migrante":8,"dependencia_econ":44,"pct_empleados":11,"pct_cuentapropia":56,"pct_agricultura":67,"pct_comercio":6,"pct_manufactura":11,"pct_construccion":0,"pct_transporte":0,"pct_alojamiento":6,"pct_sin_educacion":6,"pct_educ_superior":39,"brecha_educ":4,"pct_sin_seguro":8,"pct_sus":69,"pct_seguro_privado":0,"brecha_seguro":-2,"pct_salud_publica":29,"pct_med_tradicional":18,"pct_automedicacion":18,"pct_remedios_caseros":28,"pct_viv_desocupada":0,"pct_alquiler":0,"pct_electricidad":91,"pct_sin_electricidad":9,"pct_agua_red":91,"pct_alcantarillado":0,"pct_camara_septica":45,"pct_pozo_ciego":27,"pct_sin_desague":27,"pct_gas_red":0,"pct_gas_garrafa":100,"pct_lena_guano":100,"pct_basura_formal":18,"pct_basura_quema":27,"pct_basura_informal":73,"pct_internet":36,"pct_celular":73,"pct_televisor":27}},{"type":"Feature","geometry":{"type":"Polygon","coordinates":[[[-68.67391,-16.79321],[-68.67392,-16.79363],[-68.67236,-16.79384],[-68.67138,-16.79384],[-68.67116,-16.7926],[-68.67149,-16.79254],[-68.67153,-16.7928],[-68.67211,-16.79283],[-68.67391,-16.79321]]]},"properties":{"n":"KHONKHO LIQUILIQUI","p":27,"personas_x_ha":10,"masculinidad":80,"pct_menor20":33,"pct_60mas":22,"pct_migrante":44,"dependencia_econ":69,"pct_empleados":0,"pct_cuentapropia":81,"pct_agricultura":94,"pct_comercio":0,"pct_manufactura":0,"pct_construccion":6,"pct_transporte":0,"pct_alojamiento":0,"pct_sin_educacion":17,"pct_educ_superior":11,"brecha_educ":6,"pct_sin_seguro":30,"pct_sus":59,"pct_seguro_privado":0,"brecha_seguro":-8,"pct_salud_publica":29,"pct_med_tradicional":25,"pct_automedicacion":8,"pct_remedios_caseros":30,"pct_viv_desocupada":26,"pct_alquiler":0,"pct_electricidad":77,"pct_sin_electricidad":23,"pct_agua_red":38,"pct_alcantarillado":0,"pct_camara_septica":0,"pct_pozo_ciego":31,"pct_sin_desague":69,"pct_gas_red":0,"pct_gas_garrafa":46,"pct_lena_guano":92,"pct_basura_formal":0,"pct_basura_quema":77,"pct_basura_informal":0,"pct_internet":62,"pct_celular":92,"pct_televisor":8}},{"type":"Feature","geometry":{"type":"Polygon","coordinates":[[[-68.67112,-16.79267],[-68.67106,-16.79268],[-68.67103,-16.79334],[-68.66991,-16.79335],[-68.66997,-16.79388],[-68.67132,-16.79384],[-68.67112,-16.79267]]]},"properties":{"n":"KHONKHO LIQUILIQUI","p":19,"personas_x_ha":20,"masculinidad":217,"pct_menor20":42,"pct_60mas":11,"pct_migrante":16,"dependencia_econ":73,"pct_empleados":18,"pct_cuentapropia":73,"pct_agricultura":0,"pct_comercio":0,"pct_manufactura":18,"pct_construccion":55,"pct_transporte":18,"pct_alojamiento":0,"pct_sin_educacion":0,"pct_educ_superior":8,"brecha_educ":0,"pct_sin_seguro":0,"pct_sus":94,"pct_seguro_privado":0,"brecha_seguro":0,"pct_salud_publica":42,"pct_med_tradicional":8,"pct_automedicacion":6,"pct_remedios_caseros":25,"pct_viv_desocupada":0,"pct_alquiler":0,"pct_electricidad":22,"pct_sin_electricidad":67,"pct_agua_red":56,"pct_alcantarillado":0,"pct_camara_septica":11,"pct_pozo_ciego":11,"pct_sin_desague":78,"pct_gas_red":0,"pct_gas_garrafa":67,"pct_lena_guano":78,"pct_basura_formal":0,"pct_basura_quema":100,"pct_basura_informal":0,"pct_internet":89,"pct_celular":89,"pct_televisor":0}},{"type":"Feature","geometry":{"type":"Polygon","coordinates":[[[-68.80221,-16.82543],[-68.80213,-16.82486],[-68.80238,-16.82334],[-68.80335,-16.82337],[-68.80325,-16.8254],[-68.80221,-16.82543]]]},"properties":{"n":"MEJILLONES DE MACHACA","p":22,"personas_x_ha":8,"masculinidad":100,"pct_menor20":36,"pct_60mas":9,"pct_migrante":27,"dependencia_econ":83,"pct_empleados":17,"pct_cuentapropia":42,"pct_agricultura":42,"pct_comercio":25,"pct_manufactura":17,"pct_construccion":0,"pct_transporte":0,"pct_alojamiento":0,"pct_sin_educacion":0,"pct_educ_superior":7,"brecha_educ":-14,"pct_sin_seguro":19,"pct_sus":81,"pct_seguro_privado":0,"brecha_seguro":36,"pct_salud_publica":36,"pct_med_tradicional":14,"pct_automedicacion":11,"pct_remedios_caseros":20,"pct_viv_desocupada":0,"pct_alquiler":0,"pct_electricidad":15,"pct_sin_electricidad":54,"pct_agua_red":38,"pct_alcantarillado":8,"pct_camara_septica":0,"pct_pozo_ciego":54,"pct_sin_desague":31,"pct_gas_red":0,"pct_gas_garrafa":92,"pct_lena_guano":92,"pct_basura_formal":46,"pct_basura_quema":0,"pct_basura_informal":31,"pct_internet":38,"pct_celular":62,"pct_televisor":23}},{"type":"Feature","geometry":{"type":"Polygon","coordinates":[[[-68.63755,-16.84606],[-68.63873,-16.84615],[-68.63874,-16.84669],[-68.63754,-16.84651],[-68.63755,-16.84606]]]},"properties":{"n":"SANTO DOMINGO DE MACHACA","p":56,"personas_x_ha":80,"masculinidad":133,"pct_menor20":34,"pct_60mas":11,"pct_migrante":41,"dependencia_econ":75,"pct_empleados":41,"pct_cuentapropia":31,"pct_agricultura":25,"pct_comercio":9,"pct_manufactura":6,"pct_construccion":0,"pct_transporte":12,"pct_alojamiento":12,"pct_sin_educacion":3,"pct_educ_superior":27,"brecha_educ":-14,"pct_sin_seguro":21,"pct_sus":62,"pct_seguro_privado":0,"brecha_seguro":34,"pct_salud_publica":46,"pct_med_tradicional":10,"pct_automedicacion":8,"pct_remedios_caseros":32,"pct_viv_desocupada":0,"pct_alquiler":0,"pct_electricidad":95,"pct_sin_electricidad":5,"pct_agua_red":100,"pct_alcantarillado":0,"pct_camara_septica":10,"pct_pozo_ciego":50,"pct_sin_desague":35,"pct_gas_red":0,"pct_gas_garrafa":85,"pct_lena_guano":85,"pct_basura_formal":0,"pct_basura_quema":90,"pct_basura_informal":0,"pct_internet":65,"pct_celular":70,"pct_televisor":35}},{"type":"Feature","geometry":{"type":"Polygon","coordinates":[[[-68.63762,-16.8444],[-68.63746,-16.84573],[-68.6382,-16.84573],[-68.63816,-16.84603],[-68.63861,-16.84608],[-68.63851,-16.84448],[-68.63762,-16.8444]]]},"properties":{"n":"SANTO DOMINGO DE MACHACA","p":18,"personas_x_ha":10,"masculinidad":64,"pct_menor20":50,"pct_60mas":0,"pct_migrante":39,"dependencia_econ":80,"pct_empleados":20,"pct_cuentapropia":60,"pct_agricultura":60,"pct_comercio":10,"pct_manufactura":0,"pct_construccion":10,"pct_transporte":10,"pct_alojamiento":0,"pct_sin_educacion":0,"pct_educ_superior":10,"brecha_educ":-14,"pct_sin_seguro":0,"pct_sus":94,"pct_seguro_privado":0,"brecha_seguro":0,"pct_salud_publica":38,"pct_med_tradicional":11,"pct_automedicacion":20,"pct_remedios_caseros":22,"pct_viv_desocupada":0,"pct_alquiler":0,"pct_electricidad":100,"pct_sin_electricidad":0,"pct_agua_red":100,"pct_alcantarillado":0,"pct_camara_septica":17,"pct_pozo_ciego":17,"pct_sin_desague":67,"pct_gas_red":0,"pct_gas_garrafa":100,"pct_lena_guano":100,"pct_basura_formal":0,"pct_basura_quema":67,"pct_basura_informal":0,"pct_internet":50,"pct_celular":67,"pct_televisor":33}},{"type":"Feature","geometry":{"type":"Polygon","coordinates":[[[-68.72413,-16.78273],[-68.72407,-16.78221],[-68.72388,-16.78223],[-68.72394,-16.78276],[-68.72413,-16.78273]]]},"properties":{"n":"SULLCATITI LAHUACOLLO","p":16,"personas_x_ha":132,"masculinidad":129,"pct_menor20":44,"pct_60mas":6,"pct_migrante":0,"dependencia_econ":60,"pct_empleados":30,"pct_cuentapropia":70,"pct_agricultura":10,"pct_comercio":20,"pct_manufactura":40,"pct_construccion":20,"pct_transporte":0,"pct_alojamiento":10,"pct_sin_educacion":30,"pct_educ_superior":0,"brecha_educ":-17,"pct_sin_seguro":7,"pct_sus":93,"pct_seguro_privado":0,"brecha_seguro":11,"pct_salud_publica":36,"pct_med_tradicional":16,"pct_automedicacion":11,"pct_remedios_caseros":11,"pct_viv_desocupada":0,"pct_alquiler":0,"pct_electricidad":60,"pct_sin_electricidad":40,"pct_agua_red":20,"pct_alcantarillado":20,"pct_camara_septica":0,"pct_pozo_ciego":20,"pct_sin_desague":60,"pct_gas_red":0,"pct_gas_garrafa":80,"pct_lena_guano":100,"pct_basura_formal":20,"pct_basura_quema":80,"pct_basura_informal":0,"pct_internet":20,"pct_celular":100,"pct_televisor":60}},{"type":"Feature","geometry":{"type":"Polygon","coordinates":[[[-68.72432,-16.78344],[-68.72441,-16.78427],[-68.72485,-16.78424],[-68.72475,-16.78341],[-68.72432,-16.78344]]]},"properties":{"n":"SULLCATITI LAHUACOLLO","p":41,"personas_x_ha":95,"masculinidad":141,"pct_menor20":46,"pct_60mas":15,"pct_migrante":24,"dependencia_econ":58,"pct_empleados":0,"pct_cuentapropia":77,"pct_agricultura":58,"pct_comercio":12,"pct_manufactura":8,"pct_construccion":12,"pct_transporte":0,"pct_alojamiento":0,"pct_sin_educacion":17,"pct_educ_superior":9,"brecha_educ":-67,"pct_sin_seguro":10,"pct_sus":90,"pct_seguro_privado":0,"brecha_seguro":-13,"pct_salud_publica":47,"pct_med_tradicional":4,"pct_automedicacion":11,"pct_remedios_caseros":36,"pct_viv_desocupada":0,"pct_alquiler":0,"pct_electricidad":38,"pct_sin_electricidad":54,"pct_agua_red":0,"pct_alcantarillado":0,"pct_camara_septica":0,"pct_pozo_ciego":8,"pct_sin_desague":92,"pct_gas_red":0,"pct_gas_garrafa":85,"pct_lena_guano":92,"pct_basura_formal":15,"pct_basura_quema":77,"pct_basura_informal":0,"pct_internet":69,"pct_celular":100,"pct_televisor":8}},{"type":"Feature","geometry":{"type":"Polygon","coordinates":[[[-68.72466,-16.78269],[-68.7246,-16.78227],[-68.72421,-16.78231],[-68.72426,-16.78273],[-68.72466,-16.78269]]]},"properties":{"n":"SULLCATITI LAHUACOLLO","p":23,"personas_x_ha":111,"masculinidad":156,"pct_menor20":43,"pct_60mas":9,"pct_migrante":13,"dependencia_econ":53,"pct_empleados":27,"pct_cuentapropia":60,"pct_agricultura":33,"pct_comercio":20,"pct_manufactura":27,"pct_construccion":7,"pct_transporte":7,"pct_alojamiento":0,"pct_sin_educacion":0,"pct_educ_superior":27,"brecha_educ":-6,"pct_sin_seguro":0,"pct_sus":83,"pct_seguro_privado":0,"brecha_seguro":0,"pct_salud_publica":49,"pct_med_tradicional":3,"pct_automedicacion":0,"pct_remedios_caseros":32,"pct_viv_desocupada":0,"pct_alquiler":0,"pct_electricidad":50,"pct_sin_electricidad":17,"pct_agua_red":0,"pct_alcantarillado":0,"pct_camara_septica":0,"pct_pozo_ciego":100,"pct_sin_desague":0,"pct_gas_red":0,"pct_gas_garrafa":100,"pct_lena_guano":100,"pct_basura_formal":83,"pct_basura_quema":17,"pct_basura_informal":0,"pct_internet":67,"pct_celular":67,"pct_televisor":17}},{"type":"Feature","geometry":{"type":"Polygon","coordinates":[[[-68.72509,-16.78272],[-68.72475,-16.78275],[-68.72481,-16.78332],[-68.72514,-16.78329],[-68.72509,-16.78272]]]},"properties":{"n":"SULLCATITI LAHUACOLLO","p":40,"personas_x_ha":175,"masculinidad":74,"pct_menor20":48,"pct_60mas":12,"pct_migrante":38,"dependencia_econ":90,"pct_empleados":24,"pct_cuentapropia":43,"pct_agricultura":29,"pct_comercio":24,"pct_manufactura":24,"pct_construccion":14,"pct_transporte":0,"pct_alojamiento":5,"pct_sin_educacion":9,"pct_educ_superior":4,"brecha_educ":12,"pct_sin_seguro":2,"pct_sus":98,"pct_seguro_privado":0,"brecha_seguro":6,"pct_salud_publica":30,"pct_med_tradicional":23,"pct_automedicacion":7,"pct_remedios_caseros":28,"pct_viv_desocupada":0,"pct_alquiler":17,"pct_electricidad":67,"pct_sin_electricidad":33,"pct_agua_red":0,"pct_alcantarillado":0,"pct_camara_septica":0,"pct_pozo_ciego":83,"pct_sin_desague":0,"pct_gas_red":0,"pct_gas_garrafa":100,"pct_lena_guano":100,"pct_basura_formal":100,"pct_basura_quema":0,"pct_basura_informal":0,"pct_internet":67,"pct_celular":100,"pct_televisor":17}},{"type":"Feature","geometry":{"type":"Polygon","coordinates":[[[-68.72398,-16.78455],[-68.72388,-16.78348],[-68.72419,-16.78345],[-68.72429,-16.78452],[-68.72398,-16.78455]]]},"properties":{"n":"SULLCATITI LAHUACOLLO","p":19,"personas_x_ha":46,"masculinidad":138,"pct_menor20":58,"pct_60mas":0,"pct_migrante":16,"dependencia_econ":138,"pct_empleados":12,"pct_cuentapropia":50,"pct_agricultura":62,"pct_comercio":0,"pct_manufactura":12,"pct_construccion":25,"pct_transporte":0,"pct_alojamiento":0,"pct_sin_educacion":0,"pct_educ_superior":12,"brecha_educ":-25,"pct_sin_seguro":0,"pct_sus":100,"pct_seguro_privado":0,"brecha_seguro":0,"pct_salud_publica":35,"pct_med_tradicional":38,"pct_automedicacion":2,"pct_remedios_caseros":6,"pct_viv_desocupada":0,"pct_alquiler":0,"pct_electricidad":100,"pct_sin_electricidad":0,"pct_agua_red":20,"pct_alcantarillado":0,"pct_camara_septica":0,"pct_pozo_ciego":80,"pct_sin_desague":20,"pct_gas_red":0,"pct_gas_garrafa":80,"pct_lena_guano":100,"pct_basura_formal":40,"pct_basura_quema":40,"pct_basura_informal":0,"pct_internet":60,"pct_celular":100,"pct_televisor":40}},{"type":"Feature","geometry":{"type":"Polygon","coordinates":[[[-68.70351,-16.77652],[-68.70244,-16.77686],[-68.70255,-16.77717],[-68.7036,-16.7768],[-68.70351,-16.77652]]]},"properties":{"n":"SULLKATITI KHONKHO","p":34,"personas_x_ha":81,"masculinidad":79,"pct_menor20":24,"pct_60mas":12,"pct_migrante":38,"dependencia_econ":31,"pct_empleados":15,"pct_cuentapropia":46,"pct_agricultura":42,"pct_comercio":19,"pct_manufactura":4,"pct_construccion":4,"pct_transporte":4,"pct_alojamiento":0,"pct_sin_educacion":7,"pct_educ_superior":22,"brecha_educ":-9,"pct_sin_seguro":28,"pct_sus":59,"pct_seguro_privado":6,"brecha_seguro":-15,"pct_salud_publica":36,"pct_med_tradicional":12,"pct_automedicacion":11,"pct_remedios_caseros":27,"pct_viv_desocupada":0,"pct_alquiler":0,"pct_electricidad":83,"pct_sin_electricidad":17,"pct_agua_red":50,"pct_alcantarillado":0,"pct_camara_septica":0,"pct_pozo_ciego":25,"pct_sin_desague":75,"pct_gas_red":0,"pct_gas_garrafa":92,"pct_lena_guano":92,"pct_basura_formal":8,"pct_basura_quema":58,"pct_basura_informal":0,"pct_internet":75,"pct_celular":92,"pct_televisor":33}},{"type":"Feature","geometry":{"type":"Polygon","coordinates":[[[-68.70186,-16.77706],[-68.70212,-16.77774],[-68.70264,-16.77755],[-68.70238,-16.77688],[-68.70186,-16.77706]]]},"properties":{"n":"SULLKATITI KHONKHO","p":22,"personas_x_ha":46,"masculinidad":144,"pct_menor20":27,"pct_60mas":23,"pct_migrante":18,"dependencia_econ":120,"pct_empleados":10,"pct_cuentapropia":60,"pct_agricultura":50,"pct_comercio":0,"pct_manufactura":10,"pct_construccion":0,"pct_transporte":0,"pct_alojamiento":10,"pct_sin_educacion":12,"pct_educ_superior":12,"brecha_educ":-56,"pct_sin_seguro":14,"pct_sus":73,"pct_seguro_privado":0,"brecha_seguro":-33,"pct_salud_publica":42,"pct_med_tradicional":8,"pct_automedicacion":17,"pct_remedios_caseros":19,"pct_viv_desocupada":0,"pct_alquiler":0,"pct_electricidad":50,"pct_sin_electricidad":50,"pct_agua_red":50,"pct_alcantarillado":0,"pct_camara_septica":0,"pct_pozo_ciego":25,"pct_sin_desague":75,"pct_gas_red":0,"pct_gas_garrafa":92,"pct_lena_guano":92,"pct_basura_formal":42,"pct_basura_quema":58,"pct_basura_informal":0,"pct_internet":0,"pct_celular":92,"pct_televisor":8}},{"type":"Feature","geometry":{"type":"Polygon","coordinates":[[[-68.69988,-16.77752],[-68.69957,-16.77806],[-68.6993,-16.77826],[-68.70052,-16.7786],[-68.70065,-16.77763],[-68.69988,-16.77752]]]},"properties":{"n":"SULLKATITI KHONKHO","p":22,"personas_x_ha":20,"masculinidad":57,"pct_menor20":9,"pct_60mas":23,"pct_migrante":23,"dependencia_econ":5,"pct_empleados":5,"pct_cuentapropia":86,"pct_agricultura":43,"pct_comercio":14,"pct_manufactura":24,"pct_construccion":0,"pct_transporte":0,"pct_alojamiento":0,"pct_sin_educacion":14,"pct_educ_superior":19,"brecha_educ":-21,"pct_sin_seguro":0,"pct_sus":95,"pct_seguro_privado":0,"brecha_seguro":0,"pct_salud_publica":29,"pct_med_tradicional":20,"pct_automedicacion":16,"pct_remedios_caseros":26,"pct_viv_desocupada":0,"pct_alquiler":0,"pct_electricidad":29,"pct_sin_electricidad":65,"pct_agua_red":35,"pct_alcantarillado":0,"pct_camara_septica":6,"pct_pozo_ciego":18,"pct_sin_desague":76,"pct_gas_red":0,"pct_gas_garrafa":59,"pct_lena_guano":65,"pct_basura_formal":0,"pct_basura_quema":100,"pct_basura_informal":0,"pct_internet":71,"pct_celular":82,"pct_televisor":24}},{"type":"Feature","geometry":{"type":"Polygon","coordinates":[[[-68.70272,-16.77777],[-68.70212,-16.77794],[-68.70204,-16.77784],[-68.7016,-16.77779],[-68.70142,-16.7789],[-68.70208,-16.77909],[-68.70205,-16.77855],[-68.70212,-16.77858],[-68.70236,-16.77842],[-68.70261,-16.77848],[-68.70269,-16.77822],[-68.7028,-16.77812],[-68.70308,-16.77808],[-68.70295,-16.77763],[-68.7027,-16.77765],[-68.70272,-16.77777]]]},"properties":{"n":"SULLKATITI KHONKHO","p":15,"personas_x_ha":10,"masculinidad":114,"pct_menor20":7,"pct_60mas":27,"pct_migrante":33,"dependencia_econ":7,"pct_empleados":7,"pct_cuentapropia":79,"pct_agricultura":21,"pct_comercio":29,"pct_manufactura":21,"pct_construccion":7,"pct_transporte":14,"pct_alojamiento":0,"pct_sin_educacion":0,"pct_educ_superior":14,"brecha_educ":-17,"pct_sin_seguro":20,"pct_sus":47,"pct_seguro_privado":0,"brecha_seguro":11,"pct_salud_publica":19,"pct_med_tradicional":21,"pct_automedicacion":21,"pct_remedios_caseros":27,"pct_viv_desocupada":0,"pct_alquiler":0,"pct_electricidad":22,"pct_sin_electricidad":78,"pct_agua_red":67,"pct_alcantarillado":0,"pct_camara_septica":0,"pct_pozo_ciego":11,"pct_sin_desague":89,"pct_gas_red":0,"pct_gas_garrafa":67,"pct_lena_guano":67,"pct_basura_formal":11,"pct_basura_quema":78,"pct_basura_informal":0,"pct_internet":22,"pct_celular":89,"pct_televisor":0}},{"type":"Feature","geometry":{"type":"Polygon","coordinates":[[[-68.70271,-16.7767],[-68.70255,-16.77621],[-68.70223,-16.77629],[-68.70242,-16.77681],[-68.70271,-16.7767]]]},"properties":{"n":"SULLKATITI KHONKHO","p":28,"personas_x_ha":129,"masculinidad":56,"pct_menor20":46,"pct_60mas":11,"pct_migrante":36,"dependencia_econ":56,"pct_empleados":17,"pct_cuentapropia":78,"pct_agricultura":33,"pct_comercio":44,"pct_manufactura":6,"pct_construccion":0,"pct_transporte":6,"pct_alojamiento":6,"pct_sin_educacion":6,"pct_educ_superior":19,"brecha_educ":-12,"pct_sin_seguro":63,"pct_sus":37,"pct_seguro_privado":0,"brecha_seguro":11,"pct_salud_publica":37,"pct_med_tradicional":7,"pct_automedicacion":28,"pct_remedios_caseros":27,"pct_viv_desocupada":0,"pct_alquiler":0,"pct_electricidad":44,"pct_sin_electricidad":56,"pct_agua_red":22,"pct_alcantarillado":0,"pct_camara_septica":0,"pct_pozo_ciego":0,"pct_sin_desague":89,"pct_gas_red":0,"pct_gas_garrafa":100,"pct_lena_guano":100,"pct_basura_formal":11,"pct_basura_quema":89,"pct_basura_informal":0,"pct_internet":78,"pct_celular":89,"pct_televisor":22}},{"type":"Feature","geometry":{"type":"Polygon","coordinates":[[[-68.70162,-16.7777],[-68.7017,-16.77712],[-68.70179,-16.77708],[-68.70205,-16.77775],[-68.70162,-16.7777]]]},"properties":{"n":"SULLKATITI KHONKHO","p":16,"personas_x_ha":78,"masculinidad":100,"pct_menor20":31,"pct_60mas":12,"pct_migrante":19,"dependencia_econ":33,"pct_empleados":17,"pct_cuentapropia":33,"pct_agricultura":50,"pct_comercio":25,"pct_manufactura":0,"pct_construccion":0,"pct_transporte":8,"pct_alojamiento":0,"pct_sin_educacion":0,"pct_educ_superior":27,"brecha_educ":13,"pct_sin_seguro":12,"pct_sus":81,"pct_seguro_privado":0,"brecha_seguro":0,"pct_salud_publica":36,"pct_med_tradicional":9,"pct_automedicacion":25,"pct_remedios_caseros":27,"pct_viv_desocupada":0,"pct_alquiler":0,"pct_electricidad":82,"pct_sin_electricidad":18,"pct_agua_red":91,"pct_alcantarillado":0,"pct_camara_septica":45,"pct_pozo_ciego":36,"pct_sin_desague":18,"pct_gas_red":0,"pct_gas_garrafa":100,"pct_lena_guano":100,"pct_basura_formal":0,"pct_basura_quema":82,"pct_basura_informal":18,"pct_internet":73,"pct_celular":91,"pct_televisor":36}},{"type":"Feature","geometry":{"type":"Polygon","coordinates":[[[-68.70139,-16.77857],[-68.70065,-16.77846],[-68.7006,-16.77866],[-68.70136,-16.77878],[-68.70139,-16.77857]]]},"properties":{"n":"SULLKATITI KHONKHO","p":15,"personas_x_ha":78,"masculinidad":114,"pct_menor20":27,"pct_60mas":13,"pct_migrante":13,"dependencia_econ":36,"pct_empleados":36,"pct_cuentapropia":55,"pct_agricultura":36,"pct_comercio":18,"pct_manufactura":18,"pct_construccion":27,"pct_transporte":0,"pct_alojamiento":0,"pct_sin_educacion":8,"pct_educ_superior":17,"brecha_educ":-33,"pct_sin_seguro":13,"pct_sus":87,"pct_seguro_privado":0,"brecha_seguro":25,"pct_salud_publica":40,"pct_med_tradicional":9,"pct_automedicacion":26,"pct_remedios_caseros":26,"pct_viv_desocupada":0,"pct_alquiler":0,"pct_electricidad":56,"pct_sin_electricidad":44,"pct_agua_red":89,"pct_alcantarillado":11,"pct_camara_septica":0,"pct_pozo_ciego":22,"pct_sin_desague":67,"pct_gas_red":0,"pct_gas_garrafa":89,"pct_lena_guano":89,"pct_basura_formal":22,"pct_basura_quema":44,"pct_basura_informal":0,"pct_internet":56,"pct_celular":67,"pct_televisor":22}},{"type":"Feature","geometry":{"type":"Polygon","coordinates":[[[-68.70164,-16.77645],[-68.70216,-16.77627],[-68.70209,-16.77609],[-68.70157,-16.77629],[-68.70164,-16.77645]]]},"properties":{"n":"SULLKATITI KHONKHO","p":26,"personas_x_ha":212,"masculinidad":136,"pct_menor20":23,"pct_60mas":12,"pct_migrante":23,"dependencia_econ":30,"pct_empleados":5,"pct_cuentapropia":85,"pct_agricultura":30,"pct_comercio":30,"pct_manufactura":25,"pct_construccion":0,"pct_transporte":5,"pct_alojamiento":0,"pct_sin_educacion":0,"pct_educ_superior":5,"brecha_educ":-46,"pct_sin_seguro":31,"pct_sus":50,"pct_seguro_privado":12,"brecha_seguro":6,"pct_salud_publica":24,"pct_med_tradicional":23,"pct_automedicacion":18,"pct_remedios_caseros":17,"pct_viv_desocupada":0,"pct_alquiler":0,"pct_electricidad":60,"pct_sin_electricidad":40,"pct_agua_red":50,"pct_alcantarillado":0,"pct_camara_septica":10,"pct_pozo_ciego":10,"pct_sin_desague":80,"pct_gas_red":0,"pct_gas_garrafa":90,"pct_lena_guano":90,"pct_basura_formal":60,"pct_basura_quema":40,"pct_basura_informal":0,"pct_internet":40,"pct_celular":100,"pct_televisor":40}},{"type":"Feature","geometry":{"type":"Polygon","coordinates":[[[-68.7032,-16.77654],[-68.70367,-16.77639],[-68.70347,-16.77587],[-68.7026,-16.77616],[-68.70276,-16.77669],[-68.70318,-16.77655],[-68.70313,-16.77641],[-68.70326,-16.77622],[-68.70315,-16.77641],[-68.7032,-16.77654]]]},"properties":{"n":"SULLKATITI KHONKHO","p":46,"personas_x_ha":75,"masculinidad":92,"pct_menor20":30,"pct_60mas":11,"pct_migrante":30,"dependencia_econ":59,"pct_empleados":21,"pct_cuentapropia":76,"pct_agricultura":31,"pct_comercio":34,"pct_manufactura":0,"pct_construccion":17,"pct_transporte":3,"pct_alojamiento":0,"pct_sin_educacion":6,"pct_educ_superior":6,"brecha_educ":-27,"pct_sin_seguro":11,"pct_sus":70,"pct_seguro_privado":0,"brecha_seguro":-12,"pct_salud_publica":53,"pct_med_tradicional":12,"pct_automedicacion":9,"pct_remedios_caseros":14,"pct_viv_desocupada":6,"pct_alquiler":0,"pct_electricidad":59,"pct_sin_electricidad":41,"pct_agua_red":59,"pct_alcantarillado":0,"pct_camara_septica":6,"pct_pozo_ciego":24,"pct_sin_desague":71,"pct_gas_red":0,"pct_gas_garrafa":88,"pct_lena_guano":100,"pct_basura_formal":24,"pct_basura_quema":76,"pct_basura_informal":0,"pct_internet":29,"pct_celular":76,"pct_televisor":18}},{"type":"Feature","geometry":{"type":"Polygon","coordinates":[[[-68.7014,-16.77712],[-68.70123,-16.77664],[-68.70092,-16.77673],[-68.70085,-16.77732],[-68.7014,-16.77712]]]},"properties":{"n":"SULLKATITI KHONKHO","p":16,"personas_x_ha":54,"masculinidad":100,"pct_menor20":31,"pct_60mas":44,"pct_migrante":25,"dependencia_econ":60,"pct_empleados":10,"pct_cuentapropia":90,"pct_agricultura":70,"pct_comercio":10,"pct_manufactura":0,"pct_construccion":0,"pct_transporte":0,"pct_alojamiento":10,"pct_sin_educacion":9,"pct_educ_superior":9,"brecha_educ":-43,"pct_sin_seguro":13,"pct_sus":67,"pct_seguro_privado":13,"brecha_seguro":-2,"pct_salud_publica":22,"pct_med_tradicional":22,"pct_automedicacion":12,"pct_remedios_caseros":25,"pct_viv_desocupada":0,"pct_alquiler":0,"pct_electricidad":46,"pct_sin_electricidad":54,"pct_agua_red":62,"pct_alcantarillado":0,"pct_camara_septica":0,"pct_pozo_ciego":23,"pct_sin_desague":69,"pct_gas_red":0,"pct_gas_garrafa":62,"pct_lena_guano":62,"pct_basura_formal":0,"pct_basura_quema":100,"pct_basura_informal":0,"pct_internet":46,"pct_celular":77,"pct_televisor":15}},{"type":"Feature","geometry":{"type":"Polygon","coordinates":[[[-68.70147,-16.77711],[-68.70128,-16.77662],[-68.70158,-16.77652],[-68.70177,-16.777],[-68.70147,-16.77711]]]},"properties":{"n":"SULLKATITI KHONKHO","p":19,"personas_x_ha":93,"masculinidad":58,"pct_menor20":21,"pct_60mas":16,"pct_migrante":37,"dependencia_econ":36,"pct_empleados":7,"pct_cuentapropia":86,"pct_agricultura":29,"pct_comercio":36,"pct_manufactura":14,"pct_construccion":7,"pct_transporte":0,"pct_alojamiento":14,"pct_sin_educacion":7,"pct_educ_superior":20,"brecha_educ":17,"pct_sin_seguro":5,"pct_sus":95,"pct_seguro_privado":0,"brecha_seguro":14,"pct_salud_publica":26,"pct_med_tradicional":21,"pct_automedicacion":15,"pct_remedios_caseros":23,"pct_viv_desocupada":0,"pct_alquiler":0,"pct_electricidad":64,"pct_sin_electricidad":36,"pct_agua_red":86,"pct_alcantarillado":0,"pct_camara_septica":0,"pct_pozo_ciego":21,"pct_sin_desague":71,"pct_gas_red":0,"pct_gas_garrafa":71,"pct_lena_guano":79,"pct_basura_formal":14,"pct_basura_quema":71,"pct_basura_informal":0,"pct_internet":29,"pct_celular":79,"pct_televisor":14}},{"type":"Feature","geometry":{"type":"Polygon","coordinates":[[[-68.85262,-16.7009],[-68.85301,-16.70074],[-68.85288,-16.7004],[-68.85246,-16.70061],[-68.8524,-16.7008],[-68.85262,-16.7009]]]},"properties":{"n":"TITICANI TACACA","p":20,"personas_x_ha":87,"masculinidad":82,"pct_menor20":35,"pct_60mas":20,"pct_migrante":10,"dependencia_econ":67,"pct_empleados":25,"pct_cuentapropia":58,"pct_agricultura":42,"pct_comercio":25,"pct_manufactura":8,"pct_construccion":8,"pct_transporte":0,"pct_alojamiento":0,"pct_sin_educacion":8,"pct_educ_superior":31,"brecha_educ":13,"pct_sin_seguro":5,"pct_sus":85,"pct_seguro_privado":0,"brecha_seguro":11,"pct_salud_publica":71,"pct_med_tradicional":7,"pct_automedicacion":7,"pct_remedios_caseros":7,"pct_viv_desocupada":8,"pct_alquiler":0,"pct_electricidad":73,"pct_sin_electricidad":27,"pct_agua_red":45,"pct_alcantarillado":9,"pct_camara_septica":0,"pct_pozo_ciego":64,"pct_sin_desague":27,"pct_gas_red":0,"pct_gas_garrafa":100,"pct_lena_guano":100,"pct_basura_formal":27,"pct_basura_quema":36,"pct_basura_informal":36,"pct_internet":64,"pct_celular":73,"pct_televisor":27}},{"type":"Feature","geometry":{"type":"Polygon","coordinates":[[[-68.74245,-16.77753],[-68.74067,-16.77821],[-68.74112,-16.77929],[-68.74194,-16.77894],[-68.74188,-16.7788],[-68.74209,-16.77872],[-68.74191,-16.77824],[-68.74266,-16.77795],[-68.74245,-16.77753]]]},"properties":{"n":"YAURIRI SAN FRANCISCO","p":15,"personas_x_ha":8,"masculinidad":36,"pct_menor20":27,"pct_60mas":27,"pct_migrante":0,"dependencia_econ":225,"pct_empleados":25,"pct_cuentapropia":50,"pct_agricultura":50,"pct_comercio":0,"pct_manufactura":0,"pct_construccion":25,"pct_transporte":25,"pct_alojamiento":0,"pct_sin_educacion":11,"pct_educ_superior":33,"brecha_educ":0,"pct_sin_seguro":8,"pct_sus":92,"pct_seguro_privado":0,"brecha_seguro":-10,"pct_salud_publica":56,"pct_med_tradicional":0,"pct_automedicacion":19,"pct_remedios_caseros":26,"pct_viv_desocupada":9,"pct_alquiler":0,"pct_electricidad":78,"pct_sin_electricidad":22,"pct_agua_red":78,"pct_alcantarillado":0,"pct_camara_septica":0,"pct_pozo_ciego":33,"pct_sin_desague":67,"pct_gas_red":0,"pct_gas_garrafa":100,"pct_lena_guano":100,"pct_basura_formal":0,"pct_basura_quema":78,"pct_basura_informal":0,"pct_internet":33,"pct_celular":100,"pct_televisor":33}}]}