{"type":"FeatureCollection","features":[{"type":"Feature","geometry":{"type":"Polygon","coordinates":[[[-68.75382,-15.80493],[-68.75344,-15.80503],[-68.75279,-15.80434],[-68.75242,-15.80336],[-68.75284,-15.80332],[-68.75336,-15.80413],[-68.75418,-15.805],[-68.75413,-15.80506],[-68.75382,-15.80493]]]},"properties":{"n":"COMBAYA","p":63,"personas_x_ha":50,"masculinidad":66,"pct_menor20":35,"pct_60mas":10,"pct_migrante":16,"dependencia_econ":94,"pct_empleados":19,"pct_cuentapropia":58,"pct_agricultura":52,"pct_comercio":6,"pct_manufactura":3,"pct_construccion":6,"pct_transporte":0,"pct_alojamiento":6,"pct_sin_educacion":3,"pct_educ_superior":33,"brecha_educ":-27,"pct_sin_seguro":5,"pct_sus":88,"pct_seguro_privado":0,"brecha_seguro":-2,"pct_salud_publica":30,"pct_med_tradicional":20,"pct_automedicacion":10,"pct_remedios_caseros":26,"pct_viv_desocupada":0,"pct_alquiler":4,"pct_electricidad":84,"pct_sin_electricidad":16,"pct_agua_red":96,"pct_alcantarillado":92,"pct_camara_septica":0,"pct_pozo_ciego":0,"pct_sin_desague":8,"pct_gas_red":0,"pct_gas_garrafa":76,"pct_lena_guano":24,"pct_basura_formal":72,"pct_basura_quema":24,"pct_basura_informal":0,"pct_internet":60,"pct_celular":92,"pct_televisor":72}},{"type":"Feature","geometry":{"type":"Polygon","coordinates":[[[-68.75568,-15.80382],[-68.75489,-15.80342],[-68.7543,-15.80302],[-68.75427,-15.80305],[-68.75456,-15.80368],[-68.75514,-15.80411],[-68.75535,-15.80422],[-68.75568,-15.80382]]]},"properties":{"n":"COMBAYA","p":45,"personas_x_ha":64,"masculinidad":96,"pct_menor20":24,"pct_60mas":22,"pct_migrante":4,"dependencia_econ":36,"pct_empleados":9,"pct_cuentapropia":85,"pct_agricultura":58,"pct_comercio":15,"pct_manufactura":9,"pct_construccion":9,"pct_transporte":3,"pct_alojamiento":0,"pct_sin_educacion":6,"pct_educ_superior":12,"brecha_educ":-29,"pct_sin_seguro":5,"pct_sus":89,"pct_seguro_privado":0,"brecha_seguro":0,"pct_salud_publica":32,"pct_med_tradicional":25,"pct_automedicacion":1,"pct_remedios_caseros":31,"pct_viv_desocupada":0,"pct_alquiler":0,"pct_electricidad":72,"pct_sin_electricidad":17,"pct_agua_red":83,"pct_alcantarillado":89,"pct_camara_septica":0,"pct_pozo_ciego":0,"pct_sin_desague":11,"pct_gas_red":0,"pct_gas_garrafa":17,"pct_lena_guano":83,"pct_basura_formal":67,"pct_basura_quema":17,"pct_basura_informal":17,"pct_internet":33,"pct_celular":72,"pct_televisor":44}},{"type":"Feature","geometry":{"type":"Polygon","coordinates":[[[-68.75579,-15.80641],[-68.75561,-15.80624],[-68.75524,-15.80623],[-68.75521,-15.80618],[-68.75535,-15.80609],[-68.7552,-15.80618],[-68.75502,-15.80595],[-68.75546,-15.80561],[-68.756,-15.80616],[-68.75601,-15.80623],[-68.75579,-15.80641]]]},"properties":{"n":"COMBAYA","p":83,"personas_x_ha":179,"masculinidad":89,"pct_menor20":19,"pct_60mas":16,"pct_migrante":29,"dependencia_econ":34,"pct_empleados":18,"pct_cuentapropia":73,"pct_agricultura":44,"pct_comercio":13,"pct_manufactura":15,"pct_construccion":5,"pct_transporte":5,"pct_alojamiento":3,"pct_sin_educacion":19,"pct_educ_superior":25,"brecha_educ":-12,"pct_sin_seguro":30,"pct_sus":63,"pct_seguro_privado":2,"brecha_seguro":21,"pct_salud_publica":27,"pct_med_tradicional":13,"pct_automedicacion":16,"pct_remedios_caseros":29,"pct_viv_desocupada":5,"pct_alquiler":0,"pct_electricidad":76,"pct_sin_electricidad":19,"pct_agua_red":92,"pct_alcantarillado":78,"pct_camara_septica":0,"pct_pozo_ciego":3,"pct_sin_desague":19,"pct_gas_red":0,"pct_gas_garrafa":35,"pct_lena_guano":65,"pct_basura_formal":41,"pct_basura_quema":27,"pct_basura_informal":19,"pct_internet":68,"pct_celular":89,"pct_televisor":30}},{"type":"Feature","geometry":{"type":"Polygon","coordinates":[[[-68.75495,-15.80339],[-68.75614,-15.80405],[-68.75632,-15.8039],[-68.75633,-15.80372],[-68.75481,-15.80263],[-68.75464,-15.80277],[-68.75442,-15.80275],[-68.75433,-15.80297],[-68.75453,-15.80311],[-68.75473,-15.80302],[-68.75455,-15.80312],[-68.75493,-15.80337],[-68.7551,-15.8031],[-68.75495,-15.80339]]]},"properties":{"n":"COMBAYA","p":45,"personas_x_ha":37,"masculinidad":73,"pct_menor20":33,"pct_60mas":31,"pct_migrante":0,"dependencia_econ":61,"pct_empleados":4,"pct_cuentapropia":68,"pct_agricultura":57,"pct_comercio":18,"pct_manufactura":11,"pct_construccion":0,"pct_transporte":4,"pct_alojamiento":0,"pct_sin_educacion":26,"pct_educ_superior":3,"brecha_educ":3,"pct_sin_seguro":2,"pct_sus":96,"pct_seguro_privado":0,"brecha_seguro":-4,"pct_salud_publica":42,"pct_med_tradicional":24,"pct_automedicacion":1,"pct_remedios_caseros":33,"pct_viv_desocupada":5,"pct_alquiler":0,"pct_electricidad":78,"pct_sin_electricidad":22,"pct_agua_red":100,"pct_alcantarillado":94,"pct_camara_septica":0,"pct_pozo_ciego":0,"pct_sin_desague":6,"pct_gas_red":0,"pct_gas_garrafa":33,"pct_lena_guano":67,"pct_basura_formal":28,"pct_basura_quema":61,"pct_basura_informal":6,"pct_internet":39,"pct_celular":72,"pct_televisor":39}},{"type":"Feature","geometry":{"type":"Polygon","coordinates":[[[-68.75564,-15.80627],[-68.75518,-15.8062],[-68.75514,-15.80637],[-68.75545,-15.80649],[-68.75564,-15.80669],[-68.75578,-15.80644],[-68.75564,-15.80627]]]},"properties":{"n":"COMBAYA","p":24,"personas_x_ha":132,"masculinidad":71,"pct_menor20":12,"pct_60mas":42,"pct_migrante":12,"dependencia_econ":60,"pct_empleados":7,"pct_cuentapropia":87,"pct_agricultura":87,"pct_comercio":7,"pct_manufactura":0,"pct_construccion":0,"pct_transporte":0,"pct_alojamiento":0,"pct_sin_educacion":29,"pct_educ_superior":14,"brecha_educ":-8,"pct_sin_seguro":22,"pct_sus":70,"pct_seguro_privado":0,"brecha_seguro":-36,"pct_salud_publica":33,"pct_med_tradicional":19,"pct_automedicacion":9,"pct_remedios_caseros":25,"pct_viv_desocupada":0,"pct_alquiler":0,"pct_electricidad":86,"pct_sin_electricidad":14,"pct_agua_red":57,"pct_alcantarillado":86,"pct_camara_septica":0,"pct_pozo_ciego":0,"pct_sin_desague":14,"pct_gas_red":0,"pct_gas_garrafa":29,"pct_lena_guano":71,"pct_basura_formal":43,"pct_basura_quema":43,"pct_basura_informal":14,"pct_internet":29,"pct_celular":86,"pct_televisor":29}},{"type":"Feature","geometry":{"type":"Polygon","coordinates":[[[-68.7544,-15.80529],[-68.75498,-15.80596],[-68.75513,-15.80618],[-68.75512,-15.80631],[-68.75469,-15.8061],[-68.75404,-15.80532],[-68.75428,-15.80515],[-68.75439,-15.80528],[-68.75427,-15.8054],[-68.7544,-15.80529]]]},"properties":{"n":"COMBAYA","p":39,"personas_x_ha":82,"masculinidad":77,"pct_menor20":18,"pct_60mas":26,"pct_migrante":21,"dependencia_econ":70,"pct_empleados":4,"pct_cuentapropia":83,"pct_agricultura":65,"pct_comercio":9,"pct_manufactura":0,"pct_construccion":4,"pct_transporte":4,"pct_alojamiento":0,"pct_sin_educacion":25,"pct_educ_superior":25,"brecha_educ":-23,"pct_sin_seguro":28,"pct_sus":44,"pct_seguro_privado":0,"brecha_seguro":2,"pct_salud_publica":27,"pct_med_tradicional":19,"pct_automedicacion":4,"pct_remedios_caseros":28,"pct_viv_desocupada":0,"pct_alquiler":0,"pct_electricidad":95,"pct_sin_electricidad":5,"pct_agua_red":91,"pct_alcantarillado":91,"pct_camara_septica":0,"pct_pozo_ciego":0,"pct_sin_desague":9,"pct_gas_red":0,"pct_gas_garrafa":77,"pct_lena_guano":18,"pct_basura_formal":91,"pct_basura_quema":9,"pct_basura_informal":0,"pct_internet":41,"pct_celular":82,"pct_televisor":59}},{"type":"Feature","geometry":{"type":"Polygon","coordinates":[[[-68.75377,-15.80372],[-68.75334,-15.80402],[-68.7529,-15.80333],[-68.75286,-15.80264],[-68.7532,-15.80256],[-68.75334,-15.80315],[-68.75377,-15.80372]]]},"properties":{"n":"COMBAYA","p":43,"personas_x_ha":55,"masculinidad":126,"pct_menor20":9,"pct_60mas":42,"pct_migrante":26,"dependencia_econ":65,"pct_empleados":35,"pct_cuentapropia":38,"pct_agricultura":35,"pct_comercio":19,"pct_manufactura":12,"pct_construccion":4,"pct_transporte":0,"pct_alojamiento":0,"pct_sin_educacion":5,"pct_educ_superior":31,"brecha_educ":-14,"pct_sin_seguro":7,"pct_sus":59,"pct_seguro_privado":5,"brecha_seguro":2,"pct_salud_publica":23,"pct_med_tradicional":11,"pct_automedicacion":20,"pct_remedios_caseros":28,"pct_viv_desocupada":0,"pct_alquiler":0,"pct_electricidad":95,"pct_sin_electricidad":5,"pct_agua_red":100,"pct_alcantarillado":77,"pct_camara_septica":0,"pct_pozo_ciego":0,"pct_sin_desague":23,"pct_gas_red":0,"pct_gas_garrafa":82,"pct_lena_guano":18,"pct_basura_formal":91,"pct_basura_quema":5,"pct_basura_informal":5,"pct_internet":41,"pct_celular":91,"pct_televisor":32}},{"type":"Feature","geometry":{"type":"Polygon","coordinates":[[[-68.75521,-15.80574],[-68.75542,-15.80559],[-68.75508,-15.8052],[-68.75465,-15.80549],[-68.75499,-15.80591],[-68.7552,-15.80575],[-68.75505,-15.80553],[-68.75521,-15.80574]]]},"properties":{"n":"COMBAYA","p":63,"personas_x_ha":185,"masculinidad":103,"pct_menor20":24,"pct_60mas":32,"pct_migrante":33,"dependencia_econ":85,"pct_empleados":21,"pct_cuentapropia":50,"pct_agricultura":35,"pct_comercio":18,"pct_manufactura":6,"pct_construccion":9,"pct_transporte":6,"pct_alojamiento":0,"pct_sin_educacion":4,"pct_educ_superior":39,"brecha_educ":0,"pct_sin_seguro":6,"pct_sus":56,"pct_seguro_privado":6,"brecha_seguro":-7,"pct_salud_publica":33,"pct_med_tradicional":0,"pct_automedicacion":14,"pct_remedios_caseros":25,"pct_viv_desocupada":0,"pct_alquiler":0,"pct_electricidad":100,"pct_sin_electricidad":0,"pct_agua_red":100,"pct_alcantarillado":92,"pct_camara_septica":0,"pct_pozo_ciego":0,"pct_sin_desague":8,"pct_gas_red":0,"pct_gas_garrafa":78,"pct_lena_guano":19,"pct_basura_formal":86,"pct_basura_quema":0,"pct_basura_informal":14,"pct_internet":78,"pct_celular":92,"pct_televisor":58}},{"type":"Feature","geometry":{"type":"Polygon","coordinates":[[[-68.7539,-15.80179],[-68.75412,-15.80264],[-68.75378,-15.8027],[-68.75339,-15.80307],[-68.75326,-15.80262],[-68.75356,-15.8019],[-68.75344,-15.80076],[-68.7535,-15.80077],[-68.7539,-15.80179]]]},"properties":{"n":"COMBAYA","p":33,"personas_x_ha":31,"masculinidad":94,"pct_menor20":30,"pct_60mas":15,"pct_migrante":27,"dependencia_econ":146,"pct_empleados":15,"pct_cuentapropia":62,"pct_agricultura":31,"pct_comercio":15,"pct_manufactura":0,"pct_construccion":31,"pct_transporte":0,"pct_alojamiento":0,"pct_sin_educacion":12,"pct_educ_superior":29,"brecha_educ":-5,"pct_sin_seguro":10,"pct_sus":68,"pct_seguro_privado":3,"brecha_seguro":-19,"pct_salud_publica":38,"pct_med_tradicional":10,"pct_automedicacion":10,"pct_remedios_caseros":28,"pct_viv_desocupada":0,"pct_alquiler":0,"pct_electricidad":95,"pct_sin_electricidad":5,"pct_agua_red":90,"pct_alcantarillado":95,"pct_camara_septica":0,"pct_pozo_ciego":0,"pct_sin_desague":5,"pct_gas_red":0,"pct_gas_garrafa":60,"pct_lena_guano":40,"pct_basura_formal":90,"pct_basura_quema":10,"pct_basura_informal":0,"pct_internet":50,"pct_celular":85,"pct_televisor":45}},{"type":"Feature","geometry":{"type":"Polygon","coordinates":[[[-68.75557,-15.8052],[-68.75546,-15.80524],[-68.75529,-15.80537],[-68.7552,-15.80526],[-68.75529,-15.80522],[-68.75527,-15.8052],[-68.7552,-15.80526],[-68.75512,-15.80517],[-68.75535,-15.80502],[-68.75595,-15.80485],[-68.75573,-15.80538],[-68.75547,-15.80557],[-68.75551,-15.80548],[-68.75544,-15.8054],[-68.75549,-15.80548],[-68.75543,-15.80552],[-68.75531,-15.80537],[-68.75557,-15.8052]]]},"properties":{"n":"COMBAYA","p":61,"personas_x_ha":175,"masculinidad":74,"pct_menor20":31,"pct_60mas":23,"pct_migrante":23,"dependencia_econ":85,"pct_empleados":24,"pct_cuentapropia":76,"pct_agricultura":55,"pct_comercio":3,"pct_manufactura":6,"pct_construccion":3,"pct_transporte":0,"pct_alojamiento":3,"pct_sin_educacion":11,"pct_educ_superior":30,"brecha_educ":-10,"pct_sin_seguro":7,"pct_sus":62,"pct_seguro_privado":3,"brecha_seguro":15,"pct_salud_publica":25,"pct_med_tradicional":8,"pct_automedicacion":16,"pct_remedios_caseros":29,"pct_viv_desocupada":6,"pct_alquiler":0,"pct_electricidad":89,"pct_sin_electricidad":11,"pct_agua_red":79,"pct_alcantarillado":96,"pct_camara_septica":0,"pct_pozo_ciego":0,"pct_sin_desague":4,"pct_gas_red":0,"pct_gas_garrafa":64,"pct_lena_guano":36,"pct_basura_formal":75,"pct_basura_quema":11,"pct_basura_informal":7,"pct_internet":68,"pct_celular":82,"pct_televisor":50}},{"type":"Feature","geometry":{"type":"Polygon","coordinates":[[[-68.75488,-15.80451],[-68.75475,-15.80437],[-68.75487,-15.80452],[-68.75468,-15.80468],[-68.75461,-15.8046],[-68.75468,-15.80453],[-68.75466,-15.8045],[-68.75461,-15.80459],[-68.75454,-15.80451],[-68.75469,-15.80438],[-68.75453,-15.80451],[-68.75443,-15.80439],[-68.75472,-15.80416],[-68.75442,-15.80438],[-68.7539,-15.80379],[-68.75404,-15.80364],[-68.75423,-15.80369],[-68.75394,-15.80351],[-68.75402,-15.80364],[-68.75389,-15.80378],[-68.75367,-15.80351],[-68.75382,-15.80341],[-68.75376,-15.80336],[-68.75366,-15.8035],[-68.75354,-15.80335],[-68.75362,-15.80332],[-68.75353,-15.80334],[-68.75341,-15.80314],[-68.75349,-15.8031],[-68.75362,-15.80326],[-68.75399,-15.80338],[-68.75427,-15.80365],[-68.75471,-15.80388],[-68.75505,-15.80436],[-68.75488,-15.80451]]]},"properties":{"n":"COMBAYA","p":77,"personas_x_ha":89,"masculinidad":67,"pct_menor20":6,"pct_60mas":55,"pct_migrante":39,"dependencia_econ":70,"pct_empleados":33,"pct_cuentapropia":51,"pct_agricultura":23,"pct_comercio":21,"pct_manufactura":9,"pct_construccion":0,"pct_transporte":0,"pct_alojamiento":9,"pct_sin_educacion":4,"pct_educ_superior":49,"brecha_educ":-13,"pct_sin_seguro":4,"pct_sus":53,"pct_seguro_privado":0,"brecha_seguro":5,"pct_salud_publica":28,"pct_med_tradicional":8,"pct_automedicacion":8,"pct_remedios_caseros":22,"pct_viv_desocupada":0,"pct_alquiler":2,"pct_electricidad":89,"pct_sin_electricidad":11,"pct_agua_red":84,"pct_alcantarillado":79,"pct_camara_septica":0,"pct_pozo_ciego":0,"pct_sin_desague":21,"pct_gas_red":0,"pct_gas_garrafa":79,"pct_lena_guano":3,"pct_basura_formal":89,"pct_basura_quema":5,"pct_basura_informal":6,"pct_internet":53,"pct_celular":69,"pct_televisor":48}},{"type":"Feature","geometry":{"type":"Polygon","coordinates":[[[-68.75565,-15.8049],[-68.75557,-15.80476],[-68.75564,-15.8049],[-68.75548,-15.80495],[-68.7554,-15.80486],[-68.75546,-15.80495],[-68.7551,-15.80515],[-68.75485,-15.80486],[-68.7551,-15.80468],[-68.75484,-15.80485],[-68.7547,-15.80469],[-68.75507,-15.80438],[-68.75518,-15.80454],[-68.75518,-15.80474],[-68.7552,-15.80455],[-68.75534,-15.80443],[-68.7554,-15.80435],[-68.75521,-15.80452],[-68.75501,-15.80426],[-68.75512,-15.80414],[-68.75539,-15.80428],[-68.75592,-15.80482],[-68.75565,-15.8049]]]},"properties":{"n":"COMBAYA","p":91,"personas_x_ha":132,"masculinidad":90,"pct_menor20":20,"pct_60mas":27,"pct_migrante":11,"dependencia_econ":50,"pct_empleados":8,"pct_cuentapropia":77,"pct_agricultura":60,"pct_comercio":15,"pct_manufactura":5,"pct_construccion":0,"pct_transporte":2,"pct_alojamiento":3,"pct_sin_educacion":6,"pct_educ_superior":26,"brecha_educ":-11,"pct_sin_seguro":3,"pct_sus":52,"pct_seguro_privado":5,"brecha_seguro":-2,"pct_salud_publica":27,"pct_med_tradicional":12,"pct_automedicacion":12,"pct_remedios_caseros":17,"pct_viv_desocupada":7,"pct_alquiler":0,"pct_electricidad":96,"pct_sin_electricidad":4,"pct_agua_red":84,"pct_alcantarillado":82,"pct_camara_septica":0,"pct_pozo_ciego":0,"pct_sin_desague":18,"pct_gas_red":0,"pct_gas_garrafa":56,"pct_lena_guano":36,"pct_basura_formal":90,"pct_basura_quema":2,"pct_basura_informal":6,"pct_internet":72,"pct_celular":88,"pct_televisor":38}},{"type":"Feature","geometry":{"type":"Polygon","coordinates":[[[-68.75452,-15.80537],[-68.75461,-15.80547],[-68.75503,-15.80515],[-68.75467,-15.80473],[-68.75427,-15.80502],[-68.75451,-15.80536],[-68.75466,-15.80525],[-68.75452,-15.80537]]]},"properties":{"n":"COMBAYA","p":97,"personas_x_ha":275,"masculinidad":116,"pct_menor20":19,"pct_60mas":26,"pct_migrante":26,"dependencia_econ":88,"pct_empleados":16,"pct_cuentapropia":75,"pct_agricultura":53,"pct_comercio":8,"pct_manufactura":16,"pct_construccion":2,"pct_transporte":2,"pct_alojamiento":2,"pct_sin_educacion":5,"pct_educ_superior":28,"brecha_educ":-22,"pct_sin_seguro":25,"pct_sus":66,"pct_seguro_privado":0,"brecha_seguro":11,"pct_salud_publica":31,"pct_med_tradicional":20,"pct_automedicacion":9,"pct_remedios_caseros":25,"pct_viv_desocupada":0,"pct_alquiler":0,"pct_electricidad":88,"pct_sin_electricidad":8,"pct_agua_red":78,"pct_alcantarillado":82,"pct_camara_septica":0,"pct_pozo_ciego":0,"pct_sin_desague":18,"pct_gas_red":0,"pct_gas_garrafa":70,"pct_lena_guano":28,"pct_basura_formal":82,"pct_basura_quema":10,"pct_basura_informal":8,"pct_internet":52,"pct_celular":80,"pct_televisor":48}}]}