{"type":"FeatureCollection","features":[{"type":"Feature","geometry":{"type":"Polygon","coordinates":[[[-68.91835,-16.20131],[-68.9191,-16.20243],[-68.91921,-16.20236],[-68.91849,-16.20108],[-68.9183,-16.20111],[-68.91835,-16.20131]]]},"properties":{"n":"CALATA GRANDE","p":17,"personas_x_ha":57,"masculinidad":112,"pct_menor20":6,"pct_60mas":35,"pct_migrante":18,"dependencia_econ":21,"pct_empleados":7,"pct_cuentapropia":64,"pct_agricultura":86,"pct_comercio":7,"pct_manufactura":0,"pct_construccion":0,"pct_transporte":0,"pct_alojamiento":0,"pct_sin_educacion":44,"pct_educ_superior":12,"brecha_educ":-38,"pct_sin_seguro":24,"pct_sus":71,"pct_seguro_privado":0,"brecha_seguro":21,"pct_salud_publica":23,"pct_med_tradicional":19,"pct_automedicacion":22,"pct_remedios_caseros":16,"pct_viv_desocupada":9,"pct_alquiler":0,"pct_electricidad":89,"pct_sin_electricidad":11,"pct_agua_red":100,"pct_alcantarillado":22,"pct_camara_septica":0,"pct_pozo_ciego":56,"pct_sin_desague":22,"pct_gas_red":0,"pct_gas_garrafa":33,"pct_lena_guano":67,"pct_basura_formal":0,"pct_basura_quema":89,"pct_basura_informal":0,"pct_internet":33,"pct_celular":89,"pct_televisor":33}},{"type":"Feature","geometry":{"type":"Polygon","coordinates":[[[-68.87559,-16.23155],[-68.87569,-16.232],[-68.87609,-16.23191],[-68.87592,-16.23139],[-68.87544,-16.23113],[-68.87547,-16.23155],[-68.87559,-16.23155]]]},"properties":{"n":"HUAYLLANI","p":18,"personas_x_ha":50,"masculinidad":64,"pct_menor20":28,"pct_60mas":17,"pct_migrante":6,"dependencia_econ":64,"pct_empleados":9,"pct_cuentapropia":73,"pct_agricultura":73,"pct_comercio":0,"pct_manufactura":0,"pct_construccion":0,"pct_transporte":18,"pct_alojamiento":0,"pct_sin_educacion":15,"pct_educ_superior":8,"brecha_educ":-3,"pct_sin_seguro":28,"pct_sus":72,"pct_seguro_privado":0,"brecha_seguro":1,"pct_salud_publica":22,"pct_med_tradicional":21,"pct_automedicacion":17,"pct_remedios_caseros":22,"pct_viv_desocupada":18,"pct_alquiler":0,"pct_electricidad":100,"pct_sin_electricidad":0,"pct_agua_red":88,"pct_alcantarillado":0,"pct_camara_septica":12,"pct_pozo_ciego":88,"pct_sin_desague":0,"pct_gas_red":0,"pct_gas_garrafa":75,"pct_lena_guano":25,"pct_basura_formal":12,"pct_basura_quema":62,"pct_basura_informal":0,"pct_internet":88,"pct_celular":88,"pct_televisor":50}},{"type":"Feature","geometry":{"type":"Polygon","coordinates":[[[-68.87509,-16.23166],[-68.87521,-16.23165],[-68.8752,-16.2323],[-68.87483,-16.23224],[-68.87509,-16.23166]]]},"properties":{"n":"HUAYLLANI","p":15,"personas_x_ha":84,"masculinidad":88,"pct_menor20":33,"pct_60mas":33,"pct_migrante":40,"dependencia_econ":150,"pct_empleados":0,"pct_cuentapropia":100,"pct_agricultura":67,"pct_comercio":17,"pct_manufactura":17,"pct_construccion":0,"pct_transporte":0,"pct_alojamiento":0,"pct_sin_educacion":9,"pct_educ_superior":0,"brecha_educ":-80,"pct_sin_seguro":0,"pct_sus":87,"pct_seguro_privado":0,"brecha_seguro":0,"pct_salud_publica":46,"pct_med_tradicional":0,"pct_automedicacion":15,"pct_remedios_caseros":27,"pct_viv_desocupada":0,"pct_alquiler":0,"pct_electricidad":100,"pct_sin_electricidad":0,"pct_agua_red":100,"pct_alcantarillado":0,"pct_camara_septica":25,"pct_pozo_ciego":75,"pct_sin_desague":0,"pct_gas_red":0,"pct_gas_garrafa":25,"pct_lena_guano":75,"pct_basura_formal":25,"pct_basura_quema":75,"pct_basura_informal":0,"pct_internet":25,"pct_celular":75,"pct_televisor":50}},{"type":"Feature","geometry":{"type":"Polygon","coordinates":[[[-68.87382,-16.2338],[-68.87353,-16.23397],[-68.87314,-16.23393],[-68.87321,-16.23304],[-68.87344,-16.2331],[-68.87345,-16.23302],[-68.87359,-16.23302],[-68.87344,-16.233],[-68.87343,-16.23308],[-68.87321,-16.23303],[-68.87317,-16.23253],[-68.87378,-16.23262],[-68.87375,-16.23273],[-68.87375,-16.2328],[-68.8738,-16.23262],[-68.87417,-16.23269],[-68.87409,-16.23278],[-68.87407,-16.23292],[-68.87418,-16.2327],[-68.87451,-16.23276],[-68.87396,-16.23371],[-68.87383,-16.23379],[-68.87363,-16.23368],[-68.87382,-16.2338]]]},"properties":{"n":"HUAYLLANI","p":20,"personas_x_ha":12,"masculinidad":100,"pct_menor20":35,"pct_60mas":25,"pct_migrante":25,"dependencia_econ":54,"pct_empleados":8,"pct_cuentapropia":92,"pct_agricultura":62,"pct_comercio":0,"pct_manufactura":15,"pct_construccion":0,"pct_transporte":8,"pct_alojamiento":0,"pct_sin_educacion":21,"pct_educ_superior":7,"brecha_educ":-17,"pct_sin_seguro":40,"pct_sus":55,"pct_seguro_privado":0,"brecha_seguro":0,"pct_salud_publica":13,"pct_med_tradicional":5,"pct_automedicacion":32,"pct_remedios_caseros":34,"pct_viv_desocupada":0,"pct_alquiler":0,"pct_electricidad":83,"pct_sin_electricidad":17,"pct_agua_red":100,"pct_alcantarillado":33,"pct_camara_septica":0,"pct_pozo_ciego":17,"pct_sin_desague":50,"pct_gas_red":0,"pct_gas_garrafa":33,"pct_lena_guano":67,"pct_basura_formal":0,"pct_basura_quema":100,"pct_basura_informal":0,"pct_internet":50,"pct_celular":50,"pct_televisor":50}},{"type":"Feature","geometry":{"type":"Polygon","coordinates":[[[-68.8741,-16.23449],[-68.8736,-16.23404],[-68.87402,-16.23377],[-68.87433,-16.23326],[-68.87485,-16.23343],[-68.87434,-16.23324],[-68.8745,-16.23294],[-68.87497,-16.23307],[-68.87451,-16.23293],[-68.87481,-16.23228],[-68.87571,-16.23238],[-68.87577,-16.23441],[-68.87514,-16.23466],[-68.87427,-16.23449],[-68.87431,-16.23432],[-68.87425,-16.23449],[-68.8741,-16.23449]]]},"properties":{"n":"HUAYLLANI","p":29,"personas_x_ha":7,"masculinidad":93,"pct_menor20":10,"pct_60mas":38,"pct_migrante":17,"dependencia_econ":12,"pct_empleados":19,"pct_cuentapropia":81,"pct_agricultura":65,"pct_comercio":12,"pct_manufactura":4,"pct_construccion":8,"pct_transporte":4,"pct_alojamiento":0,"pct_sin_educacion":19,"pct_educ_superior":12,"brecha_educ":-14,"pct_sin_seguro":41,"pct_sus":52,"pct_seguro_privado":0,"brecha_seguro":3,"pct_salud_publica":26,"pct_med_tradicional":5,"pct_automedicacion":25,"pct_remedios_caseros":37,"pct_viv_desocupada":9,"pct_alquiler":0,"pct_electricidad":71,"pct_sin_electricidad":29,"pct_agua_red":93,"pct_alcantarillado":0,"pct_camara_septica":0,"pct_pozo_ciego":79,"pct_sin_desague":21,"pct_gas_red":7,"pct_gas_garrafa":21,"pct_lena_guano":71,"pct_basura_formal":0,"pct_basura_quema":86,"pct_basura_informal":7,"pct_internet":57,"pct_celular":93,"pct_televisor":29}},{"type":"Feature","geometry":{"type":"Polygon","coordinates":[[[-68.87581,-16.23129],[-68.87671,-16.23036],[-68.8763,-16.22999],[-68.87566,-16.23066],[-68.87542,-16.23097],[-68.87543,-16.23108],[-68.87581,-16.23129]]]},"properties":{"n":"HUAYLLANI","p":29,"personas_x_ha":34,"masculinidad":61,"pct_menor20":17,"pct_60mas":28,"pct_migrante":38,"dependencia_econ":45,"pct_empleados":20,"pct_cuentapropia":60,"pct_agricultura":60,"pct_comercio":5,"pct_manufactura":0,"pct_construccion":10,"pct_transporte":5,"pct_alojamiento":0,"pct_sin_educacion":21,"pct_educ_superior":29,"brecha_educ":-31,"pct_sin_seguro":69,"pct_sus":31,"pct_seguro_privado":0,"brecha_seguro":6,"pct_salud_publica":25,"pct_med_tradicional":1,"pct_automedicacion":25,"pct_remedios_caseros":43,"pct_viv_desocupada":0,"pct_alquiler":0,"pct_electricidad":67,"pct_sin_electricidad":33,"pct_agua_red":100,"pct_alcantarillado":0,"pct_camara_septica":0,"pct_pozo_ciego":83,"pct_sin_desague":17,"pct_gas_red":0,"pct_gas_garrafa":58,"pct_lena_guano":42,"pct_basura_formal":0,"pct_basura_quema":100,"pct_basura_informal":0,"pct_internet":50,"pct_celular":75,"pct_televisor":8}},{"type":"Feature","geometry":{"type":"Polygon","coordinates":[[[-68.84833,-16.21539],[-68.84822,-16.21519],[-68.8479,-16.21537],[-68.848,-16.21556],[-68.84833,-16.21539]]]},"properties":{"n":"SAN PABLO DE TIQUINA","p":28,"personas_x_ha":287,"masculinidad":155,"pct_menor20":21,"pct_60mas":4,"pct_migrante":18,"dependencia_econ":108,"pct_empleados":23,"pct_cuentapropia":69,"pct_agricultura":15,"pct_comercio":31,"pct_manufactura":0,"pct_construccion":8,"pct_transporte":23,"pct_alojamiento":8,"pct_sin_educacion":0,"pct_educ_superior":5,"brecha_educ":-12,"pct_sin_seguro":22,"pct_sus":78,"pct_seguro_privado":0,"brecha_seguro":22,"pct_salud_publica":20,"pct_med_tradicional":20,"pct_automedicacion":15,"pct_remedios_caseros":21,"pct_viv_desocupada":0,"pct_alquiler":0,"pct_electricidad":100,"pct_sin_electricidad":0,"pct_agua_red":50,"pct_alcantarillado":12,"pct_camara_septica":12,"pct_pozo_ciego":25,"pct_sin_desague":50,"pct_gas_red":0,"pct_gas_garrafa":100,"pct_lena_guano":0,"pct_basura_formal":100,"pct_basura_quema":0,"pct_basura_informal":0,"pct_internet":100,"pct_celular":100,"pct_televisor":62}},{"type":"Feature","geometry":{"type":"Polygon","coordinates":[[[-68.84865,-16.21341],[-68.84825,-16.21359],[-68.84836,-16.21385],[-68.84875,-16.21372],[-68.84865,-16.21341]]]},"properties":{"n":"SAN PABLO DE TIQUINA","p":35,"personas_x_ha":223,"masculinidad":218,"pct_menor20":0,"pct_60mas":3,"pct_migrante":43,"dependencia_econ":53,"pct_empleados":58,"pct_cuentapropia":5,"pct_agricultura":0,"pct_comercio":11,"pct_manufactura":0,"pct_construccion":0,"pct_transporte":0,"pct_alojamiento":0,"pct_sin_educacion":0,"pct_educ_superior":59,"brecha_educ":19,"pct_sin_seguro":14,"pct_sus":86,"pct_seguro_privado":0,"brecha_seguro":2,"pct_salud_publica":20,"pct_med_tradicional":11,"pct_automedicacion":16,"pct_remedios_caseros":20,"pct_viv_desocupada":0,"pct_alquiler":0,"pct_electricidad":83,"pct_sin_electricidad":17,"pct_agua_red":0,"pct_alcantarillado":0,"pct_camara_septica":0,"pct_pozo_ciego":17,"pct_sin_desague":83,"pct_gas_red":0,"pct_gas_garrafa":83,"pct_lena_guano":17,"pct_basura_formal":83,"pct_basura_quema":17,"pct_basura_informal":0,"pct_internet":83,"pct_celular":83,"pct_televisor":50}},{"type":"Feature","geometry":{"type":"Polygon","coordinates":[[[-68.84662,-16.21605],[-68.84624,-16.2157],[-68.84641,-16.21542],[-68.84693,-16.21494],[-68.84734,-16.21553],[-68.84662,-16.21605]]]},"properties":{"n":"SAN PABLO DE TIQUINA","p":55,"personas_x_ha":75,"masculinidad":104,"pct_menor20":29,"pct_60mas":15,"pct_migrante":31,"dependencia_econ":49,"pct_empleados":35,"pct_cuentapropia":43,"pct_agricultura":16,"pct_comercio":16,"pct_manufactura":5,"pct_construccion":11,"pct_transporte":11,"pct_alojamiento":19,"pct_sin_educacion":15,"pct_educ_superior":10,"brecha_educ":-2,"pct_sin_seguro":0,"pct_sus":91,"pct_seguro_privado":0,"brecha_seguro":0,"pct_salud_publica":35,"pct_med_tradicional":6,"pct_automedicacion":27,"pct_remedios_caseros":26,"pct_viv_desocupada":0,"pct_alquiler":0,"pct_electricidad":77,"pct_sin_electricidad":23,"pct_agua_red":85,"pct_alcantarillado":0,"pct_camara_septica":23,"pct_pozo_ciego":15,"pct_sin_desague":62,"pct_gas_red":0,"pct_gas_garrafa":85,"pct_lena_guano":15,"pct_basura_formal":85,"pct_basura_quema":15,"pct_basura_informal":0,"pct_internet":31,"pct_celular":69,"pct_televisor":54}},{"type":"Feature","geometry":{"type":"Polygon","coordinates":[[[-68.84849,-16.21422],[-68.84878,-16.21481],[-68.84891,-16.21474],[-68.84873,-16.21414],[-68.84849,-16.21422]]]},"properties":{"n":"SAN PABLO DE TIQUINA","p":33,"personas_x_ha":196,"masculinidad":94,"pct_menor20":12,"pct_60mas":3,"pct_migrante":45,"dependencia_econ":14,"pct_empleados":31,"pct_cuentapropia":48,"pct_agricultura":0,"pct_comercio":17,"pct_manufactura":0,"pct_construccion":3,"pct_transporte":34,"pct_alojamiento":14,"pct_sin_educacion":0,"pct_educ_superior":48,"brecha_educ":-7,"pct_sin_seguro":21,"pct_sus":61,"pct_seguro_privado":0,"brecha_seguro":7,"pct_salud_publica":20,"pct_med_tradicional":13,"pct_automedicacion":17,"pct_remedios_caseros":21,"pct_viv_desocupada":0,"pct_alquiler":20,"pct_electricidad":100,"pct_sin_electricidad":0,"pct_agua_red":60,"pct_alcantarillado":0,"pct_camara_septica":0,"pct_pozo_ciego":60,"pct_sin_desague":40,"pct_gas_red":0,"pct_gas_garrafa":100,"pct_lena_guano":0,"pct_basura_formal":60,"pct_basura_quema":40,"pct_basura_informal":0,"pct_internet":100,"pct_celular":100,"pct_televisor":80}},{"type":"Feature","geometry":{"type":"Polygon","coordinates":[[[-68.84735,-16.21456],[-68.84765,-16.21438],[-68.84764,-16.21431],[-68.84747,-16.21418],[-68.84713,-16.21417],[-68.84735,-16.21456]]]},"properties":{"n":"SAN PABLO DE TIQUINA","p":22,"personas_x_ha":144,"masculinidad":120,"pct_menor20":32,"pct_60mas":14,"pct_migrante":5,"dependencia_econ":69,"pct_empleados":0,"pct_cuentapropia":54,"pct_agricultura":8,"pct_comercio":38,"pct_manufactura":23,"pct_construccion":0,"pct_transporte":0,"pct_alojamiento":23,"pct_sin_educacion":0,"pct_educ_superior":0,"brecha_educ":-17,"pct_sin_seguro":5,"pct_sus":76,"pct_seguro_privado":14,"brecha_seguro":8,"pct_salud_publica":33,"pct_med_tradicional":4,"pct_automedicacion":8,"pct_remedios_caseros":41,"pct_viv_desocupada":0,"pct_alquiler":0,"pct_electricidad":100,"pct_sin_electricidad":0,"pct_agua_red":50,"pct_alcantarillado":83,"pct_camara_septica":0,"pct_pozo_ciego":17,"pct_sin_desague":0,"pct_gas_red":0,"pct_gas_garrafa":100,"pct_lena_guano":0,"pct_basura_formal":100,"pct_basura_quema":0,"pct_basura_informal":0,"pct_internet":67,"pct_celular":100,"pct_televisor":50}},{"type":"Feature","geometry":{"type":"Polygon","coordinates":[[[-68.84777,-16.2153],[-68.84735,-16.21466],[-68.84701,-16.2149],[-68.84743,-16.21552],[-68.84777,-16.2153]]]},"properties":{"n":"SAN PABLO DE TIQUINA","p":31,"personas_x_ha":84,"masculinidad":107,"pct_menor20":42,"pct_60mas":16,"pct_migrante":26,"dependencia_econ":182,"pct_empleados":45,"pct_cuentapropia":55,"pct_agricultura":0,"pct_comercio":18,"pct_manufactura":9,"pct_construccion":45,"pct_transporte":18,"pct_alojamiento":0,"pct_sin_educacion":5,"pct_educ_superior":0,"brecha_educ":7,"pct_sin_seguro":14,"pct_sus":86,"pct_seguro_privado":0,"brecha_seguro":-15,"pct_salud_publica":32,"pct_med_tradicional":17,"pct_automedicacion":16,"pct_remedios_caseros":24,"pct_viv_desocupada":18,"pct_alquiler":11,"pct_electricidad":78,"pct_sin_electricidad":0,"pct_agua_red":67,"pct_alcantarillado":0,"pct_camara_septica":11,"pct_pozo_ciego":11,"pct_sin_desague":56,"pct_gas_red":0,"pct_gas_garrafa":89,"pct_lena_guano":0,"pct_basura_formal":89,"pct_basura_quema":11,"pct_basura_informal":0,"pct_internet":56,"pct_celular":100,"pct_televisor":67}},{"type":"Feature","geometry":{"type":"Polygon","coordinates":[[[-68.83748,-16.21888],[-68.83775,-16.21945],[-68.83704,-16.21996],[-68.83702,-16.22011],[-68.83666,-16.22037],[-68.8363,-16.22034],[-68.83656,-16.21953],[-68.83748,-16.21888]]]},"properties":{"n":"SAN PABLO DE TIQUINA","p":30,"personas_x_ha":25,"masculinidad":150,"pct_menor20":7,"pct_60mas":0,"pct_migrante":10,"dependencia_econ":150,"pct_empleados":25,"pct_cuentapropia":17,"pct_agricultura":50,"pct_comercio":17,"pct_manufactura":17,"pct_construccion":0,"pct_transporte":0,"pct_alojamiento":0,"pct_sin_educacion":4,"pct_educ_superior":4,"brecha_educ":-31,"pct_sin_seguro":10,"pct_sus":80,"pct_seguro_privado":0,"brecha_seguro":-25,"pct_salud_publica":21,"pct_med_tradicional":23,"pct_automedicacion":6,"pct_remedios_caseros":25,"pct_viv_desocupada":0,"pct_alquiler":20,"pct_electricidad":100,"pct_sin_electricidad":0,"pct_agua_red":60,"pct_alcantarillado":0,"pct_camara_septica":20,"pct_pozo_ciego":80,"pct_sin_desague":0,"pct_gas_red":0,"pct_gas_garrafa":100,"pct_lena_guano":0,"pct_basura_formal":20,"pct_basura_quema":80,"pct_basura_informal":0,"pct_internet":60,"pct_celular":60,"pct_televisor":40}},{"type":"Feature","geometry":{"type":"Polygon","coordinates":[[[-68.84815,-16.21508],[-68.84771,-16.21445],[-68.8474,-16.21464],[-68.84782,-16.21528],[-68.84815,-16.21508]]]},"properties":{"n":"SAN PABLO DE TIQUINA","p":63,"personas_x_ha":184,"masculinidad":91,"pct_menor20":29,"pct_60mas":16,"pct_migrante":33,"dependencia_econ":62,"pct_empleados":18,"pct_cuentapropia":74,"pct_agricultura":8,"pct_comercio":26,"pct_manufactura":0,"pct_construccion":0,"pct_transporte":21,"pct_alojamiento":15,"pct_sin_educacion":9,"pct_educ_superior":29,"brecha_educ":-15,"pct_sin_seguro":8,"pct_sus":76,"pct_seguro_privado":0,"brecha_seguro":4,"pct_salud_publica":26,"pct_med_tradicional":15,"pct_automedicacion":17,"pct_remedios_caseros":22,"pct_viv_desocupada":4,"pct_alquiler":0,"pct_electricidad":100,"pct_sin_electricidad":0,"pct_agua_red":100,"pct_alcantarillado":14,"pct_camara_septica":24,"pct_pozo_ciego":33,"pct_sin_desague":14,"pct_gas_red":0,"pct_gas_garrafa":100,"pct_lena_guano":0,"pct_basura_formal":90,"pct_basura_quema":10,"pct_basura_informal":0,"pct_internet":86,"pct_celular":95,"pct_televisor":86}},{"type":"Feature","geometry":{"type":"Polygon","coordinates":[[[-68.83626,-16.22023],[-68.83592,-16.22025],[-68.8357,-16.21953],[-68.83641,-16.21902],[-68.83664,-16.21924],[-68.83636,-16.2198],[-68.83626,-16.22023]]]},"properties":{"n":"SAN PABLO DE TIQUINA","p":31,"personas_x_ha":41,"masculinidad":107,"pct_menor20":23,"pct_60mas":13,"pct_migrante":19,"dependencia_econ":138,"pct_empleados":15,"pct_cuentapropia":62,"pct_agricultura":31,"pct_comercio":8,"pct_manufactura":0,"pct_construccion":8,"pct_transporte":38,"pct_alojamiento":0,"pct_sin_educacion":16,"pct_educ_superior":8,"brecha_educ":-22,"pct_sin_seguro":14,"pct_sus":86,"pct_seguro_privado":0,"brecha_seguro":2,"pct_salud_publica":35,"pct_med_tradicional":14,"pct_automedicacion":14,"pct_remedios_caseros":31,"pct_viv_desocupada":25,"pct_alquiler":0,"pct_electricidad":89,"pct_sin_electricidad":11,"pct_agua_red":78,"pct_alcantarillado":0,"pct_camara_septica":0,"pct_pozo_ciego":89,"pct_sin_desague":11,"pct_gas_red":0,"pct_gas_garrafa":78,"pct_lena_guano":22,"pct_basura_formal":0,"pct_basura_quema":78,"pct_basura_informal":22,"pct_internet":56,"pct_celular":100,"pct_televisor":89}},{"type":"Feature","geometry":{"type":"Polygon","coordinates":[[[-68.84879,-16.21369],[-68.84941,-16.21348],[-68.84917,-16.21278],[-68.84856,-16.21295],[-68.84879,-16.21369]]]},"properties":{"n":"SAN PABLO DE TIQUINA","p":27,"personas_x_ha":47,"masculinidad":200,"pct_menor20":44,"pct_60mas":15,"pct_migrante":41,"dependencia_econ":136,"pct_empleados":36,"pct_cuentapropia":45,"pct_agricultura":18,"pct_comercio":18,"pct_manufactura":18,"pct_construccion":18,"pct_transporte":18,"pct_alojamiento":0,"pct_sin_educacion":6,"pct_educ_superior":12,"brecha_educ":-50,"pct_sin_seguro":12,"pct_sus":77,"pct_seguro_privado":0,"brecha_seguro":-1,"pct_salud_publica":29,"pct_med_tradicional":21,"pct_automedicacion":21,"pct_remedios_caseros":24,"pct_viv_desocupada":0,"pct_alquiler":0,"pct_electricidad":86,"pct_sin_electricidad":14,"pct_agua_red":57,"pct_alcantarillado":0,"pct_camara_septica":0,"pct_pozo_ciego":0,"pct_sin_desague":100,"pct_gas_red":0,"pct_gas_garrafa":100,"pct_lena_guano":0,"pct_basura_formal":29,"pct_basura_quema":71,"pct_basura_informal":0,"pct_internet":57,"pct_celular":86,"pct_televisor":71}},{"type":"Feature","geometry":{"type":"Polygon","coordinates":[[[-68.84937,-16.21519],[-68.84918,-16.21501],[-68.84884,-16.21409],[-68.84946,-16.21383],[-68.84974,-16.21466],[-68.84942,-16.2148],[-68.84945,-16.21498],[-68.84937,-16.21519]]]},"properties":{"n":"SAN PABLO DE TIQUINA","p":17,"personas_x_ha":21,"masculinidad":89,"pct_menor20":24,"pct_60mas":18,"pct_migrante":12,"dependencia_econ":42,"pct_empleados":8,"pct_cuentapropia":92,"pct_agricultura":8,"pct_comercio":33,"pct_manufactura":0,"pct_construccion":8,"pct_transporte":17,"pct_alojamiento":17,"pct_sin_educacion":8,"pct_educ_superior":0,"brecha_educ":-29,"pct_sin_seguro":12,"pct_sus":65,"pct_seguro_privado":12,"brecha_seguro":1,"pct_salud_publica":21,"pct_med_tradicional":21,"pct_automedicacion":20,"pct_remedios_caseros":21,"pct_viv_desocupada":0,"pct_alquiler":0,"pct_electricidad":100,"pct_sin_electricidad":0,"pct_agua_red":100,"pct_alcantarillado":17,"pct_camara_septica":0,"pct_pozo_ciego":17,"pct_sin_desague":67,"pct_gas_red":0,"pct_gas_garrafa":100,"pct_lena_guano":0,"pct_basura_formal":67,"pct_basura_quema":33,"pct_basura_informal":0,"pct_internet":100,"pct_celular":100,"pct_televisor":100}},{"type":"Feature","geometry":{"type":"Polygon","coordinates":[[[-68.8484,-16.21411],[-68.84819,-16.21363],[-68.84759,-16.21393],[-68.84783,-16.21432],[-68.84802,-16.21425],[-68.84792,-16.2141],[-68.84804,-16.21424],[-68.8484,-16.21411]]]},"properties":{"n":"SAN PABLO DE TIQUINA","p":74,"personas_x_ha":202,"masculinidad":124,"pct_menor20":23,"pct_60mas":22,"pct_migrante":22,"dependencia_econ":147,"pct_empleados":10,"pct_cuentapropia":53,"pct_agricultura":27,"pct_comercio":10,"pct_manufactura":13,"pct_construccion":0,"pct_transporte":3,"pct_alojamiento":17,"pct_sin_educacion":3,"pct_educ_superior":17,"brecha_educ":-21,"pct_sin_seguro":4,"pct_sus":83,"pct_seguro_privado":1,"brecha_seguro":2,"pct_salud_publica":24,"pct_med_tradicional":18,"pct_automedicacion":14,"pct_remedios_caseros":22,"pct_viv_desocupada":0,"pct_alquiler":8,"pct_electricidad":88,"pct_sin_electricidad":12,"pct_agua_red":71,"pct_alcantarillado":0,"pct_camara_septica":12,"pct_pozo_ciego":25,"pct_sin_desague":58,"pct_gas_red":0,"pct_gas_garrafa":88,"pct_lena_guano":0,"pct_basura_formal":100,"pct_basura_quema":0,"pct_basura_informal":0,"pct_internet":75,"pct_celular":83,"pct_televisor":50}},{"type":"Feature","geometry":{"type":"Polygon","coordinates":[[[-68.84142,-16.21736],[-68.8414,-16.21723],[-68.84116,-16.21721],[-68.8413,-16.21708],[-68.84042,-16.21731],[-68.84009,-16.21772],[-68.8402,-16.21804],[-68.84043,-16.21799],[-68.84033,-16.21781],[-68.84045,-16.21798],[-68.84119,-16.21769],[-68.84166,-16.21764],[-68.84204,-16.21747],[-68.84256,-16.21754],[-68.84301,-16.21729],[-68.84248,-16.21734],[-68.84214,-16.21684],[-68.84202,-16.21682],[-68.84119,-16.21719],[-68.84141,-16.21722],[-68.84142,-16.21736]]]},"properties":{"n":"SAN PABLO DE TIQUINA","p":62,"personas_x_ha":35,"masculinidad":170,"pct_menor20":5,"pct_60mas":6,"pct_migrante":19,"dependencia_econ":41,"pct_empleados":14,"pct_cuentapropia":30,"pct_agricultura":50,"pct_comercio":11,"pct_manufactura":0,"pct_construccion":14,"pct_transporte":2,"pct_alojamiento":2,"pct_sin_educacion":3,"pct_educ_superior":10,"brecha_educ":-33,"pct_sin_seguro":3,"pct_sus":91,"pct_seguro_privado":2,"brecha_seguro":5,"pct_salud_publica":28,"pct_med_tradicional":21,"pct_automedicacion":10,"pct_remedios_caseros":26,"pct_viv_desocupada":0,"pct_alquiler":11,"pct_electricidad":67,"pct_sin_electricidad":33,"pct_agua_red":56,"pct_alcantarillado":0,"pct_camara_septica":0,"pct_pozo_ciego":22,"pct_sin_desague":78,"pct_gas_red":0,"pct_gas_garrafa":33,"pct_lena_guano":67,"pct_basura_formal":22,"pct_basura_quema":56,"pct_basura_informal":11,"pct_internet":22,"pct_celular":56,"pct_televisor":33}},{"type":"Feature","geometry":{"type":"Polygon","coordinates":[[[-68.84562,-16.21682],[-68.84518,-16.21633],[-68.8443,-16.21678],[-68.84452,-16.21718],[-68.84463,-16.21712],[-68.84453,-16.21719],[-68.84475,-16.21751],[-68.84562,-16.21682]]]},"properties":{"n":"SAN PABLO DE TIQUINA","p":103,"personas_x_ha":109,"masculinidad":84,"pct_menor20":42,"pct_60mas":14,"pct_migrante":41,"dependencia_econ":134,"pct_empleados":16,"pct_cuentapropia":52,"pct_agricultura":2,"pct_comercio":20,"pct_manufactura":11,"pct_construccion":5,"pct_transporte":20,"pct_alojamiento":34,"pct_sin_educacion":10,"pct_educ_superior":10,"brecha_educ":-18,"pct_sin_seguro":0,"pct_sus":91,"pct_seguro_privado":1,"brecha_seguro":0,"pct_salud_publica":41,"pct_med_tradicional":13,"pct_automedicacion":15,"pct_remedios_caseros":17,"pct_viv_desocupada":0,"pct_alquiler":0,"pct_electricidad":88,"pct_sin_electricidad":8,"pct_agua_red":83,"pct_alcantarillado":4,"pct_camara_septica":12,"pct_pozo_ciego":38,"pct_sin_desague":46,"pct_gas_red":0,"pct_gas_garrafa":92,"pct_lena_guano":8,"pct_basura_formal":71,"pct_basura_quema":29,"pct_basura_informal":0,"pct_internet":58,"pct_celular":79,"pct_televisor":88}},{"type":"Feature","geometry":{"type":"Polygon","coordinates":[[[-68.84618,-16.21559],[-68.84584,-16.21532],[-68.84668,-16.21457],[-68.84692,-16.21487],[-68.84618,-16.21559]]]},"properties":{"n":"SAN PABLO DE TIQUINA","p":49,"personas_x_ha":94,"masculinidad":96,"pct_menor20":29,"pct_60mas":14,"pct_migrante":18,"dependencia_econ":88,"pct_empleados":15,"pct_cuentapropia":54,"pct_agricultura":23,"pct_comercio":19,"pct_manufactura":0,"pct_construccion":4,"pct_transporte":15,"pct_alojamiento":8,"pct_sin_educacion":3,"pct_educ_superior":51,"brecha_educ":-27,"pct_sin_seguro":2,"pct_sus":78,"pct_seguro_privado":0,"brecha_seguro":4,"pct_salud_publica":31,"pct_med_tradicional":10,"pct_automedicacion":15,"pct_remedios_caseros":27,"pct_viv_desocupada":0,"pct_alquiler":0,"pct_electricidad":100,"pct_sin_electricidad":0,"pct_agua_red":92,"pct_alcantarillado":15,"pct_camara_septica":0,"pct_pozo_ciego":31,"pct_sin_desague":54,"pct_gas_red":0,"pct_gas_garrafa":100,"pct_lena_guano":0,"pct_basura_formal":54,"pct_basura_quema":46,"pct_basura_informal":0,"pct_internet":77,"pct_celular":100,"pct_televisor":100}},{"type":"Feature","geometry":{"type":"Polygon","coordinates":[[[-68.84731,-16.21458],[-68.84706,-16.21421],[-68.84676,-16.21449],[-68.84697,-16.2148],[-68.84731,-16.21458]]]},"properties":{"n":"SAN PABLO DE TIQUINA","p":20,"personas_x_ha":99,"masculinidad":82,"pct_menor20":25,"pct_60mas":30,"pct_migrante":25,"dependencia_econ":67,"pct_empleados":17,"pct_cuentapropia":83,"pct_agricultura":0,"pct_comercio":17,"pct_manufactura":33,"pct_construccion":8,"pct_transporte":17,"pct_alojamiento":17,"pct_sin_educacion":7,"pct_educ_superior":27,"brecha_educ":-23,"pct_sin_seguro":45,"pct_sus":35,"pct_seguro_privado":0,"brecha_seguro":-21,"pct_salud_publica":22,"pct_med_tradicional":22,"pct_automedicacion":22,"pct_remedios_caseros":22,"pct_viv_desocupada":11,"pct_alquiler":0,"pct_electricidad":88,"pct_sin_electricidad":12,"pct_agua_red":75,"pct_alcantarillado":0,"pct_camara_septica":0,"pct_pozo_ciego":50,"pct_sin_desague":50,"pct_gas_red":0,"pct_gas_garrafa":100,"pct_lena_guano":0,"pct_basura_formal":62,"pct_basura_quema":25,"pct_basura_informal":0,"pct_internet":62,"pct_celular":88,"pct_televisor":75}},{"type":"Feature","geometry":{"type":"Polygon","coordinates":[[[-68.84917,-16.21507],[-68.849,-16.21514],[-68.84911,-16.21538],[-68.84936,-16.21524],[-68.84917,-16.21507]]]},"properties":{"n":"SAN PABLO DE TIQUINA","p":28,"personas_x_ha":385,"masculinidad":300,"pct_menor20":29,"pct_60mas":11,"pct_migrante":18,"dependencia_econ":87,"pct_empleados":27,"pct_cuentapropia":53,"pct_agricultura":0,"pct_comercio":7,"pct_manufactura":13,"pct_construccion":0,"pct_transporte":40,"pct_alojamiento":13,"pct_sin_educacion":14,"pct_educ_superior":23,"brecha_educ":-22,"pct_sin_seguro":7,"pct_sus":89,"pct_seguro_privado":0,"brecha_seguro":10,"pct_salud_publica":23,"pct_med_tradicional":16,"pct_automedicacion":16,"pct_remedios_caseros":22,"pct_viv_desocupada":0,"pct_alquiler":0,"pct_electricidad":100,"pct_sin_electricidad":0,"pct_agua_red":86,"pct_alcantarillado":14,"pct_camara_septica":0,"pct_pozo_ciego":71,"pct_sin_desague":14,"pct_gas_red":0,"pct_gas_garrafa":86,"pct_lena_guano":0,"pct_basura_formal":71,"pct_basura_quema":14,"pct_basura_informal":14,"pct_internet":86,"pct_celular":71,"pct_televisor":71}},{"type":"Feature","geometry":{"type":"Polygon","coordinates":[[[-68.84885,-16.21396],[-68.84882,-16.21385],[-68.8489,-16.21382],[-68.84882,-16.21384],[-68.8488,-16.21374],[-68.84936,-16.21357],[-68.84944,-16.21378],[-68.84885,-16.21396]]]},"properties":{"n":"SAN PABLO DE TIQUINA","p":19,"personas_x_ha":119,"masculinidad":217,"pct_menor20":37,"pct_60mas":5,"pct_migrante":26,"dependencia_econ":100,"pct_empleados":22,"pct_cuentapropia":33,"pct_agricultura":11,"pct_comercio":0,"pct_manufactura":22,"pct_construccion":22,"pct_transporte":0,"pct_alojamiento":0,"pct_sin_educacion":0,"pct_educ_superior":27,"brecha_educ":0,"pct_sin_seguro":20,"pct_sus":80,"pct_seguro_privado":0,"brecha_seguro":33,"pct_salud_publica":25,"pct_med_tradicional":15,"pct_automedicacion":13,"pct_remedios_caseros":15,"pct_viv_desocupada":0,"pct_alquiler":25,"pct_electricidad":100,"pct_sin_electricidad":0,"pct_agua_red":75,"pct_alcantarillado":25,"pct_camara_septica":25,"pct_pozo_ciego":38,"pct_sin_desague":12,"pct_gas_red":0,"pct_gas_garrafa":88,"pct_lena_guano":0,"pct_basura_formal":75,"pct_basura_quema":25,"pct_basura_informal":0,"pct_internet":38,"pct_celular":88,"pct_televisor":75}},{"type":"Feature","geometry":{"type":"Polygon","coordinates":[[[-68.84321,-16.21792],[-68.84298,-16.21742],[-68.84312,-16.21726],[-68.84422,-16.21681],[-68.84453,-16.21732],[-68.84321,-16.21792]]]},"properties":{"n":"SAN PABLO DE TIQUINA","p":51,"personas_x_ha":50,"masculinidad":112,"pct_menor20":39,"pct_60mas":12,"pct_migrante":31,"dependencia_econ":85,"pct_empleados":41,"pct_cuentapropia":37,"pct_agricultura":19,"pct_comercio":7,"pct_manufactura":4,"pct_construccion":0,"pct_transporte":11,"pct_alojamiento":7,"pct_sin_educacion":6,"pct_educ_superior":34,"brecha_educ":-10,"pct_sin_seguro":4,"pct_sus":83,"pct_seguro_privado":0,"brecha_seguro":8,"pct_salud_publica":34,"pct_med_tradicional":14,"pct_automedicacion":5,"pct_remedios_caseros":26,"pct_viv_desocupada":8,"pct_alquiler":0,"pct_electricidad":91,"pct_sin_electricidad":9,"pct_agua_red":82,"pct_alcantarillado":9,"pct_camara_septica":0,"pct_pozo_ciego":55,"pct_sin_desague":27,"pct_gas_red":0,"pct_gas_garrafa":91,"pct_lena_guano":9,"pct_basura_formal":9,"pct_basura_quema":82,"pct_basura_informal":0,"pct_internet":64,"pct_celular":91,"pct_televisor":64}},{"type":"Feature","geometry":{"type":"Polygon","coordinates":[[[-68.8434,-16.21825],[-68.84324,-16.21797],[-68.84457,-16.2174],[-68.84468,-16.21758],[-68.8434,-16.21825]]]},"properties":{"n":"SAN PABLO DE TIQUINA","p":26,"personas_x_ha":54,"masculinidad":53,"pct_menor20":27,"pct_60mas":31,"pct_migrante":27,"dependencia_econ":44,"pct_empleados":22,"pct_cuentapropia":56,"pct_agricultura":28,"pct_comercio":11,"pct_manufactura":0,"pct_construccion":0,"pct_transporte":11,"pct_alojamiento":28,"pct_sin_educacion":16,"pct_educ_superior":53,"brecha_educ":-24,"pct_sin_seguro":0,"pct_sus":96,"pct_seguro_privado":0,"brecha_seguro":0,"pct_salud_publica":38,"pct_med_tradicional":12,"pct_automedicacion":16,"pct_remedios_caseros":21,"pct_viv_desocupada":0,"pct_alquiler":0,"pct_electricidad":88,"pct_sin_electricidad":12,"pct_agua_red":75,"pct_alcantarillado":12,"pct_camara_septica":0,"pct_pozo_ciego":38,"pct_sin_desague":50,"pct_gas_red":0,"pct_gas_garrafa":100,"pct_lena_guano":0,"pct_basura_formal":50,"pct_basura_quema":50,"pct_basura_informal":0,"pct_internet":25,"pct_celular":88,"pct_televisor":88}},{"type":"Feature","geometry":{"type":"Polygon","coordinates":[[[-68.84752,-16.21385],[-68.84722,-16.21334],[-68.8478,-16.21316],[-68.84803,-16.21361],[-68.84752,-16.21385]]]},"properties":{"n":"SAN PABLO DE TIQUINA","p":18,"personas_x_ha":48,"masculinidad":100,"pct_menor20":22,"pct_60mas":11,"pct_migrante":6,"dependencia_econ":29,"pct_empleados":36,"pct_cuentapropia":50,"pct_agricultura":21,"pct_comercio":14,"pct_manufactura":7,"pct_construccion":0,"pct_transporte":14,"pct_alojamiento":7,"pct_sin_educacion":14,"pct_educ_superior":7,"brecha_educ":-54,"pct_sin_seguro":0,"pct_sus":83,"pct_seguro_privado":0,"brecha_seguro":0,"pct_salud_publica":25,"pct_med_tradicional":18,"pct_automedicacion":22,"pct_remedios_caseros":25,"pct_viv_desocupada":12,"pct_alquiler":0,"pct_electricidad":100,"pct_sin_electricidad":0,"pct_agua_red":100,"pct_alcantarillado":29,"pct_camara_septica":0,"pct_pozo_ciego":29,"pct_sin_desague":43,"pct_gas_red":0,"pct_gas_garrafa":100,"pct_lena_guano":0,"pct_basura_formal":14,"pct_basura_quema":86,"pct_basura_informal":0,"pct_internet":57,"pct_celular":71,"pct_televisor":71}},{"type":"Feature","geometry":{"type":"Polygon","coordinates":[[[-68.84861,-16.21225],[-68.84871,-16.21221],[-68.8489,-16.2128],[-68.84855,-16.2129],[-68.84847,-16.21265],[-68.84861,-16.21225]]]},"properties":{"n":"SAN PABLO DE TIQUINA","p":29,"personas_x_ha":130,"masculinidad":190,"pct_menor20":38,"pct_60mas":3,"pct_migrante":34,"dependencia_econ":123,"pct_empleados":8,"pct_cuentapropia":85,"pct_agricultura":0,"pct_comercio":0,"pct_manufactura":46,"pct_construccion":23,"pct_transporte":0,"pct_alojamiento":15,"pct_sin_educacion":0,"pct_educ_superior":22,"brecha_educ":0,"pct_sin_seguro":7,"pct_sus":90,"pct_seguro_privado":0,"brecha_seguro":11,"pct_salud_publica":72,"pct_med_tradicional":3,"pct_automedicacion":11,"pct_remedios_caseros":3,"pct_viv_desocupada":0,"pct_alquiler":17,"pct_electricidad":83,"pct_sin_electricidad":17,"pct_agua_red":50,"pct_alcantarillado":17,"pct_camara_septica":0,"pct_pozo_ciego":33,"pct_sin_desague":50,"pct_gas_red":0,"pct_gas_garrafa":83,"pct_lena_guano":0,"pct_basura_formal":33,"pct_basura_quema":50,"pct_basura_informal":17,"pct_internet":67,"pct_celular":83,"pct_televisor":83}},{"type":"Feature","geometry":{"type":"Polygon","coordinates":[[[-68.84416,-16.21676],[-68.84385,-16.21623],[-68.84332,-16.2164],[-68.84341,-16.21657],[-68.84329,-16.2164],[-68.84228,-16.21652],[-68.84224,-16.21681],[-68.84247,-16.21724],[-68.84259,-16.21726],[-68.84281,-16.21719],[-68.84275,-16.21701],[-68.84284,-16.21718],[-68.84301,-16.21718],[-68.84365,-16.21697],[-68.84356,-16.21679],[-68.8438,-16.21664],[-68.8436,-16.21681],[-68.84368,-16.21696],[-68.84416,-16.21676]]]},"properties":{"n":"SAN PABLO DE TIQUINA","p":44,"personas_x_ha":32,"masculinidad":91,"pct_menor20":32,"pct_60mas":18,"pct_migrante":34,"dependencia_econ":76,"pct_empleados":12,"pct_cuentapropia":52,"pct_agricultura":28,"pct_comercio":24,"pct_manufactura":0,"pct_construccion":8,"pct_transporte":12,"pct_alojamiento":4,"pct_sin_educacion":10,"pct_educ_superior":17,"brecha_educ":-10,"pct_sin_seguro":14,"pct_sus":66,"pct_seguro_privado":2,"brecha_seguro":1,"pct_salud_publica":33,"pct_med_tradicional":15,"pct_automedicacion":17,"pct_remedios_caseros":20,"pct_viv_desocupada":13,"pct_alquiler":0,"pct_electricidad":85,"pct_sin_electricidad":15,"pct_agua_red":31,"pct_alcantarillado":0,"pct_camara_septica":0,"pct_pozo_ciego":8,"pct_sin_desague":85,"pct_gas_red":0,"pct_gas_garrafa":85,"pct_lena_guano":8,"pct_basura_formal":38,"pct_basura_quema":46,"pct_basura_informal":8,"pct_internet":46,"pct_celular":85,"pct_televisor":62}},{"type":"Feature","geometry":{"type":"Polygon","coordinates":[[[-68.84202,-16.21759],[-68.84117,-16.21777],[-68.84087,-16.21793],[-68.84042,-16.21833],[-68.84048,-16.21852],[-68.84073,-16.21847],[-68.84086,-16.21894],[-68.84219,-16.21879],[-68.84202,-16.21759]]]},"properties":{"n":"SAN PABLO DE TIQUINA","p":21,"personas_x_ha":11,"masculinidad":133,"pct_menor20":19,"pct_60mas":24,"pct_migrante":14,"dependencia_econ":46,"pct_empleados":31,"pct_cuentapropia":38,"pct_agricultura":23,"pct_comercio":8,"pct_manufactura":23,"pct_construccion":0,"pct_transporte":8,"pct_alojamiento":0,"pct_sin_educacion":6,"pct_educ_superior":6,"brecha_educ":-12,"pct_sin_seguro":19,"pct_sus":50,"pct_seguro_privado":0,"brecha_seguro":-50,"pct_salud_publica":27,"pct_med_tradicional":20,"pct_automedicacion":20,"pct_remedios_caseros":21,"pct_viv_desocupada":0,"pct_alquiler":9,"pct_electricidad":45,"pct_sin_electricidad":55,"pct_agua_red":64,"pct_alcantarillado":0,"pct_camara_septica":0,"pct_pozo_ciego":27,"pct_sin_desague":73,"pct_gas_red":0,"pct_gas_garrafa":100,"pct_lena_guano":0,"pct_basura_formal":9,"pct_basura_quema":91,"pct_basura_informal":0,"pct_internet":45,"pct_celular":82,"pct_televisor":64}},{"type":"Feature","geometry":{"type":"Polygon","coordinates":[[[-68.84395,-16.21623],[-68.84424,-16.21671],[-68.84512,-16.21628],[-68.84481,-16.21588],[-68.84395,-16.21623]]]},"properties":{"n":"SAN PABLO DE TIQUINA","p":45,"personas_x_ha":76,"masculinidad":114,"pct_menor20":38,"pct_60mas":20,"pct_migrante":38,"dependencia_econ":88,"pct_empleados":42,"pct_cuentapropia":54,"pct_agricultura":0,"pct_comercio":8,"pct_manufactura":25,"pct_construccion":4,"pct_transporte":12,"pct_alojamiento":0,"pct_sin_educacion":0,"pct_educ_superior":48,"brecha_educ":-16,"pct_sin_seguro":9,"pct_sus":50,"pct_seguro_privado":18,"brecha_seguro":-11,"pct_salud_publica":16,"pct_med_tradicional":12,"pct_automedicacion":18,"pct_remedios_caseros":19,"pct_viv_desocupada":0,"pct_alquiler":0,"pct_electricidad":85,"pct_sin_electricidad":15,"pct_agua_red":54,"pct_alcantarillado":8,"pct_camara_septica":0,"pct_pozo_ciego":38,"pct_sin_desague":23,"pct_gas_red":0,"pct_gas_garrafa":92,"pct_lena_guano":8,"pct_basura_formal":8,"pct_basura_quema":92,"pct_basura_informal":0,"pct_internet":31,"pct_celular":77,"pct_televisor":46}},{"type":"Feature","geometry":{"type":"Polygon","coordinates":[[[-68.8457,-16.21513],[-68.84606,-16.21427],[-68.84623,-16.21416],[-68.84654,-16.21362],[-68.84712,-16.21334],[-68.84743,-16.21393],[-68.847,-16.21409],[-68.84578,-16.21519],[-68.8457,-16.21513]]]},"properties":{"n":"SAN PABLO DE TIQUINA","p":78,"personas_x_ha":61,"masculinidad":95,"pct_menor20":42,"pct_60mas":5,"pct_migrante":38,"dependencia_econ":103,"pct_empleados":3,"pct_cuentapropia":51,"pct_agricultura":22,"pct_comercio":16,"pct_manufactura":8,"pct_construccion":8,"pct_transporte":14,"pct_alojamiento":14,"pct_sin_educacion":5,"pct_educ_superior":19,"brecha_educ":-22,"pct_sin_seguro":7,"pct_sus":76,"pct_seguro_privado":0,"brecha_seguro":-7,"pct_salud_publica":40,"pct_med_tradicional":12,"pct_automedicacion":13,"pct_remedios_caseros":19,"pct_viv_desocupada":0,"pct_alquiler":10,"pct_electricidad":80,"pct_sin_electricidad":20,"pct_agua_red":60,"pct_alcantarillado":10,"pct_camara_septica":10,"pct_pozo_ciego":20,"pct_sin_desague":55,"pct_gas_red":0,"pct_gas_garrafa":95,"pct_lena_guano":0,"pct_basura_formal":45,"pct_basura_quema":45,"pct_basura_informal":5,"pct_internet":80,"pct_celular":90,"pct_televisor":75}},{"type":"Feature","geometry":{"type":"Polygon","coordinates":[[[-68.84617,-16.21567],[-68.84579,-16.21537],[-68.84559,-16.21554],[-68.84488,-16.21585],[-68.8452,-16.21626],[-68.84589,-16.21599],[-68.84617,-16.21567]]]},"properties":{"n":"SAN PABLO DE TIQUINA","p":63,"personas_x_ha":91,"masculinidad":70,"pct_menor20":37,"pct_60mas":14,"pct_migrante":40,"dependencia_econ":75,"pct_empleados":17,"pct_cuentapropia":56,"pct_agricultura":17,"pct_comercio":14,"pct_manufactura":11,"pct_construccion":3,"pct_transporte":19,"pct_alojamiento":6,"pct_sin_educacion":7,"pct_educ_superior":24,"brecha_educ":-15,"pct_sin_seguro":11,"pct_sus":60,"pct_seguro_privado":13,"brecha_seguro":14,"pct_salud_publica":35,"pct_med_tradicional":11,"pct_automedicacion":10,"pct_remedios_caseros":19,"pct_viv_desocupada":0,"pct_alquiler":6,"pct_electricidad":75,"pct_sin_electricidad":25,"pct_agua_red":50,"pct_alcantarillado":0,"pct_camara_septica":0,"pct_pozo_ciego":31,"pct_sin_desague":69,"pct_gas_red":0,"pct_gas_garrafa":94,"pct_lena_guano":6,"pct_basura_formal":44,"pct_basura_quema":44,"pct_basura_informal":12,"pct_internet":50,"pct_celular":88,"pct_televisor":75}},{"type":"Feature","geometry":{"type":"Polygon","coordinates":[[[-68.84283,-16.21815],[-68.84316,-16.21796],[-68.84292,-16.21744],[-68.84247,-16.21765],[-68.84232,-16.21761],[-68.84231,-16.21772],[-68.84244,-16.21789],[-68.84229,-16.21773],[-68.8423,-16.2176],[-68.84212,-16.21759],[-68.84221,-16.21818],[-68.8428,-16.21815],[-68.84266,-16.21773],[-68.84283,-16.21815]]]},"properties":{"n":"SAN PABLO DE TIQUINA","p":45,"personas_x_ha":73,"masculinidad":88,"pct_menor20":36,"pct_60mas":18,"pct_migrante":36,"dependencia_econ":88,"pct_empleados":4,"pct_cuentapropia":67,"pct_agricultura":29,"pct_comercio":17,"pct_manufactura":4,"pct_construccion":8,"pct_transporte":17,"pct_alojamiento":12,"pct_sin_educacion":17,"pct_educ_superior":7,"brecha_educ":-36,"pct_sin_seguro":22,"pct_sus":76,"pct_seguro_privado":2,"brecha_seguro":3,"pct_salud_publica":24,"pct_med_tradicional":18,"pct_automedicacion":23,"pct_remedios_caseros":23,"pct_viv_desocupada":0,"pct_alquiler":0,"pct_electricidad":57,"pct_sin_electricidad":43,"pct_agua_red":50,"pct_alcantarillado":0,"pct_camara_septica":0,"pct_pozo_ciego":14,"pct_sin_desague":86,"pct_gas_red":0,"pct_gas_garrafa":86,"pct_lena_guano":7,"pct_basura_formal":57,"pct_basura_quema":43,"pct_basura_informal":0,"pct_internet":64,"pct_celular":86,"pct_televisor":57}},{"type":"Feature","geometry":{"type":"Polygon","coordinates":[[[-68.83777,-16.21954],[-68.83812,-16.22019],[-68.83756,-16.22057],[-68.83647,-16.22172],[-68.83611,-16.22173],[-68.83616,-16.22095],[-68.83555,-16.22044],[-68.83621,-16.22034],[-68.83668,-16.22042],[-68.8371,-16.22014],[-68.83711,-16.22],[-68.83767,-16.21961],[-68.8373,-16.22005],[-68.83736,-16.2202],[-68.83731,-16.22005],[-68.83777,-16.21954]]]},"properties":{"n":"SAN PABLO DE TIQUINA","p":20,"personas_x_ha":8,"masculinidad":186,"pct_menor20":20,"pct_60mas":30,"pct_migrante":30,"dependencia_econ":54,"pct_empleados":8,"pct_cuentapropia":85,"pct_agricultura":23,"pct_comercio":62,"pct_manufactura":8,"pct_construccion":0,"pct_transporte":8,"pct_alojamiento":0,"pct_sin_educacion":12,"pct_educ_superior":29,"brecha_educ":-23,"pct_sin_seguro":0,"pct_sus":89,"pct_seguro_privado":0,"brecha_seguro":0,"pct_salud_publica":25,"pct_med_tradicional":23,"pct_automedicacion":25,"pct_remedios_caseros":25,"pct_viv_desocupada":20,"pct_alquiler":0,"pct_electricidad":100,"pct_sin_electricidad":0,"pct_agua_red":0,"pct_alcantarillado":0,"pct_camara_septica":0,"pct_pozo_ciego":88,"pct_sin_desague":12,"pct_gas_red":0,"pct_gas_garrafa":100,"pct_lena_guano":0,"pct_basura_formal":0,"pct_basura_quema":100,"pct_basura_informal":0,"pct_internet":75,"pct_celular":75,"pct_televisor":75}},{"type":"Feature","geometry":{"type":"Polygon","coordinates":[[[-68.8361,-16.22097],[-68.83522,-16.22032],[-68.83493,-16.22025],[-68.83442,-16.22181],[-68.83509,-16.22204],[-68.83592,-16.2225],[-68.8361,-16.22234],[-68.83651,-16.22233],[-68.83644,-16.2218],[-68.83605,-16.22181],[-68.8361,-16.22097]]]},"properties":{"n":"SAN PABLO DE TIQUINA","p":34,"personas_x_ha":11,"masculinidad":127,"pct_menor20":12,"pct_60mas":3,"pct_migrante":12,"dependencia_econ":10,"pct_empleados":16,"pct_cuentapropia":39,"pct_agricultura":74,"pct_comercio":0,"pct_manufactura":0,"pct_construccion":3,"pct_transporte":10,"pct_alojamiento":3,"pct_sin_educacion":3,"pct_educ_superior":20,"brecha_educ":-14,"pct_sin_seguro":25,"pct_sus":72,"pct_seguro_privado":0,"brecha_seguro":-3,"pct_salud_publica":29,"pct_med_tradicional":22,"pct_automedicacion":15,"pct_remedios_caseros":28,"pct_viv_desocupada":0,"pct_alquiler":0,"pct_electricidad":86,"pct_sin_electricidad":14,"pct_agua_red":57,"pct_alcantarillado":0,"pct_camara_septica":14,"pct_pozo_ciego":57,"pct_sin_desague":29,"pct_gas_red":0,"pct_gas_garrafa":100,"pct_lena_guano":0,"pct_basura_formal":14,"pct_basura_quema":86,"pct_basura_informal":0,"pct_internet":71,"pct_celular":71,"pct_televisor":71}},{"type":"Feature","geometry":{"type":"Polygon","coordinates":[[[-68.8458,-16.21612],[-68.8462,-16.21577],[-68.84657,-16.21608],[-68.84604,-16.21647],[-68.84591,-16.21634],[-68.84603,-16.21648],[-68.84569,-16.21675],[-68.84526,-16.2163],[-68.8458,-16.21612]]]},"properties":{"n":"SAN PABLO DE TIQUINA","p":48,"personas_x_ha":79,"masculinidad":100,"pct_menor20":31,"pct_60mas":12,"pct_migrante":17,"dependencia_econ":66,"pct_empleados":17,"pct_cuentapropia":41,"pct_agricultura":14,"pct_comercio":17,"pct_manufactura":7,"pct_construccion":3,"pct_transporte":17,"pct_alojamiento":14,"pct_sin_educacion":3,"pct_educ_superior":30,"brecha_educ":-14,"pct_sin_seguro":5,"pct_sus":59,"pct_seguro_privado":5,"brecha_seguro":0,"pct_salud_publica":41,"pct_med_tradicional":4,"pct_automedicacion":14,"pct_remedios_caseros":18,"pct_viv_desocupada":0,"pct_alquiler":0,"pct_electricidad":78,"pct_sin_electricidad":11,"pct_agua_red":67,"pct_alcantarillado":11,"pct_camara_septica":6,"pct_pozo_ciego":44,"pct_sin_desague":39,"pct_gas_red":0,"pct_gas_garrafa":89,"pct_lena_guano":6,"pct_basura_formal":72,"pct_basura_quema":17,"pct_basura_informal":0,"pct_internet":22,"pct_celular":67,"pct_televisor":50}},{"type":"Feature","geometry":{"type":"Polygon","coordinates":[[[-68.84555,-16.21529],[-68.84531,-16.21545],[-68.84512,-16.21526],[-68.84521,-16.21514],[-68.8451,-16.21526],[-68.8453,-16.21546],[-68.84492,-16.21563],[-68.84485,-16.21546],[-68.84489,-16.21534],[-68.84484,-16.21546],[-68.84491,-16.21563],[-68.84472,-16.21573],[-68.84449,-16.21533],[-68.84511,-16.21453],[-68.84545,-16.21422],[-68.84622,-16.21286],[-68.84645,-16.21265],[-68.84682,-16.21304],[-68.84651,-16.21341],[-68.84576,-16.21463],[-68.84555,-16.21529]]]},"properties":{"n":"SAN PABLO DE TIQUINA","p":31,"personas_x_ha":14,"masculinidad":94,"pct_menor20":35,"pct_60mas":16,"pct_migrante":23,"dependencia_econ":82,"pct_empleados":29,"pct_cuentapropia":53,"pct_agricultura":29,"pct_comercio":12,"pct_manufactura":12,"pct_construccion":0,"pct_transporte":24,"pct_alojamiento":6,"pct_sin_educacion":15,"pct_educ_superior":15,"brecha_educ":-46,"pct_sin_seguro":13,"pct_sus":81,"pct_seguro_privado":6,"brecha_seguro":-12,"pct_salud_publica":21,"pct_med_tradicional":20,"pct_automedicacion":19,"pct_remedios_caseros":24,"pct_viv_desocupada":0,"pct_alquiler":0,"pct_electricidad":64,"pct_sin_electricidad":36,"pct_agua_red":27,"pct_alcantarillado":0,"pct_camara_septica":0,"pct_pozo_ciego":18,"pct_sin_desague":82,"pct_gas_red":0,"pct_gas_garrafa":82,"pct_lena_guano":18,"pct_basura_formal":0,"pct_basura_quema":100,"pct_basura_informal":0,"pct_internet":82,"pct_celular":91,"pct_televisor":73}},{"type":"Feature","geometry":{"type":"Polygon","coordinates":[[[-68.84836,-16.22555],[-68.84817,-16.22575],[-68.84816,-16.22594],[-68.84828,-16.22609],[-68.84848,-16.22611],[-68.84933,-16.22583],[-68.85063,-16.22526],[-68.85172,-16.22451],[-68.85147,-16.22396],[-68.85097,-16.2242],[-68.85032,-16.22474],[-68.84946,-16.22531],[-68.84836,-16.22555]]]},"properties":{"n":"SAN PEDRO DE TIQUINA","p":38,"personas_x_ha":15,"masculinidad":124,"pct_menor20":39,"pct_60mas":16,"pct_migrante":8,"dependencia_econ":81,"pct_empleados":29,"pct_cuentapropia":57,"pct_agricultura":14,"pct_comercio":5,"pct_manufactura":5,"pct_construccion":19,"pct_transporte":19,"pct_alojamiento":10,"pct_sin_educacion":13,"pct_educ_superior":35,"brecha_educ":-7,"pct_sin_seguro":14,"pct_sus":73,"pct_seguro_privado":0,"brecha_seguro":-8,"pct_salud_publica":27,"pct_med_tradicional":20,"pct_automedicacion":19,"pct_remedios_caseros":20,"pct_viv_desocupada":0,"pct_alquiler":0,"pct_electricidad":100,"pct_sin_electricidad":0,"pct_agua_red":82,"pct_alcantarillado":9,"pct_camara_septica":18,"pct_pozo_ciego":9,"pct_sin_desague":64,"pct_gas_red":0,"pct_gas_garrafa":82,"pct_lena_guano":9,"pct_basura_formal":100,"pct_basura_quema":0,"pct_basura_informal":0,"pct_internet":82,"pct_celular":91,"pct_televisor":73}},{"type":"Feature","geometry":{"type":"Polygon","coordinates":[[[-68.8521,-16.22284],[-68.85235,-16.22303],[-68.85273,-16.22236],[-68.85237,-16.22223],[-68.8521,-16.22284]]]},"properties":{"n":"SAN PEDRO DE TIQUINA","p":16,"personas_x_ha":53,"masculinidad":167,"pct_menor20":6,"pct_60mas":19,"pct_migrante":31,"dependencia_econ":14,"pct_empleados":57,"pct_cuentapropia":36,"pct_agricultura":14,"pct_comercio":21,"pct_manufactura":0,"pct_construccion":14,"pct_transporte":7,"pct_alojamiento":7,"pct_sin_educacion":0,"pct_educ_superior":40,"brecha_educ":-20,"pct_sin_seguro":19,"pct_sus":62,"pct_seguro_privado":0,"brecha_seguro":30,"pct_salud_publica":20,"pct_med_tradicional":12,"pct_automedicacion":17,"pct_remedios_caseros":20,"pct_viv_desocupada":0,"pct_alquiler":22,"pct_electricidad":89,"pct_sin_electricidad":11,"pct_agua_red":89,"pct_alcantarillado":11,"pct_camara_septica":0,"pct_pozo_ciego":44,"pct_sin_desague":44,"pct_gas_red":0,"pct_gas_garrafa":100,"pct_lena_guano":0,"pct_basura_formal":89,"pct_basura_quema":11,"pct_basura_informal":0,"pct_internet":78,"pct_celular":89,"pct_televisor":78}},{"type":"Feature","geometry":{"type":"Polygon","coordinates":[[[-68.85367,-16.22183],[-68.85396,-16.22183],[-68.85382,-16.22274],[-68.85334,-16.22253],[-68.8535,-16.22216],[-68.85362,-16.22222],[-68.8537,-16.22222],[-68.85351,-16.22215],[-68.85367,-16.22183]]]},"properties":{"n":"SAN PEDRO DE TIQUINA","p":55,"personas_x_ha":128,"masculinidad":112,"pct_menor20":35,"pct_60mas":16,"pct_migrante":33,"dependencia_econ":67,"pct_empleados":27,"pct_cuentapropia":64,"pct_agricultura":9,"pct_comercio":15,"pct_manufactura":3,"pct_construccion":3,"pct_transporte":24,"pct_alojamiento":12,"pct_sin_educacion":3,"pct_educ_superior":30,"brecha_educ":-2,"pct_sin_seguro":2,"pct_sus":75,"pct_seguro_privado":0,"brecha_seguro":-4,"pct_salud_publica":26,"pct_med_tradicional":10,"pct_automedicacion":18,"pct_remedios_caseros":23,"pct_viv_desocupada":4,"pct_alquiler":17,"pct_electricidad":87,"pct_sin_electricidad":13,"pct_agua_red":83,"pct_alcantarillado":4,"pct_camara_septica":26,"pct_pozo_ciego":9,"pct_sin_desague":61,"pct_gas_red":0,"pct_gas_garrafa":96,"pct_lena_guano":0,"pct_basura_formal":96,"pct_basura_quema":0,"pct_basura_informal":0,"pct_internet":74,"pct_celular":91,"pct_televisor":78}},{"type":"Feature","geometry":{"type":"Polygon","coordinates":[[[-68.85155,-16.22335],[-68.85181,-16.22365],[-68.85094,-16.22407],[-68.85017,-16.2247],[-68.84997,-16.22448],[-68.85099,-16.22363],[-68.85155,-16.22335]]]},"properties":{"n":"SAN PEDRO DE TIQUINA","p":52,"personas_x_ha":64,"masculinidad":117,"pct_menor20":31,"pct_60mas":19,"pct_migrante":50,"dependencia_econ":58,"pct_empleados":12,"pct_cuentapropia":67,"pct_agricultura":9,"pct_comercio":45,"pct_manufactura":9,"pct_construccion":6,"pct_transporte":12,"pct_alojamiento":0,"pct_sin_educacion":6,"pct_educ_superior":25,"brecha_educ":-28,"pct_sin_seguro":10,"pct_sus":77,"pct_seguro_privado":0,"brecha_seguro":2,"pct_salud_publica":22,"pct_med_tradicional":13,"pct_automedicacion":19,"pct_remedios_caseros":22,"pct_viv_desocupada":10,"pct_alquiler":11,"pct_electricidad":84,"pct_sin_electricidad":11,"pct_agua_red":89,"pct_alcantarillado":16,"pct_camara_septica":16,"pct_pozo_ciego":37,"pct_sin_desague":32,"pct_gas_red":0,"pct_gas_garrafa":95,"pct_lena_guano":0,"pct_basura_formal":100,"pct_basura_quema":0,"pct_basura_informal":0,"pct_internet":68,"pct_celular":89,"pct_televisor":68}},{"type":"Feature","geometry":{"type":"Polygon","coordinates":[[[-68.85344,-16.22214],[-68.85313,-16.22196],[-68.85288,-16.22231],[-68.85326,-16.22251],[-68.85344,-16.22214]]]},"properties":{"n":"SAN PEDRO DE TIQUINA","p":32,"personas_x_ha":161,"masculinidad":100,"pct_menor20":38,"pct_60mas":16,"pct_migrante":53,"dependencia_econ":45,"pct_empleados":27,"pct_cuentapropia":50,"pct_agricultura":5,"pct_comercio":50,"pct_manufactura":0,"pct_construccion":5,"pct_transporte":5,"pct_alojamiento":14,"pct_sin_educacion":0,"pct_educ_superior":36,"brecha_educ":-18,"pct_sin_seguro":0,"pct_sus":84,"pct_seguro_privado":0,"brecha_seguro":0,"pct_salud_publica":47,"pct_med_tradicional":7,"pct_automedicacion":10,"pct_remedios_caseros":15,"pct_viv_desocupada":5,"pct_alquiler":14,"pct_electricidad":93,"pct_sin_electricidad":7,"pct_agua_red":71,"pct_alcantarillado":0,"pct_camara_septica":43,"pct_pozo_ciego":21,"pct_sin_desague":29,"pct_gas_red":0,"pct_gas_garrafa":100,"pct_lena_guano":0,"pct_basura_formal":100,"pct_basura_quema":0,"pct_basura_informal":0,"pct_internet":86,"pct_celular":100,"pct_televisor":79}},{"type":"Feature","geometry":{"type":"Polygon","coordinates":[[[-68.85402,-16.22301],[-68.85345,-16.22382],[-68.85338,-16.22444],[-68.85317,-16.22473],[-68.85274,-16.22444],[-68.85355,-16.22313],[-68.85384,-16.22285],[-68.85402,-16.22301]]]},"properties":{"n":"SAN PEDRO DE TIQUINA","p":30,"personas_x_ha":34,"masculinidad":100,"pct_menor20":37,"pct_60mas":13,"pct_migrante":43,"dependencia_econ":50,"pct_empleados":35,"pct_cuentapropia":55,"pct_agricultura":5,"pct_comercio":30,"pct_manufactura":5,"pct_construccion":5,"pct_transporte":35,"pct_alojamiento":10,"pct_sin_educacion":5,"pct_educ_superior":15,"brecha_educ":5,"pct_sin_seguro":17,"pct_sus":70,"pct_seguro_privado":0,"brecha_seguro":20,"pct_salud_publica":31,"pct_med_tradicional":8,"pct_automedicacion":28,"pct_remedios_caseros":24,"pct_viv_desocupada":0,"pct_alquiler":18,"pct_electricidad":100,"pct_sin_electricidad":0,"pct_agua_red":82,"pct_alcantarillado":9,"pct_camara_septica":9,"pct_pozo_ciego":55,"pct_sin_desague":27,"pct_gas_red":9,"pct_gas_garrafa":82,"pct_lena_guano":0,"pct_basura_formal":100,"pct_basura_quema":0,"pct_basura_informal":0,"pct_internet":73,"pct_celular":82,"pct_televisor":73}},{"type":"Feature","geometry":{"type":"Polygon","coordinates":[[[-68.85324,-16.22348],[-68.8527,-16.22435],[-68.85236,-16.22407],[-68.85286,-16.22332],[-68.85324,-16.22348]]]},"properties":{"n":"SAN PEDRO DE TIQUINA","p":49,"personas_x_ha":102,"masculinidad":113,"pct_menor20":18,"pct_60mas":39,"pct_migrante":27,"dependencia_econ":58,"pct_empleados":29,"pct_cuentapropia":52,"pct_agricultura":6,"pct_comercio":16,"pct_manufactura":10,"pct_construccion":0,"pct_transporte":26,"pct_alojamiento":6,"pct_sin_educacion":10,"pct_educ_superior":20,"brecha_educ":-22,"pct_sin_seguro":4,"pct_sus":69,"pct_seguro_privado":4,"brecha_seguro":8,"pct_salud_publica":38,"pct_med_tradicional":9,"pct_automedicacion":15,"pct_remedios_caseros":21,"pct_viv_desocupada":0,"pct_alquiler":5,"pct_electricidad":100,"pct_sin_electricidad":0,"pct_agua_red":90,"pct_alcantarillado":0,"pct_camara_septica":30,"pct_pozo_ciego":15,"pct_sin_desague":55,"pct_gas_red":0,"pct_gas_garrafa":100,"pct_lena_guano":0,"pct_basura_formal":100,"pct_basura_quema":0,"pct_basura_informal":0,"pct_internet":30,"pct_celular":85,"pct_televisor":70}},{"type":"Feature","geometry":{"type":"Polygon","coordinates":[[[-68.85283,-16.22238],[-68.85324,-16.22255],[-68.85285,-16.22324],[-68.85243,-16.22304],[-68.85283,-16.22238]]]},"properties":{"n":"SAN PEDRO DE TIQUINA","p":37,"personas_x_ha":87,"masculinidad":95,"pct_menor20":32,"pct_60mas":22,"pct_migrante":41,"dependencia_econ":118,"pct_empleados":41,"pct_cuentapropia":53,"pct_agricultura":12,"pct_comercio":6,"pct_manufactura":0,"pct_construccion":12,"pct_transporte":18,"pct_alojamiento":18,"pct_sin_educacion":0,"pct_educ_superior":40,"brecha_educ":-10,"pct_sin_seguro":9,"pct_sus":80,"pct_seguro_privado":0,"brecha_seguro":6,"pct_salud_publica":28,"pct_med_tradicional":14,"pct_automedicacion":13,"pct_remedios_caseros":24,"pct_viv_desocupada":8,"pct_alquiler":0,"pct_electricidad":94,"pct_sin_electricidad":6,"pct_agua_red":88,"pct_alcantarillado":6,"pct_camara_septica":6,"pct_pozo_ciego":19,"pct_sin_desague":62,"pct_gas_red":0,"pct_gas_garrafa":94,"pct_lena_guano":6,"pct_basura_formal":94,"pct_basura_quema":6,"pct_basura_informal":0,"pct_internet":62,"pct_celular":100,"pct_televisor":94}},{"type":"Feature","geometry":{"type":"Polygon","coordinates":[[[-68.85332,-16.22259],[-68.8529,-16.22325],[-68.85328,-16.22342],[-68.85375,-16.2228],[-68.85332,-16.22259]]]},"properties":{"n":"SAN PEDRO DE TIQUINA","p":32,"personas_x_ha":78,"masculinidad":88,"pct_menor20":12,"pct_60mas":41,"pct_migrante":28,"dependencia_econ":68,"pct_empleados":37,"pct_cuentapropia":58,"pct_agricultura":0,"pct_comercio":26,"pct_manufactura":5,"pct_construccion":16,"pct_transporte":0,"pct_alojamiento":42,"pct_sin_educacion":4,"pct_educ_superior":29,"brecha_educ":-35,"pct_sin_seguro":47,"pct_sus":44,"pct_seguro_privado":0,"brecha_seguro":12,"pct_salud_publica":23,"pct_med_tradicional":8,"pct_automedicacion":19,"pct_remedios_caseros":25,"pct_viv_desocupada":12,"pct_alquiler":0,"pct_electricidad":100,"pct_sin_electricidad":0,"pct_agua_red":79,"pct_alcantarillado":7,"pct_camara_septica":7,"pct_pozo_ciego":36,"pct_sin_desague":50,"pct_gas_red":0,"pct_gas_garrafa":100,"pct_lena_guano":0,"pct_basura_formal":100,"pct_basura_quema":0,"pct_basura_informal":0,"pct_internet":71,"pct_celular":93,"pct_televisor":93}},{"type":"Feature","geometry":{"type":"Polygon","coordinates":[[[-68.85468,-16.22024],[-68.8545,-16.22015],[-68.85357,-16.22074],[-68.85356,-16.22114],[-68.8533,-16.22165],[-68.85294,-16.22134],[-68.85315,-16.22109],[-68.85325,-16.22074],[-68.85345,-16.22105],[-68.8535,-16.22069],[-68.85377,-16.22047],[-68.85348,-16.22068],[-68.85342,-16.22097],[-68.85324,-16.22069],[-68.85311,-16.22107],[-68.85291,-16.22131],[-68.85272,-16.2211],[-68.85329,-16.22037],[-68.85348,-16.22024],[-68.85398,-16.22011],[-68.85442,-16.21983],[-68.85575,-16.21788],[-68.85613,-16.21805],[-68.85633,-16.21897],[-68.85681,-16.21958],[-68.85606,-16.2205],[-68.8554,-16.22033],[-68.85537,-16.22038],[-68.85506,-16.22022],[-68.85515,-16.22006],[-68.85488,-16.21987],[-68.85512,-16.22006],[-68.85502,-16.22023],[-68.85535,-16.22041],[-68.85581,-16.22055],[-68.85497,-16.22069],[-68.85485,-16.22056],[-68.85471,-16.22082],[-68.85437,-16.22085],[-68.85468,-16.22024]]]},"properties":{"n":"SAN PEDRO DE TIQUINA","p":123,"personas_x_ha":21,"masculinidad":284,"pct_menor20":50,"pct_60mas":2,"pct_migrante":79,"dependencia_econ":138,"pct_empleados":74,"pct_cuentapropia":12,"pct_agricultura":8,"pct_comercio":6,"pct_manufactura":2,"pct_construccion":2,"pct_transporte":0,"pct_alojamiento":6,"pct_sin_educacion":0,"pct_educ_superior":60,"brecha_educ":-15,"pct_sin_seguro":2,"pct_sus":47,"pct_seguro_privado":0,"brecha_seguro":2,"pct_salud_publica":23,"pct_med_tradicional":13,"pct_automedicacion":14,"pct_remedios_caseros":14,"pct_viv_desocupada":9,"pct_alquiler":81,"pct_electricidad":100,"pct_sin_electricidad":0,"pct_agua_red":89,"pct_alcantarillado":48,"pct_camara_septica":33,"pct_pozo_ciego":7,"pct_sin_desague":11,"pct_gas_red":0,"pct_gas_garrafa":74,"pct_lena_guano":0,"pct_basura_formal":100,"pct_basura_quema":0,"pct_basura_informal":0,"pct_internet":67,"pct_celular":78,"pct_televisor":70}},{"type":"Feature","geometry":{"type":"Polygon","coordinates":[[[-68.85346,-16.22207],[-68.85315,-16.22194],[-68.85336,-16.22173],[-68.85356,-16.2218],[-68.85346,-16.22207]]]},"properties":{"n":"SAN PEDRO DE TIQUINA","p":17,"personas_x_ha":176,"masculinidad":55,"pct_menor20":35,"pct_60mas":0,"pct_migrante":6,"dependencia_econ":70,"pct_empleados":30,"pct_cuentapropia":60,"pct_agricultura":0,"pct_comercio":50,"pct_manufactura":0,"pct_construccion":0,"pct_transporte":0,"pct_alojamiento":10,"pct_sin_educacion":0,"pct_educ_superior":83,"brecha_educ":0,"pct_sin_seguro":38,"pct_sus":44,"pct_seguro_privado":0,"brecha_seguro":62,"pct_salud_publica":25,"pct_med_tradicional":14,"pct_automedicacion":16,"pct_remedios_caseros":18,"pct_viv_desocupada":0,"pct_alquiler":50,"pct_electricidad":88,"pct_sin_electricidad":12,"pct_agua_red":100,"pct_alcantarillado":12,"pct_camara_septica":12,"pct_pozo_ciego":50,"pct_sin_desague":25,"pct_gas_red":0,"pct_gas_garrafa":100,"pct_lena_guano":0,"pct_basura_formal":100,"pct_basura_quema":0,"pct_basura_informal":0,"pct_internet":88,"pct_celular":100,"pct_televisor":100}},{"type":"Feature","geometry":{"type":"Polygon","coordinates":[[[-68.8523,-16.22315],[-68.85209,-16.22297],[-68.85165,-16.22337],[-68.85187,-16.22363],[-68.8523,-16.22315]]]},"properties":{"n":"SAN PEDRO DE TIQUINA","p":35,"personas_x_ha":147,"masculinidad":106,"pct_menor20":26,"pct_60mas":34,"pct_migrante":49,"dependencia_econ":84,"pct_empleados":26,"pct_cuentapropia":58,"pct_agricultura":11,"pct_comercio":32,"pct_manufactura":11,"pct_construccion":0,"pct_transporte":5,"pct_alojamiento":21,"pct_sin_educacion":15,"pct_educ_superior":12,"brecha_educ":-38,"pct_sin_seguro":26,"pct_sus":44,"pct_seguro_privado":3,"brecha_seguro":15,"pct_salud_publica":29,"pct_med_tradicional":6,"pct_automedicacion":26,"pct_remedios_caseros":22,"pct_viv_desocupada":4,"pct_alquiler":8,"pct_electricidad":100,"pct_sin_electricidad":0,"pct_agua_red":92,"pct_alcantarillado":0,"pct_camara_septica":31,"pct_pozo_ciego":46,"pct_sin_desague":23,"pct_gas_red":0,"pct_gas_garrafa":100,"pct_lena_guano":0,"pct_basura_formal":92,"pct_basura_quema":8,"pct_basura_informal":0,"pct_internet":46,"pct_celular":92,"pct_televisor":92}},{"type":"Feature","geometry":{"type":"Polygon","coordinates":[[[-68.85466,-16.22166],[-68.85447,-16.22135],[-68.85467,-16.22119],[-68.85534,-16.22119],[-68.8558,-16.22132],[-68.85575,-16.22161],[-68.85549,-16.2216],[-68.85474,-16.22209],[-68.85461,-16.2219],[-68.85466,-16.22166]]]},"properties":{"n":"SAN PEDRO DE TIQUINA","p":44,"personas_x_ha":52,"masculinidad":110,"pct_menor20":45,"pct_60mas":7,"pct_migrante":70,"dependencia_econ":110,"pct_empleados":43,"pct_cuentapropia":33,"pct_agricultura":19,"pct_comercio":14,"pct_manufactura":10,"pct_construccion":5,"pct_transporte":14,"pct_alojamiento":10,"pct_sin_educacion":0,"pct_educ_superior":38,"brecha_educ":18,"pct_sin_seguro":2,"pct_sus":56,"pct_seguro_privado":2,"brecha_seguro":4,"pct_salud_publica":23,"pct_med_tradicional":14,"pct_automedicacion":20,"pct_remedios_caseros":22,"pct_viv_desocupada":6,"pct_alquiler":46,"pct_electricidad":100,"pct_sin_electricidad":0,"pct_agua_red":31,"pct_alcantarillado":23,"pct_camara_septica":23,"pct_pozo_ciego":31,"pct_sin_desague":23,"pct_gas_red":0,"pct_gas_garrafa":85,"pct_lena_guano":15,"pct_basura_formal":69,"pct_basura_quema":15,"pct_basura_informal":0,"pct_internet":85,"pct_celular":92,"pct_televisor":85}},{"type":"Feature","geometry":{"type":"Polygon","coordinates":[[[-68.85399,-16.22207],[-68.85404,-16.22152],[-68.85444,-16.22143],[-68.85459,-16.22163],[-68.8544,-16.22282],[-68.854,-16.22289],[-68.85388,-16.22279],[-68.85399,-16.22208],[-68.85406,-16.22208],[-68.85399,-16.22207]]]},"properties":{"n":"SAN PEDRO DE TIQUINA","p":65,"personas_x_ha":76,"masculinidad":97,"pct_menor20":32,"pct_60mas":14,"pct_migrante":38,"dependencia_econ":97,"pct_empleados":21,"pct_cuentapropia":61,"pct_agricultura":15,"pct_comercio":12,"pct_manufactura":3,"pct_construccion":0,"pct_transporte":18,"pct_alojamiento":21,"pct_sin_educacion":2,"pct_educ_superior":30,"brecha_educ":-16,"pct_sin_seguro":12,"pct_sus":54,"pct_seguro_privado":0,"brecha_seguro":-12,"pct_salud_publica":35,"pct_med_tradicional":10,"pct_automedicacion":17,"pct_remedios_caseros":19,"pct_viv_desocupada":16,"pct_alquiler":10,"pct_electricidad":95,"pct_sin_electricidad":5,"pct_agua_red":81,"pct_alcantarillado":10,"pct_camara_septica":10,"pct_pozo_ciego":24,"pct_sin_desague":57,"pct_gas_red":0,"pct_gas_garrafa":100,"pct_lena_guano":0,"pct_basura_formal":71,"pct_basura_quema":29,"pct_basura_informal":0,"pct_internet":62,"pct_celular":86,"pct_televisor":86}},{"type":"Feature","geometry":{"type":"Polygon","coordinates":[[[-68.85241,-16.22214],[-68.85253,-16.22173],[-68.85296,-16.22205],[-68.85278,-16.22229],[-68.85241,-16.22214]]]},"properties":{"n":"SAN PEDRO DE TIQUINA","p":46,"personas_x_ha":204,"masculinidad":64,"pct_menor20":26,"pct_60mas":24,"pct_migrante":37,"dependencia_econ":48,"pct_empleados":32,"pct_cuentapropia":55,"pct_agricultura":10,"pct_comercio":39,"pct_manufactura":10,"pct_construccion":3,"pct_transporte":3,"pct_alojamiento":13,"pct_sin_educacion":0,"pct_educ_superior":32,"brecha_educ":-16,"pct_sin_seguro":17,"pct_sus":50,"pct_seguro_privado":0,"brecha_seguro":-10,"pct_salud_publica":29,"pct_med_tradicional":8,"pct_automedicacion":22,"pct_remedios_caseros":24,"pct_viv_desocupada":4,"pct_alquiler":15,"pct_electricidad":100,"pct_sin_electricidad":0,"pct_agua_red":95,"pct_alcantarillado":0,"pct_camara_septica":20,"pct_pozo_ciego":55,"pct_sin_desague":25,"pct_gas_red":0,"pct_gas_garrafa":100,"pct_lena_guano":0,"pct_basura_formal":100,"pct_basura_quema":0,"pct_basura_informal":0,"pct_internet":95,"pct_celular":100,"pct_televisor":85}},{"type":"Feature","geometry":{"type":"Polygon","coordinates":[[[-68.85242,-16.22311],[-68.85196,-16.22369],[-68.8523,-16.22401],[-68.8528,-16.22332],[-68.85242,-16.22311]]]},"properties":{"n":"SAN PEDRO DE TIQUINA","p":51,"personas_x_ha":119,"masculinidad":112,"pct_menor20":18,"pct_60mas":24,"pct_migrante":51,"dependencia_econ":55,"pct_empleados":27,"pct_cuentapropia":70,"pct_agricultura":6,"pct_comercio":15,"pct_manufactura":6,"pct_construccion":6,"pct_transporte":21,"pct_alojamiento":15,"pct_sin_educacion":0,"pct_educ_superior":48,"brecha_educ":-18,"pct_sin_seguro":12,"pct_sus":67,"pct_seguro_privado":0,"brecha_seguro":6,"pct_salud_publica":23,"pct_med_tradicional":13,"pct_automedicacion":17,"pct_remedios_caseros":22,"pct_viv_desocupada":0,"pct_alquiler":14,"pct_electricidad":100,"pct_sin_electricidad":0,"pct_agua_red":96,"pct_alcantarillado":21,"pct_camara_septica":25,"pct_pozo_ciego":32,"pct_sin_desague":21,"pct_gas_red":0,"pct_gas_garrafa":89,"pct_lena_guano":4,"pct_basura_formal":100,"pct_basura_quema":0,"pct_basura_informal":0,"pct_internet":82,"pct_celular":100,"pct_televisor":82}},{"type":"Feature","geometry":{"type":"Polygon","coordinates":[[[-68.85689,-16.21969],[-68.85689,-16.21955],[-68.85642,-16.21896],[-68.85663,-16.21876],[-68.85736,-16.21968],[-68.85697,-16.22088],[-68.85607,-16.22129],[-68.85537,-16.22114],[-68.8547,-16.2211],[-68.85438,-16.22095],[-68.85518,-16.22071],[-68.85598,-16.22065],[-68.85689,-16.21969]]]},"properties":{"n":"SAN PEDRO DE TIQUINA","p":88,"personas_x_ha":35,"masculinidad":529,"pct_menor20":65,"pct_60mas":0,"pct_migrante":91,"dependencia_econ":300,"pct_empleados":68,"pct_cuentapropia":9,"pct_agricultura":14,"pct_comercio":5,"pct_manufactura":5,"pct_construccion":5,"pct_transporte":0,"pct_alojamiento":0,"pct_sin_educacion":2,"pct_educ_superior":43,"brecha_educ":-10,"pct_sin_seguro":8,"pct_sus":53,"pct_seguro_privado":0,"brecha_seguro":10,"pct_salud_publica":40,"pct_med_tradicional":7,"pct_automedicacion":11,"pct_remedios_caseros":12,"pct_viv_desocupada":0,"pct_alquiler":50,"pct_electricidad":100,"pct_sin_electricidad":0,"pct_agua_red":50,"pct_alcantarillado":75,"pct_camara_septica":0,"pct_pozo_ciego":0,"pct_sin_desague":0,"pct_gas_red":0,"pct_gas_garrafa":100,"pct_lena_guano":0,"pct_basura_formal":100,"pct_basura_quema":0,"pct_basura_informal":0,"pct_internet":100,"pct_celular":100,"pct_televisor":100}},{"type":"Feature","geometry":{"type":"Polygon","coordinates":[[[-68.85462,-16.22027],[-68.85448,-16.22021],[-68.85391,-16.22051],[-68.85375,-16.22068],[-68.85431,-16.22088],[-68.85462,-16.22027]]]},"properties":{"n":"SAN PEDRO DE TIQUINA","p":24,"personas_x_ha":75,"masculinidad":140,"pct_menor20":17,"pct_60mas":8,"pct_migrante":46,"dependencia_econ":64,"pct_empleados":57,"pct_cuentapropia":43,"pct_agricultura":0,"pct_comercio":21,"pct_manufactura":0,"pct_construccion":14,"pct_transporte":0,"pct_alojamiento":7,"pct_sin_educacion":5,"pct_educ_superior":47,"brecha_educ":-25,"pct_sin_seguro":4,"pct_sus":52,"pct_seguro_privado":0,"brecha_seguro":-10,"pct_salud_publica":24,"pct_med_tradicional":9,"pct_automedicacion":16,"pct_remedios_caseros":16,"pct_viv_desocupada":22,"pct_alquiler":43,"pct_electricidad":86,"pct_sin_electricidad":7,"pct_agua_red":36,"pct_alcantarillado":29,"pct_camara_septica":7,"pct_pozo_ciego":36,"pct_sin_desague":21,"pct_gas_red":0,"pct_gas_garrafa":93,"pct_lena_guano":7,"pct_basura_formal":79,"pct_basura_quema":14,"pct_basura_informal":0,"pct_internet":86,"pct_celular":100,"pct_televisor":86}},{"type":"Feature","geometry":{"type":"Polygon","coordinates":[[[-68.8808,-16.26256],[-68.88025,-16.26236],[-68.88021,-16.26241],[-68.88072,-16.26304],[-68.88097,-16.26294],[-68.8808,-16.26256]]]},"properties":{"n":"SANTIAGO DE OJJE","p":26,"personas_x_ha":104,"masculinidad":30,"pct_menor20":4,"pct_60mas":54,"pct_migrante":65,"dependencia_econ":24,"pct_empleados":10,"pct_cuentapropia":76,"pct_agricultura":19,"pct_comercio":57,"pct_manufactura":14,"pct_construccion":0,"pct_transporte":0,"pct_alojamiento":0,"pct_sin_educacion":0,"pct_educ_superior":42,"brecha_educ":-25,"pct_sin_seguro":16,"pct_sus":76,"pct_seguro_privado":0,"brecha_seguro":1,"pct_salud_publica":92,"pct_med_tradicional":0,"pct_automedicacion":0,"pct_remedios_caseros":0,"pct_viv_desocupada":0,"pct_alquiler":0,"pct_electricidad":89,"pct_sin_electricidad":11,"pct_agua_red":78,"pct_alcantarillado":22,"pct_camara_septica":0,"pct_pozo_ciego":0,"pct_sin_desague":72,"pct_gas_red":0,"pct_gas_garrafa":78,"pct_lena_guano":22,"pct_basura_formal":22,"pct_basura_quema":39,"pct_basura_informal":6,"pct_internet":83,"pct_celular":89,"pct_televisor":44}},{"type":"Feature","geometry":{"type":"Polygon","coordinates":[[[-68.88064,-16.26308],[-68.8801,-16.26247],[-68.87992,-16.26261],[-68.88037,-16.26321],[-68.88064,-16.26308]]]},"properties":{"n":"SANTIAGO DE OJJE","p":28,"personas_x_ha":103,"masculinidad":115,"pct_menor20":7,"pct_60mas":50,"pct_migrante":25,"dependencia_econ":33,"pct_empleados":19,"pct_cuentapropia":57,"pct_agricultura":43,"pct_comercio":19,"pct_manufactura":14,"pct_construccion":0,"pct_transporte":0,"pct_alojamiento":0,"pct_sin_educacion":4,"pct_educ_superior":35,"brecha_educ":-14,"pct_sin_seguro":0,"pct_sus":82,"pct_seguro_privado":0,"brecha_seguro":0,"pct_salud_publica":29,"pct_med_tradicional":11,"pct_automedicacion":15,"pct_remedios_caseros":23,"pct_viv_desocupada":10,"pct_alquiler":0,"pct_electricidad":82,"pct_sin_electricidad":18,"pct_agua_red":82,"pct_alcantarillado":0,"pct_camara_septica":0,"pct_pozo_ciego":29,"pct_sin_desague":65,"pct_gas_red":0,"pct_gas_garrafa":76,"pct_lena_guano":12,"pct_basura_formal":35,"pct_basura_quema":65,"pct_basura_informal":0,"pct_internet":59,"pct_celular":100,"pct_televisor":24}},{"type":"Feature","geometry":{"type":"Polygon","coordinates":[[[-68.88095,-16.26418],[-68.88084,-16.26381],[-68.88036,-16.26394],[-68.88047,-16.26431],[-68.88095,-16.26418]]]},"properties":{"n":"SANTIAGO DE OJJE","p":26,"personas_x_ha":113,"masculinidad":100,"pct_menor20":8,"pct_60mas":46,"pct_migrante":50,"dependencia_econ":37,"pct_empleados":16,"pct_cuentapropia":74,"pct_agricultura":58,"pct_comercio":5,"pct_manufactura":16,"pct_construccion":0,"pct_transporte":0,"pct_alojamiento":0,"pct_sin_educacion":12,"pct_educ_superior":16,"brecha_educ":-5,"pct_sin_seguro":16,"pct_sus":68,"pct_seguro_privado":0,"brecha_seguro":-1,"pct_salud_publica":30,"pct_med_tradicional":18,"pct_automedicacion":7,"pct_remedios_caseros":33,"pct_viv_desocupada":0,"pct_alquiler":0,"pct_electricidad":100,"pct_sin_electricidad":0,"pct_agua_red":100,"pct_alcantarillado":20,"pct_camara_septica":0,"pct_pozo_ciego":10,"pct_sin_desague":70,"pct_gas_red":0,"pct_gas_garrafa":80,"pct_lena_guano":20,"pct_basura_formal":30,"pct_basura_quema":50,"pct_basura_informal":10,"pct_internet":40,"pct_celular":70,"pct_televisor":30}},{"type":"Feature","geometry":{"type":"Polygon","coordinates":[[[-68.88167,-16.26342],[-68.88154,-16.26299],[-68.88137,-16.26276],[-68.88104,-16.26293],[-68.88132,-16.26356],[-68.88167,-16.26342]]]},"properties":{"n":"SANTIAGO DE OJJE","p":47,"personas_x_ha":136,"masculinidad":81,"pct_menor20":26,"pct_60mas":26,"pct_migrante":40,"dependencia_econ":52,"pct_empleados":26,"pct_cuentapropia":48,"pct_agricultura":42,"pct_comercio":23,"pct_manufactura":10,"pct_construccion":10,"pct_transporte":0,"pct_alojamiento":0,"pct_sin_educacion":3,"pct_educ_superior":39,"brecha_educ":-18,"pct_sin_seguro":9,"pct_sus":74,"pct_seguro_privado":0,"brecha_seguro":0,"pct_salud_publica":26,"pct_med_tradicional":18,"pct_automedicacion":19,"pct_remedios_caseros":26,"pct_viv_desocupada":8,"pct_alquiler":0,"pct_electricidad":78,"pct_sin_electricidad":22,"pct_agua_red":48,"pct_alcantarillado":0,"pct_camara_septica":9,"pct_pozo_ciego":22,"pct_sin_desague":65,"pct_gas_red":0,"pct_gas_garrafa":83,"pct_lena_guano":13,"pct_basura_formal":9,"pct_basura_quema":43,"pct_basura_informal":43,"pct_internet":78,"pct_celular":100,"pct_televisor":39}},{"type":"Feature","geometry":{"type":"Polygon","coordinates":[[[-68.88135,-16.26272],[-68.88122,-16.26246],[-68.88087,-16.26253],[-68.88102,-16.26287],[-68.88135,-16.26272]]]},"properties":{"n":"SANTIAGO DE OJJE","p":18,"personas_x_ha":125,"masculinidad":64,"pct_menor20":17,"pct_60mas":28,"pct_migrante":39,"dependencia_econ":112,"pct_empleados":12,"pct_cuentapropia":50,"pct_agricultura":25,"pct_comercio":12,"pct_manufactura":12,"pct_construccion":38,"pct_transporte":0,"pct_alojamiento":0,"pct_sin_educacion":0,"pct_educ_superior":43,"brecha_educ":-17,"pct_sin_seguro":24,"pct_sus":76,"pct_seguro_privado":0,"brecha_seguro":-16,"pct_salud_publica":38,"pct_med_tradicional":10,"pct_automedicacion":10,"pct_remedios_caseros":28,"pct_viv_desocupada":11,"pct_alquiler":0,"pct_electricidad":100,"pct_sin_electricidad":0,"pct_agua_red":100,"pct_alcantarillado":12,"pct_camara_septica":50,"pct_pozo_ciego":12,"pct_sin_desague":25,"pct_gas_red":0,"pct_gas_garrafa":100,"pct_lena_guano":0,"pct_basura_formal":0,"pct_basura_quema":100,"pct_basura_informal":0,"pct_internet":62,"pct_celular":100,"pct_televisor":25}},{"type":"Feature","geometry":{"type":"Polygon","coordinates":[[[-68.88127,-16.26362],[-68.88091,-16.26376],[-68.88104,-16.26427],[-68.88147,-16.26409],[-68.88127,-16.26362]]]},"properties":{"n":"SANTIAGO DE OJJE","p":22,"personas_x_ha":84,"masculinidad":144,"pct_menor20":18,"pct_60mas":32,"pct_migrante":55,"dependencia_econ":11,"pct_empleados":11,"pct_cuentapropia":68,"pct_agricultura":47,"pct_comercio":11,"pct_manufactura":16,"pct_construccion":16,"pct_transporte":5,"pct_alojamiento":0,"pct_sin_educacion":11,"pct_educ_superior":6,"brecha_educ":-88,"pct_sin_seguro":0,"pct_sus":100,"pct_seguro_privado":0,"brecha_seguro":0,"pct_salud_publica":46,"pct_med_tradicional":15,"pct_automedicacion":12,"pct_remedios_caseros":17,"pct_viv_desocupada":0,"pct_alquiler":0,"pct_electricidad":89,"pct_sin_electricidad":11,"pct_agua_red":89,"pct_alcantarillado":0,"pct_camara_septica":0,"pct_pozo_ciego":44,"pct_sin_desague":44,"pct_gas_red":0,"pct_gas_garrafa":89,"pct_lena_guano":11,"pct_basura_formal":56,"pct_basura_quema":33,"pct_basura_informal":11,"pct_internet":56,"pct_celular":100,"pct_televisor":67}},{"type":"Feature","geometry":{"type":"Polygon","coordinates":[[[-68.88085,-16.26373],[-68.88067,-16.26317],[-68.88043,-16.26327],[-68.88064,-16.26379],[-68.88085,-16.26373]]]},"properties":{"n":"SANTIAGO DE OJJE","p":24,"personas_x_ha":140,"masculinidad":100,"pct_menor20":17,"pct_60mas":38,"pct_migrante":42,"dependencia_econ":50,"pct_empleados":12,"pct_cuentapropia":69,"pct_agricultura":19,"pct_comercio":31,"pct_manufactura":19,"pct_construccion":0,"pct_transporte":6,"pct_alojamiento":6,"pct_sin_educacion":0,"pct_educ_superior":19,"brecha_educ":-35,"pct_sin_seguro":4,"pct_sus":79,"pct_seguro_privado":0,"brecha_seguro":8,"pct_salud_publica":36,"pct_med_tradicional":8,"pct_automedicacion":21,"pct_remedios_caseros":25,"pct_viv_desocupada":0,"pct_alquiler":0,"pct_electricidad":85,"pct_sin_electricidad":15,"pct_agua_red":85,"pct_alcantarillado":0,"pct_camara_septica":8,"pct_pozo_ciego":23,"pct_sin_desague":54,"pct_gas_red":0,"pct_gas_garrafa":85,"pct_lena_guano":15,"pct_basura_formal":62,"pct_basura_quema":38,"pct_basura_informal":0,"pct_internet":54,"pct_celular":92,"pct_televisor":38}},{"type":"Feature","geometry":{"type":"Polygon","coordinates":[[[-68.88121,-16.26484],[-68.88094,-16.26425],[-68.8805,-16.2644],[-68.88069,-16.265],[-68.88121,-16.26484]]]},"properties":{"n":"SANTIAGO DE OJJE","p":16,"personas_x_ha":40,"masculinidad":100,"pct_menor20":6,"pct_60mas":38,"pct_migrante":44,"dependencia_econ":33,"pct_empleados":25,"pct_cuentapropia":75,"pct_agricultura":17,"pct_comercio":25,"pct_manufactura":17,"pct_construccion":8,"pct_transporte":17,"pct_alojamiento":0,"pct_sin_educacion":7,"pct_educ_superior":13,"brecha_educ":-9,"pct_sin_seguro":25,"pct_sus":56,"pct_seguro_privado":0,"brecha_seguro":25,"pct_salud_publica":56,"pct_med_tradicional":7,"pct_automedicacion":4,"pct_remedios_caseros":22,"pct_viv_desocupada":0,"pct_alquiler":0,"pct_electricidad":100,"pct_sin_electricidad":0,"pct_agua_red":100,"pct_alcantarillado":0,"pct_camara_septica":22,"pct_pozo_ciego":44,"pct_sin_desague":11,"pct_gas_red":0,"pct_gas_garrafa":100,"pct_lena_guano":0,"pct_basura_formal":67,"pct_basura_quema":22,"pct_basura_informal":0,"pct_internet":44,"pct_celular":89,"pct_televisor":56}}]}