{"type":"FeatureCollection","features":[{"type":"Feature","geometry":{"type":"Polygon","coordinates":[[[-68.95764,-16.18912],[-68.95806,-16.18944],[-68.9583,-16.18991],[-68.95838,-16.19016],[-68.95824,-16.19034],[-68.95751,-16.18988],[-68.95647,-16.1897],[-68.95611,-16.18942],[-68.95661,-16.18871],[-68.95763,-16.18911],[-68.95735,-16.18915],[-68.95764,-16.18912]]]},"properties":{"n":"TITO YUPANQUI","p":52,"personas_x_ha":25,"masculinidad":79,"pct_menor20":29,"pct_60mas":13,"pct_migrante":17,"dependencia_econ":112,"pct_empleados":29,"pct_cuentapropia":62,"pct_agricultura":38,"pct_comercio":25,"pct_manufactura":33,"pct_construccion":0,"pct_transporte":0,"pct_alojamiento":4,"pct_sin_educacion":11,"pct_educ_superior":3,"brecha_educ":-13,"pct_sin_seguro":20,"pct_sus":80,"pct_seguro_privado":0,"brecha_seguro":-3,"pct_salud_publica":35,"pct_med_tradicional":13,"pct_automedicacion":16,"pct_remedios_caseros":27,"pct_viv_desocupada":0,"pct_alquiler":0,"pct_electricidad":60,"pct_sin_electricidad":40,"pct_agua_red":50,"pct_alcantarillado":10,"pct_camara_septica":0,"pct_pozo_ciego":0,"pct_sin_desague":90,"pct_gas_red":0,"pct_gas_garrafa":10,"pct_lena_guano":10,"pct_basura_formal":0,"pct_basura_quema":100,"pct_basura_informal":0,"pct_internet":40,"pct_celular":50,"pct_televisor":10}},{"type":"Feature","geometry":{"type":"Polygon","coordinates":[[[-68.95843,-16.19308],[-68.95822,-16.19323],[-68.95797,-16.1929],[-68.95792,-16.19258],[-68.95769,-16.19225],[-68.95753,-16.19166],[-68.95713,-16.19175],[-68.95717,-16.19203],[-68.9571,-16.19176],[-68.95682,-16.19181],[-68.95679,-16.19253],[-68.957,-16.19256],[-68.95827,-16.1935],[-68.9584,-16.19351],[-68.95851,-16.19341],[-68.95843,-16.19308]]]},"properties":{"n":"TITO YUPANQUI","p":172,"personas_x_ha":119,"masculinidad":67,"pct_menor20":8,"pct_60mas":26,"pct_migrante":4,"dependencia_econ":58,"pct_empleados":28,"pct_cuentapropia":36,"pct_agricultura":49,"pct_comercio":12,"pct_manufactura":11,"pct_construccion":7,"pct_transporte":5,"pct_alojamiento":6,"pct_sin_educacion":6,"pct_educ_superior":10,"brecha_educ":9,"pct_sin_seguro":5,"pct_sus":93,"pct_seguro_privado":1,"brecha_seguro":3,"pct_salud_publica":30,"pct_med_tradicional":15,"pct_automedicacion":19,"pct_remedios_caseros":26,"pct_viv_desocupada":0,"pct_alquiler":0,"pct_electricidad":93,"pct_sin_electricidad":7,"pct_agua_red":73,"pct_alcantarillado":27,"pct_camara_septica":0,"pct_pozo_ciego":40,"pct_sin_desague":33,"pct_gas_red":0,"pct_gas_garrafa":100,"pct_lena_guano":100,"pct_basura_formal":53,"pct_basura_quema":13,"pct_basura_informal":53,"pct_internet":40,"pct_celular":67,"pct_televisor":60}},{"type":"Feature","geometry":{"type":"Polygon","coordinates":[[[-68.95602,-16.193],[-68.95548,-16.19294],[-68.95539,-16.19348],[-68.95594,-16.19352],[-68.95602,-16.193]]]},"properties":{"n":"TITO YUPANQUI","p":53,"personas_x_ha":145,"masculinidad":104,"pct_menor20":17,"pct_60mas":2,"pct_migrante":47,"dependencia_econ":34,"pct_empleados":32,"pct_cuentapropia":47,"pct_agricultura":26,"pct_comercio":11,"pct_manufactura":18,"pct_construccion":37,"pct_transporte":3,"pct_alojamiento":0,"pct_sin_educacion":0,"pct_educ_superior":23,"brecha_educ":-19,"pct_sin_seguro":26,"pct_sus":74,"pct_seguro_privado":0,"brecha_seguro":4,"pct_salud_publica":33,"pct_med_tradicional":14,"pct_automedicacion":24,"pct_remedios_caseros":28,"pct_viv_desocupada":0,"pct_alquiler":14,"pct_electricidad":86,"pct_sin_electricidad":14,"pct_agua_red":71,"pct_alcantarillado":14,"pct_camara_septica":29,"pct_pozo_ciego":0,"pct_sin_desague":57,"pct_gas_red":0,"pct_gas_garrafa":86,"pct_lena_guano":86,"pct_basura_formal":100,"pct_basura_quema":0,"pct_basura_informal":0,"pct_internet":86,"pct_celular":100,"pct_televisor":43}},{"type":"Feature","geometry":{"type":"Polygon","coordinates":[[[-68.95099,-16.19325],[-68.95085,-16.19274],[-68.95019,-16.19293],[-68.95025,-16.1934],[-68.95099,-16.19325]]]},"properties":{"n":"TITO YUPANQUI","p":70,"personas_x_ha":162,"masculinidad":89,"pct_menor20":34,"pct_60mas":11,"pct_migrante":3,"dependencia_econ":159,"pct_empleados":0,"pct_cuentapropia":85,"pct_agricultura":30,"pct_comercio":19,"pct_manufactura":33,"pct_construccion":0,"pct_transporte":7,"pct_alojamiento":0,"pct_sin_educacion":2,"pct_educ_superior":11,"brecha_educ":-24,"pct_sin_seguro":36,"pct_sus":64,"pct_seguro_privado":0,"brecha_seguro":6,"pct_salud_publica":44,"pct_med_tradicional":6,"pct_automedicacion":8,"pct_remedios_caseros":39,"pct_viv_desocupada":0,"pct_alquiler":11,"pct_electricidad":44,"pct_sin_electricidad":56,"pct_agua_red":11,"pct_alcantarillado":22,"pct_camara_septica":0,"pct_pozo_ciego":33,"pct_sin_desague":44,"pct_gas_red":11,"pct_gas_garrafa":56,"pct_lena_guano":56,"pct_basura_formal":22,"pct_basura_quema":67,"pct_basura_informal":0,"pct_internet":67,"pct_celular":78,"pct_televisor":56}},{"type":"Feature","geometry":{"type":"Polygon","coordinates":[[[-68.95791,-16.19587],[-68.95755,-16.1956],[-68.95651,-16.19516],[-68.95663,-16.1947],[-68.95662,-16.19453],[-68.95655,-16.1945],[-68.95659,-16.19441],[-68.95781,-16.19536],[-68.95906,-16.19656],[-68.95832,-16.19688],[-68.95791,-16.19587]]]},"properties":{"n":"TITO YUPANQUI","p":160,"personas_x_ha":89,"masculinidad":214,"pct_menor20":16,"pct_60mas":9,"pct_migrante":1,"dependencia_econ":31,"pct_empleados":42,"pct_cuentapropia":43,"pct_agricultura":20,"pct_comercio":8,"pct_manufactura":10,"pct_construccion":46,"pct_transporte":7,"pct_alojamiento":2,"pct_sin_educacion":7,"pct_educ_superior":9,"brecha_educ":-23,"pct_sin_seguro":22,"pct_sus":78,"pct_seguro_privado":0,"brecha_seguro":-17,"pct_salud_publica":57,"pct_med_tradicional":12,"pct_automedicacion":8,"pct_remedios_caseros":21,"pct_viv_desocupada":0,"pct_alquiler":0,"pct_electricidad":78,"pct_sin_electricidad":17,"pct_agua_red":74,"pct_alcantarillado":9,"pct_camara_septica":0,"pct_pozo_ciego":22,"pct_sin_desague":65,"pct_gas_red":0,"pct_gas_garrafa":74,"pct_lena_guano":74,"pct_basura_formal":13,"pct_basura_quema":87,"pct_basura_informal":0,"pct_internet":52,"pct_celular":78,"pct_televisor":74}},{"type":"Feature","geometry":{"type":"Polygon","coordinates":[[[-68.95606,-16.19361],[-68.95601,-16.19403],[-68.95664,-16.19428],[-68.95661,-16.19365],[-68.95606,-16.19361]]]},"properties":{"n":"TITO YUPANQUI","p":190,"personas_x_ha":493,"masculinidad":102,"pct_menor20":19,"pct_60mas":11,"pct_migrante":7,"dependencia_econ":47,"pct_empleados":17,"pct_cuentapropia":54,"pct_agricultura":22,"pct_comercio":11,"pct_manufactura":32,"pct_construccion":11,"pct_transporte":11,"pct_alojamiento":6,"pct_sin_educacion":5,"pct_educ_superior":10,"brecha_educ":-7,"pct_sin_seguro":16,"pct_sus":82,"pct_seguro_privado":0,"brecha_seguro":-2,"pct_salud_publica":31,"pct_med_tradicional":19,"pct_automedicacion":20,"pct_remedios_caseros":24,"pct_viv_desocupada":0,"pct_alquiler":9,"pct_electricidad":82,"pct_sin_electricidad":14,"pct_agua_red":77,"pct_alcantarillado":9,"pct_camara_septica":0,"pct_pozo_ciego":9,"pct_sin_desague":77,"pct_gas_red":0,"pct_gas_garrafa":77,"pct_lena_guano":77,"pct_basura_formal":36,"pct_basura_quema":41,"pct_basura_informal":9,"pct_internet":36,"pct_celular":82,"pct_televisor":73}},{"type":"Feature","geometry":{"type":"Polygon","coordinates":[[[-68.95326,-16.19349],[-68.95293,-16.19345],[-68.9529,-16.19347],[-68.95296,-16.19361],[-68.95324,-16.19375],[-68.95326,-16.19349]]]},"properties":{"n":"TITO YUPANQUI","p":44,"personas_x_ha":467,"masculinidad":110,"pct_menor20":32,"pct_60mas":11,"pct_migrante":16,"dependencia_econ":100,"pct_empleados":18,"pct_cuentapropia":45,"pct_agricultura":59,"pct_comercio":5,"pct_manufactura":18,"pct_construccion":9,"pct_transporte":0,"pct_alojamiento":0,"pct_sin_educacion":3,"pct_educ_superior":29,"brecha_educ":-7,"pct_sin_seguro":7,"pct_sus":93,"pct_seguro_privado":0,"brecha_seguro":-5,"pct_salud_publica":27,"pct_med_tradicional":22,"pct_automedicacion":20,"pct_remedios_caseros":26,"pct_viv_desocupada":0,"pct_alquiler":12,"pct_electricidad":100,"pct_sin_electricidad":0,"pct_agua_red":100,"pct_alcantarillado":0,"pct_camara_septica":12,"pct_pozo_ciego":38,"pct_sin_desague":50,"pct_gas_red":0,"pct_gas_garrafa":100,"pct_lena_guano":100,"pct_basura_formal":38,"pct_basura_quema":38,"pct_basura_informal":50,"pct_internet":88,"pct_celular":100,"pct_televisor":100}},{"type":"Feature","geometry":{"type":"Polygon","coordinates":[[[-68.95582,-16.19453],[-68.95647,-16.19474],[-68.95655,-16.1944],[-68.95596,-16.19413],[-68.95582,-16.19453]]]},"properties":{"n":"TITO YUPANQUI","p":123,"personas_x_ha":385,"masculinidad":78,"pct_menor20":28,"pct_60mas":21,"pct_migrante":13,"dependencia_econ":177,"pct_empleados":5,"pct_cuentapropia":30,"pct_agricultura":70,"pct_comercio":2,"pct_manufactura":9,"pct_construccion":2,"pct_transporte":5,"pct_alojamiento":2,"pct_sin_educacion":8,"pct_educ_superior":13,"brecha_educ":-12,"pct_sin_seguro":18,"pct_sus":80,"pct_seguro_privado":0,"brecha_seguro":0,"pct_salud_publica":31,"pct_med_tradicional":17,"pct_automedicacion":21,"pct_remedios_caseros":25,"pct_viv_desocupada":0,"pct_alquiler":0,"pct_electricidad":83,"pct_sin_electricidad":8,"pct_agua_red":67,"pct_alcantarillado":25,"pct_camara_septica":0,"pct_pozo_ciego":8,"pct_sin_desague":67,"pct_gas_red":0,"pct_gas_garrafa":67,"pct_lena_guano":67,"pct_basura_formal":58,"pct_basura_quema":33,"pct_basura_informal":17,"pct_internet":58,"pct_celular":67,"pct_televisor":58}},{"type":"Feature","geometry":{"type":"Polygon","coordinates":[[[-68.95387,-16.19251],[-68.95403,-16.19316],[-68.95441,-16.19278],[-68.95497,-16.19256],[-68.95453,-16.19151],[-68.95443,-16.19148],[-68.95434,-16.19192],[-68.95387,-16.19251]]]},"properties":{"n":"TITO YUPANQUI","p":139,"personas_x_ha":138,"masculinidad":107,"pct_menor20":17,"pct_60mas":13,"pct_migrante":24,"dependencia_econ":45,"pct_empleados":31,"pct_cuentapropia":31,"pct_agricultura":41,"pct_comercio":19,"pct_manufactura":7,"pct_construccion":6,"pct_transporte":11,"pct_alojamiento":5,"pct_sin_educacion":1,"pct_educ_superior":20,"brecha_educ":-6,"pct_sin_seguro":6,"pct_sus":89,"pct_seguro_privado":0,"brecha_seguro":3,"pct_salud_publica":33,"pct_med_tradicional":14,"pct_automedicacion":20,"pct_remedios_caseros":28,"pct_viv_desocupada":0,"pct_alquiler":0,"pct_electricidad":87,"pct_sin_electricidad":7,"pct_agua_red":80,"pct_alcantarillado":33,"pct_camara_septica":7,"pct_pozo_ciego":33,"pct_sin_desague":27,"pct_gas_red":0,"pct_gas_garrafa":73,"pct_lena_guano":73,"pct_basura_formal":73,"pct_basura_quema":20,"pct_basura_informal":0,"pct_internet":60,"pct_celular":87,"pct_televisor":60}},{"type":"Feature","geometry":{"type":"Polygon","coordinates":[[[-68.95728,-16.19309],[-68.95672,-16.19302],[-68.95673,-16.19262],[-68.95698,-16.1927],[-68.95728,-16.19309]]]},"properties":{"n":"TITO YUPANQUI","p":43,"personas_x_ha":221,"masculinidad":291,"pct_menor20":63,"pct_60mas":5,"pct_migrante":12,"dependencia_econ":438,"pct_empleados":50,"pct_cuentapropia":38,"pct_agricultura":25,"pct_comercio":12,"pct_manufactura":12,"pct_construccion":12,"pct_transporte":0,"pct_alojamiento":0,"pct_sin_educacion":0,"pct_educ_superior":18,"brecha_educ":6,"pct_sin_seguro":2,"pct_sus":90,"pct_seguro_privado":0,"brecha_seguro":3,"pct_salud_publica":25,"pct_med_tradicional":23,"pct_automedicacion":25,"pct_remedios_caseros":24,"pct_viv_desocupada":0,"pct_alquiler":0,"pct_electricidad":60,"pct_sin_electricidad":40,"pct_agua_red":100,"pct_alcantarillado":0,"pct_camara_septica":0,"pct_pozo_ciego":20,"pct_sin_desague":80,"pct_gas_red":0,"pct_gas_garrafa":80,"pct_lena_guano":80,"pct_basura_formal":20,"pct_basura_quema":80,"pct_basura_informal":0,"pct_internet":60,"pct_celular":100,"pct_televisor":40}},{"type":"Feature","geometry":{"type":"Polygon","coordinates":[[[-68.95574,-16.19435],[-68.95579,-16.19405],[-68.95512,-16.19374],[-68.95501,-16.19422],[-68.95496,-16.19421],[-68.95504,-16.19374],[-68.95471,-16.1937],[-68.95434,-16.19528],[-68.95536,-16.19561],[-68.95573,-16.1944],[-68.95544,-16.19432],[-68.95574,-16.19435]]]},"properties":{"n":"TITO YUPANQUI","p":98,"personas_x_ha":44,"masculinidad":118,"pct_menor20":17,"pct_60mas":9,"pct_migrante":8,"dependencia_econ":34,"pct_empleados":41,"pct_cuentapropia":52,"pct_agricultura":15,"pct_comercio":29,"pct_manufactura":21,"pct_construccion":5,"pct_transporte":10,"pct_alojamiento":8,"pct_sin_educacion":4,"pct_educ_superior":18,"brecha_educ":-21,"pct_sin_seguro":14,"pct_sus":85,"pct_seguro_privado":0,"brecha_seguro":-6,"pct_salud_publica":23,"pct_med_tradicional":18,"pct_automedicacion":19,"pct_remedios_caseros":21,"pct_viv_desocupada":0,"pct_alquiler":0,"pct_electricidad":85,"pct_sin_electricidad":15,"pct_agua_red":54,"pct_alcantarillado":8,"pct_camara_septica":8,"pct_pozo_ciego":15,"pct_sin_desague":69,"pct_gas_red":0,"pct_gas_garrafa":69,"pct_lena_guano":69,"pct_basura_formal":31,"pct_basura_quema":38,"pct_basura_informal":46,"pct_internet":54,"pct_celular":92,"pct_televisor":54}},{"type":"Feature","geometry":{"type":"Polygon","coordinates":[[[-68.9504,-16.19351],[-68.95041,-16.19388],[-68.95213,-16.19403],[-68.95227,-16.19342],[-68.95157,-16.19327],[-68.95119,-16.19328],[-68.9504,-16.19351]]]},"properties":{"n":"TITO YUPANQUI","p":87,"personas_x_ha":68,"masculinidad":112,"pct_menor20":17,"pct_60mas":15,"pct_migrante":0,"dependencia_econ":25,"pct_empleados":25,"pct_cuentapropia":54,"pct_agricultura":26,"pct_comercio":16,"pct_manufactura":16,"pct_construccion":13,"pct_transporte":13,"pct_alojamiento":0,"pct_sin_educacion":14,"pct_educ_superior":10,"brecha_educ":-21,"pct_sin_seguro":38,"pct_sus":62,"pct_seguro_privado":0,"brecha_seguro":4,"pct_salud_publica":41,"pct_med_tradicional":15,"pct_automedicacion":16,"pct_remedios_caseros":25,"pct_viv_desocupada":0,"pct_alquiler":0,"pct_electricidad":83,"pct_sin_electricidad":17,"pct_agua_red":83,"pct_alcantarillado":8,"pct_camara_septica":0,"pct_pozo_ciego":67,"pct_sin_desague":17,"pct_gas_red":25,"pct_gas_garrafa":67,"pct_lena_guano":67,"pct_basura_formal":0,"pct_basura_quema":83,"pct_basura_informal":0,"pct_internet":75,"pct_celular":92,"pct_televisor":67}},{"type":"Feature","geometry":{"type":"Polygon","coordinates":[[[-68.95526,-16.1937],[-68.95539,-16.19295],[-68.95472,-16.19287],[-68.95473,-16.19356],[-68.95526,-16.1937]]]},"properties":{"n":"TITO YUPANQUI","p":82,"personas_x_ha":149,"masculinidad":95,"pct_menor20":37,"pct_60mas":11,"pct_migrante":48,"dependencia_econ":170,"pct_empleados":7,"pct_cuentapropia":47,"pct_agricultura":57,"pct_comercio":17,"pct_manufactura":10,"pct_construccion":0,"pct_transporte":7,"pct_alojamiento":0,"pct_sin_educacion":4,"pct_educ_superior":8,"brecha_educ":-21,"pct_sin_seguro":18,"pct_sus":82,"pct_seguro_privado":0,"brecha_seguro":5,"pct_salud_publica":45,"pct_med_tradicional":16,"pct_automedicacion":5,"pct_remedios_caseros":33,"pct_viv_desocupada":0,"pct_alquiler":0,"pct_electricidad":100,"pct_sin_electricidad":0,"pct_agua_red":77,"pct_alcantarillado":23,"pct_camara_septica":0,"pct_pozo_ciego":15,"pct_sin_desague":62,"pct_gas_red":0,"pct_gas_garrafa":85,"pct_lena_guano":85,"pct_basura_formal":77,"pct_basura_quema":23,"pct_basura_informal":0,"pct_internet":62,"pct_celular":85,"pct_televisor":54}},{"type":"Feature","geometry":{"type":"Polygon","coordinates":[[[-68.95933,-16.19245],[-68.95885,-16.19101],[-68.95854,-16.19053],[-68.95826,-16.19036],[-68.9583,-16.19024],[-68.95863,-16.19015],[-68.95894,-16.19027],[-68.95916,-16.19026],[-68.95949,-16.19163],[-68.95976,-16.19209],[-68.96027,-16.19253],[-68.96006,-16.19304],[-68.95933,-16.19245]]]},"properties":{"n":"TITO YUPANQUI","p":18,"personas_x_ha":9,"masculinidad":80,"pct_menor20":0,"pct_60mas":28,"pct_migrante":0,"dependencia_econ":20,"pct_empleados":0,"pct_cuentapropia":80,"pct_agricultura":7,"pct_comercio":7,"pct_manufactura":47,"pct_construccion":13,"pct_transporte":13,"pct_alojamiento":7,"pct_sin_educacion":11,"pct_educ_superior":0,"brecha_educ":-28,"pct_sin_seguro":11,"pct_sus":89,"pct_seguro_privado":0,"brecha_seguro":3,"pct_salud_publica":50,"pct_med_tradicional":22,"pct_automedicacion":3,"pct_remedios_caseros":25,"pct_viv_desocupada":0,"pct_alquiler":0,"pct_electricidad":17,"pct_sin_electricidad":83,"pct_agua_red":83,"pct_alcantarillado":0,"pct_camara_septica":0,"pct_pozo_ciego":17,"pct_sin_desague":83,"pct_gas_red":0,"pct_gas_garrafa":0,"pct_lena_guano":0,"pct_basura_formal":0,"pct_basura_quema":100,"pct_basura_informal":0,"pct_internet":67,"pct_celular":100,"pct_televisor":33}},{"type":"Feature","geometry":{"type":"Polygon","coordinates":[[[-68.96224,-16.19185],[-68.96236,-16.19152],[-68.96212,-16.19123],[-68.96187,-16.1912],[-68.96145,-16.19207],[-68.96075,-16.19247],[-68.96066,-16.19329],[-68.96185,-16.19316],[-68.9617,-16.19272],[-68.96192,-16.19313],[-68.9622,-16.19303],[-68.96259,-16.19271],[-68.96268,-16.19255],[-68.96249,-16.1925],[-68.96238,-16.19261],[-68.96234,-16.19253],[-68.96248,-16.19248],[-68.96268,-16.19253],[-68.96286,-16.1921],[-68.96238,-16.19153],[-68.96232,-16.19176],[-68.96228,-16.19185],[-68.96224,-16.19185]]]},"properties":{"n":"TITO YUPANQUI","p":42,"personas_x_ha":14,"masculinidad":91,"pct_menor20":29,"pct_60mas":12,"pct_migrante":2,"dependencia_econ":75,"pct_empleados":17,"pct_cuentapropia":33,"pct_agricultura":71,"pct_comercio":8,"pct_manufactura":4,"pct_construccion":12,"pct_transporte":0,"pct_alojamiento":0,"pct_sin_educacion":23,"pct_educ_superior":3,"brecha_educ":20,"pct_sin_seguro":23,"pct_sus":74,"pct_seguro_privado":0,"brecha_seguro":-33,"pct_salud_publica":34,"pct_med_tradicional":20,"pct_automedicacion":17,"pct_remedios_caseros":25,"pct_viv_desocupada":0,"pct_alquiler":0,"pct_electricidad":78,"pct_sin_electricidad":22,"pct_agua_red":78,"pct_alcantarillado":11,"pct_camara_septica":0,"pct_pozo_ciego":11,"pct_sin_desague":67,"pct_gas_red":0,"pct_gas_garrafa":11,"pct_lena_guano":11,"pct_basura_formal":0,"pct_basura_quema":89,"pct_basura_informal":0,"pct_internet":11,"pct_celular":44,"pct_televisor":33}},{"type":"Feature","geometry":{"type":"Polygon","coordinates":[[[-68.95499,-16.19143],[-68.95461,-16.19133],[-68.95457,-16.19145],[-68.95505,-16.19254],[-68.95545,-16.19248],[-68.95558,-16.19194],[-68.95499,-16.19143]]]},"properties":{"n":"TITO YUPANQUI","p":63,"personas_x_ha":79,"masculinidad":103,"pct_menor20":21,"pct_60mas":10,"pct_migrante":35,"dependencia_econ":68,"pct_empleados":5,"pct_cuentapropia":41,"pct_agricultura":46,"pct_comercio":14,"pct_manufactura":22,"pct_construccion":3,"pct_transporte":3,"pct_alojamiento":0,"pct_sin_educacion":6,"pct_educ_superior":27,"brecha_educ":-3,"pct_sin_seguro":44,"pct_sus":47,"pct_seguro_privado":2,"brecha_seguro":3,"pct_salud_publica":32,"pct_med_tradicional":7,"pct_automedicacion":22,"pct_remedios_caseros":29,"pct_viv_desocupada":0,"pct_alquiler":0,"pct_electricidad":88,"pct_sin_electricidad":12,"pct_agua_red":50,"pct_alcantarillado":12,"pct_camara_septica":12,"pct_pozo_ciego":38,"pct_sin_desague":38,"pct_gas_red":0,"pct_gas_garrafa":100,"pct_lena_guano":100,"pct_basura_formal":62,"pct_basura_quema":38,"pct_basura_informal":0,"pct_internet":75,"pct_celular":88,"pct_televisor":75}},{"type":"Feature","geometry":{"type":"Polygon","coordinates":[[[-68.95172,-16.1924],[-68.95132,-16.19254],[-68.95142,-16.1927],[-68.9515,-16.19319],[-68.95275,-16.19333],[-68.95252,-16.19288],[-68.95194,-16.19245],[-68.95172,-16.1924]]]},"properties":{"n":"TITO YUPANQUI","p":105,"personas_x_ha":105,"masculinidad":139,"pct_menor20":18,"pct_60mas":18,"pct_migrante":12,"dependencia_econ":46,"pct_empleados":8,"pct_cuentapropia":39,"pct_agricultura":47,"pct_comercio":21,"pct_manufactura":4,"pct_construccion":6,"pct_transporte":4,"pct_alojamiento":6,"pct_sin_educacion":14,"pct_educ_superior":24,"brecha_educ":7,"pct_sin_seguro":49,"pct_sus":50,"pct_seguro_privado":0,"brecha_seguro":2,"pct_salud_publica":56,"pct_med_tradicional":9,"pct_automedicacion":9,"pct_remedios_caseros":22,"pct_viv_desocupada":0,"pct_alquiler":0,"pct_electricidad":93,"pct_sin_electricidad":7,"pct_agua_red":36,"pct_alcantarillado":0,"pct_camara_septica":0,"pct_pozo_ciego":64,"pct_sin_desague":36,"pct_gas_red":0,"pct_gas_garrafa":71,"pct_lena_guano":71,"pct_basura_formal":0,"pct_basura_quema":93,"pct_basura_informal":0,"pct_internet":43,"pct_celular":86,"pct_televisor":79}},{"type":"Feature","geometry":{"type":"Polygon","coordinates":[[[-68.95178,-16.1911],[-68.95162,-16.19139],[-68.95141,-16.19135],[-68.95011,-16.19163],[-68.95002,-16.19158],[-68.95115,-16.19079],[-68.95184,-16.19069],[-68.95194,-16.19094],[-68.95188,-16.19104],[-68.95163,-16.19112],[-68.95178,-16.1911]]]},"properties":{"n":"TITO YUPANQUI","p":43,"personas_x_ha":44,"masculinidad":153,"pct_menor20":16,"pct_60mas":23,"pct_migrante":60,"dependencia_econ":27,"pct_empleados":27,"pct_cuentapropia":42,"pct_agricultura":21,"pct_comercio":12,"pct_manufactura":9,"pct_construccion":33,"pct_transporte":12,"pct_alojamiento":3,"pct_sin_educacion":0,"pct_educ_superior":6,"brecha_educ":0,"pct_sin_seguro":20,"pct_sus":80,"pct_seguro_privado":0,"brecha_seguro":-16,"pct_salud_publica":30,"pct_med_tradicional":19,"pct_automedicacion":22,"pct_remedios_caseros":25,"pct_viv_desocupada":0,"pct_alquiler":14,"pct_electricidad":86,"pct_sin_electricidad":14,"pct_agua_red":71,"pct_alcantarillado":14,"pct_camara_septica":29,"pct_pozo_ciego":29,"pct_sin_desague":29,"pct_gas_red":0,"pct_gas_garrafa":57,"pct_lena_guano":57,"pct_basura_formal":0,"pct_basura_quema":100,"pct_basura_informal":0,"pct_internet":43,"pct_celular":57,"pct_televisor":43}},{"type":"Feature","geometry":{"type":"Polygon","coordinates":[[[-68.95368,-16.18883],[-68.9536,-16.18883],[-68.95353,-16.18908],[-68.95402,-16.18897],[-68.95426,-16.18943],[-68.95355,-16.18946],[-68.95342,-16.18954],[-68.95344,-16.18941],[-68.95327,-16.18946],[-68.9534,-16.18944],[-68.9534,-16.18957],[-68.95298,-16.19005],[-68.9525,-16.18959],[-68.9528,-16.18892],[-68.95266,-16.18883],[-68.95299,-16.18854],[-68.95316,-16.1888],[-68.95305,-16.18851],[-68.95333,-16.18845],[-68.95371,-16.1886],[-68.95368,-16.18883]]]},"properties":{"n":"TITO YUPANQUI","p":57,"personas_x_ha":34,"masculinidad":90,"pct_menor20":23,"pct_60mas":9,"pct_migrante":4,"dependencia_econ":28,"pct_empleados":19,"pct_cuentapropia":60,"pct_agricultura":33,"pct_comercio":14,"pct_manufactura":21,"pct_construccion":12,"pct_transporte":2,"pct_alojamiento":7,"pct_sin_educacion":2,"pct_educ_superior":14,"brecha_educ":-11,"pct_sin_seguro":32,"pct_sus":64,"pct_seguro_privado":0,"brecha_seguro":2,"pct_salud_publica":41,"pct_med_tradicional":12,"pct_automedicacion":15,"pct_remedios_caseros":29,"pct_viv_desocupada":0,"pct_alquiler":0,"pct_electricidad":38,"pct_sin_electricidad":62,"pct_agua_red":38,"pct_alcantarillado":0,"pct_camara_septica":0,"pct_pozo_ciego":0,"pct_sin_desague":100,"pct_gas_red":0,"pct_gas_garrafa":0,"pct_lena_guano":0,"pct_basura_formal":12,"pct_basura_quema":88,"pct_basura_informal":0,"pct_internet":50,"pct_celular":88,"pct_televisor":12}},{"type":"Feature","geometry":{"type":"Polygon","coordinates":[[[-68.95747,-16.19381],[-68.95713,-16.19317],[-68.95671,-16.19314],[-68.95674,-16.19363],[-68.95741,-16.19386],[-68.95747,-16.19381]]]},"properties":{"n":"TITO YUPANQUI","p":76,"personas_x_ha":185,"masculinidad":105,"pct_menor20":12,"pct_60mas":17,"pct_migrante":5,"dependencia_econ":347,"pct_empleados":12,"pct_cuentapropia":71,"pct_agricultura":35,"pct_comercio":18,"pct_manufactura":6,"pct_construccion":18,"pct_transporte":18,"pct_alojamiento":6,"pct_sin_educacion":0,"pct_educ_superior":1,"brecha_educ":-6,"pct_sin_seguro":3,"pct_sus":96,"pct_seguro_privado":1,"brecha_seguro":5,"pct_salud_publica":26,"pct_med_tradicional":25,"pct_automedicacion":22,"pct_remedios_caseros":24,"pct_viv_desocupada":0,"pct_alquiler":0,"pct_electricidad":86,"pct_sin_electricidad":14,"pct_agua_red":57,"pct_alcantarillado":29,"pct_camara_septica":0,"pct_pozo_ciego":14,"pct_sin_desague":57,"pct_gas_red":14,"pct_gas_garrafa":71,"pct_lena_guano":71,"pct_basura_formal":14,"pct_basura_quema":86,"pct_basura_informal":0,"pct_internet":57,"pct_celular":86,"pct_televisor":71}},{"type":"Feature","geometry":{"type":"Polygon","coordinates":[[[-68.95386,-16.19369],[-68.95464,-16.19357],[-68.95458,-16.19281],[-68.95398,-16.19331],[-68.95373,-16.19342],[-68.95386,-16.19369]]]},"properties":{"n":"TITO YUPANQUI","p":46,"personas_x_ha":89,"masculinidad":100,"pct_menor20":22,"pct_60mas":20,"pct_migrante":43,"dependencia_econ":32,"pct_empleados":15,"pct_cuentapropia":65,"pct_agricultura":29,"pct_comercio":21,"pct_manufactura":32,"pct_construccion":0,"pct_transporte":6,"pct_alojamiento":6,"pct_sin_educacion":0,"pct_educ_superior":25,"brecha_educ":-15,"pct_sin_seguro":40,"pct_sus":53,"pct_seguro_privado":0,"brecha_seguro":7,"pct_salud_publica":21,"pct_med_tradicional":11,"pct_automedicacion":24,"pct_remedios_caseros":26,"pct_viv_desocupada":0,"pct_alquiler":0,"pct_electricidad":83,"pct_sin_electricidad":17,"pct_agua_red":58,"pct_alcantarillado":25,"pct_camara_septica":0,"pct_pozo_ciego":25,"pct_sin_desague":42,"pct_gas_red":0,"pct_gas_garrafa":83,"pct_lena_guano":83,"pct_basura_formal":50,"pct_basura_quema":50,"pct_basura_informal":0,"pct_internet":67,"pct_celular":83,"pct_televisor":50}},{"type":"Feature","geometry":{"type":"Polygon","coordinates":[[[-68.95737,-16.19482],[-68.95834,-16.19567],[-68.95842,-16.19558],[-68.95835,-16.19567],[-68.95871,-16.19595],[-68.95892,-16.19554],[-68.95843,-16.1954],[-68.95823,-16.19525],[-68.95783,-16.19457],[-68.95737,-16.19482]]]},"properties":{"n":"TITO YUPANQUI","p":203,"personas_x_ha":302,"masculinidad":118,"pct_menor20":18,"pct_60mas":16,"pct_migrante":4,"dependencia_econ":38,"pct_empleados":28,"pct_cuentapropia":61,"pct_agricultura":25,"pct_comercio":18,"pct_manufactura":18,"pct_construccion":22,"pct_transporte":7,"pct_alojamiento":1,"pct_sin_educacion":11,"pct_educ_superior":16,"brecha_educ":-18,"pct_sin_seguro":17,"pct_sus":82,"pct_seguro_privado":0,"brecha_seguro":-9,"pct_salud_publica":55,"pct_med_tradicional":7,"pct_automedicacion":12,"pct_remedios_caseros":23,"pct_viv_desocupada":0,"pct_alquiler":0,"pct_electricidad":91,"pct_sin_electricidad":9,"pct_agua_red":95,"pct_alcantarillado":0,"pct_camara_septica":0,"pct_pozo_ciego":5,"pct_sin_desague":91,"pct_gas_red":0,"pct_gas_garrafa":59,"pct_lena_guano":59,"pct_basura_formal":5,"pct_basura_quema":73,"pct_basura_informal":9,"pct_internet":36,"pct_celular":77,"pct_televisor":55}},{"type":"Feature","geometry":{"type":"Polygon","coordinates":[[[-68.95586,-16.19395],[-68.95589,-16.19361],[-68.95538,-16.19356],[-68.95537,-16.19373],[-68.95586,-16.19395]]]},"properties":{"n":"TITO YUPANQUI","p":103,"personas_x_ha":631,"masculinidad":115,"pct_menor20":18,"pct_60mas":13,"pct_migrante":5,"dependencia_econ":75,"pct_empleados":24,"pct_cuentapropia":53,"pct_agricultura":24,"pct_comercio":19,"pct_manufactura":19,"pct_construccion":2,"pct_transporte":20,"pct_alojamiento":5,"pct_sin_educacion":0,"pct_educ_superior":15,"brecha_educ":7,"pct_sin_seguro":3,"pct_sus":90,"pct_seguro_privado":0,"brecha_seguro":6,"pct_salud_publica":37,"pct_med_tradicional":16,"pct_automedicacion":13,"pct_remedios_caseros":20,"pct_viv_desocupada":0,"pct_alquiler":0,"pct_electricidad":88,"pct_sin_electricidad":12,"pct_agua_red":88,"pct_alcantarillado":0,"pct_camara_septica":0,"pct_pozo_ciego":38,"pct_sin_desague":62,"pct_gas_red":0,"pct_gas_garrafa":88,"pct_lena_guano":88,"pct_basura_formal":50,"pct_basura_quema":50,"pct_basura_informal":0,"pct_internet":38,"pct_celular":75,"pct_televisor":62}},{"type":"Feature","geometry":{"type":"Polygon","coordinates":[[[-68.9592,-16.19643],[-68.95985,-16.19576],[-68.95985,-16.1956],[-68.95902,-16.19554],[-68.95896,-16.19561],[-68.95876,-16.19602],[-68.9592,-16.19643]]]},"properties":{"n":"TITO YUPANQUI","p":69,"personas_x_ha":100,"masculinidad":116,"pct_menor20":16,"pct_60mas":22,"pct_migrante":9,"dependencia_econ":35,"pct_empleados":12,"pct_cuentapropia":67,"pct_agricultura":25,"pct_comercio":10,"pct_manufactura":22,"pct_construccion":14,"pct_transporte":16,"pct_alojamiento":2,"pct_sin_educacion":9,"pct_educ_superior":12,"brecha_educ":-19,"pct_sin_seguro":20,"pct_sus":75,"pct_seguro_privado":0,"brecha_seguro":3,"pct_salud_publica":50,"pct_med_tradicional":15,"pct_automedicacion":11,"pct_remedios_caseros":20,"pct_viv_desocupada":0,"pct_alquiler":0,"pct_electricidad":90,"pct_sin_electricidad":10,"pct_agua_red":70,"pct_alcantarillado":0,"pct_camara_septica":0,"pct_pozo_ciego":30,"pct_sin_desague":70,"pct_gas_red":10,"pct_gas_garrafa":90,"pct_lena_guano":90,"pct_basura_formal":0,"pct_basura_quema":60,"pct_basura_informal":0,"pct_internet":50,"pct_celular":100,"pct_televisor":60}},{"type":"Feature","geometry":{"type":"Polygon","coordinates":[[[-68.95558,-16.19031],[-68.95543,-16.19052],[-68.95563,-16.19032],[-68.95585,-16.19039],[-68.95601,-16.19064],[-68.95597,-16.19098],[-68.95574,-16.1915],[-68.95543,-16.19136],[-68.95491,-16.19067],[-68.95472,-16.19028],[-68.95521,-16.18997],[-68.95558,-16.19031]]]},"properties":{"n":"TITO YUPANQUI","p":65,"personas_x_ha":49,"masculinidad":210,"pct_menor20":11,"pct_60mas":20,"pct_migrante":17,"dependencia_econ":33,"pct_empleados":15,"pct_cuentapropia":69,"pct_agricultura":33,"pct_comercio":12,"pct_manufactura":19,"pct_construccion":15,"pct_transporte":8,"pct_alojamiento":2,"pct_sin_educacion":5,"pct_educ_superior":12,"brecha_educ":-29,"pct_sin_seguro":16,"pct_sus":84,"pct_seguro_privado":0,"brecha_seguro":-6,"pct_salud_publica":44,"pct_med_tradicional":10,"pct_automedicacion":17,"pct_remedios_caseros":24,"pct_viv_desocupada":0,"pct_alquiler":10,"pct_electricidad":90,"pct_sin_electricidad":10,"pct_agua_red":70,"pct_alcantarillado":0,"pct_camara_septica":10,"pct_pozo_ciego":10,"pct_sin_desague":70,"pct_gas_red":0,"pct_gas_garrafa":70,"pct_lena_guano":70,"pct_basura_formal":10,"pct_basura_quema":90,"pct_basura_informal":0,"pct_internet":50,"pct_celular":70,"pct_televisor":20}},{"type":"Feature","geometry":{"type":"Polygon","coordinates":[[[-68.95606,-16.19353],[-68.95661,-16.19353],[-68.95657,-16.19307],[-68.95614,-16.193],[-68.95606,-16.19353]]]},"properties":{"n":"TITO YUPANQUI","p":146,"personas_x_ha":453,"masculinidad":97,"pct_menor20":29,"pct_60mas":12,"pct_migrante":18,"dependencia_econ":75,"pct_empleados":12,"pct_cuentapropia":63,"pct_agricultura":25,"pct_comercio":18,"pct_manufactura":12,"pct_construccion":16,"pct_transporte":14,"pct_alojamiento":2,"pct_sin_educacion":7,"pct_educ_superior":11,"brecha_educ":-15,"pct_sin_seguro":4,"pct_sus":90,"pct_seguro_privado":0,"brecha_seguro":-1,"pct_salud_publica":43,"pct_med_tradicional":14,"pct_automedicacion":18,"pct_remedios_caseros":20,"pct_viv_desocupada":0,"pct_alquiler":11,"pct_electricidad":78,"pct_sin_electricidad":22,"pct_agua_red":72,"pct_alcantarillado":11,"pct_camara_septica":17,"pct_pozo_ciego":0,"pct_sin_desague":72,"pct_gas_red":0,"pct_gas_garrafa":72,"pct_lena_guano":72,"pct_basura_formal":67,"pct_basura_quema":28,"pct_basura_informal":0,"pct_internet":50,"pct_celular":72,"pct_televisor":44}},{"type":"Feature","geometry":{"type":"Polygon","coordinates":[[[-68.95221,-16.19165],[-68.95244,-16.19144],[-68.95218,-16.19161],[-68.95169,-16.19141],[-68.95204,-16.19099],[-68.95229,-16.19086],[-68.95269,-16.19089],[-68.95248,-16.19077],[-68.95323,-16.19079],[-68.95336,-16.19123],[-68.95341,-16.19131],[-68.95326,-16.19078],[-68.95225,-16.19073],[-68.95182,-16.1906],[-68.95269,-16.19047],[-68.95336,-16.18975],[-68.95444,-16.19128],[-68.95429,-16.19183],[-68.95411,-16.192],[-68.95389,-16.19193],[-68.95398,-16.19202],[-68.95376,-16.19251],[-68.95359,-16.19264],[-68.9533,-16.19271],[-68.95312,-16.19266],[-68.95281,-16.19238],[-68.95221,-16.19165]]]},"properties":{"n":"TITO YUPANQUI","p":242,"personas_x_ha":47,"masculinidad":144,"pct_menor20":24,"pct_60mas":10,"pct_migrante":53,"dependencia_econ":47,"pct_empleados":12,"pct_cuentapropia":57,"pct_agricultura":37,"pct_comercio":14,"pct_manufactura":12,"pct_construccion":9,"pct_transporte":6,"pct_alojamiento":1,"pct_sin_educacion":3,"pct_educ_superior":8,"brecha_educ":-23,"pct_sin_seguro":21,"pct_sus":79,"pct_seguro_privado":0,"brecha_seguro":0,"pct_salud_publica":33,"pct_med_tradicional":19,"pct_automedicacion":18,"pct_remedios_caseros":29,"pct_viv_desocupada":0,"pct_alquiler":3,"pct_electricidad":78,"pct_sin_electricidad":22,"pct_agua_red":66,"pct_alcantarillado":6,"pct_camara_septica":25,"pct_pozo_ciego":22,"pct_sin_desague":47,"pct_gas_red":0,"pct_gas_garrafa":44,"pct_lena_guano":44,"pct_basura_formal":3,"pct_basura_quema":84,"pct_basura_informal":12,"pct_internet":41,"pct_celular":78,"pct_televisor":44}},{"type":"Feature","geometry":{"type":"Polygon","coordinates":[[[-68.95621,-16.19244],[-68.95671,-16.19249],[-68.95692,-16.19022],[-68.95618,-16.19035],[-68.95607,-16.19056],[-68.95599,-16.19105],[-68.95579,-16.1915],[-68.95563,-16.19165],[-68.95567,-16.19187],[-68.95552,-16.1925],[-68.95621,-16.19244]]]},"properties":{"n":"TITO YUPANQUI","p":206,"personas_x_ha":81,"masculinidad":124,"pct_menor20":22,"pct_60mas":9,"pct_migrante":3,"dependencia_econ":60,"pct_empleados":27,"pct_cuentapropia":51,"pct_agricultura":31,"pct_comercio":16,"pct_manufactura":20,"pct_construccion":14,"pct_transporte":3,"pct_alojamiento":2,"pct_sin_educacion":4,"pct_educ_superior":28,"brecha_educ":-12,"pct_sin_seguro":36,"pct_sus":56,"pct_seguro_privado":1,"brecha_seguro":6,"pct_salud_publica":38,"pct_med_tradicional":9,"pct_automedicacion":14,"pct_remedios_caseros":31,"pct_viv_desocupada":0,"pct_alquiler":0,"pct_electricidad":93,"pct_sin_electricidad":7,"pct_agua_red":96,"pct_alcantarillado":30,"pct_camara_septica":4,"pct_pozo_ciego":19,"pct_sin_desague":48,"pct_gas_red":0,"pct_gas_garrafa":81,"pct_lena_guano":81,"pct_basura_formal":63,"pct_basura_quema":26,"pct_basura_informal":0,"pct_internet":52,"pct_celular":81,"pct_televisor":63}},{"type":"Feature","geometry":{"type":"Polygon","coordinates":[[[-68.95678,-16.19435],[-68.95726,-16.19475],[-68.95781,-16.19447],[-68.95762,-16.19402],[-68.95675,-16.19371],[-68.95678,-16.19435]]]},"properties":{"n":"TITO YUPANQUI","p":148,"personas_x_ha":178,"masculinidad":174,"pct_menor20":17,"pct_60mas":9,"pct_migrante":6,"dependencia_econ":36,"pct_empleados":17,"pct_cuentapropia":45,"pct_agricultura":24,"pct_comercio":13,"pct_manufactura":14,"pct_construccion":19,"pct_transporte":13,"pct_alojamiento":3,"pct_sin_educacion":7,"pct_educ_superior":11,"brecha_educ":-28,"pct_sin_seguro":37,"pct_sus":58,"pct_seguro_privado":0,"brecha_seguro":-13,"pct_salud_publica":30,"pct_med_tradicional":16,"pct_automedicacion":17,"pct_remedios_caseros":29,"pct_viv_desocupada":0,"pct_alquiler":5,"pct_electricidad":75,"pct_sin_electricidad":25,"pct_agua_red":85,"pct_alcantarillado":0,"pct_camara_septica":5,"pct_pozo_ciego":5,"pct_sin_desague":90,"pct_gas_red":0,"pct_gas_garrafa":85,"pct_lena_guano":85,"pct_basura_formal":40,"pct_basura_quema":55,"pct_basura_informal":10,"pct_internet":60,"pct_celular":95,"pct_televisor":65}},{"type":"Feature","geometry":{"type":"Polygon","coordinates":[[[-68.96007,-16.19336],[-68.96173,-16.19329],[-68.96237,-16.19301],[-68.96278,-16.19251],[-68.96301,-16.19264],[-68.96298,-16.19298],[-68.96288,-16.19317],[-68.96235,-16.19367],[-68.96144,-16.19419],[-68.96137,-16.19448],[-68.96025,-16.19433],[-68.96023,-16.19452],[-68.96008,-16.1945],[-68.96005,-16.1949],[-68.95991,-16.19488],[-68.95995,-16.194],[-68.96007,-16.19369],[-68.96007,-16.19338],[-68.96032,-16.19367],[-68.96053,-16.1938],[-68.96007,-16.19336]]]},"properties":{"n":"TITO YUPANQUI","p":58,"personas_x_ha":18,"masculinidad":152,"pct_menor20":26,"pct_60mas":28,"pct_migrante":16,"dependencia_econ":66,"pct_empleados":0,"pct_cuentapropia":60,"pct_agricultura":37,"pct_comercio":14,"pct_manufactura":34,"pct_construccion":3,"pct_transporte":0,"pct_alojamiento":0,"pct_sin_educacion":12,"pct_educ_superior":12,"brecha_educ":-5,"pct_sin_seguro":27,"pct_sus":68,"pct_seguro_privado":0,"brecha_seguro":-10,"pct_salud_publica":39,"pct_med_tradicional":8,"pct_automedicacion":21,"pct_remedios_caseros":28,"pct_viv_desocupada":0,"pct_alquiler":0,"pct_electricidad":78,"pct_sin_electricidad":22,"pct_agua_red":78,"pct_alcantarillado":11,"pct_camara_septica":0,"pct_pozo_ciego":22,"pct_sin_desague":67,"pct_gas_red":0,"pct_gas_garrafa":11,"pct_lena_guano":11,"pct_basura_formal":0,"pct_basura_quema":67,"pct_basura_informal":44,"pct_internet":0,"pct_celular":89,"pct_televisor":22}}]}