{"type":"FeatureCollection","features":[{"type":"Feature","geometry":{"type":"Polygon","coordinates":[[[-68.56097,-16.15144],[-68.55987,-16.15292],[-68.56048,-16.15348],[-68.56061,-16.1532],[-68.56125,-16.15382],[-68.56216,-16.15224],[-68.56097,-16.15144]]]},"properties":{"n":"COROMATA BAJA","p":37,"personas_x_ha":11,"masculinidad":236,"pct_menor20":27,"pct_60mas":27,"pct_migrante":16,"dependencia_econ":94,"pct_empleados":22,"pct_cuentapropia":44,"pct_agricultura":39,"pct_comercio":11,"pct_manufactura":11,"pct_construccion":6,"pct_transporte":6,"pct_alojamiento":6,"pct_sin_educacion":4,"pct_educ_superior":20,"brecha_educ":4,"pct_sin_seguro":29,"pct_sus":71,"pct_seguro_privado":0,"brecha_seguro":-2,"pct_salud_publica":39,"pct_med_tradicional":10,"pct_automedicacion":16,"pct_remedios_caseros":18,"pct_viv_desocupada":16,"pct_alquiler":0,"pct_electricidad":69,"pct_sin_electricidad":31,"pct_agua_red":50,"pct_alcantarillado":0,"pct_camara_septica":12,"pct_pozo_ciego":19,"pct_sin_desague":25,"pct_gas_red":0,"pct_gas_garrafa":75,"pct_lena_guano":25,"pct_basura_formal":19,"pct_basura_quema":50,"pct_basura_informal":6,"pct_internet":25,"pct_celular":81,"pct_televisor":44}},{"type":"Feature","geometry":{"type":"Polygon","coordinates":[[[-68.56123,-16.15097],[-68.56096,-16.15136],[-68.55988,-16.15063],[-68.56063,-16.15055],[-68.56123,-16.15097]]]},"properties":{"n":"COROMATA BAJA","p":20,"personas_x_ha":34,"masculinidad":122,"pct_menor20":40,"pct_60mas":10,"pct_migrante":5,"dependencia_econ":122,"pct_empleados":0,"pct_cuentapropia":44,"pct_agricultura":33,"pct_comercio":11,"pct_manufactura":33,"pct_construccion":11,"pct_transporte":11,"pct_alojamiento":0,"pct_sin_educacion":0,"pct_educ_superior":0,"brecha_educ":-6,"pct_sin_seguro":5,"pct_sus":95,"pct_seguro_privado":0,"brecha_seguro":10,"pct_salud_publica":29,"pct_med_tradicional":27,"pct_automedicacion":8,"pct_remedios_caseros":24,"pct_viv_desocupada":0,"pct_alquiler":18,"pct_electricidad":55,"pct_sin_electricidad":45,"pct_agua_red":0,"pct_alcantarillado":9,"pct_camara_septica":27,"pct_pozo_ciego":18,"pct_sin_desague":9,"pct_gas_red":0,"pct_gas_garrafa":82,"pct_lena_guano":0,"pct_basura_formal":0,"pct_basura_quema":73,"pct_basura_informal":0,"pct_internet":45,"pct_celular":55,"pct_televisor":36}},{"type":"Feature","geometry":{"type":"Polygon","coordinates":[[[-68.55976,-16.15155],[-68.5594,-16.15126],[-68.55984,-16.15067],[-68.56022,-16.15092],[-68.55976,-16.15155]]]},"properties":{"n":"COROMATA BAJA","p":17,"personas_x_ha":41,"masculinidad":89,"pct_menor20":29,"pct_60mas":18,"pct_migrante":0,"dependencia_econ":78,"pct_empleados":22,"pct_cuentapropia":67,"pct_agricultura":44,"pct_comercio":0,"pct_manufactura":22,"pct_construccion":22,"pct_transporte":0,"pct_alojamiento":0,"pct_sin_educacion":9,"pct_educ_superior":18,"brecha_educ":3,"pct_sin_seguro":6,"pct_sus":75,"pct_seguro_privado":6,"brecha_seguro":14,"pct_salud_publica":37,"pct_med_tradicional":5,"pct_automedicacion":16,"pct_remedios_caseros":29,"pct_viv_desocupada":0,"pct_alquiler":0,"pct_electricidad":60,"pct_sin_electricidad":40,"pct_agua_red":60,"pct_alcantarillado":10,"pct_camara_septica":0,"pct_pozo_ciego":0,"pct_sin_desague":50,"pct_gas_red":0,"pct_gas_garrafa":100,"pct_lena_guano":0,"pct_basura_formal":0,"pct_basura_quema":100,"pct_basura_informal":0,"pct_internet":20,"pct_celular":40,"pct_televisor":50}},{"type":"Feature","geometry":{"type":"Polygon","coordinates":[[[-68.56241,-16.1518],[-68.56189,-16.15142],[-68.56162,-16.15181],[-68.56216,-16.15217],[-68.56241,-16.1518]]]},"properties":{"n":"COROMATA BAJA","p":16,"personas_x_ha":45,"masculinidad":60,"pct_menor20":50,"pct_60mas":0,"pct_migrante":12,"dependencia_econ":67,"pct_empleados":0,"pct_cuentapropia":56,"pct_agricultura":89,"pct_comercio":0,"pct_manufactura":0,"pct_construccion":0,"pct_transporte":0,"pct_alojamiento":11,"pct_sin_educacion":0,"pct_educ_superior":0,"brecha_educ":-20,"pct_sin_seguro":0,"pct_sus":100,"pct_seguro_privado":0,"brecha_seguro":0,"pct_salud_publica":28,"pct_med_tradicional":17,"pct_automedicacion":14,"pct_remedios_caseros":26,"pct_viv_desocupada":0,"pct_alquiler":0,"pct_electricidad":86,"pct_sin_electricidad":14,"pct_agua_red":14,"pct_alcantarillado":14,"pct_camara_septica":0,"pct_pozo_ciego":43,"pct_sin_desague":14,"pct_gas_red":0,"pct_gas_garrafa":86,"pct_lena_guano":14,"pct_basura_formal":0,"pct_basura_quema":100,"pct_basura_informal":0,"pct_internet":43,"pct_celular":57,"pct_televisor":43}},{"type":"Feature","geometry":{"type":"Polygon","coordinates":[[[-68.56014,-16.15248],[-68.56043,-16.1521],[-68.55974,-16.15162],[-68.55947,-16.15199],[-68.56014,-16.15248]]]},"properties":{"n":"COROMATA BAJA","p":19,"personas_x_ha":41,"masculinidad":171,"pct_menor20":21,"pct_60mas":21,"pct_migrante":0,"dependencia_econ":58,"pct_empleados":33,"pct_cuentapropia":58,"pct_agricultura":33,"pct_comercio":8,"pct_manufactura":25,"pct_construccion":17,"pct_transporte":0,"pct_alojamiento":8,"pct_sin_educacion":0,"pct_educ_superior":7,"brecha_educ":33,"pct_sin_seguro":5,"pct_sus":95,"pct_seguro_privado":0,"brecha_seguro":8,"pct_salud_publica":35,"pct_med_tradicional":19,"pct_automedicacion":12,"pct_remedios_caseros":21,"pct_viv_desocupada":0,"pct_alquiler":0,"pct_electricidad":58,"pct_sin_electricidad":42,"pct_agua_red":25,"pct_alcantarillado":0,"pct_camara_septica":0,"pct_pozo_ciego":17,"pct_sin_desague":50,"pct_gas_red":0,"pct_gas_garrafa":100,"pct_lena_guano":0,"pct_basura_formal":0,"pct_basura_quema":92,"pct_basura_informal":8,"pct_internet":58,"pct_celular":100,"pct_televisor":25}},{"type":"Feature","geometry":{"type":"Polygon","coordinates":[[[-68.60224,-16.19023],[-68.60153,-16.19015],[-68.60146,-16.19034],[-68.60213,-16.19053],[-68.60224,-16.19023]]]},"properties":{"n":"HUARINA","p":15,"personas_x_ha":64,"masculinidad":88,"pct_menor20":20,"pct_60mas":20,"pct_migrante":47,"dependencia_econ":50,"pct_empleados":40,"pct_cuentapropia":30,"pct_agricultura":0,"pct_comercio":40,"pct_manufactura":10,"pct_construccion":10,"pct_transporte":0,"pct_alojamiento":0,"pct_sin_educacion":0,"pct_educ_superior":75,"brecha_educ":-29,"pct_sin_seguro":27,"pct_sus":40,"pct_seguro_privado":7,"brecha_seguro":-23,"pct_salud_publica":21,"pct_med_tradicional":15,"pct_automedicacion":12,"pct_remedios_caseros":27,"pct_viv_desocupada":10,"pct_alquiler":0,"pct_electricidad":100,"pct_sin_electricidad":0,"pct_agua_red":62,"pct_alcantarillado":25,"pct_camara_septica":12,"pct_pozo_ciego":38,"pct_sin_desague":12,"pct_gas_red":0,"pct_gas_garrafa":100,"pct_lena_guano":0,"pct_basura_formal":100,"pct_basura_quema":0,"pct_basura_informal":0,"pct_internet":75,"pct_celular":75,"pct_televisor":75}},{"type":"Feature","geometry":{"type":"Polygon","coordinates":[[[-68.59909,-16.19562],[-68.59918,-16.19487],[-68.59853,-16.19472],[-68.59804,-16.19472],[-68.598,-16.19553],[-68.59909,-16.19562]]]},"properties":{"n":"HUARINA","p":19,"personas_x_ha":17,"masculinidad":73,"pct_menor20":26,"pct_60mas":16,"pct_migrante":47,"dependencia_econ":73,"pct_empleados":27,"pct_cuentapropia":55,"pct_agricultura":9,"pct_comercio":9,"pct_manufactura":0,"pct_construccion":9,"pct_transporte":0,"pct_alojamiento":36,"pct_sin_educacion":7,"pct_educ_superior":29,"brecha_educ":-21,"pct_sin_seguro":0,"pct_sus":95,"pct_seguro_privado":0,"brecha_seguro":0,"pct_salud_publica":47,"pct_med_tradicional":12,"pct_automedicacion":16,"pct_remedios_caseros":12,"pct_viv_desocupada":0,"pct_alquiler":0,"pct_electricidad":88,"pct_sin_electricidad":12,"pct_agua_red":62,"pct_alcantarillado":0,"pct_camara_septica":25,"pct_pozo_ciego":12,"pct_sin_desague":62,"pct_gas_red":0,"pct_gas_garrafa":100,"pct_lena_guano":0,"pct_basura_formal":75,"pct_basura_quema":25,"pct_basura_informal":0,"pct_internet":88,"pct_celular":88,"pct_televisor":88}},{"type":"Feature","geometry":{"type":"Polygon","coordinates":[[[-68.60006,-16.19433],[-68.59981,-16.19556],[-68.60015,-16.1957],[-68.60063,-16.19454],[-68.60006,-16.19433]]]},"properties":{"n":"HUARINA","p":15,"personas_x_ha":21,"masculinidad":67,"pct_menor20":13,"pct_60mas":40,"pct_migrante":27,"dependencia_econ":25,"pct_empleados":17,"pct_cuentapropia":75,"pct_agricultura":25,"pct_comercio":25,"pct_manufactura":17,"pct_construccion":8,"pct_transporte":0,"pct_alojamiento":0,"pct_sin_educacion":0,"pct_educ_superior":38,"brecha_educ":-50,"pct_sin_seguro":33,"pct_sus":47,"pct_seguro_privado":0,"brecha_seguro":0,"pct_salud_publica":22,"pct_med_tradicional":18,"pct_automedicacion":24,"pct_remedios_caseros":22,"pct_viv_desocupada":0,"pct_alquiler":9,"pct_electricidad":100,"pct_sin_electricidad":0,"pct_agua_red":100,"pct_alcantarillado":9,"pct_camara_septica":9,"pct_pozo_ciego":45,"pct_sin_desague":36,"pct_gas_red":0,"pct_gas_garrafa":100,"pct_lena_guano":0,"pct_basura_formal":91,"pct_basura_quema":9,"pct_basura_informal":0,"pct_internet":64,"pct_celular":91,"pct_televisor":73}},{"type":"Feature","geometry":{"type":"Polygon","coordinates":[[[-68.60094,-16.19366],[-68.60029,-16.19349],[-68.60006,-16.19427],[-68.60064,-16.19448],[-68.60094,-16.19366]]]},"properties":{"n":"HUARINA","p":29,"personas_x_ha":42,"masculinidad":71,"pct_menor20":34,"pct_60mas":31,"pct_migrante":24,"dependencia_econ":61,"pct_empleados":28,"pct_cuentapropia":56,"pct_agricultura":22,"pct_comercio":33,"pct_manufactura":11,"pct_construccion":22,"pct_transporte":0,"pct_alojamiento":0,"pct_sin_educacion":5,"pct_educ_superior":26,"brecha_educ":-38,"pct_sin_seguro":7,"pct_sus":79,"pct_seguro_privado":0,"brecha_seguro":17,"pct_salud_publica":24,"pct_med_tradicional":19,"pct_automedicacion":20,"pct_remedios_caseros":24,"pct_viv_desocupada":0,"pct_alquiler":13,"pct_electricidad":67,"pct_sin_electricidad":33,"pct_agua_red":73,"pct_alcantarillado":0,"pct_camara_septica":27,"pct_pozo_ciego":27,"pct_sin_desague":47,"pct_gas_red":0,"pct_gas_garrafa":93,"pct_lena_guano":0,"pct_basura_formal":100,"pct_basura_quema":0,"pct_basura_informal":0,"pct_internet":60,"pct_celular":73,"pct_televisor":53}},{"type":"Feature","geometry":{"type":"Polygon","coordinates":[[[-68.60161,-16.19186],[-68.60098,-16.19163],[-68.60086,-16.19194],[-68.60149,-16.19217],[-68.60161,-16.19186]]]},"properties":{"n":"HUARINA","p":23,"personas_x_ha":86,"masculinidad":35,"pct_menor20":17,"pct_60mas":43,"pct_migrante":39,"dependencia_econ":92,"pct_empleados":33,"pct_cuentapropia":58,"pct_agricultura":0,"pct_comercio":33,"pct_manufactura":17,"pct_construccion":0,"pct_transporte":0,"pct_alojamiento":17,"pct_sin_educacion":5,"pct_educ_superior":25,"brecha_educ":-20,"pct_sin_seguro":13,"pct_sus":35,"pct_seguro_privado":4,"brecha_seguro":5,"pct_salud_publica":12,"pct_med_tradicional":18,"pct_automedicacion":18,"pct_remedios_caseros":26,"pct_viv_desocupada":0,"pct_alquiler":0,"pct_electricidad":93,"pct_sin_electricidad":7,"pct_agua_red":86,"pct_alcantarillado":0,"pct_camara_septica":0,"pct_pozo_ciego":79,"pct_sin_desague":14,"pct_gas_red":0,"pct_gas_garrafa":100,"pct_lena_guano":0,"pct_basura_formal":100,"pct_basura_quema":0,"pct_basura_informal":0,"pct_internet":57,"pct_celular":93,"pct_televisor":93}},{"type":"Feature","geometry":{"type":"Polygon","coordinates":[[[-68.59923,-16.19892],[-68.59866,-16.19998],[-68.59977,-16.20043],[-68.60001,-16.19906],[-68.59923,-16.19892]]]},"properties":{"n":"HUARINA","p":29,"personas_x_ha":19,"masculinidad":107,"pct_menor20":28,"pct_60mas":21,"pct_migrante":24,"dependencia_econ":71,"pct_empleados":24,"pct_cuentapropia":47,"pct_agricultura":24,"pct_comercio":12,"pct_manufactura":0,"pct_construccion":0,"pct_transporte":18,"pct_alojamiento":12,"pct_sin_educacion":5,"pct_educ_superior":43,"brecha_educ":-11,"pct_sin_seguro":41,"pct_sus":17,"pct_seguro_privado":0,"brecha_seguro":-3,"pct_salud_publica":16,"pct_med_tradicional":13,"pct_automedicacion":28,"pct_remedios_caseros":29,"pct_viv_desocupada":0,"pct_alquiler":0,"pct_electricidad":78,"pct_sin_electricidad":22,"pct_agua_red":78,"pct_alcantarillado":0,"pct_camara_septica":33,"pct_pozo_ciego":22,"pct_sin_desague":44,"pct_gas_red":0,"pct_gas_garrafa":78,"pct_lena_guano":22,"pct_basura_formal":56,"pct_basura_quema":22,"pct_basura_informal":0,"pct_internet":67,"pct_celular":89,"pct_televisor":56}},{"type":"Feature","geometry":{"type":"Polygon","coordinates":[[[-68.60352,-16.19292],[-68.60309,-16.19349],[-68.60311,-16.19352],[-68.60372,-16.19303],[-68.60352,-16.19292]]]},"properties":{"n":"HUARINA","p":27,"personas_x_ha":224,"masculinidad":108,"pct_menor20":30,"pct_60mas":7,"pct_migrante":44,"dependencia_econ":69,"pct_empleados":31,"pct_cuentapropia":38,"pct_agricultura":19,"pct_comercio":6,"pct_manufactura":19,"pct_construccion":12,"pct_transporte":0,"pct_alojamiento":6,"pct_sin_educacion":0,"pct_educ_superior":26,"brecha_educ":-19,"pct_sin_seguro":22,"pct_sus":70,"pct_seguro_privado":0,"brecha_seguro":-2,"pct_salud_publica":28,"pct_med_tradicional":17,"pct_automedicacion":17,"pct_remedios_caseros":24,"pct_viv_desocupada":0,"pct_alquiler":0,"pct_electricidad":86,"pct_sin_electricidad":14,"pct_agua_red":71,"pct_alcantarillado":14,"pct_camara_septica":14,"pct_pozo_ciego":29,"pct_sin_desague":43,"pct_gas_red":0,"pct_gas_garrafa":100,"pct_lena_guano":0,"pct_basura_formal":100,"pct_basura_quema":0,"pct_basura_informal":0,"pct_internet":43,"pct_celular":57,"pct_televisor":71}},{"type":"Feature","geometry":{"type":"Polygon","coordinates":[[[-68.60054,-16.19515],[-68.60075,-16.19458],[-68.60148,-16.19485],[-68.60116,-16.19539],[-68.60054,-16.19515]]]},"properties":{"n":"HUARINA","p":39,"personas_x_ha":71,"masculinidad":95,"pct_menor20":18,"pct_60mas":33,"pct_migrante":21,"dependencia_econ":44,"pct_empleados":19,"pct_cuentapropia":63,"pct_agricultura":33,"pct_comercio":11,"pct_manufactura":22,"pct_construccion":0,"pct_transporte":7,"pct_alojamiento":4,"pct_sin_educacion":9,"pct_educ_superior":47,"brecha_educ":-38,"pct_sin_seguro":8,"pct_sus":74,"pct_seguro_privado":0,"brecha_seguro":6,"pct_salud_publica":27,"pct_med_tradicional":10,"pct_automedicacion":18,"pct_remedios_caseros":23,"pct_viv_desocupada":0,"pct_alquiler":0,"pct_electricidad":100,"pct_sin_electricidad":0,"pct_agua_red":93,"pct_alcantarillado":7,"pct_camara_septica":36,"pct_pozo_ciego":50,"pct_sin_desague":7,"pct_gas_red":0,"pct_gas_garrafa":100,"pct_lena_guano":0,"pct_basura_formal":93,"pct_basura_quema":7,"pct_basura_informal":0,"pct_internet":36,"pct_celular":93,"pct_televisor":86}},{"type":"Feature","geometry":{"type":"Polygon","coordinates":[[[-68.60495,-16.19076],[-68.6053,-16.19086],[-68.60492,-16.19161],[-68.60452,-16.19142],[-68.60495,-16.19076]]]},"properties":{"n":"HUARINA","p":31,"personas_x_ha":75,"masculinidad":107,"pct_menor20":42,"pct_60mas":10,"pct_migrante":48,"dependencia_econ":72,"pct_empleados":22,"pct_cuentapropia":39,"pct_agricultura":28,"pct_comercio":11,"pct_manufactura":17,"pct_construccion":6,"pct_transporte":6,"pct_alojamiento":0,"pct_sin_educacion":5,"pct_educ_superior":47,"brecha_educ":-19,"pct_sin_seguro":3,"pct_sus":67,"pct_seguro_privado":3,"brecha_seguro":-7,"pct_salud_publica":19,"pct_med_tradicional":16,"pct_automedicacion":15,"pct_remedios_caseros":25,"pct_viv_desocupada":14,"pct_alquiler":18,"pct_electricidad":73,"pct_sin_electricidad":27,"pct_agua_red":91,"pct_alcantarillado":9,"pct_camara_septica":0,"pct_pozo_ciego":73,"pct_sin_desague":18,"pct_gas_red":0,"pct_gas_garrafa":91,"pct_lena_guano":9,"pct_basura_formal":91,"pct_basura_quema":9,"pct_basura_informal":0,"pct_internet":82,"pct_celular":91,"pct_televisor":73}},{"type":"Feature","geometry":{"type":"Polygon","coordinates":[[[-68.60456,-16.19068],[-68.60318,-16.19042],[-68.60301,-16.19086],[-68.6042,-16.19132],[-68.60431,-16.19099],[-68.60456,-16.19068]]]},"properties":{"n":"HUARINA","p":38,"personas_x_ha":43,"masculinidad":100,"pct_menor20":34,"pct_60mas":13,"pct_migrante":29,"dependencia_econ":58,"pct_empleados":21,"pct_cuentapropia":67,"pct_agricultura":12,"pct_comercio":17,"pct_manufactura":17,"pct_construccion":12,"pct_transporte":12,"pct_alojamiento":8,"pct_sin_educacion":4,"pct_educ_superior":30,"brecha_educ":-14,"pct_sin_seguro":8,"pct_sus":68,"pct_seguro_privado":3,"brecha_seguro":16,"pct_salud_publica":29,"pct_med_tradicional":14,"pct_automedicacion":18,"pct_remedios_caseros":23,"pct_viv_desocupada":17,"pct_alquiler":5,"pct_electricidad":95,"pct_sin_electricidad":5,"pct_agua_red":89,"pct_alcantarillado":16,"pct_camara_septica":21,"pct_pozo_ciego":42,"pct_sin_desague":16,"pct_gas_red":0,"pct_gas_garrafa":95,"pct_lena_guano":0,"pct_basura_formal":100,"pct_basura_quema":0,"pct_basura_informal":0,"pct_internet":74,"pct_celular":95,"pct_televisor":74}},{"type":"Feature","geometry":{"type":"Polygon","coordinates":[[[-68.60078,-16.19197],[-68.60017,-16.19176],[-68.60004,-16.19215],[-68.60053,-16.1926],[-68.60078,-16.19197]]]},"properties":{"n":"HUARINA","p":24,"personas_x_ha":57,"masculinidad":50,"pct_menor20":33,"pct_60mas":21,"pct_migrante":46,"dependencia_econ":167,"pct_empleados":11,"pct_cuentapropia":89,"pct_agricultura":0,"pct_comercio":22,"pct_manufactura":22,"pct_construccion":0,"pct_transporte":0,"pct_alojamiento":44,"pct_sin_educacion":19,"pct_educ_superior":19,"brecha_educ":-36,"pct_sin_seguro":38,"pct_sus":62,"pct_seguro_privado":0,"brecha_seguro":-19,"pct_salud_publica":24,"pct_med_tradicional":17,"pct_automedicacion":15,"pct_remedios_caseros":25,"pct_viv_desocupada":0,"pct_alquiler":9,"pct_electricidad":91,"pct_sin_electricidad":9,"pct_agua_red":100,"pct_alcantarillado":0,"pct_camara_septica":18,"pct_pozo_ciego":18,"pct_sin_desague":36,"pct_gas_red":0,"pct_gas_garrafa":100,"pct_lena_guano":0,"pct_basura_formal":100,"pct_basura_quema":0,"pct_basura_informal":0,"pct_internet":73,"pct_celular":91,"pct_televisor":73}},{"type":"Feature","geometry":{"type":"Polygon","coordinates":[[[-68.60188,-16.19154],[-68.60177,-16.19185],[-68.60253,-16.19212],[-68.60261,-16.19181],[-68.60188,-16.19154]]]},"properties":{"n":"HUARINA","p":20,"personas_x_ha":65,"masculinidad":82,"pct_menor20":15,"pct_60mas":25,"pct_migrante":30,"dependencia_econ":67,"pct_empleados":42,"pct_cuentapropia":50,"pct_agricultura":17,"pct_comercio":25,"pct_manufactura":17,"pct_construccion":8,"pct_transporte":0,"pct_alojamiento":0,"pct_sin_educacion":0,"pct_educ_superior":56,"brecha_educ":-7,"pct_sin_seguro":10,"pct_sus":15,"pct_seguro_privado":5,"brecha_seguro":2,"pct_salud_publica":11,"pct_med_tradicional":16,"pct_automedicacion":19,"pct_remedios_caseros":23,"pct_viv_desocupada":6,"pct_alquiler":0,"pct_electricidad":100,"pct_sin_electricidad":0,"pct_agua_red":100,"pct_alcantarillado":9,"pct_camara_septica":27,"pct_pozo_ciego":45,"pct_sin_desague":9,"pct_gas_red":0,"pct_gas_garrafa":100,"pct_lena_guano":0,"pct_basura_formal":100,"pct_basura_quema":0,"pct_basura_informal":0,"pct_internet":91,"pct_celular":91,"pct_televisor":64}},{"type":"Feature","geometry":{"type":"Polygon","coordinates":[[[-68.60296,-16.18898],[-68.60271,-16.18952],[-68.60336,-16.18973],[-68.60366,-16.18884],[-68.60296,-16.18898]]]},"properties":{"n":"HUARINA","p":24,"personas_x_ha":40,"masculinidad":100,"pct_menor20":33,"pct_60mas":12,"pct_migrante":29,"dependencia_econ":85,"pct_empleados":23,"pct_cuentapropia":46,"pct_agricultura":54,"pct_comercio":8,"pct_manufactura":0,"pct_construccion":0,"pct_transporte":15,"pct_alojamiento":0,"pct_sin_educacion":18,"pct_educ_superior":29,"brecha_educ":-23,"pct_sin_seguro":12,"pct_sus":88,"pct_seguro_privado":0,"brecha_seguro":-8,"pct_salud_publica":29,"pct_med_tradicional":7,"pct_automedicacion":12,"pct_remedios_caseros":28,"pct_viv_desocupada":0,"pct_alquiler":0,"pct_electricidad":89,"pct_sin_electricidad":11,"pct_agua_red":100,"pct_alcantarillado":11,"pct_camara_septica":0,"pct_pozo_ciego":44,"pct_sin_desague":11,"pct_gas_red":0,"pct_gas_garrafa":100,"pct_lena_guano":0,"pct_basura_formal":89,"pct_basura_quema":11,"pct_basura_informal":0,"pct_internet":78,"pct_celular":100,"pct_televisor":89}},{"type":"Feature","geometry":{"type":"Polygon","coordinates":[[[-68.60105,-16.19622],[-68.60282,-16.19384],[-68.60339,-16.19343],[-68.60356,-16.19458],[-68.60285,-16.19468],[-68.60154,-16.19662],[-68.60105,-16.19622]]]},"properties":{"n":"HUARINA","p":31,"personas_x_ha":12,"masculinidad":107,"pct_menor20":45,"pct_60mas":6,"pct_migrante":32,"dependencia_econ":121,"pct_empleados":50,"pct_cuentapropia":36,"pct_agricultura":14,"pct_comercio":0,"pct_manufactura":7,"pct_construccion":21,"pct_transporte":0,"pct_alojamiento":7,"pct_sin_educacion":0,"pct_educ_superior":39,"brecha_educ":-38,"pct_sin_seguro":16,"pct_sus":61,"pct_seguro_privado":3,"brecha_seguro":5,"pct_salud_publica":24,"pct_med_tradicional":20,"pct_automedicacion":22,"pct_remedios_caseros":19,"pct_viv_desocupada":0,"pct_alquiler":11,"pct_electricidad":78,"pct_sin_electricidad":22,"pct_agua_red":78,"pct_alcantarillado":0,"pct_camara_septica":11,"pct_pozo_ciego":56,"pct_sin_desague":33,"pct_gas_red":0,"pct_gas_garrafa":89,"pct_lena_guano":11,"pct_basura_formal":100,"pct_basura_quema":0,"pct_basura_informal":0,"pct_internet":67,"pct_celular":89,"pct_televisor":44}},{"type":"Feature","geometry":{"type":"Polygon","coordinates":[[[-68.6018,-16.18923],[-68.60242,-16.1877],[-68.60171,-16.18743],[-68.60165,-16.18745],[-68.60126,-16.18877],[-68.6018,-16.18923]]]},"properties":{"n":"HUARINA","p":43,"personas_x_ha":32,"masculinidad":87,"pct_menor20":40,"pct_60mas":14,"pct_migrante":47,"dependencia_econ":75,"pct_empleados":50,"pct_cuentapropia":33,"pct_agricultura":21,"pct_comercio":4,"pct_manufactura":0,"pct_construccion":21,"pct_transporte":8,"pct_alojamiento":17,"pct_sin_educacion":8,"pct_educ_superior":40,"brecha_educ":-38,"pct_sin_seguro":24,"pct_sus":55,"pct_seguro_privado":0,"brecha_seguro":-15,"pct_salud_publica":18,"pct_med_tradicional":26,"pct_automedicacion":22,"pct_remedios_caseros":25,"pct_viv_desocupada":26,"pct_alquiler":0,"pct_electricidad":50,"pct_sin_electricidad":50,"pct_agua_red":86,"pct_alcantarillado":0,"pct_camara_septica":14,"pct_pozo_ciego":50,"pct_sin_desague":36,"pct_gas_red":0,"pct_gas_garrafa":100,"pct_lena_guano":0,"pct_basura_formal":79,"pct_basura_quema":14,"pct_basura_informal":7,"pct_internet":57,"pct_celular":93,"pct_televisor":64}},{"type":"Feature","geometry":{"type":"Polygon","coordinates":[[[-68.60443,-16.19148],[-68.60373,-16.1926],[-68.60402,-16.19276],[-68.60461,-16.19215],[-68.60488,-16.19168],[-68.60443,-16.19148]]]},"properties":{"n":"HUARINA","p":21,"personas_x_ha":28,"masculinidad":133,"pct_menor20":10,"pct_60mas":24,"pct_migrante":19,"dependencia_econ":17,"pct_empleados":28,"pct_cuentapropia":61,"pct_agricultura":39,"pct_comercio":11,"pct_manufactura":6,"pct_construccion":0,"pct_transporte":0,"pct_alojamiento":17,"pct_sin_educacion":0,"pct_educ_superior":21,"brecha_educ":-3,"pct_sin_seguro":14,"pct_sus":57,"pct_seguro_privado":0,"brecha_seguro":6,"pct_salud_publica":25,"pct_med_tradicional":19,"pct_automedicacion":16,"pct_remedios_caseros":23,"pct_viv_desocupada":11,"pct_alquiler":0,"pct_electricidad":93,"pct_sin_electricidad":7,"pct_agua_red":93,"pct_alcantarillado":13,"pct_camara_septica":13,"pct_pozo_ciego":27,"pct_sin_desague":40,"pct_gas_red":0,"pct_gas_garrafa":93,"pct_lena_guano":0,"pct_basura_formal":93,"pct_basura_quema":7,"pct_basura_informal":0,"pct_internet":87,"pct_celular":87,"pct_televisor":53}},{"type":"Feature","geometry":{"type":"Polygon","coordinates":[[[-68.60179,-16.18925],[-68.60124,-16.18887],[-68.60084,-16.18999],[-68.60149,-16.19008],[-68.60179,-16.18925]]]},"properties":{"n":"HUARINA","p":36,"personas_x_ha":45,"masculinidad":112,"pct_menor20":19,"pct_60mas":11,"pct_migrante":25,"dependencia_econ":35,"pct_empleados":31,"pct_cuentapropia":62,"pct_agricultura":8,"pct_comercio":15,"pct_manufactura":19,"pct_construccion":8,"pct_transporte":4,"pct_alojamiento":8,"pct_sin_educacion":4,"pct_educ_superior":32,"brecha_educ":-14,"pct_sin_seguro":26,"pct_sus":69,"pct_seguro_privado":0,"brecha_seguro":-19,"pct_salud_publica":23,"pct_med_tradicional":16,"pct_automedicacion":16,"pct_remedios_caseros":24,"pct_viv_desocupada":7,"pct_alquiler":0,"pct_electricidad":90,"pct_sin_electricidad":10,"pct_agua_red":86,"pct_alcantarillado":19,"pct_camara_septica":5,"pct_pozo_ciego":52,"pct_sin_desague":19,"pct_gas_red":0,"pct_gas_garrafa":100,"pct_lena_guano":0,"pct_basura_formal":81,"pct_basura_quema":19,"pct_basura_informal":0,"pct_internet":62,"pct_celular":100,"pct_televisor":67}},{"type":"Feature","geometry":{"type":"Polygon","coordinates":[[[-68.60227,-16.19291],[-68.60185,-16.1939],[-68.60109,-16.19365],[-68.60133,-16.19296],[-68.60164,-16.19285],[-68.60227,-16.19291]]]},"properties":{"n":"HUARINA","p":16,"personas_x_ha":17,"masculinidad":167,"pct_menor20":19,"pct_60mas":19,"pct_migrante":50,"dependencia_econ":45,"pct_empleados":27,"pct_cuentapropia":64,"pct_agricultura":0,"pct_comercio":27,"pct_manufactura":18,"pct_construccion":0,"pct_transporte":0,"pct_alojamiento":27,"pct_sin_educacion":8,"pct_educ_superior":38,"brecha_educ":5,"pct_sin_seguro":12,"pct_sus":75,"pct_seguro_privado":0,"brecha_seguro":-7,"pct_salud_publica":25,"pct_med_tradicional":15,"pct_automedicacion":17,"pct_remedios_caseros":26,"pct_viv_desocupada":0,"pct_alquiler":10,"pct_electricidad":90,"pct_sin_electricidad":10,"pct_agua_red":100,"pct_alcantarillado":0,"pct_camara_septica":10,"pct_pozo_ciego":80,"pct_sin_desague":10,"pct_gas_red":0,"pct_gas_garrafa":100,"pct_lena_guano":0,"pct_basura_formal":80,"pct_basura_quema":0,"pct_basura_informal":20,"pct_internet":80,"pct_celular":100,"pct_televisor":80}},{"type":"Feature","geometry":{"type":"Polygon","coordinates":[[[-68.60431,-16.18605],[-68.60509,-16.18474],[-68.60477,-16.18449],[-68.60474,-16.1843],[-68.60452,-16.18416],[-68.60329,-16.18572],[-68.60395,-16.18633],[-68.60431,-16.18605]]]},"properties":{"n":"HUARINA","p":16,"personas_x_ha":7,"masculinidad":60,"pct_menor20":44,"pct_60mas":31,"pct_migrante":12,"dependencia_econ":167,"pct_empleados":17,"pct_cuentapropia":83,"pct_agricultura":33,"pct_comercio":17,"pct_manufactura":0,"pct_construccion":17,"pct_transporte":0,"pct_alojamiento":0,"pct_sin_educacion":0,"pct_educ_superior":33,"brecha_educ":-20,"pct_sin_seguro":25,"pct_sus":38,"pct_seguro_privado":6,"brecha_seguro":-13,"pct_salud_publica":14,"pct_med_tradicional":17,"pct_automedicacion":23,"pct_remedios_caseros":23,"pct_viv_desocupada":0,"pct_alquiler":14,"pct_electricidad":57,"pct_sin_electricidad":43,"pct_agua_red":100,"pct_alcantarillado":0,"pct_camara_septica":0,"pct_pozo_ciego":29,"pct_sin_desague":71,"pct_gas_red":0,"pct_gas_garrafa":71,"pct_lena_guano":29,"pct_basura_formal":71,"pct_basura_quema":14,"pct_basura_informal":14,"pct_internet":71,"pct_celular":100,"pct_televisor":29}},{"type":"Feature","geometry":{"type":"Polygon","coordinates":[[[-68.60251,-16.18962],[-68.60186,-16.18929],[-68.60156,-16.19009],[-68.60227,-16.19016],[-68.60251,-16.18962]]]},"properties":{"n":"HUARINA","p":25,"personas_x_ha":41,"masculinidad":79,"pct_menor20":32,"pct_60mas":20,"pct_migrante":28,"dependencia_econ":56,"pct_empleados":38,"pct_cuentapropia":62,"pct_agricultura":12,"pct_comercio":38,"pct_manufactura":6,"pct_construccion":0,"pct_transporte":0,"pct_alojamiento":6,"pct_sin_educacion":6,"pct_educ_superior":47,"brecha_educ":-19,"pct_sin_seguro":4,"pct_sus":88,"pct_seguro_privado":0,"brecha_seguro":9,"pct_salud_publica":28,"pct_med_tradicional":12,"pct_automedicacion":16,"pct_remedios_caseros":28,"pct_viv_desocupada":17,"pct_alquiler":0,"pct_electricidad":88,"pct_sin_electricidad":12,"pct_agua_red":100,"pct_alcantarillado":6,"pct_camara_septica":19,"pct_pozo_ciego":44,"pct_sin_desague":31,"pct_gas_red":0,"pct_gas_garrafa":94,"pct_lena_guano":0,"pct_basura_formal":81,"pct_basura_quema":6,"pct_basura_informal":12,"pct_internet":62,"pct_celular":88,"pct_televisor":75}},{"type":"Feature","geometry":{"type":"Polygon","coordinates":[[[-68.59981,-16.1906],[-68.59995,-16.19042],[-68.59993,-16.19034],[-68.60028,-16.19031],[-68.60052,-16.19019],[-68.60071,-16.19021],[-68.60077,-16.18995],[-68.60056,-16.18961],[-68.60025,-16.18984],[-68.6001,-16.18969],[-68.5999,-16.18976],[-68.59968,-16.19004],[-68.59967,-16.19062],[-68.59981,-16.1906]]]},"properties":{"n":"HUARINA","p":22,"personas_x_ha":30,"masculinidad":57,"pct_menor20":14,"pct_60mas":36,"pct_migrante":36,"dependencia_econ":47,"pct_empleados":20,"pct_cuentapropia":60,"pct_agricultura":33,"pct_comercio":20,"pct_manufactura":7,"pct_construccion":7,"pct_transporte":0,"pct_alojamiento":0,"pct_sin_educacion":5,"pct_educ_superior":42,"brecha_educ":-5,"pct_sin_seguro":18,"pct_sus":73,"pct_seguro_privado":0,"brecha_seguro":-29,"pct_salud_publica":22,"pct_med_tradicional":10,"pct_automedicacion":21,"pct_remedios_caseros":26,"pct_viv_desocupada":8,"pct_alquiler":0,"pct_electricidad":82,"pct_sin_electricidad":18,"pct_agua_red":36,"pct_alcantarillado":0,"pct_camara_septica":27,"pct_pozo_ciego":9,"pct_sin_desague":27,"pct_gas_red":0,"pct_gas_garrafa":82,"pct_lena_guano":18,"pct_basura_formal":82,"pct_basura_quema":9,"pct_basura_informal":9,"pct_internet":45,"pct_celular":91,"pct_televisor":9}},{"type":"Feature","geometry":{"type":"Polygon","coordinates":[[[-68.60331,-16.18778],[-68.60284,-16.18754],[-68.60248,-16.18783],[-68.6023,-16.18824],[-68.603,-16.18854],[-68.60331,-16.18778]]]},"properties":{"n":"HUARINA","p":19,"personas_x_ha":27,"masculinidad":111,"pct_menor20":21,"pct_60mas":16,"pct_migrante":26,"dependencia_econ":111,"pct_empleados":33,"pct_cuentapropia":33,"pct_agricultura":33,"pct_comercio":22,"pct_manufactura":11,"pct_construccion":0,"pct_transporte":0,"pct_alojamiento":0,"pct_sin_educacion":7,"pct_educ_superior":33,"brecha_educ":-39,"pct_sin_seguro":0,"pct_sus":42,"pct_seguro_privado":0,"brecha_seguro":0,"pct_salud_publica":21,"pct_med_tradicional":16,"pct_automedicacion":19,"pct_remedios_caseros":22,"pct_viv_desocupada":38,"pct_alquiler":0,"pct_electricidad":100,"pct_sin_electricidad":0,"pct_agua_red":100,"pct_alcantarillado":0,"pct_camara_septica":0,"pct_pozo_ciego":62,"pct_sin_desague":38,"pct_gas_red":0,"pct_gas_garrafa":100,"pct_lena_guano":0,"pct_basura_formal":50,"pct_basura_quema":38,"pct_basura_informal":0,"pct_internet":75,"pct_celular":100,"pct_televisor":75}},{"type":"Feature","geometry":{"type":"Polygon","coordinates":[[[-68.60095,-16.19153],[-68.60105,-16.19124],[-68.60042,-16.19106],[-68.60034,-16.19134],[-68.60095,-16.19153]]]},"properties":{"n":"HUARINA","p":23,"personas_x_ha":91,"masculinidad":109,"pct_menor20":26,"pct_60mas":35,"pct_migrante":22,"dependencia_econ":77,"pct_empleados":15,"pct_cuentapropia":62,"pct_agricultura":38,"pct_comercio":8,"pct_manufactura":15,"pct_construccion":0,"pct_transporte":15,"pct_alojamiento":0,"pct_sin_educacion":11,"pct_educ_superior":50,"brecha_educ":-10,"pct_sin_seguro":30,"pct_sus":39,"pct_seguro_privado":0,"brecha_seguro":6,"pct_salud_publica":26,"pct_med_tradicional":15,"pct_automedicacion":15,"pct_remedios_caseros":23,"pct_viv_desocupada":14,"pct_alquiler":0,"pct_electricidad":91,"pct_sin_electricidad":9,"pct_agua_red":91,"pct_alcantarillado":9,"pct_camara_septica":9,"pct_pozo_ciego":45,"pct_sin_desague":36,"pct_gas_red":0,"pct_gas_garrafa":91,"pct_lena_guano":0,"pct_basura_formal":100,"pct_basura_quema":0,"pct_basura_informal":0,"pct_internet":45,"pct_celular":91,"pct_televisor":64}},{"type":"Feature","geometry":{"type":"Polygon","coordinates":[[[-68.5988,-16.19767],[-68.59835,-16.19732],[-68.598,-16.19721],[-68.59767,-16.19756],[-68.59778,-16.19806],[-68.59821,-16.19837],[-68.5988,-16.19767]]]},"properties":{"n":"HUARINA","p":21,"personas_x_ha":22,"masculinidad":62,"pct_menor20":57,"pct_60mas":0,"pct_migrante":10,"dependencia_econ":110,"pct_empleados":30,"pct_cuentapropia":30,"pct_agricultura":40,"pct_comercio":0,"pct_manufactura":0,"pct_construccion":0,"pct_transporte":0,"pct_alojamiento":30,"pct_sin_educacion":0,"pct_educ_superior":30,"brecha_educ":-25,"pct_sin_seguro":0,"pct_sus":100,"pct_seguro_privado":0,"brecha_seguro":0,"pct_salud_publica":31,"pct_med_tradicional":13,"pct_automedicacion":16,"pct_remedios_caseros":29,"pct_viv_desocupada":0,"pct_alquiler":0,"pct_electricidad":80,"pct_sin_electricidad":20,"pct_agua_red":60,"pct_alcantarillado":0,"pct_camara_septica":20,"pct_pozo_ciego":40,"pct_sin_desague":40,"pct_gas_red":0,"pct_gas_garrafa":100,"pct_lena_guano":0,"pct_basura_formal":80,"pct_basura_quema":20,"pct_basura_informal":0,"pct_internet":80,"pct_celular":100,"pct_televisor":60}},{"type":"Feature","geometry":{"type":"Polygon","coordinates":[[[-68.60201,-16.18894],[-68.60189,-16.18925],[-68.60252,-16.18959],[-68.60271,-16.18919],[-68.60201,-16.18894]]]},"properties":{"n":"HUARINA","p":19,"personas_x_ha":55,"masculinidad":58,"pct_menor20":26,"pct_60mas":21,"pct_migrante":26,"dependencia_econ":73,"pct_empleados":27,"pct_cuentapropia":45,"pct_agricultura":36,"pct_comercio":18,"pct_manufactura":18,"pct_construccion":9,"pct_transporte":0,"pct_alojamiento":0,"pct_sin_educacion":7,"pct_educ_superior":27,"brecha_educ":-17,"pct_sin_seguro":11,"pct_sus":63,"pct_seguro_privado":0,"brecha_seguro":6,"pct_salud_publica":21,"pct_med_tradicional":21,"pct_automedicacion":17,"pct_remedios_caseros":24,"pct_viv_desocupada":8,"pct_alquiler":0,"pct_electricidad":89,"pct_sin_electricidad":11,"pct_agua_red":100,"pct_alcantarillado":0,"pct_camara_septica":22,"pct_pozo_ciego":44,"pct_sin_desague":33,"pct_gas_red":0,"pct_gas_garrafa":100,"pct_lena_guano":0,"pct_basura_formal":89,"pct_basura_quema":11,"pct_basura_informal":0,"pct_internet":67,"pct_celular":89,"pct_televisor":56}},{"type":"Feature","geometry":{"type":"Polygon","coordinates":[[[-68.59648,-16.20035],[-68.59748,-16.20113],[-68.59823,-16.19983],[-68.59738,-16.19948],[-68.59648,-16.20035]]]},"properties":{"n":"HUARINA","p":38,"personas_x_ha":22,"masculinidad":81,"pct_menor20":37,"pct_60mas":16,"pct_migrante":53,"dependencia_econ":65,"pct_empleados":30,"pct_cuentapropia":48,"pct_agricultura":39,"pct_comercio":0,"pct_manufactura":17,"pct_construccion":4,"pct_transporte":0,"pct_alojamiento":9,"pct_sin_educacion":28,"pct_educ_superior":24,"brecha_educ":-57,"pct_sin_seguro":24,"pct_sus":57,"pct_seguro_privado":0,"brecha_seguro":34,"pct_salud_publica":29,"pct_med_tradicional":6,"pct_automedicacion":25,"pct_remedios_caseros":22,"pct_viv_desocupada":39,"pct_alquiler":0,"pct_electricidad":100,"pct_sin_electricidad":0,"pct_agua_red":100,"pct_alcantarillado":7,"pct_camara_septica":36,"pct_pozo_ciego":29,"pct_sin_desague":29,"pct_gas_red":0,"pct_gas_garrafa":100,"pct_lena_guano":0,"pct_basura_formal":86,"pct_basura_quema":14,"pct_basura_informal":0,"pct_internet":79,"pct_celular":86,"pct_televisor":79}},{"type":"Feature","geometry":{"type":"Polygon","coordinates":[[[-68.60374,-16.1904],[-68.60367,-16.18987],[-68.60342,-16.18978],[-68.6032,-16.19036],[-68.60381,-16.19051],[-68.60382,-16.19043],[-68.60374,-16.1904]]]},"properties":{"n":"HUARINA","p":15,"personas_x_ha":48,"masculinidad":114,"pct_menor20":33,"pct_60mas":27,"pct_migrante":13,"dependencia_econ":88,"pct_empleados":38,"pct_cuentapropia":50,"pct_agricultura":25,"pct_comercio":12,"pct_manufactura":0,"pct_construccion":25,"pct_transporte":0,"pct_alojamiento":12,"pct_sin_educacion":10,"pct_educ_superior":40,"brecha_educ":-80,"pct_sin_seguro":13,"pct_sus":73,"pct_seguro_privado":0,"brecha_seguro":-2,"pct_salud_publica":23,"pct_med_tradicional":25,"pct_automedicacion":21,"pct_remedios_caseros":21,"pct_viv_desocupada":9,"pct_alquiler":0,"pct_electricidad":86,"pct_sin_electricidad":14,"pct_agua_red":100,"pct_alcantarillado":0,"pct_camara_septica":0,"pct_pozo_ciego":57,"pct_sin_desague":43,"pct_gas_red":0,"pct_gas_garrafa":100,"pct_lena_guano":0,"pct_basura_formal":100,"pct_basura_quema":0,"pct_basura_informal":0,"pct_internet":57,"pct_celular":86,"pct_televisor":57}},{"type":"Feature","geometry":{"type":"Polygon","coordinates":[[[-68.6021,-16.1906],[-68.60142,-16.19042],[-68.60114,-16.19117],[-68.60179,-16.1914],[-68.6021,-16.1906]]]},"properties":{"n":"HUARINA","p":32,"personas_x_ha":47,"masculinidad":78,"pct_menor20":9,"pct_60mas":31,"pct_migrante":31,"dependencia_econ":55,"pct_empleados":15,"pct_cuentapropia":70,"pct_agricultura":20,"pct_comercio":45,"pct_manufactura":5,"pct_construccion":0,"pct_transporte":0,"pct_alojamiento":5,"pct_sin_educacion":0,"pct_educ_superior":61,"brecha_educ":-29,"pct_sin_seguro":10,"pct_sus":90,"pct_seguro_privado":0,"brecha_seguro":-4,"pct_salud_publica":30,"pct_med_tradicional":12,"pct_automedicacion":11,"pct_remedios_caseros":24,"pct_viv_desocupada":0,"pct_alquiler":0,"pct_electricidad":100,"pct_sin_electricidad":0,"pct_agua_red":100,"pct_alcantarillado":0,"pct_camara_septica":27,"pct_pozo_ciego":73,"pct_sin_desague":0,"pct_gas_red":0,"pct_gas_garrafa":100,"pct_lena_guano":0,"pct_basura_formal":91,"pct_basura_quema":0,"pct_basura_informal":9,"pct_internet":77,"pct_celular":91,"pct_televisor":64}},{"type":"Feature","geometry":{"type":"Polygon","coordinates":[[[-68.60298,-16.19151],[-68.60313,-16.19156],[-68.60319,-16.19145],[-68.60386,-16.19178],[-68.6041,-16.19143],[-68.603,-16.19095],[-68.60271,-16.19173],[-68.60286,-16.19178],[-68.60298,-16.19151]]]},"properties":{"n":"HUARINA","p":31,"personas_x_ha":46,"masculinidad":107,"pct_menor20":13,"pct_60mas":19,"pct_migrante":19,"dependencia_econ":48,"pct_empleados":29,"pct_cuentapropia":62,"pct_agricultura":29,"pct_comercio":14,"pct_manufactura":5,"pct_construccion":0,"pct_transporte":5,"pct_alojamiento":0,"pct_sin_educacion":0,"pct_educ_superior":37,"brecha_educ":-35,"pct_sin_seguro":3,"pct_sus":48,"pct_seguro_privado":0,"brecha_seguro":6,"pct_salud_publica":25,"pct_med_tradicional":14,"pct_automedicacion":10,"pct_remedios_caseros":18,"pct_viv_desocupada":0,"pct_alquiler":0,"pct_electricidad":100,"pct_sin_electricidad":0,"pct_agua_red":100,"pct_alcantarillado":6,"pct_camara_septica":33,"pct_pozo_ciego":50,"pct_sin_desague":11,"pct_gas_red":0,"pct_gas_garrafa":100,"pct_lena_guano":0,"pct_basura_formal":83,"pct_basura_quema":17,"pct_basura_informal":0,"pct_internet":56,"pct_celular":89,"pct_televisor":83}},{"type":"Feature","geometry":{"type":"Polygon","coordinates":[[[-68.60468,-16.19062],[-68.60538,-16.18992],[-68.60658,-16.18935],[-68.60478,-16.18825],[-68.6038,-16.18878],[-68.60362,-16.18936],[-68.60379,-16.19024],[-68.60394,-16.19053],[-68.60468,-16.19062]]]},"properties":{"n":"HUARINA","p":48,"personas_x_ha":10,"masculinidad":100,"pct_menor20":35,"pct_60mas":4,"pct_migrante":29,"dependencia_econ":71,"pct_empleados":18,"pct_cuentapropia":61,"pct_agricultura":43,"pct_comercio":32,"pct_manufactura":7,"pct_construccion":4,"pct_transporte":4,"pct_alojamiento":4,"pct_sin_educacion":3,"pct_educ_superior":23,"brecha_educ":-37,"pct_sin_seguro":26,"pct_sus":74,"pct_seguro_privado":0,"brecha_seguro":-27,"pct_salud_publica":26,"pct_med_tradicional":21,"pct_automedicacion":18,"pct_remedios_caseros":27,"pct_viv_desocupada":0,"pct_alquiler":5,"pct_electricidad":90,"pct_sin_electricidad":10,"pct_agua_red":90,"pct_alcantarillado":0,"pct_camara_septica":5,"pct_pozo_ciego":55,"pct_sin_desague":40,"pct_gas_red":0,"pct_gas_garrafa":90,"pct_lena_guano":10,"pct_basura_formal":65,"pct_basura_quema":20,"pct_basura_informal":0,"pct_internet":75,"pct_celular":100,"pct_televisor":60}},{"type":"Feature","geometry":{"type":"Polygon","coordinates":[[[-68.59275,-16.20587],[-68.59156,-16.20768],[-68.59084,-16.20901],[-68.59251,-16.20974],[-68.59265,-16.20967],[-68.59398,-16.20728],[-68.5939,-16.20711],[-68.59315,-16.20632],[-68.59287,-16.20587],[-68.59275,-16.20587]]]},"properties":{"n":"HUARINA","p":36,"personas_x_ha":5,"masculinidad":112,"pct_menor20":39,"pct_60mas":17,"pct_migrante":31,"dependencia_econ":94,"pct_empleados":6,"pct_cuentapropia":61,"pct_agricultura":44,"pct_comercio":28,"pct_manufactura":6,"pct_construccion":6,"pct_transporte":6,"pct_alojamiento":6,"pct_sin_educacion":9,"pct_educ_superior":26,"brecha_educ":2,"pct_sin_seguro":9,"pct_sus":82,"pct_seguro_privado":0,"brecha_seguro":16,"pct_salud_publica":39,"pct_med_tradicional":9,"pct_automedicacion":16,"pct_remedios_caseros":29,"pct_viv_desocupada":0,"pct_alquiler":0,"pct_electricidad":92,"pct_sin_electricidad":8,"pct_agua_red":50,"pct_alcantarillado":8,"pct_camara_septica":0,"pct_pozo_ciego":83,"pct_sin_desague":8,"pct_gas_red":0,"pct_gas_garrafa":92,"pct_lena_guano":0,"pct_basura_formal":0,"pct_basura_quema":100,"pct_basura_informal":0,"pct_internet":25,"pct_celular":67,"pct_televisor":75}},{"type":"Feature","geometry":{"type":"Polygon","coordinates":[[[-68.60119,-16.19294],[-68.60058,-16.19272],[-68.60031,-16.19344],[-68.60095,-16.19361],[-68.60119,-16.19294]]]},"properties":{"n":"HUARINA","p":42,"personas_x_ha":74,"masculinidad":62,"pct_menor20":29,"pct_60mas":12,"pct_migrante":24,"dependencia_econ":68,"pct_empleados":40,"pct_cuentapropia":52,"pct_agricultura":24,"pct_comercio":8,"pct_manufactura":20,"pct_construccion":4,"pct_transporte":4,"pct_alojamiento":8,"pct_sin_educacion":0,"pct_educ_superior":63,"brecha_educ":-35,"pct_sin_seguro":17,"pct_sus":56,"pct_seguro_privado":2,"brecha_seguro":5,"pct_salud_publica":21,"pct_med_tradicional":17,"pct_automedicacion":20,"pct_remedios_caseros":22,"pct_viv_desocupada":4,"pct_alquiler":5,"pct_electricidad":100,"pct_sin_electricidad":0,"pct_agua_red":100,"pct_alcantarillado":5,"pct_camara_septica":0,"pct_pozo_ciego":21,"pct_sin_desague":11,"pct_gas_red":0,"pct_gas_garrafa":100,"pct_lena_guano":0,"pct_basura_formal":95,"pct_basura_quema":0,"pct_basura_informal":5,"pct_internet":84,"pct_celular":100,"pct_televisor":68}},{"type":"Feature","geometry":{"type":"Polygon","coordinates":[[[-68.59118,-16.21205],[-68.5925,-16.20982],[-68.59084,-16.20913],[-68.58981,-16.21084],[-68.58982,-16.2113],[-68.59118,-16.21205]]]},"properties":{"n":"HUARINA","p":21,"personas_x_ha":4,"masculinidad":133,"pct_menor20":19,"pct_60mas":48,"pct_migrante":29,"dependencia_econ":75,"pct_empleados":8,"pct_cuentapropia":75,"pct_agricultura":50,"pct_comercio":8,"pct_manufactura":17,"pct_construccion":8,"pct_transporte":8,"pct_alojamiento":8,"pct_sin_educacion":12,"pct_educ_superior":18,"brecha_educ":-23,"pct_sin_seguro":10,"pct_sus":67,"pct_seguro_privado":0,"brecha_seguro":17,"pct_salud_publica":26,"pct_med_tradicional":14,"pct_automedicacion":21,"pct_remedios_caseros":22,"pct_viv_desocupada":20,"pct_alquiler":0,"pct_electricidad":88,"pct_sin_electricidad":12,"pct_agua_red":75,"pct_alcantarillado":0,"pct_camara_septica":0,"pct_pozo_ciego":75,"pct_sin_desague":25,"pct_gas_red":0,"pct_gas_garrafa":88,"pct_lena_guano":0,"pct_basura_formal":0,"pct_basura_quema":50,"pct_basura_informal":0,"pct_internet":62,"pct_celular":100,"pct_televisor":88}},{"type":"Feature","geometry":{"type":"Polygon","coordinates":[[[-68.59419,-16.20697],[-68.596,-16.20387],[-68.5956,-16.20369],[-68.59518,-16.20338],[-68.59468,-16.20334],[-68.59445,-16.20323],[-68.59365,-16.20437],[-68.59299,-16.20565],[-68.59322,-16.20625],[-68.59419,-16.20697]]]},"properties":{"n":"HUARINA","p":21,"personas_x_ha":3,"masculinidad":110,"pct_menor20":14,"pct_60mas":29,"pct_migrante":48,"dependencia_econ":31,"pct_empleados":12,"pct_cuentapropia":62,"pct_agricultura":62,"pct_comercio":6,"pct_manufactura":12,"pct_construccion":6,"pct_transporte":0,"pct_alojamiento":0,"pct_sin_educacion":17,"pct_educ_superior":44,"brecha_educ":-11,"pct_sin_seguro":10,"pct_sus":90,"pct_seguro_privado":0,"brecha_seguro":18,"pct_salud_publica":24,"pct_med_tradicional":26,"pct_automedicacion":14,"pct_remedios_caseros":34,"pct_viv_desocupada":0,"pct_alquiler":0,"pct_electricidad":100,"pct_sin_electricidad":0,"pct_agua_red":78,"pct_alcantarillado":0,"pct_camara_septica":0,"pct_pozo_ciego":56,"pct_sin_desague":44,"pct_gas_red":0,"pct_gas_garrafa":44,"pct_lena_guano":44,"pct_basura_formal":11,"pct_basura_quema":89,"pct_basura_informal":0,"pct_internet":44,"pct_celular":56,"pct_televisor":78}},{"type":"Feature","geometry":{"type":"Polygon","coordinates":[[[-68.60079,-16.20093],[-68.59864,-16.20001],[-68.59775,-16.20159],[-68.60023,-16.20255],[-68.60079,-16.20093]]]},"properties":{"n":"HUARINA","p":44,"personas_x_ha":8,"masculinidad":100,"pct_menor20":39,"pct_60mas":9,"pct_migrante":48,"dependencia_econ":91,"pct_empleados":13,"pct_cuentapropia":70,"pct_agricultura":17,"pct_comercio":43,"pct_manufactura":0,"pct_construccion":4,"pct_transporte":4,"pct_alojamiento":13,"pct_sin_educacion":0,"pct_educ_superior":39,"brecha_educ":-25,"pct_sin_seguro":20,"pct_sus":57,"pct_seguro_privado":0,"brecha_seguro":5,"pct_salud_publica":15,"pct_med_tradicional":22,"pct_automedicacion":18,"pct_remedios_caseros":26,"pct_viv_desocupada":10,"pct_alquiler":0,"pct_electricidad":83,"pct_sin_electricidad":17,"pct_agua_red":100,"pct_alcantarillado":0,"pct_camara_septica":22,"pct_pozo_ciego":50,"pct_sin_desague":22,"pct_gas_red":0,"pct_gas_garrafa":94,"pct_lena_guano":6,"pct_basura_formal":94,"pct_basura_quema":6,"pct_basura_informal":0,"pct_internet":72,"pct_celular":100,"pct_televisor":72}},{"type":"Feature","geometry":{"type":"Polygon","coordinates":[[[-68.59911,-16.1959],[-68.59911,-16.19567],[-68.59888,-16.19566],[-68.5988,-16.19634],[-68.5982,-16.19619],[-68.59803,-16.19679],[-68.59904,-16.19721],[-68.59973,-16.19554],[-68.59919,-16.19545],[-68.59918,-16.1959],[-68.59911,-16.1959]]]},"properties":{"n":"HUARINA","p":43,"personas_x_ha":26,"masculinidad":59,"pct_menor20":30,"pct_60mas":23,"pct_migrante":16,"dependencia_econ":72,"pct_empleados":48,"pct_cuentapropia":36,"pct_agricultura":36,"pct_comercio":8,"pct_manufactura":12,"pct_construccion":28,"pct_transporte":4,"pct_alojamiento":4,"pct_sin_educacion":20,"pct_educ_superior":27,"brecha_educ":-60,"pct_sin_seguro":12,"pct_sus":86,"pct_seguro_privado":0,"brecha_seguro":11,"pct_salud_publica":36,"pct_med_tradicional":13,"pct_automedicacion":18,"pct_remedios_caseros":25,"pct_viv_desocupada":12,"pct_alquiler":7,"pct_electricidad":80,"pct_sin_electricidad":13,"pct_agua_red":40,"pct_alcantarillado":0,"pct_camara_septica":20,"pct_pozo_ciego":13,"pct_sin_desague":67,"pct_gas_red":0,"pct_gas_garrafa":87,"pct_lena_guano":13,"pct_basura_formal":93,"pct_basura_quema":7,"pct_basura_informal":0,"pct_internet":53,"pct_celular":93,"pct_televisor":47}},{"type":"Feature","geometry":{"type":"Polygon","coordinates":[[[-68.60175,-16.1915],[-68.60111,-16.19127],[-68.601,-16.19157],[-68.60163,-16.19179],[-68.60175,-16.1915]]]},"properties":{"n":"HUARINA","p":19,"personas_x_ha":74,"masculinidad":111,"pct_menor20":21,"pct_60mas":21,"pct_migrante":32,"dependencia_econ":36,"pct_empleados":43,"pct_cuentapropia":36,"pct_agricultura":14,"pct_comercio":36,"pct_manufactura":0,"pct_construccion":0,"pct_transporte":7,"pct_alojamiento":0,"pct_sin_educacion":0,"pct_educ_superior":56,"brecha_educ":3,"pct_sin_seguro":5,"pct_sus":68,"pct_seguro_privado":0,"brecha_seguro":10,"pct_salud_publica":35,"pct_med_tradicional":9,"pct_automedicacion":17,"pct_remedios_caseros":26,"pct_viv_desocupada":15,"pct_alquiler":22,"pct_electricidad":89,"pct_sin_electricidad":11,"pct_agua_red":89,"pct_alcantarillado":0,"pct_camara_septica":11,"pct_pozo_ciego":44,"pct_sin_desague":33,"pct_gas_red":0,"pct_gas_garrafa":100,"pct_lena_guano":0,"pct_basura_formal":100,"pct_basura_quema":0,"pct_basura_informal":0,"pct_internet":78,"pct_celular":89,"pct_televisor":44}},{"type":"Feature","geometry":{"type":"Polygon","coordinates":[[[-68.60265,-16.19169],[-68.60289,-16.1909],[-68.60224,-16.19065],[-68.60191,-16.19144],[-68.60265,-16.19169]]]},"properties":{"n":"HUARINA","p":43,"personas_x_ha":57,"masculinidad":54,"pct_menor20":23,"pct_60mas":26,"pct_migrante":40,"dependencia_econ":72,"pct_empleados":32,"pct_cuentapropia":40,"pct_agricultura":12,"pct_comercio":20,"pct_manufactura":16,"pct_construccion":0,"pct_transporte":8,"pct_alojamiento":0,"pct_sin_educacion":6,"pct_educ_superior":48,"brecha_educ":-25,"pct_sin_seguro":9,"pct_sus":49,"pct_seguro_privado":0,"brecha_seguro":-14,"pct_salud_publica":19,"pct_med_tradicional":17,"pct_automedicacion":22,"pct_remedios_caseros":25,"pct_viv_desocupada":9,"pct_alquiler":0,"pct_electricidad":92,"pct_sin_electricidad":8,"pct_agua_red":96,"pct_alcantarillado":0,"pct_camara_septica":33,"pct_pozo_ciego":54,"pct_sin_desague":8,"pct_gas_red":0,"pct_gas_garrafa":96,"pct_lena_guano":0,"pct_basura_formal":83,"pct_basura_quema":17,"pct_basura_informal":0,"pct_internet":75,"pct_celular":96,"pct_televisor":58}},{"type":"Feature","geometry":{"type":"Polygon","coordinates":[[[-68.5997,-16.19687],[-68.59939,-16.19673],[-68.59914,-16.19725],[-68.5995,-16.19737],[-68.5997,-16.19687]]]},"properties":{"n":"HUARINA","p":22,"personas_x_ha":87,"masculinidad":144,"pct_menor20":36,"pct_60mas":18,"pct_migrante":36,"dependencia_econ":340,"pct_empleados":0,"pct_cuentapropia":80,"pct_agricultura":20,"pct_comercio":0,"pct_manufactura":0,"pct_construccion":20,"pct_transporte":0,"pct_alojamiento":0,"pct_sin_educacion":7,"pct_educ_superior":43,"brecha_educ":-38,"pct_sin_seguro":23,"pct_sus":73,"pct_seguro_privado":0,"brecha_seguro":1,"pct_salud_publica":33,"pct_med_tradicional":14,"pct_automedicacion":12,"pct_remedios_caseros":24,"pct_viv_desocupada":0,"pct_alquiler":0,"pct_electricidad":90,"pct_sin_electricidad":10,"pct_agua_red":100,"pct_alcantarillado":10,"pct_camara_septica":0,"pct_pozo_ciego":50,"pct_sin_desague":20,"pct_gas_red":0,"pct_gas_garrafa":90,"pct_lena_guano":0,"pct_basura_formal":100,"pct_basura_quema":0,"pct_basura_informal":0,"pct_internet":60,"pct_celular":90,"pct_televisor":80}},{"type":"Feature","geometry":{"type":"Polygon","coordinates":[[[-68.60298,-16.18858],[-68.60227,-16.18828],[-68.60204,-16.18887],[-68.60273,-16.18914],[-68.60298,-16.18858]]]},"properties":{"n":"HUARINA","p":31,"personas_x_ha":55,"masculinidad":48,"pct_menor20":39,"pct_60mas":13,"pct_migrante":39,"dependencia_econ":94,"pct_empleados":31,"pct_cuentapropia":50,"pct_agricultura":38,"pct_comercio":12,"pct_manufactura":12,"pct_construccion":6,"pct_transporte":0,"pct_alojamiento":0,"pct_sin_educacion":5,"pct_educ_superior":58,"brecha_educ":-23,"pct_sin_seguro":6,"pct_sus":68,"pct_seguro_privado":0,"brecha_seguro":-10,"pct_salud_publica":23,"pct_med_tradicional":24,"pct_automedicacion":19,"pct_remedios_caseros":22,"pct_viv_desocupada":5,"pct_alquiler":0,"pct_electricidad":64,"pct_sin_electricidad":36,"pct_agua_red":82,"pct_alcantarillado":0,"pct_camara_septica":9,"pct_pozo_ciego":36,"pct_sin_desague":55,"pct_gas_red":0,"pct_gas_garrafa":82,"pct_lena_guano":9,"pct_basura_formal":82,"pct_basura_quema":9,"pct_basura_informal":9,"pct_internet":73,"pct_celular":91,"pct_televisor":64}},{"type":"Feature","geometry":{"type":"Polygon","coordinates":[[[-68.59829,-16.19838],[-68.59741,-16.19938],[-68.59825,-16.19975],[-68.59881,-16.19874],[-68.59829,-16.19838]]]},"properties":{"n":"HUARINA","p":22,"personas_x_ha":20,"masculinidad":69,"pct_menor20":36,"pct_60mas":14,"pct_migrante":41,"dependencia_econ":100,"pct_empleados":18,"pct_cuentapropia":64,"pct_agricultura":18,"pct_comercio":45,"pct_manufactura":0,"pct_construccion":9,"pct_transporte":0,"pct_alojamiento":0,"pct_sin_educacion":7,"pct_educ_superior":50,"brecha_educ":-25,"pct_sin_seguro":18,"pct_sus":59,"pct_seguro_privado":14,"brecha_seguro":7,"pct_salud_publica":24,"pct_med_tradicional":19,"pct_automedicacion":16,"pct_remedios_caseros":22,"pct_viv_desocupada":9,"pct_alquiler":10,"pct_electricidad":100,"pct_sin_electricidad":0,"pct_agua_red":60,"pct_alcantarillado":0,"pct_camara_septica":10,"pct_pozo_ciego":60,"pct_sin_desague":20,"pct_gas_red":0,"pct_gas_garrafa":100,"pct_lena_guano":0,"pct_basura_formal":60,"pct_basura_quema":40,"pct_basura_informal":0,"pct_internet":70,"pct_celular":100,"pct_televisor":80}},{"type":"Feature","geometry":{"type":"Polygon","coordinates":[[[-68.60389,-16.18774],[-68.60382,-16.18799],[-68.6039,-16.18823],[-68.60381,-16.18865],[-68.6063,-16.18731],[-68.60628,-16.18709],[-68.60668,-16.1864],[-68.60653,-16.18636],[-68.60653,-16.18619],[-68.60616,-16.18598],[-68.60586,-16.18513],[-68.60528,-16.18477],[-68.60515,-16.18562],[-68.60503,-16.18591],[-68.60424,-16.18718],[-68.60468,-16.18747],[-68.60423,-16.18719],[-68.60389,-16.18774]]]},"properties":{"n":"HUARINA","p":15,"personas_x_ha":3,"masculinidad":50,"pct_menor20":27,"pct_60mas":13,"pct_migrante":20,"dependencia_econ":114,"pct_empleados":57,"pct_cuentapropia":29,"pct_agricultura":14,"pct_comercio":14,"pct_manufactura":14,"pct_construccion":14,"pct_transporte":0,"pct_alojamiento":14,"pct_sin_educacion":0,"pct_educ_superior":36,"brecha_educ":-25,"pct_sin_seguro":0,"pct_sus":93,"pct_seguro_privado":0,"brecha_seguro":0,"pct_salud_publica":25,"pct_med_tradicional":25,"pct_automedicacion":22,"pct_remedios_caseros":24,"pct_viv_desocupada":29,"pct_alquiler":0,"pct_electricidad":75,"pct_sin_electricidad":25,"pct_agua_red":100,"pct_alcantarillado":0,"pct_camara_septica":12,"pct_pozo_ciego":75,"pct_sin_desague":12,"pct_gas_red":0,"pct_gas_garrafa":88,"pct_lena_guano":0,"pct_basura_formal":88,"pct_basura_quema":12,"pct_basura_informal":0,"pct_internet":75,"pct_celular":100,"pct_televisor":62}},{"type":"Feature","geometry":{"type":"Polygon","coordinates":[[[-68.59436,-16.20902],[-68.59541,-16.20966],[-68.59571,-16.20913],[-68.59407,-16.20807],[-68.59082,-16.21358],[-68.59155,-16.214],[-68.59304,-16.21148],[-68.59436,-16.20902]]]},"properties":{"n":"HUARINA","p":52,"personas_x_ha":7,"masculinidad":160,"pct_menor20":17,"pct_60mas":27,"pct_migrante":29,"dependencia_econ":58,"pct_empleados":27,"pct_cuentapropia":45,"pct_agricultura":45,"pct_comercio":15,"pct_manufactura":3,"pct_construccion":12,"pct_transporte":6,"pct_alojamiento":0,"pct_sin_educacion":5,"pct_educ_superior":37,"brecha_educ":-33,"pct_sin_seguro":12,"pct_sus":56,"pct_seguro_privado":0,"brecha_seguro":19,"pct_salud_publica":20,"pct_med_tradicional":12,"pct_automedicacion":21,"pct_remedios_caseros":26,"pct_viv_desocupada":0,"pct_alquiler":0,"pct_electricidad":86,"pct_sin_electricidad":14,"pct_agua_red":64,"pct_alcantarillado":0,"pct_camara_septica":23,"pct_pozo_ciego":55,"pct_sin_desague":23,"pct_gas_red":0,"pct_gas_garrafa":91,"pct_lena_guano":5,"pct_basura_formal":9,"pct_basura_quema":86,"pct_basura_informal":5,"pct_internet":68,"pct_celular":82,"pct_televisor":59}},{"type":"Feature","geometry":{"type":"Polygon","coordinates":[[[-68.6031,-16.1904],[-68.6024,-16.19024],[-68.60227,-16.19058],[-68.60294,-16.19081],[-68.6031,-16.1904]]]},"properties":{"n":"HUARINA","p":25,"personas_x_ha":73,"masculinidad":150,"pct_menor20":36,"pct_60mas":32,"pct_migrante":8,"dependencia_econ":100,"pct_empleados":25,"pct_cuentapropia":58,"pct_agricultura":8,"pct_comercio":17,"pct_manufactura":17,"pct_construccion":0,"pct_transporte":0,"pct_alojamiento":0,"pct_sin_educacion":0,"pct_educ_superior":60,"brecha_educ":-2,"pct_sin_seguro":0,"pct_sus":46,"pct_seguro_privado":0,"brecha_seguro":0,"pct_salud_publica":32,"pct_med_tradicional":7,"pct_automedicacion":19,"pct_remedios_caseros":21,"pct_viv_desocupada":0,"pct_alquiler":0,"pct_electricidad":100,"pct_sin_electricidad":0,"pct_agua_red":100,"pct_alcantarillado":10,"pct_camara_septica":60,"pct_pozo_ciego":20,"pct_sin_desague":10,"pct_gas_red":0,"pct_gas_garrafa":100,"pct_lena_guano":0,"pct_basura_formal":90,"pct_basura_quema":10,"pct_basura_informal":0,"pct_internet":60,"pct_celular":100,"pct_televisor":90}},{"type":"Feature","geometry":{"type":"Polygon","coordinates":[[[-68.59589,-16.20722],[-68.59697,-16.20498],[-68.59719,-16.20506],[-68.59743,-16.2045],[-68.59639,-16.20403],[-68.59484,-16.20679],[-68.59589,-16.20722]]]},"properties":{"n":"HUARINA","p":41,"personas_x_ha":10,"masculinidad":105,"pct_menor20":29,"pct_60mas":37,"pct_migrante":17,"dependencia_econ":38,"pct_empleados":10,"pct_cuentapropia":62,"pct_agricultura":52,"pct_comercio":14,"pct_manufactura":3,"pct_construccion":3,"pct_transporte":3,"pct_alojamiento":3,"pct_sin_educacion":4,"pct_educ_superior":25,"brecha_educ":-5,"pct_sin_seguro":15,"pct_sus":65,"pct_seguro_privado":0,"brecha_seguro":10,"pct_salud_publica":39,"pct_med_tradicional":13,"pct_automedicacion":14,"pct_remedios_caseros":20,"pct_viv_desocupada":0,"pct_alquiler":10,"pct_electricidad":81,"pct_sin_electricidad":19,"pct_agua_red":67,"pct_alcantarillado":0,"pct_camara_septica":0,"pct_pozo_ciego":62,"pct_sin_desague":33,"pct_gas_red":0,"pct_gas_garrafa":100,"pct_lena_guano":0,"pct_basura_formal":14,"pct_basura_quema":76,"pct_basura_informal":0,"pct_internet":52,"pct_celular":86,"pct_televisor":52}},{"type":"Feature","geometry":{"type":"Polygon","coordinates":[[[-68.60139,-16.1904],[-68.60146,-16.19014],[-68.60085,-16.19006],[-68.60079,-16.19028],[-68.60139,-16.1904]]]},"properties":{"n":"HUARINA","p":18,"personas_x_ha":99,"masculinidad":64,"pct_menor20":11,"pct_60mas":22,"pct_migrante":72,"dependencia_econ":38,"pct_empleados":38,"pct_cuentapropia":38,"pct_agricultura":8,"pct_comercio":15,"pct_manufactura":8,"pct_construccion":8,"pct_transporte":8,"pct_alojamiento":15,"pct_sin_educacion":12,"pct_educ_superior":62,"brecha_educ":-20,"pct_sin_seguro":22,"pct_sus":50,"pct_seguro_privado":0,"brecha_seguro":-36,"pct_salud_publica":41,"pct_med_tradicional":0,"pct_automedicacion":10,"pct_remedios_caseros":21,"pct_viv_desocupada":0,"pct_alquiler":0,"pct_electricidad":100,"pct_sin_electricidad":0,"pct_agua_red":100,"pct_alcantarillado":0,"pct_camara_septica":60,"pct_pozo_ciego":20,"pct_sin_desague":0,"pct_gas_red":0,"pct_gas_garrafa":100,"pct_lena_guano":0,"pct_basura_formal":100,"pct_basura_quema":0,"pct_basura_informal":0,"pct_internet":100,"pct_celular":100,"pct_televisor":100}},{"type":"Feature","geometry":{"type":"Polygon","coordinates":[[[-68.59901,-16.19726],[-68.5982,-16.19689],[-68.59802,-16.19719],[-68.59836,-16.1973],[-68.59881,-16.19765],[-68.59901,-16.19726]]]},"properties":{"n":"HUARINA","p":20,"personas_x_ha":52,"masculinidad":67,"pct_menor20":25,"pct_60mas":15,"pct_migrante":30,"dependencia_econ":36,"pct_empleados":21,"pct_cuentapropia":29,"pct_agricultura":21,"pct_comercio":0,"pct_manufactura":7,"pct_construccion":7,"pct_transporte":7,"pct_alojamiento":36,"pct_sin_educacion":13,"pct_educ_superior":53,"brecha_educ":-38,"pct_sin_seguro":11,"pct_sus":89,"pct_seguro_privado":0,"brecha_seguro":25,"pct_salud_publica":25,"pct_med_tradicional":23,"pct_automedicacion":25,"pct_remedios_caseros":25,"pct_viv_desocupada":0,"pct_alquiler":0,"pct_electricidad":100,"pct_sin_electricidad":0,"pct_agua_red":100,"pct_alcantarillado":14,"pct_camara_septica":14,"pct_pozo_ciego":0,"pct_sin_desague":57,"pct_gas_red":0,"pct_gas_garrafa":100,"pct_lena_guano":0,"pct_basura_formal":100,"pct_basura_quema":0,"pct_basura_informal":0,"pct_internet":57,"pct_celular":71,"pct_televisor":71}},{"type":"Feature","geometry":{"type":"Polygon","coordinates":[[[-68.60334,-16.18978],[-68.6027,-16.18954],[-68.60241,-16.19019],[-68.60312,-16.19034],[-68.60334,-16.18978]]]},"properties":{"n":"HUARINA","p":29,"personas_x_ha":52,"masculinidad":93,"pct_menor20":24,"pct_60mas":24,"pct_migrante":48,"dependencia_econ":71,"pct_empleados":29,"pct_cuentapropia":59,"pct_agricultura":24,"pct_comercio":29,"pct_manufactura":18,"pct_construccion":0,"pct_transporte":0,"pct_alojamiento":0,"pct_sin_educacion":0,"pct_educ_superior":43,"brecha_educ":-15,"pct_sin_seguro":18,"pct_sus":39,"pct_seguro_privado":0,"brecha_seguro":-5,"pct_salud_publica":18,"pct_med_tradicional":16,"pct_automedicacion":19,"pct_remedios_caseros":27,"pct_viv_desocupada":13,"pct_alquiler":0,"pct_electricidad":100,"pct_sin_electricidad":0,"pct_agua_red":100,"pct_alcantarillado":7,"pct_camara_septica":20,"pct_pozo_ciego":60,"pct_sin_desague":7,"pct_gas_red":0,"pct_gas_garrafa":100,"pct_lena_guano":0,"pct_basura_formal":93,"pct_basura_quema":7,"pct_basura_informal":0,"pct_internet":53,"pct_celular":87,"pct_televisor":53}},{"type":"Feature","geometry":{"type":"Polygon","coordinates":[[[-68.60502,-16.18579],[-68.60371,-16.18792],[-68.6035,-16.1878],[-68.60514,-16.185],[-68.60519,-16.18502],[-68.60502,-16.18579]]]},"properties":{"n":"HUARINA","p":17,"personas_x_ha":18,"masculinidad":42,"pct_menor20":24,"pct_60mas":18,"pct_migrante":35,"dependencia_econ":100,"pct_empleados":0,"pct_cuentapropia":75,"pct_agricultura":38,"pct_comercio":25,"pct_manufactura":0,"pct_construccion":38,"pct_transporte":0,"pct_alojamiento":0,"pct_sin_educacion":8,"pct_educ_superior":17,"brecha_educ":-25,"pct_sin_seguro":12,"pct_sus":81,"pct_seguro_privado":0,"brecha_seguro":-18,"pct_salud_publica":30,"pct_med_tradicional":13,"pct_automedicacion":22,"pct_remedios_caseros":30,"pct_viv_desocupada":36,"pct_alquiler":0,"pct_electricidad":86,"pct_sin_electricidad":14,"pct_agua_red":43,"pct_alcantarillado":14,"pct_camara_septica":29,"pct_pozo_ciego":43,"pct_sin_desague":0,"pct_gas_red":0,"pct_gas_garrafa":100,"pct_lena_guano":0,"pct_basura_formal":71,"pct_basura_quema":29,"pct_basura_informal":0,"pct_internet":29,"pct_celular":71,"pct_televisor":86}}]}