{"type":"FeatureCollection","features":[{"type":"Feature","geometry":{"type":"Polygon","coordinates":[[[-67.89565,-18.09719],[-67.89493,-18.09724],[-67.89497,-18.09798],[-67.89574,-18.09796],[-67.89565,-18.09719]]]},"properties":{"n":"CHOQUECOTA","p":35,"personas_x_ha":51,"masculinidad":84,"pct_menor20":26,"pct_60mas":14,"pct_migrante":43,"dependencia_econ":59,"pct_empleados":32,"pct_cuentapropia":55,"pct_agricultura":18,"pct_comercio":23,"pct_manufactura":0,"pct_construccion":0,"pct_transporte":9,"pct_alojamiento":9,"pct_educ_superior":69,"brecha_educ":-21,"pct_sin_seguro":9,"pct_seguro_privado":0,"brecha_seguro":19,"pct_med_tradicional":15,"pct_automedicacion":15,"pct_remedios_caseros":22,"pct_viv_desocupada":0,"pct_alquiler":0,"pct_electricidad":93,"pct_agua_red":60,"pct_alcantarillado":53,"pct_gas_red":0,"pct_gas_garrafa":87,"pct_lena_guano":87,"pct_basura_formal":60,"pct_basura_quema":27,"pct_basura_informal":13,"pct_internet":80,"pct_celular":93,"pct_televisor":47}},{"type":"Feature","geometry":{"type":"Polygon","coordinates":[[[-67.89382,-18.09553],[-67.89371,-18.09588],[-67.89374,-18.09637],[-67.89382,-18.09645],[-67.89433,-18.0964],[-67.89419,-18.0955],[-67.89382,-18.09553]]]},"properties":{"n":"CHOQUECOTA","p":16,"personas_x_ha":29,"masculinidad":129,"pct_menor20":31,"pct_60mas":12,"pct_migrante":19,"dependencia_econ":220,"pct_empleados":0,"pct_cuentapropia":100,"pct_agricultura":120,"pct_comercio":20,"pct_manufactura":20,"pct_construccion":0,"pct_transporte":0,"pct_alojamiento":0,"pct_educ_superior":9,"brecha_educ":-50,"pct_sin_seguro":0,"pct_seguro_privado":0,"brecha_seguro":0,"pct_med_tradicional":13,"pct_automedicacion":13,"pct_remedios_caseros":24,"pct_viv_desocupada":0,"pct_alquiler":0,"pct_electricidad":100,"pct_agua_red":0,"pct_alcantarillado":57,"pct_gas_red":0,"pct_gas_garrafa":100,"pct_lena_guano":100,"pct_basura_formal":43,"pct_basura_quema":57,"pct_basura_informal":0,"pct_internet":57,"pct_celular":71,"pct_televisor":14}},{"type":"Feature","geometry":{"type":"Polygon","coordinates":[[[-67.89437,-18.09868],[-67.89495,-18.09855],[-67.89491,-18.09806],[-67.89402,-18.0982],[-67.89406,-18.09841],[-67.89437,-18.09868]]]},"properties":{"n":"CHOQUECOTA","p":15,"personas_x_ha":31,"masculinidad":150,"pct_menor20":33,"pct_60mas":0,"pct_migrante":60,"dependencia_econ":67,"pct_empleados":67,"pct_cuentapropia":0,"pct_agricultura":44,"pct_comercio":0,"pct_manufactura":0,"pct_construccion":0,"pct_transporte":0,"pct_alojamiento":0,"pct_educ_superior":64,"brecha_educ":0,"pct_sin_seguro":7,"pct_seguro_privado":0,"brecha_seguro":-17,"pct_med_tradicional":19,"pct_automedicacion":10,"pct_remedios_caseros":26,"pct_viv_desocupada":5,"pct_alquiler":22,"pct_electricidad":100,"pct_agua_red":56,"pct_alcantarillado":67,"pct_gas_red":0,"pct_gas_garrafa":89,"pct_lena_guano":89,"pct_basura_formal":11,"pct_basura_quema":67,"pct_basura_informal":22,"pct_internet":67,"pct_celular":78,"pct_televisor":22}},{"type":"Feature","geometry":{"type":"Polygon","coordinates":[[[-67.89666,-18.09904],[-67.89665,-18.09847],[-67.89587,-18.09851],[-67.8959,-18.09898],[-67.89666,-18.09904]]]},"properties":{"n":"CHOQUECOTA","p":16,"personas_x_ha":33,"masculinidad":129,"pct_menor20":12,"pct_60mas":19,"pct_migrante":56,"dependencia_econ":45,"pct_empleados":9,"pct_cuentapropia":64,"pct_agricultura":9,"pct_comercio":36,"pct_manufactura":18,"pct_construccion":0,"pct_transporte":0,"pct_alojamiento":0,"pct_educ_superior":50,"brecha_educ":-4,"pct_sin_seguro":50,"pct_seguro_privado":6,"brecha_seguro":13,"pct_med_tradicional":9,"pct_automedicacion":17,"pct_remedios_caseros":30,"pct_viv_desocupada":0,"pct_alquiler":0,"pct_electricidad":100,"pct_agua_red":25,"pct_alcantarillado":50,"pct_gas_red":0,"pct_gas_garrafa":100,"pct_lena_guano":100,"pct_basura_formal":75,"pct_basura_quema":0,"pct_basura_informal":50,"pct_internet":25,"pct_celular":100,"pct_televisor":25}},{"type":"Feature","geometry":{"type":"Polygon","coordinates":[[[-67.89475,-18.0964],[-67.89442,-18.09645],[-67.89452,-18.09723],[-67.89484,-18.09718],[-67.89475,-18.0964]]]},"properties":{"n":"CHOQUECOTA","p":21,"personas_x_ha":69,"masculinidad":133,"pct_menor20":43,"pct_60mas":14,"pct_migrante":38,"dependencia_econ":133,"pct_empleados":33,"pct_cuentapropia":44,"pct_agricultura":22,"pct_comercio":22,"pct_manufactura":33,"pct_construccion":0,"pct_transporte":0,"pct_alojamiento":0,"pct_educ_superior":54,"brecha_educ":-33,"pct_sin_seguro":15,"pct_seguro_privado":0,"brecha_seguro":7,"pct_med_tradicional":9,"pct_automedicacion":12,"pct_remedios_caseros":29,"pct_viv_desocupada":0,"pct_alquiler":0,"pct_electricidad":86,"pct_agua_red":57,"pct_alcantarillado":43,"pct_gas_red":0,"pct_gas_garrafa":86,"pct_lena_guano":86,"pct_basura_formal":14,"pct_basura_quema":43,"pct_basura_informal":57,"pct_internet":57,"pct_celular":86,"pct_televisor":29}},{"type":"Feature","geometry":{"type":"Polygon","coordinates":[[[-67.89637,-18.09972],[-67.89619,-18.09962],[-67.89619,-18.09951],[-67.89586,-18.09943],[-67.89587,-18.09905],[-67.89665,-18.09911],[-67.89666,-18.09973],[-67.89637,-18.09972]]]},"properties":{"n":"CHOQUECOTA","p":18,"personas_x_ha":36,"masculinidad":100,"pct_menor20":17,"pct_60mas":17,"pct_migrante":28,"dependencia_econ":38,"pct_empleados":0,"pct_cuentapropia":100,"pct_agricultura":38,"pct_comercio":23,"pct_manufactura":15,"pct_construccion":0,"pct_transporte":0,"pct_alojamiento":15,"pct_educ_superior":33,"brecha_educ":-11,"pct_sin_seguro":0,"pct_seguro_privado":0,"brecha_seguro":0,"pct_med_tradicional":20,"pct_automedicacion":22,"pct_remedios_caseros":22,"pct_viv_desocupada":6,"pct_alquiler":0,"pct_electricidad":100,"pct_agua_red":57,"pct_alcantarillado":71,"pct_gas_red":0,"pct_gas_garrafa":86,"pct_lena_guano":86,"pct_basura_formal":29,"pct_basura_quema":29,"pct_basura_informal":0,"pct_internet":57,"pct_celular":100,"pct_televisor":57}},{"type":"Feature","geometry":{"type":"Polygon","coordinates":[[[-67.89553,-18.09617],[-67.89543,-18.09535],[-67.8947,-18.09544],[-67.89483,-18.09631],[-67.89553,-18.09617]]]},"properties":{"n":"CHOQUECOTA","p":20,"personas_x_ha":27,"masculinidad":54,"pct_menor20":45,"pct_60mas":0,"pct_migrante":40,"dependencia_econ":150,"pct_empleados":38,"pct_cuentapropia":62,"pct_agricultura":38,"pct_comercio":0,"pct_manufactura":0,"pct_construccion":0,"pct_transporte":25,"pct_alojamiento":12,"pct_educ_superior":45,"brecha_educ":-29,"pct_sin_seguro":5,"pct_seguro_privado":0,"brecha_seguro":14,"pct_med_tradicional":17,"pct_automedicacion":16,"pct_remedios_caseros":20,"pct_viv_desocupada":0,"pct_alquiler":0,"pct_electricidad":100,"pct_agua_red":67,"pct_alcantarillado":83,"pct_gas_red":0,"pct_gas_garrafa":100,"pct_lena_guano":100,"pct_basura_formal":33,"pct_basura_quema":50,"pct_basura_informal":0,"pct_internet":100,"pct_celular":100,"pct_televisor":67}},{"type":"Feature","geometry":{"type":"Polygon","coordinates":[[[-67.89626,-18.09477],[-67.89614,-18.0946],[-67.8955,-18.09464],[-67.89552,-18.09526],[-67.8963,-18.09519],[-67.89626,-18.09477]]]},"properties":{"n":"CHOQUECOTA","p":16,"personas_x_ha":29,"masculinidad":129,"pct_menor20":62,"pct_60mas":6,"pct_migrante":44,"dependencia_econ":300,"pct_empleados":50,"pct_cuentapropia":50,"pct_agricultura":25,"pct_comercio":0,"pct_manufactura":0,"pct_construccion":50,"pct_transporte":0,"pct_alojamiento":0,"pct_educ_superior":17,"brecha_educ":-50,"pct_sin_seguro":0,"pct_seguro_privado":0,"brecha_seguro":0,"pct_med_tradicional":12,"pct_automedicacion":12,"pct_remedios_caseros":23,"pct_viv_desocupada":0,"pct_alquiler":0,"pct_electricidad":100,"pct_agua_red":33,"pct_alcantarillado":67,"pct_gas_red":0,"pct_gas_garrafa":100,"pct_lena_guano":100,"pct_basura_formal":0,"pct_basura_quema":67,"pct_basura_informal":0,"pct_internet":100,"pct_celular":100,"pct_televisor":67}},{"type":"Feature","geometry":{"type":"Polygon","coordinates":[[[-68.10767,-18.07383],[-68.10739,-18.07369],[-68.10718,-18.07408],[-68.10744,-18.07428],[-68.10767,-18.07383]]]},"properties":{"n":"MITMA","p":17,"personas_x_ha":96,"masculinidad":112,"pct_menor20":35,"pct_60mas":24,"pct_migrante":18,"dependencia_econ":70,"pct_empleados":10,"pct_cuentapropia":90,"pct_agricultura":40,"pct_comercio":50,"pct_manufactura":0,"pct_construccion":0,"pct_transporte":10,"pct_alojamiento":0,"pct_educ_superior":8,"brecha_educ":-51,"pct_sin_seguro":13,"pct_seguro_privado":0,"brecha_seguro":22,"pct_med_tradicional":30,"pct_automedicacion":2,"pct_remedios_caseros":30,"pct_viv_desocupada":22,"pct_alquiler":0,"pct_electricidad":100,"pct_agua_red":33,"pct_alcantarillado":0,"pct_gas_red":0,"pct_gas_garrafa":33,"pct_lena_guano":33,"pct_basura_formal":0,"pct_basura_quema":67,"pct_basura_informal":0,"pct_internet":33,"pct_celular":33,"pct_televisor":33}}]}