{"type":"FeatureCollection","features":[{"type":"Feature","geometry":{"type":"Polygon","coordinates":[[[-67.06246,-19.28419],[-67.06261,-19.28431],[-67.06316,-19.28365],[-67.06292,-19.28347],[-67.06284,-19.28357],[-67.0629,-19.28364],[-67.06246,-19.28419]]]},"properties":{"n":"BENGAL VINTO","p":22,"personas_x_ha":102,"masculinidad":69,"pct_menor20":45,"pct_60mas":5,"pct_migrante":27,"dependencia_econ":267,"pct_empleados":0,"pct_cuentapropia":67,"pct_agricultura":100,"pct_comercio":17,"pct_manufactura":0,"pct_construccion":17,"pct_transporte":0,"pct_alojamiento":0,"pct_educ_superior":0,"brecha_educ":-23,"pct_sin_seguro":14,"pct_seguro_privado":0,"brecha_seguro":-6,"pct_med_tradicional":17,"pct_automedicacion":17,"pct_remedios_caseros":27,"pct_viv_desocupada":0,"pct_alquiler":0,"pct_electricidad":50,"pct_agua_red":100,"pct_alcantarillado":50,"pct_gas_red":0,"pct_gas_garrafa":100,"pct_lena_guano":100,"pct_basura_formal":0,"pct_basura_quema":67,"pct_basura_informal":0,"pct_internet":33,"pct_celular":83,"pct_televisor":33}},{"type":"Feature","geometry":{"type":"Polygon","coordinates":[[[-67.06509,-19.2823],[-67.06575,-19.28155],[-67.06575,-19.28151],[-67.06525,-19.28131],[-67.06467,-19.282],[-67.06509,-19.2823]]]},"properties":{"n":"BENGAL VINTO","p":18,"personas_x_ha":30,"masculinidad":80,"pct_menor20":44,"pct_60mas":11,"pct_migrante":11,"dependencia_econ":200,"pct_empleados":17,"pct_cuentapropia":67,"pct_agricultura":83,"pct_comercio":17,"pct_manufactura":17,"pct_construccion":17,"pct_transporte":0,"pct_alojamiento":0,"pct_educ_superior":20,"brecha_educ":-50,"pct_sin_seguro":6,"pct_seguro_privado":0,"brecha_seguro":-10,"pct_med_tradicional":22,"pct_automedicacion":23,"pct_remedios_caseros":25,"pct_viv_desocupada":20,"pct_alquiler":0,"pct_electricidad":100,"pct_agua_red":43,"pct_alcantarillado":100,"pct_gas_red":0,"pct_gas_garrafa":100,"pct_lena_guano":100,"pct_basura_formal":14,"pct_basura_quema":71,"pct_basura_informal":0,"pct_internet":86,"pct_celular":86,"pct_televisor":57}},{"type":"Feature","geometry":{"type":"Polygon","coordinates":[[[-67.06361,-19.28327],[-67.06331,-19.28362],[-67.0637,-19.28396],[-67.06397,-19.28355],[-67.06361,-19.28327]]]},"properties":{"n":"BENGAL VINTO","p":33,"personas_x_ha":113,"masculinidad":120,"pct_menor20":39,"pct_60mas":12,"pct_migrante":42,"dependencia_econ":120,"pct_empleados":7,"pct_cuentapropia":93,"pct_agricultura":27,"pct_comercio":47,"pct_manufactura":0,"pct_construccion":13,"pct_transporte":7,"pct_alojamiento":0,"pct_educ_superior":43,"brecha_educ":-16,"pct_sin_seguro":12,"pct_seguro_privado":0,"brecha_seguro":10,"pct_med_tradicional":10,"pct_automedicacion":27,"pct_remedios_caseros":31,"pct_viv_desocupada":0,"pct_alquiler":0,"pct_electricidad":50,"pct_agua_red":64,"pct_alcantarillado":36,"pct_gas_red":0,"pct_gas_garrafa":100,"pct_lena_guano":100,"pct_basura_formal":0,"pct_basura_quema":71,"pct_basura_informal":0,"pct_internet":93,"pct_celular":93,"pct_televisor":50}},{"type":"Feature","geometry":{"type":"Polygon","coordinates":[[[-67.0629,-19.28337],[-67.0632,-19.28299],[-67.06276,-19.28271],[-67.06249,-19.28308],[-67.0629,-19.28337]]]},"properties":{"n":"BENGAL VINTO","p":20,"personas_x_ha":70,"masculinidad":122,"pct_menor20":45,"pct_60mas":0,"pct_migrante":20,"dependencia_econ":186,"pct_empleados":14,"pct_cuentapropia":86,"pct_agricultura":43,"pct_comercio":0,"pct_manufactura":14,"pct_construccion":29,"pct_transporte":0,"pct_alojamiento":0,"pct_educ_superior":18,"brecha_educ":-23,"pct_sin_seguro":0,"pct_seguro_privado":0,"brecha_seguro":0,"pct_med_tradicional":3,"pct_automedicacion":11,"pct_remedios_caseros":32,"pct_viv_desocupada":14,"pct_alquiler":0,"pct_electricidad":100,"pct_agua_red":50,"pct_alcantarillado":33,"pct_gas_red":0,"pct_gas_garrafa":100,"pct_lena_guano":100,"pct_basura_formal":0,"pct_basura_quema":50,"pct_basura_informal":0,"pct_internet":17,"pct_celular":67,"pct_televisor":17}},{"type":"Feature","geometry":{"type":"Polygon","coordinates":[[[-67.06357,-19.28262],[-67.06387,-19.28283],[-67.06416,-19.28245],[-67.06387,-19.28225],[-67.06357,-19.28262]]]},"properties":{"n":"BENGAL VINTO","p":17,"personas_x_ha":82,"masculinidad":55,"pct_menor20":18,"pct_60mas":29,"pct_migrante":35,"dependencia_econ":55,"pct_empleados":0,"pct_cuentapropia":73,"pct_agricultura":55,"pct_comercio":9,"pct_manufactura":27,"pct_construccion":0,"pct_transporte":0,"pct_alojamiento":0,"pct_educ_superior":21,"brecha_educ":-40,"pct_sin_seguro":31,"pct_seguro_privado":6,"brecha_seguro":3,"pct_med_tradicional":20,"pct_automedicacion":16,"pct_remedios_caseros":32,"pct_viv_desocupada":36,"pct_alquiler":14,"pct_electricidad":57,"pct_agua_red":29,"pct_alcantarillado":29,"pct_gas_red":0,"pct_gas_garrafa":100,"pct_lena_guano":100,"pct_basura_formal":43,"pct_basura_quema":57,"pct_basura_informal":0,"pct_internet":43,"pct_celular":86,"pct_televisor":57}},{"type":"Feature","geometry":{"type":"Polygon","coordinates":[[[-67.06696,-19.28027],[-67.06632,-19.27999],[-67.06619,-19.28015],[-67.06596,-19.28057],[-67.06678,-19.2809],[-67.06697,-19.28048],[-67.06696,-19.28027]]]},"properties":{"n":"BENGAL VINTO","p":15,"personas_x_ha":23,"masculinidad":50,"pct_menor20":67,"pct_60mas":0,"pct_migrante":40,"dependencia_econ":200,"pct_empleados":0,"pct_cuentapropia":80,"pct_agricultura":100,"pct_comercio":0,"pct_manufactura":0,"pct_construccion":0,"pct_transporte":0,"pct_alojamiento":0,"pct_educ_superior":0,"brecha_educ":-33,"pct_sin_seguro":7,"pct_seguro_privado":0,"brecha_seguro":-10,"pct_med_tradicional":26,"pct_automedicacion":20,"pct_remedios_caseros":24,"pct_viv_desocupada":0,"pct_alquiler":0,"pct_electricidad":100,"pct_agua_red":67,"pct_alcantarillado":33,"pct_gas_red":0,"pct_gas_garrafa":100,"pct_lena_guano":100,"pct_basura_formal":0,"pct_basura_quema":100,"pct_basura_informal":0,"pct_internet":100,"pct_celular":100,"pct_televisor":100}},{"type":"Feature","geometry":{"type":"Polygon","coordinates":[[[-67.0608,-19.19953],[-67.06136,-19.1988],[-67.06135,-19.19877],[-67.06088,-19.1987],[-67.06075,-19.19948],[-67.0608,-19.19953]]]},"properties":{"n":"PAMPA AULLAGAS","p":15,"personas_x_ha":54,"masculinidad":150,"pct_menor20":33,"pct_60mas":7,"pct_migrante":13,"dependencia_econ":114,"pct_empleados":14,"pct_cuentapropia":71,"pct_agricultura":43,"pct_comercio":14,"pct_manufactura":0,"pct_construccion":29,"pct_transporte":0,"pct_alojamiento":0,"pct_educ_superior":18,"brecha_educ":-13,"pct_sin_seguro":18,"pct_seguro_privado":0,"brecha_seguro":29,"pct_med_tradicional":31,"pct_automedicacion":14,"pct_remedios_caseros":31,"pct_viv_desocupada":0,"pct_alquiler":0,"pct_electricidad":83,"pct_agua_red":100,"pct_alcantarillado":50,"pct_gas_red":0,"pct_gas_garrafa":83,"pct_lena_guano":83,"pct_basura_formal":50,"pct_basura_quema":50,"pct_basura_informal":0,"pct_internet":67,"pct_celular":100,"pct_televisor":17}},{"type":"Feature","geometry":{"type":"Polygon","coordinates":[[[-67.06149,-19.19674],[-67.06148,-19.19736],[-67.06212,-19.19733],[-67.06205,-19.1967],[-67.06149,-19.19674]]]},"properties":{"n":"PAMPA AULLAGAS","p":28,"personas_x_ha":63,"masculinidad":133,"pct_menor20":39,"pct_60mas":18,"pct_migrante":43,"dependencia_econ":133,"pct_empleados":17,"pct_cuentapropia":67,"pct_agricultura":50,"pct_comercio":8,"pct_manufactura":8,"pct_construccion":0,"pct_transporte":0,"pct_alojamiento":0,"pct_educ_superior":35,"brecha_educ":-26,"pct_sin_seguro":14,"pct_seguro_privado":0,"brecha_seguro":-4,"pct_med_tradicional":9,"pct_automedicacion":14,"pct_remedios_caseros":32,"pct_viv_desocupada":13,"pct_alquiler":0,"pct_electricidad":82,"pct_agua_red":91,"pct_alcantarillado":73,"pct_gas_red":0,"pct_gas_garrafa":100,"pct_lena_guano":100,"pct_basura_formal":45,"pct_basura_quema":36,"pct_basura_informal":18,"pct_internet":45,"pct_celular":100,"pct_televisor":45}},{"type":"Feature","geometry":{"type":"Polygon","coordinates":[[[-67.06105,-19.19356],[-67.06092,-19.19285],[-67.06078,-19.1929],[-67.06074,-19.19315],[-67.06036,-19.19328],[-67.06042,-19.19364],[-67.06105,-19.19356]]]},"properties":{"n":"PAMPA AULLAGAS","p":22,"personas_x_ha":56,"masculinidad":57,"pct_menor20":36,"pct_60mas":18,"pct_migrante":9,"dependencia_econ":214,"pct_empleados":43,"pct_cuentapropia":29,"pct_agricultura":14,"pct_comercio":29,"pct_manufactura":14,"pct_construccion":0,"pct_transporte":0,"pct_alojamiento":0,"pct_educ_superior":57,"brecha_educ":-36,"pct_sin_seguro":0,"pct_seguro_privado":0,"brecha_seguro":0,"pct_med_tradicional":22,"pct_automedicacion":20,"pct_remedios_caseros":22,"pct_viv_desocupada":0,"pct_alquiler":0,"pct_electricidad":100,"pct_agua_red":67,"pct_alcantarillado":67,"pct_gas_red":0,"pct_gas_garrafa":83,"pct_lena_guano":83,"pct_basura_formal":33,"pct_basura_quema":50,"pct_basura_informal":0,"pct_internet":50,"pct_celular":83,"pct_televisor":50}},{"type":"Feature","geometry":{"type":"Polygon","coordinates":[[[-67.06131,-19.19599],[-67.06127,-19.19555],[-67.06063,-19.19564],[-67.06069,-19.1961],[-67.06131,-19.19599]]]},"properties":{"n":"PAMPA AULLAGAS","p":20,"personas_x_ha":56,"masculinidad":82,"pct_menor20":40,"pct_60mas":30,"pct_migrante":55,"dependencia_econ":186,"pct_empleados":29,"pct_cuentapropia":57,"pct_agricultura":43,"pct_comercio":14,"pct_manufactura":0,"pct_construccion":14,"pct_transporte":0,"pct_alojamiento":29,"pct_educ_superior":23,"brecha_educ":21,"pct_sin_seguro":20,"pct_seguro_privado":5,"brecha_seguro":4,"pct_med_tradicional":13,"pct_automedicacion":20,"pct_remedios_caseros":19,"pct_viv_desocupada":6,"pct_alquiler":0,"pct_electricidad":100,"pct_agua_red":83,"pct_alcantarillado":50,"pct_gas_red":0,"pct_gas_garrafa":100,"pct_lena_guano":100,"pct_basura_formal":17,"pct_basura_quema":67,"pct_basura_informal":0,"pct_internet":50,"pct_celular":67,"pct_televisor":50}},{"type":"Feature","geometry":{"type":"Polygon","coordinates":[[[-67.06262,-19.19527],[-67.06253,-19.19478],[-67.06196,-19.19488],[-67.06199,-19.19537],[-67.06262,-19.19527]]]},"properties":{"n":"PAMPA AULLAGAS","p":17,"personas_x_ha":48,"masculinidad":89,"pct_menor20":24,"pct_60mas":29,"pct_migrante":18,"dependencia_econ":112,"pct_empleados":25,"pct_cuentapropia":75,"pct_agricultura":25,"pct_comercio":25,"pct_manufactura":25,"pct_construccion":0,"pct_transporte":0,"pct_alojamiento":0,"pct_educ_superior":31,"brecha_educ":-24,"pct_sin_seguro":0,"pct_seguro_privado":0,"brecha_seguro":0,"pct_med_tradicional":19,"pct_automedicacion":7,"pct_remedios_caseros":37,"pct_viv_desocupada":0,"pct_alquiler":11,"pct_electricidad":100,"pct_agua_red":78,"pct_alcantarillado":56,"pct_gas_red":0,"pct_gas_garrafa":100,"pct_lena_guano":100,"pct_basura_formal":44,"pct_basura_quema":33,"pct_basura_informal":22,"pct_internet":44,"pct_celular":89,"pct_televisor":33}},{"type":"Feature","geometry":{"type":"Polygon","coordinates":[[[-67.0635,-19.19654],[-67.06341,-19.19548],[-67.0634,-19.19547],[-67.06283,-19.19586],[-67.0629,-19.19657],[-67.0635,-19.19654]]]},"properties":{"n":"PAMPA AULLAGAS","p":30,"personas_x_ha":47,"masculinidad":114,"pct_menor20":37,"pct_60mas":10,"pct_migrante":43,"dependencia_econ":131,"pct_empleados":15,"pct_cuentapropia":54,"pct_agricultura":15,"pct_comercio":31,"pct_manufactura":0,"pct_construccion":0,"pct_transporte":8,"pct_alojamiento":15,"pct_educ_superior":32,"brecha_educ":-13,"pct_sin_seguro":0,"pct_seguro_privado":7,"brecha_seguro":0,"pct_med_tradicional":27,"pct_automedicacion":18,"pct_remedios_caseros":27,"pct_viv_desocupada":11,"pct_alquiler":0,"pct_electricidad":100,"pct_agua_red":56,"pct_alcantarillado":33,"pct_gas_red":0,"pct_gas_garrafa":100,"pct_lena_guano":100,"pct_basura_formal":78,"pct_basura_quema":11,"pct_basura_informal":22,"pct_internet":78,"pct_celular":100,"pct_televisor":89}},{"type":"Feature","geometry":{"type":"Polygon","coordinates":[[[-67.06109,-19.19395],[-67.06106,-19.19364],[-67.06041,-19.19372],[-67.06045,-19.19403],[-67.06109,-19.19395]]]},"properties":{"n":"PAMPA AULLAGAS","p":17,"personas_x_ha":70,"masculinidad":42,"pct_menor20":53,"pct_60mas":6,"pct_migrante":6,"dependencia_econ":183,"pct_empleados":33,"pct_cuentapropia":67,"pct_agricultura":17,"pct_comercio":33,"pct_manufactura":17,"pct_construccion":0,"pct_transporte":0,"pct_alojamiento":0,"pct_educ_superior":38,"brecha_educ":-20,"pct_sin_seguro":12,"pct_seguro_privado":0,"brecha_seguro":40,"pct_med_tradicional":19,"pct_automedicacion":9,"pct_remedios_caseros":21,"pct_viv_desocupada":0,"pct_alquiler":0,"pct_electricidad":100,"pct_agua_red":67,"pct_alcantarillado":50,"pct_gas_red":0,"pct_gas_garrafa":83,"pct_lena_guano":83,"pct_basura_formal":33,"pct_basura_quema":67,"pct_basura_informal":0,"pct_internet":67,"pct_celular":100,"pct_televisor":50}},{"type":"Feature","geometry":{"type":"Polygon","coordinates":[[[-67.06265,-19.19771],[-67.06269,-19.19737],[-67.06222,-19.19738],[-67.06226,-19.19769],[-67.06265,-19.19771]]]},"properties":{"n":"PAMPA AULLAGAS","p":15,"personas_x_ha":88,"masculinidad":67,"pct_menor20":40,"pct_60mas":7,"pct_migrante":33,"dependencia_econ":88,"pct_empleados":12,"pct_cuentapropia":50,"pct_agricultura":50,"pct_comercio":25,"pct_manufactura":0,"pct_construccion":0,"pct_transporte":0,"pct_alojamiento":12,"pct_educ_superior":22,"brecha_educ":-20,"pct_sin_seguro":0,"pct_seguro_privado":0,"brecha_seguro":0,"pct_med_tradicional":8,"pct_automedicacion":19,"pct_remedios_caseros":29,"pct_viv_desocupada":14,"pct_alquiler":0,"pct_electricidad":100,"pct_agua_red":100,"pct_alcantarillado":60,"pct_gas_red":0,"pct_gas_garrafa":80,"pct_lena_guano":80,"pct_basura_formal":40,"pct_basura_quema":20,"pct_basura_informal":0,"pct_internet":60,"pct_celular":80,"pct_televisor":80}},{"type":"Feature","geometry":{"type":"Polygon","coordinates":[[[-67.0614,-19.1971],[-67.06114,-19.1971],[-67.0614,-19.19708],[-67.06137,-19.19677],[-67.06129,-19.19678],[-67.06129,-19.1969],[-67.06108,-19.19691],[-67.06127,-19.19688],[-67.06127,-19.19678],[-67.06096,-19.19681],[-67.06095,-19.19697],[-67.06094,-19.19681],[-67.06076,-19.19683],[-67.06078,-19.19699],[-67.06095,-19.19702],[-67.06078,-19.19701],[-67.0608,-19.19718],[-67.06106,-19.19723],[-67.0608,-19.19721],[-67.06082,-19.19742],[-67.0614,-19.19738],[-67.0614,-19.1971]]]},"properties":{"n":"PAMPA AULLAGAS","p":18,"personas_x_ha":45,"masculinidad":80,"pct_menor20":33,"pct_60mas":28,"pct_migrante":28,"dependencia_econ":70,"pct_empleados":20,"pct_cuentapropia":60,"pct_agricultura":70,"pct_comercio":0,"pct_manufactura":0,"pct_construccion":0,"pct_transporte":0,"pct_alojamiento":0,"pct_educ_superior":25,"brecha_educ":-23,"pct_sin_seguro":29,"pct_seguro_privado":12,"brecha_seguro":39,"pct_med_tradicional":12,"pct_automedicacion":12,"pct_remedios_caseros":26,"pct_viv_desocupada":19,"pct_alquiler":11,"pct_electricidad":89,"pct_agua_red":56,"pct_alcantarillado":67,"pct_gas_red":0,"pct_gas_garrafa":100,"pct_lena_guano":100,"pct_basura_formal":56,"pct_basura_quema":44,"pct_basura_informal":0,"pct_internet":67,"pct_celular":89,"pct_televisor":56}},{"type":"Feature","geometry":{"type":"Polygon","coordinates":[[[-67.06074,-19.1924],[-67.06018,-19.19258],[-67.06032,-19.19315],[-67.06044,-19.19311],[-67.06041,-19.19297],[-67.06094,-19.19276],[-67.06074,-19.1924]]]},"properties":{"n":"PAMPA AULLAGAS","p":26,"personas_x_ha":76,"masculinidad":117,"pct_menor20":38,"pct_60mas":8,"pct_migrante":27,"dependencia_econ":225,"pct_empleados":75,"pct_cuentapropia":25,"pct_agricultura":25,"pct_comercio":12,"pct_manufactura":0,"pct_construccion":12,"pct_transporte":0,"pct_alojamiento":0,"pct_educ_superior":56,"brecha_educ":-10,"pct_sin_seguro":4,"pct_seguro_privado":0,"brecha_seguro":-8,"pct_med_tradicional":21,"pct_automedicacion":18,"pct_remedios_caseros":24,"pct_viv_desocupada":0,"pct_alquiler":0,"pct_electricidad":100,"pct_agua_red":100,"pct_alcantarillado":57,"pct_gas_red":0,"pct_gas_garrafa":100,"pct_lena_guano":100,"pct_basura_formal":0,"pct_basura_quema":71,"pct_basura_informal":57,"pct_internet":86,"pct_celular":100,"pct_televisor":100}},{"type":"Feature","geometry":{"type":"Polygon","coordinates":[[[-67.06083,-19.19821],[-67.06072,-19.19821],[-67.06083,-19.19819],[-67.06079,-19.19782],[-67.06036,-19.19787],[-67.06038,-19.19834],[-67.0606,-19.19836],[-67.06064,-19.19829],[-67.06061,-19.19859],[-67.06082,-19.19861],[-67.06083,-19.19821]]]},"properties":{"n":"PAMPA AULLAGAS","p":23,"personas_x_ha":71,"masculinidad":64,"pct_menor20":30,"pct_60mas":26,"pct_migrante":39,"dependencia_econ":100,"pct_empleados":0,"pct_cuentapropia":91,"pct_agricultura":73,"pct_comercio":27,"pct_manufactura":9,"pct_construccion":9,"pct_transporte":0,"pct_alojamiento":0,"pct_educ_superior":0,"brecha_educ":-27,"pct_sin_seguro":9,"pct_seguro_privado":0,"brecha_seguro":5,"pct_med_tradicional":20,"pct_automedicacion":13,"pct_remedios_caseros":28,"pct_viv_desocupada":0,"pct_alquiler":0,"pct_electricidad":92,"pct_agua_red":58,"pct_alcantarillado":58,"pct_gas_red":0,"pct_gas_garrafa":83,"pct_lena_guano":83,"pct_basura_formal":67,"pct_basura_quema":25,"pct_basura_informal":17,"pct_internet":42,"pct_celular":100,"pct_televisor":75}},{"type":"Feature","geometry":{"type":"Polygon","coordinates":[[[-67.06272,-19.19582],[-67.06262,-19.19534],[-67.06199,-19.19545],[-67.06206,-19.19595],[-67.06272,-19.19582]]]},"properties":{"n":"PAMPA AULLAGAS","p":28,"personas_x_ha":70,"masculinidad":75,"pct_menor20":29,"pct_60mas":29,"pct_migrante":43,"dependencia_econ":115,"pct_empleados":31,"pct_cuentapropia":62,"pct_agricultura":38,"pct_comercio":0,"pct_manufactura":8,"pct_construccion":8,"pct_transporte":15,"pct_alojamiento":0,"pct_educ_superior":35,"brecha_educ":-29,"pct_sin_seguro":26,"pct_seguro_privado":0,"brecha_seguro":-2,"pct_med_tradicional":24,"pct_automedicacion":12,"pct_remedios_caseros":26,"pct_viv_desocupada":17,"pct_alquiler":9,"pct_electricidad":91,"pct_agua_red":55,"pct_alcantarillado":55,"pct_gas_red":0,"pct_gas_garrafa":91,"pct_lena_guano":91,"pct_basura_formal":27,"pct_basura_quema":64,"pct_basura_informal":18,"pct_internet":55,"pct_celular":82,"pct_televisor":45}},{"type":"Feature","geometry":{"type":"Polygon","coordinates":[[[-67.05976,-19.19623],[-67.06062,-19.19609],[-67.06057,-19.19564],[-67.06028,-19.19568],[-67.06028,-19.19562],[-67.06055,-19.19557],[-67.06051,-19.19514],[-67.05961,-19.19533],[-67.05976,-19.19623]]]},"properties":{"n":"PAMPA AULLAGAS","p":16,"personas_x_ha":17,"masculinidad":78,"pct_menor20":62,"pct_60mas":0,"pct_migrante":44,"dependencia_econ":129,"pct_empleados":71,"pct_cuentapropia":14,"pct_agricultura":43,"pct_comercio":0,"pct_manufactura":0,"pct_construccion":14,"pct_transporte":29,"pct_alojamiento":14,"pct_educ_superior":0,"brecha_educ":-50,"pct_sin_seguro":0,"pct_seguro_privado":0,"brecha_seguro":0,"pct_med_tradicional":29,"pct_automedicacion":2,"pct_remedios_caseros":29,"pct_viv_desocupada":7,"pct_alquiler":0,"pct_electricidad":100,"pct_agua_red":100,"pct_alcantarillado":100,"pct_gas_red":0,"pct_gas_garrafa":100,"pct_lena_guano":100,"pct_basura_formal":60,"pct_basura_quema":20,"pct_basura_informal":40,"pct_internet":80,"pct_celular":80,"pct_televisor":80}},{"type":"Feature","geometry":{"type":"Polygon","coordinates":[[[-67.06362,-19.19784],[-67.06297,-19.19782],[-67.06262,-19.19877],[-67.0628,-19.19891],[-67.06323,-19.19852],[-67.06362,-19.19784]]]},"properties":{"n":"PAMPA AULLAGAS","p":31,"personas_x_ha":48,"masculinidad":63,"pct_menor20":58,"pct_60mas":6,"pct_migrante":16,"dependencia_econ":480,"pct_empleados":20,"pct_cuentapropia":80,"pct_agricultura":60,"pct_comercio":40,"pct_manufactura":20,"pct_construccion":0,"pct_transporte":0,"pct_alojamiento":0,"pct_educ_superior":36,"brecha_educ":42,"pct_sin_seguro":0,"pct_seguro_privado":0,"brecha_seguro":0,"pct_med_tradicional":19,"pct_automedicacion":14,"pct_remedios_caseros":22,"pct_viv_desocupada":7,"pct_alquiler":0,"pct_electricidad":90,"pct_agua_red":60,"pct_alcantarillado":20,"pct_gas_red":0,"pct_gas_garrafa":100,"pct_lena_guano":100,"pct_basura_formal":30,"pct_basura_quema":50,"pct_basura_informal":40,"pct_internet":70,"pct_celular":90,"pct_televisor":70}},{"type":"Feature","geometry":{"type":"Polygon","coordinates":[[[-67.06197,-19.19596],[-67.0619,-19.19542],[-67.06134,-19.19549],[-67.06139,-19.19604],[-67.06197,-19.19596]]]},"properties":{"n":"PAMPA AULLAGAS","p":17,"personas_x_ha":45,"masculinidad":42,"pct_menor20":29,"pct_60mas":12,"pct_migrante":29,"dependencia_econ":129,"pct_empleados":29,"pct_cuentapropia":71,"pct_agricultura":0,"pct_comercio":43,"pct_manufactura":0,"pct_construccion":0,"pct_transporte":29,"pct_alojamiento":0,"pct_educ_superior":45,"brecha_educ":-43,"pct_sin_seguro":25,"pct_seguro_privado":0,"brecha_seguro":22,"pct_med_tradicional":3,"pct_automedicacion":3,"pct_remedios_caseros":31,"pct_viv_desocupada":6,"pct_alquiler":0,"pct_electricidad":100,"pct_agua_red":89,"pct_alcantarillado":56,"pct_gas_red":0,"pct_gas_garrafa":100,"pct_lena_guano":100,"pct_basura_formal":67,"pct_basura_quema":11,"pct_basura_informal":22,"pct_internet":78,"pct_celular":89,"pct_televisor":33}},{"type":"Feature","geometry":{"type":"Polygon","coordinates":[[[-67.0595,-19.19339],[-67.05993,-19.19329],[-67.05974,-19.19269],[-67.05928,-19.19281],[-67.0595,-19.19339]]]},"properties":{"n":"PAMPA AULLAGAS","p":19,"personas_x_ha":54,"masculinidad":171,"pct_menor20":42,"pct_60mas":16,"pct_migrante":26,"dependencia_econ":90,"pct_empleados":40,"pct_cuentapropia":60,"pct_agricultura":30,"pct_comercio":20,"pct_manufactura":10,"pct_construccion":30,"pct_transporte":0,"pct_alojamiento":0,"pct_educ_superior":27,"brecha_educ":-27,"pct_sin_seguro":0,"pct_seguro_privado":0,"brecha_seguro":0,"pct_med_tradicional":27,"pct_automedicacion":15,"pct_remedios_caseros":29,"pct_viv_desocupada":15,"pct_alquiler":0,"pct_electricidad":71,"pct_agua_red":100,"pct_alcantarillado":29,"pct_gas_red":0,"pct_gas_garrafa":86,"pct_lena_guano":86,"pct_basura_formal":43,"pct_basura_quema":57,"pct_basura_informal":0,"pct_internet":57,"pct_celular":100,"pct_televisor":57}},{"type":"Feature","geometry":{"type":"Polygon","coordinates":[[[-67.06034,-19.19752],[-67.06037,-19.19779],[-67.06079,-19.19772],[-67.06075,-19.19748],[-67.06034,-19.19752]]]},"properties":{"n":"PAMPA AULLAGAS","p":20,"personas_x_ha":143,"masculinidad":100,"pct_menor20":50,"pct_60mas":5,"pct_migrante":45,"dependencia_econ":122,"pct_empleados":67,"pct_cuentapropia":33,"pct_agricultura":22,"pct_comercio":0,"pct_manufactura":33,"pct_construccion":0,"pct_transporte":0,"pct_alojamiento":0,"pct_educ_superior":60,"brecha_educ":-40,"pct_sin_seguro":0,"pct_seguro_privado":6,"brecha_seguro":0,"pct_med_tradicional":10,"pct_automedicacion":23,"pct_remedios_caseros":24,"pct_viv_desocupada":0,"pct_alquiler":0,"pct_electricidad":100,"pct_agua_red":100,"pct_alcantarillado":86,"pct_gas_red":0,"pct_gas_garrafa":86,"pct_lena_guano":86,"pct_basura_formal":86,"pct_basura_quema":14,"pct_basura_informal":0,"pct_internet":100,"pct_celular":100,"pct_televisor":57}},{"type":"Feature","geometry":{"type":"Polygon","coordinates":[[[-67.06344,-19.20015],[-67.06259,-19.20057],[-67.06281,-19.20097],[-67.06365,-19.20056],[-67.06344,-19.20015]]]},"properties":{"n":"PAMPA AULLAGAS","p":22,"personas_x_ha":43,"masculinidad":69,"pct_menor20":55,"pct_60mas":0,"pct_migrante":18,"dependencia_econ":162,"pct_empleados":25,"pct_cuentapropia":50,"pct_agricultura":12,"pct_comercio":12,"pct_manufactura":0,"pct_construccion":12,"pct_transporte":0,"pct_alojamiento":62,"pct_educ_superior":0,"brecha_educ":-40,"pct_sin_seguro":10,"pct_seguro_privado":0,"brecha_seguro":-17,"pct_med_tradicional":10,"pct_automedicacion":19,"pct_remedios_caseros":25,"pct_viv_desocupada":0,"pct_alquiler":14,"pct_electricidad":71,"pct_agua_red":86,"pct_alcantarillado":14,"pct_gas_red":0,"pct_gas_garrafa":100,"pct_lena_guano":100,"pct_basura_formal":14,"pct_basura_quema":57,"pct_basura_informal":57,"pct_internet":100,"pct_celular":100,"pct_televisor":100}},{"type":"Feature","geometry":{"type":"Polygon","coordinates":[[[-67.06142,-19.19799],[-67.06141,-19.19777],[-67.06087,-19.19781],[-67.06091,-19.19863],[-67.06143,-19.19872],[-67.06141,-19.19801],[-67.06124,-19.19801],[-67.06124,-19.19795],[-67.06142,-19.19799]]]},"properties":{"n":"PAMPA AULLAGAS","p":55,"personas_x_ha":102,"masculinidad":112,"pct_menor20":27,"pct_60mas":22,"pct_migrante":27,"dependencia_econ":112,"pct_empleados":19,"pct_cuentapropia":77,"pct_agricultura":31,"pct_comercio":27,"pct_manufactura":0,"pct_construccion":15,"pct_transporte":12,"pct_alojamiento":4,"pct_educ_superior":26,"brecha_educ":-29,"pct_sin_seguro":18,"pct_seguro_privado":0,"brecha_seguro":5,"pct_med_tradicional":12,"pct_automedicacion":23,"pct_remedios_caseros":27,"pct_viv_desocupada":19,"pct_alquiler":17,"pct_electricidad":100,"pct_agua_red":100,"pct_alcantarillado":61,"pct_gas_red":0,"pct_gas_garrafa":100,"pct_lena_guano":100,"pct_basura_formal":50,"pct_basura_quema":50,"pct_basura_informal":0,"pct_internet":61,"pct_celular":89,"pct_televisor":56}}]}