{"type":"FeatureCollection","features":[{"type":"Feature","geometry":{"type":"Polygon","coordinates":[[[-68.16836,-18.86124],[-68.16742,-18.86121],[-68.16745,-18.86227],[-68.16838,-18.86231],[-68.16836,-18.86124]]]},"properties":{"n":"ESCARA","p":28,"personas_x_ha":24,"masculinidad":75,"pct_menor20":46,"pct_60mas":14,"pct_migrante":54,"dependencia_econ":133,"pct_empleados":17,"pct_cuentapropia":75,"pct_agricultura":17,"pct_comercio":17,"pct_manufactura":8,"pct_construccion":0,"pct_transporte":17,"pct_alojamiento":25,"pct_sin_educacion":0,"pct_educ_superior":20,"brecha_educ":-20,"pct_sin_seguro":7,"pct_sus":93,"pct_seguro_privado":0,"brecha_seguro":17,"pct_salud_publica":30,"pct_med_tradicional":10,"pct_automedicacion":20,"pct_remedios_caseros":24,"pct_viv_desocupada":0,"pct_alquiler":0,"pct_electricidad":100,"pct_sin_electricidad":0,"pct_agua_red":71,"pct_alcantarillado":57,"pct_camara_septica":14,"pct_pozo_ciego":14,"pct_sin_desague":14,"pct_gas_red":0,"pct_gas_garrafa":86,"pct_lena_guano":86,"pct_basura_formal":43,"pct_basura_quema":43,"pct_basura_informal":29,"pct_internet":71,"pct_celular":100,"pct_televisor":71}},{"type":"Feature","geometry":{"type":"Polygon","coordinates":[[[-68.16846,-18.85841],[-68.16937,-18.85856],[-68.1694,-18.85771],[-68.16878,-18.85727],[-68.16847,-18.85731],[-68.16846,-18.85841]]]},"properties":{"n":"ESCARA","p":75,"personas_x_ha":63,"masculinidad":92,"pct_menor20":35,"pct_60mas":9,"pct_migrante":77,"dependencia_econ":56,"pct_empleados":10,"pct_cuentapropia":52,"pct_agricultura":38,"pct_comercio":48,"pct_manufactura":0,"pct_construccion":4,"pct_transporte":2,"pct_alojamiento":0,"pct_sin_educacion":4,"pct_educ_superior":35,"brecha_educ":4,"pct_sin_seguro":64,"pct_sus":35,"pct_seguro_privado":0,"brecha_seguro":0,"pct_salud_publica":22,"pct_med_tradicional":20,"pct_automedicacion":19,"pct_remedios_caseros":26,"pct_viv_desocupada":0,"pct_alquiler":9,"pct_electricidad":100,"pct_sin_electricidad":0,"pct_agua_red":100,"pct_alcantarillado":48,"pct_camara_septica":9,"pct_pozo_ciego":13,"pct_sin_desague":30,"pct_gas_red":0,"pct_gas_garrafa":91,"pct_lena_guano":91,"pct_basura_formal":9,"pct_basura_quema":65,"pct_basura_informal":0,"pct_internet":96,"pct_celular":96,"pct_televisor":65}},{"type":"Feature","geometry":{"type":"Polygon","coordinates":[[[-68.16834,-18.85897],[-68.16833,-18.85846],[-68.16736,-18.85833],[-68.16736,-18.85886],[-68.16834,-18.85897]]]},"properties":{"n":"ESCARA","p":41,"personas_x_ha":68,"masculinidad":86,"pct_menor20":29,"pct_60mas":15,"pct_migrante":56,"dependencia_econ":95,"pct_empleados":38,"pct_cuentapropia":24,"pct_agricultura":24,"pct_comercio":24,"pct_manufactura":0,"pct_construccion":5,"pct_transporte":24,"pct_alojamiento":5,"pct_sin_educacion":0,"pct_educ_superior":31,"brecha_educ":-8,"pct_sin_seguro":56,"pct_sus":29,"pct_seguro_privado":0,"brecha_seguro":3,"pct_salud_publica":34,"pct_med_tradicional":12,"pct_automedicacion":14,"pct_remedios_caseros":31,"pct_viv_desocupada":22,"pct_alquiler":0,"pct_electricidad":100,"pct_sin_electricidad":0,"pct_agua_red":100,"pct_alcantarillado":29,"pct_camara_septica":14,"pct_pozo_ciego":29,"pct_sin_desague":14,"pct_gas_red":0,"pct_gas_garrafa":100,"pct_lena_guano":100,"pct_basura_formal":14,"pct_basura_quema":43,"pct_basura_informal":86,"pct_internet":100,"pct_celular":100,"pct_televisor":71}},{"type":"Feature","geometry":{"type":"Polygon","coordinates":[[[-68.16837,-18.86238],[-68.16745,-18.86238],[-68.1675,-18.86325],[-68.16837,-18.86323],[-68.16837,-18.86238]]]},"properties":{"n":"ESCARA","p":28,"personas_x_ha":30,"masculinidad":133,"pct_menor20":46,"pct_60mas":14,"pct_migrante":46,"dependencia_econ":133,"pct_empleados":50,"pct_cuentapropia":50,"pct_agricultura":33,"pct_comercio":8,"pct_manufactura":8,"pct_construccion":42,"pct_transporte":8,"pct_alojamiento":0,"pct_sin_educacion":0,"pct_educ_superior":6,"brecha_educ":-49,"pct_sin_seguro":12,"pct_sus":88,"pct_seguro_privado":0,"brecha_seguro":-16,"pct_salud_publica":29,"pct_med_tradicional":27,"pct_automedicacion":0,"pct_remedios_caseros":35,"pct_viv_desocupada":0,"pct_alquiler":14,"pct_electricidad":86,"pct_sin_electricidad":14,"pct_agua_red":86,"pct_alcantarillado":43,"pct_camara_septica":0,"pct_pozo_ciego":0,"pct_sin_desague":57,"pct_gas_red":0,"pct_gas_garrafa":71,"pct_lena_guano":71,"pct_basura_formal":57,"pct_basura_quema":43,"pct_basura_informal":0,"pct_internet":43,"pct_celular":86,"pct_televisor":43}},{"type":"Feature","geometry":{"type":"Polygon","coordinates":[[[-68.17062,-18.85997],[-68.17055,-18.85928],[-68.17006,-18.85922],[-68.17003,-18.85997],[-68.17062,-18.85997]]]},"properties":{"n":"ESCARA","p":77,"personas_x_ha":161,"masculinidad":126,"pct_menor20":27,"pct_60mas":21,"pct_migrante":61,"dependencia_econ":79,"pct_empleados":19,"pct_cuentapropia":72,"pct_agricultura":40,"pct_comercio":16,"pct_manufactura":5,"pct_construccion":9,"pct_transporte":5,"pct_alojamiento":2,"pct_sin_educacion":0,"pct_educ_superior":51,"brecha_educ":-11,"pct_sin_seguro":29,"pct_sus":60,"pct_seguro_privado":0,"brecha_seguro":-12,"pct_salud_publica":30,"pct_med_tradicional":14,"pct_automedicacion":14,"pct_remedios_caseros":24,"pct_viv_desocupada":7,"pct_alquiler":0,"pct_electricidad":100,"pct_sin_electricidad":0,"pct_agua_red":100,"pct_alcantarillado":54,"pct_camara_septica":17,"pct_pozo_ciego":8,"pct_sin_desague":21,"pct_gas_red":4,"pct_gas_garrafa":88,"pct_lena_guano":88,"pct_basura_formal":42,"pct_basura_quema":29,"pct_basura_informal":8,"pct_internet":38,"pct_celular":71,"pct_televisor":46}},{"type":"Feature","geometry":{"type":"Polygon","coordinates":[[[-68.16839,-18.85997],[-68.16836,-18.85904],[-68.16736,-18.85894],[-68.16741,-18.85998],[-68.16839,-18.85997]]]},"properties":{"n":"ESCARA","p":60,"personas_x_ha":52,"masculinidad":88,"pct_menor20":42,"pct_60mas":12,"pct_migrante":60,"dependencia_econ":122,"pct_empleados":19,"pct_cuentapropia":63,"pct_agricultura":26,"pct_comercio":37,"pct_manufactura":11,"pct_construccion":11,"pct_transporte":0,"pct_alojamiento":4,"pct_sin_educacion":0,"pct_educ_superior":31,"brecha_educ":-15,"pct_sin_seguro":40,"pct_sus":55,"pct_seguro_privado":0,"brecha_seguro":19,"pct_salud_publica":62,"pct_med_tradicional":5,"pct_automedicacion":5,"pct_remedios_caseros":22,"pct_viv_desocupada":0,"pct_alquiler":0,"pct_electricidad":94,"pct_sin_electricidad":6,"pct_agua_red":38,"pct_alcantarillado":38,"pct_camara_septica":6,"pct_pozo_ciego":31,"pct_sin_desague":19,"pct_gas_red":0,"pct_gas_garrafa":88,"pct_lena_guano":88,"pct_basura_formal":0,"pct_basura_quema":69,"pct_basura_informal":12,"pct_internet":88,"pct_celular":100,"pct_televisor":62}},{"type":"Feature","geometry":{"type":"Polygon","coordinates":[[[-68.16933,-18.85916],[-68.16847,-18.85905],[-68.16849,-18.85999],[-68.16927,-18.85998],[-68.16933,-18.85916]]]},"properties":{"n":"ESCARA","p":43,"personas_x_ha":49,"masculinidad":95,"pct_menor20":30,"pct_60mas":14,"pct_migrante":74,"dependencia_econ":126,"pct_empleados":5,"pct_cuentapropia":74,"pct_agricultura":53,"pct_comercio":32,"pct_manufactura":0,"pct_construccion":5,"pct_transporte":0,"pct_alojamiento":0,"pct_sin_educacion":0,"pct_educ_superior":23,"brecha_educ":0,"pct_sin_seguro":64,"pct_sus":36,"pct_seguro_privado":0,"brecha_seguro":11,"pct_salud_publica":26,"pct_med_tradicional":18,"pct_automedicacion":20,"pct_remedios_caseros":29,"pct_viv_desocupada":7,"pct_alquiler":7,"pct_electricidad":100,"pct_sin_electricidad":0,"pct_agua_red":79,"pct_alcantarillado":36,"pct_camara_septica":0,"pct_pozo_ciego":50,"pct_sin_desague":14,"pct_gas_red":0,"pct_gas_garrafa":86,"pct_lena_guano":86,"pct_basura_formal":36,"pct_basura_quema":29,"pct_basura_informal":43,"pct_internet":71,"pct_celular":79,"pct_televisor":50}},{"type":"Feature","geometry":{"type":"Polygon","coordinates":[[[-68.16855,-18.85663],[-68.1683,-18.85679],[-68.16884,-18.85717],[-68.16945,-18.85712],[-68.16946,-18.85667],[-68.16951,-18.85712],[-68.17004,-18.85707],[-68.17016,-18.85688],[-68.17009,-18.85642],[-68.16855,-18.85663]]]},"properties":{"n":"ESCARA","p":64,"personas_x_ha":58,"masculinidad":113,"pct_menor20":31,"pct_60mas":11,"pct_migrante":64,"dependencia_econ":64,"pct_empleados":33,"pct_cuentapropia":51,"pct_agricultura":21,"pct_comercio":33,"pct_manufactura":3,"pct_construccion":13,"pct_transporte":5,"pct_alojamiento":0,"pct_sin_educacion":0,"pct_educ_superior":54,"brecha_educ":-8,"pct_sin_seguro":24,"pct_sus":59,"pct_seguro_privado":0,"brecha_seguro":-1,"pct_salud_publica":21,"pct_med_tradicional":13,"pct_automedicacion":15,"pct_remedios_caseros":23,"pct_viv_desocupada":5,"pct_alquiler":6,"pct_electricidad":78,"pct_sin_electricidad":11,"pct_agua_red":89,"pct_alcantarillado":44,"pct_camara_septica":6,"pct_pozo_ciego":17,"pct_sin_desague":33,"pct_gas_red":0,"pct_gas_garrafa":94,"pct_lena_guano":94,"pct_basura_formal":78,"pct_basura_quema":17,"pct_basura_informal":0,"pct_internet":94,"pct_celular":100,"pct_televisor":78}},{"type":"Feature","geometry":{"type":"Polygon","coordinates":[[[-68.16996,-18.86005],[-68.16935,-18.86004],[-68.16928,-18.86123],[-68.16992,-18.86126],[-68.16996,-18.86005]]]},"properties":{"n":"ESCARA","p":148,"personas_x_ha":162,"masculinidad":118,"pct_menor20":29,"pct_60mas":14,"pct_migrante":34,"dependencia_econ":85,"pct_empleados":24,"pct_cuentapropia":53,"pct_agricultura":42,"pct_comercio":22,"pct_manufactura":0,"pct_construccion":4,"pct_transporte":4,"pct_alojamiento":1,"pct_sin_educacion":1,"pct_educ_superior":62,"brecha_educ":-8,"pct_sin_seguro":15,"pct_sus":77,"pct_seguro_privado":0,"brecha_seguro":11,"pct_salud_publica":27,"pct_med_tradicional":18,"pct_automedicacion":14,"pct_remedios_caseros":23,"pct_viv_desocupada":0,"pct_alquiler":0,"pct_electricidad":100,"pct_sin_electricidad":0,"pct_agua_red":93,"pct_alcantarillado":90,"pct_camara_septica":3,"pct_pozo_ciego":3,"pct_sin_desague":3,"pct_gas_red":0,"pct_gas_garrafa":93,"pct_lena_guano":93,"pct_basura_formal":66,"pct_basura_quema":31,"pct_basura_informal":0,"pct_internet":76,"pct_celular":86,"pct_televisor":38}},{"type":"Feature","geometry":{"type":"Polygon","coordinates":[[[-68.16739,-18.86048],[-68.16836,-18.86051],[-68.16837,-18.86005],[-68.1674,-18.86005],[-68.16739,-18.86048]]]},"properties":{"n":"ESCARA","p":35,"personas_x_ha":68,"masculinidad":106,"pct_menor20":43,"pct_60mas":3,"pct_migrante":74,"dependencia_econ":67,"pct_empleados":29,"pct_cuentapropia":52,"pct_agricultura":29,"pct_comercio":38,"pct_manufactura":5,"pct_construccion":10,"pct_transporte":10,"pct_alojamiento":0,"pct_sin_educacion":0,"pct_educ_superior":45,"brecha_educ":-20,"pct_sin_seguro":44,"pct_sus":56,"pct_seguro_privado":0,"brecha_seguro":1,"pct_salud_publica":26,"pct_med_tradicional":24,"pct_automedicacion":21,"pct_remedios_caseros":25,"pct_viv_desocupada":0,"pct_alquiler":0,"pct_electricidad":56,"pct_sin_electricidad":0,"pct_agua_red":56,"pct_alcantarillado":67,"pct_camara_septica":0,"pct_pozo_ciego":0,"pct_sin_desague":33,"pct_gas_red":0,"pct_gas_garrafa":100,"pct_lena_guano":100,"pct_basura_formal":22,"pct_basura_quema":78,"pct_basura_informal":0,"pct_internet":78,"pct_celular":78,"pct_televisor":0}},{"type":"Feature","geometry":{"type":"Polygon","coordinates":[[[-68.16999,-18.85916],[-68.17001,-18.85873],[-68.16942,-18.85865],[-68.1694,-18.85909],[-68.16999,-18.85916]]]},"properties":{"n":"ESCARA","p":66,"personas_x_ha":207,"masculinidad":94,"pct_menor20":27,"pct_60mas":14,"pct_migrante":58,"dependencia_econ":144,"pct_empleados":22,"pct_cuentapropia":48,"pct_agricultura":33,"pct_comercio":22,"pct_manufactura":0,"pct_construccion":4,"pct_transporte":0,"pct_alojamiento":15,"pct_sin_educacion":0,"pct_educ_superior":15,"brecha_educ":-23,"pct_sin_seguro":41,"pct_sus":38,"pct_seguro_privado":0,"brecha_seguro":-10,"pct_salud_publica":29,"pct_med_tradicional":15,"pct_automedicacion":12,"pct_remedios_caseros":25,"pct_viv_desocupada":5,"pct_alquiler":5,"pct_electricidad":100,"pct_sin_electricidad":0,"pct_agua_red":70,"pct_alcantarillado":50,"pct_camara_septica":0,"pct_pozo_ciego":10,"pct_sin_desague":40,"pct_gas_red":0,"pct_gas_garrafa":55,"pct_lena_guano":55,"pct_basura_formal":35,"pct_basura_quema":30,"pct_basura_informal":50,"pct_internet":45,"pct_celular":50,"pct_televisor":45}},{"type":"Feature","geometry":{"type":"Polygon","coordinates":[[[-68.17059,-18.85877],[-68.17066,-18.85824],[-68.17058,-18.85814],[-68.17011,-18.85809],[-68.17008,-18.85865],[-68.17059,-18.85877]]]},"properties":{"n":"ESCARA","p":131,"personas_x_ha":335,"masculinidad":105,"pct_menor20":42,"pct_60mas":7,"pct_migrante":37,"dependencia_econ":88,"pct_empleados":22,"pct_cuentapropia":45,"pct_agricultura":30,"pct_comercio":29,"pct_manufactura":13,"pct_construccion":7,"pct_transporte":1,"pct_alojamiento":3,"pct_sin_educacion":7,"pct_educ_superior":31,"brecha_educ":-14,"pct_sin_seguro":23,"pct_sus":74,"pct_seguro_privado":2,"brecha_seguro":5,"pct_salud_publica":34,"pct_med_tradicional":12,"pct_automedicacion":16,"pct_remedios_caseros":28,"pct_viv_desocupada":0,"pct_alquiler":7,"pct_electricidad":100,"pct_sin_electricidad":0,"pct_agua_red":66,"pct_alcantarillado":48,"pct_camara_septica":0,"pct_pozo_ciego":3,"pct_sin_desague":41,"pct_gas_red":0,"pct_gas_garrafa":90,"pct_lena_guano":90,"pct_basura_formal":48,"pct_basura_quema":34,"pct_basura_informal":34,"pct_internet":62,"pct_celular":86,"pct_televisor":31}},{"type":"Feature","geometry":{"type":"Polygon","coordinates":[[[-68.17111,-18.85936],[-68.17061,-18.85931],[-68.17068,-18.85998],[-68.17117,-18.85995],[-68.17111,-18.85936]]]},"properties":{"n":"ESCARA","p":109,"personas_x_ha":285,"masculinidad":98,"pct_menor20":35,"pct_60mas":17,"pct_migrante":36,"dependencia_econ":127,"pct_empleados":15,"pct_cuentapropia":65,"pct_agricultura":50,"pct_comercio":25,"pct_manufactura":4,"pct_construccion":0,"pct_transporte":4,"pct_alojamiento":0,"pct_sin_educacion":1,"pct_educ_superior":38,"brecha_educ":-10,"pct_sin_seguro":39,"pct_sus":58,"pct_seguro_privado":0,"brecha_seguro":12,"pct_salud_publica":25,"pct_med_tradicional":21,"pct_automedicacion":14,"pct_remedios_caseros":25,"pct_viv_desocupada":0,"pct_alquiler":5,"pct_electricidad":86,"pct_sin_electricidad":9,"pct_agua_red":91,"pct_alcantarillado":64,"pct_camara_septica":0,"pct_pozo_ciego":0,"pct_sin_desague":36,"pct_gas_red":0,"pct_gas_garrafa":77,"pct_lena_guano":77,"pct_basura_formal":68,"pct_basura_quema":0,"pct_basura_informal":55,"pct_internet":77,"pct_celular":95,"pct_televisor":50}},{"type":"Feature","geometry":{"type":"Polygon","coordinates":[[[-68.16926,-18.86005],[-68.16848,-18.86005],[-68.16852,-18.86117],[-68.1692,-18.86121],[-68.16926,-18.86005]]]},"properties":{"n":"ESCARA","p":114,"personas_x_ha":115,"masculinidad":128,"pct_menor20":51,"pct_60mas":6,"pct_migrante":32,"dependencia_econ":128,"pct_empleados":10,"pct_cuentapropia":68,"pct_agricultura":68,"pct_comercio":22,"pct_manufactura":0,"pct_construccion":4,"pct_transporte":0,"pct_alojamiento":0,"pct_sin_educacion":0,"pct_educ_superior":56,"brecha_educ":1,"pct_sin_seguro":32,"pct_sus":63,"pct_seguro_privado":0,"brecha_seguro":0,"pct_salud_publica":28,"pct_med_tradicional":14,"pct_automedicacion":20,"pct_remedios_caseros":27,"pct_viv_desocupada":0,"pct_alquiler":0,"pct_electricidad":100,"pct_sin_electricidad":0,"pct_agua_red":95,"pct_alcantarillado":80,"pct_camara_septica":0,"pct_pozo_ciego":0,"pct_sin_desague":20,"pct_gas_red":0,"pct_gas_garrafa":95,"pct_lena_guano":95,"pct_basura_formal":45,"pct_basura_quema":30,"pct_basura_informal":40,"pct_internet":80,"pct_celular":95,"pct_televisor":35}},{"type":"Feature","geometry":{"type":"Polygon","coordinates":[[[-68.17134,-18.86125],[-68.17118,-18.86003],[-68.17072,-18.86003],[-68.17086,-18.86128],[-68.17134,-18.86125]]]},"properties":{"n":"ESCARA","p":80,"personas_x_ha":114,"masculinidad":70,"pct_menor20":22,"pct_60mas":25,"pct_migrante":25,"dependencia_econ":54,"pct_empleados":15,"pct_cuentapropia":67,"pct_agricultura":65,"pct_comercio":12,"pct_manufactura":2,"pct_construccion":4,"pct_transporte":0,"pct_alojamiento":0,"pct_sin_educacion":3,"pct_educ_superior":53,"brecha_educ":-22,"pct_sin_seguro":44,"pct_sus":54,"pct_seguro_privado":0,"brecha_seguro":8,"pct_salud_publica":35,"pct_med_tradicional":9,"pct_automedicacion":12,"pct_remedios_caseros":34,"pct_viv_desocupada":0,"pct_alquiler":0,"pct_electricidad":94,"pct_sin_electricidad":6,"pct_agua_red":94,"pct_alcantarillado":77,"pct_camara_septica":3,"pct_pozo_ciego":0,"pct_sin_desague":19,"pct_gas_red":0,"pct_gas_garrafa":77,"pct_lena_guano":77,"pct_basura_formal":48,"pct_basura_quema":26,"pct_basura_informal":45,"pct_internet":55,"pct_celular":81,"pct_televisor":35}},{"type":"Feature","geometry":{"type":"Polygon","coordinates":[[[-68.16934,-18.85997],[-68.16997,-18.85999],[-68.17,-18.85921],[-68.16939,-18.85916],[-68.16934,-18.85997]]]},"properties":{"n":"ESCARA","p":225,"personas_x_ha":380,"masculinidad":123,"pct_menor20":25,"pct_60mas":9,"pct_migrante":33,"dependencia_econ":66,"pct_empleados":20,"pct_cuentapropia":65,"pct_agricultura":49,"pct_comercio":21,"pct_manufactura":2,"pct_construccion":9,"pct_transporte":4,"pct_alojamiento":2,"pct_sin_educacion":1,"pct_educ_superior":28,"brecha_educ":-16,"pct_sin_seguro":17,"pct_sus":79,"pct_seguro_privado":0,"brecha_seguro":2,"pct_salud_publica":36,"pct_med_tradicional":12,"pct_automedicacion":16,"pct_remedios_caseros":25,"pct_viv_desocupada":0,"pct_alquiler":0,"pct_electricidad":94,"pct_sin_electricidad":4,"pct_agua_red":91,"pct_alcantarillado":51,"pct_camara_septica":2,"pct_pozo_ciego":17,"pct_sin_desague":30,"pct_gas_red":0,"pct_gas_garrafa":83,"pct_lena_guano":83,"pct_basura_formal":34,"pct_basura_quema":45,"pct_basura_informal":34,"pct_internet":74,"pct_celular":85,"pct_televisor":74}},{"type":"Feature","geometry":{"type":"Polygon","coordinates":[[[-68.17169,-18.85996],[-68.17167,-18.85941],[-68.17116,-18.85936],[-68.17122,-18.85997],[-68.17169,-18.85996]]]},"properties":{"n":"ESCARA","p":78,"personas_x_ha":231,"masculinidad":100,"pct_menor20":36,"pct_60mas":8,"pct_migrante":37,"dependencia_econ":77,"pct_empleados":23,"pct_cuentapropia":56,"pct_agricultura":44,"pct_comercio":9,"pct_manufactura":5,"pct_construccion":19,"pct_transporte":2,"pct_alojamiento":5,"pct_sin_educacion":0,"pct_educ_superior":30,"brecha_educ":-9,"pct_sin_seguro":42,"pct_sus":53,"pct_seguro_privado":1,"brecha_seguro":-13,"pct_salud_publica":27,"pct_med_tradicional":6,"pct_automedicacion":21,"pct_remedios_caseros":26,"pct_viv_desocupada":0,"pct_alquiler":6,"pct_electricidad":100,"pct_sin_electricidad":0,"pct_agua_red":94,"pct_alcantarillado":83,"pct_camara_septica":0,"pct_pozo_ciego":0,"pct_sin_desague":17,"pct_gas_red":0,"pct_gas_garrafa":83,"pct_lena_guano":83,"pct_basura_formal":61,"pct_basura_quema":6,"pct_basura_informal":67,"pct_internet":78,"pct_celular":100,"pct_televisor":56}},{"type":"Feature","geometry":{"type":"Polygon","coordinates":[[[-68.17167,-18.86003],[-68.17123,-18.86004],[-68.17143,-18.86125],[-68.17182,-18.8612],[-68.17167,-18.86003]]]},"properties":{"n":"ESCARA","p":58,"personas_x_ha":93,"masculinidad":93,"pct_menor20":41,"pct_60mas":5,"pct_migrante":69,"dependencia_econ":87,"pct_empleados":19,"pct_cuentapropia":74,"pct_agricultura":16,"pct_comercio":35,"pct_manufactura":10,"pct_construccion":13,"pct_transporte":0,"pct_alojamiento":0,"pct_sin_educacion":0,"pct_educ_superior":58,"brecha_educ":-10,"pct_sin_seguro":40,"pct_sus":50,"pct_seguro_privado":0,"brecha_seguro":-15,"pct_salud_publica":27,"pct_med_tradicional":19,"pct_automedicacion":15,"pct_remedios_caseros":25,"pct_viv_desocupada":0,"pct_alquiler":6,"pct_electricidad":81,"pct_sin_electricidad":12,"pct_agua_red":100,"pct_alcantarillado":31,"pct_camara_septica":0,"pct_pozo_ciego":6,"pct_sin_desague":62,"pct_gas_red":0,"pct_gas_garrafa":100,"pct_lena_guano":100,"pct_basura_formal":31,"pct_basura_quema":25,"pct_basura_informal":88,"pct_internet":94,"pct_celular":100,"pct_televisor":75}},{"type":"Feature","geometry":{"type":"Polygon","coordinates":[[[-68.16942,-18.85723],[-68.16899,-18.85725],[-68.16896,-18.85729],[-68.16941,-18.85758],[-68.16942,-18.85723]]]},"properties":{"n":"ESCARA","p":34,"personas_x_ha":294,"masculinidad":100,"pct_menor20":32,"pct_60mas":12,"pct_migrante":12,"dependencia_econ":371,"pct_empleados":0,"pct_cuentapropia":86,"pct_agricultura":43,"pct_comercio":29,"pct_manufactura":0,"pct_construccion":14,"pct_transporte":0,"pct_alojamiento":0,"pct_sin_educacion":5,"pct_educ_superior":18,"brecha_educ":-2,"pct_sin_seguro":9,"pct_sus":82,"pct_seguro_privado":0,"brecha_seguro":-6,"pct_salud_publica":32,"pct_med_tradicional":24,"pct_automedicacion":4,"pct_remedios_caseros":34,"pct_viv_desocupada":0,"pct_alquiler":0,"pct_electricidad":100,"pct_sin_electricidad":0,"pct_agua_red":100,"pct_alcantarillado":86,"pct_camara_septica":0,"pct_pozo_ciego":14,"pct_sin_desague":0,"pct_gas_red":0,"pct_gas_garrafa":100,"pct_lena_guano":100,"pct_basura_formal":86,"pct_basura_quema":14,"pct_basura_informal":0,"pct_internet":57,"pct_celular":86,"pct_televisor":71}},{"type":"Feature","geometry":{"type":"Polygon","coordinates":[[[-68.17046,-18.85805],[-68.1701,-18.85798],[-68.17012,-18.85708],[-68.17073,-18.85663],[-68.17106,-18.85654],[-68.17117,-18.85684],[-68.17064,-18.85739],[-68.1706,-18.85764],[-68.17126,-18.85818],[-68.17119,-18.85882],[-68.17102,-18.85882],[-68.17102,-18.85911],[-68.17111,-18.85911],[-68.17112,-18.8593],[-68.17059,-18.85922],[-68.17071,-18.85822],[-68.17046,-18.85805]]]},"properties":{"n":"ESCARA","p":150,"personas_x_ha":81,"masculinidad":127,"pct_menor20":43,"pct_60mas":5,"pct_migrante":53,"dependencia_econ":134,"pct_empleados":19,"pct_cuentapropia":52,"pct_agricultura":19,"pct_comercio":36,"pct_manufactura":5,"pct_construccion":6,"pct_transporte":8,"pct_alojamiento":3,"pct_sin_educacion":0,"pct_educ_superior":45,"brecha_educ":-10,"pct_sin_seguro":13,"pct_sus":84,"pct_seguro_privado":0,"brecha_seguro":1,"pct_salud_publica":36,"pct_med_tradicional":12,"pct_automedicacion":16,"pct_remedios_caseros":28,"pct_viv_desocupada":3,"pct_alquiler":3,"pct_electricidad":100,"pct_sin_electricidad":0,"pct_agua_red":97,"pct_alcantarillado":66,"pct_camara_septica":21,"pct_pozo_ciego":3,"pct_sin_desague":10,"pct_gas_red":0,"pct_gas_garrafa":100,"pct_lena_guano":100,"pct_basura_formal":28,"pct_basura_quema":59,"pct_basura_informal":0,"pct_internet":83,"pct_celular":93,"pct_televisor":69}},{"type":"Feature","geometry":{"type":"Polygon","coordinates":[[[-68.16935,-18.85862],[-68.16846,-18.85849],[-68.16847,-18.85898],[-68.16932,-18.85908],[-68.16935,-18.85862]]]},"properties":{"n":"ESCARA","p":49,"personas_x_ha":98,"masculinidad":63,"pct_menor20":45,"pct_60mas":8,"pct_migrante":55,"dependencia_econ":104,"pct_empleados":12,"pct_cuentapropia":75,"pct_agricultura":42,"pct_comercio":21,"pct_manufactura":8,"pct_construccion":0,"pct_transporte":8,"pct_alojamiento":8,"pct_sin_educacion":4,"pct_educ_superior":50,"brecha_educ":-22,"pct_sin_seguro":44,"pct_sus":46,"pct_seguro_privado":0,"brecha_seguro":1,"pct_salud_publica":29,"pct_med_tradicional":17,"pct_automedicacion":13,"pct_remedios_caseros":32,"pct_viv_desocupada":0,"pct_alquiler":0,"pct_electricidad":94,"pct_sin_electricidad":0,"pct_agua_red":75,"pct_alcantarillado":88,"pct_camara_septica":0,"pct_pozo_ciego":6,"pct_sin_desague":6,"pct_gas_red":0,"pct_gas_garrafa":62,"pct_lena_guano":62,"pct_basura_formal":19,"pct_basura_quema":38,"pct_basura_informal":25,"pct_internet":88,"pct_celular":88,"pct_televisor":44}},{"type":"Feature","geometry":{"type":"Polygon","coordinates":[[[-68.16946,-18.86236],[-68.16991,-18.86137],[-68.16987,-18.86134],[-68.16925,-18.86131],[-68.16919,-18.86236],[-68.16946,-18.86236]]]},"properties":{"n":"ESCARA","p":26,"personas_x_ha":46,"masculinidad":100,"pct_menor20":19,"pct_60mas":19,"pct_migrante":0,"dependencia_econ":44,"pct_empleados":0,"pct_cuentapropia":72,"pct_agricultura":50,"pct_comercio":6,"pct_manufactura":0,"pct_construccion":22,"pct_transporte":0,"pct_alojamiento":0,"pct_sin_educacion":9,"pct_educ_superior":9,"brecha_educ":-36,"pct_sin_seguro":0,"pct_sus":100,"pct_seguro_privado":0,"brecha_seguro":0,"pct_salud_publica":34,"pct_med_tradicional":0,"pct_automedicacion":30,"pct_remedios_caseros":34,"pct_viv_desocupada":11,"pct_alquiler":0,"pct_electricidad":100,"pct_sin_electricidad":0,"pct_agua_red":100,"pct_alcantarillado":62,"pct_camara_septica":25,"pct_pozo_ciego":0,"pct_sin_desague":12,"pct_gas_red":0,"pct_gas_garrafa":100,"pct_lena_guano":100,"pct_basura_formal":100,"pct_basura_quema":0,"pct_basura_informal":0,"pct_internet":62,"pct_celular":75,"pct_televisor":38}},{"type":"Feature","geometry":{"type":"Polygon","coordinates":[[[-68.17079,-18.86129],[-68.17063,-18.86004],[-68.17005,-18.86004],[-68.16999,-18.86126],[-68.17079,-18.86129]]]},"properties":{"n":"ESCARA","p":171,"personas_x_ha":167,"masculinidad":119,"pct_menor20":32,"pct_60mas":15,"pct_migrante":47,"dependencia_econ":76,"pct_empleados":20,"pct_cuentapropia":52,"pct_agricultura":22,"pct_comercio":42,"pct_manufactura":2,"pct_construccion":1,"pct_transporte":8,"pct_alojamiento":1,"pct_sin_educacion":0,"pct_educ_superior":39,"brecha_educ":-13,"pct_sin_seguro":33,"pct_sus":63,"pct_seguro_privado":0,"brecha_seguro":0,"pct_salud_publica":30,"pct_med_tradicional":15,"pct_automedicacion":11,"pct_remedios_caseros":27,"pct_viv_desocupada":3,"pct_alquiler":0,"pct_electricidad":94,"pct_sin_electricidad":3,"pct_agua_red":94,"pct_alcantarillado":85,"pct_camara_septica":3,"pct_pozo_ciego":9,"pct_sin_desague":3,"pct_gas_red":0,"pct_gas_garrafa":88,"pct_lena_guano":88,"pct_basura_formal":67,"pct_basura_quema":18,"pct_basura_informal":30,"pct_internet":82,"pct_celular":94,"pct_televisor":67}},{"type":"Feature","geometry":{"type":"Polygon","coordinates":[[[-68.17004,-18.85718],[-68.16951,-18.8572],[-68.16946,-18.85766],[-68.16997,-18.85799],[-68.17004,-18.85799],[-68.17004,-18.85718]]]},"properties":{"n":"ESCARA","p":50,"personas_x_ha":114,"masculinidad":117,"pct_menor20":40,"pct_60mas":10,"pct_migrante":54,"dependencia_econ":212,"pct_empleados":6,"pct_cuentapropia":81,"pct_agricultura":25,"pct_comercio":31,"pct_manufactura":6,"pct_construccion":12,"pct_transporte":6,"pct_alojamiento":6,"pct_sin_educacion":0,"pct_educ_superior":34,"brecha_educ":-7,"pct_sin_seguro":53,"pct_sus":39,"pct_seguro_privado":0,"brecha_seguro":-11,"pct_salud_publica":28,"pct_med_tradicional":8,"pct_automedicacion":18,"pct_remedios_caseros":28,"pct_viv_desocupada":14,"pct_alquiler":0,"pct_electricidad":100,"pct_sin_electricidad":0,"pct_agua_red":100,"pct_alcantarillado":42,"pct_camara_septica":0,"pct_pozo_ciego":8,"pct_sin_desague":50,"pct_gas_red":0,"pct_gas_garrafa":100,"pct_lena_guano":100,"pct_basura_formal":50,"pct_basura_quema":42,"pct_basura_informal":17,"pct_internet":75,"pct_celular":92,"pct_televisor":33}},{"type":"Feature","geometry":{"type":"Polygon","coordinates":[[[-68.16717,-18.85586],[-68.16664,-18.85585],[-68.16665,-18.85645],[-68.16718,-18.85644],[-68.16717,-18.85586]]]},"properties":{"n":"ESCARA","p":24,"personas_x_ha":65,"masculinidad":71,"pct_menor20":38,"pct_60mas":8,"pct_migrante":79,"dependencia_econ":167,"pct_empleados":11,"pct_cuentapropia":56,"pct_agricultura":56,"pct_comercio":22,"pct_manufactura":0,"pct_construccion":0,"pct_transporte":11,"pct_alojamiento":0,"pct_sin_educacion":0,"pct_educ_superior":20,"brecha_educ":-6,"pct_sin_seguro":42,"pct_sus":58,"pct_seguro_privado":0,"brecha_seguro":14,"pct_salud_publica":28,"pct_med_tradicional":24,"pct_automedicacion":4,"pct_remedios_caseros":33,"pct_viv_desocupada":0,"pct_alquiler":12,"pct_electricidad":50,"pct_sin_electricidad":38,"pct_agua_red":88,"pct_alcantarillado":50,"pct_camara_septica":0,"pct_pozo_ciego":38,"pct_sin_desague":12,"pct_gas_red":0,"pct_gas_garrafa":100,"pct_lena_guano":100,"pct_basura_formal":75,"pct_basura_quema":25,"pct_basura_informal":0,"pct_internet":62,"pct_celular":88,"pct_televisor":38}},{"type":"Feature","geometry":{"type":"Polygon","coordinates":[[[-68.1691,-18.86235],[-68.16919,-18.86129],[-68.16913,-18.86129],[-68.16912,-18.8616],[-68.16858,-18.8616],[-68.16859,-18.86148],[-68.16906,-18.86149],[-68.16907,-18.86129],[-68.16848,-18.86127],[-68.16846,-18.8623],[-68.1691,-18.86235]]]},"properties":{"n":"ESCARA","p":71,"personas_x_ha":92,"masculinidad":97,"pct_menor20":30,"pct_60mas":13,"pct_migrante":51,"dependencia_econ":78,"pct_empleados":15,"pct_cuentapropia":40,"pct_agricultura":60,"pct_comercio":12,"pct_manufactura":18,"pct_construccion":5,"pct_transporte":0,"pct_alojamiento":0,"pct_sin_educacion":2,"pct_educ_superior":35,"brecha_educ":-18,"pct_sin_seguro":21,"pct_sus":76,"pct_seguro_privado":0,"brecha_seguro":9,"pct_salud_publica":31,"pct_med_tradicional":13,"pct_automedicacion":19,"pct_remedios_caseros":32,"pct_viv_desocupada":6,"pct_alquiler":6,"pct_electricidad":100,"pct_sin_electricidad":0,"pct_agua_red":88,"pct_alcantarillado":82,"pct_camara_septica":0,"pct_pozo_ciego":0,"pct_sin_desague":18,"pct_gas_red":0,"pct_gas_garrafa":100,"pct_lena_guano":100,"pct_basura_formal":65,"pct_basura_quema":29,"pct_basura_informal":12,"pct_internet":88,"pct_celular":94,"pct_televisor":65}},{"type":"Feature","geometry":{"type":"Polygon","coordinates":[[[-68.20269,-18.80947],[-68.20325,-18.80926],[-68.20305,-18.80874],[-68.20248,-18.80896],[-68.20269,-18.80947]]]},"properties":{"n":"PAYRUMANI","p":29,"personas_x_ha":74,"masculinidad":93,"pct_menor20":34,"pct_60mas":14,"pct_migrante":21,"dependencia_econ":61,"pct_empleados":11,"pct_cuentapropia":39,"pct_agricultura":61,"pct_comercio":17,"pct_manufactura":11,"pct_construccion":0,"pct_transporte":0,"pct_alojamiento":0,"pct_sin_educacion":0,"pct_educ_superior":15,"brecha_educ":-16,"pct_sin_seguro":93,"pct_sus":7,"pct_seguro_privado":0,"brecha_seguro":0,"pct_salud_publica":8,"pct_med_tradicional":39,"pct_automedicacion":9,"pct_remedios_caseros":44,"pct_viv_desocupada":0,"pct_alquiler":0,"pct_electricidad":86,"pct_sin_electricidad":14,"pct_agua_red":29,"pct_alcantarillado":29,"pct_camara_septica":0,"pct_pozo_ciego":0,"pct_sin_desague":71,"pct_gas_red":0,"pct_gas_garrafa":100,"pct_lena_guano":100,"pct_basura_formal":0,"pct_basura_quema":71,"pct_basura_informal":29,"pct_internet":86,"pct_celular":86,"pct_televisor":29}},{"type":"Feature","geometry":{"type":"Polygon","coordinates":[[[-68.20423,-18.80822],[-68.20401,-18.80768],[-68.20347,-18.80788],[-68.20369,-18.80842],[-68.20423,-18.80822]]]},"properties":{"n":"PAYRUMANI","p":52,"personas_x_ha":132,"masculinidad":100,"pct_menor20":44,"pct_60mas":12,"pct_migrante":35,"dependencia_econ":117,"pct_empleados":12,"pct_cuentapropia":75,"pct_agricultura":83,"pct_comercio":0,"pct_manufactura":8,"pct_construccion":4,"pct_transporte":0,"pct_alojamiento":4,"pct_sin_educacion":0,"pct_educ_superior":23,"brecha_educ":-14,"pct_sin_seguro":25,"pct_sus":73,"pct_seguro_privado":0,"brecha_seguro":-12,"pct_salud_publica":25,"pct_med_tradicional":24,"pct_automedicacion":25,"pct_remedios_caseros":25,"pct_viv_desocupada":0,"pct_alquiler":0,"pct_electricidad":82,"pct_sin_electricidad":9,"pct_agua_red":100,"pct_alcantarillado":27,"pct_camara_septica":0,"pct_pozo_ciego":9,"pct_sin_desague":64,"pct_gas_red":0,"pct_gas_garrafa":27,"pct_lena_guano":27,"pct_basura_formal":0,"pct_basura_quema":82,"pct_basura_informal":0,"pct_internet":73,"pct_celular":82,"pct_televisor":27}},{"type":"Feature","geometry":{"type":"Polygon","coordinates":[[[-68.20312,-18.80872],[-68.20333,-18.80924],[-68.20386,-18.80905],[-68.20364,-18.80853],[-68.20312,-18.80872]]]},"properties":{"n":"PAYRUMANI","p":37,"personas_x_ha":100,"masculinidad":95,"pct_menor20":30,"pct_60mas":22,"pct_migrante":38,"dependencia_econ":61,"pct_empleados":4,"pct_cuentapropia":87,"pct_agricultura":43,"pct_comercio":17,"pct_manufactura":0,"pct_construccion":22,"pct_transporte":4,"pct_alojamiento":0,"pct_sin_educacion":4,"pct_educ_superior":19,"brecha_educ":-6,"pct_sin_seguro":3,"pct_sus":97,"pct_seguro_privado":0,"brecha_seguro":-6,"pct_salud_publica":31,"pct_med_tradicional":11,"pct_automedicacion":24,"pct_remedios_caseros":34,"pct_viv_desocupada":15,"pct_alquiler":0,"pct_electricidad":100,"pct_sin_electricidad":0,"pct_agua_red":89,"pct_alcantarillado":89,"pct_camara_septica":0,"pct_pozo_ciego":0,"pct_sin_desague":11,"pct_gas_red":0,"pct_gas_garrafa":100,"pct_lena_guano":100,"pct_basura_formal":0,"pct_basura_quema":44,"pct_basura_informal":0,"pct_internet":89,"pct_celular":89,"pct_televisor":33}},{"type":"Feature","geometry":{"type":"Polygon","coordinates":[[[-68.20161,-18.80857],[-68.20179,-18.80912],[-68.20234,-18.80892],[-68.20211,-18.80838],[-68.20161,-18.80857]]]},"properties":{"n":"PAYRUMANI","p":29,"personas_x_ha":73,"masculinidad":53,"pct_menor20":31,"pct_60mas":7,"pct_migrante":69,"dependencia_econ":314,"pct_empleados":14,"pct_cuentapropia":29,"pct_agricultura":71,"pct_comercio":0,"pct_manufactura":0,"pct_construccion":0,"pct_transporte":0,"pct_alojamiento":0,"pct_sin_educacion":0,"pct_educ_superior":48,"brecha_educ":0,"pct_sin_seguro":83,"pct_sus":3,"pct_seguro_privado":0,"brecha_seguro":-4,"pct_salud_publica":22,"pct_med_tradicional":29,"pct_automedicacion":10,"pct_remedios_caseros":34,"pct_viv_desocupada":20,"pct_alquiler":0,"pct_electricidad":100,"pct_sin_electricidad":0,"pct_agua_red":38,"pct_alcantarillado":25,"pct_camara_septica":0,"pct_pozo_ciego":0,"pct_sin_desague":75,"pct_gas_red":0,"pct_gas_garrafa":88,"pct_lena_guano":88,"pct_basura_formal":0,"pct_basura_quema":38,"pct_basura_informal":25,"pct_internet":88,"pct_celular":88,"pct_televisor":12}},{"type":"Feature","geometry":{"type":"Polygon","coordinates":[[[-68.20447,-18.80883],[-68.20424,-18.80831],[-68.20372,-18.8085],[-68.20393,-18.80902],[-68.20447,-18.80883]]]},"properties":{"n":"PAYRUMANI","p":24,"personas_x_ha":63,"masculinidad":140,"pct_menor20":50,"pct_60mas":8,"pct_migrante":50,"dependencia_econ":85,"pct_empleados":31,"pct_cuentapropia":54,"pct_agricultura":62,"pct_comercio":0,"pct_manufactura":0,"pct_construccion":38,"pct_transporte":0,"pct_alojamiento":0,"pct_sin_educacion":8,"pct_educ_superior":0,"brecha_educ":-25,"pct_sin_seguro":25,"pct_sus":75,"pct_seguro_privado":0,"brecha_seguro":-26,"pct_salud_publica":30,"pct_med_tradicional":16,"pct_automedicacion":16,"pct_remedios_caseros":33,"pct_viv_desocupada":0,"pct_alquiler":0,"pct_electricidad":83,"pct_sin_electricidad":17,"pct_agua_red":83,"pct_alcantarillado":50,"pct_camara_septica":0,"pct_pozo_ciego":0,"pct_sin_desague":33,"pct_gas_red":0,"pct_gas_garrafa":83,"pct_lena_guano":83,"pct_basura_formal":0,"pct_basura_quema":83,"pct_basura_informal":33,"pct_internet":83,"pct_celular":100,"pct_televisor":33}},{"type":"Feature","geometry":{"type":"Polygon","coordinates":[[[-68.20376,-18.80702],[-68.20324,-18.80721],[-68.20344,-18.80778],[-68.20398,-18.80759],[-68.20376,-18.80702]]]},"properties":{"n":"PAYRUMANI","p":54,"personas_x_ha":132,"masculinidad":100,"pct_menor20":41,"pct_60mas":0,"pct_migrante":54,"dependencia_econ":80,"pct_empleados":17,"pct_cuentapropia":70,"pct_agricultura":73,"pct_comercio":7,"pct_manufactura":7,"pct_construccion":0,"pct_transporte":0,"pct_alojamiento":7,"pct_sin_educacion":0,"pct_educ_superior":18,"brecha_educ":-6,"pct_sin_seguro":86,"pct_sus":14,"pct_seguro_privado":0,"brecha_seguro":-4,"pct_salud_publica":9,"pct_med_tradicional":45,"pct_automedicacion":0,"pct_remedios_caseros":46,"pct_viv_desocupada":0,"pct_alquiler":0,"pct_electricidad":88,"pct_sin_electricidad":12,"pct_agua_red":88,"pct_alcantarillado":50,"pct_camara_septica":0,"pct_pozo_ciego":0,"pct_sin_desague":50,"pct_gas_red":0,"pct_gas_garrafa":50,"pct_lena_guano":50,"pct_basura_formal":0,"pct_basura_quema":25,"pct_basura_informal":150,"pct_internet":88,"pct_celular":88,"pct_televisor":38}},{"type":"Feature","geometry":{"type":"Polygon","coordinates":[[[-68.20337,-18.80781],[-68.20285,-18.80801],[-68.20261,-18.80744],[-68.20313,-18.80725],[-68.20337,-18.80781]]]},"properties":{"n":"PAYRUMANI","p":52,"personas_x_ha":127,"masculinidad":225,"pct_menor20":27,"pct_60mas":12,"pct_migrante":4,"dependencia_econ":24,"pct_empleados":0,"pct_cuentapropia":88,"pct_agricultura":41,"pct_comercio":37,"pct_manufactura":17,"pct_construccion":2,"pct_transporte":0,"pct_alojamiento":0,"pct_sin_educacion":3,"pct_educ_superior":8,"brecha_educ":-6,"pct_sin_seguro":63,"pct_sus":37,"pct_seguro_privado":0,"brecha_seguro":9,"pct_salud_publica":28,"pct_med_tradicional":19,"pct_automedicacion":13,"pct_remedios_caseros":38,"pct_viv_desocupada":6,"pct_alquiler":0,"pct_electricidad":93,"pct_sin_electricidad":7,"pct_agua_red":100,"pct_alcantarillado":93,"pct_camara_septica":0,"pct_pozo_ciego":0,"pct_sin_desague":7,"pct_gas_red":0,"pct_gas_garrafa":100,"pct_lena_guano":100,"pct_basura_formal":0,"pct_basura_quema":100,"pct_basura_informal":0,"pct_internet":100,"pct_celular":100,"pct_televisor":100}},{"type":"Feature","geometry":{"type":"Polygon","coordinates":[[[-68.20308,-18.80864],[-68.20361,-18.80845],[-68.20341,-18.80792],[-68.20286,-18.8081],[-68.20308,-18.80864]]]},"properties":{"n":"PAYRUMANI","p":77,"personas_x_ha":196,"masculinidad":92,"pct_menor20":38,"pct_60mas":1,"pct_migrante":40,"dependencia_econ":88,"pct_empleados":12,"pct_cuentapropia":56,"pct_agricultura":59,"pct_comercio":15,"pct_manufactura":0,"pct_construccion":12,"pct_transporte":5,"pct_alojamiento":2,"pct_sin_educacion":4,"pct_educ_superior":29,"brecha_educ":-11,"pct_sin_seguro":69,"pct_sus":30,"pct_seguro_privado":0,"brecha_seguro":-2,"pct_salud_publica":29,"pct_med_tradicional":18,"pct_automedicacion":17,"pct_remedios_caseros":33,"pct_viv_desocupada":0,"pct_alquiler":0,"pct_electricidad":95,"pct_sin_electricidad":0,"pct_agua_red":86,"pct_alcantarillado":27,"pct_camara_septica":0,"pct_pozo_ciego":0,"pct_sin_desague":73,"pct_gas_red":0,"pct_gas_garrafa":91,"pct_lena_guano":91,"pct_basura_formal":0,"pct_basura_quema":64,"pct_basura_informal":64,"pct_internet":95,"pct_celular":95,"pct_televisor":27}},{"type":"Feature","geometry":{"type":"Polygon","coordinates":[[[-68.20216,-18.80826],[-68.20276,-18.80804],[-68.20254,-18.80747],[-68.20194,-18.80768],[-68.20216,-18.80826]]]},"properties":{"n":"PAYRUMANI","p":57,"personas_x_ha":123,"masculinidad":111,"pct_menor20":49,"pct_60mas":11,"pct_migrante":28,"dependencia_econ":111,"pct_empleados":0,"pct_cuentapropia":85,"pct_agricultura":67,"pct_comercio":22,"pct_manufactura":4,"pct_construccion":0,"pct_transporte":0,"pct_alojamiento":0,"pct_sin_educacion":0,"pct_educ_superior":17,"brecha_educ":-6,"pct_sin_seguro":6,"pct_sus":91,"pct_seguro_privado":0,"brecha_seguro":3,"pct_salud_publica":35,"pct_med_tradicional":11,"pct_automedicacion":18,"pct_remedios_caseros":36,"pct_viv_desocupada":0,"pct_alquiler":8,"pct_electricidad":100,"pct_sin_electricidad":0,"pct_agua_red":100,"pct_alcantarillado":83,"pct_camara_septica":0,"pct_pozo_ciego":0,"pct_sin_desague":17,"pct_gas_red":0,"pct_gas_garrafa":83,"pct_lena_guano":83,"pct_basura_formal":0,"pct_basura_quema":75,"pct_basura_informal":0,"pct_internet":67,"pct_celular":67,"pct_televisor":58}}]}