{"type":"FeatureCollection","features":[{"type":"Feature","geometry":{"type":"Polygon","coordinates":[[[-68.27723,-19.27728],[-68.27732,-19.27693],[-68.27688,-19.27686],[-68.2768,-19.27718],[-68.27723,-19.27728]]]},"properties":{"n":"COIPASA","p":40,"personas_x_ha":213,"masculinidad":90,"pct_menor20":30,"pct_60mas":10,"pct_migrante":50,"dependencia_econ":100,"pct_empleados":10,"pct_cuentapropia":90,"pct_agricultura":0,"pct_comercio":70,"pct_manufactura":0,"pct_construccion":5,"pct_transporte":10,"pct_alojamiento":15,"pct_educ_superior":14,"brecha_educ":3,"pct_sin_seguro":12,"pct_seguro_privado":0,"brecha_seguro":16,"pct_med_tradicional":3,"pct_automedicacion":22,"pct_remedios_caseros":29,"pct_viv_desocupada":0,"pct_alquiler":0,"pct_electricidad":100,"pct_agua_red":100,"pct_alcantarillado":14,"pct_gas_red":0,"pct_gas_garrafa":100,"pct_lena_guano":100,"pct_basura_formal":71,"pct_basura_quema":29,"pct_basura_informal":0,"pct_internet":43,"pct_celular":86,"pct_televisor":57}},{"type":"Feature","geometry":{"type":"Polygon","coordinates":[[[-68.27691,-19.27641],[-68.27643,-19.27632],[-68.27635,-19.27667],[-68.27682,-19.27676],[-68.27691,-19.27641]]]},"properties":{"n":"COIPASA","p":44,"personas_x_ha":216,"masculinidad":120,"pct_menor20":48,"pct_60mas":7,"pct_migrante":45,"dependencia_econ":114,"pct_empleados":29,"pct_cuentapropia":64,"pct_agricultura":21,"pct_comercio":21,"pct_manufactura":7,"pct_construccion":0,"pct_transporte":43,"pct_alojamiento":14,"pct_educ_superior":0,"brecha_educ":-11,"pct_sin_seguro":7,"pct_seguro_privado":0,"brecha_seguro":15,"pct_med_tradicional":4,"pct_automedicacion":24,"pct_remedios_caseros":22,"pct_viv_desocupada":0,"pct_alquiler":0,"pct_electricidad":100,"pct_agua_red":64,"pct_alcantarillado":73,"pct_gas_red":0,"pct_gas_garrafa":100,"pct_lena_guano":100,"pct_basura_formal":82,"pct_basura_quema":9,"pct_basura_informal":0,"pct_internet":27,"pct_celular":36,"pct_televisor":45}},{"type":"Feature","geometry":{"type":"Polygon","coordinates":[[[-68.27777,-19.2751],[-68.27783,-19.27469],[-68.27744,-19.27464],[-68.27736,-19.27501],[-68.27777,-19.2751]]]},"properties":{"n":"COIPASA","p":19,"personas_x_ha":96,"masculinidad":111,"pct_menor20":37,"pct_60mas":5,"pct_migrante":32,"dependencia_econ":533,"pct_empleados":33,"pct_cuentapropia":67,"pct_agricultura":33,"pct_comercio":33,"pct_manufactura":33,"pct_construccion":0,"pct_transporte":33,"pct_alojamiento":0,"pct_educ_superior":0,"brecha_educ":-17,"pct_sin_seguro":37,"pct_seguro_privado":0,"brecha_seguro":7,"pct_med_tradicional":0,"pct_automedicacion":21,"pct_remedios_caseros":30,"pct_viv_desocupada":0,"pct_alquiler":0,"pct_electricidad":100,"pct_agua_red":100,"pct_alcantarillado":29,"pct_gas_red":0,"pct_gas_garrafa":100,"pct_lena_guano":100,"pct_basura_formal":29,"pct_basura_quema":57,"pct_basura_informal":29,"pct_internet":100,"pct_celular":100,"pct_televisor":57}},{"type":"Feature","geometry":{"type":"Polygon","coordinates":[[[-68.27786,-19.27703],[-68.27777,-19.2774],[-68.27819,-19.27749],[-68.27827,-19.27713],[-68.27786,-19.27703]]]},"properties":{"n":"COIPASA","p":30,"personas_x_ha":157,"masculinidad":150,"pct_menor20":30,"pct_60mas":10,"pct_migrante":33,"dependencia_econ":114,"pct_empleados":14,"pct_cuentapropia":86,"pct_agricultura":71,"pct_comercio":14,"pct_manufactura":7,"pct_construccion":0,"pct_transporte":7,"pct_alojamiento":0,"pct_educ_superior":27,"brecha_educ":0,"pct_sin_seguro":36,"pct_seguro_privado":0,"brecha_seguro":14,"pct_med_tradicional":1,"pct_automedicacion":12,"pct_remedios_caseros":31,"pct_viv_desocupada":9,"pct_alquiler":0,"pct_electricidad":100,"pct_agua_red":90,"pct_alcantarillado":10,"pct_gas_red":0,"pct_gas_garrafa":100,"pct_lena_guano":100,"pct_basura_formal":70,"pct_basura_quema":30,"pct_basura_informal":0,"pct_internet":60,"pct_celular":60,"pct_televisor":60}},{"type":"Feature","geometry":{"type":"Polygon","coordinates":[[[-68.27704,-19.27644],[-68.27692,-19.27676],[-68.27735,-19.27686],[-68.27743,-19.27652],[-68.27704,-19.27644]]]},"properties":{"n":"COIPASA","p":30,"personas_x_ha":162,"masculinidad":131,"pct_menor20":20,"pct_60mas":3,"pct_migrante":60,"dependencia_econ":131,"pct_empleados":31,"pct_cuentapropia":62,"pct_agricultura":8,"pct_comercio":77,"pct_manufactura":0,"pct_construccion":0,"pct_transporte":15,"pct_alojamiento":0,"pct_educ_superior":29,"brecha_educ":-25,"pct_sin_seguro":30,"pct_seguro_privado":0,"brecha_seguro":12,"pct_med_tradicional":17,"pct_automedicacion":21,"pct_remedios_caseros":23,"pct_viv_desocupada":0,"pct_alquiler":17,"pct_electricidad":100,"pct_agua_red":67,"pct_alcantarillado":25,"pct_gas_red":0,"pct_gas_garrafa":100,"pct_lena_guano":100,"pct_basura_formal":58,"pct_basura_quema":17,"pct_basura_informal":50,"pct_internet":75,"pct_celular":92,"pct_televisor":67}},{"type":"Feature","geometry":{"type":"Polygon","coordinates":[[[-68.27966,-19.27556],[-68.27922,-19.27547],[-68.27914,-19.27586],[-68.27958,-19.27595],[-68.27966,-19.27556]]]},"properties":{"n":"COIPASA","p":37,"personas_x_ha":175,"masculinidad":131,"pct_menor20":46,"pct_60mas":11,"pct_migrante":62,"dependencia_econ":106,"pct_empleados":22,"pct_cuentapropia":67,"pct_agricultura":22,"pct_comercio":50,"pct_manufactura":0,"pct_construccion":0,"pct_transporte":6,"pct_alojamiento":6,"pct_educ_superior":5,"brecha_educ":-25,"pct_sin_seguro":62,"pct_seguro_privado":0,"brecha_seguro":21,"pct_med_tradicional":3,"pct_automedicacion":32,"pct_remedios_caseros":32,"pct_viv_desocupada":0,"pct_alquiler":0,"pct_electricidad":100,"pct_agua_red":88,"pct_alcantarillado":88,"pct_gas_red":0,"pct_gas_garrafa":100,"pct_lena_guano":100,"pct_basura_formal":38,"pct_basura_quema":12,"pct_basura_informal":100,"pct_internet":100,"pct_celular":88,"pct_televisor":75}},{"type":"Feature","geometry":{"type":"Polygon","coordinates":[[[-68.27792,-19.27654],[-68.27801,-19.27618],[-68.27761,-19.27609],[-68.27752,-19.27647],[-68.27792,-19.27654]]]},"properties":{"n":"COIPASA","p":19,"personas_x_ha":103,"masculinidad":90,"pct_menor20":32,"pct_60mas":21,"pct_migrante":42,"dependencia_econ":280,"pct_empleados":0,"pct_cuentapropia":100,"pct_agricultura":40,"pct_comercio":60,"pct_manufactura":0,"pct_construccion":0,"pct_transporte":0,"pct_alojamiento":0,"pct_educ_superior":8,"brecha_educ":-26,"pct_sin_seguro":16,"pct_seguro_privado":5,"brecha_seguro":33,"pct_med_tradicional":18,"pct_automedicacion":16,"pct_remedios_caseros":22,"pct_viv_desocupada":0,"pct_alquiler":0,"pct_electricidad":100,"pct_agua_red":38,"pct_alcantarillado":38,"pct_gas_red":0,"pct_gas_garrafa":88,"pct_lena_guano":88,"pct_basura_formal":62,"pct_basura_quema":38,"pct_basura_informal":0,"pct_internet":38,"pct_celular":75,"pct_televisor":62}},{"type":"Feature","geometry":{"type":"Polygon","coordinates":[[[-68.2786,-19.27384],[-68.27822,-19.27376],[-68.27813,-19.27418],[-68.27849,-19.27427],[-68.2786,-19.27384]]]},"properties":{"n":"COIPASA","p":26,"personas_x_ha":133,"masculinidad":117,"pct_menor20":42,"pct_60mas":8,"pct_migrante":38,"dependencia_econ":160,"pct_empleados":20,"pct_cuentapropia":60,"pct_agricultura":10,"pct_comercio":20,"pct_manufactura":30,"pct_construccion":0,"pct_transporte":40,"pct_alojamiento":10,"pct_educ_superior":20,"brecha_educ":-2,"pct_sin_seguro":8,"pct_seguro_privado":0,"brecha_seguro":-1,"pct_med_tradicional":14,"pct_automedicacion":22,"pct_remedios_caseros":24,"pct_viv_desocupada":0,"pct_alquiler":0,"pct_electricidad":100,"pct_agua_red":86,"pct_alcantarillado":29,"pct_gas_red":0,"pct_gas_garrafa":100,"pct_lena_guano":100,"pct_basura_formal":43,"pct_basura_quema":57,"pct_basura_informal":0,"pct_internet":86,"pct_celular":86,"pct_televisor":57}},{"type":"Feature","geometry":{"type":"Polygon","coordinates":[[[-68.2771,-19.2777],[-68.2772,-19.27734],[-68.27679,-19.27726],[-68.27669,-19.27761],[-68.2771,-19.2777]]]},"properties":{"n":"COIPASA","p":30,"personas_x_ha":161,"masculinidad":114,"pct_menor20":33,"pct_60mas":10,"pct_migrante":63,"dependencia_econ":107,"pct_empleados":36,"pct_cuentapropia":36,"pct_agricultura":36,"pct_comercio":21,"pct_manufactura":7,"pct_construccion":0,"pct_transporte":21,"pct_alojamiento":0,"pct_educ_superior":26,"brecha_educ":-8,"pct_sin_seguro":39,"pct_seguro_privado":0,"brecha_seguro":16,"pct_med_tradicional":2,"pct_automedicacion":19,"pct_remedios_caseros":43,"pct_viv_desocupada":0,"pct_alquiler":10,"pct_electricidad":100,"pct_agua_red":100,"pct_alcantarillado":20,"pct_gas_red":0,"pct_gas_garrafa":100,"pct_lena_guano":100,"pct_basura_formal":30,"pct_basura_quema":50,"pct_basura_informal":40,"pct_internet":80,"pct_celular":80,"pct_televisor":40}},{"type":"Feature","geometry":{"type":"Polygon","coordinates":[[[-68.27769,-19.27746],[-68.27728,-19.27736],[-68.27719,-19.27771],[-68.27761,-19.27782],[-68.27769,-19.27746]]]},"properties":{"n":"COIPASA","p":18,"personas_x_ha":97,"masculinidad":100,"pct_menor20":44,"pct_60mas":11,"pct_migrante":39,"dependencia_econ":29,"pct_empleados":21,"pct_cuentapropia":71,"pct_agricultura":7,"pct_comercio":64,"pct_manufactura":0,"pct_construccion":0,"pct_transporte":14,"pct_alojamiento":14,"pct_educ_superior":45,"brecha_educ":-20,"pct_sin_seguro":17,"pct_seguro_privado":0,"brecha_seguro":-11,"pct_med_tradicional":2,"pct_automedicacion":18,"pct_remedios_caseros":27,"pct_viv_desocupada":0,"pct_alquiler":14,"pct_electricidad":100,"pct_agua_red":86,"pct_alcantarillado":29,"pct_gas_red":0,"pct_gas_garrafa":100,"pct_lena_guano":100,"pct_basura_formal":86,"pct_basura_quema":14,"pct_basura_informal":0,"pct_internet":100,"pct_celular":100,"pct_televisor":29}},{"type":"Feature","geometry":{"type":"Polygon","coordinates":[[[-68.27772,-19.27567],[-68.27765,-19.276],[-68.27803,-19.27608],[-68.2781,-19.27574],[-68.27772,-19.27567]]]},"properties":{"n":"COIPASA","p":26,"personas_x_ha":167,"masculinidad":160,"pct_menor20":42,"pct_60mas":8,"pct_migrante":65,"dependencia_econ":86,"pct_empleados":7,"pct_cuentapropia":79,"pct_agricultura":7,"pct_comercio":57,"pct_manufactura":0,"pct_construccion":0,"pct_transporte":14,"pct_alojamiento":0,"pct_educ_superior":47,"brecha_educ":-16,"pct_sin_seguro":8,"pct_seguro_privado":0,"brecha_seguro":-4,"pct_med_tradicional":8,"pct_automedicacion":4,"pct_remedios_caseros":34,"pct_viv_desocupada":0,"pct_alquiler":0,"pct_electricidad":100,"pct_agua_red":50,"pct_alcantarillado":0,"pct_gas_red":0,"pct_gas_garrafa":100,"pct_lena_guano":100,"pct_basura_formal":100,"pct_basura_quema":0,"pct_basura_informal":0,"pct_internet":100,"pct_celular":100,"pct_televisor":88}},{"type":"Feature","geometry":{"type":"Polygon","coordinates":[[[-68.27937,-19.27494],[-68.2798,-19.27503],[-68.2799,-19.27464],[-68.27945,-19.27456],[-68.27937,-19.27494]]]},"properties":{"n":"COIPASA","p":22,"personas_x_ha":105,"masculinidad":83,"pct_menor20":59,"pct_60mas":0,"pct_migrante":9,"dependencia_econ":214,"pct_empleados":0,"pct_cuentapropia":57,"pct_agricultura":14,"pct_comercio":43,"pct_manufactura":0,"pct_construccion":0,"pct_transporte":43,"pct_alojamiento":0,"pct_educ_superior":0,"brecha_educ":0,"pct_sin_seguro":0,"pct_seguro_privado":0,"brecha_seguro":0,"pct_med_tradicional":0,"pct_automedicacion":24,"pct_remedios_caseros":50,"pct_viv_desocupada":0,"pct_alquiler":0,"pct_electricidad":100,"pct_agua_red":0,"pct_alcantarillado":0,"pct_gas_red":0,"pct_gas_garrafa":100,"pct_lena_guano":100,"pct_basura_formal":100,"pct_basura_quema":0,"pct_basura_informal":0,"pct_internet":100,"pct_celular":100,"pct_televisor":83}},{"type":"Feature","geometry":{"type":"Polygon","coordinates":[[[-68.33619,-19.27659],[-68.33619,-19.27641],[-68.33639,-19.27639],[-68.3364,-19.27658],[-68.33619,-19.27659]]]},"properties":{"n":"VILACOLLO","p":23,"personas_x_ha":517,"masculinidad":156,"pct_menor20":48,"pct_60mas":13,"pct_migrante":26,"dependencia_econ":214,"pct_empleados":0,"pct_cuentapropia":71,"pct_agricultura":57,"pct_comercio":14,"pct_manufactura":0,"pct_construccion":0,"pct_transporte":0,"pct_alojamiento":0,"pct_educ_superior":27,"brecha_educ":0,"pct_sin_seguro":9,"pct_seguro_privado":0,"brecha_seguro":-22,"pct_med_tradicional":3,"pct_automedicacion":20,"pct_remedios_caseros":22,"pct_viv_desocupada":0,"pct_alquiler":0,"pct_electricidad":25,"pct_agua_red":0,"pct_alcantarillado":0,"pct_gas_red":0,"pct_gas_garrafa":100,"pct_lena_guano":100,"pct_basura_formal":0,"pct_basura_quema":50,"pct_basura_informal":0,"pct_internet":50,"pct_celular":50,"pct_televisor":25}}]}