{"type":"FeatureCollection","features":[{"type":"Feature","geometry":{"type":"Polygon","coordinates":[[[-68.41235,-17.84232],[-68.41258,-17.84261],[-68.41349,-17.84197],[-68.41327,-17.84169],[-68.41235,-17.84232]]]},"properties":{"n":"CURAHUARA DE CARANGAS","p":15,"personas_x_ha":31,"masculinidad":275,"pct_menor20":27,"pct_60mas":7,"pct_migrante":7,"dependencia_econ":275,"pct_empleados":0,"pct_cuentapropia":100,"pct_agricultura":25,"pct_comercio":0,"pct_manufactura":50,"pct_construccion":25,"pct_transporte":0,"pct_alojamiento":0,"pct_sin_educacion":0,"pct_educ_superior":9,"brecha_educ":17,"pct_sin_seguro":25,"pct_sus":42,"pct_seguro_privado":0,"brecha_seguro":38,"pct_salud_publica":9,"pct_med_tradicional":25,"pct_automedicacion":23,"pct_remedios_caseros":27,"pct_viv_desocupada":9,"pct_alquiler":0,"pct_electricidad":71,"pct_sin_electricidad":29,"pct_agua_red":86,"pct_alcantarillado":0,"pct_camara_septica":29,"pct_pozo_ciego":29,"pct_sin_desague":43,"pct_gas_red":0,"pct_gas_garrafa":86,"pct_lena_guano":0,"pct_basura_formal":100,"pct_basura_quema":0,"pct_basura_informal":0,"pct_internet":86,"pct_celular":86,"pct_televisor":43}},{"type":"Feature","geometry":{"type":"Polygon","coordinates":[[[-68.41242,-17.8393],[-68.41264,-17.83966],[-68.41305,-17.8394],[-68.41279,-17.83903],[-68.41242,-17.8393]]]},"properties":{"n":"CURAHUARA DE CARANGAS","p":19,"personas_x_ha":75,"masculinidad":73,"pct_menor20":32,"pct_60mas":0,"pct_migrante":63,"dependencia_econ":73,"pct_empleados":55,"pct_cuentapropia":36,"pct_agricultura":9,"pct_comercio":0,"pct_manufactura":36,"pct_construccion":9,"pct_transporte":9,"pct_alojamiento":0,"pct_sin_educacion":0,"pct_educ_superior":46,"brecha_educ":0,"pct_sin_seguro":5,"pct_sus":95,"pct_seguro_privado":0,"brecha_seguro":12,"pct_salud_publica":22,"pct_med_tradicional":23,"pct_automedicacion":17,"pct_remedios_caseros":28,"pct_viv_desocupada":0,"pct_alquiler":43,"pct_electricidad":100,"pct_sin_electricidad":0,"pct_agua_red":100,"pct_alcantarillado":100,"pct_camara_septica":0,"pct_pozo_ciego":0,"pct_sin_desague":0,"pct_gas_red":0,"pct_gas_garrafa":100,"pct_lena_guano":0,"pct_basura_formal":100,"pct_basura_quema":0,"pct_basura_informal":0,"pct_internet":100,"pct_celular":100,"pct_televisor":71}},{"type":"Feature","geometry":{"type":"Polygon","coordinates":[[[-68.41114,-17.84082],[-68.41061,-17.8412],[-68.41084,-17.8415],[-68.41135,-17.8411],[-68.41114,-17.84082]]]},"properties":{"n":"CURAHUARA DE CARANGAS","p":16,"personas_x_ha":54,"masculinidad":100,"pct_menor20":12,"pct_60mas":0,"pct_migrante":0,"dependencia_econ":60,"pct_empleados":20,"pct_cuentapropia":40,"pct_agricultura":50,"pct_comercio":20,"pct_manufactura":0,"pct_construccion":0,"pct_transporte":10,"pct_alojamiento":0,"pct_sin_educacion":7,"pct_educ_superior":14,"brecha_educ":-14,"pct_sin_seguro":38,"pct_sus":62,"pct_seguro_privado":0,"brecha_seguro":25,"pct_salud_publica":15,"pct_med_tradicional":25,"pct_automedicacion":16,"pct_remedios_caseros":26,"pct_viv_desocupada":0,"pct_alquiler":0,"pct_electricidad":67,"pct_sin_electricidad":33,"pct_agua_red":67,"pct_alcantarillado":100,"pct_camara_septica":0,"pct_pozo_ciego":0,"pct_sin_desague":0,"pct_gas_red":0,"pct_gas_garrafa":100,"pct_lena_guano":0,"pct_basura_formal":100,"pct_basura_quema":0,"pct_basura_informal":0,"pct_internet":67,"pct_celular":100,"pct_televisor":100}},{"type":"Feature","geometry":{"type":"Polygon","coordinates":[[[-68.41212,-17.84003],[-68.41187,-17.83969],[-68.41092,-17.84037],[-68.41116,-17.84071],[-68.41212,-17.84003]]]},"properties":{"n":"CURAHUARA DE CARANGAS","p":17,"personas_x_ha":30,"masculinidad":112,"pct_menor20":41,"pct_60mas":12,"pct_migrante":29,"dependencia_econ":70,"pct_empleados":20,"pct_cuentapropia":30,"pct_agricultura":40,"pct_comercio":0,"pct_manufactura":0,"pct_construccion":20,"pct_transporte":20,"pct_alojamiento":10,"pct_sin_educacion":0,"pct_educ_superior":10,"brecha_educ":-8,"pct_sin_seguro":18,"pct_sus":82,"pct_seguro_privado":0,"brecha_seguro":-14,"pct_salud_publica":30,"pct_med_tradicional":18,"pct_automedicacion":21,"pct_remedios_caseros":21,"pct_viv_desocupada":0,"pct_alquiler":11,"pct_electricidad":89,"pct_sin_electricidad":11,"pct_agua_red":67,"pct_alcantarillado":78,"pct_camara_septica":0,"pct_pozo_ciego":0,"pct_sin_desague":22,"pct_gas_red":0,"pct_gas_garrafa":100,"pct_lena_guano":0,"pct_basura_formal":100,"pct_basura_quema":0,"pct_basura_informal":0,"pct_internet":67,"pct_celular":78,"pct_televisor":78}},{"type":"Feature","geometry":{"type":"Polygon","coordinates":[[[-68.4076,-17.84454],[-68.40741,-17.8443],[-68.40705,-17.84464],[-68.40727,-17.84489],[-68.4076,-17.84454]]]},"properties":{"n":"CURAHUARA DE CARANGAS","p":19,"personas_x_ha":100,"masculinidad":36,"pct_menor20":32,"pct_60mas":5,"pct_migrante":47,"dependencia_econ":70,"pct_empleados":10,"pct_cuentapropia":70,"pct_agricultura":30,"pct_comercio":30,"pct_manufactura":0,"pct_construccion":10,"pct_transporte":0,"pct_alojamiento":0,"pct_sin_educacion":17,"pct_educ_superior":50,"brecha_educ":-30,"pct_sin_seguro":24,"pct_sus":65,"pct_seguro_privado":0,"brecha_seguro":-31,"pct_salud_publica":22,"pct_med_tradicional":17,"pct_automedicacion":17,"pct_remedios_caseros":23,"pct_viv_desocupada":9,"pct_alquiler":14,"pct_electricidad":100,"pct_sin_electricidad":0,"pct_agua_red":86,"pct_alcantarillado":100,"pct_camara_septica":0,"pct_pozo_ciego":0,"pct_sin_desague":0,"pct_gas_red":0,"pct_gas_garrafa":100,"pct_lena_guano":0,"pct_basura_formal":100,"pct_basura_quema":0,"pct_basura_informal":0,"pct_internet":86,"pct_celular":100,"pct_televisor":86}},{"type":"Feature","geometry":{"type":"Polygon","coordinates":[[[-68.40995,-17.84161],[-68.40882,-17.84057],[-68.40842,-17.84093],[-68.40826,-17.84094],[-68.40772,-17.84044],[-68.40727,-17.84087],[-68.40727,-17.84097],[-68.40879,-17.84253],[-68.40905,-17.84233],[-68.40927,-17.84254],[-68.40959,-17.84222],[-68.40928,-17.84259],[-68.40952,-17.84276],[-68.41003,-17.84226],[-68.4096,-17.84188],[-68.40995,-17.84161]]]},"properties":{"n":"CURAHUARA DE CARANGAS","p":242,"personas_x_ha":65,"masculinidad":2925,"pct_menor20":78,"pct_60mas":1,"pct_migrante":92,"dependencia_econ":373,"pct_empleados":24,"pct_cuentapropia":29,"pct_agricultura":14,"pct_comercio":22,"pct_manufactura":6,"pct_construccion":10,"pct_transporte":2,"pct_alojamiento":6,"pct_sin_educacion":1,"pct_educ_superior":24,"brecha_educ":-28,"pct_sin_seguro":14,"pct_sus":79,"pct_seguro_privado":1,"brecha_seguro":14,"pct_salud_publica":18,"pct_med_tradicional":20,"pct_automedicacion":20,"pct_remedios_caseros":21,"pct_viv_desocupada":6,"pct_alquiler":33,"pct_electricidad":100,"pct_sin_electricidad":0,"pct_agua_red":100,"pct_alcantarillado":100,"pct_camara_septica":0,"pct_pozo_ciego":0,"pct_sin_desague":0,"pct_gas_red":0,"pct_gas_garrafa":100,"pct_lena_guano":0,"pct_basura_formal":100,"pct_basura_quema":0,"pct_basura_informal":0,"pct_internet":100,"pct_celular":100,"pct_televisor":100}},{"type":"Feature","geometry":{"type":"Polygon","coordinates":[[[-68.40721,-17.84493],[-68.40675,-17.84439],[-68.4055,-17.8454],[-68.40604,-17.84607],[-68.40721,-17.84493]]]},"properties":{"n":"CURAHUARA DE CARANGAS","p":21,"personas_x_ha":14,"masculinidad":75,"pct_menor20":24,"pct_60mas":10,"pct_migrante":33,"dependencia_econ":110,"pct_empleados":20,"pct_cuentapropia":70,"pct_agricultura":30,"pct_comercio":10,"pct_manufactura":0,"pct_construccion":10,"pct_transporte":0,"pct_alojamiento":20,"pct_sin_educacion":0,"pct_educ_superior":31,"brecha_educ":-19,"pct_sin_seguro":5,"pct_sus":95,"pct_seguro_privado":0,"brecha_seguro":-9,"pct_salud_publica":27,"pct_med_tradicional":19,"pct_automedicacion":18,"pct_remedios_caseros":27,"pct_viv_desocupada":29,"pct_alquiler":0,"pct_electricidad":100,"pct_sin_electricidad":0,"pct_agua_red":80,"pct_alcantarillado":20,"pct_camara_septica":0,"pct_pozo_ciego":0,"pct_sin_desague":80,"pct_gas_red":0,"pct_gas_garrafa":100,"pct_lena_guano":0,"pct_basura_formal":100,"pct_basura_quema":0,"pct_basura_informal":0,"pct_internet":60,"pct_celular":80,"pct_televisor":60}},{"type":"Feature","geometry":{"type":"Polygon","coordinates":[[[-68.41424,-17.84162],[-68.41362,-17.842],[-68.41392,-17.84242],[-68.41451,-17.84203],[-68.41424,-17.84162]]]},"properties":{"n":"CURAHUARA DE CARANGAS","p":16,"personas_x_ha":36,"masculinidad":78,"pct_menor20":56,"pct_60mas":0,"pct_migrante":0,"dependencia_econ":300,"pct_empleados":25,"pct_cuentapropia":75,"pct_agricultura":25,"pct_comercio":25,"pct_manufactura":0,"pct_construccion":25,"pct_transporte":25,"pct_alojamiento":0,"pct_sin_educacion":0,"pct_educ_superior":0,"brecha_educ":-60,"pct_sin_seguro":25,"pct_sus":75,"pct_seguro_privado":0,"brecha_seguro":6,"pct_salud_publica":21,"pct_med_tradicional":24,"pct_automedicacion":32,"pct_remedios_caseros":24,"pct_viv_desocupada":0,"pct_alquiler":0,"pct_electricidad":100,"pct_sin_electricidad":0,"pct_agua_red":100,"pct_alcantarillado":0,"pct_camara_septica":0,"pct_pozo_ciego":50,"pct_sin_desague":50,"pct_gas_red":0,"pct_gas_garrafa":83,"pct_lena_guano":17,"pct_basura_formal":100,"pct_basura_quema":0,"pct_basura_informal":0,"pct_internet":83,"pct_celular":83,"pct_televisor":83}},{"type":"Feature","geometry":{"type":"Polygon","coordinates":[[[-68.41241,-17.84047],[-68.41215,-17.8401],[-68.41121,-17.84078],[-68.41145,-17.84105],[-68.41241,-17.84047]]]},"properties":{"n":"CURAHUARA DE CARANGAS","p":16,"personas_x_ha":28,"masculinidad":33,"pct_menor20":38,"pct_60mas":12,"pct_migrante":31,"dependencia_econ":78,"pct_empleados":33,"pct_cuentapropia":67,"pct_agricultura":33,"pct_comercio":11,"pct_manufactura":11,"pct_construccion":0,"pct_transporte":0,"pct_alojamiento":11,"pct_sin_educacion":0,"pct_educ_superior":36,"brecha_educ":-25,"pct_sin_seguro":0,"pct_sus":81,"pct_seguro_privado":0,"brecha_seguro":0,"pct_salud_publica":24,"pct_med_tradicional":19,"pct_automedicacion":14,"pct_remedios_caseros":25,"pct_viv_desocupada":8,"pct_alquiler":30,"pct_electricidad":100,"pct_sin_electricidad":0,"pct_agua_red":100,"pct_alcantarillado":90,"pct_camara_septica":0,"pct_pozo_ciego":0,"pct_sin_desague":10,"pct_gas_red":0,"pct_gas_garrafa":100,"pct_lena_guano":0,"pct_basura_formal":100,"pct_basura_quema":0,"pct_basura_informal":0,"pct_internet":100,"pct_celular":100,"pct_televisor":60}},{"type":"Feature","geometry":{"type":"Polygon","coordinates":[[[-68.40756,-17.843],[-68.40788,-17.84331],[-68.40816,-17.84306],[-68.40783,-17.84275],[-68.40756,-17.843]]]},"properties":{"n":"CURAHUARA DE CARANGAS","p":22,"personas_x_ha":110,"masculinidad":83,"pct_menor20":50,"pct_60mas":9,"pct_migrante":14,"dependencia_econ":100,"pct_empleados":36,"pct_cuentapropia":64,"pct_agricultura":36,"pct_comercio":45,"pct_manufactura":0,"pct_construccion":0,"pct_transporte":0,"pct_alojamiento":9,"pct_sin_educacion":0,"pct_educ_superior":17,"brecha_educ":-67,"pct_sin_seguro":14,"pct_sus":86,"pct_seguro_privado":0,"brecha_seguro":11,"pct_salud_publica":23,"pct_med_tradicional":23,"pct_automedicacion":10,"pct_remedios_caseros":22,"pct_viv_desocupada":0,"pct_alquiler":0,"pct_electricidad":100,"pct_sin_electricidad":0,"pct_agua_red":57,"pct_alcantarillado":86,"pct_camara_septica":0,"pct_pozo_ciego":0,"pct_sin_desague":14,"pct_gas_red":0,"pct_gas_garrafa":86,"pct_lena_guano":14,"pct_basura_formal":86,"pct_basura_quema":14,"pct_basura_informal":0,"pct_internet":71,"pct_celular":100,"pct_televisor":71}},{"type":"Feature","geometry":{"type":"Polygon","coordinates":[[[-68.40779,-17.8427],[-68.40683,-17.84178],[-68.40655,-17.84204],[-68.4075,-17.84295],[-68.40779,-17.8427]]]},"properties":{"n":"CURAHUARA DE CARANGAS","p":21,"personas_x_ha":35,"masculinidad":40,"pct_menor20":24,"pct_60mas":10,"pct_migrante":33,"dependencia_econ":150,"pct_empleados":38,"pct_cuentapropia":62,"pct_agricultura":25,"pct_comercio":0,"pct_manufactura":12,"pct_construccion":25,"pct_transporte":0,"pct_alojamiento":0,"pct_sin_educacion":6,"pct_educ_superior":25,"brecha_educ":2,"pct_sin_seguro":33,"pct_sus":50,"pct_seguro_privado":0,"brecha_seguro":21,"pct_salud_publica":36,"pct_med_tradicional":11,"pct_automedicacion":6,"pct_remedios_caseros":34,"pct_viv_desocupada":4,"pct_alquiler":31,"pct_electricidad":100,"pct_sin_electricidad":0,"pct_agua_red":62,"pct_alcantarillado":92,"pct_camara_septica":0,"pct_pozo_ciego":0,"pct_sin_desague":8,"pct_gas_red":0,"pct_gas_garrafa":100,"pct_lena_guano":0,"pct_basura_formal":100,"pct_basura_quema":0,"pct_basura_informal":0,"pct_internet":77,"pct_celular":85,"pct_televisor":62}},{"type":"Feature","geometry":{"type":"Polygon","coordinates":[[[-68.4143,-17.83931],[-68.41405,-17.83893],[-68.41366,-17.83917],[-68.41393,-17.83955],[-68.4143,-17.83931]]]},"properties":{"n":"CURAHUARA DE CARANGAS","p":15,"personas_x_ha":59,"masculinidad":150,"pct_menor20":53,"pct_60mas":0,"pct_migrante":33,"dependencia_econ":114,"pct_empleados":0,"pct_cuentapropia":57,"pct_agricultura":14,"pct_comercio":14,"pct_manufactura":14,"pct_construccion":29,"pct_transporte":14,"pct_alojamiento":0,"pct_sin_educacion":0,"pct_educ_superior":25,"brecha_educ":33,"pct_sin_seguro":8,"pct_sus":92,"pct_seguro_privado":0,"brecha_seguro":12,"pct_salud_publica":26,"pct_med_tradicional":9,"pct_automedicacion":28,"pct_remedios_caseros":30,"pct_viv_desocupada":11,"pct_alquiler":0,"pct_electricidad":100,"pct_sin_electricidad":0,"pct_agua_red":100,"pct_alcantarillado":100,"pct_camara_septica":0,"pct_pozo_ciego":0,"pct_sin_desague":0,"pct_gas_red":0,"pct_gas_garrafa":100,"pct_lena_guano":0,"pct_basura_formal":100,"pct_basura_quema":0,"pct_basura_informal":0,"pct_internet":100,"pct_celular":100,"pct_televisor":75}},{"type":"Feature","geometry":{"type":"Polygon","coordinates":[[[-68.40985,-17.84355],[-68.41061,-17.84424],[-68.41084,-17.84406],[-68.4101,-17.84332],[-68.40985,-17.84355]]]},"properties":{"n":"CURAHUARA DE CARANGAS","p":17,"personas_x_ha":43,"masculinidad":89,"pct_menor20":35,"pct_60mas":6,"pct_migrante":47,"dependencia_econ":70,"pct_empleados":40,"pct_cuentapropia":10,"pct_agricultura":10,"pct_comercio":0,"pct_manufactura":0,"pct_construccion":0,"pct_transporte":10,"pct_alojamiento":0,"pct_sin_educacion":8,"pct_educ_superior":62,"brecha_educ":-17,"pct_sin_seguro":6,"pct_sus":71,"pct_seguro_privado":0,"brecha_seguro":12,"pct_salud_publica":27,"pct_med_tradicional":20,"pct_automedicacion":8,"pct_remedios_caseros":20,"pct_viv_desocupada":5,"pct_alquiler":45,"pct_electricidad":100,"pct_sin_electricidad":0,"pct_agua_red":100,"pct_alcantarillado":100,"pct_camara_septica":0,"pct_pozo_ciego":0,"pct_sin_desague":0,"pct_gas_red":0,"pct_gas_garrafa":100,"pct_lena_guano":0,"pct_basura_formal":100,"pct_basura_quema":0,"pct_basura_informal":0,"pct_internet":100,"pct_celular":91,"pct_televisor":73}},{"type":"Feature","geometry":{"type":"Polygon","coordinates":[[[-68.40744,-17.84298],[-68.40651,-17.84213],[-68.40628,-17.84233],[-68.4072,-17.84321],[-68.40744,-17.84298]]]},"properties":{"n":"CURAHUARA DE CARANGAS","p":21,"personas_x_ha":43,"masculinidad":40,"pct_menor20":48,"pct_60mas":5,"pct_migrante":0,"dependencia_econ":91,"pct_empleados":0,"pct_cuentapropia":18,"pct_agricultura":73,"pct_comercio":0,"pct_manufactura":0,"pct_construccion":9,"pct_transporte":9,"pct_alojamiento":0,"pct_sin_educacion":0,"pct_educ_superior":0,"brecha_educ":-25,"pct_sin_seguro":0,"pct_sus":95,"pct_seguro_privado":0,"brecha_seguro":0,"pct_salud_publica":23,"pct_med_tradicional":25,"pct_automedicacion":9,"pct_remedios_caseros":27,"pct_viv_desocupada":0,"pct_alquiler":0,"pct_electricidad":83,"pct_sin_electricidad":17,"pct_agua_red":83,"pct_alcantarillado":83,"pct_camara_septica":0,"pct_pozo_ciego":0,"pct_sin_desague":17,"pct_gas_red":0,"pct_gas_garrafa":83,"pct_lena_guano":0,"pct_basura_formal":100,"pct_basura_quema":0,"pct_basura_informal":0,"pct_internet":67,"pct_celular":83,"pct_televisor":67}},{"type":"Feature","geometry":{"type":"Polygon","coordinates":[[[-68.40822,-17.84281],[-68.4076,-17.84221],[-68.40747,-17.84234],[-68.4082,-17.84301],[-68.40869,-17.84256],[-68.40794,-17.84184],[-68.4078,-17.84201],[-68.40843,-17.84259],[-68.40822,-17.84281]]]},"properties":{"n":"CURAHUARA DE CARANGAS","p":44,"personas_x_ha":85,"masculinidad":83,"pct_menor20":39,"pct_60mas":5,"pct_migrante":100,"dependencia_econ":120,"pct_empleados":85,"pct_cuentapropia":15,"pct_agricultura":0,"pct_comercio":5,"pct_manufactura":5,"pct_construccion":0,"pct_transporte":5,"pct_alojamiento":0,"pct_sin_educacion":0,"pct_educ_superior":78,"brecha_educ":0,"pct_sin_seguro":0,"pct_sus":9,"pct_seguro_privado":0,"brecha_seguro":0,"pct_salud_publica":25,"pct_med_tradicional":5,"pct_automedicacion":13,"pct_remedios_caseros":29,"pct_viv_desocupada":0,"pct_alquiler":79,"pct_electricidad":100,"pct_sin_electricidad":0,"pct_agua_red":100,"pct_alcantarillado":93,"pct_camara_septica":0,"pct_pozo_ciego":7,"pct_sin_desague":0,"pct_gas_red":0,"pct_gas_garrafa":100,"pct_lena_guano":0,"pct_basura_formal":100,"pct_basura_quema":0,"pct_basura_informal":0,"pct_internet":100,"pct_celular":100,"pct_televisor":100}},{"type":"Feature","geometry":{"type":"Polygon","coordinates":[[[-68.41108,-17.84186],[-68.41085,-17.8416],[-68.41042,-17.84198],[-68.41066,-17.84222],[-68.41108,-17.84186]]]},"properties":{"n":"CURAHUARA DE CARANGAS","p":16,"personas_x_ha":67,"masculinidad":78,"pct_menor20":44,"pct_60mas":6,"pct_migrante":56,"dependencia_econ":129,"pct_empleados":43,"pct_cuentapropia":57,"pct_agricultura":29,"pct_comercio":0,"pct_manufactura":0,"pct_construccion":14,"pct_transporte":0,"pct_alojamiento":14,"pct_sin_educacion":11,"pct_educ_superior":44,"brecha_educ":21,"pct_sin_seguro":7,"pct_sus":67,"pct_seguro_privado":0,"brecha_seguro":-11,"pct_salud_publica":25,"pct_med_tradicional":23,"pct_automedicacion":17,"pct_remedios_caseros":21,"pct_viv_desocupada":14,"pct_alquiler":50,"pct_electricidad":100,"pct_sin_electricidad":0,"pct_agua_red":100,"pct_alcantarillado":100,"pct_camara_septica":0,"pct_pozo_ciego":0,"pct_sin_desague":0,"pct_gas_red":0,"pct_gas_garrafa":100,"pct_lena_guano":0,"pct_basura_formal":100,"pct_basura_quema":0,"pct_basura_informal":0,"pct_internet":62,"pct_celular":88,"pct_televisor":62}},{"type":"Feature","geometry":{"type":"Polygon","coordinates":[[[-68.41331,-17.84076],[-68.41293,-17.84102],[-68.41324,-17.84148],[-68.41363,-17.84122],[-68.41331,-17.84076]]]},"properties":{"n":"CURAHUARA DE CARANGAS","p":19,"personas_x_ha":60,"masculinidad":58,"pct_menor20":47,"pct_60mas":0,"pct_migrante":32,"dependencia_econ":217,"pct_empleados":17,"pct_cuentapropia":50,"pct_agricultura":17,"pct_comercio":0,"pct_manufactura":17,"pct_construccion":0,"pct_transporte":0,"pct_alojamiento":67,"pct_sin_educacion":0,"pct_educ_superior":0,"brecha_educ":-40,"pct_sin_seguro":5,"pct_sus":95,"pct_seguro_privado":0,"brecha_seguro":-8,"pct_salud_publica":25,"pct_med_tradicional":24,"pct_automedicacion":24,"pct_remedios_caseros":27,"pct_viv_desocupada":0,"pct_alquiler":20,"pct_electricidad":100,"pct_sin_electricidad":0,"pct_agua_red":100,"pct_alcantarillado":60,"pct_camara_septica":0,"pct_pozo_ciego":0,"pct_sin_desague":40,"pct_gas_red":0,"pct_gas_garrafa":80,"pct_lena_guano":20,"pct_basura_formal":100,"pct_basura_quema":0,"pct_basura_informal":0,"pct_internet":80,"pct_celular":80,"pct_televisor":80}},{"type":"Feature","geometry":{"type":"Polygon","coordinates":[[[-68.41403,-17.84162],[-68.41444,-17.84134],[-68.41416,-17.84096],[-68.41376,-17.84123],[-68.41403,-17.84162]]]},"properties":{"n":"CURAHUARA DE CARANGAS","p":15,"personas_x_ha":52,"masculinidad":150,"pct_menor20":27,"pct_60mas":13,"pct_migrante":13,"dependencia_econ":50,"pct_empleados":0,"pct_cuentapropia":100,"pct_agricultura":50,"pct_comercio":20,"pct_manufactura":0,"pct_construccion":20,"pct_transporte":0,"pct_alojamiento":10,"pct_sin_educacion":0,"pct_educ_superior":8,"brecha_educ":-62,"pct_sin_seguro":13,"pct_sus":87,"pct_seguro_privado":0,"brecha_seguro":-6,"pct_salud_publica":35,"pct_med_tradicional":24,"pct_automedicacion":0,"pct_remedios_caseros":41,"pct_viv_desocupada":0,"pct_alquiler":20,"pct_electricidad":100,"pct_sin_electricidad":0,"pct_agua_red":100,"pct_alcantarillado":40,"pct_camara_septica":0,"pct_pozo_ciego":60,"pct_sin_desague":0,"pct_gas_red":0,"pct_gas_garrafa":80,"pct_lena_guano":20,"pct_basura_formal":100,"pct_basura_quema":0,"pct_basura_informal":0,"pct_internet":80,"pct_celular":100,"pct_televisor":60}},{"type":"Feature","geometry":{"type":"Polygon","coordinates":[[[-68.40826,-17.83937],[-68.40793,-17.83903],[-68.40759,-17.83937],[-68.40796,-17.83971],[-68.40826,-17.83937]]]},"properties":{"n":"CURAHUARA DE CARANGAS","p":16,"personas_x_ha":60,"masculinidad":100,"pct_menor20":44,"pct_60mas":12,"pct_migrante":0,"dependencia_econ":500,"pct_empleados":50,"pct_cuentapropia":50,"pct_agricultura":50,"pct_comercio":0,"pct_manufactura":0,"pct_construccion":50,"pct_transporte":0,"pct_alojamiento":0,"pct_sin_educacion":0,"pct_educ_superior":0,"brecha_educ":-33,"pct_sin_seguro":0,"pct_sus":100,"pct_seguro_privado":0,"brecha_seguro":0,"pct_salud_publica":32,"pct_med_tradicional":22,"pct_automedicacion":14,"pct_remedios_caseros":24,"pct_viv_desocupada":14,"pct_alquiler":0,"pct_electricidad":100,"pct_sin_electricidad":0,"pct_agua_red":100,"pct_alcantarillado":100,"pct_camara_septica":0,"pct_pozo_ciego":0,"pct_sin_desague":0,"pct_gas_red":0,"pct_gas_garrafa":100,"pct_lena_guano":0,"pct_basura_formal":100,"pct_basura_quema":0,"pct_basura_informal":0,"pct_internet":67,"pct_celular":67,"pct_televisor":67}},{"type":"Feature","geometry":{"type":"Polygon","coordinates":[[[-68.4137,-17.84115],[-68.41409,-17.8409],[-68.41378,-17.84042],[-68.41336,-17.84068],[-68.4137,-17.84115]]]},"properties":{"n":"CURAHUARA DE CARANGAS","p":25,"personas_x_ha":73,"masculinidad":92,"pct_menor20":44,"pct_60mas":0,"pct_migrante":12,"dependencia_econ":118,"pct_empleados":45,"pct_cuentapropia":55,"pct_agricultura":27,"pct_comercio":9,"pct_manufactura":0,"pct_construccion":27,"pct_transporte":9,"pct_alojamiento":27,"pct_sin_educacion":0,"pct_educ_superior":7,"brecha_educ":-30,"pct_sin_seguro":4,"pct_sus":96,"pct_seguro_privado":0,"brecha_seguro":-8,"pct_salud_publica":28,"pct_med_tradicional":18,"pct_automedicacion":18,"pct_remedios_caseros":29,"pct_viv_desocupada":0,"pct_alquiler":11,"pct_electricidad":89,"pct_sin_electricidad":11,"pct_agua_red":56,"pct_alcantarillado":78,"pct_camara_septica":0,"pct_pozo_ciego":0,"pct_sin_desague":22,"pct_gas_red":0,"pct_gas_garrafa":89,"pct_lena_guano":11,"pct_basura_formal":100,"pct_basura_quema":0,"pct_basura_informal":0,"pct_internet":78,"pct_celular":89,"pct_televisor":44}},{"type":"Feature","geometry":{"type":"Polygon","coordinates":[[[-68.41251,-17.84044],[-68.41291,-17.8402],[-68.41265,-17.8398],[-68.41223,-17.84006],[-68.41251,-17.84044]]]},"properties":{"n":"CURAHUARA DE CARANGAS","p":17,"personas_x_ha":62,"masculinidad":112,"pct_menor20":41,"pct_60mas":6,"pct_migrante":41,"dependencia_econ":240,"pct_empleados":60,"pct_cuentapropia":40,"pct_agricultura":0,"pct_comercio":40,"pct_manufactura":0,"pct_construccion":20,"pct_transporte":20,"pct_alojamiento":0,"pct_sin_educacion":10,"pct_educ_superior":10,"brecha_educ":0,"pct_sin_seguro":47,"pct_sus":41,"pct_seguro_privado":0,"brecha_seguro":18,"pct_salud_publica":17,"pct_med_tradicional":25,"pct_automedicacion":17,"pct_remedios_caseros":23,"pct_viv_desocupada":0,"pct_alquiler":14,"pct_electricidad":100,"pct_sin_electricidad":0,"pct_agua_red":100,"pct_alcantarillado":71,"pct_camara_septica":14,"pct_pozo_ciego":14,"pct_sin_desague":0,"pct_gas_red":0,"pct_gas_garrafa":100,"pct_lena_guano":0,"pct_basura_formal":100,"pct_basura_quema":0,"pct_basura_informal":0,"pct_internet":71,"pct_celular":86,"pct_televisor":71}},{"type":"Feature","geometry":{"type":"Polygon","coordinates":[[[-68.40728,-17.84326],[-68.40761,-17.84356],[-68.40784,-17.84335],[-68.40751,-17.84304],[-68.40728,-17.84326]]]},"properties":{"n":"CURAHUARA DE CARANGAS","p":20,"personas_x_ha":115,"masculinidad":100,"pct_menor20":30,"pct_60mas":10,"pct_migrante":35,"dependencia_econ":33,"pct_empleados":27,"pct_cuentapropia":47,"pct_agricultura":47,"pct_comercio":7,"pct_manufactura":0,"pct_construccion":20,"pct_transporte":0,"pct_alojamiento":0,"pct_sin_educacion":0,"pct_educ_superior":57,"brecha_educ":12,"pct_sin_seguro":0,"pct_sus":79,"pct_seguro_privado":0,"brecha_seguro":0,"pct_salud_publica":24,"pct_med_tradicional":16,"pct_automedicacion":24,"pct_remedios_caseros":26,"pct_viv_desocupada":0,"pct_alquiler":36,"pct_electricidad":100,"pct_sin_electricidad":0,"pct_agua_red":91,"pct_alcantarillado":100,"pct_camara_septica":0,"pct_pozo_ciego":0,"pct_sin_desague":0,"pct_gas_red":0,"pct_gas_garrafa":91,"pct_lena_guano":0,"pct_basura_formal":100,"pct_basura_quema":0,"pct_basura_informal":0,"pct_internet":91,"pct_celular":100,"pct_televisor":82}},{"type":"Feature","geometry":{"type":"Polygon","coordinates":[[[-68.41233,-17.84133],[-68.41278,-17.84098],[-68.41251,-17.84059],[-68.41148,-17.84115],[-68.41168,-17.84144],[-68.41213,-17.8411],[-68.41233,-17.84133]]]},"properties":{"n":"CURAHUARA DE CARANGAS","p":15,"personas_x_ha":26,"masculinidad":88,"pct_menor20":20,"pct_60mas":40,"pct_migrante":33,"dependencia_econ":88,"pct_empleados":38,"pct_cuentapropia":62,"pct_agricultura":12,"pct_comercio":12,"pct_manufactura":0,"pct_construccion":12,"pct_transporte":0,"pct_alojamiento":25,"pct_sin_educacion":8,"pct_educ_superior":33,"brecha_educ":-12,"pct_sin_seguro":0,"pct_sus":67,"pct_seguro_privado":0,"brecha_seguro":0,"pct_salud_publica":26,"pct_med_tradicional":10,"pct_automedicacion":14,"pct_remedios_caseros":36,"pct_viv_desocupada":18,"pct_alquiler":0,"pct_electricidad":100,"pct_sin_electricidad":0,"pct_agua_red":100,"pct_alcantarillado":86,"pct_camara_septica":0,"pct_pozo_ciego":0,"pct_sin_desague":14,"pct_gas_red":0,"pct_gas_garrafa":86,"pct_lena_guano":0,"pct_basura_formal":100,"pct_basura_quema":0,"pct_basura_informal":0,"pct_internet":43,"pct_celular":86,"pct_televisor":57}},{"type":"Feature","geometry":{"type":"Polygon","coordinates":[[[-68.40978,-17.84355],[-68.40953,-17.84334],[-68.40931,-17.84356],[-68.40954,-17.84379],[-68.40978,-17.84355]]]},"properties":{"n":"CURAHUARA DE CARANGAS","p":17,"personas_x_ha":132,"masculinidad":112,"pct_menor20":24,"pct_60mas":18,"pct_migrante":35,"dependencia_econ":55,"pct_empleados":82,"pct_cuentapropia":18,"pct_agricultura":0,"pct_comercio":0,"pct_manufactura":0,"pct_construccion":18,"pct_transporte":18,"pct_alojamiento":18,"pct_sin_educacion":0,"pct_educ_superior":69,"brecha_educ":-12,"pct_sin_seguro":0,"pct_sus":82,"pct_seguro_privado":0,"brecha_seguro":0,"pct_salud_publica":17,"pct_med_tradicional":16,"pct_automedicacion":13,"pct_remedios_caseros":21,"pct_viv_desocupada":35,"pct_alquiler":0,"pct_electricidad":86,"pct_sin_electricidad":14,"pct_agua_red":71,"pct_alcantarillado":100,"pct_camara_septica":0,"pct_pozo_ciego":0,"pct_sin_desague":0,"pct_gas_red":0,"pct_gas_garrafa":100,"pct_lena_guano":0,"pct_basura_formal":100,"pct_basura_quema":0,"pct_basura_informal":0,"pct_internet":86,"pct_celular":100,"pct_televisor":86}},{"type":"Feature","geometry":{"type":"Polygon","coordinates":[[[-68.40715,-17.84396],[-68.40689,-17.84364],[-68.40643,-17.84394],[-68.40672,-17.8443],[-68.40715,-17.84396]]]},"properties":{"n":"CURAHUARA DE CARANGAS","p":22,"personas_x_ha":76,"masculinidad":57,"pct_menor20":23,"pct_60mas":9,"pct_migrante":32,"dependencia_econ":47,"pct_empleados":27,"pct_cuentapropia":40,"pct_agricultura":53,"pct_comercio":0,"pct_manufactura":0,"pct_construccion":7,"pct_transporte":7,"pct_alojamiento":7,"pct_sin_educacion":0,"pct_educ_superior":24,"brecha_educ":-16,"pct_sin_seguro":38,"pct_sus":52,"pct_seguro_privado":0,"brecha_seguro":29,"pct_salud_publica":34,"pct_med_tradicional":4,"pct_automedicacion":21,"pct_remedios_caseros":29,"pct_viv_desocupada":35,"pct_alquiler":22,"pct_electricidad":78,"pct_sin_electricidad":22,"pct_agua_red":89,"pct_alcantarillado":67,"pct_camara_septica":0,"pct_pozo_ciego":0,"pct_sin_desague":33,"pct_gas_red":0,"pct_gas_garrafa":78,"pct_lena_guano":11,"pct_basura_formal":89,"pct_basura_quema":11,"pct_basura_informal":0,"pct_internet":100,"pct_celular":100,"pct_televisor":56}},{"type":"Feature","geometry":{"type":"Polygon","coordinates":[[[-68.40811,-17.84409],[-68.40787,-17.84386],[-68.40747,-17.84424],[-68.40767,-17.8445],[-68.40811,-17.84409]]]},"properties":{"n":"CURAHUARA DE CARANGAS","p":18,"personas_x_ha":79,"masculinidad":100,"pct_menor20":28,"pct_60mas":11,"pct_migrante":33,"dependencia_econ":29,"pct_empleados":36,"pct_cuentapropia":57,"pct_agricultura":29,"pct_comercio":21,"pct_manufactura":7,"pct_construccion":7,"pct_transporte":7,"pct_alojamiento":7,"pct_sin_educacion":0,"pct_educ_superior":31,"brecha_educ":-2,"pct_sin_seguro":28,"pct_sus":61,"pct_seguro_privado":0,"brecha_seguro":11,"pct_salud_publica":23,"pct_med_tradicional":18,"pct_automedicacion":14,"pct_remedios_caseros":28,"pct_viv_desocupada":0,"pct_alquiler":0,"pct_electricidad":100,"pct_sin_electricidad":0,"pct_agua_red":67,"pct_alcantarillado":100,"pct_camara_septica":0,"pct_pozo_ciego":0,"pct_sin_desague":0,"pct_gas_red":0,"pct_gas_garrafa":100,"pct_lena_guano":0,"pct_basura_formal":83,"pct_basura_quema":17,"pct_basura_informal":0,"pct_internet":67,"pct_celular":83,"pct_televisor":67}},{"type":"Feature","geometry":{"type":"Polygon","coordinates":[[[-68.97574,-18.13528],[-68.9758,-18.13571],[-68.9763,-18.13563],[-68.97621,-18.13518],[-68.97574,-18.13528]]]},"properties":{"n":"SAJAMA","p":24,"personas_x_ha":92,"masculinidad":85,"pct_menor20":21,"pct_60mas":25,"pct_migrante":0,"dependencia_econ":41,"pct_empleados":24,"pct_cuentapropia":59,"pct_agricultura":29,"pct_comercio":24,"pct_manufactura":0,"pct_construccion":6,"pct_transporte":12,"pct_alojamiento":6,"pct_sin_educacion":5,"pct_educ_superior":47,"brecha_educ":-15,"pct_sin_seguro":8,"pct_sus":88,"pct_seguro_privado":4,"brecha_seguro":1,"pct_salud_publica":26,"pct_med_tradicional":23,"pct_automedicacion":20,"pct_remedios_caseros":25,"pct_viv_desocupada":0,"pct_alquiler":0,"pct_electricidad":86,"pct_sin_electricidad":14,"pct_agua_red":86,"pct_alcantarillado":71,"pct_camara_septica":14,"pct_pozo_ciego":0,"pct_sin_desague":14,"pct_gas_red":0,"pct_gas_garrafa":86,"pct_lena_guano":14,"pct_basura_formal":14,"pct_basura_quema":29,"pct_basura_informal":57,"pct_internet":71,"pct_celular":100,"pct_televisor":57}},{"type":"Feature","geometry":{"type":"Polygon","coordinates":[[[-68.97619,-18.13514],[-68.9761,-18.13472],[-68.97564,-18.1348],[-68.97573,-18.13522],[-68.97619,-18.13514]]]},"properties":{"n":"SAJAMA","p":24,"personas_x_ha":101,"masculinidad":118,"pct_menor20":29,"pct_60mas":8,"pct_migrante":21,"dependencia_econ":70,"pct_empleados":10,"pct_cuentapropia":80,"pct_agricultura":80,"pct_comercio":0,"pct_manufactura":0,"pct_construccion":0,"pct_transporte":0,"pct_alojamiento":0,"pct_sin_educacion":0,"pct_educ_superior":20,"brecha_educ":0,"pct_sin_seguro":6,"pct_sus":94,"pct_seguro_privado":0,"brecha_seguro":10,"pct_salud_publica":29,"pct_med_tradicional":25,"pct_automedicacion":9,"pct_remedios_caseros":27,"pct_viv_desocupada":8,"pct_alquiler":0,"pct_electricidad":100,"pct_sin_electricidad":0,"pct_agua_red":67,"pct_alcantarillado":89,"pct_camara_septica":0,"pct_pozo_ciego":0,"pct_sin_desague":11,"pct_gas_red":0,"pct_gas_garrafa":89,"pct_lena_guano":11,"pct_basura_formal":89,"pct_basura_quema":11,"pct_basura_informal":0,"pct_internet":89,"pct_celular":89,"pct_televisor":89}},{"type":"Feature","geometry":{"type":"Polygon","coordinates":[[[-68.97555,-18.13633],[-68.97549,-18.13583],[-68.97469,-18.13594],[-68.97483,-18.13681],[-68.97517,-18.13676],[-68.97555,-18.13633]]]},"properties":{"n":"SAJAMA","p":35,"personas_x_ha":48,"masculinidad":192,"pct_menor20":31,"pct_60mas":11,"pct_migrante":17,"dependencia_econ":45,"pct_empleados":5,"pct_cuentapropia":55,"pct_agricultura":59,"pct_comercio":14,"pct_manufactura":14,"pct_construccion":5,"pct_transporte":0,"pct_alojamiento":0,"pct_sin_educacion":4,"pct_educ_superior":8,"brecha_educ":-7,"pct_sin_seguro":3,"pct_sus":97,"pct_seguro_privado":0,"brecha_seguro":5,"pct_salud_publica":40,"pct_med_tradicional":11,"pct_automedicacion":10,"pct_remedios_caseros":23,"pct_viv_desocupada":0,"pct_alquiler":0,"pct_electricidad":100,"pct_sin_electricidad":0,"pct_agua_red":82,"pct_alcantarillado":71,"pct_camara_septica":0,"pct_pozo_ciego":18,"pct_sin_desague":12,"pct_gas_red":0,"pct_gas_garrafa":76,"pct_lena_guano":24,"pct_basura_formal":59,"pct_basura_quema":35,"pct_basura_informal":0,"pct_internet":76,"pct_celular":76,"pct_televisor":65}}]}