{"type":"FeatureCollection","features":[{"type":"Feature","geometry":{"type":"Polygon","coordinates":[[[-68.27111,-18.85473],[-68.27047,-18.85494],[-68.2704,-18.85546],[-68.27191,-18.8556],[-68.272,-18.85509],[-68.27103,-18.85501],[-68.27111,-18.85473]]]},"properties":{"n":"ANEXO ALTUSANI","p":47,"personas_x_ha":45,"masculinidad":62,"pct_menor20":49,"pct_60mas":6,"pct_migrante":79,"dependencia_econ":147,"pct_empleados":37,"pct_cuentapropia":58,"pct_agricultura":63,"pct_comercio":0,"pct_manufactura":0,"pct_construccion":11,"pct_transporte":16,"pct_alojamiento":0,"pct_sin_educacion":0,"pct_educ_superior":12,"brecha_educ":-20,"pct_sin_seguro":60,"pct_sus":40,"pct_seguro_privado":0,"brecha_seguro":-16,"pct_salud_publica":37,"pct_med_tradicional":4,"pct_automedicacion":3,"pct_remedios_caseros":53,"pct_viv_desocupada":0,"pct_alquiler":0,"pct_electricidad":92,"pct_sin_electricidad":8,"pct_agua_red":33,"pct_alcantarillado":83,"pct_camara_septica":0,"pct_pozo_ciego":0,"pct_sin_desague":17,"pct_gas_red":0,"pct_gas_garrafa":92,"pct_lena_guano":92,"pct_basura_formal":0,"pct_basura_quema":75,"pct_basura_informal":0,"pct_internet":33,"pct_celular":67,"pct_televisor":75}},{"type":"Feature","geometry":{"type":"Polygon","coordinates":[[[-68.27204,-18.85678],[-68.27214,-18.85572],[-68.27037,-18.8555],[-68.27031,-18.85634],[-68.2709,-18.85694],[-68.27103,-18.85723],[-68.27197,-18.85687],[-68.27204,-18.85678]]]},"properties":{"n":"ANEXO ALTUSANI","p":54,"personas_x_ha":20,"masculinidad":93,"pct_menor20":39,"pct_60mas":7,"pct_migrante":48,"dependencia_econ":86,"pct_empleados":0,"pct_cuentapropia":90,"pct_agricultura":100,"pct_comercio":0,"pct_manufactura":0,"pct_construccion":0,"pct_transporte":0,"pct_alojamiento":0,"pct_sin_educacion":0,"pct_educ_superior":0,"brecha_educ":1,"pct_sin_seguro":89,"pct_sus":2,"pct_seguro_privado":0,"brecha_seguro":7,"pct_salud_publica":2,"pct_med_tradicional":21,"pct_automedicacion":2,"pct_remedios_caseros":72,"pct_viv_desocupada":0,"pct_alquiler":0,"pct_electricidad":92,"pct_sin_electricidad":8,"pct_agua_red":100,"pct_alcantarillado":8,"pct_camara_septica":0,"pct_pozo_ciego":42,"pct_sin_desague":50,"pct_gas_red":0,"pct_gas_garrafa":75,"pct_lena_guano":75,"pct_basura_formal":0,"pct_basura_quema":75,"pct_basura_informal":50,"pct_internet":8,"pct_celular":25,"pct_televisor":17}},{"type":"Feature","geometry":{"type":"Polygon","coordinates":[[[-68.27022,-18.85617],[-68.27031,-18.85549],[-68.27006,-18.85545],[-68.26996,-18.8562],[-68.27022,-18.85617]]]},"properties":{"n":"ANEXO ALTUSANI","p":26,"personas_x_ha":119,"masculinidad":136,"pct_menor20":35,"pct_60mas":15,"pct_migrante":38,"dependencia_econ":100,"pct_empleados":38,"pct_cuentapropia":23,"pct_agricultura":54,"pct_comercio":0,"pct_manufactura":0,"pct_construccion":38,"pct_transporte":0,"pct_alojamiento":0,"pct_sin_educacion":0,"pct_educ_superior":0,"brecha_educ":-50,"pct_sin_seguro":92,"pct_sus":8,"pct_seguro_privado":0,"brecha_seguro":2,"pct_salud_publica":4,"pct_med_tradicional":0,"pct_automedicacion":0,"pct_remedios_caseros":96,"pct_viv_desocupada":0,"pct_alquiler":0,"pct_electricidad":100,"pct_sin_electricidad":0,"pct_agua_red":100,"pct_alcantarillado":0,"pct_camara_septica":57,"pct_pozo_ciego":29,"pct_sin_desague":14,"pct_gas_red":0,"pct_gas_garrafa":86,"pct_lena_guano":86,"pct_basura_formal":0,"pct_basura_quema":0,"pct_basura_informal":200,"pct_internet":43,"pct_celular":100,"pct_televisor":29}},{"type":"Feature","geometry":{"type":"Polygon","coordinates":[[[-68.27005,-18.85474],[-68.2697,-18.85475],[-68.2697,-18.85506],[-68.27004,-18.8551],[-68.27005,-18.85474]]]},"properties":{"n":"ANEXO ALTUSANI","p":31,"personas_x_ha":221,"masculinidad":138,"pct_menor20":39,"pct_60mas":10,"pct_migrante":52,"dependencia_econ":55,"pct_empleados":15,"pct_cuentapropia":65,"pct_agricultura":60,"pct_comercio":0,"pct_manufactura":0,"pct_construccion":35,"pct_transporte":0,"pct_alojamiento":0,"pct_sin_educacion":0,"pct_educ_superior":0,"brecha_educ":7,"pct_sin_seguro":94,"pct_sus":6,"pct_seguro_privado":0,"brecha_seguro":-11,"pct_salud_publica":0,"pct_med_tradicional":3,"pct_automedicacion":0,"pct_remedios_caseros":97,"pct_viv_desocupada":0,"pct_alquiler":0,"pct_electricidad":100,"pct_sin_electricidad":0,"pct_agua_red":100,"pct_alcantarillado":25,"pct_camara_septica":0,"pct_pozo_ciego":0,"pct_sin_desague":75,"pct_gas_red":0,"pct_gas_garrafa":50,"pct_lena_guano":50,"pct_basura_formal":0,"pct_basura_quema":0,"pct_basura_informal":0,"pct_internet":75,"pct_celular":75,"pct_televisor":62}},{"type":"Feature","geometry":{"type":"Polygon","coordinates":[[[-68.26671,-18.84581],[-68.26618,-18.84598],[-68.2661,-18.84552],[-68.26659,-18.84535],[-68.26671,-18.84581]]]},"properties":{"n":"CAIPANA","p":27,"personas_x_ha":92,"masculinidad":108,"pct_menor20":37,"pct_60mas":11,"pct_migrante":74,"dependencia_econ":80,"pct_empleados":7,"pct_cuentapropia":67,"pct_agricultura":27,"pct_comercio":13,"pct_manufactura":7,"pct_construccion":0,"pct_transporte":40,"pct_alojamiento":0,"pct_sin_educacion":0,"pct_educ_superior":33,"brecha_educ":-15,"pct_sin_seguro":35,"pct_sus":65,"pct_seguro_privado":0,"brecha_seguro":-8,"pct_salud_publica":25,"pct_med_tradicional":8,"pct_automedicacion":33,"pct_remedios_caseros":24,"pct_viv_desocupada":14,"pct_alquiler":0,"pct_electricidad":83,"pct_sin_electricidad":17,"pct_agua_red":50,"pct_alcantarillado":0,"pct_camara_septica":0,"pct_pozo_ciego":17,"pct_sin_desague":83,"pct_gas_red":0,"pct_gas_garrafa":100,"pct_lena_guano":100,"pct_basura_formal":0,"pct_basura_quema":67,"pct_basura_informal":33,"pct_internet":67,"pct_celular":67,"pct_televisor":17}},{"type":"Feature","geometry":{"type":"Polygon","coordinates":[[[-68.26775,-18.84552],[-68.26763,-18.84501],[-68.26715,-18.84517],[-68.26722,-18.84565],[-68.26775,-18.84552]]]},"properties":{"n":"CAIPANA","p":97,"personas_x_ha":312,"masculinidad":126,"pct_menor20":40,"pct_60mas":5,"pct_migrante":63,"dependencia_econ":96,"pct_empleados":18,"pct_cuentapropia":65,"pct_agricultura":22,"pct_comercio":49,"pct_manufactura":4,"pct_construccion":6,"pct_transporte":2,"pct_alojamiento":2,"pct_sin_educacion":3,"pct_educ_superior":17,"brecha_educ":-19,"pct_sin_seguro":71,"pct_sus":29,"pct_seguro_privado":0,"brecha_seguro":5,"pct_salud_publica":36,"pct_med_tradicional":9,"pct_automedicacion":31,"pct_remedios_caseros":23,"pct_viv_desocupada":0,"pct_alquiler":5,"pct_electricidad":100,"pct_sin_electricidad":0,"pct_agua_red":84,"pct_alcantarillado":0,"pct_camara_septica":5,"pct_pozo_ciego":63,"pct_sin_desague":32,"pct_gas_red":0,"pct_gas_garrafa":100,"pct_lena_guano":100,"pct_basura_formal":0,"pct_basura_quema":79,"pct_basura_informal":21,"pct_internet":89,"pct_celular":95,"pct_televisor":68}},{"type":"Feature","geometry":{"type":"Polygon","coordinates":[[[-68.26755,-18.84455],[-68.26709,-18.84468],[-68.26716,-18.84509],[-68.26762,-18.84493],[-68.26755,-18.84455]]]},"properties":{"n":"CAIPANA","p":74,"personas_x_ha":324,"masculinidad":147,"pct_menor20":43,"pct_60mas":9,"pct_migrante":45,"dependencia_econ":87,"pct_empleados":0,"pct_cuentapropia":54,"pct_agricultura":67,"pct_comercio":13,"pct_manufactura":0,"pct_construccion":13,"pct_transporte":5,"pct_alojamiento":0,"pct_sin_educacion":0,"pct_educ_superior":26,"brecha_educ":-27,"pct_sin_seguro":8,"pct_sus":86,"pct_seguro_privado":0,"brecha_seguro":2,"pct_salud_publica":39,"pct_med_tradicional":9,"pct_automedicacion":24,"pct_remedios_caseros":19,"pct_viv_desocupada":0,"pct_alquiler":0,"pct_electricidad":100,"pct_sin_electricidad":0,"pct_agua_red":100,"pct_alcantarillado":0,"pct_camara_septica":0,"pct_pozo_ciego":20,"pct_sin_desague":80,"pct_gas_red":0,"pct_gas_garrafa":67,"pct_lena_guano":67,"pct_basura_formal":0,"pct_basura_quema":60,"pct_basura_informal":13,"pct_internet":60,"pct_celular":87,"pct_televisor":27}},{"type":"Feature","geometry":{"type":"Polygon","coordinates":[[[-68.26696,-18.84562],[-68.26699,-18.84573],[-68.26717,-18.84567],[-68.26708,-18.8452],[-68.26666,-18.84533],[-68.26679,-18.8458],[-68.26697,-18.84574],[-68.26696,-18.84562]]]},"properties":{"n":"CAIPANA","p":37,"personas_x_ha":158,"masculinidad":164,"pct_menor20":57,"pct_60mas":0,"pct_migrante":27,"dependencia_econ":147,"pct_empleados":13,"pct_cuentapropia":67,"pct_agricultura":47,"pct_comercio":7,"pct_manufactura":0,"pct_construccion":20,"pct_transporte":20,"pct_alojamiento":0,"pct_sin_educacion":0,"pct_educ_superior":29,"brecha_educ":11,"pct_sin_seguro":67,"pct_sus":25,"pct_seguro_privado":0,"brecha_seguro":27,"pct_salud_publica":35,"pct_med_tradicional":10,"pct_automedicacion":29,"pct_remedios_caseros":24,"pct_viv_desocupada":0,"pct_alquiler":0,"pct_electricidad":100,"pct_sin_electricidad":0,"pct_agua_red":75,"pct_alcantarillado":25,"pct_camara_septica":0,"pct_pozo_ciego":0,"pct_sin_desague":75,"pct_gas_red":0,"pct_gas_garrafa":75,"pct_lena_guano":75,"pct_basura_formal":0,"pct_basura_quema":88,"pct_basura_informal":25,"pct_internet":62,"pct_celular":75,"pct_televisor":12}},{"type":"Feature","geometry":{"type":"Polygon","coordinates":[[[-68.26707,-18.84513],[-68.26701,-18.84469],[-68.26651,-18.84488],[-68.26662,-18.84527],[-68.26707,-18.84513]]]},"properties":{"n":"CAIPANA","p":53,"personas_x_ha":207,"masculinidad":71,"pct_menor20":49,"pct_60mas":6,"pct_migrante":74,"dependencia_econ":152,"pct_empleados":19,"pct_cuentapropia":71,"pct_agricultura":48,"pct_comercio":19,"pct_manufactura":0,"pct_construccion":29,"pct_transporte":5,"pct_alojamiento":0,"pct_sin_educacion":0,"pct_educ_superior":10,"brecha_educ":-10,"pct_sin_seguro":54,"pct_sus":44,"pct_seguro_privado":2,"brecha_seguro":-2,"pct_salud_publica":28,"pct_med_tradicional":24,"pct_automedicacion":14,"pct_remedios_caseros":27,"pct_viv_desocupada":0,"pct_alquiler":9,"pct_electricidad":100,"pct_sin_electricidad":0,"pct_agua_red":91,"pct_alcantarillado":0,"pct_camara_septica":9,"pct_pozo_ciego":9,"pct_sin_desague":82,"pct_gas_red":0,"pct_gas_garrafa":55,"pct_lena_guano":55,"pct_basura_formal":9,"pct_basura_quema":64,"pct_basura_informal":18,"pct_internet":73,"pct_celular":82,"pct_televisor":27}},{"type":"Feature","geometry":{"type":"Polygon","coordinates":[[[-68.26659,-18.84651],[-68.26643,-18.84596],[-68.26718,-18.84573],[-68.26732,-18.84636],[-68.2669,-18.84639],[-68.26659,-18.84651]]]},"properties":{"n":"CAIPANA","p":23,"personas_x_ha":44,"masculinidad":64,"pct_menor20":35,"pct_60mas":17,"pct_migrante":65,"dependencia_econ":77,"pct_empleados":0,"pct_cuentapropia":100,"pct_agricultura":31,"pct_comercio":38,"pct_manufactura":0,"pct_construccion":0,"pct_transporte":0,"pct_alojamiento":15,"pct_sin_educacion":7,"pct_educ_superior":13,"brecha_educ":-20,"pct_sin_seguro":65,"pct_sus":30,"pct_seguro_privado":0,"brecha_seguro":-16,"pct_salud_publica":55,"pct_med_tradicional":7,"pct_automedicacion":17,"pct_remedios_caseros":17,"pct_viv_desocupada":0,"pct_alquiler":14,"pct_electricidad":100,"pct_sin_electricidad":0,"pct_agua_red":100,"pct_alcantarillado":0,"pct_camara_septica":14,"pct_pozo_ciego":29,"pct_sin_desague":57,"pct_gas_red":0,"pct_gas_garrafa":86,"pct_lena_guano":86,"pct_basura_formal":0,"pct_basura_quema":100,"pct_basura_informal":0,"pct_internet":100,"pct_celular":100,"pct_televisor":71}},{"type":"Feature","geometry":{"type":"Polygon","coordinates":[[[-68.27084,-18.86398],[-68.27046,-18.86383],[-68.27093,-18.86309],[-68.27122,-18.86324],[-68.27084,-18.86398]]]},"properties":{"n":"CENTRAL","p":26,"personas_x_ha":68,"masculinidad":117,"pct_menor20":31,"pct_60mas":0,"pct_migrante":77,"dependencia_econ":53,"pct_empleados":12,"pct_cuentapropia":47,"pct_agricultura":41,"pct_comercio":29,"pct_manufactura":6,"pct_construccion":12,"pct_transporte":6,"pct_alojamiento":0,"pct_sin_educacion":0,"pct_educ_superior":6,"brecha_educ":10,"pct_sin_seguro":81,"pct_sus":19,"pct_seguro_privado":0,"brecha_seguro":11,"pct_salud_publica":36,"pct_med_tradicional":8,"pct_automedicacion":21,"pct_remedios_caseros":31,"pct_viv_desocupada":0,"pct_alquiler":11,"pct_electricidad":100,"pct_sin_electricidad":0,"pct_agua_red":22,"pct_alcantarillado":0,"pct_camara_septica":22,"pct_pozo_ciego":67,"pct_sin_desague":11,"pct_gas_red":0,"pct_gas_garrafa":100,"pct_lena_guano":100,"pct_basura_formal":0,"pct_basura_quema":67,"pct_basura_informal":44,"pct_internet":78,"pct_celular":78,"pct_televisor":11}},{"type":"Feature","geometry":{"type":"Polygon","coordinates":[[[-68.27237,-18.86419],[-68.27165,-18.864],[-68.27171,-18.8636],[-68.27145,-18.8635],[-68.27162,-18.86316],[-68.27263,-18.86353],[-68.27237,-18.86419]]]},"properties":{"n":"CENTRAL","p":17,"personas_x_ha":21,"masculinidad":70,"pct_menor20":29,"pct_60mas":6,"pct_migrante":47,"dependencia_econ":31,"pct_empleados":0,"pct_cuentapropia":85,"pct_agricultura":85,"pct_comercio":8,"pct_manufactura":0,"pct_construccion":0,"pct_transporte":8,"pct_alojamiento":0,"pct_sin_educacion":0,"pct_educ_superior":0,"brecha_educ":-29,"pct_sin_seguro":53,"pct_sus":47,"pct_seguro_privado":0,"brecha_seguro":-41,"pct_salud_publica":46,"pct_med_tradicional":0,"pct_automedicacion":37,"pct_remedios_caseros":17,"pct_viv_desocupada":0,"pct_alquiler":0,"pct_electricidad":100,"pct_sin_electricidad":0,"pct_agua_red":0,"pct_alcantarillado":0,"pct_camara_septica":0,"pct_pozo_ciego":57,"pct_sin_desague":43,"pct_gas_red":0,"pct_gas_garrafa":57,"pct_lena_guano":57,"pct_basura_formal":0,"pct_basura_quema":71,"pct_basura_informal":0,"pct_internet":71,"pct_celular":100,"pct_televisor":29}},{"type":"Feature","geometry":{"type":"Polygon","coordinates":[[[-68.27241,-18.86338],[-68.27249,-18.86238],[-68.27205,-18.86233],[-68.27164,-18.8631],[-68.27241,-18.86338]]]},"properties":{"n":"CENTRAL","p":34,"personas_x_ha":51,"masculinidad":100,"pct_menor20":41,"pct_60mas":3,"pct_migrante":35,"dependencia_econ":112,"pct_empleados":0,"pct_cuentapropia":6,"pct_agricultura":50,"pct_comercio":31,"pct_manufactura":0,"pct_construccion":0,"pct_transporte":6,"pct_alojamiento":0,"pct_sin_educacion":0,"pct_educ_superior":10,"brecha_educ":-18,"pct_sin_seguro":61,"pct_sus":39,"pct_seguro_privado":0,"brecha_seguro":4,"pct_salud_publica":82,"pct_med_tradicional":0,"pct_automedicacion":0,"pct_remedios_caseros":18,"pct_viv_desocupada":0,"pct_alquiler":0,"pct_electricidad":88,"pct_sin_electricidad":0,"pct_agua_red":25,"pct_alcantarillado":0,"pct_camara_septica":12,"pct_pozo_ciego":12,"pct_sin_desague":75,"pct_gas_red":0,"pct_gas_garrafa":100,"pct_lena_guano":100,"pct_basura_formal":0,"pct_basura_quema":88,"pct_basura_informal":25,"pct_internet":0,"pct_celular":100,"pct_televisor":0}},{"type":"Feature","geometry":{"type":"Polygon","coordinates":[[[-68.23624,-18.90423],[-68.23647,-18.90438],[-68.23611,-18.90594],[-68.23569,-18.90454],[-68.23597,-18.90421],[-68.23624,-18.90423]]]},"properties":{"n":"CHARCOLLO","p":44,"personas_x_ha":52,"masculinidad":91,"pct_menor20":41,"pct_60mas":2,"pct_migrante":52,"dependencia_econ":214,"pct_empleados":7,"pct_cuentapropia":50,"pct_agricultura":64,"pct_comercio":7,"pct_manufactura":0,"pct_construccion":14,"pct_transporte":7,"pct_alojamiento":0,"pct_sin_educacion":0,"pct_educ_superior":15,"brecha_educ":-21,"pct_sin_seguro":61,"pct_sus":39,"pct_seguro_privado":0,"brecha_seguro":-8,"pct_salud_publica":42,"pct_med_tradicional":0,"pct_automedicacion":22,"pct_remedios_caseros":36,"pct_viv_desocupada":0,"pct_alquiler":0,"pct_electricidad":100,"pct_sin_electricidad":0,"pct_agua_red":100,"pct_alcantarillado":0,"pct_camara_septica":0,"pct_pozo_ciego":100,"pct_sin_desague":0,"pct_gas_red":0,"pct_gas_garrafa":100,"pct_lena_guano":100,"pct_basura_formal":0,"pct_basura_quema":71,"pct_basura_informal":0,"pct_internet":100,"pct_celular":100,"pct_televisor":29}},{"type":"Feature","geometry":{"type":"Polygon","coordinates":[[[-68.23602,-18.90649],[-68.23584,-18.90728],[-68.23687,-18.90683],[-68.23661,-18.90625],[-68.23602,-18.90649]]]},"properties":{"n":"CHARCOLLO","p":44,"personas_x_ha":64,"masculinidad":83,"pct_menor20":20,"pct_60mas":14,"pct_migrante":52,"dependencia_econ":39,"pct_empleados":0,"pct_cuentapropia":26,"pct_agricultura":100,"pct_comercio":0,"pct_manufactura":0,"pct_construccion":0,"pct_transporte":0,"pct_alojamiento":0,"pct_sin_educacion":0,"pct_educ_superior":12,"brecha_educ":-18,"pct_sin_seguro":65,"pct_sus":19,"pct_seguro_privado":0,"brecha_seguro":0,"pct_salud_publica":35,"pct_med_tradicional":0,"pct_automedicacion":9,"pct_remedios_caseros":38,"pct_viv_desocupada":0,"pct_alquiler":0,"pct_electricidad":100,"pct_sin_electricidad":0,"pct_agua_red":100,"pct_alcantarillado":0,"pct_camara_septica":0,"pct_pozo_ciego":78,"pct_sin_desague":22,"pct_gas_red":0,"pct_gas_garrafa":100,"pct_lena_guano":100,"pct_basura_formal":0,"pct_basura_quema":11,"pct_basura_informal":22,"pct_internet":11,"pct_celular":100,"pct_televisor":44}},{"type":"Feature","geometry":{"type":"Polygon","coordinates":[[[-68.23723,-18.90772],[-68.23701,-18.90721],[-68.23623,-18.90754],[-68.2364,-18.90796],[-68.23723,-18.90772]]]},"properties":{"n":"CHARCOLLO","p":43,"personas_x_ha":83,"masculinidad":87,"pct_menor20":53,"pct_60mas":5,"pct_migrante":37,"dependencia_econ":139,"pct_empleados":17,"pct_cuentapropia":56,"pct_agricultura":50,"pct_comercio":28,"pct_manufactura":0,"pct_construccion":11,"pct_transporte":0,"pct_alojamiento":0,"pct_sin_educacion":5,"pct_educ_superior":14,"brecha_educ":-33,"pct_sin_seguro":35,"pct_sus":58,"pct_seguro_privado":2,"brecha_seguro":10,"pct_salud_publica":34,"pct_med_tradicional":7,"pct_automedicacion":25,"pct_remedios_caseros":25,"pct_viv_desocupada":0,"pct_alquiler":0,"pct_electricidad":100,"pct_sin_electricidad":0,"pct_agua_red":25,"pct_alcantarillado":0,"pct_camara_septica":12,"pct_pozo_ciego":62,"pct_sin_desague":25,"pct_gas_red":0,"pct_gas_garrafa":100,"pct_lena_guano":100,"pct_basura_formal":25,"pct_basura_quema":75,"pct_basura_informal":0,"pct_internet":50,"pct_celular":100,"pct_televisor":62}},{"type":"Feature","geometry":{"type":"Polygon","coordinates":[[[-68.23831,-18.90667],[-68.23743,-18.90703],[-68.23761,-18.90756],[-68.23848,-18.90733],[-68.23831,-18.90667]]]},"properties":{"n":"CHARCOLLO","p":43,"personas_x_ha":60,"masculinidad":65,"pct_menor20":21,"pct_60mas":12,"pct_migrante":42,"dependencia_econ":43,"pct_empleados":7,"pct_cuentapropia":47,"pct_agricultura":90,"pct_comercio":3,"pct_manufactura":0,"pct_construccion":7,"pct_transporte":0,"pct_alojamiento":0,"pct_sin_educacion":20,"pct_educ_superior":6,"brecha_educ":-44,"pct_sin_seguro":31,"pct_sus":69,"pct_seguro_privado":0,"brecha_seguro":7,"pct_salud_publica":29,"pct_med_tradicional":14,"pct_automedicacion":26,"pct_remedios_caseros":30,"pct_viv_desocupada":0,"pct_alquiler":0,"pct_electricidad":100,"pct_sin_electricidad":0,"pct_agua_red":100,"pct_alcantarillado":0,"pct_camara_septica":22,"pct_pozo_ciego":44,"pct_sin_desague":33,"pct_gas_red":0,"pct_gas_garrafa":78,"pct_lena_guano":78,"pct_basura_formal":0,"pct_basura_quema":56,"pct_basura_informal":0,"pct_internet":100,"pct_celular":100,"pct_televisor":78}},{"type":"Feature","geometry":{"type":"Polygon","coordinates":[[[-68.237,-18.90713],[-68.2369,-18.90689],[-68.23616,-18.90719],[-68.23627,-18.90746],[-68.237,-18.90713]]]},"properties":{"n":"CHARCOLLO","p":39,"personas_x_ha":149,"masculinidad":117,"pct_menor20":41,"pct_60mas":13,"pct_migrante":3,"dependencia_econ":95,"pct_empleados":10,"pct_cuentapropia":90,"pct_agricultura":85,"pct_comercio":0,"pct_manufactura":0,"pct_construccion":0,"pct_transporte":5,"pct_alojamiento":0,"pct_sin_educacion":0,"pct_educ_superior":21,"brecha_educ":2,"pct_sin_seguro":0,"pct_sus":92,"pct_seguro_privado":0,"brecha_seguro":0,"pct_salud_publica":34,"pct_med_tradicional":0,"pct_automedicacion":29,"pct_remedios_caseros":33,"pct_viv_desocupada":0,"pct_alquiler":0,"pct_electricidad":100,"pct_sin_electricidad":0,"pct_agua_red":14,"pct_alcantarillado":0,"pct_camara_septica":14,"pct_pozo_ciego":86,"pct_sin_desague":0,"pct_gas_red":0,"pct_gas_garrafa":100,"pct_lena_guano":100,"pct_basura_formal":14,"pct_basura_quema":86,"pct_basura_informal":0,"pct_internet":100,"pct_celular":100,"pct_televisor":71}},{"type":"Feature","geometry":{"type":"Polygon","coordinates":[[[-68.20875,-18.91563],[-68.20875,-18.91503],[-68.20822,-18.91506],[-68.20823,-18.91564],[-68.20875,-18.91563]]]},"properties":{"n":"COMUNIDAD ROMERO PAMPA","p":32,"personas_x_ha":86,"masculinidad":45,"pct_menor20":47,"pct_60mas":3,"pct_migrante":41,"dependencia_econ":191,"pct_empleados":27,"pct_cuentapropia":73,"pct_agricultura":45,"pct_comercio":45,"pct_manufactura":0,"pct_construccion":0,"pct_transporte":0,"pct_alojamiento":0,"pct_sin_educacion":0,"pct_educ_superior":33,"brecha_educ":-8,"pct_sin_seguro":44,"pct_sus":56,"pct_seguro_privado":0,"brecha_seguro":-20,"pct_salud_publica":67,"pct_med_tradicional":7,"pct_automedicacion":0,"pct_remedios_caseros":24,"pct_viv_desocupada":0,"pct_alquiler":0,"pct_electricidad":100,"pct_sin_electricidad":0,"pct_agua_red":100,"pct_alcantarillado":86,"pct_camara_septica":0,"pct_pozo_ciego":14,"pct_sin_desague":0,"pct_gas_red":0,"pct_gas_garrafa":71,"pct_lena_guano":71,"pct_basura_formal":0,"pct_basura_quema":43,"pct_basura_informal":57,"pct_internet":0,"pct_celular":43,"pct_televisor":0}},{"type":"Feature","geometry":{"type":"Polygon","coordinates":[[[-68.20874,-18.91495],[-68.20873,-18.91457],[-68.20816,-18.91463],[-68.2082,-18.91499],[-68.20874,-18.91495]]]},"properties":{"n":"COMUNIDAD ROMERO PAMPA","p":27,"personas_x_ha":104,"masculinidad":125,"pct_menor20":37,"pct_60mas":7,"pct_migrante":48,"dependencia_econ":93,"pct_empleados":0,"pct_cuentapropia":71,"pct_agricultura":71,"pct_comercio":0,"pct_manufactura":0,"pct_construccion":21,"pct_transporte":7,"pct_alojamiento":0,"pct_sin_educacion":0,"pct_educ_superior":24,"brecha_educ":-51,"pct_sin_seguro":19,"pct_sus":81,"pct_seguro_privado":0,"brecha_seguro":18,"pct_salud_publica":39,"pct_med_tradicional":0,"pct_automedicacion":22,"pct_remedios_caseros":39,"pct_viv_desocupada":12,"pct_alquiler":0,"pct_electricidad":100,"pct_sin_electricidad":0,"pct_agua_red":100,"pct_alcantarillado":100,"pct_camara_septica":0,"pct_pozo_ciego":0,"pct_sin_desague":0,"pct_gas_red":0,"pct_gas_garrafa":86,"pct_lena_guano":86,"pct_basura_formal":0,"pct_basura_quema":86,"pct_basura_informal":0,"pct_internet":86,"pct_celular":86,"pct_televisor":29}},{"type":"Feature","geometry":{"type":"Polygon","coordinates":[[[-68.20655,-18.91508],[-68.20751,-18.91503],[-68.2075,-18.91467],[-68.20654,-18.91472],[-68.20655,-18.91508]]]},"properties":{"n":"COMUNIDAD ROMERO PAMPA","p":31,"personas_x_ha":75,"masculinidad":107,"pct_menor20":55,"pct_60mas":3,"pct_migrante":42,"dependencia_econ":158,"pct_empleados":8,"pct_cuentapropia":75,"pct_agricultura":75,"pct_comercio":0,"pct_manufactura":0,"pct_construccion":17,"pct_transporte":0,"pct_alojamiento":0,"pct_sin_educacion":0,"pct_educ_superior":14,"brecha_educ":-22,"pct_sin_seguro":47,"pct_sus":53,"pct_seguro_privado":0,"brecha_seguro":-13,"pct_salud_publica":24,"pct_med_tradicional":20,"pct_automedicacion":23,"pct_remedios_caseros":26,"pct_viv_desocupada":0,"pct_alquiler":62,"pct_electricidad":100,"pct_sin_electricidad":0,"pct_agua_red":100,"pct_alcantarillado":100,"pct_camara_septica":0,"pct_pozo_ciego":0,"pct_sin_desague":0,"pct_gas_red":0,"pct_gas_garrafa":62,"pct_lena_guano":62,"pct_basura_formal":0,"pct_basura_quema":62,"pct_basura_informal":0,"pct_internet":75,"pct_celular":100,"pct_televisor":12}},{"type":"Feature","geometry":{"type":"Polygon","coordinates":[[[-68.2096,-18.91492],[-68.2096,-18.91454],[-68.20925,-18.91453],[-68.20926,-18.91493],[-68.2096,-18.91492]]]},"properties":{"n":"COMUNIDAD ROMERO PAMPA","p":39,"personas_x_ha":241,"masculinidad":86,"pct_menor20":28,"pct_60mas":8,"pct_migrante":0,"dependencia_econ":27,"pct_empleados":0,"pct_cuentapropia":90,"pct_agricultura":100,"pct_comercio":0,"pct_manufactura":0,"pct_construccion":0,"pct_transporte":0,"pct_alojamiento":0,"pct_sin_educacion":0,"pct_educ_superior":0,"brecha_educ":-19,"pct_sin_seguro":22,"pct_sus":78,"pct_seguro_privado":0,"brecha_seguro":-6,"pct_salud_publica":37,"pct_med_tradicional":22,"pct_automedicacion":1,"pct_remedios_caseros":37,"pct_viv_desocupada":0,"pct_alquiler":0,"pct_electricidad":100,"pct_sin_electricidad":0,"pct_agua_red":90,"pct_alcantarillado":100,"pct_camara_septica":0,"pct_pozo_ciego":0,"pct_sin_desague":0,"pct_gas_red":0,"pct_gas_garrafa":100,"pct_lena_guano":100,"pct_basura_formal":0,"pct_basura_quema":100,"pct_basura_informal":0,"pct_internet":100,"pct_celular":100,"pct_televisor":80}},{"type":"Feature","geometry":{"type":"Polygon","coordinates":[[[-68.20874,-18.91362],[-68.20813,-18.91363],[-68.20813,-18.91407],[-68.20874,-18.91409],[-68.20874,-18.91362]]]},"properties":{"n":"COMUNIDAD ROMERO PAMPA","p":42,"personas_x_ha":123,"masculinidad":68,"pct_menor20":40,"pct_60mas":7,"pct_migrante":26,"dependencia_econ":250,"pct_empleados":0,"pct_cuentapropia":50,"pct_agricultura":92,"pct_comercio":0,"pct_manufactura":8,"pct_construccion":0,"pct_transporte":0,"pct_alojamiento":0,"pct_sin_educacion":0,"pct_educ_superior":12,"brecha_educ":5,"pct_sin_seguro":74,"pct_sus":26,"pct_seguro_privado":0,"brecha_seguro":2,"pct_salud_publica":32,"pct_med_tradicional":23,"pct_automedicacion":3,"pct_remedios_caseros":27,"pct_viv_desocupada":0,"pct_alquiler":0,"pct_electricidad":100,"pct_sin_electricidad":0,"pct_agua_red":62,"pct_alcantarillado":100,"pct_camara_septica":0,"pct_pozo_ciego":0,"pct_sin_desague":0,"pct_gas_red":0,"pct_gas_garrafa":88,"pct_lena_guano":88,"pct_basura_formal":0,"pct_basura_quema":75,"pct_basura_informal":0,"pct_internet":62,"pct_celular":62,"pct_televisor":38}},{"type":"Feature","geometry":{"type":"Polygon","coordinates":[[[-68.21009,-18.91265],[-68.20981,-18.91242],[-68.20924,-18.91243],[-68.20927,-18.91354],[-68.20959,-18.91354],[-68.20958,-18.91327],[-68.20964,-18.91327],[-68.20968,-18.91354],[-68.21012,-18.91353],[-68.21009,-18.91265]]]},"properties":{"n":"COMUNIDAD ROMERO PAMPA","p":31,"personas_x_ha":29,"masculinidad":94,"pct_menor20":39,"pct_60mas":13,"pct_migrante":39,"dependencia_econ":41,"pct_empleados":0,"pct_cuentapropia":82,"pct_agricultura":91,"pct_comercio":0,"pct_manufactura":0,"pct_construccion":0,"pct_transporte":0,"pct_alojamiento":0,"pct_sin_educacion":0,"pct_educ_superior":20,"brecha_educ":-5,"pct_sin_seguro":72,"pct_sus":28,"pct_seguro_privado":0,"brecha_seguro":-2,"pct_salud_publica":33,"pct_med_tradicional":0,"pct_automedicacion":33,"pct_remedios_caseros":34,"pct_viv_desocupada":12,"pct_alquiler":0,"pct_electricidad":86,"pct_sin_electricidad":14,"pct_agua_red":100,"pct_alcantarillado":71,"pct_camara_septica":0,"pct_pozo_ciego":0,"pct_sin_desague":29,"pct_gas_red":0,"pct_gas_garrafa":100,"pct_lena_guano":100,"pct_basura_formal":0,"pct_basura_quema":100,"pct_basura_informal":0,"pct_internet":86,"pct_celular":86,"pct_televisor":43}},{"type":"Feature","geometry":{"type":"Polygon","coordinates":[[[-68.2833,-18.84642],[-68.28329,-18.84611],[-68.28253,-18.84611],[-68.2826,-18.84637],[-68.2833,-18.84642]]]},"properties":{"n":"ESMERALDA","p":37,"personas_x_ha":139,"masculinidad":106,"pct_menor20":27,"pct_60mas":8,"pct_migrante":70,"dependencia_econ":85,"pct_empleados":45,"pct_cuentapropia":40,"pct_agricultura":50,"pct_comercio":10,"pct_manufactura":0,"pct_construccion":25,"pct_transporte":0,"pct_alojamiento":0,"pct_sin_educacion":0,"pct_educ_superior":11,"brecha_educ":17,"pct_sin_seguro":55,"pct_sus":45,"pct_seguro_privado":0,"brecha_seguro":21,"pct_salud_publica":62,"pct_med_tradicional":5,"pct_automedicacion":0,"pct_remedios_caseros":33,"pct_viv_desocupada":0,"pct_alquiler":0,"pct_electricidad":100,"pct_sin_electricidad":0,"pct_agua_red":100,"pct_alcantarillado":11,"pct_camara_septica":22,"pct_pozo_ciego":33,"pct_sin_desague":33,"pct_gas_red":0,"pct_gas_garrafa":78,"pct_lena_guano":78,"pct_basura_formal":0,"pct_basura_quema":11,"pct_basura_informal":0,"pct_internet":11,"pct_celular":67,"pct_televisor":44}},{"type":"Feature","geometry":{"type":"Polygon","coordinates":[[[-68.28371,-18.8457],[-68.28341,-18.84567],[-68.28338,-18.84606],[-68.28369,-18.84607],[-68.28371,-18.8457]]]},"properties":{"n":"ESMERALDA","p":42,"personas_x_ha":292,"masculinidad":91,"pct_menor20":33,"pct_60mas":0,"pct_migrante":81,"dependencia_econ":91,"pct_empleados":23,"pct_cuentapropia":68,"pct_agricultura":41,"pct_comercio":41,"pct_manufactura":0,"pct_construccion":5,"pct_transporte":5,"pct_alojamiento":0,"pct_sin_educacion":0,"pct_educ_superior":7,"brecha_educ":0,"pct_sin_seguro":17,"pct_sus":83,"pct_seguro_privado":0,"brecha_seguro":16,"pct_salud_publica":33,"pct_med_tradicional":9,"pct_automedicacion":13,"pct_remedios_caseros":27,"pct_viv_desocupada":0,"pct_alquiler":14,"pct_electricidad":86,"pct_sin_electricidad":14,"pct_agua_red":100,"pct_alcantarillado":14,"pct_camara_septica":14,"pct_pozo_ciego":57,"pct_sin_desague":14,"pct_gas_red":0,"pct_gas_garrafa":100,"pct_lena_guano":100,"pct_basura_formal":0,"pct_basura_quema":100,"pct_basura_informal":0,"pct_internet":86,"pct_celular":100,"pct_televisor":100}},{"type":"Feature","geometry":{"type":"Polygon","coordinates":[[[-68.28327,-18.84684],[-68.28329,-18.84648],[-68.28291,-18.84645],[-68.28292,-18.84681],[-68.28327,-18.84684]]]},"properties":{"n":"ESMERALDA","p":38,"personas_x_ha":244,"masculinidad":124,"pct_menor20":24,"pct_60mas":11,"pct_migrante":82,"dependencia_econ":124,"pct_empleados":53,"pct_cuentapropia":29,"pct_agricultura":18,"pct_comercio":29,"pct_manufactura":6,"pct_construccion":12,"pct_transporte":12,"pct_alojamiento":0,"pct_sin_educacion":0,"pct_educ_superior":30,"brecha_educ":-6,"pct_sin_seguro":80,"pct_sus":20,"pct_seguro_privado":0,"brecha_seguro":7,"pct_salud_publica":65,"pct_med_tradicional":0,"pct_automedicacion":0,"pct_remedios_caseros":30,"pct_viv_desocupada":0,"pct_alquiler":0,"pct_electricidad":100,"pct_sin_electricidad":0,"pct_agua_red":100,"pct_alcantarillado":0,"pct_camara_septica":14,"pct_pozo_ciego":86,"pct_sin_desague":0,"pct_gas_red":0,"pct_gas_garrafa":100,"pct_lena_guano":100,"pct_basura_formal":0,"pct_basura_quema":0,"pct_basura_informal":57,"pct_internet":0,"pct_celular":71,"pct_televisor":29}},{"type":"Feature","geometry":{"type":"Polygon","coordinates":[[[-67.93984,-18.92877],[-67.94002,-18.92831],[-67.93976,-18.92823],[-67.93958,-18.92869],[-67.93984,-18.92877]]]},"properties":{"n":"PIÑA PIÑANI","p":42,"personas_x_ha":269,"masculinidad":75,"pct_menor20":43,"pct_60mas":0,"pct_migrante":86,"dependencia_econ":91,"pct_empleados":27,"pct_cuentapropia":45,"pct_agricultura":59,"pct_comercio":23,"pct_manufactura":0,"pct_construccion":0,"pct_transporte":0,"pct_alojamiento":0,"pct_sin_educacion":0,"pct_educ_superior":29,"brecha_educ":-11,"pct_sin_seguro":79,"pct_sus":21,"pct_seguro_privado":0,"brecha_seguro":-5,"pct_salud_publica":33,"pct_med_tradicional":14,"pct_automedicacion":17,"pct_remedios_caseros":28,"pct_viv_desocupada":0,"pct_alquiler":0,"pct_electricidad":90,"pct_sin_electricidad":0,"pct_agua_red":30,"pct_alcantarillado":0,"pct_camara_septica":0,"pct_pozo_ciego":0,"pct_sin_desague":100,"pct_gas_red":0,"pct_gas_garrafa":90,"pct_lena_guano":90,"pct_basura_formal":0,"pct_basura_quema":80,"pct_basura_informal":20,"pct_internet":30,"pct_celular":40,"pct_televisor":10}},{"type":"Feature","geometry":{"type":"Polygon","coordinates":[[[-67.93966,-18.9283],[-67.93883,-18.92803],[-67.93866,-18.92838],[-67.93951,-18.92867],[-67.93966,-18.9283]]]},"properties":{"n":"PIÑA PIÑANI","p":51,"personas_x_ha":124,"masculinidad":70,"pct_menor20":39,"pct_60mas":6,"pct_migrante":78,"dependencia_econ":55,"pct_empleados":3,"pct_cuentapropia":67,"pct_agricultura":76,"pct_comercio":18,"pct_manufactura":0,"pct_construccion":0,"pct_transporte":3,"pct_alojamiento":0,"pct_sin_educacion":12,"pct_educ_superior":9,"brecha_educ":-5,"pct_sin_seguro":57,"pct_sus":43,"pct_seguro_privado":0,"brecha_seguro":0,"pct_salud_publica":30,"pct_med_tradicional":24,"pct_automedicacion":9,"pct_remedios_caseros":33,"pct_viv_desocupada":0,"pct_alquiler":0,"pct_electricidad":100,"pct_sin_electricidad":0,"pct_agua_red":44,"pct_alcantarillado":0,"pct_camara_septica":0,"pct_pozo_ciego":12,"pct_sin_desague":88,"pct_gas_red":0,"pct_gas_garrafa":31,"pct_lena_guano":38,"pct_basura_formal":0,"pct_basura_quema":81,"pct_basura_informal":25,"pct_internet":56,"pct_celular":100,"pct_televisor":0}},{"type":"Feature","geometry":{"type":"Polygon","coordinates":[[[-67.93937,-18.92908],[-67.93862,-18.92884],[-67.93847,-18.92919],[-67.93904,-18.92939],[-67.93907,-18.92932],[-67.93927,-18.92935],[-67.93937,-18.92908]]]},"properties":{"n":"PIÑA PIÑANI","p":33,"personas_x_ha":94,"masculinidad":106,"pct_menor20":27,"pct_60mas":18,"pct_migrante":94,"dependencia_econ":57,"pct_empleados":19,"pct_cuentapropia":57,"pct_agricultura":48,"pct_comercio":29,"pct_manufactura":0,"pct_construccion":19,"pct_transporte":0,"pct_alojamiento":5,"pct_sin_educacion":0,"pct_educ_superior":4,"brecha_educ":-17,"pct_sin_seguro":67,"pct_sus":30,"pct_seguro_privado":0,"brecha_seguro":8,"pct_salud_publica":31,"pct_med_tradicional":28,"pct_automedicacion":5,"pct_remedios_caseros":29,"pct_viv_desocupada":0,"pct_alquiler":0,"pct_electricidad":57,"pct_sin_electricidad":0,"pct_agua_red":29,"pct_alcantarillado":0,"pct_camara_septica":0,"pct_pozo_ciego":29,"pct_sin_desague":71,"pct_gas_red":0,"pct_gas_garrafa":43,"pct_lena_guano":43,"pct_basura_formal":0,"pct_basura_quema":100,"pct_basura_informal":0,"pct_internet":0,"pct_celular":100,"pct_televisor":43}},{"type":"Feature","geometry":{"type":"Polygon","coordinates":[[[-67.93867,-18.92848],[-67.93858,-18.92874],[-67.93939,-18.92902],[-67.93949,-18.92875],[-67.93867,-18.92848]]]},"properties":{"n":"PIÑA PIÑANI","p":62,"personas_x_ha":214,"masculinidad":100,"pct_menor20":31,"pct_60mas":3,"pct_migrante":89,"dependencia_econ":68,"pct_empleados":16,"pct_cuentapropia":59,"pct_agricultura":65,"pct_comercio":22,"pct_manufactura":0,"pct_construccion":14,"pct_transporte":0,"pct_alojamiento":0,"pct_sin_educacion":2,"pct_educ_superior":16,"brecha_educ":-14,"pct_sin_seguro":57,"pct_sus":43,"pct_seguro_privado":0,"brecha_seguro":-1,"pct_salud_publica":44,"pct_med_tradicional":2,"pct_automedicacion":3,"pct_remedios_caseros":46,"pct_viv_desocupada":0,"pct_alquiler":5,"pct_electricidad":84,"pct_sin_electricidad":11,"pct_agua_red":21,"pct_alcantarillado":0,"pct_camara_septica":0,"pct_pozo_ciego":5,"pct_sin_desague":95,"pct_gas_red":0,"pct_gas_garrafa":53,"pct_lena_guano":53,"pct_basura_formal":0,"pct_basura_quema":84,"pct_basura_informal":0,"pct_internet":11,"pct_celular":79,"pct_televisor":32}},{"type":"Feature","geometry":{"type":"Polygon","coordinates":[[[-68.25206,-18.88225],[-68.25254,-18.88297],[-68.25311,-18.8826],[-68.25263,-18.88192],[-68.25206,-18.88225]]]},"properties":{"n":"TIKA BELEN","p":50,"personas_x_ha":73,"masculinidad":67,"pct_menor20":36,"pct_60mas":2,"pct_migrante":22,"dependencia_econ":117,"pct_empleados":13,"pct_cuentapropia":78,"pct_agricultura":48,"pct_comercio":13,"pct_manufactura":9,"pct_construccion":9,"pct_transporte":4,"pct_alojamiento":0,"pct_sin_educacion":6,"pct_educ_superior":31,"brecha_educ":-17,"pct_sin_seguro":4,"pct_sus":88,"pct_seguro_privado":0,"brecha_seguro":2,"pct_salud_publica":36,"pct_med_tradicional":12,"pct_automedicacion":12,"pct_remedios_caseros":35,"pct_viv_desocupada":0,"pct_alquiler":0,"pct_electricidad":80,"pct_sin_electricidad":20,"pct_agua_red":100,"pct_alcantarillado":0,"pct_camara_septica":13,"pct_pozo_ciego":60,"pct_sin_desague":27,"pct_gas_red":0,"pct_gas_garrafa":73,"pct_lena_guano":73,"pct_basura_formal":0,"pct_basura_quema":73,"pct_basura_informal":53,"pct_internet":73,"pct_celular":93,"pct_televisor":27}},{"type":"Feature","geometry":{"type":"Polygon","coordinates":[[[-68.25144,-18.88365],[-68.25216,-18.88321],[-68.25171,-18.88245],[-68.25105,-18.88305],[-68.25144,-18.88365]]]},"properties":{"n":"TIKA BELEN","p":60,"personas_x_ha":69,"masculinidad":140,"pct_menor20":40,"pct_60mas":5,"pct_migrante":8,"dependencia_econ":67,"pct_empleados":6,"pct_cuentapropia":78,"pct_agricultura":81,"pct_comercio":11,"pct_manufactura":0,"pct_construccion":0,"pct_transporte":0,"pct_alojamiento":0,"pct_sin_educacion":13,"pct_educ_superior":24,"brecha_educ":-6,"pct_sin_seguro":38,"pct_sus":57,"pct_seguro_privado":2,"brecha_seguro":-3,"pct_salud_publica":62,"pct_med_tradicional":1,"pct_automedicacion":0,"pct_remedios_caseros":22,"pct_viv_desocupada":0,"pct_alquiler":0,"pct_electricidad":100,"pct_sin_electricidad":0,"pct_agua_red":46,"pct_alcantarillado":8,"pct_camara_septica":15,"pct_pozo_ciego":69,"pct_sin_desague":8,"pct_gas_red":8,"pct_gas_garrafa":69,"pct_lena_guano":69,"pct_basura_formal":15,"pct_basura_quema":54,"pct_basura_informal":0,"pct_internet":31,"pct_celular":62,"pct_televisor":23}},{"type":"Feature","geometry":{"type":"Polygon","coordinates":[[[-68.25157,-18.88217],[-68.25182,-18.88201],[-68.2515,-18.88159],[-68.25122,-18.88177],[-68.25157,-18.88217]]]},"properties":{"n":"TIKA BELEN","p":35,"personas_x_ha":172,"masculinidad":67,"pct_menor20":37,"pct_60mas":17,"pct_migrante":54,"dependencia_econ":94,"pct_empleados":12,"pct_cuentapropia":81,"pct_agricultura":69,"pct_comercio":0,"pct_manufactura":0,"pct_construccion":6,"pct_transporte":0,"pct_alojamiento":0,"pct_sin_educacion":0,"pct_educ_superior":18,"brecha_educ":-27,"pct_sin_seguro":7,"pct_sus":83,"pct_seguro_privado":3,"brecha_seguro":-11,"pct_salud_publica":31,"pct_med_tradicional":25,"pct_automedicacion":5,"pct_remedios_caseros":26,"pct_viv_desocupada":0,"pct_alquiler":0,"pct_electricidad":100,"pct_sin_electricidad":0,"pct_agua_red":100,"pct_alcantarillado":12,"pct_camara_septica":12,"pct_pozo_ciego":75,"pct_sin_desague":0,"pct_gas_red":0,"pct_gas_garrafa":100,"pct_lena_guano":100,"pct_basura_formal":0,"pct_basura_quema":25,"pct_basura_informal":0,"pct_internet":75,"pct_celular":75,"pct_televisor":62}},{"type":"Feature","geometry":{"type":"Polygon","coordinates":[[[-68.25319,-18.8827],[-68.25374,-18.88343],[-68.25328,-18.88372],[-68.25183,-18.88442],[-68.25144,-18.8838],[-68.25319,-18.8827]]]},"properties":{"n":"TIKA BELEN","p":44,"personas_x_ha":20,"masculinidad":83,"pct_menor20":41,"pct_60mas":5,"pct_migrante":9,"dependencia_econ":126,"pct_empleados":0,"pct_cuentapropia":84,"pct_agricultura":84,"pct_comercio":5,"pct_manufactura":0,"pct_construccion":5,"pct_transporte":0,"pct_alojamiento":0,"pct_sin_educacion":0,"pct_educ_superior":11,"brecha_educ":-22,"pct_sin_seguro":12,"pct_sus":88,"pct_seguro_privado":0,"brecha_seguro":-2,"pct_salud_publica":96,"pct_med_tradicional":0,"pct_automedicacion":2,"pct_remedios_caseros":2,"pct_viv_desocupada":0,"pct_alquiler":0,"pct_electricidad":100,"pct_sin_electricidad":0,"pct_agua_red":100,"pct_alcantarillado":0,"pct_camara_septica":0,"pct_pozo_ciego":80,"pct_sin_desague":20,"pct_gas_red":0,"pct_gas_garrafa":100,"pct_lena_guano":100,"pct_basura_formal":0,"pct_basura_quema":60,"pct_basura_informal":40,"pct_internet":0,"pct_celular":50,"pct_televisor":30}},{"type":"Feature","geometry":{"type":"Polygon","coordinates":[[[-68.25315,-18.88172],[-68.25268,-18.8819],[-68.25318,-18.88258],[-68.25354,-18.88235],[-68.25315,-18.88172]]]},"properties":{"n":"TIKA BELEN","p":113,"personas_x_ha":254,"masculinidad":102,"pct_menor20":32,"pct_60mas":3,"pct_migrante":12,"dependencia_econ":160,"pct_empleados":7,"pct_cuentapropia":67,"pct_agricultura":47,"pct_comercio":28,"pct_manufactura":9,"pct_construccion":0,"pct_transporte":7,"pct_alojamiento":0,"pct_sin_educacion":0,"pct_educ_superior":20,"brecha_educ":-19,"pct_sin_seguro":8,"pct_sus":92,"pct_seguro_privado":0,"brecha_seguro":1,"pct_salud_publica":43,"pct_med_tradicional":5,"pct_automedicacion":11,"pct_remedios_caseros":36,"pct_viv_desocupada":0,"pct_alquiler":0,"pct_electricidad":95,"pct_sin_electricidad":5,"pct_agua_red":100,"pct_alcantarillado":14,"pct_camara_septica":50,"pct_pozo_ciego":27,"pct_sin_desague":9,"pct_gas_red":0,"pct_gas_garrafa":73,"pct_lena_guano":73,"pct_basura_formal":0,"pct_basura_quema":91,"pct_basura_informal":0,"pct_internet":68,"pct_celular":77,"pct_televisor":27}},{"type":"Feature","geometry":{"type":"Polygon","coordinates":[[[-68.25459,-18.88171],[-68.25415,-18.88123],[-68.25319,-18.88168],[-68.2536,-18.88232],[-68.25459,-18.88171]]]},"properties":{"n":"TIKA BELEN","p":55,"personas_x_ha":60,"masculinidad":72,"pct_menor20":42,"pct_60mas":5,"pct_migrante":16,"dependencia_econ":90,"pct_empleados":14,"pct_cuentapropia":34,"pct_agricultura":62,"pct_comercio":17,"pct_manufactura":14,"pct_construccion":0,"pct_transporte":0,"pct_alojamiento":0,"pct_sin_educacion":3,"pct_educ_superior":24,"brecha_educ":-8,"pct_sin_seguro":2,"pct_sus":98,"pct_seguro_privado":0,"brecha_seguro":-3,"pct_salud_publica":69,"pct_med_tradicional":6,"pct_automedicacion":7,"pct_remedios_caseros":15,"pct_viv_desocupada":0,"pct_alquiler":0,"pct_electricidad":100,"pct_sin_electricidad":0,"pct_agua_red":90,"pct_alcantarillado":30,"pct_camara_septica":0,"pct_pozo_ciego":50,"pct_sin_desague":10,"pct_gas_red":0,"pct_gas_garrafa":90,"pct_lena_guano":90,"pct_basura_formal":0,"pct_basura_quema":30,"pct_basura_informal":20,"pct_internet":10,"pct_celular":10,"pct_televisor":70}},{"type":"Feature","geometry":{"type":"Polygon","coordinates":[[[-68.25239,-18.88159],[-68.25214,-18.88126],[-68.25165,-18.88171],[-68.25186,-18.88198],[-68.25239,-18.88159]]]},"properties":{"n":"TIKA BELEN","p":16,"personas_x_ha":54,"masculinidad":129,"pct_menor20":25,"pct_60mas":0,"pct_migrante":75,"dependencia_econ":45,"pct_empleados":64,"pct_cuentapropia":36,"pct_agricultura":9,"pct_comercio":9,"pct_manufactura":45,"pct_construccion":0,"pct_transporte":0,"pct_alojamiento":0,"pct_sin_educacion":0,"pct_educ_superior":83,"brecha_educ":-20,"pct_sin_seguro":31,"pct_sus":69,"pct_seguro_privado":0,"brecha_seguro":5,"pct_salud_publica":30,"pct_med_tradicional":0,"pct_automedicacion":26,"pct_remedios_caseros":32,"pct_viv_desocupada":0,"pct_alquiler":0,"pct_electricidad":100,"pct_sin_electricidad":0,"pct_agua_red":100,"pct_alcantarillado":0,"pct_camara_septica":60,"pct_pozo_ciego":0,"pct_sin_desague":40,"pct_gas_red":0,"pct_gas_garrafa":100,"pct_lena_guano":100,"pct_basura_formal":0,"pct_basura_quema":40,"pct_basura_informal":0,"pct_internet":100,"pct_celular":100,"pct_televisor":40}},{"type":"Feature","geometry":{"type":"Polygon","coordinates":[[[-68.25363,-18.88246],[-68.25325,-18.88267],[-68.25379,-18.88339],[-68.25411,-18.88318],[-68.25363,-18.88246]]]},"properties":{"n":"TIKA BELEN","p":34,"personas_x_ha":78,"masculinidad":70,"pct_menor20":21,"pct_60mas":9,"pct_migrante":44,"dependencia_econ":26,"pct_empleados":0,"pct_cuentapropia":100,"pct_agricultura":44,"pct_comercio":15,"pct_manufactura":15,"pct_construccion":0,"pct_transporte":0,"pct_alojamiento":0,"pct_sin_educacion":0,"pct_educ_superior":41,"brecha_educ":12,"pct_sin_seguro":24,"pct_sus":76,"pct_seguro_privado":0,"brecha_seguro":6,"pct_salud_publica":100,"pct_med_tradicional":0,"pct_automedicacion":0,"pct_remedios_caseros":0,"pct_viv_desocupada":0,"pct_alquiler":0,"pct_electricidad":100,"pct_sin_electricidad":0,"pct_agua_red":100,"pct_alcantarillado":0,"pct_camara_septica":0,"pct_pozo_ciego":100,"pct_sin_desague":0,"pct_gas_red":0,"pct_gas_garrafa":100,"pct_lena_guano":100,"pct_basura_formal":0,"pct_basura_quema":100,"pct_basura_informal":0,"pct_internet":12,"pct_celular":62,"pct_televisor":62}},{"type":"Feature","geometry":{"type":"Polygon","coordinates":[[[-68.25265,-18.88184],[-68.25309,-18.88167],[-68.25285,-18.8813],[-68.25247,-18.88159],[-68.25265,-18.88184]]]},"properties":{"n":"TIKA BELEN","p":30,"personas_x_ha":136,"masculinidad":76,"pct_menor20":37,"pct_60mas":13,"pct_migrante":0,"dependencia_econ":59,"pct_empleados":12,"pct_cuentapropia":47,"pct_agricultura":88,"pct_comercio":6,"pct_manufactura":0,"pct_construccion":0,"pct_transporte":0,"pct_alojamiento":0,"pct_sin_educacion":0,"pct_educ_superior":6,"brecha_educ":-8,"pct_sin_seguro":11,"pct_sus":89,"pct_seguro_privado":0,"brecha_seguro":10,"pct_salud_publica":33,"pct_med_tradicional":15,"pct_automedicacion":15,"pct_remedios_caseros":15,"pct_viv_desocupada":0,"pct_alquiler":0,"pct_electricidad":100,"pct_sin_electricidad":0,"pct_agua_red":100,"pct_alcantarillado":0,"pct_camara_septica":0,"pct_pozo_ciego":100,"pct_sin_desague":0,"pct_gas_red":0,"pct_gas_garrafa":71,"pct_lena_guano":71,"pct_basura_formal":0,"pct_basura_quema":100,"pct_basura_informal":0,"pct_internet":0,"pct_celular":14,"pct_televisor":43}}]}