{"type":"FeatureCollection","features":[{"type":"Feature","geometry":{"type":"Polygon","coordinates":[[[-67.26956,-18.9697],[-67.26841,-18.97026],[-67.26855,-18.97055],[-67.26915,-18.97022],[-67.2696,-18.96976],[-67.26956,-18.9697]]]},"properties":{"n":"AGUA CRUZ ICHUCOLLO","p":41,"personas_x_ha":92,"masculinidad":95,"pct_menor20":22,"pct_60mas":27,"pct_migrante":7,"dependencia_econ":70,"pct_empleados":4,"pct_cuentapropia":61,"pct_agricultura":74,"pct_comercio":9,"pct_manufactura":0,"pct_construccion":4,"pct_transporte":0,"pct_alojamiento":0,"pct_sin_educacion":7,"pct_educ_superior":10,"brecha_educ":-40,"pct_sin_seguro":11,"pct_sus":86,"pct_seguro_privado":0,"brecha_seguro":20,"pct_salud_publica":28,"pct_med_tradicional":23,"pct_automedicacion":13,"pct_remedios_caseros":27,"pct_viv_desocupada":0,"pct_alquiler":0,"pct_electricidad":83,"pct_sin_electricidad":17,"pct_agua_red":17,"pct_alcantarillado":0,"pct_camara_septica":0,"pct_pozo_ciego":0,"pct_sin_desague":100,"pct_gas_red":0,"pct_gas_garrafa":75,"pct_lena_guano":25,"pct_basura_formal":0,"pct_basura_quema":100,"pct_basura_informal":0,"pct_internet":33,"pct_celular":58,"pct_televisor":33}},{"type":"Feature","geometry":{"type":"Polygon","coordinates":[[[-67.50599,-18.77898],[-67.50576,-18.77981],[-67.50651,-18.77991],[-67.50677,-18.77913],[-67.50599,-18.77898]]]},"properties":{"n":"ANDAMARCA","p":17,"personas_x_ha":22,"masculinidad":183,"pct_menor20":24,"pct_60mas":18,"pct_migrante":29,"dependencia_econ":55,"pct_empleados":36,"pct_cuentapropia":64,"pct_agricultura":18,"pct_comercio":55,"pct_manufactura":0,"pct_construccion":18,"pct_transporte":0,"pct_alojamiento":0,"pct_sin_educacion":0,"pct_educ_superior":15,"brecha_educ":-7,"pct_sin_seguro":12,"pct_sus":88,"pct_seguro_privado":0,"brecha_seguro":-11,"pct_salud_publica":26,"pct_med_tradicional":25,"pct_automedicacion":0,"pct_remedios_caseros":25,"pct_viv_desocupada":6,"pct_alquiler":0,"pct_electricidad":100,"pct_sin_electricidad":0,"pct_agua_red":100,"pct_alcantarillado":100,"pct_camara_septica":0,"pct_pozo_ciego":0,"pct_sin_desague":0,"pct_gas_red":0,"pct_gas_garrafa":100,"pct_lena_guano":0,"pct_basura_formal":75,"pct_basura_quema":25,"pct_basura_informal":0,"pct_internet":100,"pct_celular":100,"pct_televisor":75}},{"type":"Feature","geometry":{"type":"Polygon","coordinates":[[[-67.50624,-18.77811],[-67.50601,-18.7789],[-67.50681,-18.77906],[-67.50707,-18.77825],[-67.50624,-18.77811]]]},"properties":{"n":"ANDAMARCA","p":19,"personas_x_ha":23,"masculinidad":138,"pct_menor20":21,"pct_60mas":37,"pct_migrante":37,"dependencia_econ":90,"pct_empleados":40,"pct_cuentapropia":30,"pct_agricultura":20,"pct_comercio":10,"pct_manufactura":0,"pct_construccion":0,"pct_transporte":0,"pct_alojamiento":20,"pct_sin_educacion":0,"pct_educ_superior":33,"brecha_educ":-22,"pct_sin_seguro":35,"pct_sus":53,"pct_seguro_privado":6,"brecha_seguro":36,"pct_salud_publica":23,"pct_med_tradicional":14,"pct_automedicacion":20,"pct_remedios_caseros":26,"pct_viv_desocupada":0,"pct_alquiler":10,"pct_electricidad":90,"pct_sin_electricidad":10,"pct_agua_red":80,"pct_alcantarillado":60,"pct_camara_septica":10,"pct_pozo_ciego":0,"pct_sin_desague":30,"pct_gas_red":10,"pct_gas_garrafa":70,"pct_lena_guano":10,"pct_basura_formal":70,"pct_basura_quema":30,"pct_basura_informal":0,"pct_internet":50,"pct_celular":100,"pct_televisor":30}},{"type":"Feature","geometry":{"type":"Polygon","coordinates":[[[-67.50514,-18.77729],[-67.50522,-18.77713],[-67.50427,-18.77695],[-67.50414,-18.7771],[-67.50514,-18.77729]]]},"properties":{"n":"ANDAMARCA","p":16,"personas_x_ha":75,"masculinidad":45,"pct_menor20":62,"pct_60mas":0,"pct_migrante":50,"dependencia_econ":100,"pct_empleados":50,"pct_cuentapropia":38,"pct_agricultura":12,"pct_comercio":25,"pct_manufactura":0,"pct_construccion":12,"pct_transporte":0,"pct_alojamiento":12,"pct_sin_educacion":0,"pct_educ_superior":71,"brecha_educ":-20,"pct_sin_seguro":0,"pct_sus":69,"pct_seguro_privado":0,"brecha_seguro":0,"pct_salud_publica":20,"pct_med_tradicional":13,"pct_automedicacion":23,"pct_remedios_caseros":25,"pct_viv_desocupada":12,"pct_alquiler":0,"pct_electricidad":75,"pct_sin_electricidad":25,"pct_agua_red":50,"pct_alcantarillado":100,"pct_camara_septica":0,"pct_pozo_ciego":0,"pct_sin_desague":0,"pct_gas_red":0,"pct_gas_garrafa":100,"pct_lena_guano":0,"pct_basura_formal":25,"pct_basura_quema":25,"pct_basura_informal":0,"pct_internet":100,"pct_celular":100,"pct_televisor":50}},{"type":"Feature","geometry":{"type":"Polygon","coordinates":[[[-67.50884,-18.7786],[-67.51006,-18.77883],[-67.50989,-18.77961],[-67.50868,-18.77943],[-67.50884,-18.7786]]]},"properties":{"n":"ANDAMARCA","p":22,"personas_x_ha":18,"masculinidad":120,"pct_menor20":59,"pct_60mas":5,"pct_migrante":32,"dependencia_econ":214,"pct_empleados":43,"pct_cuentapropia":57,"pct_agricultura":29,"pct_comercio":0,"pct_manufactura":14,"pct_construccion":29,"pct_transporte":0,"pct_alojamiento":14,"pct_sin_educacion":0,"pct_educ_superior":0,"brecha_educ":5,"pct_sin_seguro":5,"pct_sus":95,"pct_seguro_privado":0,"brecha_seguro":8,"pct_salud_publica":24,"pct_med_tradicional":16,"pct_automedicacion":19,"pct_remedios_caseros":23,"pct_viv_desocupada":11,"pct_alquiler":0,"pct_electricidad":56,"pct_sin_electricidad":22,"pct_agua_red":100,"pct_alcantarillado":89,"pct_camara_septica":0,"pct_pozo_ciego":0,"pct_sin_desague":11,"pct_gas_red":0,"pct_gas_garrafa":89,"pct_lena_guano":11,"pct_basura_formal":44,"pct_basura_quema":22,"pct_basura_informal":22,"pct_internet":89,"pct_celular":100,"pct_televisor":44}},{"type":"Feature","geometry":{"type":"Polygon","coordinates":[[[-67.50762,-18.7801],[-67.50753,-18.7805],[-67.50833,-18.78061],[-67.50841,-18.78018],[-67.50762,-18.7801]]]},"properties":{"n":"ANDAMARCA","p":19,"personas_x_ha":46,"masculinidad":138,"pct_menor20":32,"pct_60mas":11,"pct_migrante":42,"dependencia_econ":64,"pct_empleados":27,"pct_cuentapropia":36,"pct_agricultura":9,"pct_comercio":27,"pct_manufactura":0,"pct_construccion":9,"pct_transporte":9,"pct_alojamiento":0,"pct_sin_educacion":0,"pct_educ_superior":67,"brecha_educ":-20,"pct_sin_seguro":0,"pct_sus":28,"pct_seguro_privado":0,"brecha_seguro":0,"pct_salud_publica":17,"pct_med_tradicional":20,"pct_automedicacion":9,"pct_remedios_caseros":26,"pct_viv_desocupada":4,"pct_alquiler":0,"pct_electricidad":80,"pct_sin_electricidad":20,"pct_agua_red":90,"pct_alcantarillado":90,"pct_camara_septica":0,"pct_pozo_ciego":0,"pct_sin_desague":10,"pct_gas_red":0,"pct_gas_garrafa":90,"pct_lena_guano":10,"pct_basura_formal":50,"pct_basura_quema":30,"pct_basura_informal":20,"pct_internet":50,"pct_celular":80,"pct_televisor":30}},{"type":"Feature","geometry":{"type":"Polygon","coordinates":[[[-67.50433,-18.77687],[-67.50527,-18.77704],[-67.50572,-18.77603],[-67.50489,-18.77632],[-67.50484,-18.77664],[-67.50457,-18.77661],[-67.50433,-18.77687]]]},"properties":{"n":"ANDAMARCA","p":34,"personas_x_ha":48,"masculinidad":36,"pct_menor20":62,"pct_60mas":0,"pct_migrante":32,"dependencia_econ":209,"pct_empleados":36,"pct_cuentapropia":36,"pct_agricultura":18,"pct_comercio":18,"pct_manufactura":9,"pct_construccion":9,"pct_transporte":9,"pct_alojamiento":0,"pct_sin_educacion":0,"pct_educ_superior":14,"brecha_educ":-20,"pct_sin_seguro":9,"pct_sus":91,"pct_seguro_privado":0,"brecha_seguro":3,"pct_salud_publica":39,"pct_med_tradicional":16,"pct_automedicacion":8,"pct_remedios_caseros":34,"pct_viv_desocupada":28,"pct_alquiler":0,"pct_electricidad":89,"pct_sin_electricidad":11,"pct_agua_red":89,"pct_alcantarillado":78,"pct_camara_septica":0,"pct_pozo_ciego":0,"pct_sin_desague":22,"pct_gas_red":0,"pct_gas_garrafa":78,"pct_lena_guano":22,"pct_basura_formal":33,"pct_basura_quema":44,"pct_basura_informal":0,"pct_internet":56,"pct_celular":89,"pct_televisor":78}},{"type":"Feature","geometry":{"type":"Polygon","coordinates":[[[-67.50877,-18.77858],[-67.50796,-18.77842],[-67.5078,-18.77925],[-67.5086,-18.7794],[-67.50877,-18.77858]]]},"properties":{"n":"ANDAMARCA","p":16,"personas_x_ha":20,"masculinidad":100,"pct_menor20":31,"pct_60mas":31,"pct_migrante":75,"dependencia_econ":114,"pct_empleados":29,"pct_cuentapropia":71,"pct_agricultura":29,"pct_comercio":29,"pct_manufactura":14,"pct_construccion":0,"pct_transporte":14,"pct_alojamiento":0,"pct_sin_educacion":10,"pct_educ_superior":30,"brecha_educ":-20,"pct_sin_seguro":7,"pct_sus":67,"pct_seguro_privado":0,"brecha_seguro":-12,"pct_salud_publica":19,"pct_med_tradicional":17,"pct_automedicacion":17,"pct_remedios_caseros":25,"pct_viv_desocupada":11,"pct_alquiler":11,"pct_electricidad":89,"pct_sin_electricidad":0,"pct_agua_red":67,"pct_alcantarillado":89,"pct_camara_septica":0,"pct_pozo_ciego":0,"pct_sin_desague":11,"pct_gas_red":0,"pct_gas_garrafa":89,"pct_lena_guano":11,"pct_basura_formal":67,"pct_basura_quema":33,"pct_basura_informal":0,"pct_internet":56,"pct_celular":67,"pct_televisor":44}},{"type":"Feature","geometry":{"type":"Polygon","coordinates":[[[-67.50933,-18.77469],[-67.50874,-18.7753],[-67.50861,-18.7758],[-67.50935,-18.77588],[-67.50956,-18.77477],[-67.50933,-18.77469]]]},"properties":{"n":"ANDAMARCA","p":19,"personas_x_ha":24,"masculinidad":58,"pct_menor20":42,"pct_60mas":21,"pct_migrante":37,"dependencia_econ":533,"pct_empleados":67,"pct_cuentapropia":33,"pct_agricultura":0,"pct_comercio":0,"pct_manufactura":33,"pct_construccion":0,"pct_transporte":0,"pct_alojamiento":33,"pct_sin_educacion":0,"pct_educ_superior":36,"brecha_educ":3,"pct_sin_seguro":0,"pct_sus":100,"pct_seguro_privado":0,"brecha_seguro":0,"pct_salud_publica":27,"pct_med_tradicional":15,"pct_automedicacion":20,"pct_remedios_caseros":24,"pct_viv_desocupada":0,"pct_alquiler":0,"pct_electricidad":100,"pct_sin_electricidad":0,"pct_agua_red":100,"pct_alcantarillado":78,"pct_camara_septica":0,"pct_pozo_ciego":11,"pct_sin_desague":11,"pct_gas_red":0,"pct_gas_garrafa":78,"pct_lena_guano":22,"pct_basura_formal":11,"pct_basura_quema":78,"pct_basura_informal":0,"pct_internet":89,"pct_celular":89,"pct_televisor":56}},{"type":"Feature","geometry":{"type":"Polygon","coordinates":[[[-67.54391,-18.76794],[-67.54337,-18.76691],[-67.54271,-18.76732],[-67.54354,-18.76816],[-67.54391,-18.76794]]]},"properties":{"n":"COPACABANA","p":17,"personas_x_ha":20,"masculinidad":89,"pct_menor20":29,"pct_60mas":24,"pct_migrante":6,"dependencia_econ":42,"pct_empleados":17,"pct_cuentapropia":67,"pct_agricultura":83,"pct_comercio":0,"pct_manufactura":0,"pct_construccion":8,"pct_transporte":0,"pct_alojamiento":0,"pct_sin_educacion":0,"pct_educ_superior":17,"brecha_educ":-25,"pct_sin_seguro":24,"pct_sus":59,"pct_seguro_privado":0,"brecha_seguro":-44,"pct_salud_publica":34,"pct_med_tradicional":6,"pct_automedicacion":14,"pct_remedios_caseros":37,"pct_viv_desocupada":0,"pct_alquiler":0,"pct_electricidad":43,"pct_sin_electricidad":57,"pct_agua_red":86,"pct_alcantarillado":0,"pct_camara_septica":14,"pct_pozo_ciego":0,"pct_sin_desague":86,"pct_gas_red":0,"pct_gas_garrafa":43,"pct_lena_guano":57,"pct_basura_formal":0,"pct_basura_quema":100,"pct_basura_informal":0,"pct_internet":29,"pct_celular":71,"pct_televisor":43}},{"type":"Feature","geometry":{"type":"Polygon","coordinates":[[[-67.54201,-18.76853],[-67.54284,-18.76752],[-67.54263,-18.76737],[-67.54231,-18.76775],[-67.54261,-18.76731],[-67.5424,-18.76714],[-67.54159,-18.76818],[-67.54201,-18.76853]]]},"properties":{"n":"COPACABANA","p":34,"personas_x_ha":40,"masculinidad":100,"pct_menor20":24,"pct_60mas":32,"pct_migrante":35,"dependencia_econ":31,"pct_empleados":12,"pct_cuentapropia":69,"pct_agricultura":81,"pct_comercio":0,"pct_manufactura":4,"pct_construccion":4,"pct_transporte":0,"pct_alojamiento":0,"pct_sin_educacion":0,"pct_educ_superior":26,"brecha_educ":-19,"pct_sin_seguro":24,"pct_sus":76,"pct_seguro_privado":0,"brecha_seguro":-24,"pct_salud_publica":26,"pct_med_tradicional":21,"pct_automedicacion":14,"pct_remedios_caseros":26,"pct_viv_desocupada":0,"pct_alquiler":0,"pct_electricidad":100,"pct_sin_electricidad":0,"pct_agua_red":100,"pct_alcantarillado":0,"pct_camara_septica":0,"pct_pozo_ciego":7,"pct_sin_desague":93,"pct_gas_red":0,"pct_gas_garrafa":53,"pct_lena_guano":47,"pct_basura_formal":0,"pct_basura_quema":67,"pct_basura_informal":27,"pct_internet":47,"pct_celular":87,"pct_televisor":27}},{"type":"Feature","geometry":{"type":"Polygon","coordinates":[[[-67.54322,-18.76886],[-67.54299,-18.76843],[-67.54335,-18.76804],[-67.54382,-18.76856],[-67.54337,-18.76898],[-67.54324,-18.76888],[-67.54342,-18.76866],[-67.54322,-18.76886]]]},"properties":{"n":"COPACABANA","p":16,"personas_x_ha":33,"masculinidad":100,"pct_menor20":38,"pct_60mas":0,"pct_migrante":6,"dependencia_econ":78,"pct_empleados":11,"pct_cuentapropia":89,"pct_agricultura":44,"pct_comercio":22,"pct_manufactura":11,"pct_construccion":0,"pct_transporte":11,"pct_alojamiento":0,"pct_sin_educacion":0,"pct_educ_superior":30,"brecha_educ":-43,"pct_sin_seguro":33,"pct_sus":67,"pct_seguro_privado":0,"brecha_seguro":9,"pct_salud_publica":24,"pct_med_tradicional":22,"pct_automedicacion":22,"pct_remedios_caseros":31,"pct_viv_desocupada":0,"pct_alquiler":0,"pct_electricidad":83,"pct_sin_electricidad":17,"pct_agua_red":83,"pct_alcantarillado":0,"pct_camara_septica":0,"pct_pozo_ciego":17,"pct_sin_desague":83,"pct_gas_red":0,"pct_gas_garrafa":50,"pct_lena_guano":50,"pct_basura_formal":0,"pct_basura_quema":67,"pct_basura_informal":0,"pct_internet":50,"pct_celular":83,"pct_televisor":33}},{"type":"Feature","geometry":{"type":"Polygon","coordinates":[[[-67.54198,-18.7687],[-67.54164,-18.7684],[-67.54105,-18.76899],[-67.5413,-18.76929],[-67.54198,-18.7687]]]},"properties":{"n":"COPACABANA","p":18,"personas_x_ha":42,"masculinidad":200,"pct_menor20":17,"pct_60mas":22,"pct_migrante":22,"dependencia_econ":29,"pct_empleados":7,"pct_cuentapropia":71,"pct_agricultura":93,"pct_comercio":0,"pct_manufactura":0,"pct_construccion":7,"pct_transporte":0,"pct_alojamiento":0,"pct_sin_educacion":0,"pct_educ_superior":40,"brecha_educ":-50,"pct_sin_seguro":24,"pct_sus":59,"pct_seguro_privado":0,"brecha_seguro":-15,"pct_salud_publica":31,"pct_med_tradicional":15,"pct_automedicacion":13,"pct_remedios_caseros":21,"pct_viv_desocupada":0,"pct_alquiler":0,"pct_electricidad":88,"pct_sin_electricidad":12,"pct_agua_red":100,"pct_alcantarillado":0,"pct_camara_septica":0,"pct_pozo_ciego":0,"pct_sin_desague":88,"pct_gas_red":0,"pct_gas_garrafa":50,"pct_lena_guano":50,"pct_basura_formal":0,"pct_basura_quema":12,"pct_basura_informal":0,"pct_internet":12,"pct_celular":88,"pct_televisor":25}},{"type":"Feature","geometry":{"type":"Polygon","coordinates":[[[-67.54163,-18.76799],[-67.54139,-18.76784],[-67.54201,-18.76677],[-67.54207,-18.76642],[-67.54241,-18.76703],[-67.54163,-18.76799]]]},"properties":{"n":"COPACABANA","p":57,"personas_x_ha":81,"masculinidad":78,"pct_menor20":23,"pct_60mas":16,"pct_migrante":40,"dependencia_econ":78,"pct_empleados":6,"pct_cuentapropia":62,"pct_agricultura":88,"pct_comercio":3,"pct_manufactura":0,"pct_construccion":0,"pct_transporte":6,"pct_alojamiento":0,"pct_sin_educacion":5,"pct_educ_superior":18,"brecha_educ":-26,"pct_sin_seguro":23,"pct_sus":75,"pct_seguro_privado":0,"brecha_seguro":-5,"pct_salud_publica":26,"pct_med_tradicional":28,"pct_automedicacion":17,"pct_remedios_caseros":28,"pct_viv_desocupada":0,"pct_alquiler":0,"pct_electricidad":71,"pct_sin_electricidad":24,"pct_agua_red":100,"pct_alcantarillado":0,"pct_camara_septica":0,"pct_pozo_ciego":5,"pct_sin_desague":95,"pct_gas_red":0,"pct_gas_garrafa":33,"pct_lena_guano":67,"pct_basura_formal":0,"pct_basura_quema":57,"pct_basura_informal":14,"pct_internet":67,"pct_celular":86,"pct_televisor":19}},{"type":"Feature","geometry":{"type":"Polygon","coordinates":[[[-67.54235,-18.76899],[-67.54127,-18.77001],[-67.54111,-18.76998],[-67.5409,-18.76969],[-67.54205,-18.76874],[-67.54235,-18.76899]]]},"properties":{"n":"COPACABANA","p":21,"personas_x_ha":27,"masculinidad":133,"pct_menor20":29,"pct_60mas":24,"pct_migrante":43,"dependencia_econ":50,"pct_empleados":7,"pct_cuentapropia":71,"pct_agricultura":71,"pct_comercio":0,"pct_manufactura":14,"pct_construccion":0,"pct_transporte":0,"pct_alojamiento":0,"pct_sin_educacion":0,"pct_educ_superior":47,"brecha_educ":6,"pct_sin_seguro":10,"pct_sus":90,"pct_seguro_privado":0,"brecha_seguro":17,"pct_salud_publica":26,"pct_med_tradicional":17,"pct_automedicacion":19,"pct_remedios_caseros":27,"pct_viv_desocupada":36,"pct_alquiler":0,"pct_electricidad":67,"pct_sin_electricidad":33,"pct_agua_red":67,"pct_alcantarillado":0,"pct_camara_septica":0,"pct_pozo_ciego":0,"pct_sin_desague":100,"pct_gas_red":0,"pct_gas_garrafa":50,"pct_lena_guano":50,"pct_basura_formal":0,"pct_basura_quema":67,"pct_basura_informal":33,"pct_internet":33,"pct_celular":67,"pct_televisor":0}},{"type":"Feature","geometry":{"type":"Polygon","coordinates":[[[-67.54231,-18.76671],[-67.54268,-18.76731],[-67.54346,-18.76679],[-67.54285,-18.76628],[-67.54257,-18.76651],[-67.54235,-18.76624],[-67.54212,-18.7664],[-67.54229,-18.76666],[-67.54241,-18.76656],[-67.54245,-18.76661],[-67.54231,-18.76671]]]},"properties":{"n":"COPACABANA","p":30,"personas_x_ha":36,"masculinidad":100,"pct_menor20":33,"pct_60mas":27,"pct_migrante":17,"dependencia_econ":100,"pct_empleados":7,"pct_cuentapropia":60,"pct_agricultura":80,"pct_comercio":7,"pct_manufactura":0,"pct_construccion":0,"pct_transporte":0,"pct_alojamiento":0,"pct_sin_educacion":20,"pct_educ_superior":20,"brecha_educ":-19,"pct_sin_seguro":76,"pct_sus":17,"pct_seguro_privado":0,"brecha_seguro":5,"pct_salud_publica":19,"pct_med_tradicional":19,"pct_automedicacion":14,"pct_remedios_caseros":43,"pct_viv_desocupada":0,"pct_alquiler":0,"pct_electricidad":90,"pct_sin_electricidad":10,"pct_agua_red":10,"pct_alcantarillado":0,"pct_camara_septica":0,"pct_pozo_ciego":20,"pct_sin_desague":80,"pct_gas_red":0,"pct_gas_garrafa":40,"pct_lena_guano":60,"pct_basura_formal":0,"pct_basura_quema":50,"pct_basura_informal":30,"pct_internet":10,"pct_celular":50,"pct_televisor":20}},{"type":"Feature","geometry":{"type":"Polygon","coordinates":[[[-67.54339,-18.76946],[-67.54323,-18.76961],[-67.54247,-18.76897],[-67.54293,-18.7685],[-67.54339,-18.76946]]]},"properties":{"n":"COPACABANA","p":22,"personas_x_ha":43,"masculinidad":83,"pct_menor20":32,"pct_60mas":18,"pct_migrante":0,"dependencia_econ":29,"pct_empleados":0,"pct_cuentapropia":76,"pct_agricultura":100,"pct_comercio":0,"pct_manufactura":0,"pct_construccion":0,"pct_transporte":0,"pct_alojamiento":0,"pct_sin_educacion":7,"pct_educ_superior":20,"brecha_educ":-36,"pct_sin_seguro":40,"pct_sus":60,"pct_seguro_privado":0,"brecha_seguro":28,"pct_salud_publica":33,"pct_med_tradicional":22,"pct_automedicacion":4,"pct_remedios_caseros":41,"pct_viv_desocupada":22,"pct_alquiler":0,"pct_electricidad":67,"pct_sin_electricidad":33,"pct_agua_red":83,"pct_alcantarillado":17,"pct_camara_septica":17,"pct_pozo_ciego":0,"pct_sin_desague":67,"pct_gas_red":0,"pct_gas_garrafa":50,"pct_lena_guano":50,"pct_basura_formal":0,"pct_basura_quema":83,"pct_basura_informal":17,"pct_internet":17,"pct_celular":50,"pct_televisor":17}},{"type":"Feature","geometry":{"type":"Polygon","coordinates":[[[-67.5433,-18.76799],[-67.54289,-18.76758],[-67.54245,-18.7681],[-67.54294,-18.7684],[-67.5433,-18.76799]]]},"properties":{"n":"COPACABANA","p":19,"personas_x_ha":45,"masculinidad":111,"pct_menor20":26,"pct_60mas":26,"pct_migrante":5,"dependencia_econ":27,"pct_empleados":0,"pct_cuentapropia":93,"pct_agricultura":100,"pct_comercio":0,"pct_manufactura":0,"pct_construccion":0,"pct_transporte":0,"pct_alojamiento":0,"pct_sin_educacion":0,"pct_educ_superior":13,"brecha_educ":-50,"pct_sin_seguro":17,"pct_sus":72,"pct_seguro_privado":0,"brecha_seguro":30,"pct_salud_publica":30,"pct_med_tradicional":9,"pct_automedicacion":21,"pct_remedios_caseros":33,"pct_viv_desocupada":0,"pct_alquiler":0,"pct_electricidad":89,"pct_sin_electricidad":11,"pct_agua_red":100,"pct_alcantarillado":0,"pct_camara_septica":11,"pct_pozo_ciego":0,"pct_sin_desague":89,"pct_gas_red":0,"pct_gas_garrafa":67,"pct_lena_guano":33,"pct_basura_formal":0,"pct_basura_quema":56,"pct_basura_informal":33,"pct_internet":89,"pct_celular":89,"pct_televisor":22}},{"type":"Feature","geometry":{"type":"Polygon","coordinates":[[[-67.49685,-18.87162],[-67.49678,-18.87209],[-67.49743,-18.87213],[-67.49749,-18.87171],[-67.49685,-18.87162]]]},"properties":{"n":"EDUARDO AVAROA","p":19,"personas_x_ha":54,"masculinidad":111,"pct_menor20":11,"pct_60mas":32,"pct_migrante":21,"dependencia_econ":58,"pct_empleados":8,"pct_cuentapropia":58,"pct_agricultura":50,"pct_comercio":8,"pct_manufactura":0,"pct_construccion":25,"pct_transporte":17,"pct_alojamiento":0,"pct_sin_educacion":12,"pct_educ_superior":12,"brecha_educ":-28,"pct_sin_seguro":6,"pct_sus":94,"pct_seguro_privado":0,"brecha_seguro":10,"pct_salud_publica":37,"pct_med_tradicional":9,"pct_automedicacion":2,"pct_remedios_caseros":40,"pct_viv_desocupada":0,"pct_alquiler":0,"pct_electricidad":100,"pct_sin_electricidad":0,"pct_agua_red":100,"pct_alcantarillado":83,"pct_camara_septica":0,"pct_pozo_ciego":0,"pct_sin_desague":0,"pct_gas_red":0,"pct_gas_garrafa":67,"pct_lena_guano":33,"pct_basura_formal":67,"pct_basura_quema":33,"pct_basura_informal":0,"pct_internet":50,"pct_celular":100,"pct_televisor":50}},{"type":"Feature","geometry":{"type":"Polygon","coordinates":[[[-67.49939,-18.87454],[-67.50017,-18.87471],[-67.50006,-18.87532],[-67.4993,-18.87516],[-67.49939,-18.87454]]]},"properties":{"n":"EDUARDO AVAROA","p":23,"personas_x_ha":39,"masculinidad":77,"pct_menor20":48,"pct_60mas":9,"pct_migrante":22,"dependencia_econ":267,"pct_empleados":0,"pct_cuentapropia":83,"pct_agricultura":17,"pct_comercio":17,"pct_manufactura":50,"pct_construccion":0,"pct_transporte":0,"pct_alojamiento":17,"pct_sin_educacion":0,"pct_educ_superior":55,"brecha_educ":-33,"pct_sin_seguro":0,"pct_sus":100,"pct_seguro_privado":0,"brecha_seguro":0,"pct_salud_publica":31,"pct_med_tradicional":19,"pct_automedicacion":9,"pct_remedios_caseros":28,"pct_viv_desocupada":0,"pct_alquiler":50,"pct_electricidad":100,"pct_sin_electricidad":0,"pct_agua_red":88,"pct_alcantarillado":88,"pct_camara_septica":0,"pct_pozo_ciego":0,"pct_sin_desague":12,"pct_gas_red":0,"pct_gas_garrafa":75,"pct_lena_guano":25,"pct_basura_formal":100,"pct_basura_quema":0,"pct_basura_informal":0,"pct_internet":75,"pct_celular":88,"pct_televisor":25}},{"type":"Feature","geometry":{"type":"Polygon","coordinates":[[[-67.49943,-18.87141],[-67.4989,-18.87136],[-67.49885,-18.87182],[-67.4994,-18.87186],[-67.49943,-18.87141]]]},"properties":{"n":"EDUARDO AVAROA","p":22,"personas_x_ha":74,"masculinidad":100,"pct_menor20":32,"pct_60mas":27,"pct_migrante":23,"dependencia_econ":69,"pct_empleados":0,"pct_cuentapropia":85,"pct_agricultura":38,"pct_comercio":8,"pct_manufactura":0,"pct_construccion":15,"pct_transporte":15,"pct_alojamiento":8,"pct_sin_educacion":12,"pct_educ_superior":19,"brecha_educ":-38,"pct_sin_seguro":23,"pct_sus":73,"pct_seguro_privado":0,"brecha_seguro":9,"pct_salud_publica":28,"pct_med_tradicional":19,"pct_automedicacion":17,"pct_remedios_caseros":19,"pct_viv_desocupada":0,"pct_alquiler":0,"pct_electricidad":83,"pct_sin_electricidad":17,"pct_agua_red":100,"pct_alcantarillado":83,"pct_camara_septica":0,"pct_pozo_ciego":0,"pct_sin_desague":17,"pct_gas_red":0,"pct_gas_garrafa":100,"pct_lena_guano":0,"pct_basura_formal":100,"pct_basura_quema":0,"pct_basura_informal":0,"pct_internet":33,"pct_celular":83,"pct_televisor":33}},{"type":"Feature","geometry":{"type":"Polygon","coordinates":[[[-67.49975,-18.87235],[-67.49944,-18.87232],[-67.49939,-18.87283],[-67.49966,-18.87287],[-67.49975,-18.87235]]]},"properties":{"n":"EDUARDO AVAROA","p":16,"personas_x_ha":84,"masculinidad":60,"pct_menor20":12,"pct_60mas":56,"pct_migrante":56,"dependencia_econ":129,"pct_empleados":14,"pct_cuentapropia":57,"pct_agricultura":86,"pct_comercio":0,"pct_manufactura":0,"pct_construccion":14,"pct_transporte":0,"pct_alojamiento":0,"pct_sin_educacion":14,"pct_educ_superior":0,"brecha_educ":-10,"pct_sin_seguro":38,"pct_sus":62,"pct_seguro_privado":0,"brecha_seguro":-7,"pct_salud_publica":31,"pct_med_tradicional":14,"pct_automedicacion":19,"pct_remedios_caseros":22,"pct_viv_desocupada":0,"pct_alquiler":18,"pct_electricidad":100,"pct_sin_electricidad":0,"pct_agua_red":82,"pct_alcantarillado":82,"pct_camara_septica":0,"pct_pozo_ciego":18,"pct_sin_desague":0,"pct_gas_red":0,"pct_gas_garrafa":91,"pct_lena_guano":0,"pct_basura_formal":100,"pct_basura_quema":0,"pct_basura_informal":0,"pct_internet":36,"pct_celular":55,"pct_televisor":9}},{"type":"Feature","geometry":{"type":"Polygon","coordinates":[[[-67.49931,-18.87281],[-67.49936,-18.87232],[-67.49881,-18.8723],[-67.49879,-18.87277],[-67.49931,-18.87281]]]},"properties":{"n":"EDUARDO AVAROA","p":19,"personas_x_ha":60,"masculinidad":138,"pct_menor20":32,"pct_60mas":26,"pct_migrante":32,"dependencia_econ":36,"pct_empleados":29,"pct_cuentapropia":57,"pct_agricultura":57,"pct_comercio":7,"pct_manufactura":7,"pct_construccion":14,"pct_transporte":0,"pct_alojamiento":0,"pct_sin_educacion":7,"pct_educ_superior":36,"brecha_educ":-80,"pct_sin_seguro":21,"pct_sus":74,"pct_seguro_privado":0,"brecha_seguro":15,"pct_salud_publica":23,"pct_med_tradicional":13,"pct_automedicacion":19,"pct_remedios_caseros":25,"pct_viv_desocupada":7,"pct_alquiler":0,"pct_electricidad":89,"pct_sin_electricidad":11,"pct_agua_red":56,"pct_alcantarillado":67,"pct_camara_septica":0,"pct_pozo_ciego":11,"pct_sin_desague":22,"pct_gas_red":0,"pct_gas_garrafa":89,"pct_lena_guano":11,"pct_basura_formal":89,"pct_basura_quema":11,"pct_basura_informal":0,"pct_internet":56,"pct_celular":100,"pct_televisor":0}},{"type":"Feature","geometry":{"type":"Polygon","coordinates":[[[-67.50005,-18.87538],[-67.49925,-18.87524],[-67.49914,-18.87579],[-67.49991,-18.87597],[-67.50005,-18.87538]]]},"properties":{"n":"EDUARDO AVAROA","p":18,"personas_x_ha":32,"masculinidad":125,"pct_menor20":56,"pct_60mas":6,"pct_migrante":11,"dependencia_econ":70,"pct_empleados":20,"pct_cuentapropia":60,"pct_agricultura":40,"pct_comercio":40,"pct_manufactura":0,"pct_construccion":20,"pct_transporte":0,"pct_alojamiento":0,"pct_sin_educacion":0,"pct_educ_superior":0,"brecha_educ":-50,"pct_sin_seguro":18,"pct_sus":76,"pct_seguro_privado":0,"brecha_seguro":-38,"pct_salud_publica":24,"pct_med_tradicional":25,"pct_automedicacion":12,"pct_remedios_caseros":29,"pct_viv_desocupada":0,"pct_alquiler":0,"pct_electricidad":100,"pct_sin_electricidad":0,"pct_agua_red":80,"pct_alcantarillado":20,"pct_camara_septica":0,"pct_pozo_ciego":80,"pct_sin_desague":0,"pct_gas_red":0,"pct_gas_garrafa":60,"pct_lena_guano":40,"pct_basura_formal":80,"pct_basura_quema":20,"pct_basura_informal":0,"pct_internet":40,"pct_celular":100,"pct_televisor":60}},{"type":"Feature","geometry":{"type":"Polygon","coordinates":[[[-67.50133,-18.87245],[-67.50069,-18.87241],[-67.50056,-18.87307],[-67.50109,-18.87318],[-67.50133,-18.87245]]]},"properties":{"n":"EDUARDO AVAROA","p":22,"personas_x_ha":44,"masculinidad":120,"pct_menor20":36,"pct_60mas":18,"pct_migrante":55,"dependencia_econ":57,"pct_empleados":21,"pct_cuentapropia":71,"pct_agricultura":14,"pct_comercio":57,"pct_manufactura":0,"pct_construccion":0,"pct_transporte":21,"pct_alojamiento":0,"pct_sin_educacion":0,"pct_educ_superior":21,"brecha_educ":-57,"pct_sin_seguro":27,"pct_sus":73,"pct_seguro_privado":0,"brecha_seguro":-42,"pct_salud_publica":35,"pct_med_tradicional":5,"pct_automedicacion":16,"pct_remedios_caseros":29,"pct_viv_desocupada":0,"pct_alquiler":0,"pct_electricidad":88,"pct_sin_electricidad":12,"pct_agua_red":75,"pct_alcantarillado":100,"pct_camara_septica":0,"pct_pozo_ciego":0,"pct_sin_desague":0,"pct_gas_red":0,"pct_gas_garrafa":88,"pct_lena_guano":12,"pct_basura_formal":100,"pct_basura_quema":0,"pct_basura_informal":0,"pct_internet":50,"pct_celular":75,"pct_televisor":12}},{"type":"Feature","geometry":{"type":"Polygon","coordinates":[[[-67.50135,-18.87235],[-67.50135,-18.87207],[-67.50085,-18.87164],[-67.50071,-18.87232],[-67.50135,-18.87235]]]},"properties":{"n":"EDUARDO AVAROA","p":18,"personas_x_ha":49,"masculinidad":200,"pct_menor20":22,"pct_60mas":11,"pct_migrante":33,"dependencia_econ":64,"pct_empleados":0,"pct_cuentapropia":73,"pct_agricultura":36,"pct_comercio":18,"pct_manufactura":9,"pct_construccion":0,"pct_transporte":0,"pct_alojamiento":9,"pct_sin_educacion":0,"pct_educ_superior":14,"brecha_educ":-50,"pct_sin_seguro":17,"pct_sus":78,"pct_seguro_privado":0,"brecha_seguro":0,"pct_salud_publica":28,"pct_med_tradicional":9,"pct_automedicacion":11,"pct_remedios_caseros":30,"pct_viv_desocupada":10,"pct_alquiler":0,"pct_electricidad":100,"pct_sin_electricidad":0,"pct_agua_red":71,"pct_alcantarillado":71,"pct_camara_septica":0,"pct_pozo_ciego":0,"pct_sin_desague":29,"pct_gas_red":0,"pct_gas_garrafa":100,"pct_lena_guano":0,"pct_basura_formal":86,"pct_basura_quema":14,"pct_basura_informal":0,"pct_internet":57,"pct_celular":86,"pct_televisor":29}},{"type":"Feature","geometry":{"type":"Polygon","coordinates":[[[-67.49826,-18.87181],[-67.49754,-18.87172],[-67.49749,-18.87214],[-67.49822,-18.8722],[-67.49826,-18.87181]]]},"properties":{"n":"EDUARDO AVAROA","p":19,"personas_x_ha":53,"masculinidad":111,"pct_menor20":21,"pct_60mas":26,"pct_migrante":32,"dependencia_econ":138,"pct_empleados":12,"pct_cuentapropia":75,"pct_agricultura":50,"pct_comercio":0,"pct_manufactura":0,"pct_construccion":12,"pct_transporte":0,"pct_alojamiento":0,"pct_sin_educacion":0,"pct_educ_superior":27,"brecha_educ":-28,"pct_sin_seguro":21,"pct_sus":58,"pct_seguro_privado":0,"brecha_seguro":-2,"pct_salud_publica":30,"pct_med_tradicional":28,"pct_automedicacion":0,"pct_remedios_caseros":30,"pct_viv_desocupada":0,"pct_alquiler":0,"pct_electricidad":75,"pct_sin_electricidad":25,"pct_agua_red":88,"pct_alcantarillado":75,"pct_camara_septica":0,"pct_pozo_ciego":0,"pct_sin_desague":25,"pct_gas_red":0,"pct_gas_garrafa":25,"pct_lena_guano":75,"pct_basura_formal":62,"pct_basura_quema":38,"pct_basura_informal":0,"pct_internet":25,"pct_celular":50,"pct_televisor":12}},{"type":"Feature","geometry":{"type":"Polygon","coordinates":[[[-67.49724,-18.87409],[-67.49654,-18.87403],[-67.49644,-18.87463],[-67.49712,-18.87473],[-67.49724,-18.87409]]]},"properties":{"n":"EDUARDO AVAROA","p":20,"personas_x_ha":39,"masculinidad":33,"pct_menor20":45,"pct_60mas":10,"pct_migrante":15,"dependencia_econ":82,"pct_empleados":9,"pct_cuentapropia":64,"pct_agricultura":55,"pct_comercio":18,"pct_manufactura":0,"pct_construccion":9,"pct_transporte":0,"pct_alojamiento":0,"pct_sin_educacion":0,"pct_educ_superior":38,"brecha_educ":-25,"pct_sin_seguro":0,"pct_sus":80,"pct_seguro_privado":0,"brecha_seguro":0,"pct_salud_publica":32,"pct_med_tradicional":10,"pct_automedicacion":10,"pct_remedios_caseros":37,"pct_viv_desocupada":0,"pct_alquiler":0,"pct_electricidad":100,"pct_sin_electricidad":0,"pct_agua_red":86,"pct_alcantarillado":86,"pct_camara_septica":0,"pct_pozo_ciego":0,"pct_sin_desague":14,"pct_gas_red":0,"pct_gas_garrafa":43,"pct_lena_guano":57,"pct_basura_formal":86,"pct_basura_quema":14,"pct_basura_informal":0,"pct_internet":57,"pct_celular":86,"pct_televisor":71}},{"type":"Feature","geometry":{"type":"Polygon","coordinates":[[[-67.4989,-18.87065],[-67.49849,-18.87061],[-67.49842,-18.87121],[-67.49885,-18.87127],[-67.4989,-18.87065]]]},"properties":{"n":"EDUARDO AVAROA","p":26,"personas_x_ha":85,"masculinidad":160,"pct_menor20":31,"pct_60mas":8,"pct_migrante":35,"dependencia_econ":86,"pct_empleados":21,"pct_cuentapropia":50,"pct_agricultura":14,"pct_comercio":29,"pct_manufactura":0,"pct_construccion":0,"pct_transporte":14,"pct_alojamiento":0,"pct_sin_educacion":0,"pct_educ_superior":50,"brecha_educ":-15,"pct_sin_seguro":15,"pct_sus":69,"pct_seguro_privado":0,"brecha_seguro":9,"pct_salud_publica":19,"pct_med_tradicional":21,"pct_automedicacion":19,"pct_remedios_caseros":21,"pct_viv_desocupada":0,"pct_alquiler":0,"pct_electricidad":100,"pct_sin_electricidad":0,"pct_agua_red":100,"pct_alcantarillado":88,"pct_camara_septica":0,"pct_pozo_ciego":0,"pct_sin_desague":12,"pct_gas_red":0,"pct_gas_garrafa":75,"pct_lena_guano":25,"pct_basura_formal":62,"pct_basura_quema":38,"pct_basura_informal":0,"pct_internet":88,"pct_celular":100,"pct_televisor":62}},{"type":"Feature","geometry":{"type":"Polygon","coordinates":[[[-67.30923,-18.89625],[-67.30866,-18.8962],[-67.30866,-18.89594],[-67.30885,-18.89457],[-67.30907,-18.8943],[-67.30928,-18.89429],[-67.30923,-18.89625]]]},"properties":{"n":"LLOCO","p":22,"personas_x_ha":20,"masculinidad":144,"pct_menor20":27,"pct_60mas":36,"pct_migrante":23,"dependencia_econ":40,"pct_empleados":7,"pct_cuentapropia":73,"pct_agricultura":73,"pct_comercio":0,"pct_manufactura":7,"pct_construccion":20,"pct_transporte":0,"pct_alojamiento":0,"pct_sin_educacion":0,"pct_educ_superior":12,"brecha_educ":-49,"pct_sin_seguro":0,"pct_sus":85,"pct_seguro_privado":0,"brecha_seguro":0,"pct_salud_publica":40,"pct_med_tradicional":13,"pct_automedicacion":18,"pct_remedios_caseros":20,"pct_viv_desocupada":0,"pct_alquiler":0,"pct_electricidad":62,"pct_sin_electricidad":38,"pct_agua_red":62,"pct_alcantarillado":0,"pct_camara_septica":0,"pct_pozo_ciego":12,"pct_sin_desague":88,"pct_gas_red":0,"pct_gas_garrafa":25,"pct_lena_guano":75,"pct_basura_formal":0,"pct_basura_quema":62,"pct_basura_informal":0,"pct_internet":12,"pct_celular":62,"pct_televisor":12}},{"type":"Feature","geometry":{"type":"Polygon","coordinates":[[[-67.30828,-18.89547],[-67.30824,-18.8944],[-67.30805,-18.89438],[-67.30796,-18.89428],[-67.30827,-18.89338],[-67.30912,-18.89377],[-67.309,-18.89428],[-67.30882,-18.89456],[-67.30866,-18.89551],[-67.30828,-18.89547]]]},"properties":{"n":"LLOCO","p":26,"personas_x_ha":16,"masculinidad":189,"pct_menor20":23,"pct_60mas":27,"pct_migrante":8,"dependencia_econ":44,"pct_empleados":6,"pct_cuentapropia":67,"pct_agricultura":100,"pct_comercio":0,"pct_manufactura":0,"pct_construccion":0,"pct_transporte":0,"pct_alojamiento":0,"pct_sin_educacion":0,"pct_educ_superior":20,"brecha_educ":-5,"pct_sin_seguro":4,"pct_sus":88,"pct_seguro_privado":0,"brecha_seguro":6,"pct_salud_publica":40,"pct_med_tradicional":13,"pct_automedicacion":12,"pct_remedios_caseros":20,"pct_viv_desocupada":0,"pct_alquiler":0,"pct_electricidad":85,"pct_sin_electricidad":15,"pct_agua_red":23,"pct_alcantarillado":8,"pct_camara_septica":0,"pct_pozo_ciego":8,"pct_sin_desague":77,"pct_gas_red":0,"pct_gas_garrafa":54,"pct_lena_guano":46,"pct_basura_formal":0,"pct_basura_quema":54,"pct_basura_informal":38,"pct_internet":38,"pct_celular":85,"pct_televisor":23}},{"type":"Feature","geometry":{"type":"Polygon","coordinates":[[[-67.30953,-18.89323],[-67.30965,-18.89326],[-67.31069,-18.89272],[-67.31061,-18.89258],[-67.31105,-18.89242],[-67.31087,-18.89199],[-67.31015,-18.89246],[-67.30938,-18.89179],[-67.30901,-18.89211],[-67.30919,-18.89229],[-67.30882,-18.89247],[-67.30829,-18.89336],[-67.30872,-18.89357],[-67.30888,-18.89333],[-67.30894,-18.89341],[-67.30876,-18.8936],[-67.30925,-18.89377],[-67.30953,-18.89323]]]},"properties":{"n":"LLOCO","p":63,"personas_x_ha":22,"masculinidad":97,"pct_menor20":48,"pct_60mas":21,"pct_migrante":22,"dependencia_econ":75,"pct_empleados":8,"pct_cuentapropia":61,"pct_agricultura":69,"pct_comercio":11,"pct_manufactura":6,"pct_construccion":0,"pct_transporte":6,"pct_alojamiento":3,"pct_sin_educacion":3,"pct_educ_superior":23,"brecha_educ":-14,"pct_sin_seguro":6,"pct_sus":82,"pct_seguro_privado":2,"brecha_seguro":7,"pct_salud_publica":26,"pct_med_tradicional":22,"pct_automedicacion":17,"pct_remedios_caseros":27,"pct_viv_desocupada":9,"pct_alquiler":0,"pct_electricidad":62,"pct_sin_electricidad":38,"pct_agua_red":19,"pct_alcantarillado":0,"pct_camara_septica":6,"pct_pozo_ciego":6,"pct_sin_desague":88,"pct_gas_red":0,"pct_gas_garrafa":38,"pct_lena_guano":56,"pct_basura_formal":0,"pct_basura_quema":100,"pct_basura_informal":0,"pct_internet":50,"pct_celular":100,"pct_televisor":38}},{"type":"Feature","geometry":{"type":"Polygon","coordinates":[[[-67.25766,-18.96544],[-67.25747,-18.96424],[-67.25663,-18.96435],[-67.25667,-18.96461],[-67.25656,-18.96464],[-67.25662,-18.96481],[-67.25635,-18.96492],[-67.25663,-18.96572],[-67.25766,-18.96544]]]},"properties":{"n":"ORINOCA","p":19,"personas_x_ha":12,"masculinidad":36,"pct_menor20":32,"pct_60mas":16,"pct_migrante":21,"dependencia_econ":55,"pct_empleados":9,"pct_cuentapropia":27,"pct_agricultura":73,"pct_comercio":0,"pct_manufactura":0,"pct_construccion":0,"pct_transporte":9,"pct_alojamiento":0,"pct_sin_educacion":0,"pct_educ_superior":43,"brecha_educ":-10,"pct_sin_seguro":29,"pct_sus":65,"pct_seguro_privado":0,"brecha_seguro":15,"pct_salud_publica":21,"pct_med_tradicional":19,"pct_automedicacion":11,"pct_remedios_caseros":29,"pct_viv_desocupada":62,"pct_alquiler":43,"pct_electricidad":71,"pct_sin_electricidad":29,"pct_agua_red":71,"pct_alcantarillado":43,"pct_camara_septica":0,"pct_pozo_ciego":0,"pct_sin_desague":57,"pct_gas_red":14,"pct_gas_garrafa":43,"pct_lena_guano":43,"pct_basura_formal":29,"pct_basura_quema":43,"pct_basura_informal":29,"pct_internet":71,"pct_celular":71,"pct_televisor":14}},{"type":"Feature","geometry":{"type":"Polygon","coordinates":[[[-67.2578,-18.96609],[-67.25768,-18.96552],[-67.25666,-18.9658],[-67.25683,-18.96628],[-67.2578,-18.96609]]]},"properties":{"n":"ORINOCA","p":20,"personas_x_ha":30,"masculinidad":82,"pct_menor20":45,"pct_60mas":15,"pct_migrante":0,"dependencia_econ":150,"pct_empleados":0,"pct_cuentapropia":62,"pct_agricultura":50,"pct_comercio":25,"pct_manufactura":25,"pct_construccion":0,"pct_transporte":0,"pct_alojamiento":0,"pct_sin_educacion":18,"pct_educ_superior":27,"brecha_educ":-3,"pct_sin_seguro":10,"pct_sus":90,"pct_seguro_privado":0,"brecha_seguro":2,"pct_salud_publica":21,"pct_med_tradicional":18,"pct_automedicacion":21,"pct_remedios_caseros":18,"pct_viv_desocupada":5,"pct_alquiler":0,"pct_electricidad":100,"pct_sin_electricidad":0,"pct_agua_red":67,"pct_alcantarillado":83,"pct_camara_septica":0,"pct_pozo_ciego":0,"pct_sin_desague":17,"pct_gas_red":17,"pct_gas_garrafa":83,"pct_lena_guano":0,"pct_basura_formal":67,"pct_basura_quema":33,"pct_basura_informal":0,"pct_internet":33,"pct_celular":50,"pct_televisor":50}},{"type":"Feature","geometry":{"type":"Polygon","coordinates":[[[-67.25801,-18.96715],[-67.25794,-18.96672],[-67.25706,-18.96696],[-67.25716,-18.96723],[-67.25801,-18.96715]]]},"properties":{"n":"ORINOCA","p":28,"personas_x_ha":73,"masculinidad":155,"pct_menor20":18,"pct_60mas":29,"pct_migrante":39,"dependencia_econ":69,"pct_empleados":0,"pct_cuentapropia":38,"pct_agricultura":94,"pct_comercio":0,"pct_manufactura":0,"pct_construccion":0,"pct_transporte":0,"pct_alojamiento":0,"pct_sin_educacion":9,"pct_educ_superior":14,"brecha_educ":-7,"pct_sin_seguro":4,"pct_sus":85,"pct_seguro_privado":0,"brecha_seguro":7,"pct_salud_publica":28,"pct_med_tradicional":12,"pct_automedicacion":14,"pct_remedios_caseros":26,"pct_viv_desocupada":6,"pct_alquiler":0,"pct_electricidad":100,"pct_sin_electricidad":0,"pct_agua_red":89,"pct_alcantarillado":67,"pct_camara_septica":0,"pct_pozo_ciego":0,"pct_sin_desague":33,"pct_gas_red":0,"pct_gas_garrafa":89,"pct_lena_guano":11,"pct_basura_formal":78,"pct_basura_quema":11,"pct_basura_informal":0,"pct_internet":56,"pct_celular":89,"pct_televisor":33}},{"type":"Feature","geometry":{"type":"Polygon","coordinates":[[[-67.25569,-18.96598],[-67.25653,-18.96576],[-67.25624,-18.96497],[-67.25536,-18.96532],[-67.25569,-18.96598]]]},"properties":{"n":"ORINOCA","p":18,"personas_x_ha":21,"masculinidad":80,"pct_menor20":39,"pct_60mas":17,"pct_migrante":17,"dependencia_econ":100,"pct_empleados":11,"pct_cuentapropia":67,"pct_agricultura":78,"pct_comercio":11,"pct_manufactura":0,"pct_construccion":0,"pct_transporte":0,"pct_alojamiento":0,"pct_sin_educacion":9,"pct_educ_superior":9,"brecha_educ":-80,"pct_sin_seguro":6,"pct_sus":89,"pct_seguro_privado":0,"brecha_seguro":-10,"pct_salud_publica":29,"pct_med_tradicional":6,"pct_automedicacion":24,"pct_remedios_caseros":27,"pct_viv_desocupada":0,"pct_alquiler":0,"pct_electricidad":100,"pct_sin_electricidad":0,"pct_agua_red":100,"pct_alcantarillado":40,"pct_camara_septica":0,"pct_pozo_ciego":20,"pct_sin_desague":40,"pct_gas_red":0,"pct_gas_garrafa":80,"pct_lena_guano":20,"pct_basura_formal":100,"pct_basura_quema":0,"pct_basura_informal":0,"pct_internet":40,"pct_celular":100,"pct_televisor":40}},{"type":"Feature","geometry":{"type":"Polygon","coordinates":[[[-67.26188,-18.96794],[-67.26096,-18.96788],[-67.26097,-18.96825],[-67.26186,-18.96829],[-67.26188,-18.96794]]]},"properties":{"n":"ORINOCA","p":22,"personas_x_ha":55,"masculinidad":47,"pct_menor20":36,"pct_60mas":5,"pct_migrante":18,"dependencia_econ":340,"pct_empleados":0,"pct_cuentapropia":40,"pct_agricultura":40,"pct_comercio":0,"pct_manufactura":0,"pct_construccion":20,"pct_transporte":0,"pct_alojamiento":20,"pct_sin_educacion":0,"pct_educ_superior":57,"brecha_educ":-9,"pct_sin_seguro":5,"pct_sus":77,"pct_seguro_privado":0,"brecha_seguro":14,"pct_salud_publica":28,"pct_med_tradicional":14,"pct_automedicacion":18,"pct_remedios_caseros":22,"pct_viv_desocupada":0,"pct_alquiler":0,"pct_electricidad":100,"pct_sin_electricidad":0,"pct_agua_red":100,"pct_alcantarillado":91,"pct_camara_septica":0,"pct_pozo_ciego":0,"pct_sin_desague":9,"pct_gas_red":0,"pct_gas_garrafa":100,"pct_lena_guano":0,"pct_basura_formal":82,"pct_basura_quema":18,"pct_basura_informal":0,"pct_internet":82,"pct_celular":64,"pct_televisor":82}},{"type":"Feature","geometry":{"type":"Polygon","coordinates":[[[-67.25453,-18.96409],[-67.25365,-18.96382],[-67.25309,-18.96501],[-67.25397,-18.9654],[-67.25453,-18.96409]]]},"properties":{"n":"ORINOCA","p":25,"personas_x_ha":16,"masculinidad":127,"pct_menor20":48,"pct_60mas":8,"pct_migrante":44,"dependencia_econ":167,"pct_empleados":11,"pct_cuentapropia":44,"pct_agricultura":22,"pct_comercio":11,"pct_manufactura":0,"pct_construccion":56,"pct_transporte":0,"pct_alojamiento":0,"pct_sin_educacion":0,"pct_educ_superior":17,"brecha_educ":3,"pct_sin_seguro":29,"pct_sus":67,"pct_seguro_privado":0,"brecha_seguro":-13,"pct_salud_publica":23,"pct_med_tradicional":15,"pct_automedicacion":5,"pct_remedios_caseros":27,"pct_viv_desocupada":0,"pct_alquiler":12,"pct_electricidad":100,"pct_sin_electricidad":0,"pct_agua_red":100,"pct_alcantarillado":100,"pct_camara_septica":0,"pct_pozo_ciego":0,"pct_sin_desague":0,"pct_gas_red":0,"pct_gas_garrafa":100,"pct_lena_guano":0,"pct_basura_formal":38,"pct_basura_quema":50,"pct_basura_informal":12,"pct_internet":75,"pct_celular":88,"pct_televisor":62}},{"type":"Feature","geometry":{"type":"Polygon","coordinates":[[[-67.2562,-18.96721],[-67.2556,-18.96608],[-67.25494,-18.96628],[-67.25546,-18.96749],[-67.25555,-18.96746],[-67.25537,-18.96696],[-67.25563,-18.96677],[-67.25552,-18.96648],[-67.25557,-18.96646],[-67.2557,-18.96679],[-67.25543,-18.96699],[-67.2556,-18.96744],[-67.2562,-18.96721]]]},"properties":{"n":"ORINOCA","p":33,"personas_x_ha":31,"masculinidad":94,"pct_menor20":45,"pct_60mas":6,"pct_migrante":9,"dependencia_econ":136,"pct_empleados":36,"pct_cuentapropia":43,"pct_agricultura":29,"pct_comercio":14,"pct_manufactura":0,"pct_construccion":7,"pct_transporte":7,"pct_alojamiento":7,"pct_sin_educacion":6,"pct_educ_superior":33,"brecha_educ":15,"pct_sin_seguro":0,"pct_sus":100,"pct_seguro_privado":0,"brecha_seguro":0,"pct_salud_publica":26,"pct_med_tradicional":18,"pct_automedicacion":20,"pct_remedios_caseros":26,"pct_viv_desocupada":0,"pct_alquiler":0,"pct_electricidad":75,"pct_sin_electricidad":25,"pct_agua_red":88,"pct_alcantarillado":62,"pct_camara_septica":0,"pct_pozo_ciego":12,"pct_sin_desague":25,"pct_gas_red":0,"pct_gas_garrafa":100,"pct_lena_guano":0,"pct_basura_formal":100,"pct_basura_quema":0,"pct_basura_informal":0,"pct_internet":100,"pct_celular":100,"pct_televisor":75}},{"type":"Feature","geometry":{"type":"Polygon","coordinates":[[[-67.25876,-18.9664],[-67.258,-18.96668],[-67.25811,-18.96714],[-67.25891,-18.96704],[-67.25876,-18.9664]]]},"properties":{"n":"ORINOCA","p":35,"personas_x_ha":62,"masculinidad":106,"pct_menor20":37,"pct_60mas":17,"pct_migrante":9,"dependencia_econ":119,"pct_empleados":38,"pct_cuentapropia":56,"pct_agricultura":44,"pct_comercio":6,"pct_manufactura":19,"pct_construccion":6,"pct_transporte":6,"pct_alojamiento":0,"pct_sin_educacion":0,"pct_educ_superior":39,"brecha_educ":-10,"pct_sin_seguro":9,"pct_sus":91,"pct_seguro_privado":0,"brecha_seguro":-7,"pct_salud_publica":32,"pct_med_tradicional":9,"pct_automedicacion":10,"pct_remedios_caseros":34,"pct_viv_desocupada":0,"pct_alquiler":0,"pct_electricidad":100,"pct_sin_electricidad":0,"pct_agua_red":100,"pct_alcantarillado":100,"pct_camara_septica":0,"pct_pozo_ciego":0,"pct_sin_desague":0,"pct_gas_red":0,"pct_gas_garrafa":100,"pct_lena_guano":0,"pct_basura_formal":89,"pct_basura_quema":11,"pct_basura_informal":0,"pct_internet":33,"pct_celular":67,"pct_televisor":33}},{"type":"Feature","geometry":{"type":"Polygon","coordinates":[[[-67.2587,-18.96523],[-67.25887,-18.96629],[-67.25943,-18.96611],[-67.25933,-18.96509],[-67.2587,-18.96523]]]},"properties":{"n":"ORINOCA","p":21,"personas_x_ha":27,"masculinidad":110,"pct_menor20":19,"pct_60mas":14,"pct_migrante":43,"dependencia_econ":50,"pct_empleados":14,"pct_cuentapropia":29,"pct_agricultura":43,"pct_comercio":14,"pct_manufactura":0,"pct_construccion":0,"pct_transporte":0,"pct_alojamiento":0,"pct_sin_educacion":0,"pct_educ_superior":41,"brecha_educ":-10,"pct_sin_seguro":0,"pct_sus":76,"pct_seguro_privado":0,"brecha_seguro":0,"pct_salud_publica":18,"pct_med_tradicional":18,"pct_automedicacion":21,"pct_remedios_caseros":20,"pct_viv_desocupada":0,"pct_alquiler":29,"pct_electricidad":86,"pct_sin_electricidad":14,"pct_agua_red":100,"pct_alcantarillado":86,"pct_camara_septica":0,"pct_pozo_ciego":0,"pct_sin_desague":14,"pct_gas_red":0,"pct_gas_garrafa":71,"pct_lena_guano":29,"pct_basura_formal":57,"pct_basura_quema":29,"pct_basura_informal":0,"pct_internet":100,"pct_celular":100,"pct_televisor":57}},{"type":"Feature","geometry":{"type":"Polygon","coordinates":[[[-67.26051,-18.96721],[-67.26044,-18.96669],[-67.26002,-18.96692],[-67.25958,-18.96701],[-67.25962,-18.96736],[-67.2604,-18.96741],[-67.26051,-18.96721]]]},"properties":{"n":"ORINOCA","p":23,"personas_x_ha":43,"masculinidad":77,"pct_menor20":13,"pct_60mas":35,"pct_migrante":0,"dependencia_econ":44,"pct_empleados":25,"pct_cuentapropia":56,"pct_agricultura":56,"pct_comercio":6,"pct_manufactura":0,"pct_construccion":19,"pct_transporte":0,"pct_alojamiento":0,"pct_sin_educacion":5,"pct_educ_superior":25,"brecha_educ":-40,"pct_sin_seguro":0,"pct_sus":91,"pct_seguro_privado":0,"brecha_seguro":0,"pct_salud_publica":25,"pct_med_tradicional":18,"pct_automedicacion":15,"pct_remedios_caseros":25,"pct_viv_desocupada":0,"pct_alquiler":0,"pct_electricidad":100,"pct_sin_electricidad":0,"pct_agua_red":75,"pct_alcantarillado":62,"pct_camara_septica":0,"pct_pozo_ciego":0,"pct_sin_desague":38,"pct_gas_red":0,"pct_gas_garrafa":88,"pct_lena_guano":12,"pct_basura_formal":62,"pct_basura_quema":38,"pct_basura_informal":0,"pct_internet":75,"pct_celular":75,"pct_televisor":62}},{"type":"Feature","geometry":{"type":"Polygon","coordinates":[[[-67.2581,-18.96774],[-67.25734,-18.96772],[-67.25732,-18.96775],[-67.25747,-18.9681],[-67.25814,-18.96808],[-67.2581,-18.96774]]]},"properties":{"n":"ORINOCA","p":18,"personas_x_ha":57,"masculinidad":80,"pct_menor20":61,"pct_60mas":11,"pct_migrante":22,"dependencia_econ":64,"pct_empleados":18,"pct_cuentapropia":55,"pct_agricultura":55,"pct_comercio":9,"pct_manufactura":0,"pct_construccion":18,"pct_transporte":9,"pct_alojamiento":0,"pct_sin_educacion":0,"pct_educ_superior":0,"brecha_educ":-8,"pct_sin_seguro":0,"pct_sus":72,"pct_seguro_privado":0,"brecha_seguro":0,"pct_salud_publica":19,"pct_med_tradicional":24,"pct_automedicacion":12,"pct_remedios_caseros":29,"pct_viv_desocupada":0,"pct_alquiler":0,"pct_electricidad":100,"pct_sin_electricidad":0,"pct_agua_red":100,"pct_alcantarillado":75,"pct_camara_septica":0,"pct_pozo_ciego":0,"pct_sin_desague":25,"pct_gas_red":0,"pct_gas_garrafa":75,"pct_lena_guano":0,"pct_basura_formal":25,"pct_basura_quema":75,"pct_basura_informal":0,"pct_internet":75,"pct_celular":100,"pct_televisor":75}},{"type":"Feature","geometry":{"type":"Polygon","coordinates":[[[-67.25782,-18.96615],[-67.25684,-18.96633],[-67.25702,-18.96685],[-67.25791,-18.96665],[-67.25782,-18.96615]]]},"properties":{"n":"ORINOCA","p":16,"personas_x_ha":27,"masculinidad":60,"pct_menor20":31,"pct_60mas":12,"pct_migrante":38,"dependencia_econ":60,"pct_empleados":20,"pct_cuentapropia":70,"pct_agricultura":40,"pct_comercio":10,"pct_manufactura":0,"pct_construccion":0,"pct_transporte":0,"pct_alojamiento":0,"pct_sin_educacion":9,"pct_educ_superior":73,"brecha_educ":-29,"pct_sin_seguro":0,"pct_sus":100,"pct_seguro_privado":0,"brecha_seguro":0,"pct_salud_publica":42,"pct_med_tradicional":3,"pct_automedicacion":10,"pct_remedios_caseros":35,"pct_viv_desocupada":0,"pct_alquiler":0,"pct_electricidad":100,"pct_sin_electricidad":0,"pct_agua_red":57,"pct_alcantarillado":71,"pct_camara_septica":0,"pct_pozo_ciego":29,"pct_sin_desague":0,"pct_gas_red":0,"pct_gas_garrafa":86,"pct_lena_guano":14,"pct_basura_formal":57,"pct_basura_quema":43,"pct_basura_informal":0,"pct_internet":29,"pct_celular":43,"pct_televisor":29}},{"type":"Feature","geometry":{"type":"Polygon","coordinates":[[[-67.26091,-18.96462],[-67.26017,-18.96484],[-67.26034,-18.96572],[-67.26088,-18.96556],[-67.2611,-18.96513],[-67.26091,-18.96462]]]},"properties":{"n":"ORINOCA","p":18,"personas_x_ha":21,"masculinidad":38,"pct_menor20":39,"pct_60mas":11,"pct_migrante":22,"dependencia_econ":100,"pct_empleados":22,"pct_cuentapropia":56,"pct_agricultura":56,"pct_comercio":11,"pct_manufactura":0,"pct_construccion":0,"pct_transporte":0,"pct_alojamiento":11,"pct_sin_educacion":0,"pct_educ_superior":27,"brecha_educ":-38,"pct_sin_seguro":0,"pct_sus":94,"pct_seguro_privado":6,"brecha_seguro":0,"pct_salud_publica":19,"pct_med_tradicional":16,"pct_automedicacion":23,"pct_remedios_caseros":23,"pct_viv_desocupada":5,"pct_alquiler":17,"pct_electricidad":100,"pct_sin_electricidad":0,"pct_agua_red":100,"pct_alcantarillado":83,"pct_camara_septica":0,"pct_pozo_ciego":17,"pct_sin_desague":0,"pct_gas_red":0,"pct_gas_garrafa":83,"pct_lena_guano":17,"pct_basura_formal":50,"pct_basura_quema":33,"pct_basura_informal":0,"pct_internet":67,"pct_celular":100,"pct_televisor":33}},{"type":"Feature","geometry":{"type":"Polygon","coordinates":[[[-67.25961,-18.96648],[-67.25952,-18.96616],[-67.26028,-18.96588],[-67.26041,-18.96665],[-67.26002,-18.96687],[-67.25958,-18.96696],[-67.2595,-18.96652],[-67.25961,-18.96648]]]},"properties":{"n":"ORINOCA","p":22,"personas_x_ha":27,"masculinidad":69,"pct_menor20":32,"pct_60mas":27,"pct_migrante":32,"dependencia_econ":69,"pct_empleados":0,"pct_cuentapropia":62,"pct_agricultura":85,"pct_comercio":8,"pct_manufactura":0,"pct_construccion":0,"pct_transporte":0,"pct_alojamiento":8,"pct_sin_educacion":13,"pct_educ_superior":47,"brecha_educ":-44,"pct_sin_seguro":0,"pct_sus":100,"pct_seguro_privado":0,"brecha_seguro":0,"pct_salud_publica":38,"pct_med_tradicional":12,"pct_automedicacion":21,"pct_remedios_caseros":27,"pct_viv_desocupada":0,"pct_alquiler":12,"pct_electricidad":75,"pct_sin_electricidad":25,"pct_agua_red":100,"pct_alcantarillado":88,"pct_camara_septica":0,"pct_pozo_ciego":12,"pct_sin_desague":0,"pct_gas_red":0,"pct_gas_garrafa":100,"pct_lena_guano":0,"pct_basura_formal":38,"pct_basura_quema":25,"pct_basura_informal":0,"pct_internet":38,"pct_celular":88,"pct_televisor":25}},{"type":"Feature","geometry":{"type":"Polygon","coordinates":[[[-67.25859,-18.96418],[-67.25871,-18.96514],[-67.25932,-18.965],[-67.2592,-18.96409],[-67.25859,-18.96418]]]},"properties":{"n":"ORINOCA","p":23,"personas_x_ha":31,"masculinidad":53,"pct_menor20":39,"pct_60mas":13,"pct_migrante":30,"dependencia_econ":229,"pct_empleados":0,"pct_cuentapropia":86,"pct_agricultura":86,"pct_comercio":0,"pct_manufactura":0,"pct_construccion":0,"pct_transporte":0,"pct_alojamiento":0,"pct_sin_educacion":20,"pct_educ_superior":20,"brecha_educ":-40,"pct_sin_seguro":9,"pct_sus":91,"pct_seguro_privado":0,"brecha_seguro":6,"pct_salud_publica":27,"pct_med_tradicional":28,"pct_automedicacion":1,"pct_remedios_caseros":28,"pct_viv_desocupada":0,"pct_alquiler":0,"pct_electricidad":100,"pct_sin_electricidad":0,"pct_agua_red":100,"pct_alcantarillado":100,"pct_camara_septica":0,"pct_pozo_ciego":0,"pct_sin_desague":0,"pct_gas_red":0,"pct_gas_garrafa":38,"pct_lena_guano":62,"pct_basura_formal":62,"pct_basura_quema":38,"pct_basura_informal":0,"pct_internet":50,"pct_celular":50,"pct_televisor":38}},{"type":"Feature","geometry":{"type":"Polygon","coordinates":[[[-67.25407,-18.96291],[-67.25495,-18.96315],[-67.25521,-18.96262],[-67.2546,-18.96176],[-67.25409,-18.96272],[-67.25407,-18.96291]]]},"properties":{"n":"ORINOCA","p":15,"personas_x_ha":14,"masculinidad":67,"pct_menor20":60,"pct_60mas":0,"pct_migrante":67,"dependencia_econ":200,"pct_empleados":20,"pct_cuentapropia":40,"pct_agricultura":80,"pct_comercio":0,"pct_manufactura":0,"pct_construccion":0,"pct_transporte":0,"pct_alojamiento":0,"pct_sin_educacion":0,"pct_educ_superior":50,"brecha_educ":100,"pct_sin_seguro":8,"pct_sus":92,"pct_seguro_privado":0,"brecha_seguro":-12,"pct_salud_publica":20,"pct_med_tradicional":16,"pct_automedicacion":16,"pct_remedios_caseros":16,"pct_viv_desocupada":0,"pct_alquiler":0,"pct_electricidad":100,"pct_sin_electricidad":0,"pct_agua_red":100,"pct_alcantarillado":100,"pct_camara_septica":0,"pct_pozo_ciego":0,"pct_sin_desague":0,"pct_gas_red":0,"pct_gas_garrafa":100,"pct_lena_guano":0,"pct_basura_formal":67,"pct_basura_quema":33,"pct_basura_informal":0,"pct_internet":33,"pct_celular":33,"pct_televisor":33}},{"type":"Feature","geometry":{"type":"Polygon","coordinates":[[[-67.25732,-18.96768],[-67.25811,-18.96769],[-67.25805,-18.96721],[-67.25718,-18.9673],[-67.25732,-18.96768]]]},"properties":{"n":"ORINOCA","p":53,"personas_x_ha":120,"masculinidad":89,"pct_menor20":42,"pct_60mas":21,"pct_migrante":28,"dependencia_econ":104,"pct_empleados":27,"pct_cuentapropia":50,"pct_agricultura":46,"pct_comercio":15,"pct_manufactura":4,"pct_construccion":12,"pct_transporte":4,"pct_alojamiento":8,"pct_sin_educacion":0,"pct_educ_superior":29,"brecha_educ":-31,"pct_sin_seguro":8,"pct_sus":81,"pct_seguro_privado":0,"brecha_seguro":1,"pct_salud_publica":29,"pct_med_tradicional":12,"pct_automedicacion":15,"pct_remedios_caseros":27,"pct_viv_desocupada":0,"pct_alquiler":8,"pct_electricidad":100,"pct_sin_electricidad":0,"pct_agua_red":100,"pct_alcantarillado":85,"pct_camara_septica":0,"pct_pozo_ciego":0,"pct_sin_desague":15,"pct_gas_red":0,"pct_gas_garrafa":92,"pct_lena_guano":8,"pct_basura_formal":69,"pct_basura_quema":23,"pct_basura_informal":0,"pct_internet":54,"pct_celular":62,"pct_televisor":23}},{"type":"Feature","geometry":{"type":"Polygon","coordinates":[[[-67.25893,-18.96735],[-67.25815,-18.9672],[-67.25817,-18.96768],[-67.25898,-18.96772],[-67.25893,-18.96735]]]},"properties":{"n":"ORINOCA","p":32,"personas_x_ha":81,"masculinidad":100,"pct_menor20":34,"pct_60mas":25,"pct_migrante":19,"dependencia_econ":88,"pct_empleados":18,"pct_cuentapropia":24,"pct_agricultura":53,"pct_comercio":12,"pct_manufactura":0,"pct_construccion":0,"pct_transporte":0,"pct_alojamiento":0,"pct_sin_educacion":0,"pct_educ_superior":55,"brecha_educ":-42,"pct_sin_seguro":12,"pct_sus":56,"pct_seguro_privado":0,"brecha_seguro":-12,"pct_salud_publica":21,"pct_med_tradicional":18,"pct_automedicacion":18,"pct_remedios_caseros":25,"pct_viv_desocupada":0,"pct_alquiler":22,"pct_electricidad":100,"pct_sin_electricidad":0,"pct_agua_red":100,"pct_alcantarillado":67,"pct_camara_septica":0,"pct_pozo_ciego":0,"pct_sin_desague":33,"pct_gas_red":0,"pct_gas_garrafa":78,"pct_lena_guano":22,"pct_basura_formal":78,"pct_basura_quema":11,"pct_basura_informal":11,"pct_internet":89,"pct_celular":78,"pct_televisor":78}},{"type":"Feature","geometry":{"type":"Polygon","coordinates":[[[-67.13022,-18.90084],[-67.12988,-18.90093],[-67.12982,-18.90105],[-67.12991,-18.9015],[-67.13031,-18.90142],[-67.13022,-18.90084]]]},"properties":{"n":"ROSA PATA","p":20,"personas_x_ha":69,"masculinidad":67,"pct_menor20":15,"pct_60mas":25,"pct_migrante":5,"dependencia_econ":43,"pct_empleados":21,"pct_cuentapropia":71,"pct_agricultura":50,"pct_comercio":14,"pct_manufactura":7,"pct_construccion":0,"pct_transporte":7,"pct_alojamiento":0,"pct_sin_educacion":0,"pct_educ_superior":28,"brecha_educ":-9,"pct_sin_seguro":0,"pct_sus":100,"pct_seguro_privado":0,"brecha_seguro":0,"pct_salud_publica":26,"pct_med_tradicional":20,"pct_automedicacion":6,"pct_remedios_caseros":29,"pct_viv_desocupada":0,"pct_alquiler":0,"pct_electricidad":100,"pct_sin_electricidad":0,"pct_agua_red":80,"pct_alcantarillado":0,"pct_camara_septica":0,"pct_pozo_ciego":0,"pct_sin_desague":100,"pct_gas_red":0,"pct_gas_garrafa":40,"pct_lena_guano":60,"pct_basura_formal":0,"pct_basura_quema":40,"pct_basura_informal":20,"pct_internet":100,"pct_celular":100,"pct_televisor":0}}]}