{"type":"FeatureCollection","features":[{"type":"Feature","geometry":{"type":"Polygon","coordinates":[[[-66.8447,-18.47683],[-66.84462,-18.47673],[-66.84412,-18.47717],[-66.84421,-18.47727],[-66.8447,-18.47683]]]},"properties":{"n":"ANTEQUERA","p":23,"personas_x_ha":226,"masculinidad":53,"pct_menor20":30,"pct_60mas":9,"pct_migrante":17,"dependencia_econ":109,"pct_empleados":45,"pct_cuentapropia":55,"pct_agricultura":0,"pct_comercio":18,"pct_manufactura":9,"pct_construccion":27,"pct_transporte":0,"pct_alojamiento":0,"pct_sin_educacion":0,"pct_educ_superior":38,"brecha_educ":0,"pct_sin_seguro":4,"pct_sus":52,"pct_seguro_privado":22,"brecha_seguro":12,"pct_salud_publica":25,"pct_med_tradicional":5,"pct_automedicacion":20,"pct_remedios_caseros":27,"pct_viv_desocupada":0,"pct_alquiler":10,"pct_electricidad":100,"pct_sin_electricidad":0,"pct_agua_red":100,"pct_alcantarillado":90,"pct_camara_septica":0,"pct_pozo_ciego":0,"pct_sin_desague":10,"pct_gas_red":0,"pct_gas_garrafa":100,"pct_lena_guano":100,"pct_basura_formal":100,"pct_basura_quema":0,"pct_basura_informal":0,"pct_internet":70,"pct_celular":90,"pct_televisor":90}},{"type":"Feature","geometry":{"type":"Polygon","coordinates":[[[-66.83926,-18.48],[-66.83932,-18.47988],[-66.83923,-18.47981],[-66.83928,-18.47974],[-66.8394,-18.47984],[-66.83929,-18.48001],[-66.8395,-18.48005],[-66.83962,-18.47984],[-66.83933,-18.47945],[-66.83913,-18.47971],[-66.83888,-18.47986],[-66.83889,-18.48001],[-66.83926,-18.48]]]},"properties":{"n":"ANTEQUERA","p":28,"personas_x_ha":106,"masculinidad":155,"pct_menor20":43,"pct_60mas":4,"pct_migrante":36,"dependencia_econ":155,"pct_empleados":36,"pct_cuentapropia":27,"pct_agricultura":9,"pct_comercio":27,"pct_manufactura":0,"pct_construccion":9,"pct_transporte":0,"pct_alojamiento":0,"pct_sin_educacion":0,"pct_educ_superior":59,"brecha_educ":0,"pct_sin_seguro":4,"pct_sus":39,"pct_seguro_privado":18,"brecha_seguro":-9,"pct_salud_publica":21,"pct_med_tradicional":4,"pct_automedicacion":20,"pct_remedios_caseros":25,"pct_viv_desocupada":0,"pct_alquiler":25,"pct_electricidad":100,"pct_sin_electricidad":0,"pct_agua_red":100,"pct_alcantarillado":88,"pct_camara_septica":0,"pct_pozo_ciego":0,"pct_sin_desague":12,"pct_gas_red":0,"pct_gas_garrafa":100,"pct_lena_guano":100,"pct_basura_formal":100,"pct_basura_quema":0,"pct_basura_informal":0,"pct_internet":100,"pct_celular":100,"pct_televisor":100}},{"type":"Feature","geometry":{"type":"Polygon","coordinates":[[[-66.83881,-18.47912],[-66.83878,-18.47918],[-66.83913,-18.4794],[-66.83922,-18.47929],[-66.83918,-18.47916],[-66.83897,-18.47904],[-66.83892,-18.47916],[-66.83881,-18.47912]]]},"properties":{"n":"ANTEQUERA","p":31,"personas_x_ha":340,"masculinidad":121,"pct_menor20":48,"pct_60mas":6,"pct_migrante":42,"dependencia_econ":158,"pct_empleados":33,"pct_cuentapropia":33,"pct_agricultura":8,"pct_comercio":0,"pct_manufactura":17,"pct_construccion":8,"pct_transporte":0,"pct_alojamiento":0,"pct_sin_educacion":0,"pct_educ_superior":25,"brecha_educ":11,"pct_sin_seguro":0,"pct_sus":32,"pct_seguro_privado":29,"brecha_seguro":0,"pct_salud_publica":22,"pct_med_tradicional":7,"pct_automedicacion":18,"pct_remedios_caseros":24,"pct_viv_desocupada":9,"pct_alquiler":33,"pct_electricidad":100,"pct_sin_electricidad":0,"pct_agua_red":100,"pct_alcantarillado":56,"pct_camara_septica":11,"pct_pozo_ciego":0,"pct_sin_desague":33,"pct_gas_red":0,"pct_gas_garrafa":100,"pct_lena_guano":100,"pct_basura_formal":100,"pct_basura_quema":0,"pct_basura_informal":0,"pct_internet":100,"pct_celular":100,"pct_televisor":100}},{"type":"Feature","geometry":{"type":"Polygon","coordinates":[[[-66.83853,-18.4794],[-66.83892,-18.47978],[-66.83907,-18.4797],[-66.83918,-18.47949],[-66.83857,-18.47915],[-66.83853,-18.4794]]]},"properties":{"n":"ANTEQUERA","p":34,"personas_x_ha":137,"masculinidad":100,"pct_menor20":50,"pct_60mas":0,"pct_migrante":50,"dependencia_econ":127,"pct_empleados":67,"pct_cuentapropia":27,"pct_agricultura":27,"pct_comercio":13,"pct_manufactura":13,"pct_construccion":7,"pct_transporte":13,"pct_alojamiento":0,"pct_sin_educacion":0,"pct_educ_superior":50,"brecha_educ":0,"pct_sin_seguro":6,"pct_sus":68,"pct_seguro_privado":26,"brecha_seguro":0,"pct_salud_publica":20,"pct_med_tradicional":7,"pct_automedicacion":23,"pct_remedios_caseros":27,"pct_viv_desocupada":0,"pct_alquiler":10,"pct_electricidad":100,"pct_sin_electricidad":0,"pct_agua_red":80,"pct_alcantarillado":100,"pct_camara_septica":0,"pct_pozo_ciego":0,"pct_sin_desague":0,"pct_gas_red":0,"pct_gas_garrafa":100,"pct_lena_guano":100,"pct_basura_formal":100,"pct_basura_quema":0,"pct_basura_informal":0,"pct_internet":100,"pct_celular":100,"pct_televisor":100}},{"type":"Feature","geometry":{"type":"Polygon","coordinates":[[[-66.84493,-18.47766],[-66.84386,-18.47821],[-66.84397,-18.47826],[-66.84441,-18.47891],[-66.84549,-18.47829],[-66.84537,-18.47815],[-66.84546,-18.47809],[-66.84493,-18.47751],[-66.84485,-18.47757],[-66.84493,-18.47766]]]},"properties":{"n":"ANTEQUERA","p":31,"personas_x_ha":24,"masculinidad":107,"pct_menor20":35,"pct_60mas":10,"pct_migrante":61,"dependencia_econ":138,"pct_empleados":54,"pct_cuentapropia":31,"pct_agricultura":0,"pct_comercio":15,"pct_manufactura":0,"pct_construccion":15,"pct_transporte":0,"pct_alojamiento":15,"pct_sin_educacion":0,"pct_educ_superior":30,"brecha_educ":2,"pct_sin_seguro":19,"pct_sus":55,"pct_seguro_privado":16,"brecha_seguro":-1,"pct_salud_publica":22,"pct_med_tradicional":11,"pct_automedicacion":16,"pct_remedios_caseros":26,"pct_viv_desocupada":0,"pct_alquiler":38,"pct_electricidad":100,"pct_sin_electricidad":0,"pct_agua_red":62,"pct_alcantarillado":38,"pct_camara_septica":8,"pct_pozo_ciego":0,"pct_sin_desague":54,"pct_gas_red":0,"pct_gas_garrafa":100,"pct_lena_guano":100,"pct_basura_formal":100,"pct_basura_quema":0,"pct_basura_informal":0,"pct_internet":69,"pct_celular":92,"pct_televisor":92}},{"type":"Feature","geometry":{"type":"Polygon","coordinates":[[[-66.84148,-18.47829],[-66.84156,-18.4783],[-66.84162,-18.4782],[-66.84137,-18.47805],[-66.84103,-18.47882],[-66.84135,-18.47904],[-66.84146,-18.47894],[-66.84168,-18.4784],[-66.84148,-18.47829]]]},"properties":{"n":"ANTEQUERA","p":52,"personas_x_ha":126,"masculinidad":271,"pct_menor20":23,"pct_60mas":0,"pct_migrante":81,"dependencia_econ":41,"pct_empleados":81,"pct_cuentapropia":5,"pct_agricultura":0,"pct_comercio":5,"pct_manufactura":14,"pct_construccion":0,"pct_transporte":0,"pct_alojamiento":5,"pct_sin_educacion":0,"pct_educ_superior":61,"brecha_educ":0,"pct_sin_seguro":10,"pct_sus":50,"pct_seguro_privado":6,"brecha_seguro":-26,"pct_salud_publica":30,"pct_med_tradicional":9,"pct_automedicacion":15,"pct_remedios_caseros":20,"pct_viv_desocupada":11,"pct_alquiler":33,"pct_electricidad":100,"pct_sin_electricidad":0,"pct_agua_red":33,"pct_alcantarillado":67,"pct_camara_septica":0,"pct_pozo_ciego":0,"pct_sin_desague":33,"pct_gas_red":0,"pct_gas_garrafa":83,"pct_lena_guano":83,"pct_basura_formal":100,"pct_basura_quema":0,"pct_basura_informal":0,"pct_internet":100,"pct_celular":100,"pct_televisor":83}},{"type":"Feature","geometry":{"type":"Polygon","coordinates":[[[-66.84133,-18.4805],[-66.84166,-18.48073],[-66.84141,-18.48111],[-66.84115,-18.48087],[-66.84121,-18.48081],[-66.84133,-18.48085],[-66.84121,-18.48065],[-66.84133,-18.4805]]]},"properties":{"n":"ANTEQUERA","p":21,"personas_x_ha":112,"masculinidad":91,"pct_menor20":43,"pct_60mas":5,"pct_migrante":71,"dependencia_econ":162,"pct_empleados":38,"pct_cuentapropia":25,"pct_agricultura":25,"pct_comercio":0,"pct_manufactura":12,"pct_construccion":12,"pct_transporte":12,"pct_alojamiento":0,"pct_sin_educacion":0,"pct_educ_superior":8,"brecha_educ":-17,"pct_sin_seguro":5,"pct_sus":43,"pct_seguro_privado":52,"brecha_seguro":10,"pct_salud_publica":22,"pct_med_tradicional":8,"pct_automedicacion":10,"pct_remedios_caseros":24,"pct_viv_desocupada":7,"pct_alquiler":0,"pct_electricidad":100,"pct_sin_electricidad":0,"pct_agua_red":100,"pct_alcantarillado":50,"pct_camara_septica":0,"pct_pozo_ciego":0,"pct_sin_desague":50,"pct_gas_red":0,"pct_gas_garrafa":100,"pct_lena_guano":100,"pct_basura_formal":100,"pct_basura_quema":0,"pct_basura_informal":0,"pct_internet":83,"pct_celular":83,"pct_televisor":100}},{"type":"Feature","geometry":{"type":"Polygon","coordinates":[[[-66.84456,-18.47962],[-66.84405,-18.4799],[-66.84411,-18.48001],[-66.84463,-18.47974],[-66.84456,-18.47962]]]},"properties":{"n":"ANTEQUERA","p":16,"personas_x_ha":177,"masculinidad":78,"pct_menor20":25,"pct_60mas":0,"pct_migrante":56,"dependencia_econ":78,"pct_empleados":78,"pct_cuentapropia":11,"pct_agricultura":0,"pct_comercio":11,"pct_manufactura":11,"pct_construccion":11,"pct_transporte":11,"pct_alojamiento":0,"pct_sin_educacion":0,"pct_educ_superior":38,"brecha_educ":14,"pct_sin_seguro":0,"pct_sus":6,"pct_seguro_privado":12,"brecha_seguro":0,"pct_salud_publica":4,"pct_med_tradicional":4,"pct_automedicacion":31,"pct_remedios_caseros":31,"pct_viv_desocupada":0,"pct_alquiler":12,"pct_electricidad":100,"pct_sin_electricidad":0,"pct_agua_red":100,"pct_alcantarillado":100,"pct_camara_septica":0,"pct_pozo_ciego":0,"pct_sin_desague":0,"pct_gas_red":0,"pct_gas_garrafa":100,"pct_lena_guano":100,"pct_basura_formal":100,"pct_basura_quema":0,"pct_basura_informal":0,"pct_internet":100,"pct_celular":100,"pct_televisor":100}},{"type":"Feature","geometry":{"type":"Polygon","coordinates":[[[-66.84571,-18.47676],[-66.84562,-18.47667],[-66.84528,-18.477],[-66.84536,-18.47708],[-66.84571,-18.47676]]]},"properties":{"n":"ANTEQUERA","p":24,"personas_x_ha":359,"masculinidad":140,"pct_menor20":12,"pct_60mas":8,"pct_migrante":29,"dependencia_econ":156,"pct_empleados":100,"pct_cuentapropia":0,"pct_agricultura":0,"pct_comercio":0,"pct_manufactura":0,"pct_construccion":11,"pct_transporte":0,"pct_alojamiento":0,"pct_sin_educacion":5,"pct_educ_superior":30,"brecha_educ":-4,"pct_sin_seguro":0,"pct_sus":39,"pct_seguro_privado":26,"brecha_seguro":0,"pct_salud_publica":30,"pct_med_tradicional":6,"pct_automedicacion":14,"pct_remedios_caseros":21,"pct_viv_desocupada":0,"pct_alquiler":22,"pct_electricidad":100,"pct_sin_electricidad":0,"pct_agua_red":89,"pct_alcantarillado":67,"pct_camara_septica":0,"pct_pozo_ciego":0,"pct_sin_desague":33,"pct_gas_red":0,"pct_gas_garrafa":89,"pct_lena_guano":89,"pct_basura_formal":100,"pct_basura_quema":0,"pct_basura_informal":0,"pct_internet":44,"pct_celular":89,"pct_televisor":89}},{"type":"Feature","geometry":{"type":"Polygon","coordinates":[[[-66.84187,-18.47992],[-66.84192,-18.48029],[-66.84174,-18.48052],[-66.8417,-18.48048],[-66.84162,-18.48056],[-66.84183,-18.48072],[-66.84221,-18.48033],[-66.84207,-18.48019],[-66.84237,-18.47991],[-66.8423,-18.47983],[-66.84196,-18.4802],[-66.84194,-18.47999],[-66.842,-18.47993],[-66.84207,-18.47999],[-66.84229,-18.47981],[-66.84205,-18.47971],[-66.84187,-18.47992]]]},"properties":{"n":"ANTEQUERA","p":35,"personas_x_ha":120,"masculinidad":150,"pct_menor20":49,"pct_60mas":0,"pct_migrante":60,"dependencia_econ":133,"pct_empleados":40,"pct_cuentapropia":40,"pct_agricultura":0,"pct_comercio":20,"pct_manufactura":27,"pct_construccion":7,"pct_transporte":0,"pct_alojamiento":0,"pct_sin_educacion":0,"pct_educ_superior":47,"brecha_educ":23,"pct_sin_seguro":0,"pct_sus":89,"pct_seguro_privado":11,"brecha_seguro":0,"pct_salud_publica":41,"pct_med_tradicional":6,"pct_automedicacion":18,"pct_remedios_caseros":24,"pct_viv_desocupada":5,"pct_alquiler":17,"pct_electricidad":100,"pct_sin_electricidad":0,"pct_agua_red":42,"pct_alcantarillado":67,"pct_camara_septica":0,"pct_pozo_ciego":0,"pct_sin_desague":33,"pct_gas_red":0,"pct_gas_garrafa":92,"pct_lena_guano":92,"pct_basura_formal":100,"pct_basura_quema":0,"pct_basura_informal":0,"pct_internet":83,"pct_celular":100,"pct_televisor":92}},{"type":"Feature","geometry":{"type":"Polygon","coordinates":[[[-66.84545,-18.47638],[-66.84537,-18.47629],[-66.84495,-18.47667],[-66.84504,-18.47677],[-66.84545,-18.47638]]]},"properties":{"n":"ANTEQUERA","p":18,"personas_x_ha":213,"masculinidad":125,"pct_menor20":17,"pct_60mas":6,"pct_migrante":28,"dependencia_econ":55,"pct_empleados":55,"pct_cuentapropia":18,"pct_agricultura":9,"pct_comercio":27,"pct_manufactura":0,"pct_construccion":9,"pct_transporte":0,"pct_alojamiento":0,"pct_sin_educacion":0,"pct_educ_superior":50,"brecha_educ":-17,"pct_sin_seguro":0,"pct_sus":38,"pct_seguro_privado":38,"brecha_seguro":0,"pct_salud_publica":24,"pct_med_tradicional":4,"pct_automedicacion":13,"pct_remedios_caseros":22,"pct_viv_desocupada":0,"pct_alquiler":0,"pct_electricidad":100,"pct_sin_electricidad":0,"pct_agua_red":88,"pct_alcantarillado":62,"pct_camara_septica":25,"pct_pozo_ciego":0,"pct_sin_desague":12,"pct_gas_red":0,"pct_gas_garrafa":100,"pct_lena_guano":100,"pct_basura_formal":100,"pct_basura_quema":0,"pct_basura_informal":0,"pct_internet":75,"pct_celular":62,"pct_televisor":75}},{"type":"Feature","geometry":{"type":"Polygon","coordinates":[[[-66.84524,-18.47707],[-66.84458,-18.47772],[-66.84445,-18.47759],[-66.84518,-18.477],[-66.84524,-18.47707]]]},"properties":{"n":"ANTEQUERA","p":26,"personas_x_ha":187,"masculinidad":136,"pct_menor20":42,"pct_60mas":0,"pct_migrante":62,"dependencia_econ":225,"pct_empleados":50,"pct_cuentapropia":50,"pct_agricultura":0,"pct_comercio":12,"pct_manufactura":0,"pct_construccion":12,"pct_transporte":12,"pct_alojamiento":0,"pct_sin_educacion":0,"pct_educ_superior":67,"brecha_educ":14,"pct_sin_seguro":4,"pct_sus":38,"pct_seguro_privado":58,"brecha_seguro":-9,"pct_salud_publica":14,"pct_med_tradicional":17,"pct_automedicacion":17,"pct_remedios_caseros":19,"pct_viv_desocupada":6,"pct_alquiler":0,"pct_electricidad":86,"pct_sin_electricidad":0,"pct_agua_red":86,"pct_alcantarillado":100,"pct_camara_septica":0,"pct_pozo_ciego":0,"pct_sin_desague":0,"pct_gas_red":0,"pct_gas_garrafa":100,"pct_lena_guano":100,"pct_basura_formal":100,"pct_basura_quema":0,"pct_basura_informal":0,"pct_internet":100,"pct_celular":100,"pct_televisor":100}},{"type":"Feature","geometry":{"type":"Polygon","coordinates":[[[-66.84603,-18.47684],[-66.84594,-18.47673],[-66.8455,-18.47716],[-66.84559,-18.47726],[-66.84603,-18.47684]]]},"properties":{"n":"ANTEQUERA","p":27,"personas_x_ha":273,"masculinidad":93,"pct_menor20":37,"pct_60mas":4,"pct_migrante":78,"dependencia_econ":238,"pct_empleados":88,"pct_cuentapropia":0,"pct_agricultura":12,"pct_comercio":0,"pct_manufactura":0,"pct_construccion":0,"pct_transporte":0,"pct_alojamiento":0,"pct_sin_educacion":0,"pct_educ_superior":29,"brecha_educ":-21,"pct_sin_seguro":4,"pct_sus":27,"pct_seguro_privado":27,"brecha_seguro":8,"pct_salud_publica":21,"pct_med_tradicional":9,"pct_automedicacion":13,"pct_remedios_caseros":21,"pct_viv_desocupada":0,"pct_alquiler":12,"pct_electricidad":100,"pct_sin_electricidad":0,"pct_agua_red":100,"pct_alcantarillado":88,"pct_camara_septica":0,"pct_pozo_ciego":0,"pct_sin_desague":12,"pct_gas_red":0,"pct_gas_garrafa":100,"pct_lena_guano":100,"pct_basura_formal":100,"pct_basura_quema":0,"pct_basura_informal":0,"pct_internet":88,"pct_celular":88,"pct_televisor":100}},{"type":"Feature","geometry":{"type":"Polygon","coordinates":[[[-66.84588,-18.4761],[-66.84569,-18.4759],[-66.84542,-18.47614],[-66.8456,-18.47635],[-66.84588,-18.4761]]]},"properties":{"n":"ANTEQUERA","p":16,"personas_x_ha":134,"masculinidad":167,"pct_menor20":50,"pct_60mas":0,"pct_migrante":56,"dependencia_econ":220,"pct_empleados":60,"pct_cuentapropia":40,"pct_agricultura":0,"pct_comercio":20,"pct_manufactura":0,"pct_construccion":0,"pct_transporte":0,"pct_alojamiento":0,"pct_sin_educacion":0,"pct_educ_superior":75,"brecha_educ":-25,"pct_sin_seguro":0,"pct_sus":0,"pct_seguro_privado":94,"brecha_seguro":0,"pct_salud_publica":11,"pct_med_tradicional":6,"pct_automedicacion":14,"pct_remedios_caseros":31,"pct_viv_desocupada":0,"pct_alquiler":0,"pct_electricidad":80,"pct_sin_electricidad":0,"pct_agua_red":100,"pct_alcantarillado":100,"pct_camara_septica":0,"pct_pozo_ciego":0,"pct_sin_desague":0,"pct_gas_red":0,"pct_gas_garrafa":100,"pct_lena_guano":100,"pct_basura_formal":100,"pct_basura_quema":0,"pct_basura_informal":0,"pct_internet":100,"pct_celular":60,"pct_televisor":100}},{"type":"Feature","geometry":{"type":"Polygon","coordinates":[[[-66.84016,-18.47856],[-66.84046,-18.47862],[-66.84043,-18.47876],[-66.84037,-18.47874],[-66.84022,-18.47893],[-66.84016,-18.4789],[-66.84011,-18.47901],[-66.84035,-18.47918],[-66.84079,-18.47866],[-66.84023,-18.47831],[-66.84016,-18.47856]]]},"properties":{"n":"ANTEQUERA","p":32,"personas_x_ha":108,"masculinidad":113,"pct_menor20":41,"pct_60mas":9,"pct_migrante":50,"dependencia_econ":129,"pct_empleados":57,"pct_cuentapropia":36,"pct_agricultura":0,"pct_comercio":29,"pct_manufactura":7,"pct_construccion":14,"pct_transporte":14,"pct_alojamiento":0,"pct_sin_educacion":10,"pct_educ_superior":65,"brecha_educ":-16,"pct_sin_seguro":9,"pct_sus":69,"pct_seguro_privado":12,"brecha_seguro":5,"pct_salud_publica":31,"pct_med_tradicional":9,"pct_automedicacion":13,"pct_remedios_caseros":25,"pct_viv_desocupada":31,"pct_alquiler":13,"pct_electricidad":100,"pct_sin_electricidad":0,"pct_agua_red":93,"pct_alcantarillado":80,"pct_camara_septica":0,"pct_pozo_ciego":0,"pct_sin_desague":20,"pct_gas_red":0,"pct_gas_garrafa":87,"pct_lena_guano":87,"pct_basura_formal":100,"pct_basura_quema":0,"pct_basura_informal":0,"pct_internet":60,"pct_celular":67,"pct_televisor":67}},{"type":"Feature","geometry":{"type":"Polygon","coordinates":[[[-66.84242,-18.47827],[-66.84181,-18.47912],[-66.84198,-18.47928],[-66.84174,-18.47952],[-66.84197,-18.47974],[-66.84226,-18.47933],[-66.84216,-18.47925],[-66.84206,-18.47933],[-66.84214,-18.47923],[-66.84229,-18.47931],[-66.84235,-18.47917],[-66.84242,-18.47921],[-66.84282,-18.4787],[-66.84268,-18.47846],[-66.84246,-18.47868],[-66.84263,-18.4784],[-66.84242,-18.47827]]]},"properties":{"n":"ANTEQUERA","p":82,"personas_x_ha":108,"masculinidad":204,"pct_menor20":22,"pct_60mas":7,"pct_migrante":46,"dependencia_econ":55,"pct_empleados":68,"pct_cuentapropia":21,"pct_agricultura":4,"pct_comercio":25,"pct_manufactura":4,"pct_construccion":15,"pct_transporte":0,"pct_alojamiento":0,"pct_sin_educacion":0,"pct_educ_superior":50,"brecha_educ":-11,"pct_sin_seguro":2,"pct_sus":48,"pct_seguro_privado":17,"brecha_seguro":4,"pct_salud_publica":25,"pct_med_tradicional":9,"pct_automedicacion":17,"pct_remedios_caseros":25,"pct_viv_desocupada":4,"pct_alquiler":2,"pct_electricidad":100,"pct_sin_electricidad":0,"pct_agua_red":86,"pct_alcantarillado":48,"pct_camara_septica":0,"pct_pozo_ciego":20,"pct_sin_desague":32,"pct_gas_red":0,"pct_gas_garrafa":89,"pct_lena_guano":89,"pct_basura_formal":100,"pct_basura_quema":0,"pct_basura_informal":0,"pct_internet":77,"pct_celular":93,"pct_televisor":84}},{"type":"Feature","geometry":{"type":"Polygon","coordinates":[[[-66.83975,-18.47902],[-66.83971,-18.4792],[-66.83978,-18.47922],[-66.8398,-18.47946],[-66.8399,-18.47955],[-66.84033,-18.47919],[-66.84009,-18.47902],[-66.83975,-18.47902]]]},"properties":{"n":"ANTEQUERA","p":19,"personas_x_ha":81,"masculinidad":90,"pct_menor20":58,"pct_60mas":5,"pct_migrante":58,"dependencia_econ":375,"pct_empleados":75,"pct_cuentapropia":25,"pct_agricultura":0,"pct_comercio":50,"pct_manufactura":0,"pct_construccion":0,"pct_transporte":0,"pct_alojamiento":0,"pct_sin_educacion":0,"pct_educ_superior":25,"brecha_educ":-20,"pct_sin_seguro":0,"pct_sus":42,"pct_seguro_privado":53,"brecha_seguro":0,"pct_salud_publica":56,"pct_med_tradicional":0,"pct_automedicacion":0,"pct_remedios_caseros":0,"pct_viv_desocupada":0,"pct_alquiler":0,"pct_electricidad":100,"pct_sin_electricidad":0,"pct_agua_red":60,"pct_alcantarillado":60,"pct_camara_septica":0,"pct_pozo_ciego":0,"pct_sin_desague":40,"pct_gas_red":0,"pct_gas_garrafa":100,"pct_lena_guano":100,"pct_basura_formal":100,"pct_basura_quema":0,"pct_basura_informal":0,"pct_internet":80,"pct_celular":100,"pct_televisor":100}},{"type":"Feature","geometry":{"type":"Polygon","coordinates":[[[-66.84563,-18.47741],[-66.84555,-18.47734],[-66.8452,-18.47767],[-66.84527,-18.47775],[-66.84563,-18.47741]]]},"properties":{"n":"ANTEQUERA","p":18,"personas_x_ha":297,"masculinidad":200,"pct_menor20":56,"pct_60mas":0,"pct_migrante":72,"dependencia_econ":260,"pct_empleados":100,"pct_cuentapropia":0,"pct_agricultura":0,"pct_comercio":0,"pct_manufactura":0,"pct_construccion":40,"pct_transporte":0,"pct_alojamiento":0,"pct_sin_educacion":0,"pct_educ_superior":38,"brecha_educ":20,"pct_sin_seguro":0,"pct_sus":67,"pct_seguro_privado":6,"brecha_seguro":0,"pct_salud_publica":27,"pct_med_tradicional":10,"pct_automedicacion":14,"pct_remedios_caseros":24,"pct_viv_desocupada":38,"pct_alquiler":0,"pct_electricidad":100,"pct_sin_electricidad":0,"pct_agua_red":40,"pct_alcantarillado":60,"pct_camara_septica":0,"pct_pozo_ciego":0,"pct_sin_desague":40,"pct_gas_red":0,"pct_gas_garrafa":100,"pct_lena_guano":100,"pct_basura_formal":100,"pct_basura_quema":0,"pct_basura_informal":0,"pct_internet":80,"pct_celular":80,"pct_televisor":80}},{"type":"Feature","geometry":{"type":"Polygon","coordinates":[[[-66.8443,-18.47747],[-66.84418,-18.47734],[-66.84368,-18.47781],[-66.84381,-18.47793],[-66.8443,-18.47747]]]},"properties":{"n":"ANTEQUERA","p":20,"personas_x_ha":142,"masculinidad":150,"pct_menor20":60,"pct_60mas":0,"pct_migrante":70,"dependencia_econ":186,"pct_empleados":86,"pct_cuentapropia":14,"pct_agricultura":0,"pct_comercio":0,"pct_manufactura":0,"pct_construccion":14,"pct_transporte":0,"pct_alojamiento":0,"pct_sin_educacion":0,"pct_educ_superior":75,"brecha_educ":0,"pct_sin_seguro":0,"pct_sus":35,"pct_seguro_privado":40,"brecha_seguro":0,"pct_salud_publica":14,"pct_med_tradicional":3,"pct_automedicacion":15,"pct_remedios_caseros":25,"pct_viv_desocupada":10,"pct_alquiler":0,"pct_electricidad":100,"pct_sin_electricidad":0,"pct_agua_red":100,"pct_alcantarillado":75,"pct_camara_septica":25,"pct_pozo_ciego":0,"pct_sin_desague":0,"pct_gas_red":0,"pct_gas_garrafa":100,"pct_lena_guano":100,"pct_basura_formal":100,"pct_basura_quema":0,"pct_basura_informal":0,"pct_internet":75,"pct_celular":100,"pct_televisor":100}},{"type":"Feature","geometry":{"type":"Polygon","coordinates":[[[-66.84176,-18.47934],[-66.84167,-18.47943],[-66.84173,-18.47932],[-66.84166,-18.47925],[-66.84128,-18.47967],[-66.84114,-18.47954],[-66.84096,-18.47975],[-66.84101,-18.4798],[-66.84049,-18.48024],[-66.84067,-18.48058],[-66.84103,-18.48083],[-66.84115,-18.48078],[-66.84106,-18.48055],[-66.8413,-18.48026],[-66.84124,-18.48014],[-66.84141,-18.47983],[-66.84183,-18.47938],[-66.84176,-18.47934]]]},"properties":{"n":"ANTEQUERA","p":23,"personas_x_ha":28,"masculinidad":156,"pct_menor20":39,"pct_60mas":17,"pct_migrante":70,"dependencia_econ":109,"pct_empleados":45,"pct_cuentapropia":27,"pct_agricultura":18,"pct_comercio":0,"pct_manufactura":9,"pct_construccion":9,"pct_transporte":0,"pct_alojamiento":27,"pct_sin_educacion":7,"pct_educ_superior":7,"brecha_educ":-12,"pct_sin_seguro":0,"pct_sus":70,"pct_seguro_privado":30,"brecha_seguro":0,"pct_salud_publica":26,"pct_med_tradicional":17,"pct_automedicacion":8,"pct_remedios_caseros":26,"pct_viv_desocupada":8,"pct_alquiler":0,"pct_electricidad":78,"pct_sin_electricidad":0,"pct_agua_red":78,"pct_alcantarillado":44,"pct_camara_septica":0,"pct_pozo_ciego":0,"pct_sin_desague":56,"pct_gas_red":0,"pct_gas_garrafa":100,"pct_lena_guano":100,"pct_basura_formal":100,"pct_basura_quema":0,"pct_basura_informal":0,"pct_internet":78,"pct_celular":89,"pct_televisor":89}},{"type":"Feature","geometry":{"type":"Polygon","coordinates":[[[-66.84184,-18.4763],[-66.84163,-18.4768],[-66.84134,-18.47666],[-66.84125,-18.4769],[-66.84084,-18.47736],[-66.84081,-18.47749],[-66.84088,-18.47756],[-66.84066,-18.47794],[-66.84101,-18.4781],[-66.84099,-18.47816],[-66.84062,-18.47801],[-66.84047,-18.47835],[-66.84087,-18.47858],[-66.841,-18.4784],[-66.84114,-18.47844],[-66.84152,-18.47764],[-66.84195,-18.4777],[-66.84286,-18.47617],[-66.84258,-18.476],[-66.84231,-18.47597],[-66.84184,-18.4763]]]},"properties":{"n":"ANTEQUERA","p":31,"personas_x_ha":11,"masculinidad":138,"pct_menor20":48,"pct_60mas":6,"pct_migrante":61,"dependencia_econ":121,"pct_empleados":57,"pct_cuentapropia":43,"pct_agricultura":7,"pct_comercio":7,"pct_manufactura":7,"pct_construccion":0,"pct_transporte":0,"pct_alojamiento":14,"pct_sin_educacion":0,"pct_educ_superior":50,"brecha_educ":-10,"pct_sin_seguro":3,"pct_sus":47,"pct_seguro_privado":40,"brecha_seguro":6,"pct_salud_publica":20,"pct_med_tradicional":5,"pct_automedicacion":22,"pct_remedios_caseros":26,"pct_viv_desocupada":0,"pct_alquiler":9,"pct_electricidad":100,"pct_sin_electricidad":0,"pct_agua_red":100,"pct_alcantarillado":73,"pct_camara_septica":0,"pct_pozo_ciego":0,"pct_sin_desague":27,"pct_gas_red":9,"pct_gas_garrafa":91,"pct_lena_guano":91,"pct_basura_formal":100,"pct_basura_quema":0,"pct_basura_informal":0,"pct_internet":82,"pct_celular":82,"pct_televisor":82}},{"type":"Feature","geometry":{"type":"Polygon","coordinates":[[[-66.84498,-18.47681],[-66.84435,-18.47741],[-66.84423,-18.47729],[-66.84488,-18.47671],[-66.84498,-18.47681]]]},"properties":{"n":"ANTEQUERA","p":38,"personas_x_ha":239,"masculinidad":124,"pct_menor20":37,"pct_60mas":0,"pct_migrante":42,"dependencia_econ":138,"pct_empleados":69,"pct_cuentapropia":6,"pct_agricultura":0,"pct_comercio":0,"pct_manufactura":0,"pct_construccion":0,"pct_transporte":0,"pct_alojamiento":0,"pct_sin_educacion":0,"pct_educ_superior":24,"brecha_educ":6,"pct_sin_seguro":3,"pct_sus":39,"pct_seguro_privado":21,"brecha_seguro":-6,"pct_salud_publica":15,"pct_med_tradicional":11,"pct_automedicacion":14,"pct_remedios_caseros":16,"pct_viv_desocupada":0,"pct_alquiler":0,"pct_electricidad":100,"pct_sin_electricidad":0,"pct_agua_red":69,"pct_alcantarillado":100,"pct_camara_septica":0,"pct_pozo_ciego":0,"pct_sin_desague":0,"pct_gas_red":0,"pct_gas_garrafa":100,"pct_lena_guano":100,"pct_basura_formal":100,"pct_basura_quema":0,"pct_basura_informal":0,"pct_internet":62,"pct_celular":92,"pct_televisor":92}},{"type":"Feature","geometry":{"type":"Polygon","coordinates":[[[-66.84389,-18.47797],[-66.84399,-18.47808],[-66.8444,-18.47773],[-66.84429,-18.47761],[-66.84389,-18.47797]]]},"properties":{"n":"ANTEQUERA","p":29,"personas_x_ha":295,"masculinidad":107,"pct_menor20":38,"pct_60mas":7,"pct_migrante":45,"dependencia_econ":190,"pct_empleados":70,"pct_cuentapropia":10,"pct_agricultura":10,"pct_comercio":10,"pct_manufactura":0,"pct_construccion":10,"pct_transporte":20,"pct_alojamiento":0,"pct_sin_educacion":0,"pct_educ_superior":16,"brecha_educ":-44,"pct_sin_seguro":3,"pct_sus":34,"pct_seguro_privado":55,"brecha_seguro":7,"pct_salud_publica":22,"pct_med_tradicional":10,"pct_automedicacion":10,"pct_remedios_caseros":21,"pct_viv_desocupada":12,"pct_alquiler":0,"pct_electricidad":100,"pct_sin_electricidad":0,"pct_agua_red":90,"pct_alcantarillado":70,"pct_camara_septica":0,"pct_pozo_ciego":0,"pct_sin_desague":30,"pct_gas_red":0,"pct_gas_garrafa":100,"pct_lena_guano":100,"pct_basura_formal":100,"pct_basura_quema":0,"pct_basura_informal":0,"pct_internet":90,"pct_celular":90,"pct_televisor":90}},{"type":"Feature","geometry":{"type":"Polygon","coordinates":[[[-66.84415,-18.47731],[-66.84406,-18.47722],[-66.84358,-18.47768],[-66.84367,-18.47778],[-66.84415,-18.47731]]]},"properties":{"n":"ANTEQUERA","p":25,"personas_x_ha":244,"masculinidad":178,"pct_menor20":40,"pct_60mas":8,"pct_migrante":40,"dependencia_econ":108,"pct_empleados":58,"pct_cuentapropia":25,"pct_agricultura":17,"pct_comercio":8,"pct_manufactura":0,"pct_construccion":0,"pct_transporte":0,"pct_alojamiento":0,"pct_sin_educacion":0,"pct_educ_superior":40,"brecha_educ":-2,"pct_sin_seguro":0,"pct_sus":29,"pct_seguro_privado":50,"brecha_seguro":0,"pct_salud_publica":18,"pct_med_tradicional":2,"pct_automedicacion":20,"pct_remedios_caseros":28,"pct_viv_desocupada":10,"pct_alquiler":0,"pct_electricidad":100,"pct_sin_electricidad":0,"pct_agua_red":100,"pct_alcantarillado":86,"pct_camara_septica":0,"pct_pozo_ciego":0,"pct_sin_desague":14,"pct_gas_red":0,"pct_gas_garrafa":100,"pct_lena_guano":100,"pct_basura_formal":100,"pct_basura_quema":0,"pct_basura_informal":0,"pct_internet":86,"pct_celular":100,"pct_televisor":100}},{"type":"Feature","geometry":{"type":"Polygon","coordinates":[[[-66.84065,-18.47931],[-66.841,-18.47881],[-66.84084,-18.4787],[-66.84041,-18.47921],[-66.84065,-18.47931]]]},"properties":{"n":"ANTEQUERA","p":19,"personas_x_ha":109,"masculinidad":90,"pct_menor20":37,"pct_60mas":5,"pct_migrante":37,"dependencia_econ":73,"pct_empleados":64,"pct_cuentapropia":18,"pct_agricultura":18,"pct_comercio":18,"pct_manufactura":9,"pct_construccion":0,"pct_transporte":0,"pct_alojamiento":0,"pct_sin_educacion":0,"pct_educ_superior":17,"brecha_educ":-26,"pct_sin_seguro":0,"pct_sus":89,"pct_seguro_privado":0,"brecha_seguro":0,"pct_salud_publica":28,"pct_med_tradicional":9,"pct_automedicacion":14,"pct_remedios_caseros":26,"pct_viv_desocupada":24,"pct_alquiler":20,"pct_electricidad":100,"pct_sin_electricidad":0,"pct_agua_red":90,"pct_alcantarillado":60,"pct_camara_septica":0,"pct_pozo_ciego":0,"pct_sin_desague":40,"pct_gas_red":0,"pct_gas_garrafa":80,"pct_lena_guano":80,"pct_basura_formal":100,"pct_basura_quema":0,"pct_basura_informal":0,"pct_internet":90,"pct_celular":90,"pct_televisor":90}},{"type":"Feature","geometry":{"type":"Polygon","coordinates":[[[-66.84085,-18.4794],[-66.84124,-18.47908],[-66.841,-18.47884],[-66.84068,-18.47932],[-66.84085,-18.4794]]]},"properties":{"n":"ANTEQUERA","p":18,"personas_x_ha":114,"masculinidad":200,"pct_menor20":39,"pct_60mas":11,"pct_migrante":72,"dependencia_econ":125,"pct_empleados":75,"pct_cuentapropia":12,"pct_agricultura":0,"pct_comercio":0,"pct_manufactura":12,"pct_construccion":0,"pct_transporte":0,"pct_alojamiento":0,"pct_sin_educacion":0,"pct_educ_superior":45,"brecha_educ":-3,"pct_sin_seguro":6,"pct_sus":56,"pct_seguro_privado":11,"brecha_seguro":8,"pct_salud_publica":55,"pct_med_tradicional":0,"pct_automedicacion":0,"pct_remedios_caseros":7,"pct_viv_desocupada":0,"pct_alquiler":50,"pct_electricidad":100,"pct_sin_electricidad":0,"pct_agua_red":83,"pct_alcantarillado":67,"pct_camara_septica":0,"pct_pozo_ciego":0,"pct_sin_desague":33,"pct_gas_red":0,"pct_gas_garrafa":100,"pct_lena_guano":100,"pct_basura_formal":100,"pct_basura_quema":0,"pct_basura_informal":0,"pct_internet":83,"pct_celular":83,"pct_televisor":100}},{"type":"Feature","geometry":{"type":"Polygon","coordinates":[[[-66.84036,-18.47922],[-66.83997,-18.47956],[-66.84004,-18.47964],[-66.84036,-18.47973],[-66.84046,-18.47955],[-66.8404,-18.47973],[-66.84063,-18.47982],[-66.84084,-18.47943],[-66.84036,-18.47922]]]},"properties":{"n":"ANTEQUERA","p":50,"personas_x_ha":149,"masculinidad":117,"pct_menor20":34,"pct_60mas":6,"pct_migrante":62,"dependencia_econ":100,"pct_empleados":64,"pct_cuentapropia":16,"pct_agricultura":4,"pct_comercio":8,"pct_manufactura":4,"pct_construccion":0,"pct_transporte":0,"pct_alojamiento":4,"pct_sin_educacion":3,"pct_educ_superior":39,"brecha_educ":-5,"pct_sin_seguro":4,"pct_sus":42,"pct_seguro_privado":23,"brecha_seguro":8,"pct_salud_publica":20,"pct_med_tradicional":8,"pct_automedicacion":20,"pct_remedios_caseros":25,"pct_viv_desocupada":12,"pct_alquiler":45,"pct_electricidad":100,"pct_sin_electricidad":0,"pct_agua_red":77,"pct_alcantarillado":64,"pct_camara_septica":5,"pct_pozo_ciego":0,"pct_sin_desague":18,"pct_gas_red":0,"pct_gas_garrafa":95,"pct_lena_guano":95,"pct_basura_formal":100,"pct_basura_quema":0,"pct_basura_informal":0,"pct_internet":73,"pct_celular":86,"pct_televisor":77}},{"type":"Feature","geometry":{"type":"Polygon","coordinates":[[[-66.84511,-18.47767],[-66.84552,-18.47728],[-66.84546,-18.47722],[-66.84504,-18.4776],[-66.84511,-18.47767]]]},"properties":{"n":"ANTEQUERA","p":26,"personas_x_ha":426,"masculinidad":160,"pct_menor20":35,"pct_60mas":0,"pct_migrante":19,"dependencia_econ":136,"pct_empleados":45,"pct_cuentapropia":27,"pct_agricultura":36,"pct_comercio":9,"pct_manufactura":0,"pct_construccion":18,"pct_transporte":9,"pct_alojamiento":9,"pct_sin_educacion":0,"pct_educ_superior":41,"brecha_educ":-1,"pct_sin_seguro":0,"pct_sus":56,"pct_seguro_privado":32,"brecha_seguro":0,"pct_salud_publica":25,"pct_med_tradicional":5,"pct_automedicacion":24,"pct_remedios_caseros":24,"pct_viv_desocupada":0,"pct_alquiler":0,"pct_electricidad":100,"pct_sin_electricidad":0,"pct_agua_red":100,"pct_alcantarillado":56,"pct_camara_septica":0,"pct_pozo_ciego":0,"pct_sin_desague":44,"pct_gas_red":0,"pct_gas_garrafa":100,"pct_lena_guano":100,"pct_basura_formal":100,"pct_basura_quema":0,"pct_basura_informal":0,"pct_internet":78,"pct_celular":100,"pct_televisor":100}},{"type":"Feature","geometry":{"type":"Polygon","coordinates":[[[-66.87297,-18.49549],[-66.87332,-18.49587],[-66.87373,-18.49553],[-66.87337,-18.49513],[-66.87297,-18.49549]]]},"properties":{"n":"TOTORAL","p":34,"personas_x_ha":97,"masculinidad":62,"pct_menor20":38,"pct_60mas":21,"pct_migrante":47,"dependencia_econ":325,"pct_empleados":25,"pct_cuentapropia":62,"pct_agricultura":12,"pct_comercio":0,"pct_manufactura":0,"pct_construccion":0,"pct_transporte":0,"pct_alojamiento":0,"pct_sin_educacion":10,"pct_educ_superior":24,"brecha_educ":-11,"pct_sin_seguro":0,"pct_sus":56,"pct_seguro_privado":0,"brecha_seguro":0,"pct_salud_publica":23,"pct_med_tradicional":19,"pct_automedicacion":10,"pct_remedios_caseros":19,"pct_viv_desocupada":22,"pct_alquiler":25,"pct_electricidad":100,"pct_sin_electricidad":0,"pct_agua_red":100,"pct_alcantarillado":0,"pct_camara_septica":0,"pct_pozo_ciego":0,"pct_sin_desague":100,"pct_gas_red":0,"pct_gas_garrafa":100,"pct_lena_guano":100,"pct_basura_formal":50,"pct_basura_quema":8,"pct_basura_informal":0,"pct_internet":67,"pct_celular":100,"pct_televisor":92}},{"type":"Feature","geometry":{"type":"Polygon","coordinates":[[[-66.87553,-18.49718],[-66.87522,-18.49755],[-66.87548,-18.49776],[-66.87583,-18.49744],[-66.87553,-18.49718]]]},"properties":{"n":"TOTORAL","p":26,"personas_x_ha":118,"masculinidad":73,"pct_menor20":42,"pct_60mas":12,"pct_migrante":38,"dependencia_econ":117,"pct_empleados":33,"pct_cuentapropia":58,"pct_agricultura":8,"pct_comercio":17,"pct_manufactura":8,"pct_construccion":8,"pct_transporte":0,"pct_alojamiento":0,"pct_sin_educacion":0,"pct_educ_superior":25,"brecha_educ":-5,"pct_sin_seguro":23,"pct_sus":77,"pct_seguro_privado":0,"brecha_seguro":-24,"pct_salud_publica":25,"pct_med_tradicional":4,"pct_automedicacion":26,"pct_remedios_caseros":27,"pct_viv_desocupada":0,"pct_alquiler":0,"pct_electricidad":100,"pct_sin_electricidad":0,"pct_agua_red":100,"pct_alcantarillado":0,"pct_camara_septica":0,"pct_pozo_ciego":29,"pct_sin_desague":71,"pct_gas_red":0,"pct_gas_garrafa":100,"pct_lena_guano":100,"pct_basura_formal":14,"pct_basura_quema":29,"pct_basura_informal":0,"pct_internet":86,"pct_celular":100,"pct_televisor":100}},{"type":"Feature","geometry":{"type":"Polygon","coordinates":[[[-66.87327,-18.49593],[-66.8729,-18.49556],[-66.87255,-18.49585],[-66.87269,-18.49601],[-66.87259,-18.49611],[-66.8728,-18.49633],[-66.87327,-18.49593]]]},"properties":{"n":"TOTORAL","p":33,"personas_x_ha":95,"masculinidad":65,"pct_menor20":33,"pct_60mas":12,"pct_migrante":21,"dependencia_econ":230,"pct_empleados":10,"pct_cuentapropia":90,"pct_agricultura":0,"pct_comercio":20,"pct_manufactura":0,"pct_construccion":0,"pct_transporte":0,"pct_alojamiento":0,"pct_sin_educacion":14,"pct_educ_superior":14,"brecha_educ":-23,"pct_sin_seguro":0,"pct_sus":58,"pct_seguro_privado":0,"brecha_seguro":0,"pct_salud_publica":36,"pct_med_tradicional":10,"pct_automedicacion":7,"pct_remedios_caseros":19,"pct_viv_desocupada":0,"pct_alquiler":20,"pct_electricidad":100,"pct_sin_electricidad":0,"pct_agua_red":100,"pct_alcantarillado":0,"pct_camara_septica":10,"pct_pozo_ciego":0,"pct_sin_desague":90,"pct_gas_red":0,"pct_gas_garrafa":100,"pct_lena_guano":100,"pct_basura_formal":40,"pct_basura_quema":60,"pct_basura_informal":0,"pct_internet":100,"pct_celular":100,"pct_televisor":100}},{"type":"Feature","geometry":{"type":"Polygon","coordinates":[[[-66.87288,-18.49389],[-66.87212,-18.49311],[-66.87182,-18.4934],[-66.87257,-18.49419],[-66.87288,-18.49389]]]},"properties":{"n":"TOTORAL","p":33,"personas_x_ha":60,"masculinidad":74,"pct_menor20":30,"pct_60mas":24,"pct_migrante":21,"dependencia_econ":120,"pct_empleados":7,"pct_cuentapropia":60,"pct_agricultura":7,"pct_comercio":20,"pct_manufactura":0,"pct_construccion":0,"pct_transporte":0,"pct_alojamiento":0,"pct_sin_educacion":9,"pct_educ_superior":9,"brecha_educ":-6,"pct_sin_seguro":3,"pct_sus":48,"pct_seguro_privado":0,"brecha_seguro":-5,"pct_salud_publica":25,"pct_med_tradicional":7,"pct_automedicacion":17,"pct_remedios_caseros":26,"pct_viv_desocupada":0,"pct_alquiler":17,"pct_electricidad":92,"pct_sin_electricidad":8,"pct_agua_red":100,"pct_alcantarillado":0,"pct_camara_septica":0,"pct_pozo_ciego":25,"pct_sin_desague":75,"pct_gas_red":0,"pct_gas_garrafa":100,"pct_lena_guano":100,"pct_basura_formal":0,"pct_basura_quema":17,"pct_basura_informal":50,"pct_internet":75,"pct_celular":92,"pct_televisor":92}},{"type":"Feature","geometry":{"type":"Polygon","coordinates":[[[-66.87144,-18.49255],[-66.87126,-18.49204],[-66.87115,-18.49208],[-66.87105,-18.49185],[-66.87098,-18.49187],[-66.87127,-18.49262],[-66.87144,-18.49255]]]},"properties":{"n":"TOTORAL","p":20,"personas_x_ha":120,"masculinidad":100,"pct_menor20":50,"pct_60mas":5,"pct_migrante":75,"dependencia_econ":300,"pct_empleados":0,"pct_cuentapropia":100,"pct_agricultura":20,"pct_comercio":0,"pct_manufactura":0,"pct_construccion":0,"pct_transporte":0,"pct_alojamiento":0,"pct_sin_educacion":10,"pct_educ_superior":10,"brecha_educ":0,"pct_sin_seguro":5,"pct_sus":68,"pct_seguro_privado":0,"brecha_seguro":-11,"pct_salud_publica":19,"pct_med_tradicional":5,"pct_automedicacion":15,"pct_remedios_caseros":23,"pct_viv_desocupada":25,"pct_alquiler":0,"pct_electricidad":100,"pct_sin_electricidad":0,"pct_agua_red":83,"pct_alcantarillado":0,"pct_camara_septica":0,"pct_pozo_ciego":17,"pct_sin_desague":83,"pct_gas_red":0,"pct_gas_garrafa":100,"pct_lena_guano":100,"pct_basura_formal":0,"pct_basura_quema":17,"pct_basura_informal":133,"pct_internet":33,"pct_celular":67,"pct_televisor":83}},{"type":"Feature","geometry":{"type":"Polygon","coordinates":[[[-66.87207,-18.49382],[-66.87196,-18.49371],[-66.87183,-18.49382],[-66.87159,-18.49352],[-66.8713,-18.49371],[-66.87151,-18.49407],[-66.87164,-18.49399],[-66.87177,-18.49409],[-66.87207,-18.49382]]]},"properties":{"n":"TOTORAL","p":29,"personas_x_ha":110,"masculinidad":71,"pct_menor20":24,"pct_60mas":3,"pct_migrante":45,"dependencia_econ":123,"pct_empleados":23,"pct_cuentapropia":31,"pct_agricultura":8,"pct_comercio":23,"pct_manufactura":0,"pct_construccion":0,"pct_transporte":0,"pct_alojamiento":0,"pct_sin_educacion":0,"pct_educ_superior":23,"brecha_educ":0,"pct_sin_seguro":7,"pct_sus":45,"pct_seguro_privado":0,"brecha_seguro":17,"pct_salud_publica":24,"pct_med_tradicional":11,"pct_automedicacion":11,"pct_remedios_caseros":33,"pct_viv_desocupada":18,"pct_alquiler":22,"pct_electricidad":100,"pct_sin_electricidad":0,"pct_agua_red":100,"pct_alcantarillado":0,"pct_camara_septica":0,"pct_pozo_ciego":11,"pct_sin_desague":89,"pct_gas_red":0,"pct_gas_garrafa":100,"pct_lena_guano":100,"pct_basura_formal":22,"pct_basura_quema":33,"pct_basura_informal":0,"pct_internet":100,"pct_celular":100,"pct_televisor":89}},{"type":"Feature","geometry":{"type":"Polygon","coordinates":[[[-66.87329,-18.49506],[-66.87291,-18.49468],[-66.87249,-18.49502],[-66.8729,-18.49543],[-66.87329,-18.49506]]]},"properties":{"n":"TOTORAL","p":42,"personas_x_ha":113,"masculinidad":133,"pct_menor20":43,"pct_60mas":12,"pct_migrante":36,"dependencia_econ":121,"pct_empleados":16,"pct_cuentapropia":68,"pct_agricultura":16,"pct_comercio":16,"pct_manufactura":0,"pct_construccion":0,"pct_transporte":0,"pct_alojamiento":16,"pct_sin_educacion":12,"pct_educ_superior":29,"brecha_educ":-2,"pct_sin_seguro":5,"pct_sus":57,"pct_seguro_privado":0,"brecha_seguro":-1,"pct_salud_publica":22,"pct_med_tradicional":14,"pct_automedicacion":22,"pct_remedios_caseros":23,"pct_viv_desocupada":16,"pct_alquiler":27,"pct_electricidad":100,"pct_sin_electricidad":0,"pct_agua_red":100,"pct_alcantarillado":0,"pct_camara_septica":0,"pct_pozo_ciego":0,"pct_sin_desague":100,"pct_gas_red":0,"pct_gas_garrafa":93,"pct_lena_guano":100,"pct_basura_formal":47,"pct_basura_quema":13,"pct_basura_informal":0,"pct_internet":87,"pct_celular":87,"pct_televisor":80}},{"type":"Feature","geometry":{"type":"Polygon","coordinates":[[[-66.87469,-18.49559],[-66.8746,-18.49549],[-66.87465,-18.49544],[-66.87433,-18.49511],[-66.8739,-18.49548],[-66.87453,-18.49613],[-66.87482,-18.49587],[-66.87461,-18.49566],[-66.87469,-18.49559]]]},"properties":{"n":"TOTORAL","p":33,"personas_x_ha":62,"masculinidad":65,"pct_menor20":45,"pct_60mas":9,"pct_migrante":27,"dependencia_econ":175,"pct_empleados":0,"pct_cuentapropia":58,"pct_agricultura":0,"pct_comercio":50,"pct_manufactura":0,"pct_construccion":0,"pct_transporte":0,"pct_alojamiento":0,"pct_sin_educacion":0,"pct_educ_superior":0,"brecha_educ":-36,"pct_sin_seguro":6,"pct_sus":30,"pct_seguro_privado":3,"brecha_seguro":3,"pct_salud_publica":23,"pct_med_tradicional":13,"pct_automedicacion":19,"pct_remedios_caseros":23,"pct_viv_desocupada":21,"pct_alquiler":9,"pct_electricidad":100,"pct_sin_electricidad":0,"pct_agua_red":100,"pct_alcantarillado":0,"pct_camara_septica":0,"pct_pozo_ciego":18,"pct_sin_desague":82,"pct_gas_red":0,"pct_gas_garrafa":100,"pct_lena_guano":100,"pct_basura_formal":0,"pct_basura_quema":73,"pct_basura_informal":0,"pct_internet":82,"pct_celular":91,"pct_televisor":91}},{"type":"Feature","geometry":{"type":"Polygon","coordinates":[[[-66.87151,-18.49506],[-66.87117,-18.49465],[-66.8716,-18.49431],[-66.87198,-18.49468],[-66.87151,-18.49506]]]},"properties":{"n":"TOTORAL","p":47,"personas_x_ha":131,"masculinidad":81,"pct_menor20":53,"pct_60mas":2,"pct_migrante":30,"dependencia_econ":176,"pct_empleados":24,"pct_cuentapropia":71,"pct_agricultura":0,"pct_comercio":18,"pct_manufactura":0,"pct_construccion":0,"pct_transporte":0,"pct_alojamiento":0,"pct_sin_educacion":9,"pct_educ_superior":18,"brecha_educ":-23,"pct_sin_seguro":5,"pct_sus":75,"pct_seguro_privado":2,"brecha_seguro":0,"pct_salud_publica":28,"pct_med_tradicional":11,"pct_automedicacion":13,"pct_remedios_caseros":27,"pct_viv_desocupada":8,"pct_alquiler":27,"pct_electricidad":100,"pct_sin_electricidad":0,"pct_agua_red":100,"pct_alcantarillado":0,"pct_camara_septica":9,"pct_pozo_ciego":0,"pct_sin_desague":91,"pct_gas_red":0,"pct_gas_garrafa":100,"pct_lena_guano":100,"pct_basura_formal":45,"pct_basura_quema":18,"pct_basura_informal":0,"pct_internet":73,"pct_celular":100,"pct_televisor":100}},{"type":"Feature","geometry":{"type":"Polygon","coordinates":[[[-66.87284,-18.49462],[-66.87253,-18.4943],[-66.87211,-18.4947],[-66.87243,-18.49498],[-66.87284,-18.49462]]]},"properties":{"n":"TOTORAL","p":37,"personas_x_ha":125,"masculinidad":95,"pct_menor20":30,"pct_60mas":8,"pct_migrante":46,"dependencia_econ":106,"pct_empleados":22,"pct_cuentapropia":72,"pct_agricultura":0,"pct_comercio":22,"pct_manufactura":0,"pct_construccion":6,"pct_transporte":6,"pct_alojamiento":0,"pct_sin_educacion":4,"pct_educ_superior":31,"brecha_educ":-20,"pct_sin_seguro":9,"pct_sus":51,"pct_seguro_privado":3,"brecha_seguro":19,"pct_salud_publica":22,"pct_med_tradicional":13,"pct_automedicacion":13,"pct_remedios_caseros":23,"pct_viv_desocupada":6,"pct_alquiler":27,"pct_electricidad":100,"pct_sin_electricidad":0,"pct_agua_red":100,"pct_alcantarillado":0,"pct_camara_septica":0,"pct_pozo_ciego":9,"pct_sin_desague":91,"pct_gas_red":0,"pct_gas_garrafa":100,"pct_lena_guano":100,"pct_basura_formal":9,"pct_basura_quema":18,"pct_basura_informal":36,"pct_internet":91,"pct_celular":100,"pct_televisor":91}},{"type":"Feature","geometry":{"type":"Polygon","coordinates":[[[-66.87476,-18.49798],[-66.8746,-18.49789],[-66.87462,-18.49772],[-66.87467,-18.49755],[-66.87492,-18.49734],[-66.8751,-18.49754],[-66.87476,-18.49798]]]},"properties":{"n":"TOTORAL","p":18,"personas_x_ha":86,"masculinidad":125,"pct_menor20":44,"pct_60mas":17,"pct_migrante":67,"dependencia_econ":157,"pct_empleados":0,"pct_cuentapropia":100,"pct_agricultura":0,"pct_comercio":29,"pct_manufactura":0,"pct_construccion":0,"pct_transporte":14,"pct_alojamiento":14,"pct_sin_educacion":10,"pct_educ_superior":20,"brecha_educ":-8,"pct_sin_seguro":11,"pct_sus":83,"pct_seguro_privado":0,"brecha_seguro":-25,"pct_salud_publica":33,"pct_med_tradicional":2,"pct_automedicacion":14,"pct_remedios_caseros":29,"pct_viv_desocupada":22,"pct_alquiler":43,"pct_electricidad":100,"pct_sin_electricidad":0,"pct_agua_red":86,"pct_alcantarillado":0,"pct_camara_septica":14,"pct_pozo_ciego":0,"pct_sin_desague":86,"pct_gas_red":0,"pct_gas_garrafa":86,"pct_lena_guano":86,"pct_basura_formal":0,"pct_basura_quema":43,"pct_basura_informal":29,"pct_internet":43,"pct_celular":86,"pct_televisor":71}},{"type":"Feature","geometry":{"type":"Polygon","coordinates":[[[-66.87386,-18.49469],[-66.87344,-18.49503],[-66.87381,-18.49542],[-66.87426,-18.49508],[-66.87386,-18.49469]]]},"properties":{"n":"TOTORAL","p":37,"personas_x_ha":101,"masculinidad":95,"pct_menor20":38,"pct_60mas":5,"pct_migrante":59,"dependencia_econ":106,"pct_empleados":22,"pct_cuentapropia":67,"pct_agricultura":0,"pct_comercio":28,"pct_manufactura":6,"pct_construccion":0,"pct_transporte":0,"pct_alojamiento":0,"pct_sin_educacion":4,"pct_educ_superior":50,"brecha_educ":-15,"pct_sin_seguro":0,"pct_sus":24,"pct_seguro_privado":0,"brecha_seguro":0,"pct_salud_publica":13,"pct_med_tradicional":16,"pct_automedicacion":21,"pct_remedios_caseros":23,"pct_viv_desocupada":21,"pct_alquiler":9,"pct_electricidad":100,"pct_sin_electricidad":0,"pct_agua_red":100,"pct_alcantarillado":0,"pct_camara_septica":0,"pct_pozo_ciego":64,"pct_sin_desague":36,"pct_gas_red":0,"pct_gas_garrafa":100,"pct_lena_guano":100,"pct_basura_formal":27,"pct_basura_quema":0,"pct_basura_informal":55,"pct_internet":91,"pct_celular":91,"pct_televisor":100}},{"type":"Feature","geometry":{"type":"Polygon","coordinates":[[[-66.87356,-18.49625],[-66.87329,-18.496],[-66.87283,-18.49641],[-66.87309,-18.49669],[-66.87356,-18.49625]]]},"properties":{"n":"TOTORAL","p":19,"personas_x_ha":64,"masculinidad":138,"pct_menor20":42,"pct_60mas":11,"pct_migrante":16,"dependencia_econ":217,"pct_empleados":0,"pct_cuentapropia":67,"pct_agricultura":0,"pct_comercio":17,"pct_manufactura":0,"pct_construccion":0,"pct_transporte":0,"pct_alojamiento":0,"pct_sin_educacion":0,"pct_educ_superior":9,"brecha_educ":-60,"pct_sin_seguro":11,"pct_sus":68,"pct_seguro_privado":0,"brecha_seguro":-3,"pct_salud_publica":45,"pct_med_tradicional":0,"pct_automedicacion":15,"pct_remedios_caseros":9,"pct_viv_desocupada":21,"pct_alquiler":14,"pct_electricidad":100,"pct_sin_electricidad":0,"pct_agua_red":86,"pct_alcantarillado":0,"pct_camara_septica":0,"pct_pozo_ciego":0,"pct_sin_desague":100,"pct_gas_red":0,"pct_gas_garrafa":100,"pct_lena_guano":100,"pct_basura_formal":29,"pct_basura_quema":29,"pct_basura_informal":29,"pct_internet":86,"pct_celular":86,"pct_televisor":100}},{"type":"Feature","geometry":{"type":"Polygon","coordinates":[[[-66.87368,-18.49676],[-66.87342,-18.49648],[-66.87314,-18.49673],[-66.87344,-18.49701],[-66.87368,-18.49676]]]},"properties":{"n":"TOTORAL","p":18,"personas_x_ha":105,"masculinidad":100,"pct_menor20":50,"pct_60mas":17,"pct_migrante":17,"dependencia_econ":260,"pct_empleados":40,"pct_cuentapropia":60,"pct_agricultura":0,"pct_comercio":20,"pct_manufactura":0,"pct_construccion":0,"pct_transporte":0,"pct_alojamiento":20,"pct_sin_educacion":33,"pct_educ_superior":0,"brecha_educ":-55,"pct_sin_seguro":6,"pct_sus":50,"pct_seguro_privado":0,"brecha_seguro":-11,"pct_salud_publica":32,"pct_med_tradicional":5,"pct_automedicacion":7,"pct_remedios_caseros":32,"pct_viv_desocupada":12,"pct_alquiler":0,"pct_electricidad":100,"pct_sin_electricidad":0,"pct_agua_red":100,"pct_alcantarillado":0,"pct_camara_septica":0,"pct_pozo_ciego":0,"pct_sin_desague":100,"pct_gas_red":0,"pct_gas_garrafa":100,"pct_lena_guano":100,"pct_basura_formal":0,"pct_basura_quema":17,"pct_basura_informal":0,"pct_internet":17,"pct_celular":100,"pct_televisor":67}},{"type":"Feature","geometry":{"type":"Polygon","coordinates":[[[-66.87193,-18.49543],[-66.87236,-18.49505],[-66.87205,-18.49475],[-66.8716,-18.49512],[-66.87193,-18.49543]]]},"properties":{"n":"TOTORAL","p":32,"personas_x_ha":103,"masculinidad":220,"pct_menor20":38,"pct_60mas":9,"pct_migrante":47,"dependencia_econ":78,"pct_empleados":33,"pct_cuentapropia":44,"pct_agricultura":0,"pct_comercio":6,"pct_manufactura":6,"pct_construccion":0,"pct_transporte":11,"pct_alojamiento":28,"pct_sin_educacion":5,"pct_educ_superior":10,"brecha_educ":-7,"pct_sin_seguro":6,"pct_sus":75,"pct_seguro_privado":0,"brecha_seguro":-5,"pct_salud_publica":30,"pct_med_tradicional":6,"pct_automedicacion":13,"pct_remedios_caseros":29,"pct_viv_desocupada":12,"pct_alquiler":25,"pct_electricidad":100,"pct_sin_electricidad":0,"pct_agua_red":83,"pct_alcantarillado":0,"pct_camara_septica":0,"pct_pozo_ciego":0,"pct_sin_desague":100,"pct_gas_red":0,"pct_gas_garrafa":100,"pct_lena_guano":100,"pct_basura_formal":25,"pct_basura_quema":33,"pct_basura_informal":0,"pct_internet":67,"pct_celular":75,"pct_televisor":83}},{"type":"Feature","geometry":{"type":"Polygon","coordinates":[[[-66.87529,-18.49695],[-66.87487,-18.49652],[-66.87458,-18.49692],[-66.87493,-18.49726],[-66.87529,-18.49695]]]},"properties":{"n":"TOTORAL","p":21,"personas_x_ha":66,"masculinidad":75,"pct_menor20":52,"pct_60mas":0,"pct_migrante":33,"dependencia_econ":133,"pct_empleados":44,"pct_cuentapropia":22,"pct_agricultura":22,"pct_comercio":22,"pct_manufactura":0,"pct_construccion":0,"pct_transporte":0,"pct_alojamiento":0,"pct_sin_educacion":0,"pct_educ_superior":40,"brecha_educ":40,"pct_sin_seguro":0,"pct_sus":76,"pct_seguro_privado":5,"brecha_seguro":0,"pct_salud_publica":29,"pct_med_tradicional":6,"pct_automedicacion":25,"pct_remedios_caseros":26,"pct_viv_desocupada":42,"pct_alquiler":43,"pct_electricidad":100,"pct_sin_electricidad":0,"pct_agua_red":100,"pct_alcantarillado":0,"pct_camara_septica":0,"pct_pozo_ciego":0,"pct_sin_desague":100,"pct_gas_red":0,"pct_gas_garrafa":86,"pct_lena_guano":86,"pct_basura_formal":57,"pct_basura_quema":14,"pct_basura_informal":0,"pct_internet":100,"pct_celular":100,"pct_televisor":100}},{"type":"Feature","geometry":{"type":"Polygon","coordinates":[[[-66.87411,-18.4974],[-66.87366,-18.49715],[-66.87359,-18.497],[-66.87391,-18.4966],[-66.87445,-18.49697],[-66.87411,-18.4974]]]},"properties":{"n":"TOTORAL","p":26,"personas_x_ha":57,"masculinidad":86,"pct_menor20":54,"pct_60mas":4,"pct_migrante":50,"dependencia_econ":271,"pct_empleados":0,"pct_cuentapropia":71,"pct_agricultura":0,"pct_comercio":0,"pct_manufactura":0,"pct_construccion":0,"pct_transporte":0,"pct_alojamiento":0,"pct_sin_educacion":0,"pct_educ_superior":31,"brecha_educ":-22,"pct_sin_seguro":4,"pct_sus":69,"pct_seguro_privado":0,"brecha_seguro":-7,"pct_salud_publica":31,"pct_med_tradicional":9,"pct_automedicacion":6,"pct_remedios_caseros":37,"pct_viv_desocupada":8,"pct_alquiler":10,"pct_electricidad":100,"pct_sin_electricidad":0,"pct_agua_red":100,"pct_alcantarillado":10,"pct_camara_septica":0,"pct_pozo_ciego":0,"pct_sin_desague":90,"pct_gas_red":0,"pct_gas_garrafa":100,"pct_lena_guano":100,"pct_basura_formal":10,"pct_basura_quema":70,"pct_basura_informal":20,"pct_internet":80,"pct_celular":90,"pct_televisor":70}},{"type":"Feature","geometry":{"type":"Polygon","coordinates":[[[-66.87639,-18.49637],[-66.87665,-18.4967],[-66.87664,-18.49678],[-66.87591,-18.49738],[-66.87544,-18.4969],[-66.87626,-18.49612],[-66.87645,-18.49629],[-66.87629,-18.49645],[-66.87622,-18.49642],[-66.87629,-18.49647],[-66.87639,-18.49637]]]},"properties":{"n":"TOTORAL","p":46,"personas_x_ha":50,"masculinidad":92,"pct_menor20":35,"pct_60mas":22,"pct_migrante":37,"dependencia_econ":109,"pct_empleados":27,"pct_cuentapropia":41,"pct_agricultura":0,"pct_comercio":27,"pct_manufactura":0,"pct_construccion":0,"pct_transporte":0,"pct_alojamiento":0,"pct_sin_educacion":3,"pct_educ_superior":33,"brecha_educ":19,"pct_sin_seguro":15,"pct_sus":74,"pct_seguro_privado":0,"brecha_seguro":6,"pct_salud_publica":26,"pct_med_tradicional":0,"pct_automedicacion":23,"pct_remedios_caseros":30,"pct_viv_desocupada":23,"pct_alquiler":0,"pct_electricidad":94,"pct_sin_electricidad":6,"pct_agua_red":100,"pct_alcantarillado":6,"pct_camara_septica":0,"pct_pozo_ciego":12,"pct_sin_desague":81,"pct_gas_red":0,"pct_gas_garrafa":100,"pct_lena_guano":100,"pct_basura_formal":6,"pct_basura_quema":31,"pct_basura_informal":0,"pct_internet":88,"pct_celular":94,"pct_televisor":88}},{"type":"Feature","geometry":{"type":"Polygon","coordinates":[[[-66.87567,-18.49655],[-66.87544,-18.49635],[-66.87534,-18.49643],[-66.87535,-18.49635],[-66.87518,-18.4962],[-66.87494,-18.49641],[-66.87536,-18.49684],[-66.87567,-18.49655]]]},"properties":{"n":"TOTORAL","p":29,"personas_x_ha":109,"masculinidad":123,"pct_menor20":41,"pct_60mas":7,"pct_migrante":41,"dependencia_econ":107,"pct_empleados":21,"pct_cuentapropia":71,"pct_agricultura":7,"pct_comercio":14,"pct_manufactura":0,"pct_construccion":0,"pct_transporte":21,"pct_alojamiento":7,"pct_sin_educacion":6,"pct_educ_superior":29,"brecha_educ":-25,"pct_sin_seguro":14,"pct_sus":86,"pct_seguro_privado":0,"brecha_seguro":11,"pct_salud_publica":21,"pct_med_tradicional":9,"pct_automedicacion":17,"pct_remedios_caseros":22,"pct_viv_desocupada":8,"pct_alquiler":9,"pct_electricidad":100,"pct_sin_electricidad":0,"pct_agua_red":82,"pct_alcantarillado":0,"pct_camara_septica":9,"pct_pozo_ciego":9,"pct_sin_desague":82,"pct_gas_red":0,"pct_gas_garrafa":100,"pct_lena_guano":100,"pct_basura_formal":18,"pct_basura_quema":27,"pct_basura_informal":0,"pct_internet":73,"pct_celular":91,"pct_televisor":91}},{"type":"Feature","geometry":{"type":"Polygon","coordinates":[[[-66.87481,-18.49648],[-66.87432,-18.49614],[-66.87397,-18.49653],[-66.87449,-18.4969],[-66.87481,-18.49648]]]},"properties":{"n":"TOTORAL","p":63,"personas_x_ha":165,"masculinidad":97,"pct_menor20":40,"pct_60mas":6,"pct_migrante":35,"dependencia_econ":114,"pct_empleados":24,"pct_cuentapropia":69,"pct_agricultura":0,"pct_comercio":28,"pct_manufactura":3,"pct_construccion":0,"pct_transporte":0,"pct_alojamiento":3,"pct_sin_educacion":5,"pct_educ_superior":35,"brecha_educ":-3,"pct_sin_seguro":0,"pct_sus":100,"pct_seguro_privado":0,"brecha_seguro":0,"pct_salud_publica":24,"pct_med_tradicional":14,"pct_automedicacion":11,"pct_remedios_caseros":25,"pct_viv_desocupada":8,"pct_alquiler":32,"pct_electricidad":100,"pct_sin_electricidad":0,"pct_agua_red":95,"pct_alcantarillado":0,"pct_camara_septica":0,"pct_pozo_ciego":0,"pct_sin_desague":100,"pct_gas_red":0,"pct_gas_garrafa":100,"pct_lena_guano":100,"pct_basura_formal":53,"pct_basura_quema":5,"pct_basura_informal":0,"pct_internet":74,"pct_celular":74,"pct_televisor":74}},{"type":"Feature","geometry":{"type":"Polygon","coordinates":[[[-66.87392,-18.49649],[-66.87405,-18.49636],[-66.87368,-18.49597],[-66.87393,-18.49571],[-66.87379,-18.49558],[-66.87339,-18.49594],[-66.87392,-18.49649]]]},"properties":{"n":"TOTORAL","p":26,"personas_x_ha":98,"masculinidad":136,"pct_menor20":27,"pct_60mas":27,"pct_migrante":35,"dependencia_econ":136,"pct_empleados":27,"pct_cuentapropia":64,"pct_agricultura":0,"pct_comercio":18,"pct_manufactura":9,"pct_construccion":0,"pct_transporte":9,"pct_alojamiento":0,"pct_sin_educacion":5,"pct_educ_superior":5,"brecha_educ":-17,"pct_sin_seguro":12,"pct_sus":46,"pct_seguro_privado":0,"brecha_seguro":4,"pct_salud_publica":27,"pct_med_tradicional":10,"pct_automedicacion":15,"pct_remedios_caseros":30,"pct_viv_desocupada":19,"pct_alquiler":8,"pct_electricidad":92,"pct_sin_electricidad":8,"pct_agua_red":75,"pct_alcantarillado":0,"pct_camara_septica":0,"pct_pozo_ciego":0,"pct_sin_desague":100,"pct_gas_red":0,"pct_gas_garrafa":92,"pct_lena_guano":92,"pct_basura_formal":0,"pct_basura_quema":8,"pct_basura_informal":50,"pct_internet":75,"pct_celular":100,"pct_televisor":83}},{"type":"Feature","geometry":{"type":"Polygon","coordinates":[[[-66.87247,-18.49426],[-66.87212,-18.49391],[-66.87168,-18.49428],[-66.87206,-18.49463],[-66.87247,-18.49426]]]},"properties":{"n":"TOTORAL","p":46,"personas_x_ha":133,"masculinidad":109,"pct_menor20":37,"pct_60mas":13,"pct_migrante":39,"dependencia_econ":100,"pct_empleados":26,"pct_cuentapropia":65,"pct_agricultura":0,"pct_comercio":26,"pct_manufactura":0,"pct_construccion":4,"pct_transporte":4,"pct_alojamiento":0,"pct_sin_educacion":6,"pct_educ_superior":16,"brecha_educ":-18,"pct_sin_seguro":13,"pct_sus":59,"pct_seguro_privado":0,"brecha_seguro":-1,"pct_salud_publica":24,"pct_med_tradicional":12,"pct_automedicacion":12,"pct_remedios_caseros":24,"pct_viv_desocupada":17,"pct_alquiler":7,"pct_electricidad":93,"pct_sin_electricidad":7,"pct_agua_red":71,"pct_alcantarillado":0,"pct_camara_septica":0,"pct_pozo_ciego":7,"pct_sin_desague":93,"pct_gas_red":0,"pct_gas_garrafa":100,"pct_lena_guano":100,"pct_basura_formal":50,"pct_basura_quema":21,"pct_basura_informal":14,"pct_internet":71,"pct_celular":93,"pct_televisor":93}}]}