{"type":"FeatureCollection","features":[{"type":"Feature","geometry":{"type":"Polygon","coordinates":[[[-68.6398,-19.00467],[-68.63944,-19.0045],[-68.63915,-19.00508],[-68.63952,-19.00523],[-68.6398,-19.00467]]]},"properties":{"n":"LA RIVERA","p":16,"personas_x_ha":54,"masculinidad":100,"pct_menor20":50,"pct_60mas":0,"pct_migrante":94,"dependencia_econ":220,"pct_empleados":0,"pct_cuentapropia":60,"pct_agricultura":80,"pct_comercio":0,"pct_manufactura":0,"pct_construccion":0,"pct_transporte":0,"pct_alojamiento":0,"pct_sin_educacion":0,"pct_educ_superior":0,"brecha_educ":0,"pct_sin_seguro":69,"pct_sus":31,"pct_seguro_privado":0,"brecha_seguro":12,"pct_salud_publica":4,"pct_med_tradicional":32,"pct_automedicacion":30,"pct_remedios_caseros":34,"pct_viv_desocupada":0,"pct_alquiler":0,"pct_electricidad":100,"pct_sin_electricidad":0,"pct_agua_red":100,"pct_alcantarillado":100,"pct_camara_septica":0,"pct_pozo_ciego":0,"pct_sin_desague":0,"pct_gas_red":0,"pct_gas_garrafa":100,"pct_lena_guano":100,"pct_basura_formal":0,"pct_basura_quema":75,"pct_basura_informal":50,"pct_internet":75,"pct_celular":75,"pct_televisor":50}},{"type":"Feature","geometry":{"type":"Polygon","coordinates":[[[-68.63994,-19.00434],[-68.63959,-19.00422],[-68.63946,-19.00447],[-68.63982,-19.00462],[-68.63994,-19.00434]]]},"properties":{"n":"LA RIVERA","p":22,"personas_x_ha":169,"masculinidad":69,"pct_menor20":45,"pct_60mas":14,"pct_migrante":68,"dependencia_econ":120,"pct_empleados":10,"pct_cuentapropia":70,"pct_agricultura":70,"pct_comercio":30,"pct_manufactura":0,"pct_construccion":0,"pct_transporte":0,"pct_alojamiento":0,"pct_sin_educacion":8,"pct_educ_superior":0,"brecha_educ":-9,"pct_sin_seguro":0,"pct_sus":100,"pct_seguro_privado":0,"brecha_seguro":0,"pct_salud_publica":50,"pct_med_tradicional":0,"pct_automedicacion":2,"pct_remedios_caseros":45,"pct_viv_desocupada":8,"pct_alquiler":0,"pct_electricidad":100,"pct_sin_electricidad":0,"pct_agua_red":78,"pct_alcantarillado":78,"pct_camara_septica":0,"pct_pozo_ciego":0,"pct_sin_desague":22,"pct_gas_red":0,"pct_gas_garrafa":89,"pct_lena_guano":89,"pct_basura_formal":0,"pct_basura_quema":78,"pct_basura_informal":44,"pct_internet":11,"pct_celular":100,"pct_televisor":78}},{"type":"Feature","geometry":{"type":"Polygon","coordinates":[[[-68.64125,-19.00297],[-68.64181,-19.00161],[-68.64144,-19.00148],[-68.64079,-19.00278],[-68.64125,-19.00297]]]},"properties":{"n":"LA RIVERA","p":23,"personas_x_ha":30,"masculinidad":53,"pct_menor20":48,"pct_60mas":0,"pct_migrante":74,"dependencia_econ":156,"pct_empleados":33,"pct_cuentapropia":56,"pct_agricultura":56,"pct_comercio":22,"pct_manufactura":0,"pct_construccion":0,"pct_transporte":22,"pct_alojamiento":0,"pct_sin_educacion":0,"pct_educ_superior":0,"brecha_educ":6,"pct_sin_seguro":35,"pct_sus":65,"pct_seguro_privado":0,"brecha_seguro":43,"pct_salud_publica":16,"pct_med_tradicional":20,"pct_automedicacion":17,"pct_remedios_caseros":28,"pct_viv_desocupada":0,"pct_alquiler":14,"pct_electricidad":100,"pct_sin_electricidad":0,"pct_agua_red":43,"pct_alcantarillado":100,"pct_camara_septica":0,"pct_pozo_ciego":0,"pct_sin_desague":0,"pct_gas_red":0,"pct_gas_garrafa":100,"pct_lena_guano":100,"pct_basura_formal":0,"pct_basura_quema":71,"pct_basura_informal":0,"pct_internet":43,"pct_celular":86,"pct_televisor":71}},{"type":"Feature","geometry":{"type":"Polygon","coordinates":[[[-68.63907,-19.0051],[-68.63878,-19.00496],[-68.6383,-19.00579],[-68.63871,-19.00582],[-68.63907,-19.0051]]]},"properties":{"n":"LA RIVERA","p":18,"personas_x_ha":50,"masculinidad":125,"pct_menor20":28,"pct_60mas":6,"pct_migrante":33,"dependencia_econ":500,"pct_empleados":33,"pct_cuentapropia":67,"pct_agricultura":0,"pct_comercio":0,"pct_manufactura":0,"pct_construccion":0,"pct_transporte":67,"pct_alojamiento":0,"pct_sin_educacion":0,"pct_educ_superior":31,"brecha_educ":38,"pct_sin_seguro":76,"pct_sus":18,"pct_seguro_privado":0,"brecha_seguro":26,"pct_salud_publica":53,"pct_med_tradicional":3,"pct_automedicacion":25,"pct_remedios_caseros":12,"pct_viv_desocupada":12,"pct_alquiler":25,"pct_electricidad":100,"pct_sin_electricidad":0,"pct_agua_red":100,"pct_alcantarillado":75,"pct_camara_septica":0,"pct_pozo_ciego":0,"pct_sin_desague":25,"pct_gas_red":0,"pct_gas_garrafa":75,"pct_lena_guano":75,"pct_basura_formal":0,"pct_basura_quema":50,"pct_basura_informal":0,"pct_internet":75,"pct_celular":75,"pct_televisor":25}},{"type":"Feature","geometry":{"type":"Polygon","coordinates":[[[-68.64072,-19.00275],[-68.64136,-19.00145],[-68.64078,-19.00188],[-68.6404,-19.00262],[-68.64072,-19.00275]]]},"properties":{"n":"LA RIVERA","p":24,"personas_x_ha":53,"masculinidad":118,"pct_menor20":29,"pct_60mas":4,"pct_migrante":71,"dependencia_econ":71,"pct_empleados":21,"pct_cuentapropia":64,"pct_agricultura":14,"pct_comercio":36,"pct_manufactura":0,"pct_construccion":0,"pct_transporte":21,"pct_alojamiento":0,"pct_sin_educacion":0,"pct_educ_superior":59,"brecha_educ":-29,"pct_sin_seguro":33,"pct_sus":54,"pct_seguro_privado":0,"brecha_seguro":45,"pct_salud_publica":23,"pct_med_tradicional":22,"pct_automedicacion":18,"pct_remedios_caseros":26,"pct_viv_desocupada":0,"pct_alquiler":20,"pct_electricidad":90,"pct_sin_electricidad":10,"pct_agua_red":90,"pct_alcantarillado":80,"pct_camara_septica":10,"pct_pozo_ciego":10,"pct_sin_desague":0,"pct_gas_red":0,"pct_gas_garrafa":100,"pct_lena_guano":100,"pct_basura_formal":0,"pct_basura_quema":90,"pct_basura_informal":0,"pct_internet":60,"pct_celular":100,"pct_televisor":40}},{"type":"Feature","geometry":{"type":"Polygon","coordinates":[[[-68.63971,-19.00384],[-68.63934,-19.00368],[-68.63918,-19.00402],[-68.63955,-19.00416],[-68.63971,-19.00384]]]},"properties":{"n":"LA RIVERA","p":29,"personas_x_ha":169,"masculinidad":32,"pct_menor20":41,"pct_60mas":14,"pct_migrante":62,"dependencia_econ":81,"pct_empleados":12,"pct_cuentapropia":56,"pct_agricultura":44,"pct_comercio":31,"pct_manufactura":0,"pct_construccion":6,"pct_transporte":0,"pct_alojamiento":12,"pct_sin_educacion":0,"pct_educ_superior":11,"brecha_educ":-11,"pct_sin_seguro":21,"pct_sus":69,"pct_seguro_privado":0,"brecha_seguro":-8,"pct_salud_publica":29,"pct_med_tradicional":9,"pct_automedicacion":22,"pct_remedios_caseros":23,"pct_viv_desocupada":0,"pct_alquiler":12,"pct_electricidad":100,"pct_sin_electricidad":0,"pct_agua_red":50,"pct_alcantarillado":88,"pct_camara_septica":0,"pct_pozo_ciego":0,"pct_sin_desague":12,"pct_gas_red":0,"pct_gas_garrafa":100,"pct_lena_guano":100,"pct_basura_formal":0,"pct_basura_quema":88,"pct_basura_informal":0,"pct_internet":88,"pct_celular":100,"pct_televisor":50}},{"type":"Feature","geometry":{"type":"Polygon","coordinates":[[[-68.64072,-19.00424],[-68.64017,-19.00402],[-68.64001,-19.00431],[-68.64059,-19.00455],[-68.64072,-19.00424]]]},"properties":{"n":"LA RIVERA","p":33,"personas_x_ha":138,"masculinidad":83,"pct_menor20":45,"pct_60mas":3,"pct_migrante":58,"dependencia_econ":100,"pct_empleados":8,"pct_cuentapropia":33,"pct_agricultura":42,"pct_comercio":33,"pct_manufactura":0,"pct_construccion":0,"pct_transporte":8,"pct_alojamiento":17,"pct_sin_educacion":7,"pct_educ_superior":13,"brecha_educ":-44,"pct_sin_seguro":46,"pct_sus":54,"pct_seguro_privado":0,"brecha_seguro":16,"pct_salud_publica":35,"pct_med_tradicional":4,"pct_automedicacion":24,"pct_remedios_caseros":31,"pct_viv_desocupada":33,"pct_alquiler":0,"pct_electricidad":100,"pct_sin_electricidad":0,"pct_agua_red":100,"pct_alcantarillado":75,"pct_camara_septica":25,"pct_pozo_ciego":0,"pct_sin_desague":0,"pct_gas_red":0,"pct_gas_garrafa":100,"pct_lena_guano":100,"pct_basura_formal":0,"pct_basura_quema":100,"pct_basura_informal":0,"pct_internet":100,"pct_celular":100,"pct_televisor":75}}]}