{"type":"FeatureCollection","features":[{"type":"Feature","geometry":{"type":"Polygon","coordinates":[[[-67.63824,-18.81534],[-67.63819,-18.81441],[-67.63723,-18.81441],[-67.63719,-18.81535],[-67.63824,-18.81534]]]},"properties":{"n":"BELEN DE ANDAMARCA","p":22,"personas_x_ha":20,"masculinidad":175,"pct_menor20":45,"pct_60mas":0,"pct_migrante":73,"dependencia_econ":214,"pct_empleados":0,"pct_cuentapropia":86,"pct_agricultura":29,"pct_comercio":14,"pct_manufactura":0,"pct_construccion":14,"pct_transporte":0,"pct_alojamiento":14,"pct_educ_superior":33,"brecha_educ":-20,"pct_sin_seguro":18,"pct_seguro_privado":0,"brecha_seguro":29,"pct_med_tradicional":29,"pct_automedicacion":2,"pct_remedios_caseros":33,"pct_viv_desocupada":0,"pct_alquiler":0,"pct_electricidad":78,"pct_agua_red":56,"pct_alcantarillado":22,"pct_gas_red":0,"pct_gas_garrafa":89,"pct_lena_guano":89,"pct_basura_formal":0,"pct_basura_quema":100,"pct_basura_informal":0,"pct_internet":89,"pct_celular":89,"pct_televisor":44}},{"type":"Feature","geometry":{"type":"Polygon","coordinates":[[[-67.64142,-18.81657],[-67.64109,-18.81653],[-67.64099,-18.81721],[-67.64137,-18.8173],[-67.64142,-18.81657]]]},"properties":{"n":"BELEN DE ANDAMARCA","p":25,"personas_x_ha":83,"masculinidad":127,"pct_menor20":32,"pct_60mas":32,"pct_migrante":40,"dependencia_econ":67,"pct_empleados":0,"pct_cuentapropia":100,"pct_agricultura":93,"pct_comercio":0,"pct_manufactura":7,"pct_construccion":7,"pct_transporte":0,"pct_alojamiento":0,"pct_educ_superior":12,"brecha_educ":-6,"pct_sin_seguro":20,"pct_seguro_privado":0,"brecha_seguro":3,"pct_med_tradicional":19,"pct_automedicacion":21,"pct_remedios_caseros":24,"pct_viv_desocupada":0,"pct_alquiler":10,"pct_electricidad":100,"pct_agua_red":100,"pct_alcantarillado":70,"pct_gas_red":0,"pct_gas_garrafa":80,"pct_lena_guano":80,"pct_basura_formal":0,"pct_basura_quema":70,"pct_basura_informal":40,"pct_internet":80,"pct_celular":90,"pct_televisor":30}},{"type":"Feature","geometry":{"type":"Polygon","coordinates":[[[-67.64178,-18.81538],[-67.64157,-18.8154],[-67.64147,-18.81653],[-67.642,-18.81659],[-67.64204,-18.81568],[-67.64178,-18.81538]]]},"properties":{"n":"BELEN DE ANDAMARCA","p":32,"personas_x_ha":49,"masculinidad":113,"pct_menor20":38,"pct_60mas":16,"pct_migrante":53,"dependencia_econ":100,"pct_empleados":0,"pct_cuentapropia":81,"pct_agricultura":56,"pct_comercio":25,"pct_manufactura":6,"pct_construccion":0,"pct_transporte":6,"pct_alojamiento":0,"pct_educ_superior":40,"brecha_educ":-27,"pct_sin_seguro":22,"pct_seguro_privado":0,"brecha_seguro":4,"pct_med_tradicional":6,"pct_automedicacion":6,"pct_remedios_caseros":39,"pct_viv_desocupada":8,"pct_alquiler":0,"pct_electricidad":78,"pct_agua_red":89,"pct_alcantarillado":44,"pct_gas_red":0,"pct_gas_garrafa":89,"pct_lena_guano":89,"pct_basura_formal":11,"pct_basura_quema":67,"pct_basura_informal":22,"pct_internet":89,"pct_celular":100,"pct_televisor":33}},{"type":"Feature","geometry":{"type":"Polygon","coordinates":[[[-67.64115,-18.81779],[-67.64087,-18.81771],[-67.64081,-18.81836],[-67.64107,-18.81839],[-67.64115,-18.81779]]]},"properties":{"n":"BELEN DE ANDAMARCA","p":33,"personas_x_ha":153,"masculinidad":65,"pct_menor20":24,"pct_60mas":24,"pct_migrante":79,"dependencia_econ":83,"pct_empleados":33,"pct_cuentapropia":33,"pct_agricultura":39,"pct_comercio":28,"pct_manufactura":0,"pct_construccion":0,"pct_transporte":6,"pct_alojamiento":0,"pct_educ_superior":35,"brecha_educ":-21,"pct_sin_seguro":6,"pct_seguro_privado":9,"brecha_seguro":15,"pct_med_tradicional":5,"pct_automedicacion":5,"pct_remedios_caseros":27,"pct_viv_desocupada":0,"pct_alquiler":0,"pct_electricidad":91,"pct_agua_red":100,"pct_alcantarillado":55,"pct_gas_red":0,"pct_gas_garrafa":82,"pct_lena_guano":82,"pct_basura_formal":9,"pct_basura_quema":73,"pct_basura_informal":0,"pct_internet":45,"pct_celular":82,"pct_televisor":9}},{"type":"Feature","geometry":{"type":"Polygon","coordinates":[[[-67.64198,-18.81742],[-67.64199,-18.81669],[-67.64148,-18.81658],[-67.64141,-18.81731],[-67.64198,-18.81742]]]},"properties":{"n":"BELEN DE ANDAMARCA","p":31,"personas_x_ha":63,"masculinidad":72,"pct_menor20":32,"pct_60mas":16,"pct_migrante":52,"dependencia_econ":94,"pct_empleados":25,"pct_cuentapropia":69,"pct_agricultura":50,"pct_comercio":31,"pct_manufactura":0,"pct_construccion":0,"pct_transporte":0,"pct_alojamiento":0,"pct_educ_superior":27,"brecha_educ":-5,"pct_sin_seguro":19,"pct_seguro_privado":0,"brecha_seguro":-7,"pct_med_tradicional":2,"pct_automedicacion":13,"pct_remedios_caseros":35,"pct_viv_desocupada":0,"pct_alquiler":0,"pct_electricidad":100,"pct_agua_red":90,"pct_alcantarillado":60,"pct_gas_red":0,"pct_gas_garrafa":70,"pct_lena_guano":70,"pct_basura_formal":0,"pct_basura_quema":40,"pct_basura_informal":80,"pct_internet":70,"pct_celular":80,"pct_televisor":40}},{"type":"Feature","geometry":{"type":"Polygon","coordinates":[[[-67.64127,-18.81782],[-67.64116,-18.81805],[-67.64114,-18.8184],[-67.64194,-18.81827],[-67.64194,-18.818],[-67.64127,-18.81782]]]},"properties":{"n":"BELEN DE ANDAMARCA","p":27,"personas_x_ha":67,"masculinidad":69,"pct_menor20":19,"pct_60mas":26,"pct_migrante":52,"dependencia_econ":53,"pct_empleados":12,"pct_cuentapropia":88,"pct_agricultura":24,"pct_comercio":53,"pct_manufactura":0,"pct_construccion":0,"pct_transporte":12,"pct_alojamiento":0,"pct_educ_superior":24,"brecha_educ":-6,"pct_sin_seguro":15,"pct_seguro_privado":0,"brecha_seguro":5,"pct_med_tradicional":18,"pct_automedicacion":15,"pct_remedios_caseros":25,"pct_viv_desocupada":0,"pct_alquiler":0,"pct_electricidad":100,"pct_agua_red":67,"pct_alcantarillado":100,"pct_gas_red":0,"pct_gas_garrafa":89,"pct_lena_guano":89,"pct_basura_formal":22,"pct_basura_quema":33,"pct_basura_informal":22,"pct_internet":56,"pct_celular":89,"pct_televisor":22}},{"type":"Feature","geometry":{"type":"Polygon","coordinates":[[[-67.64236,-18.81686],[-67.64225,-18.81668],[-67.64204,-18.81666],[-67.64205,-18.81748],[-67.64246,-18.81763],[-67.64251,-18.81752],[-67.64247,-18.81734],[-67.6424,-18.81734],[-67.64236,-18.81686]]]},"properties":{"n":"BELEN DE ANDAMARCA","p":22,"personas_x_ha":61,"masculinidad":57,"pct_menor20":32,"pct_60mas":9,"pct_migrante":41,"dependencia_econ":100,"pct_empleados":18,"pct_cuentapropia":73,"pct_agricultura":64,"pct_comercio":27,"pct_manufactura":0,"pct_construccion":9,"pct_transporte":0,"pct_alojamiento":0,"pct_educ_superior":20,"brecha_educ":-22,"pct_sin_seguro":14,"pct_seguro_privado":0,"brecha_seguro":18,"pct_med_tradicional":7,"pct_automedicacion":2,"pct_remedios_caseros":30,"pct_viv_desocupada":8,"pct_alquiler":0,"pct_electricidad":91,"pct_agua_red":73,"pct_alcantarillado":73,"pct_gas_red":0,"pct_gas_garrafa":82,"pct_lena_guano":82,"pct_basura_formal":0,"pct_basura_quema":73,"pct_basura_informal":36,"pct_internet":55,"pct_celular":91,"pct_televisor":18}},{"type":"Feature","geometry":{"type":"Polygon","coordinates":[[[-67.64189,-18.8194],[-67.64189,-18.81919],[-67.64128,-18.81919],[-67.64133,-18.81943],[-67.64189,-18.8194]]]},"properties":{"n":"BELEN DE ANDAMARCA","p":21,"personas_x_ha":122,"masculinidad":133,"pct_menor20":43,"pct_60mas":10,"pct_migrante":43,"dependencia_econ":110,"pct_empleados":10,"pct_cuentapropia":90,"pct_agricultura":80,"pct_comercio":0,"pct_manufactura":10,"pct_construccion":10,"pct_transporte":0,"pct_alojamiento":0,"pct_educ_superior":8,"brecha_educ":12,"pct_sin_seguro":29,"pct_seguro_privado":0,"brecha_seguro":11,"pct_med_tradicional":10,"pct_automedicacion":18,"pct_remedios_caseros":25,"pct_viv_desocupada":9,"pct_alquiler":0,"pct_electricidad":100,"pct_agua_red":100,"pct_alcantarillado":62,"pct_gas_red":0,"pct_gas_garrafa":75,"pct_lena_guano":75,"pct_basura_formal":0,"pct_basura_quema":88,"pct_basura_informal":0,"pct_internet":38,"pct_celular":88,"pct_televisor":25}},{"type":"Feature","geometry":{"type":"Polygon","coordinates":[[[-67.64191,-18.81834],[-67.64112,-18.81845],[-67.64119,-18.81892],[-67.64189,-18.81882],[-67.64191,-18.81834]]]},"properties":{"n":"BELEN DE ANDAMARCA","p":27,"personas_x_ha":62,"masculinidad":238,"pct_menor20":11,"pct_60mas":26,"pct_migrante":63,"dependencia_econ":50,"pct_empleados":28,"pct_cuentapropia":56,"pct_agricultura":39,"pct_comercio":11,"pct_manufactura":6,"pct_construccion":6,"pct_transporte":11,"pct_alojamiento":0,"pct_educ_superior":46,"brecha_educ":-19,"pct_sin_seguro":22,"pct_seguro_privado":0,"brecha_seguro":14,"pct_med_tradicional":16,"pct_automedicacion":9,"pct_remedios_caseros":16,"pct_viv_desocupada":0,"pct_alquiler":0,"pct_electricidad":100,"pct_agua_red":93,"pct_alcantarillado":86,"pct_gas_red":0,"pct_gas_garrafa":71,"pct_lena_guano":71,"pct_basura_formal":7,"pct_basura_quema":64,"pct_basura_informal":0,"pct_internet":57,"pct_celular":86,"pct_televisor":29}},{"type":"Feature","geometry":{"type":"Polygon","coordinates":[[[-67.642,-18.81798],[-67.64254,-18.81809],[-67.64264,-18.81779],[-67.64204,-18.81756],[-67.642,-18.81798]]]},"properties":{"n":"BELEN DE ANDAMARCA","p":18,"personas_x_ha":70,"masculinidad":38,"pct_menor20":28,"pct_60mas":11,"pct_migrante":39,"dependencia_econ":64,"pct_empleados":0,"pct_cuentapropia":55,"pct_agricultura":45,"pct_comercio":18,"pct_manufactura":0,"pct_construccion":9,"pct_transporte":9,"pct_alojamiento":0,"pct_educ_superior":23,"brecha_educ":-30,"pct_sin_seguro":39,"pct_seguro_privado":0,"brecha_seguro":2,"pct_med_tradicional":14,"pct_automedicacion":14,"pct_remedios_caseros":27,"pct_viv_desocupada":25,"pct_alquiler":0,"pct_electricidad":100,"pct_agua_red":100,"pct_alcantarillado":33,"pct_gas_red":0,"pct_gas_garrafa":83,"pct_lena_guano":83,"pct_basura_formal":0,"pct_basura_quema":100,"pct_basura_informal":0,"pct_internet":33,"pct_celular":100,"pct_televisor":33}},{"type":"Feature","geometry":{"type":"Polygon","coordinates":[[[-67.64037,-18.81748],[-67.64084,-18.81761],[-67.64095,-18.81723],[-67.64042,-18.81709],[-67.64037,-18.81748]]]},"properties":{"n":"BELEN DE ANDAMARCA","p":22,"personas_x_ha":87,"masculinidad":175,"pct_menor20":32,"pct_60mas":18,"pct_migrante":50,"dependencia_econ":100,"pct_empleados":0,"pct_cuentapropia":73,"pct_agricultura":136,"pct_comercio":0,"pct_manufactura":0,"pct_construccion":0,"pct_transporte":0,"pct_alojamiento":0,"pct_educ_superior":0,"brecha_educ":6,"pct_sin_seguro":9,"pct_seguro_privado":0,"brecha_seguro":-5,"pct_med_tradicional":28,"pct_automedicacion":17,"pct_remedios_caseros":34,"pct_viv_desocupada":0,"pct_alquiler":0,"pct_electricidad":86,"pct_agua_red":100,"pct_alcantarillado":71,"pct_gas_red":0,"pct_gas_garrafa":71,"pct_lena_guano":71,"pct_basura_formal":0,"pct_basura_quema":71,"pct_basura_informal":0,"pct_internet":57,"pct_celular":86,"pct_televisor":14}},{"type":"Feature","geometry":{"type":"Polygon","coordinates":[[[-67.64071,-18.81676],[-67.64052,-18.81674],[-67.6404,-18.81703],[-67.64074,-18.81713],[-67.64078,-18.81693],[-67.64069,-18.81692],[-67.64071,-18.81676]]]},"properties":{"n":"BELEN DE ANDAMARCA","p":24,"personas_x_ha":216,"masculinidad":60,"pct_menor20":29,"pct_60mas":8,"pct_migrante":29,"dependencia_econ":380,"pct_empleados":20,"pct_cuentapropia":60,"pct_agricultura":60,"pct_comercio":40,"pct_manufactura":0,"pct_construccion":0,"pct_transporte":0,"pct_alojamiento":0,"pct_educ_superior":41,"brecha_educ":-45,"pct_sin_seguro":8,"pct_seguro_privado":0,"brecha_seguro":4,"pct_med_tradicional":18,"pct_automedicacion":21,"pct_remedios_caseros":21,"pct_viv_desocupada":0,"pct_alquiler":0,"pct_electricidad":100,"pct_agua_red":86,"pct_alcantarillado":71,"pct_gas_red":0,"pct_gas_garrafa":100,"pct_lena_guano":100,"pct_basura_formal":0,"pct_basura_quema":100,"pct_basura_informal":0,"pct_internet":0,"pct_celular":86,"pct_televisor":43}},{"type":"Feature","geometry":{"type":"Polygon","coordinates":[[[-67.63838,-18.81751],[-67.63716,-18.81737],[-67.6371,-18.81754],[-67.63735,-18.81758],[-67.63733,-18.81771],[-67.63745,-18.81778],[-67.63812,-18.81784],[-67.63835,-18.81767],[-67.63838,-18.81751]]]},"properties":{"n":"BELEN DE ANDAMARCA","p":21,"personas_x_ha":47,"masculinidad":91,"pct_menor20":48,"pct_60mas":5,"pct_migrante":48,"dependencia_econ":162,"pct_empleados":62,"pct_cuentapropia":25,"pct_agricultura":38,"pct_comercio":12,"pct_manufactura":0,"pct_construccion":25,"pct_transporte":12,"pct_alojamiento":12,"pct_educ_superior":36,"brecha_educ":-14,"pct_sin_seguro":10,"pct_seguro_privado":0,"brecha_seguro":-18,"pct_med_tradicional":10,"pct_automedicacion":19,"pct_remedios_caseros":34,"pct_viv_desocupada":25,"pct_alquiler":0,"pct_electricidad":0,"pct_agua_red":0,"pct_alcantarillado":0,"pct_gas_red":0,"pct_gas_garrafa":60,"pct_lena_guano":60,"pct_basura_formal":0,"pct_basura_quema":80,"pct_basura_informal":0,"pct_internet":60,"pct_celular":60,"pct_televisor":20}},{"type":"Feature","geometry":{"type":"Polygon","coordinates":[[[-67.64126,-18.81946],[-67.64115,-18.81898],[-67.64065,-18.81905],[-67.64063,-18.81949],[-67.64126,-18.81946]]]},"properties":{"n":"BELEN DE ANDAMARCA","p":26,"personas_x_ha":81,"masculinidad":117,"pct_menor20":27,"pct_60mas":23,"pct_migrante":50,"dependencia_econ":53,"pct_empleados":12,"pct_cuentapropia":71,"pct_agricultura":47,"pct_comercio":12,"pct_manufactura":24,"pct_construccion":0,"pct_transporte":12,"pct_alojamiento":0,"pct_educ_superior":21,"brecha_educ":-28,"pct_sin_seguro":16,"pct_seguro_privado":0,"brecha_seguro":12,"pct_med_tradicional":0,"pct_automedicacion":20,"pct_remedios_caseros":29,"pct_viv_desocupada":0,"pct_alquiler":0,"pct_electricidad":100,"pct_agua_red":100,"pct_alcantarillado":80,"pct_gas_red":0,"pct_gas_garrafa":90,"pct_lena_guano":90,"pct_basura_formal":0,"pct_basura_quema":100,"pct_basura_informal":0,"pct_internet":80,"pct_celular":100,"pct_televisor":60}},{"type":"Feature","geometry":{"type":"Polygon","coordinates":[[[-67.64084,-18.8177],[-67.64033,-18.81756],[-67.64022,-18.81821],[-67.64072,-18.81833],[-67.64084,-18.8177]]]},"properties":{"n":"BELEN DE ANDAMARCA","p":38,"personas_x_ha":94,"masculinidad":124,"pct_menor20":37,"pct_60mas":24,"pct_migrante":50,"dependencia_econ":68,"pct_empleados":23,"pct_cuentapropia":64,"pct_agricultura":64,"pct_comercio":9,"pct_manufactura":14,"pct_construccion":0,"pct_transporte":5,"pct_alojamiento":0,"pct_educ_superior":29,"brecha_educ":-23,"pct_sin_seguro":14,"pct_seguro_privado":0,"brecha_seguro":14,"pct_med_tradicional":18,"pct_automedicacion":18,"pct_remedios_caseros":26,"pct_viv_desocupada":16,"pct_alquiler":0,"pct_electricidad":85,"pct_agua_red":62,"pct_alcantarillado":85,"pct_gas_red":0,"pct_gas_garrafa":54,"pct_lena_guano":54,"pct_basura_formal":15,"pct_basura_quema":77,"pct_basura_informal":15,"pct_internet":46,"pct_celular":92,"pct_televisor":54}},{"type":"Feature","geometry":{"type":"Polygon","coordinates":[[[-67.64067,-18.81975],[-67.64083,-18.81974],[-67.64085,-18.82004],[-67.64069,-18.82005],[-67.64069,-18.82019],[-67.64142,-18.82013],[-67.64128,-18.81951],[-67.64066,-18.81956],[-67.64067,-18.81975]]]},"properties":{"n":"BELEN DE ANDAMARCA","p":22,"personas_x_ha":48,"masculinidad":83,"pct_menor20":18,"pct_60mas":27,"pct_migrante":32,"dependencia_econ":38,"pct_empleados":0,"pct_cuentapropia":69,"pct_agricultura":88,"pct_comercio":6,"pct_manufactura":6,"pct_construccion":0,"pct_transporte":0,"pct_alojamiento":0,"pct_educ_superior":20,"brecha_educ":-29,"pct_sin_seguro":41,"pct_seguro_privado":0,"brecha_seguro":17,"pct_med_tradicional":3,"pct_automedicacion":0,"pct_remedios_caseros":28,"pct_viv_desocupada":0,"pct_alquiler":0,"pct_electricidad":75,"pct_agua_red":50,"pct_alcantarillado":75,"pct_gas_red":0,"pct_gas_garrafa":50,"pct_lena_guano":50,"pct_basura_formal":0,"pct_basura_quema":88,"pct_basura_informal":0,"pct_internet":25,"pct_celular":88,"pct_televisor":12}},{"type":"Feature","geometry":{"type":"Polygon","coordinates":[[[-67.67674,-18.75942],[-67.67637,-18.75932],[-67.67626,-18.75967],[-67.67663,-18.75977],[-67.67674,-18.75942]]]},"properties":{"n":"CALAMA","p":16,"personas_x_ha":97,"masculinidad":167,"pct_menor20":44,"pct_60mas":25,"pct_migrante":62,"dependencia_econ":78,"pct_empleados":11,"pct_cuentapropia":56,"pct_agricultura":100,"pct_comercio":0,"pct_manufactura":0,"pct_construccion":0,"pct_transporte":0,"pct_alojamiento":0,"pct_educ_superior":11,"brecha_educ":-50,"pct_sin_seguro":19,"pct_seguro_privado":0,"brecha_seguro":30,"pct_med_tradicional":0,"pct_automedicacion":3,"pct_remedios_caseros":45,"pct_viv_desocupada":0,"pct_alquiler":0,"pct_electricidad":75,"pct_agua_red":88,"pct_alcantarillado":50,"pct_gas_red":0,"pct_gas_garrafa":0,"pct_lena_guano":0,"pct_basura_formal":0,"pct_basura_quema":100,"pct_basura_informal":0,"pct_internet":100,"pct_celular":100,"pct_televisor":12}},{"type":"Feature","geometry":{"type":"Polygon","coordinates":[[[-67.6766,-18.75986],[-67.67651,-18.76022],[-67.67615,-18.76011],[-67.67626,-18.75975],[-67.6766,-18.75986]]]},"properties":{"n":"CALAMA","p":25,"personas_x_ha":157,"masculinidad":127,"pct_menor20":48,"pct_60mas":16,"pct_migrante":32,"dependencia_econ":108,"pct_empleados":17,"pct_cuentapropia":58,"pct_agricultura":75,"pct_comercio":17,"pct_manufactura":0,"pct_construccion":8,"pct_transporte":8,"pct_alojamiento":0,"pct_educ_superior":0,"brecha_educ":-8,"pct_sin_seguro":0,"pct_seguro_privado":0,"brecha_seguro":0,"pct_med_tradicional":2,"pct_automedicacion":5,"pct_remedios_caseros":30,"pct_viv_desocupada":0,"pct_alquiler":0,"pct_electricidad":100,"pct_agua_red":71,"pct_alcantarillado":100,"pct_gas_red":0,"pct_gas_garrafa":100,"pct_lena_guano":100,"pct_basura_formal":0,"pct_basura_quema":86,"pct_basura_informal":0,"pct_internet":29,"pct_celular":71,"pct_televisor":14}},{"type":"Feature","geometry":{"type":"Polygon","coordinates":[[[-67.67631,-18.75931],[-67.67598,-18.75922],[-67.67588,-18.75955],[-67.67621,-18.75964],[-67.67631,-18.75931]]]},"properties":{"n":"CALAMA","p":19,"personas_x_ha":133,"masculinidad":111,"pct_menor20":37,"pct_60mas":16,"pct_migrante":63,"dependencia_econ":46,"pct_empleados":54,"pct_cuentapropia":38,"pct_agricultura":31,"pct_comercio":23,"pct_manufactura":23,"pct_construccion":15,"pct_transporte":15,"pct_alojamiento":0,"pct_educ_superior":8,"brecha_educ":-33,"pct_sin_seguro":11,"pct_seguro_privado":0,"brecha_seguro":-1,"pct_med_tradicional":9,"pct_automedicacion":23,"pct_remedios_caseros":30,"pct_viv_desocupada":0,"pct_alquiler":0,"pct_electricidad":100,"pct_agua_red":100,"pct_alcantarillado":88,"pct_gas_red":0,"pct_gas_garrafa":75,"pct_lena_guano":75,"pct_basura_formal":0,"pct_basura_quema":50,"pct_basura_informal":0,"pct_internet":100,"pct_celular":100,"pct_televisor":88}},{"type":"Feature","geometry":{"type":"Polygon","coordinates":[[[-67.75699,-18.74156],[-67.75694,-18.74106],[-67.75646,-18.7411],[-67.75649,-18.74159],[-67.75699,-18.74156]]]},"properties":{"n":"CRUZ DE HUAYLLAMARCA","p":26,"personas_x_ha":90,"masculinidad":62,"pct_menor20":38,"pct_60mas":12,"pct_migrante":54,"dependencia_econ":271,"pct_empleados":0,"pct_cuentapropia":86,"pct_agricultura":143,"pct_comercio":0,"pct_manufactura":29,"pct_construccion":0,"pct_transporte":0,"pct_alojamiento":14,"pct_educ_superior":6,"brecha_educ":-16,"pct_sin_seguro":8,"pct_seguro_privado":0,"brecha_seguro":-12,"pct_med_tradicional":26,"pct_automedicacion":11,"pct_remedios_caseros":30,"pct_viv_desocupada":0,"pct_alquiler":0,"pct_electricidad":50,"pct_agua_red":100,"pct_alcantarillado":83,"pct_gas_red":0,"pct_gas_garrafa":33,"pct_lena_guano":33,"pct_basura_formal":0,"pct_basura_quema":67,"pct_basura_informal":0,"pct_internet":17,"pct_celular":100,"pct_televisor":17}},{"type":"Feature","geometry":{"type":"Polygon","coordinates":[[[-67.75638,-18.7411],[-67.75598,-18.74114],[-67.75603,-18.74163],[-67.75642,-18.7416],[-67.75638,-18.7411]]]},"properties":{"n":"CRUZ DE HUAYLLAMARCA","p":26,"personas_x_ha":111,"masculinidad":160,"pct_menor20":27,"pct_60mas":27,"pct_migrante":50,"dependencia_econ":73,"pct_empleados":13,"pct_cuentapropia":73,"pct_agricultura":60,"pct_comercio":7,"pct_manufactura":0,"pct_construccion":7,"pct_transporte":7,"pct_alojamiento":7,"pct_educ_superior":37,"brecha_educ":-35,"pct_sin_seguro":4,"pct_seguro_privado":0,"brecha_seguro":-10,"pct_med_tradicional":2,"pct_automedicacion":13,"pct_remedios_caseros":35,"pct_viv_desocupada":0,"pct_alquiler":0,"pct_electricidad":62,"pct_agua_red":100,"pct_alcantarillado":100,"pct_gas_red":0,"pct_gas_garrafa":0,"pct_lena_guano":0,"pct_basura_formal":0,"pct_basura_quema":38,"pct_basura_informal":0,"pct_internet":62,"pct_celular":62,"pct_televisor":0}},{"type":"Feature","geometry":{"type":"Polygon","coordinates":[[[-67.75693,-18.74098],[-67.75689,-18.74054],[-67.75641,-18.74059],[-67.75644,-18.74103],[-67.75693,-18.74098]]]},"properties":{"n":"CRUZ DE HUAYLLAMARCA","p":41,"personas_x_ha":159,"masculinidad":105,"pct_menor20":46,"pct_60mas":12,"pct_migrante":41,"dependencia_econ":141,"pct_empleados":6,"pct_cuentapropia":76,"pct_agricultura":35,"pct_comercio":35,"pct_manufactura":12,"pct_construccion":6,"pct_transporte":0,"pct_alojamiento":0,"pct_educ_superior":41,"brecha_educ":-9,"pct_sin_seguro":12,"pct_seguro_privado":0,"brecha_seguro":14,"pct_med_tradicional":4,"pct_automedicacion":0,"pct_remedios_caseros":19,"pct_viv_desocupada":0,"pct_alquiler":0,"pct_electricidad":50,"pct_agua_red":100,"pct_alcantarillado":100,"pct_gas_red":0,"pct_gas_garrafa":67,"pct_lena_guano":67,"pct_basura_formal":0,"pct_basura_quema":42,"pct_basura_informal":17,"pct_internet":25,"pct_celular":100,"pct_televisor":25}},{"type":"Feature","geometry":{"type":"Polygon","coordinates":[[[-67.75686,-18.74],[-67.75683,-18.73957],[-67.75634,-18.7396],[-67.75638,-18.74005],[-67.75686,-18.74]]]},"properties":{"n":"CRUZ DE HUAYLLAMARCA","p":23,"personas_x_ha":90,"masculinidad":109,"pct_menor20":39,"pct_60mas":17,"pct_migrante":43,"dependencia_econ":130,"pct_empleados":10,"pct_cuentapropia":50,"pct_agricultura":90,"pct_comercio":10,"pct_manufactura":10,"pct_construccion":0,"pct_transporte":10,"pct_alojamiento":0,"pct_educ_superior":33,"brecha_educ":-6,"pct_sin_seguro":0,"pct_seguro_privado":0,"brecha_seguro":0,"pct_med_tradicional":24,"pct_automedicacion":3,"pct_remedios_caseros":35,"pct_viv_desocupada":0,"pct_alquiler":0,"pct_electricidad":86,"pct_agua_red":86,"pct_alcantarillado":100,"pct_gas_red":0,"pct_gas_garrafa":43,"pct_lena_guano":43,"pct_basura_formal":43,"pct_basura_quema":14,"pct_basura_informal":57,"pct_internet":29,"pct_celular":71,"pct_televisor":0}},{"type":"Feature","geometry":{"type":"Polygon","coordinates":[[[-67.75814,-18.74094],[-67.75758,-18.741],[-67.75764,-18.74146],[-67.75817,-18.7414],[-67.75814,-18.74094]]]},"properties":{"n":"CRUZ DE HUAYLLAMARCA","p":18,"personas_x_ha":59,"masculinidad":50,"pct_menor20":44,"pct_60mas":17,"pct_migrante":22,"dependencia_econ":125,"pct_empleados":12,"pct_cuentapropia":75,"pct_agricultura":62,"pct_comercio":50,"pct_manufactura":0,"pct_construccion":0,"pct_transporte":0,"pct_alojamiento":0,"pct_educ_superior":0,"brecha_educ":-8,"pct_sin_seguro":12,"pct_seguro_privado":0,"brecha_seguro":7,"pct_med_tradicional":5,"pct_automedicacion":0,"pct_remedios_caseros":0,"pct_viv_desocupada":0,"pct_alquiler":0,"pct_electricidad":75,"pct_agua_red":100,"pct_alcantarillado":75,"pct_gas_red":0,"pct_gas_garrafa":100,"pct_lena_guano":100,"pct_basura_formal":0,"pct_basura_quema":75,"pct_basura_informal":0,"pct_internet":12,"pct_celular":100,"pct_televisor":12}},{"type":"Feature","geometry":{"type":"Polygon","coordinates":[[[-67.75795,-18.74],[-67.75748,-18.74002],[-67.75751,-18.74041],[-67.75839,-18.74037],[-67.75795,-18.74]]]},"properties":{"n":"CRUZ DE HUAYLLAMARCA","p":17,"personas_x_ha":52,"masculinidad":89,"pct_menor20":35,"pct_60mas":12,"pct_migrante":6,"dependencia_econ":143,"pct_empleados":43,"pct_cuentapropia":57,"pct_agricultura":43,"pct_comercio":0,"pct_manufactura":0,"pct_construccion":14,"pct_transporte":0,"pct_alojamiento":0,"pct_educ_superior":45,"brecha_educ":-13,"pct_sin_seguro":6,"pct_seguro_privado":6,"brecha_seguro":12,"pct_med_tradicional":13,"pct_automedicacion":10,"pct_remedios_caseros":25,"pct_viv_desocupada":14,"pct_alquiler":0,"pct_electricidad":67,"pct_agua_red":50,"pct_alcantarillado":67,"pct_gas_red":0,"pct_gas_garrafa":33,"pct_lena_guano":33,"pct_basura_formal":0,"pct_basura_quema":100,"pct_basura_informal":0,"pct_internet":17,"pct_celular":50,"pct_televisor":33}},{"type":"Feature","geometry":{"type":"Polygon","coordinates":[[[-67.75687,-18.74047],[-67.75685,-18.74007],[-67.75639,-18.74011],[-67.75641,-18.74051],[-67.75687,-18.74047]]]},"properties":{"n":"CRUZ DE HUAYLLAMARCA","p":36,"personas_x_ha":161,"masculinidad":89,"pct_menor20":33,"pct_60mas":14,"pct_migrante":8,"dependencia_econ":84,"pct_empleados":16,"pct_cuentapropia":79,"pct_agricultura":21,"pct_comercio":79,"pct_manufactura":5,"pct_construccion":5,"pct_transporte":0,"pct_alojamiento":5,"pct_educ_superior":13,"brecha_educ":39,"pct_sin_seguro":3,"pct_seguro_privado":3,"brecha_seguro":-6,"pct_med_tradicional":1,"pct_automedicacion":25,"pct_remedios_caseros":36,"pct_viv_desocupada":0,"pct_alquiler":0,"pct_electricidad":91,"pct_agua_red":100,"pct_alcantarillado":91,"pct_gas_red":0,"pct_gas_garrafa":82,"pct_lena_guano":82,"pct_basura_formal":0,"pct_basura_quema":82,"pct_basura_informal":0,"pct_internet":73,"pct_celular":82,"pct_televisor":36}},{"type":"Feature","geometry":{"type":"Polygon","coordinates":[[[-67.75749,-18.74092],[-67.75744,-18.7405],[-67.75697,-18.74054],[-67.75701,-18.74097],[-67.75749,-18.74092]]]},"properties":{"n":"CRUZ DE HUAYLLAMARCA","p":27,"personas_x_ha":110,"masculinidad":125,"pct_menor20":26,"pct_60mas":19,"pct_migrante":15,"dependencia_econ":29,"pct_empleados":19,"pct_cuentapropia":57,"pct_agricultura":29,"pct_comercio":52,"pct_manufactura":19,"pct_construccion":0,"pct_transporte":0,"pct_alojamiento":0,"pct_educ_superior":15,"brecha_educ":-20,"pct_sin_seguro":4,"pct_seguro_privado":0,"brecha_seguro":-8,"pct_med_tradicional":12,"pct_automedicacion":6,"pct_remedios_caseros":35,"pct_viv_desocupada":0,"pct_alquiler":14,"pct_electricidad":43,"pct_agua_red":0,"pct_alcantarillado":86,"pct_gas_red":0,"pct_gas_garrafa":29,"pct_lena_guano":29,"pct_basura_formal":0,"pct_basura_quema":100,"pct_basura_informal":0,"pct_internet":29,"pct_celular":71,"pct_televisor":43}},{"type":"Feature","geometry":{"type":"Polygon","coordinates":[[[-67.69105,-18.75059],[-67.6906,-18.75041],[-67.69042,-18.75083],[-67.69086,-18.75102],[-67.69105,-18.75059]]]},"properties":{"n":"REAL MACHACAMARCA","p":28,"personas_x_ha":108,"masculinidad":100,"pct_menor20":43,"pct_60mas":7,"pct_migrante":39,"dependencia_econ":200,"pct_empleados":11,"pct_cuentapropia":78,"pct_agricultura":122,"pct_comercio":0,"pct_manufactura":0,"pct_construccion":0,"pct_transporte":0,"pct_alojamiento":0,"pct_educ_superior":6,"brecha_educ":-27,"pct_sin_seguro":0,"pct_seguro_privado":0,"brecha_seguro":0,"pct_med_tradicional":20,"pct_automedicacion":11,"pct_remedios_caseros":23,"pct_viv_desocupada":0,"pct_alquiler":0,"pct_electricidad":73,"pct_agua_red":64,"pct_alcantarillado":9,"pct_gas_red":0,"pct_gas_garrafa":36,"pct_lena_guano":36,"pct_basura_formal":9,"pct_basura_quema":82,"pct_basura_informal":0,"pct_internet":36,"pct_celular":73,"pct_televisor":18}},{"type":"Feature","geometry":{"type":"Polygon","coordinates":[[[-67.68979,-18.75065],[-67.68934,-18.75046],[-67.68915,-18.75086],[-67.6896,-18.75105],[-67.68979,-18.75065]]]},"properties":{"n":"REAL MACHACAMARCA","p":36,"personas_x_ha":139,"masculinidad":112,"pct_menor20":14,"pct_60mas":17,"pct_migrante":47,"dependencia_econ":44,"pct_empleados":24,"pct_cuentapropia":52,"pct_agricultura":52,"pct_comercio":12,"pct_manufactura":4,"pct_construccion":4,"pct_transporte":8,"pct_alojamiento":0,"pct_educ_superior":22,"brecha_educ":-17,"pct_sin_seguro":6,"pct_seguro_privado":0,"brecha_seguro":-1,"pct_med_tradicional":4,"pct_automedicacion":26,"pct_remedios_caseros":34,"pct_viv_desocupada":0,"pct_alquiler":0,"pct_electricidad":100,"pct_agua_red":62,"pct_alcantarillado":0,"pct_gas_red":0,"pct_gas_garrafa":77,"pct_lena_guano":77,"pct_basura_formal":0,"pct_basura_quema":92,"pct_basura_informal":0,"pct_internet":69,"pct_celular":92,"pct_televisor":23}},{"type":"Feature","geometry":{"type":"Polygon","coordinates":[[[-67.69009,-18.75128],[-67.6903,-18.75087],[-67.68987,-18.75068],[-67.68968,-18.7511],[-67.69009,-18.75128]]]},"properties":{"n":"REAL MACHACAMARCA","p":28,"personas_x_ha":110,"masculinidad":40,"pct_menor20":25,"pct_60mas":11,"pct_migrante":46,"dependencia_econ":59,"pct_empleados":18,"pct_cuentapropia":65,"pct_agricultura":47,"pct_comercio":47,"pct_manufactura":6,"pct_construccion":6,"pct_transporte":0,"pct_alojamiento":0,"pct_educ_superior":24,"brecha_educ":0,"pct_sin_seguro":15,"pct_seguro_privado":0,"brecha_seguro":14,"pct_med_tradicional":15,"pct_automedicacion":11,"pct_remedios_caseros":30,"pct_viv_desocupada":0,"pct_alquiler":0,"pct_electricidad":70,"pct_agua_red":100,"pct_alcantarillado":10,"pct_gas_red":0,"pct_gas_garrafa":50,"pct_lena_guano":50,"pct_basura_formal":0,"pct_basura_quema":70,"pct_basura_informal":0,"pct_internet":70,"pct_celular":90,"pct_televisor":30}},{"type":"Feature","geometry":{"type":"Polygon","coordinates":[[[-67.69057,-18.7503],[-67.6904,-18.75022],[-67.69003,-18.75032],[-67.68989,-18.75061],[-67.69034,-18.7508],[-67.69057,-18.7503]]]},"properties":{"n":"REAL MACHACAMARCA","p":30,"personas_x_ha":109,"masculinidad":114,"pct_menor20":53,"pct_60mas":7,"pct_migrante":27,"dependencia_econ":100,"pct_empleados":0,"pct_cuentapropia":90,"pct_agricultura":70,"pct_comercio":0,"pct_manufactura":0,"pct_construccion":0,"pct_transporte":20,"pct_alojamiento":0,"pct_educ_superior":0,"brecha_educ":8,"pct_sin_seguro":0,"pct_seguro_privado":0,"brecha_seguro":0,"pct_med_tradicional":5,"pct_automedicacion":15,"pct_remedios_caseros":39,"pct_viv_desocupada":0,"pct_alquiler":0,"pct_electricidad":100,"pct_agua_red":67,"pct_alcantarillado":11,"pct_gas_red":0,"pct_gas_garrafa":89,"pct_lena_guano":89,"pct_basura_formal":44,"pct_basura_quema":11,"pct_basura_informal":0,"pct_internet":67,"pct_celular":78,"pct_televisor":33}},{"type":"Feature","geometry":{"type":"Polygon","coordinates":[[[-67.6914,-18.75137],[-67.69091,-18.75115],[-67.69062,-18.75176],[-67.69095,-18.75192],[-67.69106,-18.75173],[-67.69117,-18.75178],[-67.6914,-18.75137]]]},"properties":{"n":"REAL MACHACAMARCA","p":20,"personas_x_ha":53,"masculinidad":150,"pct_menor20":45,"pct_60mas":30,"pct_migrante":65,"dependencia_econ":122,"pct_empleados":0,"pct_cuentapropia":89,"pct_agricultura":67,"pct_comercio":44,"pct_manufactura":0,"pct_construccion":0,"pct_transporte":0,"pct_alojamiento":0,"pct_educ_superior":36,"brecha_educ":-27,"pct_sin_seguro":11,"pct_seguro_privado":0,"brecha_seguro":-3,"pct_med_tradicional":15,"pct_automedicacion":16,"pct_remedios_caseros":28,"pct_viv_desocupada":0,"pct_alquiler":0,"pct_electricidad":80,"pct_agua_red":100,"pct_alcantarillado":0,"pct_gas_red":0,"pct_gas_garrafa":100,"pct_lena_guano":100,"pct_basura_formal":0,"pct_basura_quema":20,"pct_basura_informal":0,"pct_internet":40,"pct_celular":100,"pct_televisor":20}},{"type":"Feature","geometry":{"type":"Polygon","coordinates":[[[-67.69038,-18.75091],[-67.6902,-18.75132],[-67.69063,-18.7515],[-67.69082,-18.75109],[-67.69038,-18.75091]]]},"properties":{"n":"REAL MACHACAMARCA","p":19,"personas_x_ha":75,"masculinidad":138,"pct_menor20":26,"pct_60mas":16,"pct_migrante":89,"dependencia_econ":42,"pct_empleados":58,"pct_cuentapropia":33,"pct_agricultura":25,"pct_comercio":0,"pct_manufactura":0,"pct_construccion":8,"pct_transporte":8,"pct_alojamiento":0,"pct_educ_superior":85,"brecha_educ":0,"pct_sin_seguro":0,"pct_seguro_privado":0,"brecha_seguro":0,"pct_med_tradicional":15,"pct_automedicacion":16,"pct_remedios_caseros":25,"pct_viv_desocupada":12,"pct_alquiler":0,"pct_electricidad":100,"pct_agua_red":89,"pct_alcantarillado":0,"pct_gas_red":0,"pct_gas_garrafa":89,"pct_lena_guano":89,"pct_basura_formal":11,"pct_basura_quema":56,"pct_basura_informal":0,"pct_internet":67,"pct_celular":78,"pct_televisor":33}},{"type":"Feature","geometry":{"type":"Polygon","coordinates":[[[-67.68911,-18.75097],[-67.68892,-18.75137],[-67.68936,-18.75156],[-67.68955,-18.75114],[-67.68911,-18.75097]]]},"properties":{"n":"REAL MACHACAMARCA","p":41,"personas_x_ha":154,"masculinidad":78,"pct_menor20":32,"pct_60mas":22,"pct_migrante":51,"dependencia_econ":86,"pct_empleados":23,"pct_cuentapropia":50,"pct_agricultura":59,"pct_comercio":23,"pct_manufactura":5,"pct_construccion":14,"pct_transporte":5,"pct_alojamiento":0,"pct_educ_superior":24,"brecha_educ":-30,"pct_sin_seguro":28,"pct_seguro_privado":0,"brecha_seguro":1,"pct_med_tradicional":11,"pct_automedicacion":29,"pct_remedios_caseros":31,"pct_viv_desocupada":0,"pct_alquiler":0,"pct_electricidad":86,"pct_agua_red":50,"pct_alcantarillado":0,"pct_gas_red":0,"pct_gas_garrafa":93,"pct_lena_guano":93,"pct_basura_formal":0,"pct_basura_quema":64,"pct_basura_informal":0,"pct_internet":64,"pct_celular":93,"pct_televisor":21}},{"type":"Feature","geometry":{"type":"Polygon","coordinates":[[[-67.68905,-18.75083],[-67.68926,-18.75042],[-67.68883,-18.75023],[-67.68864,-18.75065],[-67.68905,-18.75083]]]},"properties":{"n":"REAL MACHACAMARCA","p":33,"personas_x_ha":128,"masculinidad":136,"pct_menor20":30,"pct_60mas":6,"pct_migrante":55,"dependencia_econ":131,"pct_empleados":8,"pct_cuentapropia":62,"pct_agricultura":38,"pct_comercio":38,"pct_manufactura":0,"pct_construccion":8,"pct_transporte":0,"pct_alojamiento":0,"pct_educ_superior":0,"brecha_educ":29,"pct_sin_seguro":46,"pct_seguro_privado":0,"brecha_seguro":17,"pct_med_tradicional":9,"pct_automedicacion":24,"pct_remedios_caseros":28,"pct_viv_desocupada":13,"pct_alquiler":9,"pct_electricidad":91,"pct_agua_red":73,"pct_alcantarillado":0,"pct_gas_red":0,"pct_gas_garrafa":73,"pct_lena_guano":73,"pct_basura_formal":0,"pct_basura_quema":73,"pct_basura_informal":0,"pct_internet":27,"pct_celular":45,"pct_televisor":27}},{"type":"Feature","geometry":{"type":"Polygon","coordinates":[[[-67.69047,-18.75591],[-67.69047,-18.75561],[-67.69023,-18.75552],[-67.69022,-18.75591],[-67.69047,-18.75591]]]},"properties":{"n":"REAL MACHACAMARCA (PICHACANI)","p":15,"personas_x_ha":144,"masculinidad":150,"pct_menor20":33,"pct_60mas":20,"pct_migrante":67,"dependencia_econ":650,"pct_empleados":0,"pct_cuentapropia":100,"pct_agricultura":100,"pct_comercio":100,"pct_manufactura":0,"pct_construccion":100,"pct_transporte":50,"pct_alojamiento":0,"pct_educ_superior":50,"brecha_educ":-38,"pct_sin_seguro":0,"pct_seguro_privado":0,"brecha_seguro":0,"pct_med_tradicional":0,"pct_automedicacion":20,"pct_remedios_caseros":29,"pct_viv_desocupada":12,"pct_alquiler":0,"pct_electricidad":75,"pct_agua_red":75,"pct_alcantarillado":0,"pct_gas_red":0,"pct_gas_garrafa":100,"pct_lena_guano":100,"pct_basura_formal":50,"pct_basura_quema":25,"pct_basura_informal":50,"pct_internet":0,"pct_celular":100,"pct_televisor":25}},{"type":"Feature","geometry":{"type":"Polygon","coordinates":[[[-67.69053,-18.75677],[-67.69049,-18.75629],[-67.69023,-18.75629],[-67.69022,-18.75681],[-67.69053,-18.75677]]]},"properties":{"n":"REAL MACHACAMARCA (PICHACANI)","p":21,"personas_x_ha":126,"masculinidad":250,"pct_menor20":29,"pct_60mas":14,"pct_migrante":0,"dependencia_econ":25,"pct_empleados":0,"pct_cuentapropia":100,"pct_agricultura":94,"pct_comercio":0,"pct_manufactura":12,"pct_construccion":0,"pct_transporte":0,"pct_alojamiento":0,"pct_educ_superior":7,"brecha_educ":20,"pct_sin_seguro":47,"pct_seguro_privado":0,"brecha_seguro":-4,"pct_med_tradicional":0,"pct_automedicacion":0,"pct_remedios_caseros":9,"pct_viv_desocupada":0,"pct_alquiler":0,"pct_electricidad":100,"pct_agua_red":57,"pct_alcantarillado":14,"pct_gas_red":0,"pct_gas_garrafa":57,"pct_lena_guano":57,"pct_basura_formal":71,"pct_basura_quema":0,"pct_basura_informal":29,"pct_internet":0,"pct_celular":100,"pct_televisor":14}}]}