{"type":"FeatureCollection","features":[{"type":"Feature","geometry":{"type":"Polygon","coordinates":[[[-67.48508,-10.86751],[-67.48592,-10.86772],[-67.48583,-10.86809],[-67.48569,-10.86827],[-67.48489,-10.8681],[-67.48508,-10.86751]]]},"properties":{"n":"1RO DE MAYO","p":17,"personas_x_ha":26,"masculinidad":183,"pct_menor20":47,"pct_60mas":0,"pct_migrante":100,"dependencia_econ":143,"pct_empleados":86,"pct_cuentapropia":14,"pct_agricultura":29,"pct_comercio":14,"pct_manufactura":0,"pct_construccion":0,"pct_transporte":0,"pct_alojamiento":0,"pct_sin_educacion":0,"pct_educ_superior":56,"brecha_educ":0,"pct_sin_seguro":0,"pct_sus":100,"pct_seguro_privado":0,"brecha_seguro":0,"pct_salud_publica":41,"pct_med_tradicional":3,"pct_automedicacion":9,"pct_remedios_caseros":19,"pct_viv_desocupada":0,"pct_alquiler":0,"pct_electricidad":100,"pct_sin_electricidad":0,"pct_agua_red":29,"pct_alcantarillado":0,"pct_camara_septica":57,"pct_pozo_ciego":43,"pct_sin_desague":0,"pct_gas_red":0,"pct_gas_garrafa":100,"pct_lena_guano":100,"pct_basura_formal":0,"pct_basura_quema":100,"pct_basura_informal":0,"pct_internet":100,"pct_celular":100,"pct_televisor":29}},{"type":"Feature","geometry":{"type":"Polygon","coordinates":[[[-67.48747,-10.87191],[-67.48607,-10.87136],[-67.48603,-10.87259],[-67.48747,-10.87264],[-67.48747,-10.87191]]]},"properties":{"n":"1RO DE MAYO","p":30,"personas_x_ha":18,"masculinidad":131,"pct_menor20":50,"pct_60mas":10,"pct_migrante":83,"dependencia_econ":131,"pct_empleados":0,"pct_cuentapropia":69,"pct_agricultura":77,"pct_comercio":0,"pct_manufactura":23,"pct_construccion":0,"pct_transporte":0,"pct_alojamiento":0,"pct_sin_educacion":0,"pct_educ_superior":7,"brecha_educ":-34,"pct_sin_seguro":3,"pct_sus":93,"pct_seguro_privado":0,"brecha_seguro":6,"pct_salud_publica":25,"pct_med_tradicional":12,"pct_automedicacion":25,"pct_remedios_caseros":25,"pct_viv_desocupada":0,"pct_alquiler":0,"pct_electricidad":100,"pct_sin_electricidad":0,"pct_agua_red":0,"pct_alcantarillado":0,"pct_camara_septica":0,"pct_pozo_ciego":33,"pct_sin_desague":0,"pct_gas_red":0,"pct_gas_garrafa":100,"pct_lena_guano":100,"pct_basura_formal":0,"pct_basura_quema":100,"pct_basura_informal":0,"pct_internet":100,"pct_celular":100,"pct_televisor":67}},{"type":"Feature","geometry":{"type":"Polygon","coordinates":[[[-67.48549,-10.86587],[-67.48632,-10.86606],[-67.48616,-10.86672],[-67.48531,-10.86653],[-67.48549,-10.86587]]]},"properties":{"n":"1RO DE MAYO","p":44,"personas_x_ha":60,"masculinidad":110,"pct_menor20":48,"pct_60mas":2,"pct_migrante":75,"dependencia_econ":69,"pct_empleados":31,"pct_cuentapropia":42,"pct_agricultura":54,"pct_comercio":15,"pct_manufactura":0,"pct_construccion":0,"pct_transporte":0,"pct_alojamiento":8,"pct_sin_educacion":0,"pct_educ_superior":25,"brecha_educ":6,"pct_sin_seguro":5,"pct_sus":86,"pct_seguro_privado":0,"brecha_seguro":9,"pct_salud_publica":33,"pct_med_tradicional":16,"pct_automedicacion":9,"pct_remedios_caseros":28,"pct_viv_desocupada":0,"pct_alquiler":8,"pct_electricidad":100,"pct_sin_electricidad":0,"pct_agua_red":0,"pct_alcantarillado":0,"pct_camara_septica":8,"pct_pozo_ciego":25,"pct_sin_desague":8,"pct_gas_red":0,"pct_gas_garrafa":100,"pct_lena_guano":100,"pct_basura_formal":0,"pct_basura_quema":100,"pct_basura_informal":0,"pct_internet":100,"pct_celular":100,"pct_televisor":58}},{"type":"Feature","geometry":{"type":"Polygon","coordinates":[[[-67.48487,-10.87271],[-67.48387,-10.87259],[-67.48374,-10.87271],[-67.48366,-10.87296],[-67.48481,-10.8733],[-67.48487,-10.87271]]]},"properties":{"n":"1RO DE MAYO","p":17,"personas_x_ha":25,"masculinidad":143,"pct_menor20":29,"pct_60mas":6,"pct_migrante":100,"dependencia_econ":143,"pct_empleados":43,"pct_cuentapropia":43,"pct_agricultura":71,"pct_comercio":0,"pct_manufactura":0,"pct_construccion":14,"pct_transporte":0,"pct_alojamiento":0,"pct_sin_educacion":23,"pct_educ_superior":8,"brecha_educ":8,"pct_sin_seguro":12,"pct_sus":88,"pct_seguro_privado":0,"brecha_seguro":20,"pct_salud_publica":27,"pct_med_tradicional":21,"pct_automedicacion":15,"pct_remedios_caseros":21,"pct_viv_desocupada":0,"pct_alquiler":0,"pct_electricidad":67,"pct_sin_electricidad":33,"pct_agua_red":0,"pct_alcantarillado":0,"pct_camara_septica":17,"pct_pozo_ciego":83,"pct_sin_desague":0,"pct_gas_red":0,"pct_gas_garrafa":83,"pct_lena_guano":83,"pct_basura_formal":0,"pct_basura_quema":83,"pct_basura_informal":33,"pct_internet":17,"pct_celular":17,"pct_televisor":0}},{"type":"Feature","geometry":{"type":"Polygon","coordinates":[[[-67.48523,-10.86586],[-67.48434,-10.86561],[-67.48417,-10.86628],[-67.48505,-10.86648],[-67.48523,-10.86586]]]},"properties":{"n":"1RO DE MAYO","p":41,"personas_x_ha":52,"masculinidad":128,"pct_menor20":32,"pct_60mas":7,"pct_migrante":90,"dependencia_econ":111,"pct_empleados":11,"pct_cuentapropia":74,"pct_agricultura":53,"pct_comercio":5,"pct_manufactura":0,"pct_construccion":5,"pct_transporte":5,"pct_alojamiento":11,"pct_sin_educacion":4,"pct_educ_superior":21,"brecha_educ":-34,"pct_sin_seguro":3,"pct_sus":85,"pct_seguro_privado":0,"brecha_seguro":-6,"pct_salud_publica":28,"pct_med_tradicional":6,"pct_automedicacion":22,"pct_remedios_caseros":23,"pct_viv_desocupada":0,"pct_alquiler":0,"pct_electricidad":100,"pct_sin_electricidad":0,"pct_agua_red":0,"pct_alcantarillado":8,"pct_camara_septica":17,"pct_pozo_ciego":58,"pct_sin_desague":0,"pct_gas_red":0,"pct_gas_garrafa":92,"pct_lena_guano":92,"pct_basura_formal":0,"pct_basura_quema":92,"pct_basura_informal":0,"pct_internet":75,"pct_celular":92,"pct_televisor":58}},{"type":"Feature","geometry":{"type":"Polygon","coordinates":[[[-67.48494,-10.87254],[-67.48501,-10.87179],[-67.48424,-10.87172],[-67.48412,-10.87216],[-67.4842,-10.87246],[-67.48494,-10.87254]]]},"properties":{"n":"1RO DE MAYO","p":36,"personas_x_ha":49,"masculinidad":112,"pct_menor20":50,"pct_60mas":3,"pct_migrante":89,"dependencia_econ":338,"pct_empleados":12,"pct_cuentapropia":50,"pct_agricultura":75,"pct_comercio":25,"pct_manufactura":0,"pct_construccion":0,"pct_transporte":0,"pct_alojamiento":0,"pct_sin_educacion":0,"pct_educ_superior":6,"brecha_educ":-3,"pct_sin_seguro":0,"pct_sus":94,"pct_seguro_privado":0,"brecha_seguro":0,"pct_salud_publica":55,"pct_med_tradicional":3,"pct_automedicacion":2,"pct_remedios_caseros":37,"pct_viv_desocupada":17,"pct_alquiler":0,"pct_electricidad":100,"pct_sin_electricidad":0,"pct_agua_red":0,"pct_alcantarillado":10,"pct_camara_septica":70,"pct_pozo_ciego":10,"pct_sin_desague":0,"pct_gas_red":0,"pct_gas_garrafa":80,"pct_lena_guano":80,"pct_basura_formal":0,"pct_basura_quema":100,"pct_basura_informal":0,"pct_internet":90,"pct_celular":100,"pct_televisor":60}},{"type":"Feature","geometry":{"type":"Polygon","coordinates":[[[-67.48571,-10.86501],[-67.48653,-10.86521],[-67.48638,-10.86584],[-67.48555,-10.86565],[-67.48571,-10.86501]]]},"properties":{"n":"1RO DE MAYO","p":33,"personas_x_ha":47,"masculinidad":94,"pct_menor20":52,"pct_60mas":9,"pct_migrante":85,"dependencia_econ":154,"pct_empleados":23,"pct_cuentapropia":54,"pct_agricultura":38,"pct_comercio":8,"pct_manufactura":8,"pct_construccion":15,"pct_transporte":0,"pct_alojamiento":8,"pct_sin_educacion":0,"pct_educ_superior":38,"brecha_educ":22,"pct_sin_seguro":0,"pct_sus":85,"pct_seguro_privado":0,"brecha_seguro":0,"pct_salud_publica":35,"pct_med_tradicional":5,"pct_automedicacion":17,"pct_remedios_caseros":35,"pct_viv_desocupada":0,"pct_alquiler":0,"pct_electricidad":75,"pct_sin_electricidad":25,"pct_agua_red":0,"pct_alcantarillado":0,"pct_camara_septica":0,"pct_pozo_ciego":88,"pct_sin_desague":0,"pct_gas_red":0,"pct_gas_garrafa":88,"pct_lena_guano":88,"pct_basura_formal":0,"pct_basura_quema":75,"pct_basura_informal":25,"pct_internet":88,"pct_celular":88,"pct_televisor":50}},{"type":"Feature","geometry":{"type":"Polygon","coordinates":[[[-67.48414,-10.87126],[-67.48368,-10.87111],[-67.48302,-10.87268],[-67.48347,-10.8729],[-67.48394,-10.87194],[-67.48414,-10.87126]]]},"properties":{"n":"1RO DE MAYO","p":32,"personas_x_ha":28,"masculinidad":146,"pct_menor20":50,"pct_60mas":9,"pct_migrante":84,"dependencia_econ":167,"pct_empleados":17,"pct_cuentapropia":58,"pct_agricultura":58,"pct_comercio":25,"pct_manufactura":0,"pct_construccion":8,"pct_transporte":0,"pct_alojamiento":0,"pct_sin_educacion":6,"pct_educ_superior":6,"brecha_educ":10,"pct_sin_seguro":9,"pct_sus":91,"pct_seguro_privado":0,"brecha_seguro":16,"pct_salud_publica":49,"pct_med_tradicional":5,"pct_automedicacion":6,"pct_remedios_caseros":25,"pct_viv_desocupada":0,"pct_alquiler":0,"pct_electricidad":89,"pct_sin_electricidad":11,"pct_agua_red":0,"pct_alcantarillado":0,"pct_camara_septica":22,"pct_pozo_ciego":56,"pct_sin_desague":0,"pct_gas_red":0,"pct_gas_garrafa":100,"pct_lena_guano":100,"pct_basura_formal":0,"pct_basura_quema":89,"pct_basura_informal":0,"pct_internet":89,"pct_celular":100,"pct_televisor":67}},{"type":"Feature","geometry":{"type":"Polygon","coordinates":[[[-67.48525,-10.86677],[-67.4861,-10.86697],[-67.48595,-10.86759],[-67.48509,-10.86739],[-67.48525,-10.86677]]]},"properties":{"n":"1RO DE MAYO","p":36,"personas_x_ha":52,"masculinidad":125,"pct_menor20":42,"pct_60mas":14,"pct_migrante":69,"dependencia_econ":177,"pct_empleados":38,"pct_cuentapropia":62,"pct_agricultura":46,"pct_comercio":8,"pct_manufactura":8,"pct_construccion":0,"pct_transporte":0,"pct_alojamiento":0,"pct_sin_educacion":5,"pct_educ_superior":33,"brecha_educ":-19,"pct_sin_seguro":3,"pct_sus":80,"pct_seguro_privado":0,"brecha_seguro":-7,"pct_salud_publica":60,"pct_med_tradicional":5,"pct_automedicacion":11,"pct_remedios_caseros":15,"pct_viv_desocupada":0,"pct_alquiler":0,"pct_electricidad":78,"pct_sin_electricidad":0,"pct_agua_red":0,"pct_alcantarillado":11,"pct_camara_septica":22,"pct_pozo_ciego":67,"pct_sin_desague":0,"pct_gas_red":0,"pct_gas_garrafa":67,"pct_lena_guano":67,"pct_basura_formal":0,"pct_basura_quema":67,"pct_basura_informal":0,"pct_internet":56,"pct_celular":67,"pct_televisor":33}},{"type":"Feature","geometry":{"type":"Polygon","coordinates":[[[-67.48502,-10.86674],[-67.48483,-10.86733],[-67.48397,-10.86713],[-67.48411,-10.8665],[-67.48502,-10.86674]]]},"properties":{"n":"1RO DE MAYO","p":44,"personas_x_ha":60,"masculinidad":132,"pct_menor20":43,"pct_60mas":2,"pct_migrante":95,"dependencia_econ":193,"pct_empleados":7,"pct_cuentapropia":33,"pct_agricultura":73,"pct_comercio":0,"pct_manufactura":7,"pct_construccion":7,"pct_transporte":0,"pct_alojamiento":13,"pct_sin_educacion":0,"pct_educ_superior":15,"brecha_educ":-12,"pct_sin_seguro":5,"pct_sus":95,"pct_seguro_privado":0,"brecha_seguro":-1,"pct_salud_publica":20,"pct_med_tradicional":20,"pct_automedicacion":20,"pct_remedios_caseros":20,"pct_viv_desocupada":0,"pct_alquiler":0,"pct_electricidad":100,"pct_sin_electricidad":0,"pct_agua_red":0,"pct_alcantarillado":0,"pct_camara_septica":0,"pct_pozo_ciego":82,"pct_sin_desague":0,"pct_gas_red":0,"pct_gas_garrafa":91,"pct_lena_guano":91,"pct_basura_formal":0,"pct_basura_quema":100,"pct_basura_informal":0,"pct_internet":36,"pct_celular":82,"pct_televisor":9}},{"type":"Feature","geometry":{"type":"Polygon","coordinates":[[[-67.29484,-10.64825],[-67.29526,-10.64804],[-67.29491,-10.6473],[-67.29443,-10.64752],[-67.29473,-10.64823],[-67.29484,-10.64825]]]},"properties":{"n":"MARISCAL ANTONIO JOSE DE SUCRE","p":20,"personas_x_ha":34,"masculinidad":122,"pct_menor20":45,"pct_60mas":10,"pct_migrante":65,"dependencia_econ":64,"pct_empleados":0,"pct_cuentapropia":82,"pct_agricultura":91,"pct_comercio":0,"pct_manufactura":0,"pct_construccion":0,"pct_transporte":0,"pct_alojamiento":0,"pct_sin_educacion":40,"pct_educ_superior":20,"brecha_educ":-24,"pct_sin_seguro":11,"pct_sus":89,"pct_seguro_privado":0,"brecha_seguro":0,"pct_salud_publica":32,"pct_med_tradicional":10,"pct_automedicacion":11,"pct_remedios_caseros":22,"pct_viv_desocupada":0,"pct_alquiler":0,"pct_electricidad":88,"pct_sin_electricidad":12,"pct_agua_red":0,"pct_alcantarillado":0,"pct_camara_septica":12,"pct_pozo_ciego":75,"pct_sin_desague":0,"pct_gas_red":0,"pct_gas_garrafa":88,"pct_lena_guano":88,"pct_basura_formal":0,"pct_basura_quema":88,"pct_basura_informal":25,"pct_internet":75,"pct_celular":75,"pct_televisor":62}},{"type":"Feature","geometry":{"type":"Polygon","coordinates":[[[-67.4202,-10.99005],[-67.42091,-10.9905],[-67.42064,-10.99092],[-67.41991,-10.99049],[-67.4202,-10.99005]]]},"properties":{"n":"PUERTO MORALES AYMA","p":26,"personas_x_ha":47,"masculinidad":117,"pct_menor20":46,"pct_60mas":0,"pct_migrante":100,"dependencia_econ":117,"pct_empleados":42,"pct_cuentapropia":58,"pct_agricultura":58,"pct_comercio":8,"pct_manufactura":0,"pct_construccion":0,"pct_transporte":0,"pct_alojamiento":0,"pct_sin_educacion":0,"pct_educ_superior":36,"brecha_educ":22,"pct_sin_seguro":4,"pct_sus":58,"pct_seguro_privado":0,"brecha_seguro":7,"pct_salud_publica":23,"pct_med_tradicional":18,"pct_automedicacion":9,"pct_remedios_caseros":22,"pct_viv_desocupada":0,"pct_alquiler":0,"pct_electricidad":100,"pct_sin_electricidad":0,"pct_agua_red":75,"pct_alcantarillado":12,"pct_camara_septica":12,"pct_pozo_ciego":75,"pct_sin_desague":0,"pct_gas_red":0,"pct_gas_garrafa":75,"pct_lena_guano":75,"pct_basura_formal":0,"pct_basura_quema":88,"pct_basura_informal":25,"pct_internet":88,"pct_celular":100,"pct_televisor":62}},{"type":"Feature","geometry":{"type":"Polygon","coordinates":[[[-67.42006,-10.98998],[-67.41937,-10.98952],[-67.41906,-10.98994],[-67.41978,-10.99041],[-67.42006,-10.98998]]]},"properties":{"n":"PUERTO MORALES AYMA","p":33,"personas_x_ha":58,"masculinidad":136,"pct_menor20":33,"pct_60mas":12,"pct_migrante":94,"dependencia_econ":78,"pct_empleados":11,"pct_cuentapropia":61,"pct_agricultura":44,"pct_comercio":6,"pct_manufactura":0,"pct_construccion":6,"pct_transporte":11,"pct_alojamiento":22,"pct_sin_educacion":9,"pct_educ_superior":18,"brecha_educ":-6,"pct_sin_seguro":7,"pct_sus":90,"pct_seguro_privado":0,"brecha_seguro":11,"pct_salud_publica":29,"pct_med_tradicional":18,"pct_automedicacion":20,"pct_remedios_caseros":19,"pct_viv_desocupada":0,"pct_alquiler":9,"pct_electricidad":100,"pct_sin_electricidad":0,"pct_agua_red":18,"pct_alcantarillado":9,"pct_camara_septica":0,"pct_pozo_ciego":91,"pct_sin_desague":0,"pct_gas_red":0,"pct_gas_garrafa":91,"pct_lena_guano":91,"pct_basura_formal":0,"pct_basura_quema":100,"pct_basura_informal":0,"pct_internet":82,"pct_celular":82,"pct_televisor":55}},{"type":"Feature","geometry":{"type":"Polygon","coordinates":[[[-67.41853,-10.98899],[-67.41925,-10.98946],[-67.41896,-10.98989],[-67.41821,-10.98946],[-67.41853,-10.98899]]]},"properties":{"n":"PUERTO MORALES AYMA","p":30,"personas_x_ha":50,"masculinidad":131,"pct_menor20":50,"pct_60mas":0,"pct_migrante":67,"dependencia_econ":131,"pct_empleados":38,"pct_cuentapropia":54,"pct_agricultura":38,"pct_comercio":31,"pct_manufactura":0,"pct_construccion":15,"pct_transporte":0,"pct_alojamiento":0,"pct_sin_educacion":0,"pct_educ_superior":27,"brecha_educ":10,"pct_sin_seguro":0,"pct_sus":77,"pct_seguro_privado":0,"brecha_seguro":0,"pct_salud_publica":33,"pct_med_tradicional":8,"pct_automedicacion":14,"pct_remedios_caseros":29,"pct_viv_desocupada":0,"pct_alquiler":11,"pct_electricidad":100,"pct_sin_electricidad":0,"pct_agua_red":100,"pct_alcantarillado":0,"pct_camara_septica":22,"pct_pozo_ciego":78,"pct_sin_desague":0,"pct_gas_red":0,"pct_gas_garrafa":100,"pct_lena_guano":100,"pct_basura_formal":11,"pct_basura_quema":89,"pct_basura_informal":0,"pct_internet":89,"pct_celular":100,"pct_televisor":89}},{"type":"Feature","geometry":{"type":"Polygon","coordinates":[[[-67.4196,-10.98893],[-67.41931,-10.98935],[-67.41858,-10.98888],[-67.41888,-10.98845],[-67.4196,-10.98893]]]},"properties":{"n":"PUERTO MORALES AYMA","p":15,"personas_x_ha":26,"masculinidad":150,"pct_menor20":27,"pct_60mas":27,"pct_migrante":73,"dependencia_econ":100,"pct_empleados":29,"pct_cuentapropia":57,"pct_agricultura":71,"pct_comercio":14,"pct_manufactura":0,"pct_construccion":0,"pct_transporte":0,"pct_alojamiento":0,"pct_sin_educacion":10,"pct_educ_superior":10,"brecha_educ":5,"pct_sin_seguro":0,"pct_sus":79,"pct_seguro_privado":0,"brecha_seguro":0,"pct_salud_publica":28,"pct_med_tradicional":14,"pct_automedicacion":14,"pct_remedios_caseros":26,"pct_viv_desocupada":0,"pct_alquiler":14,"pct_electricidad":100,"pct_sin_electricidad":0,"pct_agua_red":14,"pct_alcantarillado":14,"pct_camara_septica":0,"pct_pozo_ciego":86,"pct_sin_desague":0,"pct_gas_red":0,"pct_gas_garrafa":100,"pct_lena_guano":100,"pct_basura_formal":0,"pct_basura_quema":100,"pct_basura_informal":0,"pct_internet":71,"pct_celular":86,"pct_televisor":14}},{"type":"Feature","geometry":{"type":"Polygon","coordinates":[[[-67.42053,-10.98956],[-67.42127,-10.99002],[-67.42098,-10.99042],[-67.42027,-10.98994],[-67.42053,-10.98956]]]},"properties":{"n":"PUERTO MORALES AYMA","p":16,"personas_x_ha":32,"masculinidad":300,"pct_menor20":44,"pct_60mas":0,"pct_migrante":88,"dependencia_econ":67,"pct_empleados":22,"pct_cuentapropia":67,"pct_agricultura":67,"pct_comercio":11,"pct_manufactura":0,"pct_construccion":0,"pct_transporte":22,"pct_alojamiento":0,"pct_sin_educacion":0,"pct_educ_superior":12,"brecha_educ":-33,"pct_sin_seguro":13,"pct_sus":80,"pct_seguro_privado":0,"brecha_seguro":-16,"pct_salud_publica":33,"pct_med_tradicional":20,"pct_automedicacion":22,"pct_remedios_caseros":20,"pct_viv_desocupada":0,"pct_alquiler":0,"pct_electricidad":100,"pct_sin_electricidad":0,"pct_agua_red":83,"pct_alcantarillado":0,"pct_camara_septica":0,"pct_pozo_ciego":100,"pct_sin_desague":0,"pct_gas_red":0,"pct_gas_garrafa":100,"pct_lena_guano":100,"pct_basura_formal":0,"pct_basura_quema":100,"pct_basura_informal":0,"pct_internet":100,"pct_celular":100,"pct_televisor":33}},{"type":"Feature","geometry":{"type":"Polygon","coordinates":[[[-67.41796,-10.9896],[-67.41721,-10.98907],[-67.41689,-10.98952],[-67.4169,-10.98961],[-67.41765,-10.99007],[-67.41796,-10.9896]]]},"properties":{"n":"PUERTO MORALES AYMA","p":27,"personas_x_ha":39,"masculinidad":125,"pct_menor20":41,"pct_60mas":0,"pct_migrante":93,"dependencia_econ":145,"pct_empleados":27,"pct_cuentapropia":55,"pct_agricultura":36,"pct_comercio":36,"pct_manufactura":9,"pct_construccion":18,"pct_transporte":0,"pct_alojamiento":0,"pct_sin_educacion":0,"pct_educ_superior":0,"brecha_educ":0,"pct_sin_seguro":4,"pct_sus":96,"pct_seguro_privado":0,"brecha_seguro":-8,"pct_salud_publica":38,"pct_med_tradicional":11,"pct_automedicacion":6,"pct_remedios_caseros":35,"pct_viv_desocupada":17,"pct_alquiler":14,"pct_electricidad":100,"pct_sin_electricidad":0,"pct_agua_red":57,"pct_alcantarillado":0,"pct_camara_septica":0,"pct_pozo_ciego":86,"pct_sin_desague":0,"pct_gas_red":0,"pct_gas_garrafa":100,"pct_lena_guano":100,"pct_basura_formal":0,"pct_basura_quema":86,"pct_basura_informal":29,"pct_internet":86,"pct_celular":86,"pct_televisor":43}},{"type":"Feature","geometry":{"type":"Polygon","coordinates":[[[-67.42048,-10.99121],[-67.41977,-10.99072],[-67.41945,-10.99115],[-67.4202,-10.99163],[-67.42048,-10.99121]]]},"properties":{"n":"PUERTO MORALES AYMA","p":31,"personas_x_ha":53,"masculinidad":121,"pct_menor20":45,"pct_60mas":6,"pct_migrante":94,"dependencia_econ":48,"pct_empleados":10,"pct_cuentapropia":90,"pct_agricultura":81,"pct_comercio":14,"pct_manufactura":0,"pct_construccion":0,"pct_transporte":0,"pct_alojamiento":5,"pct_sin_educacion":6,"pct_educ_superior":0,"brecha_educ":0,"pct_sin_seguro":0,"pct_sus":100,"pct_seguro_privado":0,"brecha_seguro":0,"pct_salud_publica":28,"pct_med_tradicional":20,"pct_automedicacion":23,"pct_remedios_caseros":22,"pct_viv_desocupada":23,"pct_alquiler":0,"pct_electricidad":100,"pct_sin_electricidad":0,"pct_agua_red":75,"pct_alcantarillado":12,"pct_camara_septica":0,"pct_pozo_ciego":88,"pct_sin_desague":0,"pct_gas_red":0,"pct_gas_garrafa":88,"pct_lena_guano":88,"pct_basura_formal":0,"pct_basura_quema":100,"pct_basura_informal":0,"pct_internet":88,"pct_celular":88,"pct_televisor":50}},{"type":"Feature","geometry":{"type":"Polygon","coordinates":[[[-67.41928,-10.99124],[-67.41852,-10.99079],[-67.41808,-10.99139],[-67.41888,-10.9919],[-67.41928,-10.99124]]]},"properties":{"n":"PUERTO MORALES AYMA","p":20,"personas_x_ha":22,"masculinidad":186,"pct_menor20":55,"pct_60mas":10,"pct_migrante":85,"dependencia_econ":82,"pct_empleados":9,"pct_cuentapropia":55,"pct_agricultura":64,"pct_comercio":18,"pct_manufactura":9,"pct_construccion":0,"pct_transporte":9,"pct_alojamiento":0,"pct_sin_educacion":30,"pct_educ_superior":0,"brecha_educ":-38,"pct_sin_seguro":5,"pct_sus":95,"pct_seguro_privado":0,"brecha_seguro":8,"pct_salud_publica":31,"pct_med_tradicional":13,"pct_automedicacion":31,"pct_remedios_caseros":25,"pct_viv_desocupada":0,"pct_alquiler":0,"pct_electricidad":100,"pct_sin_electricidad":0,"pct_agua_red":33,"pct_alcantarillado":0,"pct_camara_septica":0,"pct_pozo_ciego":100,"pct_sin_desague":0,"pct_gas_red":0,"pct_gas_garrafa":83,"pct_lena_guano":83,"pct_basura_formal":0,"pct_basura_quema":100,"pct_basura_informal":0,"pct_internet":83,"pct_celular":83,"pct_televisor":67}},{"type":"Feature","geometry":{"type":"Polygon","coordinates":[[[-67.41764,-10.98842],[-67.41839,-10.9889],[-67.41811,-10.98937],[-67.41732,-10.98891],[-67.41764,-10.98842]]]},"properties":{"n":"PUERTO MORALES AYMA","p":34,"personas_x_ha":51,"masculinidad":70,"pct_menor20":47,"pct_60mas":0,"pct_migrante":88,"dependencia_econ":79,"pct_empleados":21,"pct_cuentapropia":47,"pct_agricultura":79,"pct_comercio":0,"pct_manufactura":0,"pct_construccion":0,"pct_transporte":0,"pct_alojamiento":5,"pct_sin_educacion":0,"pct_educ_superior":28,"brecha_educ":-3,"pct_sin_seguro":3,"pct_sus":85,"pct_seguro_privado":0,"brecha_seguro":-5,"pct_salud_publica":53,"pct_med_tradicional":14,"pct_automedicacion":12,"pct_remedios_caseros":11,"pct_viv_desocupada":0,"pct_alquiler":0,"pct_electricidad":100,"pct_sin_electricidad":0,"pct_agua_red":50,"pct_alcantarillado":0,"pct_camara_septica":0,"pct_pozo_ciego":88,"pct_sin_desague":12,"pct_gas_red":0,"pct_gas_garrafa":100,"pct_lena_guano":100,"pct_basura_formal":0,"pct_basura_quema":75,"pct_basura_informal":50,"pct_internet":75,"pct_celular":88,"pct_televisor":50}},{"type":"Feature","geometry":{"type":"Polygon","coordinates":[[[-67.41879,-10.99014],[-67.41809,-10.98967],[-67.41777,-10.99009],[-67.41778,-10.99016],[-67.41845,-10.99057],[-67.41879,-10.99014]]]},"properties":{"n":"PUERTO MORALES AYMA","p":27,"personas_x_ha":44,"masculinidad":108,"pct_menor20":41,"pct_60mas":4,"pct_migrante":89,"dependencia_econ":59,"pct_empleados":47,"pct_cuentapropia":53,"pct_agricultura":71,"pct_comercio":6,"pct_manufactura":0,"pct_construccion":0,"pct_transporte":6,"pct_alojamiento":0,"pct_sin_educacion":0,"pct_educ_superior":19,"brecha_educ":-30,"pct_sin_seguro":15,"pct_sus":59,"pct_seguro_privado":0,"brecha_seguro":14,"pct_salud_publica":25,"pct_med_tradicional":8,"pct_automedicacion":20,"pct_remedios_caseros":25,"pct_viv_desocupada":9,"pct_alquiler":22,"pct_electricidad":100,"pct_sin_electricidad":0,"pct_agua_red":89,"pct_alcantarillado":0,"pct_camara_septica":11,"pct_pozo_ciego":67,"pct_sin_desague":22,"pct_gas_red":0,"pct_gas_garrafa":89,"pct_lena_guano":89,"pct_basura_formal":0,"pct_basura_quema":100,"pct_basura_informal":0,"pct_internet":89,"pct_celular":100,"pct_televisor":56}},{"type":"Feature","geometry":{"type":"Polygon","coordinates":[[[-67.45411,-10.60939],[-67.45324,-10.60894],[-67.45295,-10.60966],[-67.45375,-10.61009],[-67.45411,-10.60939]]]},"properties":{"n":"SANTA ROSA","p":31,"personas_x_ha":33,"masculinidad":158,"pct_menor20":42,"pct_60mas":13,"pct_migrante":71,"dependencia_econ":107,"pct_empleados":0,"pct_cuentapropia":47,"pct_agricultura":87,"pct_comercio":7,"pct_manufactura":0,"pct_construccion":0,"pct_transporte":0,"pct_alojamiento":0,"pct_sin_educacion":6,"pct_educ_superior":28,"brecha_educ":-33,"pct_sin_seguro":0,"pct_sus":83,"pct_seguro_privado":0,"brecha_seguro":0,"pct_salud_publica":61,"pct_med_tradicional":4,"pct_automedicacion":8,"pct_remedios_caseros":18,"pct_viv_desocupada":11,"pct_alquiler":0,"pct_electricidad":88,"pct_sin_electricidad":12,"pct_agua_red":0,"pct_alcantarillado":12,"pct_camara_septica":50,"pct_pozo_ciego":38,"pct_sin_desague":0,"pct_gas_red":0,"pct_gas_garrafa":75,"pct_lena_guano":75,"pct_basura_formal":0,"pct_basura_quema":100,"pct_basura_informal":0,"pct_internet":75,"pct_celular":75,"pct_televisor":62}},{"type":"Feature","geometry":{"type":"Polygon","coordinates":[[[-67.45202,-10.60942],[-67.45143,-10.6091],[-67.45138,-10.60998],[-67.4518,-10.61019],[-67.45202,-10.60942]]]},"properties":{"n":"SANTA ROSA","p":16,"personas_x_ha":28,"masculinidad":300,"pct_menor20":25,"pct_60mas":0,"pct_migrante":94,"dependencia_econ":23,"pct_empleados":77,"pct_cuentapropia":23,"pct_agricultura":23,"pct_comercio":8,"pct_manufactura":0,"pct_construccion":0,"pct_transporte":0,"pct_alojamiento":0,"pct_sin_educacion":0,"pct_educ_superior":69,"brecha_educ":0,"pct_sin_seguro":12,"pct_sus":38,"pct_seguro_privado":0,"brecha_seguro":17,"pct_salud_publica":22,"pct_med_tradicional":16,"pct_automedicacion":13,"pct_remedios_caseros":22,"pct_viv_desocupada":71,"pct_alquiler":0,"pct_electricidad":100,"pct_sin_electricidad":0,"pct_agua_red":0,"pct_alcantarillado":0,"pct_camara_septica":0,"pct_pozo_ciego":100,"pct_sin_desague":0,"pct_gas_red":0,"pct_gas_garrafa":100,"pct_lena_guano":100,"pct_basura_formal":0,"pct_basura_quema":100,"pct_basura_informal":0,"pct_internet":100,"pct_celular":100,"pct_televisor":50}},{"type":"Feature","geometry":{"type":"Polygon","coordinates":[[[-67.45138,-10.6068],[-67.4513,-10.60689],[-67.45131,-10.6076],[-67.45237,-10.60817],[-67.45276,-10.60749],[-67.45138,-10.6068]]]},"properties":{"n":"SANTA ROSA","p":20,"personas_x_ha":15,"masculinidad":233,"pct_menor20":25,"pct_60mas":20,"pct_migrante":70,"dependencia_econ":100,"pct_empleados":20,"pct_cuentapropia":80,"pct_agricultura":50,"pct_comercio":40,"pct_manufactura":10,"pct_construccion":0,"pct_transporte":0,"pct_alojamiento":0,"pct_sin_educacion":13,"pct_educ_superior":13,"brecha_educ":0,"pct_sin_seguro":15,"pct_sus":85,"pct_seguro_privado":0,"brecha_seguro":-2,"pct_salud_publica":100,"pct_med_tradicional":0,"pct_automedicacion":0,"pct_remedios_caseros":0,"pct_viv_desocupada":18,"pct_alquiler":0,"pct_electricidad":86,"pct_sin_electricidad":14,"pct_agua_red":0,"pct_alcantarillado":0,"pct_camara_septica":29,"pct_pozo_ciego":71,"pct_sin_desague":0,"pct_gas_red":0,"pct_gas_garrafa":86,"pct_lena_guano":86,"pct_basura_formal":0,"pct_basura_quema":100,"pct_basura_informal":0,"pct_internet":100,"pct_celular":100,"pct_televisor":71}},{"type":"Feature","geometry":{"type":"Polygon","coordinates":[[[-67.45369,-10.608],[-67.45329,-10.60876],[-67.45414,-10.60916],[-67.45446,-10.60838],[-67.45369,-10.608]]]},"properties":{"n":"SANTA ROSA","p":15,"personas_x_ha":16,"masculinidad":88,"pct_menor20":47,"pct_60mas":7,"pct_migrante":40,"dependencia_econ":114,"pct_empleados":43,"pct_cuentapropia":0,"pct_agricultura":57,"pct_comercio":0,"pct_manufactura":0,"pct_construccion":0,"pct_transporte":0,"pct_alojamiento":0,"pct_sin_educacion":11,"pct_educ_superior":44,"brecha_educ":30,"pct_sin_seguro":0,"pct_sus":100,"pct_seguro_privado":0,"brecha_seguro":0,"pct_salud_publica":43,"pct_med_tradicional":3,"pct_automedicacion":0,"pct_remedios_caseros":20,"pct_viv_desocupada":43,"pct_alquiler":0,"pct_electricidad":100,"pct_sin_electricidad":0,"pct_agua_red":0,"pct_alcantarillado":0,"pct_camara_septica":67,"pct_pozo_ciego":33,"pct_sin_desague":0,"pct_gas_red":0,"pct_gas_garrafa":100,"pct_lena_guano":100,"pct_basura_formal":0,"pct_basura_quema":100,"pct_basura_informal":0,"pct_internet":100,"pct_celular":100,"pct_televisor":67}}]}