{"type":"FeatureCollection","features":[{"type":"Feature","geometry":{"type":"Polygon","coordinates":[[[-65.96511,-10.79548],[-65.96578,-10.79507],[-65.96539,-10.7944],[-65.96468,-10.79476],[-65.96511,-10.79548]]]},"properties":{"n":"LOMA ALTA","p":36,"personas_x_ha":46,"masculinidad":89,"pct_menor20":50,"pct_60mas":0,"pct_migrante":75,"dependencia_econ":50,"pct_empleados":33,"pct_cuentapropia":50,"pct_agricultura":58,"pct_comercio":8,"pct_manufactura":0,"pct_construccion":4,"pct_transporte":4,"pct_alojamiento":21,"pct_educ_superior":11,"brecha_educ":22,"pct_sin_seguro":11,"pct_seguro_privado":8,"brecha_seguro":24,"pct_med_tradicional":15,"pct_automedicacion":16,"pct_remedios_caseros":20,"pct_viv_desocupada":0,"pct_alquiler":0,"pct_electricidad":100,"pct_agua_red":0,"pct_alcantarillado":0,"pct_gas_red":0,"pct_gas_garrafa":40,"pct_lena_guano":40,"pct_basura_formal":0,"pct_basura_quema":60,"pct_basura_informal":0,"pct_internet":60,"pct_celular":80,"pct_televisor":80}},{"type":"Feature","geometry":{"type":"Polygon","coordinates":[[[-65.9657,-10.79284],[-65.96531,-10.79212],[-65.96455,-10.79257],[-65.96494,-10.79329],[-65.9657,-10.79284]]]},"properties":{"n":"LOMA ALTA","p":36,"personas_x_ha":40,"masculinidad":125,"pct_menor20":44,"pct_60mas":6,"pct_migrante":81,"dependencia_econ":169,"pct_empleados":38,"pct_cuentapropia":62,"pct_agricultura":31,"pct_comercio":23,"pct_manufactura":8,"pct_construccion":23,"pct_transporte":0,"pct_alojamiento":0,"pct_educ_superior":32,"brecha_educ":-42,"pct_sin_seguro":9,"pct_seguro_privado":0,"brecha_seguro":3,"pct_med_tradicional":1,"pct_automedicacion":6,"pct_remedios_caseros":42,"pct_viv_desocupada":0,"pct_alquiler":8,"pct_electricidad":100,"pct_agua_red":0,"pct_alcantarillado":0,"pct_gas_red":0,"pct_gas_garrafa":75,"pct_lena_guano":75,"pct_basura_formal":0,"pct_basura_quema":100,"pct_basura_informal":0,"pct_internet":58,"pct_celular":67,"pct_televisor":58}},{"type":"Feature","geometry":{"type":"Polygon","coordinates":[[[-65.96908,-10.79442],[-65.9687,-10.79374],[-65.96694,-10.79472],[-65.96736,-10.79543],[-65.96908,-10.79442]]]},"properties":{"n":"LOMA ALTA","p":52,"personas_x_ha":26,"masculinidad":93,"pct_menor20":52,"pct_60mas":12,"pct_migrante":56,"dependencia_econ":160,"pct_empleados":10,"pct_cuentapropia":85,"pct_agricultura":55,"pct_comercio":15,"pct_manufactura":0,"pct_construccion":0,"pct_transporte":0,"pct_alojamiento":15,"pct_educ_superior":31,"brecha_educ":44,"pct_sin_seguro":0,"pct_seguro_privado":2,"brecha_seguro":0,"pct_med_tradicional":0,"pct_automedicacion":21,"pct_remedios_caseros":27,"pct_viv_desocupada":0,"pct_alquiler":0,"pct_electricidad":92,"pct_agua_red":0,"pct_alcantarillado":0,"pct_gas_red":0,"pct_gas_garrafa":92,"pct_lena_guano":92,"pct_basura_formal":8,"pct_basura_quema":75,"pct_basura_informal":0,"pct_internet":42,"pct_celular":58,"pct_televisor":42}},{"type":"Feature","geometry":{"type":"Polygon","coordinates":[[[-65.96512,-10.79615],[-65.96693,-10.79565],[-65.96713,-10.79541],[-65.96678,-10.7948],[-65.96655,-10.79492],[-65.96677,-10.79532],[-65.96699,-10.79527],[-65.96623,-10.79563],[-65.96629,-10.79576],[-65.96621,-10.79564],[-65.96608,-10.7957],[-65.96591,-10.79566],[-65.96573,-10.79535],[-65.96491,-10.79582],[-65.96512,-10.79615]]]},"properties":{"n":"LOMA ALTA","p":21,"personas_x_ha":18,"masculinidad":200,"pct_menor20":29,"pct_60mas":5,"pct_migrante":81,"dependencia_econ":133,"pct_empleados":33,"pct_cuentapropia":67,"pct_agricultura":33,"pct_comercio":11,"pct_manufactura":11,"pct_construccion":11,"pct_transporte":11,"pct_alojamiento":0,"pct_educ_superior":27,"brecha_educ":-41,"pct_sin_seguro":5,"pct_seguro_privado":0,"brecha_seguro":7,"pct_med_tradicional":3,"pct_automedicacion":8,"pct_remedios_caseros":28,"pct_viv_desocupada":7,"pct_alquiler":0,"pct_electricidad":89,"pct_agua_red":0,"pct_alcantarillado":0,"pct_gas_red":0,"pct_gas_garrafa":33,"pct_lena_guano":33,"pct_basura_formal":11,"pct_basura_quema":56,"pct_basura_informal":22,"pct_internet":67,"pct_celular":78,"pct_televisor":11}},{"type":"Feature","geometry":{"type":"Polygon","coordinates":[[[-65.96528,-10.7942],[-65.96491,-10.79352],[-65.96417,-10.79394],[-65.96455,-10.7946],[-65.96528,-10.7942]]]},"properties":{"n":"LOMA ALTA","p":29,"personas_x_ha":36,"masculinidad":81,"pct_menor20":52,"pct_60mas":3,"pct_migrante":86,"dependencia_econ":123,"pct_empleados":15,"pct_cuentapropia":69,"pct_agricultura":54,"pct_comercio":23,"pct_manufactura":0,"pct_construccion":0,"pct_transporte":0,"pct_alojamiento":0,"pct_educ_superior":33,"brecha_educ":-33,"pct_sin_seguro":0,"pct_seguro_privado":0,"brecha_seguro":0,"pct_med_tradicional":8,"pct_automedicacion":17,"pct_remedios_caseros":28,"pct_viv_desocupada":9,"pct_alquiler":0,"pct_electricidad":100,"pct_agua_red":0,"pct_alcantarillado":0,"pct_gas_red":0,"pct_gas_garrafa":75,"pct_lena_guano":75,"pct_basura_formal":0,"pct_basura_quema":100,"pct_basura_informal":0,"pct_internet":75,"pct_celular":75,"pct_televisor":75}},{"type":"Feature","geometry":{"type":"Polygon","coordinates":[[[-65.96758,-10.79412],[-65.96716,-10.7934],[-65.96643,-10.79381],[-65.96684,-10.79453],[-65.96758,-10.79412]]]},"properties":{"n":"LOMA ALTA","p":42,"personas_x_ha":48,"masculinidad":121,"pct_menor20":43,"pct_60mas":19,"pct_migrante":62,"dependencia_econ":233,"pct_empleados":25,"pct_cuentapropia":58,"pct_agricultura":58,"pct_comercio":17,"pct_manufactura":0,"pct_construccion":8,"pct_transporte":8,"pct_alojamiento":8,"pct_educ_superior":13,"brecha_educ":19,"pct_sin_seguro":8,"pct_seguro_privado":0,"brecha_seguro":4,"pct_med_tradicional":13,"pct_automedicacion":15,"pct_remedios_caseros":20,"pct_viv_desocupada":0,"pct_alquiler":0,"pct_electricidad":100,"pct_agua_red":0,"pct_alcantarillado":18,"pct_gas_red":0,"pct_gas_garrafa":82,"pct_lena_guano":82,"pct_basura_formal":18,"pct_basura_quema":64,"pct_basura_informal":36,"pct_internet":55,"pct_celular":55,"pct_televisor":36}},{"type":"Feature","geometry":{"type":"Polygon","coordinates":[[[-65.96523,-10.78771],[-65.96481,-10.78687],[-65.96404,-10.78734],[-65.96448,-10.7881],[-65.96523,-10.78771]]]},"properties":{"n":"LOMA ALTA","p":32,"personas_x_ha":33,"masculinidad":45,"pct_menor20":59,"pct_60mas":0,"pct_migrante":75,"dependencia_econ":300,"pct_empleados":50,"pct_cuentapropia":50,"pct_agricultura":50,"pct_comercio":12,"pct_manufactura":50,"pct_construccion":0,"pct_transporte":0,"pct_alojamiento":0,"pct_educ_superior":8,"brecha_educ":-14,"pct_sin_seguro":3,"pct_seguro_privado":0,"brecha_seguro":-5,"pct_med_tradicional":0,"pct_automedicacion":24,"pct_remedios_caseros":29,"pct_viv_desocupada":20,"pct_alquiler":0,"pct_electricidad":0,"pct_agua_red":0,"pct_alcantarillado":0,"pct_gas_red":0,"pct_gas_garrafa":75,"pct_lena_guano":75,"pct_basura_formal":0,"pct_basura_quema":100,"pct_basura_informal":0,"pct_internet":88,"pct_celular":88,"pct_televisor":50}},{"type":"Feature","geometry":{"type":"Polygon","coordinates":[[[-65.96859,-10.79148],[-65.96782,-10.79188],[-65.96823,-10.79264],[-65.96901,-10.79219],[-65.96859,-10.79148]]]},"properties":{"n":"LOMA ALTA","p":27,"personas_x_ha":29,"masculinidad":93,"pct_menor20":33,"pct_60mas":11,"pct_migrante":96,"dependencia_econ":59,"pct_empleados":35,"pct_cuentapropia":59,"pct_agricultura":29,"pct_comercio":18,"pct_manufactura":18,"pct_construccion":0,"pct_transporte":12,"pct_alojamiento":0,"pct_educ_superior":33,"brecha_educ":22,"pct_sin_seguro":22,"pct_seguro_privado":4,"brecha_seguro":2,"pct_med_tradicional":0,"pct_automedicacion":12,"pct_remedios_caseros":18,"pct_viv_desocupada":0,"pct_alquiler":11,"pct_electricidad":89,"pct_agua_red":11,"pct_alcantarillado":0,"pct_gas_red":0,"pct_gas_garrafa":22,"pct_lena_guano":22,"pct_basura_formal":0,"pct_basura_quema":100,"pct_basura_informal":0,"pct_internet":22,"pct_celular":89,"pct_televisor":22}},{"type":"Feature","geometry":{"type":"Polygon","coordinates":[[[-65.96729,-10.79315],[-65.96686,-10.79241],[-65.96768,-10.79197],[-65.96809,-10.79272],[-65.96729,-10.79315]]]},"properties":{"n":"LOMA ALTA","p":39,"personas_x_ha":39,"masculinidad":179,"pct_menor20":46,"pct_60mas":3,"pct_migrante":64,"dependencia_econ":179,"pct_empleados":50,"pct_cuentapropia":29,"pct_agricultura":36,"pct_comercio":14,"pct_manufactura":7,"pct_construccion":7,"pct_transporte":7,"pct_alojamiento":0,"pct_educ_superior":32,"brecha_educ":16,"pct_sin_seguro":3,"pct_seguro_privado":0,"brecha_seguro":-8,"pct_med_tradicional":2,"pct_automedicacion":14,"pct_remedios_caseros":27,"pct_viv_desocupada":15,"pct_alquiler":0,"pct_electricidad":100,"pct_agua_red":0,"pct_alcantarillado":0,"pct_gas_red":9,"pct_gas_garrafa":82,"pct_lena_guano":82,"pct_basura_formal":9,"pct_basura_quema":82,"pct_basura_informal":18,"pct_internet":82,"pct_celular":91,"pct_televisor":55}},{"type":"Feature","geometry":{"type":"Polygon","coordinates":[[[-65.96952,-10.79305],[-65.96908,-10.79231],[-65.9683,-10.79272],[-65.96872,-10.79347],[-65.96952,-10.79305]]]},"properties":{"n":"LOMA ALTA","p":22,"personas_x_ha":23,"masculinidad":144,"pct_menor20":36,"pct_60mas":5,"pct_migrante":86,"dependencia_econ":57,"pct_empleados":36,"pct_cuentapropia":57,"pct_agricultura":36,"pct_comercio":21,"pct_manufactura":36,"pct_construccion":7,"pct_transporte":0,"pct_alojamiento":0,"pct_educ_superior":13,"brecha_educ":-40,"pct_sin_seguro":0,"pct_seguro_privado":0,"brecha_seguro":0,"pct_med_tradicional":11,"pct_automedicacion":24,"pct_remedios_caseros":22,"pct_viv_desocupada":20,"pct_alquiler":0,"pct_electricidad":86,"pct_agua_red":0,"pct_alcantarillado":0,"pct_gas_red":14,"pct_gas_garrafa":57,"pct_lena_guano":57,"pct_basura_formal":0,"pct_basura_quema":100,"pct_basura_informal":0,"pct_internet":71,"pct_celular":71,"pct_televisor":43}},{"type":"Feature","geometry":{"type":"Polygon","coordinates":[[[-65.97001,-10.79403],[-65.96958,-10.7932],[-65.96883,-10.79361],[-65.96925,-10.79436],[-65.97001,-10.79403]]]},"properties":{"n":"LOMA ALTA","p":30,"personas_x_ha":32,"masculinidad":100,"pct_menor20":43,"pct_60mas":13,"pct_migrante":83,"dependencia_econ":233,"pct_empleados":22,"pct_cuentapropia":78,"pct_agricultura":33,"pct_comercio":22,"pct_manufactura":0,"pct_construccion":0,"pct_transporte":11,"pct_alojamiento":11,"pct_educ_superior":18,"brecha_educ":7,"pct_sin_seguro":17,"pct_seguro_privado":3,"brecha_seguro":6,"pct_med_tradicional":4,"pct_automedicacion":8,"pct_remedios_caseros":25,"pct_viv_desocupada":11,"pct_alquiler":0,"pct_electricidad":100,"pct_agua_red":12,"pct_alcantarillado":0,"pct_gas_red":0,"pct_gas_garrafa":62,"pct_lena_guano":62,"pct_basura_formal":0,"pct_basura_quema":75,"pct_basura_informal":0,"pct_internet":50,"pct_celular":75,"pct_televisor":25}},{"type":"Feature","geometry":{"type":"Polygon","coordinates":[[[-65.96711,-10.79324],[-65.96669,-10.79253],[-65.96595,-10.79293],[-65.96636,-10.79369],[-65.96711,-10.79324]]]},"properties":{"n":"LOMA ALTA","p":54,"personas_x_ha":60,"masculinidad":200,"pct_menor20":50,"pct_60mas":7,"pct_migrante":87,"dependencia_econ":157,"pct_empleados":10,"pct_cuentapropia":67,"pct_agricultura":62,"pct_comercio":10,"pct_manufactura":5,"pct_construccion":0,"pct_transporte":19,"pct_alojamiento":10,"pct_educ_superior":11,"brecha_educ":12,"pct_sin_seguro":9,"pct_seguro_privado":0,"brecha_seguro":6,"pct_med_tradicional":1,"pct_automedicacion":0,"pct_remedios_caseros":35,"pct_viv_desocupada":13,"pct_alquiler":0,"pct_electricidad":100,"pct_agua_red":0,"pct_alcantarillado":0,"pct_gas_red":0,"pct_gas_garrafa":85,"pct_lena_guano":85,"pct_basura_formal":0,"pct_basura_quema":85,"pct_basura_informal":15,"pct_internet":69,"pct_celular":85,"pct_televisor":46}},{"type":"Feature","geometry":{"type":"Polygon","coordinates":[[[-65.96474,-10.78675],[-65.9643,-10.78609],[-65.96356,-10.78649],[-65.964,-10.78721],[-65.96474,-10.78675]]]},"properties":{"n":"LOMA ALTA","p":16,"personas_x_ha":19,"masculinidad":45,"pct_menor20":56,"pct_60mas":0,"pct_migrante":75,"dependencia_econ":220,"pct_empleados":80,"pct_cuentapropia":20,"pct_agricultura":20,"pct_comercio":40,"pct_manufactura":20,"pct_construccion":0,"pct_transporte":0,"pct_alojamiento":0,"pct_educ_superior":0,"brecha_educ":0,"pct_sin_seguro":0,"pct_seguro_privado":0,"brecha_seguro":0,"pct_med_tradicional":6,"pct_automedicacion":0,"pct_remedios_caseros":6,"pct_viv_desocupada":14,"pct_alquiler":0,"pct_electricidad":67,"pct_agua_red":0,"pct_alcantarillado":17,"pct_gas_red":0,"pct_gas_garrafa":83,"pct_lena_guano":83,"pct_basura_formal":0,"pct_basura_quema":100,"pct_basura_informal":0,"pct_internet":67,"pct_celular":100,"pct_televisor":17}},{"type":"Feature","geometry":{"type":"Polygon","coordinates":[[[-65.968,-10.79058],[-65.9673,-10.79098],[-65.96774,-10.79177],[-65.96847,-10.79138],[-65.968,-10.79058]]]},"properties":{"n":"LOMA ALTA","p":19,"personas_x_ha":20,"masculinidad":90,"pct_menor20":26,"pct_60mas":5,"pct_migrante":74,"dependencia_econ":58,"pct_empleados":8,"pct_cuentapropia":92,"pct_agricultura":50,"pct_comercio":8,"pct_manufactura":8,"pct_construccion":0,"pct_transporte":0,"pct_alojamiento":42,"pct_educ_superior":7,"brecha_educ":-57,"pct_sin_seguro":0,"pct_seguro_privado":0,"brecha_seguro":0,"pct_med_tradicional":10,"pct_automedicacion":22,"pct_remedios_caseros":28,"pct_viv_desocupada":12,"pct_alquiler":0,"pct_electricidad":100,"pct_agua_red":0,"pct_alcantarillado":0,"pct_gas_red":0,"pct_gas_garrafa":57,"pct_lena_guano":57,"pct_basura_formal":0,"pct_basura_quema":100,"pct_basura_informal":0,"pct_internet":86,"pct_celular":86,"pct_televisor":43}},{"type":"Feature","geometry":{"type":"Polygon","coordinates":[[[-65.96585,-10.79275],[-65.96662,-10.79236],[-65.96624,-10.79162],[-65.96544,-10.79202],[-65.96585,-10.79275]]]},"properties":{"n":"LOMA ALTA","p":39,"personas_x_ha":43,"masculinidad":62,"pct_menor20":44,"pct_60mas":8,"pct_migrante":74,"dependencia_econ":225,"pct_empleados":17,"pct_cuentapropia":50,"pct_agricultura":50,"pct_comercio":33,"pct_manufactura":8,"pct_construccion":8,"pct_transporte":8,"pct_alojamiento":25,"pct_educ_superior":26,"brecha_educ":-3,"pct_sin_seguro":3,"pct_seguro_privado":8,"brecha_seguro":-4,"pct_med_tradicional":3,"pct_automedicacion":6,"pct_remedios_caseros":25,"pct_viv_desocupada":8,"pct_alquiler":0,"pct_electricidad":100,"pct_agua_red":0,"pct_alcantarillado":9,"pct_gas_red":0,"pct_gas_garrafa":64,"pct_lena_guano":64,"pct_basura_formal":0,"pct_basura_quema":91,"pct_basura_informal":0,"pct_internet":64,"pct_celular":64,"pct_televisor":36}}]}