{"type":"FeatureCollection","features":[{"type":"Feature","geometry":{"type":"Polygon","coordinates":[[[-67.67473,-10.61025],[-67.67447,-10.60934],[-67.67258,-10.60978],[-67.67262,-10.61006],[-67.67473,-10.61025]]]},"properties":{"n":"MAPAJO","p":20,"personas_x_ha":14,"masculinidad":400,"pct_menor20":25,"pct_60mas":15,"pct_migrante":50,"dependencia_econ":90,"pct_empleados":20,"pct_cuentapropia":70,"pct_agricultura":80,"pct_comercio":10,"pct_manufactura":10,"pct_construccion":0,"pct_transporte":0,"pct_alojamiento":0,"pct_educ_superior":7,"brecha_educ":-25,"pct_sin_seguro":11,"pct_seguro_privado":0,"brecha_seguro":14,"pct_med_tradicional":7,"pct_automedicacion":9,"pct_remedios_caseros":33,"pct_viv_desocupada":0,"pct_alquiler":0,"pct_electricidad":0,"pct_agua_red":100,"pct_alcantarillado":22,"pct_gas_red":0,"pct_gas_garrafa":89,"pct_lena_guano":89,"pct_basura_formal":0,"pct_basura_quema":100,"pct_basura_informal":0,"pct_internet":78,"pct_celular":78,"pct_televisor":33}},{"type":"Feature","geometry":{"type":"Polygon","coordinates":[[[-67.19492,-10.33785],[-67.19479,-10.33714],[-67.19413,-10.33727],[-67.19425,-10.33798],[-67.19492,-10.33785]]]},"properties":{"n":"MONTEVIDEO PUERTO EVO","p":25,"personas_x_ha":41,"masculinidad":127,"pct_menor20":28,"pct_60mas":12,"pct_migrante":100,"dependencia_econ":200,"pct_empleados":50,"pct_cuentapropia":12,"pct_agricultura":0,"pct_comercio":25,"pct_manufactura":0,"pct_construccion":12,"pct_transporte":0,"pct_alojamiento":12,"pct_educ_superior":35,"brecha_educ":0,"pct_sin_seguro":12,"pct_seguro_privado":0,"brecha_seguro":-10,"pct_med_tradicional":0,"pct_automedicacion":6,"pct_remedios_caseros":12,"pct_viv_desocupada":0,"pct_alquiler":8,"pct_electricidad":85,"pct_agua_red":77,"pct_alcantarillado":15,"pct_gas_red":0,"pct_gas_garrafa":100,"pct_lena_guano":100,"pct_basura_formal":100,"pct_basura_quema":0,"pct_basura_informal":0,"pct_internet":62,"pct_celular":77,"pct_televisor":46}},{"type":"Feature","geometry":{"type":"Polygon","coordinates":[[[-67.19517,-10.33964],[-67.19498,-10.33807],[-67.19428,-10.33812],[-67.19439,-10.33979],[-67.19517,-10.33964]]]},"properties":{"n":"MONTEVIDEO PUERTO EVO","p":25,"personas_x_ha":17,"masculinidad":127,"pct_menor20":28,"pct_60mas":4,"pct_migrante":88,"dependencia_econ":77,"pct_empleados":23,"pct_cuentapropia":69,"pct_agricultura":15,"pct_comercio":62,"pct_manufactura":0,"pct_construccion":8,"pct_transporte":0,"pct_alojamiento":8,"pct_educ_superior":25,"brecha_educ":-21,"pct_sin_seguro":0,"pct_seguro_privado":0,"brecha_seguro":0,"pct_med_tradicional":10,"pct_automedicacion":8,"pct_remedios_caseros":5,"pct_viv_desocupada":25,"pct_alquiler":10,"pct_electricidad":40,"pct_agua_red":90,"pct_alcantarillado":10,"pct_gas_red":0,"pct_gas_garrafa":90,"pct_lena_guano":90,"pct_basura_formal":100,"pct_basura_quema":0,"pct_basura_informal":0,"pct_internet":80,"pct_celular":100,"pct_televisor":90}},{"type":"Feature","geometry":{"type":"Polygon","coordinates":[[[-67.19429,-10.33986],[-67.19412,-10.33809],[-67.19291,-10.33741],[-67.19176,-10.33644],[-67.19051,-10.33605],[-67.19028,-10.33652],[-67.19152,-10.33758],[-67.19187,-10.33845],[-67.19297,-10.33921],[-67.19314,-10.33995],[-67.19429,-10.33986]]]},"properties":{"n":"MONTEVIDEO PUERTO EVO","p":141,"personas_x_ha":19,"masculinidad":86,"pct_menor20":38,"pct_60mas":10,"pct_migrante":89,"dependencia_econ":80,"pct_empleados":17,"pct_cuentapropia":77,"pct_agricultura":4,"pct_comercio":71,"pct_manufactura":8,"pct_construccion":0,"pct_transporte":1,"pct_alojamiento":3,"pct_educ_superior":28,"brecha_educ":-9,"pct_sin_seguro":12,"pct_seguro_privado":0,"brecha_seguro":5,"pct_med_tradicional":11,"pct_automedicacion":17,"pct_remedios_caseros":23,"pct_viv_desocupada":14,"pct_alquiler":25,"pct_electricidad":57,"pct_agua_red":80,"pct_alcantarillado":11,"pct_gas_red":0,"pct_gas_garrafa":89,"pct_lena_guano":89,"pct_basura_formal":100,"pct_basura_quema":0,"pct_basura_informal":0,"pct_internet":80,"pct_celular":95,"pct_televisor":89}},{"type":"Feature","geometry":{"type":"Polygon","coordinates":[[[-67.19075,-10.33596],[-67.19193,-10.33632],[-67.19309,-10.33728],[-67.1941,-10.33789],[-67.19387,-10.33594],[-67.19183,-10.33489],[-67.19171,-10.33514],[-67.19133,-10.33556],[-67.19077,-10.33585],[-67.19075,-10.33596]]]},"properties":{"n":"MONTEVIDEO PUERTO EVO","p":150,"personas_x_ha":29,"masculinidad":92,"pct_menor20":39,"pct_60mas":5,"pct_migrante":91,"dependencia_econ":139,"pct_empleados":26,"pct_cuentapropia":68,"pct_agricultura":3,"pct_comercio":95,"pct_manufactura":3,"pct_construccion":0,"pct_transporte":0,"pct_alojamiento":2,"pct_educ_superior":29,"brecha_educ":-4,"pct_sin_seguro":16,"pct_seguro_privado":1,"brecha_seguro":-8,"pct_med_tradicional":4,"pct_automedicacion":13,"pct_remedios_caseros":17,"pct_viv_desocupada":9,"pct_alquiler":20,"pct_electricidad":39,"pct_agua_red":82,"pct_alcantarillado":0,"pct_gas_red":0,"pct_gas_garrafa":98,"pct_lena_guano":98,"pct_basura_formal":95,"pct_basura_quema":0,"pct_basura_informal":9,"pct_internet":77,"pct_celular":91,"pct_televisor":86}},{"type":"Feature","geometry":{"type":"Polygon","coordinates":[[[-67.1964,-10.33781],[-67.19508,-10.33808],[-67.1952,-10.33878],[-67.19653,-10.33852],[-67.1964,-10.33781]]]},"properties":{"n":"MONTEVIDEO PUERTO EVO","p":24,"personas_x_ha":20,"masculinidad":85,"pct_menor20":33,"pct_60mas":8,"pct_migrante":100,"dependencia_econ":200,"pct_empleados":25,"pct_cuentapropia":75,"pct_agricultura":25,"pct_comercio":112,"pct_manufactura":0,"pct_construccion":0,"pct_transporte":0,"pct_alojamiento":0,"pct_educ_superior":24,"brecha_educ":0,"pct_sin_seguro":8,"pct_seguro_privado":0,"brecha_seguro":18,"pct_med_tradicional":4,"pct_automedicacion":19,"pct_remedios_caseros":22,"pct_viv_desocupada":58,"pct_alquiler":20,"pct_electricidad":20,"pct_agua_red":100,"pct_alcantarillado":0,"pct_gas_red":0,"pct_gas_garrafa":100,"pct_lena_guano":100,"pct_basura_formal":100,"pct_basura_quema":0,"pct_basura_informal":0,"pct_internet":80,"pct_celular":100,"pct_televisor":80}},{"type":"Feature","geometry":{"type":"Polygon","coordinates":[[[-67.19477,-10.33696],[-67.19458,-10.33574],[-67.19399,-10.33591],[-67.19418,-10.33714],[-67.19477,-10.33696]]]},"properties":{"n":"MONTEVIDEO PUERTO EVO","p":19,"personas_x_ha":21,"masculinidad":138,"pct_menor20":32,"pct_60mas":16,"pct_migrante":100,"dependencia_econ":138,"pct_empleados":0,"pct_cuentapropia":100,"pct_agricultura":0,"pct_comercio":88,"pct_manufactura":0,"pct_construccion":0,"pct_transporte":0,"pct_alojamiento":0,"pct_educ_superior":15,"brecha_educ":0,"pct_sin_seguro":0,"pct_seguro_privado":0,"brecha_seguro":0,"pct_med_tradicional":0,"pct_automedicacion":0,"pct_remedios_caseros":0,"pct_viv_desocupada":0,"pct_alquiler":0,"pct_electricidad":100,"pct_agua_red":86,"pct_alcantarillado":0,"pct_gas_red":0,"pct_gas_garrafa":100,"pct_lena_guano":100,"pct_basura_formal":100,"pct_basura_quema":0,"pct_basura_informal":0,"pct_internet":86,"pct_celular":86,"pct_televisor":71}},{"type":"Feature","geometry":{"type":"Polygon","coordinates":[[[-67.8965,-11.07991],[-67.89549,-11.0795],[-67.89529,-11.07995],[-67.89624,-11.0804],[-67.8965,-11.07991]]]},"properties":{"n":"SANTA LUCIA","p":51,"personas_x_ha":71,"masculinidad":132,"pct_menor20":47,"pct_60mas":6,"pct_migrante":84,"dependencia_econ":104,"pct_empleados":44,"pct_cuentapropia":52,"pct_agricultura":52,"pct_comercio":4,"pct_manufactura":0,"pct_construccion":12,"pct_transporte":4,"pct_alojamiento":8,"pct_educ_superior":30,"brecha_educ":-8,"pct_sin_seguro":4,"pct_seguro_privado":0,"brecha_seguro":7,"pct_med_tradicional":0,"pct_automedicacion":9,"pct_remedios_caseros":20,"pct_viv_desocupada":0,"pct_alquiler":8,"pct_electricidad":100,"pct_agua_red":92,"pct_alcantarillado":8,"pct_gas_red":0,"pct_gas_garrafa":100,"pct_lena_guano":100,"pct_basura_formal":46,"pct_basura_quema":54,"pct_basura_informal":0,"pct_internet":100,"pct_celular":100,"pct_televisor":54}},{"type":"Feature","geometry":{"type":"Polygon","coordinates":[[[-67.89736,-11.08529],[-67.89786,-11.0855],[-67.89835,-11.08366],[-67.89734,-11.08318],[-67.89668,-11.0845],[-67.89726,-11.08476],[-67.89722,-11.08484],[-67.89665,-11.08457],[-67.89653,-11.08482],[-67.89731,-11.08526],[-67.89756,-11.08471],[-67.89767,-11.08476],[-67.89759,-11.08477],[-67.89736,-11.08529]]]},"properties":{"n":"SANTA LUCIA","p":25,"personas_x_ha":8,"masculinidad":67,"pct_menor20":44,"pct_60mas":0,"pct_migrante":100,"dependencia_econ":108,"pct_empleados":100,"pct_cuentapropia":0,"pct_agricultura":8,"pct_comercio":0,"pct_manufactura":0,"pct_construccion":0,"pct_transporte":0,"pct_alojamiento":0,"pct_educ_superior":93,"brecha_educ":0,"pct_sin_seguro":0,"pct_seguro_privado":0,"brecha_seguro":0,"pct_med_tradicional":12,"pct_automedicacion":12,"pct_remedios_caseros":20,"pct_viv_desocupada":8,"pct_alquiler":0,"pct_electricidad":90,"pct_agua_red":100,"pct_alcantarillado":0,"pct_gas_red":0,"pct_gas_garrafa":90,"pct_lena_guano":90,"pct_basura_formal":10,"pct_basura_quema":90,"pct_basura_informal":0,"pct_internet":60,"pct_celular":90,"pct_televisor":40}},{"type":"Feature","geometry":{"type":"Polygon","coordinates":[[[-67.89177,-11.082],[-67.89263,-11.08239],[-67.89286,-11.08191],[-67.89201,-11.08154],[-67.89177,-11.082]]]},"properties":{"n":"SANTA LUCIA","p":26,"personas_x_ha":43,"masculinidad":117,"pct_menor20":23,"pct_60mas":4,"pct_migrante":77,"dependencia_econ":225,"pct_empleados":75,"pct_cuentapropia":25,"pct_agricultura":62,"pct_comercio":12,"pct_manufactura":0,"pct_construccion":0,"pct_transporte":0,"pct_alojamiento":12,"pct_educ_superior":35,"brecha_educ":-4,"pct_sin_seguro":0,"pct_seguro_privado":4,"brecha_seguro":0,"pct_med_tradicional":4,"pct_automedicacion":11,"pct_remedios_caseros":28,"pct_viv_desocupada":0,"pct_alquiler":38,"pct_electricidad":100,"pct_agua_red":62,"pct_alcantarillado":12,"pct_gas_red":0,"pct_gas_garrafa":100,"pct_lena_guano":100,"pct_basura_formal":88,"pct_basura_quema":12,"pct_basura_informal":0,"pct_internet":88,"pct_celular":88,"pct_televisor":50}},{"type":"Feature","geometry":{"type":"Polygon","coordinates":[[[-67.89482,-11.08262],[-67.8969,-11.08362],[-67.89716,-11.08313],[-67.89505,-11.08219],[-67.89482,-11.08262]]]},"properties":{"n":"SANTA LUCIA","p":50,"personas_x_ha":33,"masculinidad":163,"pct_menor20":42,"pct_60mas":8,"pct_migrante":74,"dependencia_econ":100,"pct_empleados":24,"pct_cuentapropia":68,"pct_agricultura":56,"pct_comercio":12,"pct_manufactura":4,"pct_construccion":12,"pct_transporte":4,"pct_alojamiento":8,"pct_educ_superior":24,"brecha_educ":-4,"pct_sin_seguro":8,"pct_seguro_privado":0,"brecha_seguro":14,"pct_med_tradicional":5,"pct_automedicacion":24,"pct_remedios_caseros":24,"pct_viv_desocupada":0,"pct_alquiler":29,"pct_electricidad":100,"pct_agua_red":93,"pct_alcantarillado":14,"pct_gas_red":0,"pct_gas_garrafa":93,"pct_lena_guano":93,"pct_basura_formal":43,"pct_basura_quema":57,"pct_basura_informal":0,"pct_internet":71,"pct_celular":86,"pct_televisor":50}},{"type":"Feature","geometry":{"type":"Polygon","coordinates":[[[-67.89591,-11.08327],[-67.89566,-11.08371],[-67.89668,-11.08421],[-67.89689,-11.08373],[-67.89591,-11.08327]]]},"properties":{"n":"SANTA LUCIA","p":32,"personas_x_ha":46,"masculinidad":146,"pct_menor20":44,"pct_60mas":9,"pct_migrante":97,"dependencia_econ":167,"pct_empleados":17,"pct_cuentapropia":83,"pct_agricultura":17,"pct_comercio":33,"pct_manufactura":0,"pct_construccion":8,"pct_transporte":0,"pct_alojamiento":17,"pct_educ_superior":39,"brecha_educ":-22,"pct_sin_seguro":0,"pct_seguro_privado":0,"brecha_seguro":0,"pct_med_tradicional":9,"pct_automedicacion":4,"pct_remedios_caseros":15,"pct_viv_desocupada":27,"pct_alquiler":0,"pct_electricidad":100,"pct_agua_red":100,"pct_alcantarillado":12,"pct_gas_red":0,"pct_gas_garrafa":100,"pct_lena_guano":100,"pct_basura_formal":88,"pct_basura_quema":12,"pct_basura_informal":0,"pct_internet":100,"pct_celular":100,"pct_televisor":100}},{"type":"Feature","geometry":{"type":"Polygon","coordinates":[[[-67.89508,-11.08445],[-67.89305,-11.08341],[-67.89297,-11.08343],[-67.89273,-11.08383],[-67.89482,-11.08493],[-67.89508,-11.08445]]]},"properties":{"n":"SANTA LUCIA","p":27,"personas_x_ha":18,"masculinidad":69,"pct_menor20":44,"pct_60mas":0,"pct_migrante":93,"dependencia_econ":108,"pct_empleados":31,"pct_cuentapropia":54,"pct_agricultura":0,"pct_comercio":23,"pct_manufactura":0,"pct_construccion":0,"pct_transporte":0,"pct_alojamiento":77,"pct_educ_superior":25,"brecha_educ":0,"pct_sin_seguro":0,"pct_seguro_privado":0,"brecha_seguro":0,"pct_med_tradicional":2,"pct_automedicacion":15,"pct_remedios_caseros":28,"pct_viv_desocupada":0,"pct_alquiler":62,"pct_electricidad":100,"pct_agua_red":75,"pct_alcantarillado":12,"pct_gas_red":0,"pct_gas_garrafa":100,"pct_lena_guano":100,"pct_basura_formal":75,"pct_basura_quema":12,"pct_basura_informal":0,"pct_internet":88,"pct_celular":88,"pct_televisor":62}},{"type":"Feature","geometry":{"type":"Polygon","coordinates":[[[-67.89509,-11.08355],[-67.89484,-11.08404],[-67.89643,-11.08479],[-67.89662,-11.0843],[-67.89584,-11.08392],[-67.89567,-11.08415],[-67.89581,-11.08391],[-67.89509,-11.08355]]]},"properties":{"n":"SANTA LUCIA","p":42,"personas_x_ha":36,"masculinidad":121,"pct_menor20":33,"pct_60mas":10,"pct_migrante":81,"dependencia_econ":68,"pct_empleados":20,"pct_cuentapropia":76,"pct_agricultura":24,"pct_comercio":40,"pct_manufactura":4,"pct_construccion":0,"pct_transporte":16,"pct_alojamiento":0,"pct_educ_superior":14,"brecha_educ":-16,"pct_sin_seguro":12,"pct_seguro_privado":0,"brecha_seguro":-7,"pct_med_tradicional":10,"pct_automedicacion":20,"pct_remedios_caseros":25,"pct_viv_desocupada":17,"pct_alquiler":14,"pct_electricidad":100,"pct_agua_red":93,"pct_alcantarillado":7,"pct_gas_red":0,"pct_gas_garrafa":100,"pct_lena_guano":100,"pct_basura_formal":57,"pct_basura_quema":36,"pct_basura_informal":14,"pct_internet":93,"pct_celular":100,"pct_televisor":93}}]}