{"type":"FeatureCollection","features":[{"type":"Feature","geometry":{"type":"Polygon","coordinates":[[[-65.90311,-18.76365],[-65.90252,-18.76331],[-65.90244,-18.76365],[-65.90253,-18.76354],[-65.9027,-18.7637],[-65.90277,-18.7636],[-65.90271,-18.76371],[-65.90316,-18.76408],[-65.90311,-18.76365]]]},"properties":{"n":"CHAIRAPATA","p":23,"personas_x_ha":83,"masculinidad":130,"pct_menor20":35,"pct_60mas":26,"pct_migrante":0,"dependencia_econ":109,"pct_empleados":0,"pct_cuentapropia":82,"pct_agricultura":100,"pct_comercio":0,"pct_manufactura":0,"pct_construccion":0,"pct_transporte":0,"pct_alojamiento":0,"pct_educ_superior":13,"brecha_educ":-17,"pct_sin_seguro":4,"pct_seguro_privado":0,"brecha_seguro":8,"pct_med_tradicional":0,"pct_automedicacion":0,"pct_remedios_caseros":0,"pct_viv_desocupada":0,"pct_alquiler":0,"pct_electricidad":58,"pct_agua_red":25,"pct_alcantarillado":0,"pct_gas_red":0,"pct_gas_garrafa":0,"pct_lena_guano":0,"pct_basura_formal":0,"pct_basura_quema":0,"pct_basura_informal":200,"pct_internet":0,"pct_celular":33,"pct_televisor":50}},{"type":"Feature","geometry":{"type":"Polygon","coordinates":[[[-65.90214,-18.76254],[-65.90184,-18.76262],[-65.90172,-18.7624],[-65.902,-18.76228],[-65.90214,-18.76254]]]},"properties":{"n":"CHAIRAPATA","p":35,"personas_x_ha":340,"masculinidad":106,"pct_menor20":34,"pct_60mas":14,"pct_migrante":0,"dependencia_econ":75,"pct_empleados":40,"pct_cuentapropia":35,"pct_agricultura":25,"pct_comercio":5,"pct_manufactura":0,"pct_construccion":20,"pct_transporte":0,"pct_alojamiento":5,"pct_educ_superior":4,"brecha_educ":-5,"pct_sin_seguro":0,"pct_seguro_privado":0,"brecha_seguro":0,"pct_med_tradicional":0,"pct_automedicacion":0,"pct_remedios_caseros":0,"pct_viv_desocupada":0,"pct_alquiler":0,"pct_electricidad":100,"pct_agua_red":93,"pct_alcantarillado":0,"pct_gas_red":0,"pct_gas_garrafa":14,"pct_lena_guano":14,"pct_basura_formal":0,"pct_basura_quema":0,"pct_basura_informal":200,"pct_internet":71,"pct_celular":79,"pct_televisor":50}},{"type":"Feature","geometry":{"type":"Polygon","coordinates":[[[-66.0025,-18.70456],[-66.00232,-18.70449],[-66.00221,-18.70472],[-66.00235,-18.70478],[-66.0025,-18.70456]]]},"properties":{"n":"COLQUECHACA","p":21,"personas_x_ha":389,"masculinidad":110,"pct_menor20":38,"pct_60mas":0,"pct_migrante":43,"dependencia_econ":133,"pct_empleados":22,"pct_cuentapropia":67,"pct_agricultura":0,"pct_comercio":11,"pct_manufactura":11,"pct_construccion":0,"pct_transporte":0,"pct_alojamiento":0,"pct_educ_superior":15,"brecha_educ":-17,"pct_sin_seguro":90,"pct_seguro_privado":0,"brecha_seguro":-18,"pct_med_tradicional":11,"pct_automedicacion":19,"pct_remedios_caseros":26,"pct_viv_desocupada":0,"pct_alquiler":43,"pct_electricidad":100,"pct_agua_red":100,"pct_alcantarillado":100,"pct_gas_red":0,"pct_gas_garrafa":100,"pct_lena_guano":100,"pct_basura_formal":57,"pct_basura_quema":14,"pct_basura_informal":0,"pct_internet":100,"pct_celular":100,"pct_televisor":86}},{"type":"Feature","geometry":{"type":"Polygon","coordinates":[[[-66.00191,-18.69928],[-66.00165,-18.69856],[-66.00162,-18.69855],[-66.00155,-18.69861],[-66.00156,-18.6989],[-66.00168,-18.69933],[-66.00191,-18.69928]]]},"properties":{"n":"COLQUECHACA","p":37,"personas_x_ha":219,"masculinidad":106,"pct_menor20":49,"pct_60mas":8,"pct_migrante":35,"dependencia_econ":131,"pct_empleados":19,"pct_cuentapropia":25,"pct_agricultura":6,"pct_comercio":0,"pct_manufactura":0,"pct_construccion":0,"pct_transporte":0,"pct_alojamiento":12,"pct_educ_superior":5,"brecha_educ":-30,"pct_sin_seguro":36,"pct_seguro_privado":0,"brecha_seguro":6,"pct_med_tradicional":18,"pct_automedicacion":18,"pct_remedios_caseros":28,"pct_viv_desocupada":0,"pct_alquiler":31,"pct_electricidad":100,"pct_agua_red":0,"pct_alcantarillado":19,"pct_gas_red":0,"pct_gas_garrafa":100,"pct_lena_guano":100,"pct_basura_formal":12,"pct_basura_quema":81,"pct_basura_informal":0,"pct_internet":69,"pct_celular":75,"pct_televisor":50}},{"type":"Feature","geometry":{"type":"Polygon","coordinates":[[[-66.00415,-18.70063],[-66.00405,-18.70097],[-66.00426,-18.70103],[-66.00444,-18.70057],[-66.0043,-18.70052],[-66.00429,-18.70063],[-66.00424,-18.70035],[-66.00411,-18.70037],[-66.00415,-18.70063]]]},"properties":{"n":"COLQUECHACA","p":72,"personas_x_ha":478,"masculinidad":106,"pct_menor20":40,"pct_60mas":6,"pct_migrante":40,"dependencia_econ":140,"pct_empleados":17,"pct_cuentapropia":37,"pct_agricultura":0,"pct_comercio":23,"pct_manufactura":3,"pct_construccion":3,"pct_transporte":10,"pct_alojamiento":0,"pct_educ_superior":21,"brecha_educ":-28,"pct_sin_seguro":17,"pct_seguro_privado":0,"brecha_seguro":10,"pct_med_tradicional":5,"pct_automedicacion":19,"pct_remedios_caseros":23,"pct_viv_desocupada":0,"pct_alquiler":30,"pct_electricidad":100,"pct_agua_red":96,"pct_alcantarillado":100,"pct_gas_red":0,"pct_gas_garrafa":100,"pct_lena_guano":100,"pct_basura_formal":83,"pct_basura_quema":13,"pct_basura_informal":9,"pct_internet":87,"pct_celular":100,"pct_televisor":78}},{"type":"Feature","geometry":{"type":"Polygon","coordinates":[[[-66.00236,-18.70669],[-66.00263,-18.70665],[-66.0027,-18.70649],[-66.0024,-18.70641],[-66.00219,-18.70675],[-66.00224,-18.70679],[-66.00236,-18.70669]]]},"properties":{"n":"COLQUECHACA","p":17,"personas_x_ha":182,"masculinidad":89,"pct_menor20":65,"pct_60mas":0,"pct_migrante":6,"dependencia_econ":183,"pct_empleados":67,"pct_cuentapropia":17,"pct_agricultura":0,"pct_comercio":17,"pct_manufactura":0,"pct_construccion":0,"pct_transporte":0,"pct_alojamiento":0,"pct_educ_superior":0,"brecha_educ":-50,"pct_sin_seguro":6,"pct_seguro_privado":0,"brecha_seguro":12,"pct_med_tradicional":19,"pct_automedicacion":21,"pct_remedios_caseros":21,"pct_viv_desocupada":12,"pct_alquiler":33,"pct_electricidad":100,"pct_agua_red":83,"pct_alcantarillado":0,"pct_gas_red":0,"pct_gas_garrafa":83,"pct_lena_guano":83,"pct_basura_formal":33,"pct_basura_quema":67,"pct_basura_informal":0,"pct_internet":83,"pct_celular":100,"pct_televisor":33}},{"type":"Feature","geometry":{"type":"Polygon","coordinates":[[[-66.00307,-18.69734],[-66.00316,-18.69753],[-66.00349,-18.6974],[-66.00339,-18.69716],[-66.00307,-18.69734]]]},"properties":{"n":"COLQUECHACA","p":21,"personas_x_ha":202,"masculinidad":91,"pct_menor20":29,"pct_60mas":5,"pct_migrante":43,"dependencia_econ":162,"pct_empleados":38,"pct_cuentapropia":50,"pct_agricultura":0,"pct_comercio":12,"pct_manufactura":0,"pct_construccion":0,"pct_transporte":25,"pct_alojamiento":0,"pct_educ_superior":40,"brecha_educ":22,"pct_sin_seguro":19,"pct_seguro_privado":0,"brecha_seguro":-17,"pct_med_tradicional":14,"pct_automedicacion":21,"pct_remedios_caseros":22,"pct_viv_desocupada":25,"pct_alquiler":33,"pct_electricidad":100,"pct_agua_red":100,"pct_alcantarillado":100,"pct_gas_red":0,"pct_gas_garrafa":89,"pct_lena_guano":89,"pct_basura_formal":100,"pct_basura_quema":0,"pct_basura_informal":0,"pct_internet":100,"pct_celular":100,"pct_televisor":89}},{"type":"Feature","geometry":{"type":"Polygon","coordinates":[[[-66.00442,-18.70071],[-66.00463,-18.70085],[-66.00471,-18.70074],[-66.00449,-18.70058],[-66.00442,-18.70071]]]},"properties":{"n":"COLQUECHACA","p":18,"personas_x_ha":399,"masculinidad":157,"pct_menor20":44,"pct_60mas":0,"pct_migrante":39,"dependencia_econ":200,"pct_empleados":17,"pct_cuentapropia":33,"pct_agricultura":0,"pct_comercio":17,"pct_manufactura":0,"pct_construccion":0,"pct_transporte":0,"pct_alojamiento":0,"pct_educ_superior":0,"brecha_educ":24,"pct_sin_seguro":11,"pct_seguro_privado":44,"brecha_seguro":-5,"pct_med_tradicional":25,"pct_automedicacion":23,"pct_remedios_caseros":25,"pct_viv_desocupada":0,"pct_alquiler":12,"pct_electricidad":100,"pct_agua_red":100,"pct_alcantarillado":100,"pct_gas_red":0,"pct_gas_garrafa":100,"pct_lena_guano":100,"pct_basura_formal":100,"pct_basura_quema":0,"pct_basura_informal":0,"pct_internet":88,"pct_celular":88,"pct_televisor":88}},{"type":"Feature","geometry":{"type":"Polygon","coordinates":[[[-66.00424,-18.70328],[-66.00418,-18.70348],[-66.00427,-18.70357],[-66.00442,-18.70331],[-66.00437,-18.70354],[-66.00452,-18.70349],[-66.00455,-18.70333],[-66.00454,-18.70348],[-66.00464,-18.70344],[-66.00451,-18.70278],[-66.00391,-18.70251],[-66.00351,-18.70314],[-66.00361,-18.70324],[-66.00372,-18.70321],[-66.00359,-18.70326],[-66.0035,-18.70317],[-66.00331,-18.70338],[-66.00347,-18.70355],[-66.00401,-18.70367],[-66.00423,-18.70359],[-66.00399,-18.70342],[-66.00405,-18.70333],[-66.00414,-18.70345],[-66.00424,-18.70328]]]},"properties":{"n":"COLQUECHACA","p":197,"personas_x_ha":181,"masculinidad":186,"pct_menor20":46,"pct_60mas":2,"pct_migrante":19,"dependencia_econ":103,"pct_empleados":25,"pct_cuentapropia":8,"pct_agricultura":10,"pct_comercio":0,"pct_manufactura":2,"pct_construccion":0,"pct_transporte":0,"pct_alojamiento":0,"pct_educ_superior":9,"brecha_educ":3,"pct_sin_seguro":15,"pct_seguro_privado":0,"brecha_seguro":12,"pct_med_tradicional":7,"pct_automedicacion":21,"pct_remedios_caseros":26,"pct_viv_desocupada":1,"pct_alquiler":44,"pct_electricidad":98,"pct_agua_red":88,"pct_alcantarillado":51,"pct_gas_red":0,"pct_gas_garrafa":100,"pct_lena_guano":100,"pct_basura_formal":96,"pct_basura_quema":2,"pct_basura_informal":2,"pct_internet":86,"pct_celular":94,"pct_televisor":81}},{"type":"Feature","geometry":{"type":"Polygon","coordinates":[[[-66.00197,-18.70316],[-66.00187,-18.70348],[-66.00211,-18.70353],[-66.0022,-18.70319],[-66.00197,-18.70316]]]},"properties":{"n":"COLQUECHACA","p":29,"personas_x_ha":300,"masculinidad":107,"pct_menor20":41,"pct_60mas":14,"pct_migrante":45,"dependencia_econ":142,"pct_empleados":25,"pct_cuentapropia":42,"pct_agricultura":0,"pct_comercio":8,"pct_manufactura":17,"pct_construccion":0,"pct_transporte":0,"pct_alojamiento":17,"pct_educ_superior":29,"brecha_educ":-29,"pct_sin_seguro":3,"pct_seguro_privado":0,"brecha_seguro":7,"pct_med_tradicional":21,"pct_automedicacion":17,"pct_remedios_caseros":21,"pct_viv_desocupada":0,"pct_alquiler":30,"pct_electricidad":100,"pct_agua_red":100,"pct_alcantarillado":100,"pct_gas_red":0,"pct_gas_garrafa":100,"pct_lena_guano":100,"pct_basura_formal":100,"pct_basura_quema":0,"pct_basura_informal":0,"pct_internet":50,"pct_celular":100,"pct_televisor":90}},{"type":"Feature","geometry":{"type":"Polygon","coordinates":[[[-66.00281,-18.70248],[-66.00262,-18.70228],[-66.00256,-18.70219],[-66.00244,-18.7025],[-66.00277,-18.70258],[-66.00281,-18.70248]]]},"properties":{"n":"COLQUECHACA","p":35,"personas_x_ha":392,"masculinidad":106,"pct_menor20":51,"pct_60mas":6,"pct_migrante":51,"dependencia_econ":250,"pct_empleados":0,"pct_cuentapropia":90,"pct_agricultura":0,"pct_comercio":60,"pct_manufactura":0,"pct_construccion":0,"pct_transporte":0,"pct_alojamiento":0,"pct_educ_superior":41,"brecha_educ":-21,"pct_sin_seguro":6,"pct_seguro_privado":9,"brecha_seguro":-12,"pct_med_tradicional":13,"pct_automedicacion":13,"pct_remedios_caseros":28,"pct_viv_desocupada":0,"pct_alquiler":62,"pct_electricidad":100,"pct_agua_red":62,"pct_alcantarillado":100,"pct_gas_red":0,"pct_gas_garrafa":100,"pct_lena_guano":100,"pct_basura_formal":100,"pct_basura_quema":0,"pct_basura_informal":0,"pct_internet":100,"pct_celular":100,"pct_televisor":100}},{"type":"Feature","geometry":{"type":"Polygon","coordinates":[[[-66.00301,-18.70141],[-66.00295,-18.70175],[-66.0027,-18.70193],[-66.00285,-18.7021],[-66.00302,-18.70208],[-66.00326,-18.70186],[-66.00356,-18.70178],[-66.00367,-18.70161],[-66.0036,-18.70142],[-66.00336,-18.7015],[-66.00301,-18.70141]]]},"properties":{"n":"COLQUECHACA","p":138,"personas_x_ha":339,"masculinidad":130,"pct_menor20":43,"pct_60mas":7,"pct_migrante":34,"dependencia_econ":123,"pct_empleados":35,"pct_cuentapropia":39,"pct_agricultura":3,"pct_comercio":18,"pct_manufactura":5,"pct_construccion":3,"pct_transporte":3,"pct_alojamiento":3,"pct_educ_superior":34,"brecha_educ":-10,"pct_sin_seguro":14,"pct_seguro_privado":0,"brecha_seguro":13,"pct_med_tradicional":11,"pct_automedicacion":20,"pct_remedios_caseros":26,"pct_viv_desocupada":2,"pct_alquiler":31,"pct_electricidad":94,"pct_agua_red":83,"pct_alcantarillado":94,"pct_gas_red":2,"pct_gas_garrafa":94,"pct_lena_guano":94,"pct_basura_formal":98,"pct_basura_quema":0,"pct_basura_informal":4,"pct_internet":88,"pct_celular":96,"pct_televisor":85}},{"type":"Feature","geometry":{"type":"Polygon","coordinates":[[[-66.00006,-18.70073],[-66.00008,-18.70082],[-66.00024,-18.70083],[-66.00072,-18.70075],[-66.00093,-18.70046],[-66.00056,-18.70022],[-66.00034,-18.70023],[-66.00006,-18.70073]]]},"properties":{"n":"COLQUECHACA","p":34,"personas_x_ha":83,"masculinidad":89,"pct_menor20":59,"pct_60mas":3,"pct_migrante":38,"dependencia_econ":386,"pct_empleados":0,"pct_cuentapropia":0,"pct_agricultura":0,"pct_comercio":0,"pct_manufactura":0,"pct_construccion":0,"pct_transporte":0,"pct_alojamiento":0,"pct_educ_superior":7,"brecha_educ":-29,"pct_sin_seguro":3,"pct_seguro_privado":0,"brecha_seguro":6,"pct_med_tradicional":14,"pct_automedicacion":20,"pct_remedios_caseros":28,"pct_viv_desocupada":0,"pct_alquiler":11,"pct_electricidad":0,"pct_agua_red":0,"pct_alcantarillado":0,"pct_gas_red":0,"pct_gas_garrafa":89,"pct_lena_guano":89,"pct_basura_formal":22,"pct_basura_quema":56,"pct_basura_informal":0,"pct_internet":89,"pct_celular":89,"pct_televisor":56}},{"type":"Feature","geometry":{"type":"Polygon","coordinates":[[[-66.00317,-18.69648],[-66.00366,-18.69766],[-66.00392,-18.69759],[-66.00352,-18.69641],[-66.00317,-18.69648]]]},"properties":{"n":"COLQUECHACA","p":28,"personas_x_ha":59,"masculinidad":155,"pct_menor20":25,"pct_60mas":4,"pct_migrante":75,"dependencia_econ":65,"pct_empleados":71,"pct_cuentapropia":24,"pct_agricultura":0,"pct_comercio":0,"pct_manufactura":0,"pct_construccion":0,"pct_transporte":6,"pct_alojamiento":6,"pct_educ_superior":52,"brecha_educ":20,"pct_sin_seguro":4,"pct_seguro_privado":0,"brecha_seguro":-9,"pct_med_tradicional":13,"pct_automedicacion":17,"pct_remedios_caseros":15,"pct_viv_desocupada":0,"pct_alquiler":40,"pct_electricidad":100,"pct_agua_red":100,"pct_alcantarillado":100,"pct_gas_red":0,"pct_gas_garrafa":100,"pct_lena_guano":100,"pct_basura_formal":100,"pct_basura_quema":0,"pct_basura_informal":0,"pct_internet":80,"pct_celular":80,"pct_televisor":80}},{"type":"Feature","geometry":{"type":"Polygon","coordinates":[[[-66.00175,-18.70375],[-66.00187,-18.70321],[-66.00164,-18.70319],[-66.00152,-18.7035],[-66.00129,-18.70346],[-66.00133,-18.70341],[-66.0015,-18.70348],[-66.00161,-18.70319],[-66.00117,-18.70316],[-66.00063,-18.70354],[-66.00121,-18.70388],[-66.00168,-18.70398],[-66.00174,-18.70376],[-66.00154,-18.70372],[-66.00149,-18.70385],[-66.00153,-18.70371],[-66.00175,-18.70375]]]},"properties":{"n":"COLQUECHACA","p":77,"personas_x_ha":103,"masculinidad":157,"pct_menor20":51,"pct_60mas":5,"pct_migrante":23,"dependencia_econ":126,"pct_empleados":38,"pct_cuentapropia":15,"pct_agricultura":21,"pct_comercio":3,"pct_manufactura":0,"pct_construccion":0,"pct_transporte":0,"pct_alojamiento":0,"pct_educ_superior":10,"brecha_educ":-35,"pct_sin_seguro":8,"pct_seguro_privado":0,"brecha_seguro":2,"pct_med_tradicional":19,"pct_automedicacion":17,"pct_remedios_caseros":24,"pct_viv_desocupada":0,"pct_alquiler":17,"pct_electricidad":96,"pct_agua_red":91,"pct_alcantarillado":74,"pct_gas_red":0,"pct_gas_garrafa":100,"pct_lena_guano":100,"pct_basura_formal":87,"pct_basura_quema":4,"pct_basura_informal":9,"pct_internet":91,"pct_celular":91,"pct_televisor":87}},{"type":"Feature","geometry":{"type":"Polygon","coordinates":[[[-66.00651,-18.69805],[-66.00625,-18.69789],[-66.00591,-18.69781],[-66.00537,-18.69741],[-66.0052,-18.69736],[-66.00509,-18.69744],[-66.0064,-18.69821],[-66.00651,-18.69805]]]},"properties":{"n":"COLQUECHACA","p":43,"personas_x_ha":140,"masculinidad":169,"pct_menor20":44,"pct_60mas":0,"pct_migrante":47,"dependencia_econ":95,"pct_empleados":36,"pct_cuentapropia":23,"pct_agricultura":14,"pct_comercio":5,"pct_manufactura":0,"pct_construccion":0,"pct_transporte":5,"pct_alojamiento":9,"pct_educ_superior":0,"brecha_educ":-31,"pct_sin_seguro":7,"pct_seguro_privado":0,"brecha_seguro":11,"pct_med_tradicional":12,"pct_automedicacion":18,"pct_remedios_caseros":22,"pct_viv_desocupada":0,"pct_alquiler":24,"pct_electricidad":94,"pct_agua_red":94,"pct_alcantarillado":71,"pct_gas_red":0,"pct_gas_garrafa":100,"pct_lena_guano":100,"pct_basura_formal":94,"pct_basura_quema":6,"pct_basura_informal":0,"pct_internet":94,"pct_celular":88,"pct_televisor":82}},{"type":"Feature","geometry":{"type":"Polygon","coordinates":[[[-66.00169,-18.70683],[-66.00166,-18.70652],[-66.00224,-18.70649],[-66.0022,-18.7063],[-66.00142,-18.7061],[-66.00135,-18.70619],[-66.00133,-18.70654],[-66.00156,-18.70659],[-66.00155,-18.70671],[-66.0014,-18.7067],[-66.0014,-18.70681],[-66.00169,-18.70683]]]},"properties":{"n":"COLQUECHACA","p":23,"personas_x_ha":59,"masculinidad":109,"pct_menor20":30,"pct_60mas":0,"pct_migrante":17,"dependencia_econ":92,"pct_empleados":50,"pct_cuentapropia":33,"pct_agricultura":25,"pct_comercio":17,"pct_manufactura":0,"pct_construccion":0,"pct_transporte":0,"pct_alojamiento":0,"pct_educ_superior":44,"brecha_educ":-32,"pct_sin_seguro":4,"pct_seguro_privado":4,"brecha_seguro":-9,"pct_med_tradicional":18,"pct_automedicacion":17,"pct_remedios_caseros":22,"pct_viv_desocupada":0,"pct_alquiler":23,"pct_electricidad":100,"pct_agua_red":77,"pct_alcantarillado":62,"pct_gas_red":0,"pct_gas_garrafa":100,"pct_lena_guano":100,"pct_basura_formal":46,"pct_basura_quema":31,"pct_basura_informal":0,"pct_internet":92,"pct_celular":92,"pct_televisor":54}},{"type":"Feature","geometry":{"type":"Polygon","coordinates":[[[-66.00114,-18.70431],[-66.0016,-18.70436],[-66.00165,-18.70414],[-66.00157,-18.70411],[-66.00166,-18.70412],[-66.00168,-18.70401],[-66.00121,-18.70393],[-66.00093,-18.70374],[-66.00092,-18.70386],[-66.00092,-18.70373],[-66.00058,-18.70358],[-66.00025,-18.704],[-66.00039,-18.70428],[-66.00101,-18.70504],[-66.0008,-18.70514],[-66.00078,-18.7053],[-66.00106,-18.70546],[-66.00133,-18.70534],[-66.00148,-18.70512],[-66.00159,-18.70437],[-66.00136,-18.70436],[-66.0013,-18.70462],[-66.00134,-18.70436],[-66.00114,-18.70431]]]},"properties":{"n":"COLQUECHACA","p":92,"personas_x_ha":53,"masculinidad":188,"pct_menor20":42,"pct_60mas":1,"pct_migrante":20,"dependencia_econ":165,"pct_empleados":32,"pct_cuentapropia":44,"pct_agricultura":15,"pct_comercio":12,"pct_manufactura":0,"pct_construccion":0,"pct_transporte":6,"pct_alojamiento":0,"pct_educ_superior":25,"brecha_educ":32,"pct_sin_seguro":8,"pct_seguro_privado":0,"brecha_seguro":-2,"pct_med_tradicional":18,"pct_automedicacion":18,"pct_remedios_caseros":23,"pct_viv_desocupada":12,"pct_alquiler":28,"pct_electricidad":100,"pct_agua_red":72,"pct_alcantarillado":98,"pct_gas_red":0,"pct_gas_garrafa":95,"pct_lena_guano":95,"pct_basura_formal":98,"pct_basura_quema":2,"pct_basura_informal":0,"pct_internet":93,"pct_celular":100,"pct_televisor":70}},{"type":"Feature","geometry":{"type":"Polygon","coordinates":[[[-66.00281,-18.70072],[-66.00295,-18.70052],[-66.00295,-18.70015],[-66.00276,-18.70015],[-66.00276,-18.69986],[-66.00258,-18.69984],[-66.00252,-18.69991],[-66.00281,-18.70072]]]},"properties":{"n":"COLQUECHACA","p":33,"personas_x_ha":164,"masculinidad":175,"pct_menor20":55,"pct_60mas":0,"pct_migrante":6,"dependencia_econ":136,"pct_empleados":21,"pct_cuentapropia":14,"pct_agricultura":7,"pct_comercio":0,"pct_manufactura":0,"pct_construccion":0,"pct_transporte":0,"pct_alojamiento":7,"pct_educ_superior":7,"brecha_educ":-28,"pct_sin_seguro":6,"pct_seguro_privado":0,"brecha_seguro":-4,"pct_med_tradicional":11,"pct_automedicacion":18,"pct_remedios_caseros":25,"pct_viv_desocupada":0,"pct_alquiler":31,"pct_electricidad":100,"pct_agua_red":54,"pct_alcantarillado":100,"pct_gas_red":0,"pct_gas_garrafa":100,"pct_lena_guano":100,"pct_basura_formal":100,"pct_basura_quema":0,"pct_basura_informal":0,"pct_internet":69,"pct_celular":100,"pct_televisor":85}},{"type":"Feature","geometry":{"type":"Polygon","coordinates":[[[-66.00323,-18.69675],[-66.00292,-18.6968],[-66.00296,-18.69702],[-66.0033,-18.69694],[-66.00323,-18.69675]]]},"properties":{"n":"COLQUECHACA","p":24,"personas_x_ha":280,"masculinidad":71,"pct_menor20":46,"pct_60mas":4,"pct_migrante":54,"dependencia_econ":85,"pct_empleados":38,"pct_cuentapropia":31,"pct_agricultura":8,"pct_comercio":8,"pct_manufactura":0,"pct_construccion":0,"pct_transporte":8,"pct_alojamiento":15,"pct_educ_superior":31,"brecha_educ":17,"pct_sin_seguro":17,"pct_seguro_privado":0,"brecha_seguro":5,"pct_med_tradicional":8,"pct_automedicacion":6,"pct_remedios_caseros":23,"pct_viv_desocupada":0,"pct_alquiler":64,"pct_electricidad":91,"pct_agua_red":82,"pct_alcantarillado":100,"pct_gas_red":0,"pct_gas_garrafa":100,"pct_lena_guano":100,"pct_basura_formal":100,"pct_basura_quema":0,"pct_basura_informal":0,"pct_internet":100,"pct_celular":100,"pct_televisor":73}},{"type":"Feature","geometry":{"type":"Polygon","coordinates":[[[-66.00331,-18.70148],[-66.00355,-18.70141],[-66.00356,-18.70113],[-66.003,-18.70106],[-66.00299,-18.70139],[-66.00331,-18.70148]]]},"properties":{"n":"COLQUECHACA","p":40,"personas_x_ha":176,"masculinidad":135,"pct_menor20":38,"pct_60mas":10,"pct_migrante":25,"dependencia_econ":67,"pct_empleados":21,"pct_cuentapropia":38,"pct_agricultura":12,"pct_comercio":25,"pct_manufactura":4,"pct_construccion":4,"pct_transporte":0,"pct_alojamiento":4,"pct_educ_superior":35,"brecha_educ":8,"pct_sin_seguro":3,"pct_seguro_privado":0,"brecha_seguro":4,"pct_med_tradicional":5,"pct_automedicacion":21,"pct_remedios_caseros":21,"pct_viv_desocupada":0,"pct_alquiler":31,"pct_electricidad":100,"pct_agua_red":81,"pct_alcantarillado":81,"pct_gas_red":0,"pct_gas_garrafa":94,"pct_lena_guano":94,"pct_basura_formal":100,"pct_basura_quema":0,"pct_basura_informal":0,"pct_internet":81,"pct_celular":94,"pct_televisor":81}},{"type":"Feature","geometry":{"type":"Polygon","coordinates":[[[-66.00423,-18.69832],[-66.00394,-18.69762],[-66.00366,-18.69769],[-66.00407,-18.69845],[-66.00423,-18.69832]]]},"properties":{"n":"COLQUECHACA","p":91,"personas_x_ha":412,"masculinidad":911,"pct_menor20":22,"pct_60mas":1,"pct_migrante":47,"dependencia_econ":176,"pct_empleados":64,"pct_cuentapropia":15,"pct_agricultura":0,"pct_comercio":6,"pct_manufactura":0,"pct_construccion":0,"pct_transporte":3,"pct_alojamiento":6,"pct_educ_superior":23,"brecha_educ":-2,"pct_sin_seguro":9,"pct_seguro_privado":0,"brecha_seguro":-27,"pct_med_tradicional":8,"pct_automedicacion":17,"pct_remedios_caseros":21,"pct_viv_desocupada":0,"pct_alquiler":25,"pct_electricidad":100,"pct_agua_red":100,"pct_alcantarillado":100,"pct_gas_red":0,"pct_gas_garrafa":100,"pct_lena_guano":100,"pct_basura_formal":75,"pct_basura_quema":25,"pct_basura_informal":0,"pct_internet":50,"pct_celular":75,"pct_televisor":75}},{"type":"Feature","geometry":{"type":"Polygon","coordinates":[[[-66.00326,-18.6989],[-66.00354,-18.69925],[-66.00378,-18.69938],[-66.00383,-18.6992],[-66.00373,-18.69899],[-66.00362,-18.69906],[-66.00372,-18.69898],[-66.00355,-18.69871],[-66.00326,-18.6989]]]},"properties":{"n":"COLQUECHACA","p":89,"personas_x_ha":413,"masculinidad":107,"pct_menor20":55,"pct_60mas":2,"pct_migrante":31,"dependencia_econ":197,"pct_empleados":20,"pct_cuentapropia":37,"pct_agricultura":10,"pct_comercio":13,"pct_manufactura":0,"pct_construccion":0,"pct_transporte":0,"pct_alojamiento":7,"pct_educ_superior":19,"brecha_educ":4,"pct_sin_seguro":9,"pct_seguro_privado":0,"brecha_seguro":4,"pct_med_tradicional":16,"pct_automedicacion":20,"pct_remedios_caseros":21,"pct_viv_desocupada":0,"pct_alquiler":39,"pct_electricidad":100,"pct_agua_red":82,"pct_alcantarillado":100,"pct_gas_red":0,"pct_gas_garrafa":100,"pct_lena_guano":100,"pct_basura_formal":100,"pct_basura_quema":0,"pct_basura_informal":0,"pct_internet":75,"pct_celular":89,"pct_televisor":75}},{"type":"Feature","geometry":{"type":"Polygon","coordinates":[[[-66.00374,-18.69981],[-66.00405,-18.69987],[-66.00416,-18.69949],[-66.00394,-18.69888],[-66.00378,-18.69898],[-66.00389,-18.6992],[-66.00374,-18.69981]]]},"properties":{"n":"COLQUECHACA","p":79,"personas_x_ha":266,"masculinidad":98,"pct_menor20":42,"pct_60mas":8,"pct_migrante":23,"dependencia_econ":103,"pct_empleados":13,"pct_cuentapropia":44,"pct_agricultura":0,"pct_comercio":44,"pct_manufactura":5,"pct_construccion":3,"pct_transporte":0,"pct_alojamiento":10,"pct_educ_superior":23,"brecha_educ":-16,"pct_sin_seguro":5,"pct_seguro_privado":0,"brecha_seguro":-5,"pct_med_tradicional":11,"pct_automedicacion":17,"pct_remedios_caseros":20,"pct_viv_desocupada":0,"pct_alquiler":27,"pct_electricidad":94,"pct_agua_red":79,"pct_alcantarillado":85,"pct_gas_red":0,"pct_gas_garrafa":94,"pct_lena_guano":94,"pct_basura_formal":94,"pct_basura_quema":3,"pct_basura_informal":0,"pct_internet":73,"pct_celular":85,"pct_televisor":94}},{"type":"Feature","geometry":{"type":"Polygon","coordinates":[[[-66.00276,-18.69744],[-66.00301,-18.69732],[-66.00289,-18.6969],[-66.00254,-18.69705],[-66.00265,-18.69746],[-66.00274,-18.69745],[-66.00273,-18.69736],[-66.00276,-18.69744]]]},"properties":{"n":"COLQUECHACA","p":47,"personas_x_ha":245,"masculinidad":81,"pct_menor20":28,"pct_60mas":15,"pct_migrante":6,"dependencia_econ":88,"pct_empleados":12,"pct_cuentapropia":36,"pct_agricultura":0,"pct_comercio":8,"pct_manufactura":0,"pct_construccion":0,"pct_transporte":4,"pct_alojamiento":0,"pct_educ_superior":31,"brecha_educ":10,"pct_sin_seguro":13,"pct_seguro_privado":21,"brecha_seguro":-6,"pct_med_tradicional":1,"pct_automedicacion":19,"pct_remedios_caseros":19,"pct_viv_desocupada":5,"pct_alquiler":44,"pct_electricidad":100,"pct_agua_red":81,"pct_alcantarillado":100,"pct_gas_red":0,"pct_gas_garrafa":100,"pct_lena_guano":100,"pct_basura_formal":100,"pct_basura_quema":0,"pct_basura_informal":0,"pct_internet":81,"pct_celular":81,"pct_televisor":75}},{"type":"Feature","geometry":{"type":"Polygon","coordinates":[[[-66.00519,-18.69764],[-66.00505,-18.69746],[-66.00502,-18.69748],[-66.00504,-18.69759],[-66.00515,-18.69768],[-66.00519,-18.69764]]]},"properties":{"n":"COLQUECHACA","p":36,"personas_x_ha":2350,"masculinidad":227,"pct_menor20":50,"pct_60mas":0,"pct_migrante":56,"dependencia_econ":112,"pct_empleados":35,"pct_cuentapropia":41,"pct_agricultura":6,"pct_comercio":12,"pct_manufactura":6,"pct_construccion":24,"pct_transporte":0,"pct_alojamiento":0,"pct_educ_superior":11,"brecha_educ":41,"pct_sin_seguro":9,"pct_seguro_privado":0,"brecha_seguro":-1,"pct_med_tradicional":0,"pct_automedicacion":3,"pct_remedios_caseros":43,"pct_viv_desocupada":0,"pct_alquiler":9,"pct_electricidad":100,"pct_agua_red":73,"pct_alcantarillado":100,"pct_gas_red":0,"pct_gas_garrafa":100,"pct_lena_guano":100,"pct_basura_formal":100,"pct_basura_quema":0,"pct_basura_informal":0,"pct_internet":64,"pct_celular":73,"pct_televisor":64}},{"type":"Feature","geometry":{"type":"Polygon","coordinates":[[[-66.00312,-18.69649],[-66.00288,-18.69652],[-66.00292,-18.69678],[-66.00322,-18.69673],[-66.00312,-18.69649]]]},"properties":{"n":"COLQUECHACA","p":51,"personas_x_ha":595,"masculinidad":112,"pct_menor20":35,"pct_60mas":20,"pct_migrante":47,"dependencia_econ":96,"pct_empleados":27,"pct_cuentapropia":50,"pct_agricultura":0,"pct_comercio":31,"pct_manufactura":0,"pct_construccion":12,"pct_transporte":0,"pct_alojamiento":4,"pct_educ_superior":47,"brecha_educ":2,"pct_sin_seguro":10,"pct_seguro_privado":0,"brecha_seguro":19,"pct_med_tradicional":2,"pct_automedicacion":28,"pct_remedios_caseros":29,"pct_viv_desocupada":5,"pct_alquiler":56,"pct_electricidad":100,"pct_agua_red":100,"pct_alcantarillado":100,"pct_gas_red":0,"pct_gas_garrafa":100,"pct_lena_guano":100,"pct_basura_formal":100,"pct_basura_quema":0,"pct_basura_informal":0,"pct_internet":100,"pct_celular":100,"pct_televisor":100}},{"type":"Feature","geometry":{"type":"Polygon","coordinates":[[[-66.00286,-18.70263],[-66.00244,-18.70252],[-66.00235,-18.70282],[-66.00277,-18.70292],[-66.00286,-18.70263]]]},"properties":{"n":"COLQUECHACA","p":36,"personas_x_ha":226,"masculinidad":112,"pct_menor20":39,"pct_60mas":8,"pct_migrante":47,"dependencia_econ":112,"pct_empleados":41,"pct_cuentapropia":41,"pct_agricultura":6,"pct_comercio":12,"pct_manufactura":0,"pct_construccion":0,"pct_transporte":6,"pct_alojamiento":6,"pct_educ_superior":22,"brecha_educ":2,"pct_sin_seguro":11,"pct_seguro_privado":0,"brecha_seguro":11,"pct_med_tradicional":10,"pct_automedicacion":21,"pct_remedios_caseros":19,"pct_viv_desocupada":0,"pct_alquiler":40,"pct_electricidad":100,"pct_agua_red":53,"pct_alcantarillado":100,"pct_gas_red":0,"pct_gas_garrafa":100,"pct_lena_guano":100,"pct_basura_formal":93,"pct_basura_quema":0,"pct_basura_informal":0,"pct_internet":80,"pct_celular":87,"pct_televisor":60}},{"type":"Feature","geometry":{"type":"Polygon","coordinates":[[[-66.00163,-18.6956],[-66.00136,-18.69571],[-66.00137,-18.69593],[-66.00149,-18.69621],[-66.00168,-18.69639],[-66.0023,-18.69625],[-66.00241,-18.69614],[-66.00238,-18.69564],[-66.00163,-18.6956]]]},"properties":{"n":"COLQUECHACA","p":23,"personas_x_ha":31,"masculinidad":92,"pct_menor20":39,"pct_60mas":4,"pct_migrante":61,"dependencia_econ":92,"pct_empleados":58,"pct_cuentapropia":33,"pct_agricultura":8,"pct_comercio":0,"pct_manufactura":0,"pct_construccion":0,"pct_transporte":0,"pct_alojamiento":17,"pct_educ_superior":36,"brecha_educ":-30,"pct_sin_seguro":53,"pct_seguro_privado":0,"brecha_seguro":-15,"pct_med_tradicional":2,"pct_automedicacion":17,"pct_remedios_caseros":26,"pct_viv_desocupada":0,"pct_alquiler":33,"pct_electricidad":100,"pct_agua_red":89,"pct_alcantarillado":67,"pct_gas_red":0,"pct_gas_garrafa":100,"pct_lena_guano":100,"pct_basura_formal":89,"pct_basura_quema":0,"pct_basura_informal":0,"pct_internet":100,"pct_celular":100,"pct_televisor":78}},{"type":"Feature","geometry":{"type":"Polygon","coordinates":[[[-66.00407,-18.70157],[-66.00424,-18.70105],[-66.00373,-18.70088],[-66.0036,-18.70112],[-66.00372,-18.70154],[-66.00407,-18.70157]]]},"properties":{"n":"COLQUECHACA","p":28,"personas_x_ha":77,"masculinidad":87,"pct_menor20":36,"pct_60mas":4,"pct_migrante":46,"dependencia_econ":87,"pct_empleados":53,"pct_cuentapropia":20,"pct_agricultura":0,"pct_comercio":27,"pct_manufactura":0,"pct_construccion":0,"pct_transporte":0,"pct_alojamiento":0,"pct_educ_superior":61,"brecha_educ":-28,"pct_sin_seguro":29,"pct_seguro_privado":0,"brecha_seguro":18,"pct_med_tradicional":16,"pct_automedicacion":10,"pct_remedios_caseros":20,"pct_viv_desocupada":8,"pct_alquiler":25,"pct_electricidad":100,"pct_agua_red":58,"pct_alcantarillado":92,"pct_gas_red":0,"pct_gas_garrafa":100,"pct_lena_guano":100,"pct_basura_formal":100,"pct_basura_quema":0,"pct_basura_informal":0,"pct_internet":83,"pct_celular":100,"pct_televisor":67}},{"type":"Feature","geometry":{"type":"Polygon","coordinates":[[[-66.00427,-18.70047],[-66.00481,-18.7007],[-66.00491,-18.70028],[-66.00435,-18.70019],[-66.00427,-18.70047]]]},"properties":{"n":"COLQUECHACA","p":70,"personas_x_ha":302,"masculinidad":126,"pct_menor20":41,"pct_60mas":7,"pct_migrante":30,"dependencia_econ":133,"pct_empleados":17,"pct_cuentapropia":30,"pct_agricultura":20,"pct_comercio":10,"pct_manufactura":3,"pct_construccion":0,"pct_transporte":0,"pct_alojamiento":3,"pct_educ_superior":29,"brecha_educ":18,"pct_sin_seguro":10,"pct_seguro_privado":0,"brecha_seguro":12,"pct_med_tradicional":9,"pct_automedicacion":19,"pct_remedios_caseros":19,"pct_viv_desocupada":11,"pct_alquiler":38,"pct_electricidad":100,"pct_agua_red":88,"pct_alcantarillado":100,"pct_gas_red":0,"pct_gas_garrafa":100,"pct_lena_guano":100,"pct_basura_formal":79,"pct_basura_quema":12,"pct_basura_informal":0,"pct_internet":83,"pct_celular":88,"pct_televisor":71}},{"type":"Feature","geometry":{"type":"Polygon","coordinates":[[[-66.00589,-18.70071],[-66.00599,-18.70064],[-66.00526,-18.69976],[-66.00542,-18.70047],[-66.0055,-18.70057],[-66.00589,-18.70071]]]},"properties":{"n":"COLQUECHACA","p":24,"personas_x_ha":91,"masculinidad":140,"pct_menor20":50,"pct_60mas":4,"pct_migrante":8,"dependencia_econ":118,"pct_empleados":45,"pct_cuentapropia":9,"pct_agricultura":9,"pct_comercio":0,"pct_manufactura":0,"pct_construccion":9,"pct_transporte":0,"pct_alojamiento":9,"pct_educ_superior":0,"brecha_educ":-20,"pct_sin_seguro":33,"pct_seguro_privado":0,"brecha_seguro":-11,"pct_med_tradicional":4,"pct_automedicacion":0,"pct_remedios_caseros":33,"pct_viv_desocupada":8,"pct_alquiler":0,"pct_electricidad":73,"pct_agua_red":0,"pct_alcantarillado":9,"pct_gas_red":0,"pct_gas_garrafa":100,"pct_lena_guano":100,"pct_basura_formal":55,"pct_basura_quema":45,"pct_basura_informal":0,"pct_internet":91,"pct_celular":91,"pct_televisor":64}},{"type":"Feature","geometry":{"type":"Polygon","coordinates":[[[-66.00246,-18.70353],[-66.00245,-18.70322],[-66.00226,-18.70318],[-66.00217,-18.70354],[-66.00246,-18.70353]]]},"properties":{"n":"COLQUECHACA","p":26,"personas_x_ha":272,"masculinidad":100,"pct_menor20":35,"pct_60mas":4,"pct_migrante":31,"dependencia_econ":73,"pct_empleados":13,"pct_cuentapropia":33,"pct_agricultura":13,"pct_comercio":27,"pct_manufactura":13,"pct_construccion":0,"pct_transporte":0,"pct_alojamiento":7,"pct_educ_superior":29,"brecha_educ":-12,"pct_sin_seguro":8,"pct_seguro_privado":0,"brecha_seguro":0,"pct_med_tradicional":10,"pct_automedicacion":11,"pct_remedios_caseros":34,"pct_viv_desocupada":7,"pct_alquiler":15,"pct_electricidad":100,"pct_agua_red":100,"pct_alcantarillado":85,"pct_gas_red":0,"pct_gas_garrafa":100,"pct_lena_guano":100,"pct_basura_formal":100,"pct_basura_quema":0,"pct_basura_informal":0,"pct_internet":92,"pct_celular":92,"pct_televisor":69}},{"type":"Feature","geometry":{"type":"Polygon","coordinates":[[[-66.00296,-18.69878],[-66.00254,-18.69856],[-66.00236,-18.69856],[-66.00209,-18.69902],[-66.00223,-18.6993],[-66.00288,-18.69926],[-66.00296,-18.69878]]]},"properties":{"n":"COLQUECHACA","p":29,"personas_x_ha":50,"masculinidad":164,"pct_menor20":52,"pct_60mas":3,"pct_migrante":45,"dependencia_econ":71,"pct_empleados":18,"pct_cuentapropia":35,"pct_agricultura":18,"pct_comercio":0,"pct_manufactura":0,"pct_construccion":0,"pct_transporte":0,"pct_alojamiento":0,"pct_educ_superior":0,"brecha_educ":-21,"pct_sin_seguro":14,"pct_seguro_privado":0,"brecha_seguro":-6,"pct_med_tradicional":8,"pct_automedicacion":20,"pct_remedios_caseros":22,"pct_viv_desocupada":0,"pct_alquiler":17,"pct_electricidad":83,"pct_agua_red":67,"pct_alcantarillado":42,"pct_gas_red":0,"pct_gas_garrafa":100,"pct_lena_guano":100,"pct_basura_formal":83,"pct_basura_quema":17,"pct_basura_informal":0,"pct_internet":75,"pct_celular":92,"pct_televisor":75}},{"type":"Feature","geometry":{"type":"Polygon","coordinates":[[[-66.00455,-18.69955],[-66.00422,-18.69956],[-66.00417,-18.69972],[-66.00426,-18.69972],[-66.00441,-18.69978],[-66.00417,-18.69974],[-66.00411,-18.69992],[-66.0045,-18.7],[-66.00458,-18.69975],[-66.00455,-18.69955]]]},"properties":{"n":"COLQUECHACA","p":35,"personas_x_ha":190,"masculinidad":218,"pct_menor20":26,"pct_60mas":14,"pct_migrante":43,"dependencia_econ":75,"pct_empleados":35,"pct_cuentapropia":50,"pct_agricultura":10,"pct_comercio":0,"pct_manufactura":0,"pct_construccion":20,"pct_transporte":0,"pct_alojamiento":0,"pct_educ_superior":11,"brecha_educ":-46,"pct_sin_seguro":52,"pct_seguro_privado":15,"brecha_seguro":2,"pct_med_tradicional":18,"pct_automedicacion":14,"pct_remedios_caseros":19,"pct_viv_desocupada":0,"pct_alquiler":35,"pct_electricidad":100,"pct_agua_red":100,"pct_alcantarillado":85,"pct_gas_red":0,"pct_gas_garrafa":90,"pct_lena_guano":90,"pct_basura_formal":75,"pct_basura_quema":5,"pct_basura_informal":0,"pct_internet":45,"pct_celular":75,"pct_televisor":55}},{"type":"Feature","geometry":{"type":"Polygon","coordinates":[[[-66.00286,-18.70424],[-66.00257,-18.70403],[-66.00233,-18.70445],[-66.00261,-18.70459],[-66.00286,-18.70424]]]},"properties":{"n":"COLQUECHACA","p":36,"personas_x_ha":197,"masculinidad":80,"pct_menor20":56,"pct_60mas":6,"pct_migrante":17,"dependencia_econ":125,"pct_empleados":31,"pct_cuentapropia":12,"pct_agricultura":25,"pct_comercio":6,"pct_manufactura":6,"pct_construccion":0,"pct_transporte":0,"pct_alojamiento":0,"pct_educ_superior":25,"brecha_educ":-17,"pct_sin_seguro":3,"pct_seguro_privado":0,"brecha_seguro":6,"pct_med_tradicional":7,"pct_automedicacion":17,"pct_remedios_caseros":20,"pct_viv_desocupada":9,"pct_alquiler":30,"pct_electricidad":100,"pct_agua_red":100,"pct_alcantarillado":80,"pct_gas_red":0,"pct_gas_garrafa":100,"pct_lena_guano":100,"pct_basura_formal":100,"pct_basura_quema":0,"pct_basura_informal":0,"pct_internet":80,"pct_celular":90,"pct_televisor":70}},{"type":"Feature","geometry":{"type":"Polygon","coordinates":[[[-66.00142,-18.70581],[-66.00145,-18.70602],[-66.00127,-18.70604],[-66.0013,-18.70653],[-66.00094,-18.70652],[-66.00089,-18.70639],[-66.00081,-18.70642],[-66.00094,-18.70617],[-66.0013,-18.70584],[-66.00142,-18.70581]]]},"properties":{"n":"COLQUECHACA","p":21,"personas_x_ha":78,"masculinidad":110,"pct_menor20":38,"pct_60mas":5,"pct_migrante":62,"dependencia_econ":110,"pct_empleados":20,"pct_cuentapropia":40,"pct_agricultura":0,"pct_comercio":20,"pct_manufactura":10,"pct_construccion":10,"pct_transporte":0,"pct_alojamiento":10,"pct_educ_superior":8,"brecha_educ":3,"pct_sin_seguro":0,"pct_seguro_privado":0,"brecha_seguro":0,"pct_med_tradicional":24,"pct_automedicacion":22,"pct_remedios_caseros":24,"pct_viv_desocupada":0,"pct_alquiler":45,"pct_electricidad":91,"pct_agua_red":73,"pct_alcantarillado":45,"pct_gas_red":0,"pct_gas_garrafa":100,"pct_lena_guano":100,"pct_basura_formal":100,"pct_basura_quema":0,"pct_basura_informal":0,"pct_internet":91,"pct_celular":100,"pct_televisor":45}},{"type":"Feature","geometry":{"type":"Polygon","coordinates":[[[-66.00223,-18.69986],[-66.00233,-18.69974],[-66.00176,-18.69848],[-66.00169,-18.69849],[-66.00223,-18.69986]]]},"properties":{"n":"COLQUECHACA","p":59,"personas_x_ha":255,"masculinidad":136,"pct_menor20":51,"pct_60mas":7,"pct_migrante":10,"dependencia_econ":146,"pct_empleados":25,"pct_cuentapropia":54,"pct_agricultura":4,"pct_comercio":8,"pct_manufactura":4,"pct_construccion":8,"pct_transporte":0,"pct_alojamiento":4,"pct_educ_superior":3,"brecha_educ":-23,"pct_sin_seguro":5,"pct_seguro_privado":0,"brecha_seguro":2,"pct_med_tradicional":12,"pct_automedicacion":14,"pct_remedios_caseros":15,"pct_viv_desocupada":0,"pct_alquiler":7,"pct_electricidad":96,"pct_agua_red":0,"pct_alcantarillado":0,"pct_gas_red":0,"pct_gas_garrafa":100,"pct_lena_guano":100,"pct_basura_formal":14,"pct_basura_quema":82,"pct_basura_informal":0,"pct_internet":71,"pct_celular":89,"pct_televisor":75}},{"type":"Feature","geometry":{"type":"Polygon","coordinates":[[[-66.00083,-18.70306],[-66.00025,-18.70343],[-66.00042,-18.7037],[-66.00052,-18.70353],[-66.0011,-18.70315],[-66.00083,-18.70306]]]},"properties":{"n":"COLQUECHACA","p":55,"personas_x_ha":241,"masculinidad":129,"pct_menor20":58,"pct_60mas":2,"pct_migrante":44,"dependencia_econ":189,"pct_empleados":0,"pct_cuentapropia":11,"pct_agricultura":11,"pct_comercio":5,"pct_manufactura":5,"pct_construccion":0,"pct_transporte":0,"pct_alojamiento":0,"pct_educ_superior":16,"brecha_educ":-9,"pct_sin_seguro":15,"pct_seguro_privado":0,"brecha_seguro":-11,"pct_med_tradicional":11,"pct_automedicacion":18,"pct_remedios_caseros":22,"pct_viv_desocupada":6,"pct_alquiler":41,"pct_electricidad":100,"pct_agua_red":71,"pct_alcantarillado":100,"pct_gas_red":0,"pct_gas_garrafa":100,"pct_lena_guano":100,"pct_basura_formal":71,"pct_basura_quema":29,"pct_basura_informal":0,"pct_internet":94,"pct_celular":100,"pct_televisor":47}},{"type":"Feature","geometry":{"type":"Polygon","coordinates":[[[-66.00251,-18.69473],[-66.00232,-18.69475],[-66.0023,-18.69403],[-66.0024,-18.69372],[-66.00246,-18.69376],[-66.00241,-18.69406],[-66.00251,-18.69473]]]},"properties":{"n":"COLQUECHACA","p":27,"personas_x_ha":146,"masculinidad":125,"pct_menor20":44,"pct_60mas":0,"pct_migrante":67,"dependencia_econ":238,"pct_empleados":12,"pct_cuentapropia":38,"pct_agricultura":38,"pct_comercio":0,"pct_manufactura":0,"pct_construccion":0,"pct_transporte":0,"pct_alojamiento":12,"pct_educ_superior":13,"brecha_educ":-6,"pct_sin_seguro":15,"pct_seguro_privado":0,"brecha_seguro":-3,"pct_med_tradicional":17,"pct_automedicacion":16,"pct_remedios_caseros":20,"pct_viv_desocupada":0,"pct_alquiler":57,"pct_electricidad":100,"pct_agua_red":86,"pct_alcantarillado":64,"pct_gas_red":0,"pct_gas_garrafa":100,"pct_lena_guano":100,"pct_basura_formal":100,"pct_basura_quema":0,"pct_basura_informal":0,"pct_internet":50,"pct_celular":93,"pct_televisor":57}},{"type":"Feature","geometry":{"type":"Polygon","coordinates":[[[-66.00273,-18.69623],[-66.00282,-18.69623],[-66.00281,-18.69578],[-66.00265,-18.69584],[-66.00273,-18.69623]]]},"properties":{"n":"COLQUECHACA","p":25,"personas_x_ha":392,"masculinidad":178,"pct_menor20":44,"pct_60mas":4,"pct_migrante":40,"dependencia_econ":56,"pct_empleados":12,"pct_cuentapropia":44,"pct_agricultura":0,"pct_comercio":25,"pct_manufactura":6,"pct_construccion":0,"pct_transporte":0,"pct_alojamiento":0,"pct_educ_superior":20,"brecha_educ":-17,"pct_sin_seguro":20,"pct_seguro_privado":0,"brecha_seguro":14,"pct_med_tradicional":4,"pct_automedicacion":16,"pct_remedios_caseros":34,"pct_viv_desocupada":0,"pct_alquiler":9,"pct_electricidad":100,"pct_agua_red":100,"pct_alcantarillado":100,"pct_gas_red":0,"pct_gas_garrafa":100,"pct_lena_guano":100,"pct_basura_formal":100,"pct_basura_quema":0,"pct_basura_informal":0,"pct_internet":82,"pct_celular":82,"pct_televisor":82}},{"type":"Feature","geometry":{"type":"Polygon","coordinates":[[[-66.00357,-18.70078],[-66.00372,-18.70081],[-66.00368,-18.7002],[-66.00348,-18.70022],[-66.00357,-18.70078]]]},"properties":{"n":"COLQUECHACA","p":59,"personas_x_ha":442,"masculinidad":69,"pct_menor20":41,"pct_60mas":19,"pct_migrante":39,"dependencia_econ":132,"pct_empleados":28,"pct_cuentapropia":40,"pct_agricultura":0,"pct_comercio":28,"pct_manufactura":0,"pct_construccion":0,"pct_transporte":4,"pct_alojamiento":4,"pct_educ_superior":25,"brecha_educ":-29,"pct_sin_seguro":12,"pct_seguro_privado":0,"brecha_seguro":15,"pct_med_tradicional":20,"pct_automedicacion":9,"pct_remedios_caseros":30,"pct_viv_desocupada":0,"pct_alquiler":50,"pct_electricidad":96,"pct_agua_red":96,"pct_alcantarillado":96,"pct_gas_red":0,"pct_gas_garrafa":100,"pct_lena_guano":100,"pct_basura_formal":96,"pct_basura_quema":0,"pct_basura_informal":0,"pct_internet":96,"pct_celular":100,"pct_televisor":73}},{"type":"Feature","geometry":{"type":"Polygon","coordinates":[[[-66.00011,-18.70254],[-66.00009,-18.70263],[-66.001,-18.70307],[-66.00127,-18.70284],[-66.00113,-18.70272],[-66.00011,-18.70254]]]},"properties":{"n":"COLQUECHACA","p":76,"personas_x_ha":239,"masculinidad":181,"pct_menor20":49,"pct_60mas":3,"pct_migrante":25,"dependencia_econ":130,"pct_empleados":48,"pct_cuentapropia":18,"pct_agricultura":12,"pct_comercio":6,"pct_manufactura":0,"pct_construccion":0,"pct_transporte":0,"pct_alojamiento":3,"pct_educ_superior":0,"brecha_educ":-14,"pct_sin_seguro":8,"pct_seguro_privado":0,"brecha_seguro":0,"pct_med_tradicional":8,"pct_automedicacion":13,"pct_remedios_caseros":18,"pct_viv_desocupada":0,"pct_alquiler":42,"pct_electricidad":94,"pct_agua_red":55,"pct_alcantarillado":71,"pct_gas_red":0,"pct_gas_garrafa":100,"pct_lena_guano":100,"pct_basura_formal":84,"pct_basura_quema":13,"pct_basura_informal":0,"pct_internet":55,"pct_celular":87,"pct_televisor":77}},{"type":"Feature","geometry":{"type":"Polygon","coordinates":[[[-66.00161,-18.69928],[-66.00149,-18.69867],[-66.00146,-18.69865],[-66.00126,-18.69879],[-66.00149,-18.69933],[-66.00161,-18.69928]]]},"properties":{"n":"COLQUECHACA","p":34,"personas_x_ha":265,"masculinidad":278,"pct_menor20":53,"pct_60mas":0,"pct_migrante":15,"dependencia_econ":79,"pct_empleados":0,"pct_cuentapropia":5,"pct_agricultura":16,"pct_comercio":0,"pct_manufactura":0,"pct_construccion":0,"pct_transporte":0,"pct_alojamiento":0,"pct_educ_superior":0,"brecha_educ":-21,"pct_sin_seguro":0,"pct_seguro_privado":0,"brecha_seguro":0,"pct_med_tradicional":11,"pct_automedicacion":15,"pct_remedios_caseros":25,"pct_viv_desocupada":0,"pct_alquiler":15,"pct_electricidad":92,"pct_agua_red":0,"pct_alcantarillado":15,"pct_gas_red":0,"pct_gas_garrafa":100,"pct_lena_guano":100,"pct_basura_formal":8,"pct_basura_quema":85,"pct_basura_informal":15,"pct_internet":77,"pct_celular":92,"pct_televisor":92}},{"type":"Feature","geometry":{"type":"Polygon","coordinates":[[[-66.00226,-18.69856],[-66.00251,-18.69848],[-66.00289,-18.69869],[-66.00256,-18.69805],[-66.00246,-18.69757],[-66.00206,-18.69774],[-66.00212,-18.69802],[-66.00207,-18.69849],[-66.00226,-18.69856]]]},"properties":{"n":"COLQUECHACA","p":16,"personas_x_ha":27,"masculinidad":78,"pct_menor20":56,"pct_60mas":6,"pct_migrante":62,"dependencia_econ":220,"pct_empleados":0,"pct_cuentapropia":60,"pct_agricultura":60,"pct_comercio":20,"pct_manufactura":0,"pct_construccion":0,"pct_transporte":0,"pct_alojamiento":0,"pct_educ_superior":0,"brecha_educ":-8,"pct_sin_seguro":29,"pct_seguro_privado":7,"brecha_seguro":-21,"pct_med_tradicional":9,"pct_automedicacion":19,"pct_remedios_caseros":22,"pct_viv_desocupada":0,"pct_alquiler":29,"pct_electricidad":71,"pct_agua_red":14,"pct_alcantarillado":14,"pct_gas_red":0,"pct_gas_garrafa":86,"pct_lena_guano":100,"pct_basura_formal":57,"pct_basura_quema":43,"pct_basura_informal":0,"pct_internet":86,"pct_celular":86,"pct_televisor":57}},{"type":"Feature","geometry":{"type":"Polygon","coordinates":[[[-66.00534,-18.70061],[-66.00507,-18.69956],[-66.00492,-18.69939],[-66.00484,-18.69945],[-66.00491,-18.69938],[-66.00476,-18.6992],[-66.00446,-18.69938],[-66.00464,-18.69972],[-66.00453,-18.70017],[-66.00493,-18.70023],[-66.00496,-18.70008],[-66.00534,-18.70061]]]},"properties":{"n":"COLQUECHACA","p":144,"personas_x_ha":221,"masculinidad":172,"pct_menor20":46,"pct_60mas":2,"pct_migrante":26,"dependencia_econ":125,"pct_empleados":10,"pct_cuentapropia":31,"pct_agricultura":10,"pct_comercio":5,"pct_manufactura":3,"pct_construccion":2,"pct_transporte":0,"pct_alojamiento":2,"pct_educ_superior":6,"brecha_educ":11,"pct_sin_seguro":18,"pct_seguro_privado":2,"brecha_seguro":2,"pct_med_tradicional":17,"pct_automedicacion":16,"pct_remedios_caseros":16,"pct_viv_desocupada":2,"pct_alquiler":38,"pct_electricidad":97,"pct_agua_red":51,"pct_alcantarillado":61,"pct_gas_red":0,"pct_gas_garrafa":98,"pct_lena_guano":98,"pct_basura_formal":67,"pct_basura_quema":5,"pct_basura_informal":16,"pct_internet":66,"pct_celular":89,"pct_televisor":61}},{"type":"Feature","geometry":{"type":"Polygon","coordinates":[[[-66.00461,-18.70112],[-66.00475,-18.70115],[-66.00483,-18.70077],[-66.00466,-18.70085],[-66.00461,-18.70112]]]},"properties":{"n":"COLQUECHACA","p":26,"personas_x_ha":397,"masculinidad":86,"pct_menor20":38,"pct_60mas":4,"pct_migrante":50,"dependencia_econ":136,"pct_empleados":9,"pct_cuentapropia":9,"pct_agricultura":0,"pct_comercio":0,"pct_manufactura":0,"pct_construccion":0,"pct_transporte":0,"pct_alojamiento":9,"pct_educ_superior":19,"brecha_educ":-20,"pct_sin_seguro":19,"pct_seguro_privado":4,"brecha_seguro":-5,"pct_med_tradicional":19,"pct_automedicacion":18,"pct_remedios_caseros":20,"pct_viv_desocupada":0,"pct_alquiler":43,"pct_electricidad":100,"pct_agua_red":71,"pct_alcantarillado":57,"pct_gas_red":0,"pct_gas_garrafa":100,"pct_lena_guano":100,"pct_basura_formal":43,"pct_basura_quema":0,"pct_basura_informal":114,"pct_internet":86,"pct_celular":86,"pct_televisor":100}},{"type":"Feature","geometry":{"type":"Polygon","coordinates":[[[-66.00337,-18.69821],[-66.00377,-18.69807],[-66.00362,-18.69774],[-66.00351,-18.69776],[-66.00361,-18.69771],[-66.0035,-18.69741],[-66.00317,-18.69755],[-66.00337,-18.69821]]]},"properties":{"n":"COLQUECHACA","p":85,"personas_x_ha":268,"masculinidad":118,"pct_menor20":42,"pct_60mas":4,"pct_migrante":58,"dependencia_econ":87,"pct_empleados":24,"pct_cuentapropia":51,"pct_agricultura":0,"pct_comercio":18,"pct_manufactura":4,"pct_construccion":0,"pct_transporte":0,"pct_alojamiento":4,"pct_educ_superior":6,"brecha_educ":-13,"pct_sin_seguro":8,"pct_seguro_privado":0,"brecha_seguro":10,"pct_med_tradicional":14,"pct_automedicacion":18,"pct_remedios_caseros":22,"pct_viv_desocupada":0,"pct_alquiler":31,"pct_electricidad":100,"pct_agua_red":91,"pct_alcantarillado":100,"pct_gas_red":0,"pct_gas_garrafa":100,"pct_lena_guano":100,"pct_basura_formal":100,"pct_basura_quema":0,"pct_basura_informal":0,"pct_internet":84,"pct_celular":91,"pct_televisor":75}},{"type":"Feature","geometry":{"type":"Polygon","coordinates":[[[-66.00398,-18.6989],[-66.00421,-18.69947],[-66.00473,-18.69917],[-66.0039,-18.69833],[-66.00379,-18.69809],[-66.00367,-18.69814],[-66.00405,-18.69886],[-66.00398,-18.6989]]]},"properties":{"n":"COLQUECHACA","p":61,"personas_x_ha":117,"masculinidad":144,"pct_menor20":48,"pct_60mas":3,"pct_migrante":39,"dependencia_econ":91,"pct_empleados":19,"pct_cuentapropia":34,"pct_agricultura":16,"pct_comercio":0,"pct_manufactura":3,"pct_construccion":3,"pct_transporte":0,"pct_alojamiento":19,"pct_educ_superior":12,"brecha_educ":-8,"pct_sin_seguro":7,"pct_seguro_privado":0,"brecha_seguro":4,"pct_med_tradicional":10,"pct_automedicacion":23,"pct_remedios_caseros":24,"pct_viv_desocupada":11,"pct_alquiler":32,"pct_electricidad":95,"pct_agua_red":73,"pct_alcantarillado":82,"pct_gas_red":0,"pct_gas_garrafa":100,"pct_lena_guano":100,"pct_basura_formal":95,"pct_basura_quema":0,"pct_basura_informal":0,"pct_internet":86,"pct_celular":95,"pct_televisor":77}},{"type":"Feature","geometry":{"type":"Polygon","coordinates":[[[-66.00289,-18.69931],[-66.00221,-18.69935],[-66.00246,-18.69988],[-66.00255,-18.6998],[-66.00299,-18.69986],[-66.00289,-18.69931]]]},"properties":{"n":"COLQUECHACA","p":47,"personas_x_ha":127,"masculinidad":135,"pct_menor20":34,"pct_60mas":4,"pct_migrante":34,"dependencia_econ":88,"pct_empleados":28,"pct_cuentapropia":12,"pct_agricultura":8,"pct_comercio":0,"pct_manufactura":0,"pct_construccion":0,"pct_transporte":0,"pct_alojamiento":4,"pct_educ_superior":21,"brecha_educ":12,"pct_sin_seguro":13,"pct_seguro_privado":0,"brecha_seguro":5,"pct_med_tradicional":15,"pct_automedicacion":16,"pct_remedios_caseros":19,"pct_viv_desocupada":0,"pct_alquiler":63,"pct_electricidad":95,"pct_agua_red":74,"pct_alcantarillado":79,"pct_gas_red":0,"pct_gas_garrafa":100,"pct_lena_guano":100,"pct_basura_formal":100,"pct_basura_quema":0,"pct_basura_informal":0,"pct_internet":95,"pct_celular":89,"pct_televisor":89}},{"type":"Feature","geometry":{"type":"Polygon","coordinates":[[[-66.00284,-18.69473],[-66.00331,-18.69471],[-66.0033,-18.69449],[-66.00282,-18.69453],[-66.00284,-18.69473]]]},"properties":{"n":"COLQUECHACA","p":43,"personas_x_ha":352,"masculinidad":169,"pct_menor20":47,"pct_60mas":2,"pct_migrante":58,"dependencia_econ":105,"pct_empleados":5,"pct_cuentapropia":67,"pct_agricultura":10,"pct_comercio":24,"pct_manufactura":0,"pct_construccion":19,"pct_transporte":0,"pct_alojamiento":10,"pct_educ_superior":12,"brecha_educ":16,"pct_sin_seguro":16,"pct_seguro_privado":0,"brecha_seguro":-4,"pct_med_tradicional":4,"pct_automedicacion":28,"pct_remedios_caseros":35,"pct_viv_desocupada":0,"pct_alquiler":0,"pct_electricidad":100,"pct_agua_red":62,"pct_alcantarillado":31,"pct_gas_red":0,"pct_gas_garrafa":100,"pct_lena_guano":100,"pct_basura_formal":92,"pct_basura_quema":8,"pct_basura_informal":0,"pct_internet":92,"pct_celular":100,"pct_televisor":69}},{"type":"Feature","geometry":{"type":"Polygon","coordinates":[[[-66.00319,-18.703],[-66.00341,-18.70319],[-66.00362,-18.70294],[-66.00362,-18.70268],[-66.00378,-18.7025],[-66.00373,-18.70243],[-66.00319,-18.703]]]},"properties":{"n":"COLQUECHACA","p":60,"personas_x_ha":337,"masculinidad":140,"pct_menor20":58,"pct_60mas":0,"pct_migrante":28,"dependencia_econ":157,"pct_empleados":22,"pct_cuentapropia":17,"pct_agricultura":26,"pct_comercio":0,"pct_manufactura":0,"pct_construccion":0,"pct_transporte":4,"pct_alojamiento":0,"pct_educ_superior":20,"brecha_educ":10,"pct_sin_seguro":5,"pct_seguro_privado":0,"brecha_seguro":-5,"pct_med_tradicional":6,"pct_automedicacion":14,"pct_remedios_caseros":23,"pct_viv_desocupada":0,"pct_alquiler":58,"pct_electricidad":100,"pct_agua_red":100,"pct_alcantarillado":84,"pct_gas_red":0,"pct_gas_garrafa":100,"pct_lena_guano":100,"pct_basura_formal":58,"pct_basura_quema":37,"pct_basura_informal":0,"pct_internet":53,"pct_celular":95,"pct_televisor":84}},{"type":"Feature","geometry":{"type":"Polygon","coordinates":[[[-66.0022,-18.70208],[-66.00164,-18.70202],[-66.00145,-18.70289],[-66.0013,-18.70285],[-66.00113,-18.70307],[-66.0022,-18.70316],[-66.00229,-18.70284],[-66.00204,-18.70281],[-66.00229,-18.70281],[-66.00237,-18.70253],[-66.00213,-18.70246],[-66.00238,-18.7025],[-66.00247,-18.70214],[-66.0022,-18.70217],[-66.0022,-18.70208]]]},"properties":{"n":"COLQUECHACA","p":40,"personas_x_ha":37,"masculinidad":150,"pct_menor20":32,"pct_60mas":10,"pct_migrante":22,"dependencia_econ":208,"pct_empleados":31,"pct_cuentapropia":31,"pct_agricultura":8,"pct_comercio":31,"pct_manufactura":0,"pct_construccion":0,"pct_transporte":8,"pct_alojamiento":0,"pct_educ_superior":22,"brecha_educ":-11,"pct_sin_seguro":10,"pct_seguro_privado":0,"brecha_seguro":-4,"pct_med_tradicional":12,"pct_automedicacion":7,"pct_remedios_caseros":23,"pct_viv_desocupada":10,"pct_alquiler":6,"pct_electricidad":100,"pct_agua_red":100,"pct_alcantarillado":94,"pct_gas_red":0,"pct_gas_garrafa":100,"pct_lena_guano":100,"pct_basura_formal":100,"pct_basura_quema":0,"pct_basura_informal":0,"pct_internet":56,"pct_celular":88,"pct_televisor":75}},{"type":"Feature","geometry":{"type":"Polygon","coordinates":[[[-66.00258,-18.70211],[-66.00213,-18.70163],[-66.00208,-18.70098],[-66.00276,-18.70209],[-66.00258,-18.70211]]]},"properties":{"n":"COLQUECHACA","p":85,"personas_x_ha":293,"masculinidad":85,"pct_menor20":39,"pct_60mas":4,"pct_migrante":47,"dependencia_econ":112,"pct_empleados":40,"pct_cuentapropia":22,"pct_agricultura":2,"pct_comercio":10,"pct_manufactura":2,"pct_construccion":0,"pct_transporte":0,"pct_alojamiento":2,"pct_educ_superior":27,"brecha_educ":-2,"pct_sin_seguro":2,"pct_seguro_privado":1,"brecha_seguro":0,"pct_med_tradicional":7,"pct_automedicacion":22,"pct_remedios_caseros":24,"pct_viv_desocupada":3,"pct_alquiler":57,"pct_electricidad":92,"pct_agua_red":65,"pct_alcantarillado":86,"pct_gas_red":0,"pct_gas_garrafa":100,"pct_lena_guano":100,"pct_basura_formal":100,"pct_basura_quema":0,"pct_basura_informal":0,"pct_internet":86,"pct_celular":100,"pct_televisor":84}},{"type":"Feature","geometry":{"type":"Polygon","coordinates":[[[-66.00403,-18.69992],[-66.00374,-18.69986],[-66.00375,-18.70013],[-66.004,-18.70012],[-66.00403,-18.69992]]]},"properties":{"n":"COLQUECHACA","p":31,"personas_x_ha":392,"masculinidad":138,"pct_menor20":26,"pct_60mas":3,"pct_migrante":26,"dependencia_econ":48,"pct_empleados":19,"pct_cuentapropia":57,"pct_agricultura":0,"pct_comercio":52,"pct_manufactura":0,"pct_construccion":0,"pct_transporte":5,"pct_alojamiento":0,"pct_educ_superior":29,"brecha_educ":9,"pct_sin_seguro":6,"pct_seguro_privado":0,"brecha_seguro":11,"pct_med_tradicional":14,"pct_automedicacion":13,"pct_remedios_caseros":29,"pct_viv_desocupada":0,"pct_alquiler":11,"pct_electricidad":100,"pct_agua_red":100,"pct_alcantarillado":100,"pct_gas_red":0,"pct_gas_garrafa":100,"pct_lena_guano":100,"pct_basura_formal":100,"pct_basura_quema":0,"pct_basura_informal":0,"pct_internet":100,"pct_celular":100,"pct_televisor":100}},{"type":"Feature","geometry":{"type":"Polygon","coordinates":[[[-66.00251,-18.70319],[-66.00262,-18.70291],[-66.00235,-18.70285],[-66.00228,-18.70315],[-66.00251,-18.70319]]]},"properties":{"n":"COLQUECHACA","p":16,"personas_x_ha":170,"masculinidad":100,"pct_menor20":25,"pct_60mas":6,"pct_migrante":56,"dependencia_econ":167,"pct_empleados":17,"pct_cuentapropia":67,"pct_agricultura":0,"pct_comercio":33,"pct_manufactura":33,"pct_construccion":0,"pct_transporte":0,"pct_alojamiento":50,"pct_educ_superior":92,"brecha_educ":0,"pct_sin_seguro":12,"pct_seguro_privado":6,"brecha_seguro":-25,"pct_med_tradicional":0,"pct_automedicacion":6,"pct_remedios_caseros":0,"pct_viv_desocupada":30,"pct_alquiler":43,"pct_electricidad":100,"pct_agua_red":100,"pct_alcantarillado":86,"pct_gas_red":0,"pct_gas_garrafa":100,"pct_lena_guano":100,"pct_basura_formal":86,"pct_basura_quema":14,"pct_basura_informal":0,"pct_internet":14,"pct_celular":43,"pct_televisor":29}},{"type":"Feature","geometry":{"type":"Polygon","coordinates":[[[-66.00292,-18.69508],[-66.00276,-18.69477],[-66.00233,-18.69478],[-66.00233,-18.69518],[-66.00263,-18.69578],[-66.00279,-18.69572],[-66.0027,-18.6956],[-66.00258,-18.69533],[-66.00271,-18.69559],[-66.00291,-18.6955],[-66.00302,-18.69573],[-66.00325,-18.69571],[-66.00337,-18.69595],[-66.00372,-18.69579],[-66.00377,-18.69562],[-66.00361,-18.6953],[-66.00335,-18.69507],[-66.00292,-18.69508]]]},"properties":{"n":"COLQUECHACA","p":108,"personas_x_ha":98,"masculinidad":468,"pct_menor20":25,"pct_60mas":4,"pct_migrante":52,"dependencia_econ":32,"pct_empleados":24,"pct_cuentapropia":24,"pct_agricultura":4,"pct_comercio":4,"pct_manufactura":0,"pct_construccion":1,"pct_transporte":2,"pct_alojamiento":1,"pct_educ_superior":4,"brecha_educ":11,"pct_sin_seguro":21,"pct_seguro_privado":0,"brecha_seguro":13,"pct_med_tradicional":7,"pct_automedicacion":21,"pct_remedios_caseros":28,"pct_viv_desocupada":0,"pct_alquiler":45,"pct_electricidad":95,"pct_agua_red":80,"pct_alcantarillado":70,"pct_gas_red":0,"pct_gas_garrafa":85,"pct_lena_guano":85,"pct_basura_formal":90,"pct_basura_quema":0,"pct_basura_informal":0,"pct_internet":85,"pct_celular":90,"pct_televisor":60}},{"type":"Feature","geometry":{"type":"Polygon","coordinates":[[[-66.00338,-18.69841],[-66.00329,-18.69846],[-66.00338,-18.6984],[-66.00321,-18.69798],[-66.00271,-18.69822],[-66.00305,-18.69884],[-66.00325,-18.69888],[-66.00353,-18.6987],[-66.00338,-18.69841]]]},"properties":{"n":"COLQUECHACA","p":114,"personas_x_ha":247,"masculinidad":128,"pct_menor20":36,"pct_60mas":8,"pct_migrante":38,"dependencia_econ":93,"pct_empleados":19,"pct_cuentapropia":31,"pct_agricultura":5,"pct_comercio":19,"pct_manufactura":0,"pct_construccion":9,"pct_transporte":2,"pct_alojamiento":0,"pct_educ_superior":26,"brecha_educ":-7,"pct_sin_seguro":15,"pct_seguro_privado":0,"brecha_seguro":-7,"pct_med_tradicional":15,"pct_automedicacion":15,"pct_remedios_caseros":21,"pct_viv_desocupada":0,"pct_alquiler":40,"pct_electricidad":90,"pct_agua_red":88,"pct_alcantarillado":88,"pct_gas_red":0,"pct_gas_garrafa":92,"pct_lena_guano":92,"pct_basura_formal":96,"pct_basura_quema":2,"pct_basura_informal":0,"pct_internet":62,"pct_celular":87,"pct_televisor":71}},{"type":"Feature","geometry":{"type":"Polygon","coordinates":[[[-66.00081,-18.70012],[-66.00112,-18.70002],[-66.00038,-18.69908],[-66.00007,-18.69843],[-66.00029,-18.69821],[-66.00082,-18.69844],[-66.00108,-18.69933],[-66.00156,-18.69964],[-66.00159,-18.69998],[-66.00183,-18.70062],[-66.00134,-18.70077],[-66.00078,-18.70023],[-66.00081,-18.70012]]]},"properties":{"n":"COLQUECHACA","p":36,"personas_x_ha":19,"masculinidad":125,"pct_menor20":42,"pct_60mas":11,"pct_migrante":8,"dependencia_econ":71,"pct_empleados":24,"pct_cuentapropia":29,"pct_agricultura":33,"pct_comercio":5,"pct_manufactura":0,"pct_construccion":0,"pct_transporte":5,"pct_alojamiento":0,"pct_educ_superior":0,"brecha_educ":-25,"pct_sin_seguro":14,"pct_seguro_privado":0,"brecha_seguro":14,"pct_med_tradicional":8,"pct_automedicacion":24,"pct_remedios_caseros":25,"pct_viv_desocupada":0,"pct_alquiler":33,"pct_electricidad":81,"pct_agua_red":24,"pct_alcantarillado":10,"pct_gas_red":0,"pct_gas_garrafa":95,"pct_lena_guano":95,"pct_basura_formal":62,"pct_basura_quema":14,"pct_basura_informal":0,"pct_internet":71,"pct_celular":90,"pct_televisor":62}},{"type":"Feature","geometry":{"type":"Polygon","coordinates":[[[-66.00643,-18.69936],[-66.00644,-18.69925],[-66.00616,-18.69922],[-66.00613,-18.69899],[-66.00555,-18.69877],[-66.00545,-18.69875],[-66.00525,-18.69904],[-66.00576,-18.69937],[-66.00643,-18.69936]]]},"properties":{"n":"COLQUECHACA","p":43,"personas_x_ha":95,"masculinidad":153,"pct_menor20":44,"pct_60mas":0,"pct_migrante":77,"dependencia_econ":126,"pct_empleados":37,"pct_cuentapropia":26,"pct_agricultura":0,"pct_comercio":16,"pct_manufactura":0,"pct_construccion":5,"pct_transporte":0,"pct_alojamiento":0,"pct_educ_superior":25,"brecha_educ":-11,"pct_sin_seguro":33,"pct_seguro_privado":0,"brecha_seguro":34,"pct_med_tradicional":11,"pct_automedicacion":19,"pct_remedios_caseros":27,"pct_viv_desocupada":0,"pct_alquiler":43,"pct_electricidad":100,"pct_agua_red":57,"pct_alcantarillado":29,"pct_gas_red":7,"pct_gas_garrafa":86,"pct_lena_guano":86,"pct_basura_formal":64,"pct_basura_quema":36,"pct_basura_informal":0,"pct_internet":93,"pct_celular":100,"pct_televisor":79}},{"type":"Feature","geometry":{"type":"Polygon","coordinates":[[[-66.00158,-18.70469],[-66.00164,-18.70494],[-66.00179,-18.70473],[-66.00198,-18.704],[-66.00176,-18.70397],[-66.00158,-18.70469]]]},"properties":{"n":"COLQUECHACA","p":61,"personas_x_ha":269,"masculinidad":110,"pct_menor20":39,"pct_60mas":3,"pct_migrante":34,"dependencia_econ":85,"pct_empleados":15,"pct_cuentapropia":27,"pct_agricultura":24,"pct_comercio":9,"pct_manufactura":0,"pct_construccion":0,"pct_transporte":0,"pct_alojamiento":3,"pct_educ_superior":35,"brecha_educ":-14,"pct_sin_seguro":11,"pct_seguro_privado":0,"brecha_seguro":9,"pct_med_tradicional":11,"pct_automedicacion":20,"pct_remedios_caseros":23,"pct_viv_desocupada":4,"pct_alquiler":35,"pct_electricidad":96,"pct_agua_red":77,"pct_alcantarillado":88,"pct_gas_red":0,"pct_gas_garrafa":100,"pct_lena_guano":100,"pct_basura_formal":96,"pct_basura_quema":4,"pct_basura_informal":0,"pct_internet":88,"pct_celular":96,"pct_televisor":77}},{"type":"Feature","geometry":{"type":"Polygon","coordinates":[[[-66.00342,-18.70021],[-66.00324,-18.69985],[-66.00304,-18.69989],[-66.00294,-18.69928],[-66.00309,-18.69885],[-66.00322,-18.69889],[-66.0035,-18.69925],[-66.00377,-18.69941],[-66.00366,-18.69979],[-66.00368,-18.70017],[-66.00342,-18.70021]]]},"properties":{"n":"COLQUECHACA","p":179,"personas_x_ha":235,"masculinidad":111,"pct_menor20":41,"pct_60mas":4,"pct_migrante":46,"dependencia_econ":101,"pct_empleados":21,"pct_cuentapropia":49,"pct_agricultura":1,"pct_comercio":12,"pct_manufactura":1,"pct_construccion":3,"pct_transporte":3,"pct_alojamiento":7,"pct_educ_superior":28,"brecha_educ":-7,"pct_sin_seguro":14,"pct_seguro_privado":0,"brecha_seguro":7,"pct_med_tradicional":12,"pct_automedicacion":19,"pct_remedios_caseros":21,"pct_viv_desocupada":0,"pct_alquiler":44,"pct_electricidad":97,"pct_agua_red":95,"pct_alcantarillado":99,"pct_gas_red":0,"pct_gas_garrafa":100,"pct_lena_guano":100,"pct_basura_formal":99,"pct_basura_quema":0,"pct_basura_informal":0,"pct_internet":85,"pct_celular":92,"pct_televisor":71}},{"type":"Feature","geometry":{"type":"Polygon","coordinates":[[[-66.00292,-18.70403],[-66.00261,-18.70387],[-66.00255,-18.70398],[-66.00284,-18.70413],[-66.00292,-18.70403]]]},"properties":{"n":"COLQUECHACA","p":40,"personas_x_ha":808,"masculinidad":186,"pct_menor20":48,"pct_60mas":2,"pct_migrante":20,"dependencia_econ":100,"pct_empleados":35,"pct_cuentapropia":20,"pct_agricultura":0,"pct_comercio":5,"pct_manufactura":5,"pct_construccion":5,"pct_transporte":5,"pct_alojamiento":5,"pct_educ_superior":19,"brecha_educ":-10,"pct_sin_seguro":5,"pct_seguro_privado":0,"brecha_seguro":-3,"pct_med_tradicional":15,"pct_automedicacion":20,"pct_remedios_caseros":23,"pct_viv_desocupada":0,"pct_alquiler":12,"pct_electricidad":88,"pct_agua_red":56,"pct_alcantarillado":88,"pct_gas_red":0,"pct_gas_garrafa":100,"pct_lena_guano":100,"pct_basura_formal":100,"pct_basura_quema":0,"pct_basura_informal":0,"pct_internet":81,"pct_celular":94,"pct_televisor":75}},{"type":"Feature","geometry":{"type":"Polygon","coordinates":[[[-66.00337,-18.69824],[-66.00377,-18.69894],[-66.00398,-18.69883],[-66.00364,-18.69815],[-66.00337,-18.69824]]]},"properties":{"n":"COLQUECHACA","p":41,"personas_x_ha":167,"masculinidad":86,"pct_menor20":56,"pct_60mas":2,"pct_migrante":37,"dependencia_econ":135,"pct_empleados":12,"pct_cuentapropia":53,"pct_agricultura":12,"pct_comercio":18,"pct_manufactura":0,"pct_construccion":0,"pct_transporte":0,"pct_alojamiento":12,"pct_educ_superior":16,"brecha_educ":-14,"pct_sin_seguro":26,"pct_seguro_privado":0,"brecha_seguro":-8,"pct_med_tradicional":7,"pct_automedicacion":21,"pct_remedios_caseros":24,"pct_viv_desocupada":7,"pct_alquiler":15,"pct_electricidad":100,"pct_agua_red":92,"pct_alcantarillado":100,"pct_gas_red":0,"pct_gas_garrafa":100,"pct_lena_guano":100,"pct_basura_formal":100,"pct_basura_quema":0,"pct_basura_informal":0,"pct_internet":46,"pct_celular":54,"pct_televisor":46}},{"type":"Feature","geometry":{"type":"Polygon","coordinates":[[[-66.0042,-18.70138],[-66.00466,-18.70122],[-66.00467,-18.70118],[-66.00426,-18.70105],[-66.0042,-18.70138]]]},"properties":{"n":"COLQUECHACA","p":18,"personas_x_ha":182,"masculinidad":200,"pct_menor20":44,"pct_60mas":6,"pct_migrante":11,"dependencia_econ":80,"pct_empleados":10,"pct_cuentapropia":20,"pct_agricultura":0,"pct_comercio":10,"pct_manufactura":0,"pct_construccion":0,"pct_transporte":0,"pct_alojamiento":10,"pct_educ_superior":10,"brecha_educ":-25,"pct_sin_seguro":6,"pct_seguro_privado":0,"brecha_seguro":8,"pct_med_tradicional":0,"pct_automedicacion":24,"pct_remedios_caseros":31,"pct_viv_desocupada":0,"pct_alquiler":0,"pct_electricidad":100,"pct_agua_red":86,"pct_alcantarillado":86,"pct_gas_red":0,"pct_gas_garrafa":100,"pct_lena_guano":100,"pct_basura_formal":57,"pct_basura_quema":0,"pct_basura_informal":0,"pct_internet":100,"pct_celular":100,"pct_televisor":100}},{"type":"Feature","geometry":{"type":"Polygon","coordinates":[[[-66.00449,-18.69642],[-66.00427,-18.69607],[-66.00409,-18.69561],[-66.00388,-18.69569],[-66.00457,-18.69689],[-66.00474,-18.69676],[-66.00463,-18.69648],[-66.00449,-18.69642]]]},"properties":{"n":"COLQUECHACA","p":22,"personas_x_ha":71,"masculinidad":144,"pct_menor20":41,"pct_60mas":5,"pct_migrante":55,"dependencia_econ":100,"pct_empleados":18,"pct_cuentapropia":27,"pct_agricultura":9,"pct_comercio":27,"pct_manufactura":0,"pct_construccion":0,"pct_transporte":0,"pct_alojamiento":18,"pct_educ_superior":15,"brecha_educ":-42,"pct_sin_seguro":9,"pct_seguro_privado":0,"brecha_seguro":15,"pct_med_tradicional":0,"pct_automedicacion":24,"pct_remedios_caseros":27,"pct_viv_desocupada":9,"pct_alquiler":33,"pct_electricidad":100,"pct_agua_red":89,"pct_alcantarillado":56,"pct_gas_red":0,"pct_gas_garrafa":100,"pct_lena_guano":100,"pct_basura_formal":89,"pct_basura_quema":11,"pct_basura_informal":0,"pct_internet":67,"pct_celular":100,"pct_televisor":78}},{"type":"Feature","geometry":{"type":"Polygon","coordinates":[[[-66.00342,-18.70416],[-66.00326,-18.70408],[-66.00312,-18.70438],[-66.00327,-18.70447],[-66.00342,-18.70416]]]},"properties":{"n":"COLQUECHACA","p":19,"personas_x_ha":270,"masculinidad":58,"pct_menor20":37,"pct_60mas":26,"pct_migrante":21,"dependencia_econ":171,"pct_empleados":43,"pct_cuentapropia":0,"pct_agricultura":0,"pct_comercio":0,"pct_manufactura":0,"pct_construccion":0,"pct_transporte":0,"pct_alojamiento":0,"pct_educ_superior":8,"brecha_educ":17,"pct_sin_seguro":0,"pct_seguro_privado":0,"brecha_seguro":0,"pct_med_tradicional":4,"pct_automedicacion":22,"pct_remedios_caseros":24,"pct_viv_desocupada":0,"pct_alquiler":25,"pct_electricidad":100,"pct_agua_red":100,"pct_alcantarillado":75,"pct_gas_red":0,"pct_gas_garrafa":100,"pct_lena_guano":100,"pct_basura_formal":100,"pct_basura_quema":0,"pct_basura_informal":0,"pct_internet":75,"pct_celular":100,"pct_televisor":88}},{"type":"Feature","geometry":{"type":"Polygon","coordinates":[[[-66.00304,-18.69998],[-66.00304,-18.70026],[-66.0034,-18.70022],[-66.00322,-18.69987],[-66.00304,-18.69998]]]},"properties":{"n":"COLQUECHACA","p":30,"personas_x_ha":247,"masculinidad":88,"pct_menor20":60,"pct_60mas":7,"pct_migrante":13,"dependencia_econ":233,"pct_empleados":44,"pct_cuentapropia":11,"pct_agricultura":33,"pct_comercio":0,"pct_manufactura":0,"pct_construccion":0,"pct_transporte":0,"pct_alojamiento":11,"pct_educ_superior":0,"brecha_educ":-60,"pct_sin_seguro":0,"pct_seguro_privado":3,"brecha_seguro":0,"pct_med_tradicional":4,"pct_automedicacion":2,"pct_remedios_caseros":2,"pct_viv_desocupada":0,"pct_alquiler":30,"pct_electricidad":90,"pct_agua_red":90,"pct_alcantarillado":90,"pct_gas_red":0,"pct_gas_garrafa":100,"pct_lena_guano":100,"pct_basura_formal":20,"pct_basura_quema":0,"pct_basura_informal":0,"pct_internet":30,"pct_celular":60,"pct_televisor":70}},{"type":"Feature","geometry":{"type":"Polygon","coordinates":[[[-66.00188,-18.70063],[-66.00149,-18.70081],[-66.00119,-18.70131],[-66.00134,-18.70143],[-66.00148,-18.70175],[-66.00168,-18.70179],[-66.00168,-18.70193],[-66.00179,-18.70194],[-66.00181,-18.70149],[-66.00201,-18.70093],[-66.00189,-18.70093],[-66.00201,-18.70092],[-66.00202,-18.70085],[-66.00188,-18.70063]]]},"properties":{"n":"COLQUECHACA","p":91,"personas_x_ha":133,"masculinidad":176,"pct_menor20":49,"pct_60mas":4,"pct_migrante":22,"dependencia_econ":143,"pct_empleados":22,"pct_cuentapropia":16,"pct_agricultura":8,"pct_comercio":0,"pct_manufactura":0,"pct_construccion":0,"pct_transporte":3,"pct_alojamiento":5,"pct_educ_superior":15,"brecha_educ":-24,"pct_sin_seguro":10,"pct_seguro_privado":0,"brecha_seguro":11,"pct_med_tradicional":10,"pct_automedicacion":17,"pct_remedios_caseros":21,"pct_viv_desocupada":3,"pct_alquiler":41,"pct_electricidad":74,"pct_agua_red":32,"pct_alcantarillado":62,"pct_gas_red":3,"pct_gas_garrafa":97,"pct_lena_guano":97,"pct_basura_formal":79,"pct_basura_quema":21,"pct_basura_informal":0,"pct_internet":74,"pct_celular":91,"pct_televisor":56}},{"type":"Feature","geometry":{"type":"Polygon","coordinates":[[[-66.00233,-18.69368],[-66.00231,-18.69351],[-66.00205,-18.69348],[-66.00206,-18.69388],[-66.00191,-18.69386],[-66.00189,-18.69426],[-66.00223,-18.69434],[-66.00223,-18.69375],[-66.00233,-18.69368]]]},"properties":{"n":"COLQUECHACA","p":24,"personas_x_ha":91,"masculinidad":380,"pct_menor20":46,"pct_60mas":0,"pct_migrante":46,"dependencia_econ":60,"pct_empleados":20,"pct_cuentapropia":67,"pct_agricultura":7,"pct_comercio":7,"pct_manufactura":0,"pct_construccion":0,"pct_transporte":0,"pct_alojamiento":0,"pct_educ_superior":0,"brecha_educ":38,"pct_sin_seguro":4,"pct_seguro_privado":0,"brecha_seguro":5,"pct_med_tradicional":7,"pct_automedicacion":18,"pct_remedios_caseros":26,"pct_viv_desocupada":0,"pct_alquiler":40,"pct_electricidad":100,"pct_agua_red":80,"pct_alcantarillado":93,"pct_gas_red":7,"pct_gas_garrafa":93,"pct_lena_guano":93,"pct_basura_formal":100,"pct_basura_quema":0,"pct_basura_informal":0,"pct_internet":27,"pct_celular":100,"pct_televisor":80}},{"type":"Feature","geometry":{"type":"Polygon","coordinates":[[[-66.00227,-18.69988],[-66.00235,-18.69983],[-66.00251,-18.70003],[-66.00275,-18.70065],[-66.00266,-18.70093],[-66.00247,-18.70093],[-66.00199,-18.70054],[-66.00172,-18.69949],[-66.00199,-18.69946],[-66.00241,-18.70051],[-66.00227,-18.69988]]]},"properties":{"n":"COLQUECHACA","p":45,"personas_x_ha":52,"masculinidad":181,"pct_menor20":42,"pct_60mas":0,"pct_migrante":9,"dependencia_econ":61,"pct_empleados":39,"pct_cuentapropia":43,"pct_agricultura":29,"pct_comercio":4,"pct_manufactura":0,"pct_construccion":0,"pct_transporte":0,"pct_alojamiento":0,"pct_educ_superior":0,"brecha_educ":1,"pct_sin_seguro":33,"pct_seguro_privado":0,"brecha_seguro":2,"pct_med_tradicional":5,"pct_automedicacion":12,"pct_remedios_caseros":22,"pct_viv_desocupada":5,"pct_alquiler":55,"pct_electricidad":100,"pct_agua_red":35,"pct_alcantarillado":40,"pct_gas_red":0,"pct_gas_garrafa":100,"pct_lena_guano":100,"pct_basura_formal":80,"pct_basura_quema":10,"pct_basura_informal":0,"pct_internet":85,"pct_celular":100,"pct_televisor":65}},{"type":"Feature","geometry":{"type":"Polygon","coordinates":[[[-66.00171,-18.70595],[-66.00185,-18.70606],[-66.00228,-18.70601],[-66.00245,-18.70572],[-66.00258,-18.70568],[-66.00249,-18.70533],[-66.00193,-18.70562],[-66.00198,-18.70577],[-66.00191,-18.70577],[-66.00185,-18.70554],[-66.0017,-18.70541],[-66.00144,-18.7057],[-66.00157,-18.70612],[-66.00171,-18.70595]]]},"properties":{"n":"COLQUECHACA","p":84,"personas_x_ha":134,"masculinidad":121,"pct_menor20":56,"pct_60mas":4,"pct_migrante":21,"dependencia_econ":171,"pct_empleados":39,"pct_cuentapropia":29,"pct_agricultura":16,"pct_comercio":16,"pct_manufactura":0,"pct_construccion":0,"pct_transporte":0,"pct_alojamiento":0,"pct_educ_superior":16,"brecha_educ":-31,"pct_sin_seguro":6,"pct_seguro_privado":0,"brecha_seguro":6,"pct_med_tradicional":20,"pct_automedicacion":18,"pct_remedios_caseros":22,"pct_viv_desocupada":4,"pct_alquiler":23,"pct_electricidad":100,"pct_agua_red":100,"pct_alcantarillado":59,"pct_gas_red":0,"pct_gas_garrafa":100,"pct_lena_guano":100,"pct_basura_formal":64,"pct_basura_quema":18,"pct_basura_informal":0,"pct_internet":95,"pct_celular":91,"pct_televisor":82}},{"type":"Feature","geometry":{"type":"Polygon","coordinates":[[[-66.00313,-18.70387],[-66.00295,-18.70425],[-66.00302,-18.70428],[-66.00325,-18.70394],[-66.00313,-18.70387]]]},"properties":{"n":"COLQUECHACA","p":22,"personas_x_ha":479,"masculinidad":69,"pct_menor20":27,"pct_60mas":9,"pct_migrante":32,"dependencia_econ":69,"pct_empleados":46,"pct_cuentapropia":31,"pct_agricultura":8,"pct_comercio":15,"pct_manufactura":8,"pct_construccion":0,"pct_transporte":8,"pct_alojamiento":0,"pct_educ_superior":69,"brecha_educ":33,"pct_sin_seguro":14,"pct_seguro_privado":0,"brecha_seguro":15,"pct_med_tradicional":8,"pct_automedicacion":21,"pct_remedios_caseros":24,"pct_viv_desocupada":14,"pct_alquiler":17,"pct_electricidad":100,"pct_agua_red":83,"pct_alcantarillado":67,"pct_gas_red":0,"pct_gas_garrafa":83,"pct_lena_guano":83,"pct_basura_formal":100,"pct_basura_quema":0,"pct_basura_informal":0,"pct_internet":83,"pct_celular":100,"pct_televisor":100}},{"type":"Feature","geometry":{"type":"Polygon","coordinates":[[[-66.00295,-18.70014],[-66.00298,-18.69989],[-66.00278,-18.69986],[-66.00278,-18.70014],[-66.00295,-18.70014]]]},"properties":{"n":"COLQUECHACA","p":25,"personas_x_ha":444,"masculinidad":178,"pct_menor20":48,"pct_60mas":0,"pct_migrante":44,"dependencia_econ":79,"pct_empleados":14,"pct_cuentapropia":36,"pct_agricultura":14,"pct_comercio":14,"pct_manufactura":0,"pct_construccion":0,"pct_transporte":0,"pct_alojamiento":0,"pct_educ_superior":23,"brecha_educ":-6,"pct_sin_seguro":12,"pct_seguro_privado":0,"brecha_seguro":19,"pct_med_tradicional":11,"pct_automedicacion":17,"pct_remedios_caseros":17,"pct_viv_desocupada":0,"pct_alquiler":27,"pct_electricidad":100,"pct_agua_red":100,"pct_alcantarillado":91,"pct_gas_red":0,"pct_gas_garrafa":100,"pct_lena_guano":100,"pct_basura_formal":91,"pct_basura_quema":0,"pct_basura_informal":0,"pct_internet":82,"pct_celular":91,"pct_televisor":91}},{"type":"Feature","geometry":{"type":"Polygon","coordinates":[[[-66.00296,-18.70326],[-66.00318,-18.70344],[-66.00339,-18.7032],[-66.00317,-18.70301],[-66.00296,-18.70326]]]},"properties":{"n":"COLQUECHACA","p":38,"personas_x_ha":339,"masculinidad":138,"pct_menor20":42,"pct_60mas":5,"pct_migrante":39,"dependencia_econ":100,"pct_empleados":37,"pct_cuentapropia":47,"pct_agricultura":11,"pct_comercio":21,"pct_manufactura":0,"pct_construccion":5,"pct_transporte":5,"pct_alojamiento":16,"pct_educ_superior":26,"brecha_educ":-12,"pct_sin_seguro":35,"pct_seguro_privado":0,"brecha_seguro":-8,"pct_med_tradicional":4,"pct_automedicacion":17,"pct_remedios_caseros":28,"pct_viv_desocupada":0,"pct_alquiler":22,"pct_electricidad":100,"pct_agua_red":100,"pct_alcantarillado":78,"pct_gas_red":0,"pct_gas_garrafa":100,"pct_lena_guano":100,"pct_basura_formal":89,"pct_basura_quema":0,"pct_basura_informal":0,"pct_internet":100,"pct_celular":100,"pct_televisor":67}},{"type":"Feature","geometry":{"type":"Polygon","coordinates":[[[-66.00271,-18.6978],[-66.00286,-18.69809],[-66.00321,-18.69792],[-66.00314,-18.69764],[-66.00275,-18.69771],[-66.00271,-18.6978]]]},"properties":{"n":"COLQUECHACA","p":15,"personas_x_ha":89,"masculinidad":200,"pct_menor20":13,"pct_60mas":13,"pct_migrante":27,"dependencia_econ":67,"pct_empleados":0,"pct_cuentapropia":33,"pct_agricultura":22,"pct_comercio":22,"pct_manufactura":0,"pct_construccion":0,"pct_transporte":0,"pct_alojamiento":0,"pct_educ_superior":15,"brecha_educ":-15,"pct_sin_seguro":29,"pct_seguro_privado":0,"brecha_seguro":-49,"pct_med_tradicional":21,"pct_automedicacion":12,"pct_remedios_caseros":23,"pct_viv_desocupada":0,"pct_alquiler":11,"pct_electricidad":100,"pct_agua_red":78,"pct_alcantarillado":100,"pct_gas_red":0,"pct_gas_garrafa":89,"pct_lena_guano":89,"pct_basura_formal":100,"pct_basura_quema":0,"pct_basura_informal":0,"pct_internet":56,"pct_celular":67,"pct_televisor":89}},{"type":"Feature","geometry":{"type":"Polygon","coordinates":[[[-66.00271,-18.69748],[-66.00276,-18.69768],[-66.00313,-18.6976],[-66.00301,-18.69734],[-66.00271,-18.69748]]]},"properties":{"n":"COLQUECHACA","p":53,"personas_x_ha":509,"masculinidad":130,"pct_menor20":38,"pct_60mas":4,"pct_migrante":47,"dependencia_econ":136,"pct_empleados":18,"pct_cuentapropia":23,"pct_agricultura":0,"pct_comercio":14,"pct_manufactura":0,"pct_construccion":9,"pct_transporte":0,"pct_alojamiento":0,"pct_educ_superior":19,"brecha_educ":-3,"pct_sin_seguro":24,"pct_seguro_privado":12,"brecha_seguro":8,"pct_med_tradicional":1,"pct_automedicacion":19,"pct_remedios_caseros":21,"pct_viv_desocupada":0,"pct_alquiler":77,"pct_electricidad":100,"pct_agua_red":91,"pct_alcantarillado":95,"pct_gas_red":0,"pct_gas_garrafa":100,"pct_lena_guano":100,"pct_basura_formal":100,"pct_basura_quema":0,"pct_basura_informal":0,"pct_internet":64,"pct_celular":82,"pct_televisor":64}},{"type":"Feature","geometry":{"type":"Polygon","coordinates":[[[-66.00107,-18.70242],[-66.00115,-18.70264],[-66.00138,-18.70283],[-66.00154,-18.7023],[-66.0014,-18.70225],[-66.0013,-18.70236],[-66.00107,-18.70242]]]},"properties":{"n":"COLQUECHACA","p":78,"personas_x_ha":400,"masculinidad":144,"pct_menor20":54,"pct_60mas":1,"pct_migrante":10,"dependencia_econ":196,"pct_empleados":12,"pct_cuentapropia":12,"pct_agricultura":4,"pct_comercio":8,"pct_manufactura":4,"pct_construccion":0,"pct_transporte":0,"pct_alojamiento":0,"pct_educ_superior":5,"brecha_educ":-9,"pct_sin_seguro":4,"pct_seguro_privado":0,"brecha_seguro":1,"pct_med_tradicional":14,"pct_automedicacion":19,"pct_remedios_caseros":24,"pct_viv_desocupada":0,"pct_alquiler":20,"pct_electricidad":96,"pct_agua_red":100,"pct_alcantarillado":96,"pct_gas_red":0,"pct_gas_garrafa":100,"pct_lena_guano":100,"pct_basura_formal":68,"pct_basura_quema":12,"pct_basura_informal":32,"pct_internet":52,"pct_celular":92,"pct_televisor":76}},{"type":"Feature","geometry":{"type":"Polygon","coordinates":[[[-66.00047,-18.70209],[-66.00047,-18.70232],[-66.0002,-18.70228],[-66.00013,-18.70252],[-66.00059,-18.70253],[-66.00071,-18.70265],[-66.0011,-18.70261],[-66.00103,-18.7023],[-66.00086,-18.70215],[-66.00047,-18.70209]]]},"properties":{"n":"COLQUECHACA","p":58,"personas_x_ha":147,"masculinidad":164,"pct_menor20":66,"pct_60mas":2,"pct_migrante":38,"dependencia_econ":262,"pct_empleados":69,"pct_cuentapropia":25,"pct_agricultura":6,"pct_comercio":6,"pct_manufactura":6,"pct_construccion":0,"pct_transporte":0,"pct_alojamiento":0,"pct_educ_superior":9,"brecha_educ":-21,"pct_sin_seguro":7,"pct_seguro_privado":0,"brecha_seguro":4,"pct_med_tradicional":6,"pct_automedicacion":22,"pct_remedios_caseros":27,"pct_viv_desocupada":0,"pct_alquiler":40,"pct_electricidad":95,"pct_agua_red":95,"pct_alcantarillado":45,"pct_gas_red":0,"pct_gas_garrafa":100,"pct_lena_guano":100,"pct_basura_formal":40,"pct_basura_quema":30,"pct_basura_informal":0,"pct_internet":95,"pct_celular":100,"pct_televisor":80}},{"type":"Feature","geometry":{"type":"Polygon","coordinates":[[[-66.00271,-18.70113],[-66.00254,-18.70119],[-66.00234,-18.70086],[-66.00207,-18.7007],[-66.00265,-18.70189],[-66.0029,-18.70173],[-66.00295,-18.70066],[-66.00275,-18.7008],[-66.00271,-18.70113]]]},"properties":{"n":"COLQUECHACA","p":138,"personas_x_ha":227,"masculinidad":146,"pct_menor20":51,"pct_60mas":2,"pct_migrante":28,"dependencia_econ":207,"pct_empleados":33,"pct_cuentapropia":24,"pct_agricultura":7,"pct_comercio":22,"pct_manufactura":0,"pct_construccion":2,"pct_transporte":2,"pct_alojamiento":9,"pct_educ_superior":11,"brecha_educ":-15,"pct_sin_seguro":13,"pct_seguro_privado":0,"brecha_seguro":10,"pct_med_tradicional":13,"pct_automedicacion":21,"pct_remedios_caseros":22,"pct_viv_desocupada":0,"pct_alquiler":24,"pct_electricidad":100,"pct_agua_red":90,"pct_alcantarillado":96,"pct_gas_red":0,"pct_gas_garrafa":96,"pct_lena_guano":96,"pct_basura_formal":88,"pct_basura_quema":2,"pct_basura_informal":4,"pct_internet":73,"pct_celular":90,"pct_televisor":84}},{"type":"Feature","geometry":{"type":"Polygon","coordinates":[[[-66.0035,-18.70059],[-66.00328,-18.7006],[-66.00349,-18.70054],[-66.00345,-18.70024],[-66.00304,-18.70027],[-66.00299,-18.70102],[-66.00356,-18.70111],[-66.00369,-18.70083],[-66.00353,-18.70077],[-66.0035,-18.70059]]]},"properties":{"n":"COLQUECHACA","p":85,"personas_x_ha":175,"masculinidad":107,"pct_menor20":48,"pct_60mas":1,"pct_migrante":31,"dependencia_econ":124,"pct_empleados":32,"pct_cuentapropia":42,"pct_agricultura":8,"pct_comercio":18,"pct_manufactura":0,"pct_construccion":3,"pct_transporte":0,"pct_alojamiento":8,"pct_educ_superior":22,"brecha_educ":-8,"pct_sin_seguro":5,"pct_seguro_privado":0,"brecha_seguro":0,"pct_med_tradicional":8,"pct_automedicacion":17,"pct_remedios_caseros":23,"pct_viv_desocupada":14,"pct_alquiler":45,"pct_electricidad":100,"pct_agua_red":87,"pct_alcantarillado":97,"pct_gas_red":0,"pct_gas_garrafa":100,"pct_lena_guano":100,"pct_basura_formal":94,"pct_basura_quema":3,"pct_basura_informal":0,"pct_internet":81,"pct_celular":94,"pct_televisor":81}},{"type":"Feature","geometry":{"type":"Polygon","coordinates":[[[-66.00331,-18.69639],[-66.00374,-18.69625],[-66.00356,-18.69596],[-66.00335,-18.69605],[-66.00325,-18.69583],[-66.00316,-18.69586],[-66.00313,-18.69604],[-66.00331,-18.69639]]]},"properties":{"n":"COLQUECHACA","p":28,"personas_x_ha":132,"masculinidad":133,"pct_menor20":46,"pct_60mas":4,"pct_migrante":54,"dependencia_econ":200,"pct_empleados":22,"pct_cuentapropia":44,"pct_agricultura":11,"pct_comercio":11,"pct_manufactura":22,"pct_construccion":0,"pct_transporte":0,"pct_alojamiento":0,"pct_educ_superior":40,"brecha_educ":-28,"pct_sin_seguro":15,"pct_seguro_privado":4,"brecha_seguro":12,"pct_med_tradicional":1,"pct_automedicacion":20,"pct_remedios_caseros":25,"pct_viv_desocupada":0,"pct_alquiler":67,"pct_electricidad":100,"pct_agua_red":100,"pct_alcantarillado":89,"pct_gas_red":0,"pct_gas_garrafa":100,"pct_lena_guano":100,"pct_basura_formal":89,"pct_basura_quema":0,"pct_basura_informal":22,"pct_internet":78,"pct_celular":89,"pct_televisor":78}},{"type":"Feature","geometry":{"type":"Polygon","coordinates":[[[-66.00187,-18.7035],[-66.00177,-18.70389],[-66.00199,-18.70393],[-66.0021,-18.70355],[-66.00187,-18.7035]]]},"properties":{"n":"COLQUECHACA","p":65,"personas_x_ha":608,"masculinidad":103,"pct_menor20":43,"pct_60mas":2,"pct_migrante":48,"dependencia_econ":121,"pct_empleados":55,"pct_cuentapropia":3,"pct_agricultura":0,"pct_comercio":0,"pct_manufactura":3,"pct_construccion":0,"pct_transporte":0,"pct_alojamiento":0,"pct_educ_superior":53,"brecha_educ":11,"pct_sin_seguro":3,"pct_seguro_privado":0,"brecha_seguro":6,"pct_med_tradicional":11,"pct_automedicacion":24,"pct_remedios_caseros":22,"pct_viv_desocupada":0,"pct_alquiler":74,"pct_electricidad":100,"pct_agua_red":96,"pct_alcantarillado":100,"pct_gas_red":0,"pct_gas_garrafa":100,"pct_lena_guano":100,"pct_basura_formal":96,"pct_basura_quema":4,"pct_basura_informal":0,"pct_internet":87,"pct_celular":96,"pct_televisor":83}},{"type":"Feature","geometry":{"type":"Polygon","coordinates":[[[-66.00413,-18.70254],[-66.00448,-18.70262],[-66.00461,-18.70247],[-66.00458,-18.70229],[-66.00406,-18.70235],[-66.00413,-18.70254]]]},"properties":{"n":"COLQUECHACA","p":25,"personas_x_ha":170,"masculinidad":178,"pct_menor20":44,"pct_60mas":0,"pct_migrante":28,"dependencia_econ":92,"pct_empleados":0,"pct_cuentapropia":77,"pct_agricultura":0,"pct_comercio":0,"pct_manufactura":0,"pct_construccion":0,"pct_transporte":0,"pct_alojamiento":0,"pct_educ_superior":0,"brecha_educ":18,"pct_sin_seguro":0,"pct_seguro_privado":0,"brecha_seguro":0,"pct_med_tradicional":3,"pct_automedicacion":0,"pct_remedios_caseros":3,"pct_viv_desocupada":0,"pct_alquiler":83,"pct_electricidad":100,"pct_agua_red":92,"pct_alcantarillado":92,"pct_gas_red":0,"pct_gas_garrafa":100,"pct_lena_guano":100,"pct_basura_formal":0,"pct_basura_quema":67,"pct_basura_informal":0,"pct_internet":100,"pct_celular":100,"pct_televisor":58}},{"type":"Feature","geometry":{"type":"Polygon","coordinates":[[[-66.00144,-18.69931],[-66.00124,-18.6988],[-66.00107,-18.6989],[-66.00121,-18.69925],[-66.00144,-18.69931]]]},"properties":{"n":"COLQUECHACA","p":30,"personas_x_ha":260,"masculinidad":329,"pct_menor20":60,"pct_60mas":0,"pct_migrante":0,"dependencia_econ":131,"pct_empleados":8,"pct_cuentapropia":0,"pct_agricultura":0,"pct_comercio":0,"pct_manufactura":0,"pct_construccion":0,"pct_transporte":0,"pct_alojamiento":8,"pct_educ_superior":8,"brecha_educ":-36,"pct_sin_seguro":17,"pct_seguro_privado":0,"brecha_seguro":22,"pct_med_tradicional":11,"pct_automedicacion":22,"pct_remedios_caseros":25,"pct_viv_desocupada":0,"pct_alquiler":31,"pct_electricidad":100,"pct_agua_red":0,"pct_alcantarillado":8,"pct_gas_red":0,"pct_gas_garrafa":100,"pct_lena_guano":100,"pct_basura_formal":0,"pct_basura_quema":100,"pct_basura_informal":0,"pct_internet":100,"pct_celular":100,"pct_televisor":92}},{"type":"Feature","geometry":{"type":"Polygon","coordinates":[[[-66.003,-18.7039],[-66.00272,-18.70369],[-66.00263,-18.70382],[-66.00293,-18.70401],[-66.003,-18.7039]]]},"properties":{"n":"COLQUECHACA","p":44,"personas_x_ha":693,"masculinidad":144,"pct_menor20":61,"pct_60mas":7,"pct_migrante":32,"dependencia_econ":214,"pct_empleados":14,"pct_cuentapropia":36,"pct_agricultura":0,"pct_comercio":21,"pct_manufactura":0,"pct_construccion":7,"pct_transporte":0,"pct_alojamiento":7,"pct_educ_superior":22,"brecha_educ":-10,"pct_sin_seguro":7,"pct_seguro_privado":0,"brecha_seguro":12,"pct_med_tradicional":7,"pct_automedicacion":22,"pct_remedios_caseros":23,"pct_viv_desocupada":0,"pct_alquiler":31,"pct_electricidad":100,"pct_agua_red":100,"pct_alcantarillado":77,"pct_gas_red":0,"pct_gas_garrafa":92,"pct_lena_guano":92,"pct_basura_formal":92,"pct_basura_quema":0,"pct_basura_informal":0,"pct_internet":69,"pct_celular":100,"pct_televisor":92}},{"type":"Feature","geometry":{"type":"Polygon","coordinates":[[[-66.0004,-18.70534],[-66.00054,-18.706],[-66.00073,-18.70604],[-66.00084,-18.70575],[-66.00103,-18.70553],[-66.00072,-18.70534],[-66.00045,-18.70528],[-66.0004,-18.70534]]]},"properties":{"n":"COLQUECHACA","p":28,"personas_x_ha":88,"masculinidad":180,"pct_menor20":39,"pct_60mas":7,"pct_migrante":18,"dependencia_econ":133,"pct_empleados":50,"pct_cuentapropia":42,"pct_agricultura":8,"pct_comercio":8,"pct_manufactura":0,"pct_construccion":0,"pct_transporte":0,"pct_alojamiento":8,"pct_educ_superior":6,"brecha_educ":-29,"pct_sin_seguro":15,"pct_seguro_privado":8,"brecha_seguro":-7,"pct_med_tradicional":11,"pct_automedicacion":18,"pct_remedios_caseros":20,"pct_viv_desocupada":7,"pct_alquiler":15,"pct_electricidad":77,"pct_agua_red":77,"pct_alcantarillado":0,"pct_gas_red":0,"pct_gas_garrafa":100,"pct_lena_guano":100,"pct_basura_formal":77,"pct_basura_quema":8,"pct_basura_informal":0,"pct_internet":69,"pct_celular":77,"pct_televisor":85}},{"type":"Feature","geometry":{"type":"Polygon","coordinates":[[[-66.00375,-18.70014],[-66.00375,-18.70085],[-66.00401,-18.70096],[-66.00411,-18.70068],[-66.004,-18.70013],[-66.00375,-18.70014]]]},"properties":{"n":"COLQUECHACA","p":82,"personas_x_ha":303,"masculinidad":128,"pct_menor20":29,"pct_60mas":5,"pct_migrante":39,"dependencia_econ":95,"pct_empleados":45,"pct_cuentapropia":38,"pct_agricultura":2,"pct_comercio":14,"pct_manufactura":2,"pct_construccion":2,"pct_transporte":0,"pct_alojamiento":5,"pct_educ_superior":27,"brecha_educ":2,"pct_sin_seguro":8,"pct_seguro_privado":0,"brecha_seguro":4,"pct_med_tradicional":16,"pct_automedicacion":15,"pct_remedios_caseros":21,"pct_viv_desocupada":0,"pct_alquiler":34,"pct_electricidad":100,"pct_agua_red":90,"pct_alcantarillado":93,"pct_gas_red":0,"pct_gas_garrafa":100,"pct_lena_guano":100,"pct_basura_formal":100,"pct_basura_quema":0,"pct_basura_informal":0,"pct_internet":86,"pct_celular":97,"pct_televisor":86}},{"type":"Feature","geometry":{"type":"Polygon","coordinates":[[[-66.0029,-18.69577],[-66.00286,-18.69625],[-66.00298,-18.69625],[-66.00313,-18.69642],[-66.00324,-18.69638],[-66.0031,-18.69606],[-66.00312,-18.69585],[-66.0029,-18.69577]]]},"properties":{"n":"COLQUECHACA","p":33,"personas_x_ha":187,"masculinidad":94,"pct_menor20":33,"pct_60mas":9,"pct_migrante":33,"dependencia_econ":78,"pct_empleados":33,"pct_cuentapropia":50,"pct_agricultura":0,"pct_comercio":17,"pct_manufactura":6,"pct_construccion":17,"pct_transporte":0,"pct_alojamiento":6,"pct_educ_superior":33,"brecha_educ":2,"pct_sin_seguro":3,"pct_seguro_privado":0,"brecha_seguro":-6,"pct_med_tradicional":9,"pct_automedicacion":20,"pct_remedios_caseros":22,"pct_viv_desocupada":0,"pct_alquiler":17,"pct_electricidad":100,"pct_agua_red":83,"pct_alcantarillado":94,"pct_gas_red":0,"pct_gas_garrafa":94,"pct_lena_guano":94,"pct_basura_formal":94,"pct_basura_quema":0,"pct_basura_informal":0,"pct_internet":78,"pct_celular":89,"pct_televisor":72}},{"type":"Feature","geometry":{"type":"Polygon","coordinates":[[[-66.00214,-18.70363],[-66.00181,-18.70488],[-66.00188,-18.7049],[-66.00217,-18.70442],[-66.00241,-18.70366],[-66.00214,-18.70363]]]},"properties":{"n":"COLQUECHACA","p":103,"personas_x_ha":314,"masculinidad":145,"pct_menor20":49,"pct_60mas":2,"pct_migrante":29,"dependencia_econ":219,"pct_empleados":28,"pct_cuentapropia":38,"pct_agricultura":19,"pct_comercio":12,"pct_manufactura":3,"pct_construccion":6,"pct_transporte":0,"pct_alojamiento":3,"pct_educ_superior":28,"brecha_educ":-7,"pct_sin_seguro":12,"pct_seguro_privado":0,"brecha_seguro":0,"pct_med_tradicional":8,"pct_automedicacion":13,"pct_remedios_caseros":18,"pct_viv_desocupada":0,"pct_alquiler":46,"pct_electricidad":95,"pct_agua_red":67,"pct_alcantarillado":82,"pct_gas_red":0,"pct_gas_garrafa":97,"pct_lena_guano":97,"pct_basura_formal":97,"pct_basura_quema":0,"pct_basura_informal":5,"pct_internet":69,"pct_celular":87,"pct_televisor":79}},{"type":"Feature","geometry":{"type":"Polygon","coordinates":[[[-66.00404,-18.70433],[-66.00418,-18.70453],[-66.00483,-18.70392],[-66.00491,-18.70357],[-66.00483,-18.70322],[-66.00478,-18.70321],[-66.00475,-18.70344],[-66.00457,-18.7036],[-66.00449,-18.70388],[-66.00404,-18.70433]]]},"properties":{"n":"COLQUECHACA","p":70,"personas_x_ha":166,"masculinidad":141,"pct_menor20":47,"pct_60mas":4,"pct_migrante":40,"dependencia_econ":119,"pct_empleados":66,"pct_cuentapropia":28,"pct_agricultura":3,"pct_comercio":6,"pct_manufactura":3,"pct_construccion":3,"pct_transporte":0,"pct_alojamiento":9,"pct_educ_superior":8,"brecha_educ":-23,"pct_sin_seguro":9,"pct_seguro_privado":0,"brecha_seguro":3,"pct_med_tradicional":16,"pct_automedicacion":15,"pct_remedios_caseros":29,"pct_viv_desocupada":0,"pct_alquiler":20,"pct_electricidad":80,"pct_agua_red":45,"pct_alcantarillado":0,"pct_gas_red":0,"pct_gas_garrafa":100,"pct_lena_guano":100,"pct_basura_formal":85,"pct_basura_quema":15,"pct_basura_informal":0,"pct_internet":90,"pct_celular":100,"pct_televisor":90}},{"type":"Feature","geometry":{"type":"Polygon","coordinates":[[[-66.00302,-18.70212],[-66.00272,-18.70216],[-66.00276,-18.70229],[-66.00306,-18.70224],[-66.00332,-18.70207],[-66.00325,-18.70195],[-66.00302,-18.70212]]]},"properties":{"n":"COLQUECHACA","p":30,"personas_x_ha":332,"masculinidad":131,"pct_menor20":20,"pct_60mas":17,"pct_migrante":33,"dependencia_econ":173,"pct_empleados":0,"pct_cuentapropia":73,"pct_agricultura":9,"pct_comercio":45,"pct_manufactura":9,"pct_construccion":9,"pct_transporte":0,"pct_alojamiento":9,"pct_educ_superior":29,"brecha_educ":-3,"pct_sin_seguro":7,"pct_seguro_privado":0,"brecha_seguro":-15,"pct_med_tradicional":10,"pct_automedicacion":16,"pct_remedios_caseros":34,"pct_viv_desocupada":0,"pct_alquiler":45,"pct_electricidad":100,"pct_agua_red":100,"pct_alcantarillado":100,"pct_gas_red":0,"pct_gas_garrafa":100,"pct_lena_guano":100,"pct_basura_formal":100,"pct_basura_quema":0,"pct_basura_informal":0,"pct_internet":64,"pct_celular":100,"pct_televisor":100}},{"type":"Feature","geometry":{"type":"Polygon","coordinates":[[[-66.00277,-18.69794],[-66.00262,-18.69802],[-66.0027,-18.69817],[-66.00285,-18.6981],[-66.00277,-18.69794]]]},"properties":{"n":"COLQUECHACA","p":27,"personas_x_ha":757,"masculinidad":108,"pct_menor20":37,"pct_60mas":0,"pct_migrante":56,"dependencia_econ":145,"pct_empleados":36,"pct_cuentapropia":27,"pct_agricultura":0,"pct_comercio":9,"pct_manufactura":0,"pct_construccion":9,"pct_transporte":9,"pct_alojamiento":0,"pct_educ_superior":24,"brecha_educ":3,"pct_sin_seguro":31,"pct_seguro_privado":0,"brecha_seguro":15,"pct_med_tradicional":7,"pct_automedicacion":23,"pct_remedios_caseros":30,"pct_viv_desocupada":0,"pct_alquiler":55,"pct_electricidad":100,"pct_agua_red":18,"pct_alcantarillado":91,"pct_gas_red":0,"pct_gas_garrafa":100,"pct_lena_guano":100,"pct_basura_formal":100,"pct_basura_quema":0,"pct_basura_informal":0,"pct_internet":100,"pct_celular":100,"pct_televisor":64}},{"type":"Feature","geometry":{"type":"Polygon","coordinates":[[[-66.00374,-18.7038],[-66.00396,-18.70426],[-66.00441,-18.70379],[-66.00447,-18.70361],[-66.00374,-18.7038]]]},"properties":{"n":"COLQUECHACA","p":42,"personas_x_ha":165,"masculinidad":223,"pct_menor20":52,"pct_60mas":7,"pct_migrante":31,"dependencia_econ":100,"pct_empleados":43,"pct_cuentapropia":29,"pct_agricultura":10,"pct_comercio":0,"pct_manufactura":0,"pct_construccion":0,"pct_transporte":0,"pct_alojamiento":0,"pct_educ_superior":0,"brecha_educ":-13,"pct_sin_seguro":14,"pct_seguro_privado":0,"brecha_seguro":-2,"pct_med_tradicional":17,"pct_automedicacion":20,"pct_remedios_caseros":18,"pct_viv_desocupada":0,"pct_alquiler":47,"pct_electricidad":100,"pct_agua_red":26,"pct_alcantarillado":37,"pct_gas_red":0,"pct_gas_garrafa":100,"pct_lena_guano":100,"pct_basura_formal":100,"pct_basura_quema":0,"pct_basura_informal":0,"pct_internet":89,"pct_celular":95,"pct_televisor":84}},{"type":"Feature","geometry":{"type":"Polygon","coordinates":[[[-66.00657,-18.69836],[-66.00527,-18.69762],[-66.0052,-18.6977],[-66.00644,-18.69857],[-66.00657,-18.69836]]]},"properties":{"n":"COLQUECHACA","p":70,"personas_x_ha":202,"masculinidad":159,"pct_menor20":51,"pct_60mas":1,"pct_migrante":44,"dependencia_econ":176,"pct_empleados":20,"pct_cuentapropia":20,"pct_agricultura":0,"pct_comercio":0,"pct_manufactura":0,"pct_construccion":4,"pct_transporte":0,"pct_alojamiento":0,"pct_educ_superior":9,"brecha_educ":-1,"pct_sin_seguro":13,"pct_seguro_privado":4,"brecha_seguro":3,"pct_med_tradicional":13,"pct_automedicacion":20,"pct_remedios_caseros":20,"pct_viv_desocupada":0,"pct_alquiler":31,"pct_electricidad":93,"pct_agua_red":79,"pct_alcantarillado":24,"pct_gas_red":0,"pct_gas_garrafa":100,"pct_lena_guano":100,"pct_basura_formal":93,"pct_basura_quema":7,"pct_basura_informal":0,"pct_internet":79,"pct_celular":93,"pct_televisor":72}},{"type":"Feature","geometry":{"type":"Polygon","coordinates":[[[-66.00242,-18.69651],[-66.00247,-18.69589],[-66.00263,-18.69588],[-66.00271,-18.69624],[-66.00282,-18.69626],[-66.00283,-18.69649],[-66.00242,-18.69651]]]},"properties":{"n":"COLQUECHACA","p":39,"personas_x_ha":191,"masculinidad":95,"pct_menor20":49,"pct_60mas":5,"pct_migrante":51,"dependencia_econ":144,"pct_empleados":38,"pct_cuentapropia":31,"pct_agricultura":6,"pct_comercio":0,"pct_manufactura":0,"pct_construccion":0,"pct_transporte":6,"pct_alojamiento":12,"pct_educ_superior":19,"brecha_educ":8,"pct_sin_seguro":0,"pct_seguro_privado":0,"brecha_seguro":0,"pct_med_tradicional":7,"pct_automedicacion":18,"pct_remedios_caseros":28,"pct_viv_desocupada":6,"pct_alquiler":29,"pct_electricidad":100,"pct_agua_red":57,"pct_alcantarillado":93,"pct_gas_red":0,"pct_gas_garrafa":100,"pct_lena_guano":100,"pct_basura_formal":100,"pct_basura_quema":0,"pct_basura_informal":0,"pct_internet":64,"pct_celular":71,"pct_televisor":71}},{"type":"Feature","geometry":{"type":"Polygon","coordinates":[[[-66.0039,-18.69602],[-66.0038,-18.69606],[-66.00417,-18.6968],[-66.00438,-18.6967],[-66.00389,-18.69587],[-66.00372,-18.69589],[-66.0038,-18.69605],[-66.0039,-18.69602]]]},"properties":{"n":"COLQUECHACA","p":32,"personas_x_ha":129,"masculinidad":100,"pct_menor20":56,"pct_60mas":6,"pct_migrante":50,"dependencia_econ":113,"pct_empleados":20,"pct_cuentapropia":40,"pct_agricultura":13,"pct_comercio":13,"pct_manufactura":0,"pct_construccion":0,"pct_transporte":7,"pct_alojamiento":7,"pct_educ_superior":7,"brecha_educ":0,"pct_sin_seguro":6,"pct_seguro_privado":0,"brecha_seguro":0,"pct_med_tradicional":5,"pct_automedicacion":21,"pct_remedios_caseros":23,"pct_viv_desocupada":0,"pct_alquiler":27,"pct_electricidad":91,"pct_agua_red":100,"pct_alcantarillado":91,"pct_gas_red":0,"pct_gas_garrafa":100,"pct_lena_guano":100,"pct_basura_formal":100,"pct_basura_quema":0,"pct_basura_informal":0,"pct_internet":64,"pct_celular":82,"pct_televisor":91}},{"type":"Feature","geometry":{"type":"Polygon","coordinates":[[[-65.98024,-18.77256],[-65.98023,-18.77271],[-65.97943,-18.77296],[-65.97935,-18.77295],[-65.97915,-18.77262],[-65.97931,-18.77252],[-65.97979,-18.77266],[-65.98024,-18.77256]]]},"properties":{"n":"ROSARIO","p":25,"personas_x_ha":83,"masculinidad":257,"pct_menor20":44,"pct_60mas":4,"pct_migrante":12,"dependencia_econ":67,"pct_empleados":7,"pct_cuentapropia":93,"pct_agricultura":27,"pct_comercio":0,"pct_manufactura":0,"pct_construccion":7,"pct_transporte":27,"pct_alojamiento":0,"pct_educ_superior":7,"brecha_educ":30,"pct_sin_seguro":28,"pct_seguro_privado":0,"brecha_seguro":19,"pct_med_tradicional":11,"pct_automedicacion":7,"pct_remedios_caseros":43,"pct_viv_desocupada":0,"pct_alquiler":0,"pct_electricidad":42,"pct_agua_red":25,"pct_alcantarillado":8,"pct_gas_red":0,"pct_gas_garrafa":83,"pct_lena_guano":83,"pct_basura_formal":75,"pct_basura_quema":17,"pct_basura_informal":0,"pct_internet":33,"pct_celular":50,"pct_televisor":25}}]}