{"type":"FeatureCollection","features":[{"type":"Feature","geometry":{"type":"Polygon","coordinates":[[[-65.20014,-19.75705],[-65.20012,-19.75783],[-65.2002,-19.75785],[-65.2004,-19.757],[-65.20014,-19.75705]]]},"properties":{"n":"CALAPAYA","p":45,"personas_x_ha":297,"masculinidad":137,"pct_menor20":47,"pct_60mas":7,"pct_migrante":2,"dependencia_econ":200,"pct_empleados":20,"pct_cuentapropia":53,"pct_agricultura":67,"pct_comercio":0,"pct_manufactura":0,"pct_construccion":7,"pct_transporte":0,"pct_alojamiento":0,"pct_educ_superior":0,"brecha_educ":-13,"pct_sin_seguro":7,"pct_seguro_privado":0,"brecha_seguro":-7,"pct_med_tradicional":1,"pct_automedicacion":31,"pct_remedios_caseros":31,"pct_viv_desocupada":0,"pct_alquiler":0,"pct_electricidad":100,"pct_agua_red":0,"pct_alcantarillado":0,"pct_gas_red":0,"pct_gas_garrafa":45,"pct_lena_guano":45,"pct_basura_formal":0,"pct_basura_quema":36,"pct_basura_informal":18,"pct_internet":91,"pct_celular":91,"pct_televisor":82}},{"type":"Feature","geometry":{"type":"Polygon","coordinates":[[[-65.27114,-19.64098],[-65.27369,-19.64032],[-65.27356,-19.63978],[-65.27106,-19.64082],[-65.27105,-19.64092],[-65.27114,-19.64098]]]},"properties":{"n":"CKOCHAS","p":46,"personas_x_ha":39,"masculinidad":64,"pct_menor20":54,"pct_60mas":7,"pct_migrante":4,"dependencia_econ":150,"pct_empleados":33,"pct_cuentapropia":33,"pct_agricultura":11,"pct_comercio":11,"pct_manufactura":6,"pct_construccion":11,"pct_transporte":6,"pct_alojamiento":0,"pct_educ_superior":36,"brecha_educ":2,"pct_sin_seguro":0,"pct_seguro_privado":0,"brecha_seguro":0,"pct_med_tradicional":11,"pct_automedicacion":26,"pct_remedios_caseros":24,"pct_viv_desocupada":0,"pct_alquiler":9,"pct_electricidad":91,"pct_agua_red":100,"pct_alcantarillado":100,"pct_gas_red":0,"pct_gas_garrafa":100,"pct_lena_guano":100,"pct_basura_formal":100,"pct_basura_quema":0,"pct_basura_informal":0,"pct_internet":82,"pct_celular":100,"pct_televisor":82}},{"type":"Feature","geometry":{"type":"Polygon","coordinates":[[[-65.27438,-19.63651],[-65.27409,-19.63623],[-65.27353,-19.63672],[-65.27383,-19.63702],[-65.27438,-19.63651]]]},"properties":{"n":"CKOCHAS","p":36,"personas_x_ha":100,"masculinidad":80,"pct_menor20":39,"pct_60mas":8,"pct_migrante":44,"dependencia_econ":106,"pct_empleados":18,"pct_cuentapropia":82,"pct_agricultura":71,"pct_comercio":0,"pct_manufactura":0,"pct_construccion":0,"pct_transporte":12,"pct_alojamiento":6,"pct_educ_superior":24,"brecha_educ":-26,"pct_sin_seguro":3,"pct_seguro_privado":0,"brecha_seguro":6,"pct_med_tradicional":16,"pct_automedicacion":9,"pct_remedios_caseros":32,"pct_viv_desocupada":0,"pct_alquiler":30,"pct_electricidad":80,"pct_agua_red":90,"pct_alcantarillado":60,"pct_gas_red":0,"pct_gas_garrafa":90,"pct_lena_guano":90,"pct_basura_formal":100,"pct_basura_quema":0,"pct_basura_informal":0,"pct_internet":70,"pct_celular":80,"pct_televisor":50}},{"type":"Feature","geometry":{"type":"Polygon","coordinates":[[[-65.27655,-19.63836],[-65.27618,-19.63766],[-65.27662,-19.63748],[-65.27647,-19.63714],[-65.27535,-19.63758],[-65.27558,-19.63832],[-65.27578,-19.63824],[-65.27582,-19.63831],[-65.27555,-19.63842],[-65.2757,-19.63876],[-65.27655,-19.63836]]]},"properties":{"n":"CKOCHAS","p":40,"personas_x_ha":30,"masculinidad":74,"pct_menor20":48,"pct_60mas":2,"pct_migrante":32,"dependencia_econ":67,"pct_empleados":25,"pct_cuentapropia":71,"pct_agricultura":25,"pct_comercio":25,"pct_manufactura":8,"pct_construccion":0,"pct_transporte":17,"pct_alojamiento":0,"pct_educ_superior":8,"brecha_educ":-12,"pct_sin_seguro":2,"pct_seguro_privado":0,"brecha_seguro":-4,"pct_med_tradicional":2,"pct_automedicacion":4,"pct_remedios_caseros":11,"pct_viv_desocupada":18,"pct_alquiler":0,"pct_electricidad":89,"pct_agua_red":89,"pct_alcantarillado":67,"pct_gas_red":0,"pct_gas_garrafa":100,"pct_lena_guano":100,"pct_basura_formal":100,"pct_basura_quema":0,"pct_basura_informal":0,"pct_internet":11,"pct_celular":78,"pct_televisor":89}},{"type":"Feature","geometry":{"type":"Polygon","coordinates":[[[-65.27421,-19.63888],[-65.27488,-19.63861],[-65.27475,-19.63828],[-65.27408,-19.63856],[-65.27421,-19.63888]]]},"properties":{"n":"CKOCHAS","p":33,"personas_x_ha":107,"masculinidad":106,"pct_menor20":33,"pct_60mas":9,"pct_migrante":21,"dependencia_econ":154,"pct_empleados":46,"pct_cuentapropia":54,"pct_agricultura":31,"pct_comercio":31,"pct_manufactura":8,"pct_construccion":0,"pct_transporte":8,"pct_alojamiento":8,"pct_educ_superior":9,"brecha_educ":-21,"pct_sin_seguro":15,"pct_seguro_privado":0,"brecha_seguro":5,"pct_med_tradicional":0,"pct_automedicacion":0,"pct_remedios_caseros":9,"pct_viv_desocupada":0,"pct_alquiler":7,"pct_electricidad":80,"pct_agua_red":60,"pct_alcantarillado":87,"pct_gas_red":0,"pct_gas_garrafa":93,"pct_lena_guano":93,"pct_basura_formal":93,"pct_basura_quema":0,"pct_basura_informal":13,"pct_internet":80,"pct_celular":100,"pct_televisor":67}},{"type":"Feature","geometry":{"type":"Polygon","coordinates":[[[-65.27317,-19.63637],[-65.27371,-19.63585],[-65.27361,-19.63573],[-65.27339,-19.63565],[-65.27289,-19.6361],[-65.27317,-19.63637]]]},"properties":{"n":"CKOCHAS","p":22,"personas_x_ha":68,"masculinidad":47,"pct_menor20":41,"pct_60mas":14,"pct_migrante":27,"dependencia_econ":144,"pct_empleados":22,"pct_cuentapropia":67,"pct_agricultura":56,"pct_comercio":0,"pct_manufactura":0,"pct_construccion":0,"pct_transporte":0,"pct_alojamiento":33,"pct_educ_superior":31,"brecha_educ":-33,"pct_sin_seguro":0,"pct_seguro_privado":0,"brecha_seguro":0,"pct_med_tradicional":0,"pct_automedicacion":13,"pct_remedios_caseros":16,"pct_viv_desocupada":0,"pct_alquiler":0,"pct_electricidad":75,"pct_agua_red":62,"pct_alcantarillado":0,"pct_gas_red":0,"pct_gas_garrafa":100,"pct_lena_guano":100,"pct_basura_formal":100,"pct_basura_quema":0,"pct_basura_informal":0,"pct_internet":62,"pct_celular":88,"pct_televisor":25}},{"type":"Feature","geometry":{"type":"Polygon","coordinates":[[[-65.27565,-19.63674],[-65.27551,-19.63626],[-65.27585,-19.63611],[-65.27611,-19.63648],[-65.27575,-19.63684],[-65.27565,-19.63674]]]},"properties":{"n":"CKOCHAS","p":23,"personas_x_ha":85,"masculinidad":130,"pct_menor20":26,"pct_60mas":13,"pct_migrante":17,"dependencia_econ":77,"pct_empleados":38,"pct_cuentapropia":54,"pct_agricultura":46,"pct_comercio":0,"pct_manufactura":31,"pct_construccion":0,"pct_transporte":0,"pct_alojamiento":0,"pct_educ_superior":44,"brecha_educ":-34,"pct_sin_seguro":5,"pct_seguro_privado":0,"brecha_seguro":-10,"pct_med_tradicional":17,"pct_automedicacion":21,"pct_remedios_caseros":21,"pct_viv_desocupada":0,"pct_alquiler":0,"pct_electricidad":86,"pct_agua_red":86,"pct_alcantarillado":100,"pct_gas_red":0,"pct_gas_garrafa":86,"pct_lena_guano":86,"pct_basura_formal":100,"pct_basura_quema":0,"pct_basura_informal":0,"pct_internet":86,"pct_celular":86,"pct_televisor":57}},{"type":"Feature","geometry":{"type":"Polygon","coordinates":[[[-65.27322,-19.63976],[-65.27428,-19.63932],[-65.27416,-19.63901],[-65.27308,-19.63942],[-65.27322,-19.63976]]]},"properties":{"n":"CKOCHAS","p":18,"personas_x_ha":37,"masculinidad":125,"pct_menor20":11,"pct_60mas":17,"pct_migrante":33,"dependencia_econ":112,"pct_empleados":38,"pct_cuentapropia":50,"pct_agricultura":88,"pct_comercio":0,"pct_manufactura":0,"pct_construccion":0,"pct_transporte":0,"pct_alojamiento":0,"pct_educ_superior":33,"brecha_educ":-17,"pct_sin_seguro":0,"pct_seguro_privado":0,"brecha_seguro":0,"pct_med_tradicional":9,"pct_automedicacion":25,"pct_remedios_caseros":25,"pct_viv_desocupada":12,"pct_alquiler":9,"pct_electricidad":91,"pct_agua_red":82,"pct_alcantarillado":100,"pct_gas_red":0,"pct_gas_garrafa":100,"pct_lena_guano":100,"pct_basura_formal":91,"pct_basura_quema":9,"pct_basura_informal":0,"pct_internet":73,"pct_celular":91,"pct_televisor":45}},{"type":"Feature","geometry":{"type":"Polygon","coordinates":[[[-65.27534,-19.63711],[-65.27507,-19.63737],[-65.27517,-19.63756],[-65.27584,-19.63729],[-65.27565,-19.63697],[-65.27534,-19.63711]]]},"properties":{"n":"CKOCHAS","p":22,"personas_x_ha":83,"masculinidad":144,"pct_menor20":32,"pct_60mas":23,"pct_migrante":36,"dependencia_econ":83,"pct_empleados":25,"pct_cuentapropia":75,"pct_agricultura":50,"pct_comercio":33,"pct_manufactura":0,"pct_construccion":8,"pct_transporte":0,"pct_alojamiento":0,"pct_educ_superior":20,"brecha_educ":20,"pct_sin_seguro":0,"pct_seguro_privado":0,"brecha_seguro":0,"pct_med_tradicional":7,"pct_automedicacion":15,"pct_remedios_caseros":28,"pct_viv_desocupada":0,"pct_alquiler":0,"pct_electricidad":91,"pct_agua_red":100,"pct_alcantarillado":100,"pct_gas_red":0,"pct_gas_garrafa":91,"pct_lena_guano":91,"pct_basura_formal":100,"pct_basura_quema":0,"pct_basura_informal":0,"pct_internet":73,"pct_celular":100,"pct_televisor":82}},{"type":"Feature","geometry":{"type":"Polygon","coordinates":[[[-65.27477,-19.64132],[-65.2747,-19.6409],[-65.27388,-19.64106],[-65.27393,-19.64147],[-65.27477,-19.64132]]]},"properties":{"n":"CKOCHAS","p":15,"personas_x_ha":36,"masculinidad":150,"pct_menor20":40,"pct_60mas":7,"pct_migrante":27,"dependencia_econ":67,"pct_empleados":33,"pct_cuentapropia":56,"pct_agricultura":22,"pct_comercio":44,"pct_manufactura":0,"pct_construccion":11,"pct_transporte":11,"pct_alojamiento":0,"pct_educ_superior":22,"brecha_educ":15,"pct_sin_seguro":0,"pct_seguro_privado":0,"brecha_seguro":0,"pct_med_tradicional":16,"pct_automedicacion":14,"pct_remedios_caseros":28,"pct_viv_desocupada":10,"pct_alquiler":0,"pct_electricidad":29,"pct_agua_red":86,"pct_alcantarillado":100,"pct_gas_red":0,"pct_gas_garrafa":29,"pct_lena_guano":29,"pct_basura_formal":57,"pct_basura_quema":43,"pct_basura_informal":0,"pct_internet":57,"pct_celular":100,"pct_televisor":14}},{"type":"Feature","geometry":{"type":"Polygon","coordinates":[[[-65.27447,-19.63655],[-65.2739,-19.63708],[-65.27418,-19.63739],[-65.27476,-19.63681],[-65.27447,-19.63655]]]},"properties":{"n":"CKOCHAS","p":20,"personas_x_ha":53,"masculinidad":67,"pct_menor20":25,"pct_60mas":10,"pct_migrante":40,"dependencia_econ":67,"pct_empleados":33,"pct_cuentapropia":67,"pct_agricultura":33,"pct_comercio":17,"pct_manufactura":0,"pct_construccion":8,"pct_transporte":8,"pct_alojamiento":8,"pct_educ_superior":27,"brecha_educ":-67,"pct_sin_seguro":0,"pct_seguro_privado":0,"brecha_seguro":0,"pct_med_tradicional":7,"pct_automedicacion":19,"pct_remedios_caseros":25,"pct_viv_desocupada":0,"pct_alquiler":0,"pct_electricidad":67,"pct_agua_red":100,"pct_alcantarillado":89,"pct_gas_red":0,"pct_gas_garrafa":89,"pct_lena_guano":89,"pct_basura_formal":100,"pct_basura_quema":0,"pct_basura_informal":0,"pct_internet":67,"pct_celular":89,"pct_televisor":33}},{"type":"Feature","geometry":{"type":"Polygon","coordinates":[[[-65.27438,-19.63926],[-65.27507,-19.639],[-65.27493,-19.63869],[-65.27425,-19.63897],[-65.27438,-19.63926]]]},"properties":{"n":"CKOCHAS","p":18,"personas_x_ha":60,"masculinidad":80,"pct_menor20":17,"pct_60mas":28,"pct_migrante":11,"dependencia_econ":20,"pct_empleados":27,"pct_cuentapropia":67,"pct_agricultura":40,"pct_comercio":40,"pct_manufactura":0,"pct_construccion":13,"pct_transporte":0,"pct_alojamiento":0,"pct_educ_superior":13,"brecha_educ":-75,"pct_sin_seguro":0,"pct_seguro_privado":0,"brecha_seguro":0,"pct_med_tradicional":14,"pct_automedicacion":22,"pct_remedios_caseros":26,"pct_viv_desocupada":6,"pct_alquiler":7,"pct_electricidad":86,"pct_agua_red":86,"pct_alcantarillado":93,"pct_gas_red":0,"pct_gas_garrafa":86,"pct_lena_guano":86,"pct_basura_formal":86,"pct_basura_quema":14,"pct_basura_informal":0,"pct_internet":71,"pct_celular":86,"pct_televisor":43}},{"type":"Feature","geometry":{"type":"Polygon","coordinates":[[[-65.27395,-19.6386],[-65.27322,-19.63912],[-65.27308,-19.63894],[-65.27292,-19.63901],[-65.27305,-19.63934],[-65.27411,-19.6389],[-65.27395,-19.6386]]]},"properties":{"n":"CKOCHAS","p":25,"personas_x_ha":63,"masculinidad":67,"pct_menor20":32,"pct_60mas":4,"pct_migrante":16,"dependencia_econ":127,"pct_empleados":27,"pct_cuentapropia":73,"pct_agricultura":73,"pct_comercio":9,"pct_manufactura":0,"pct_construccion":18,"pct_transporte":0,"pct_alojamiento":9,"pct_educ_superior":26,"brecha_educ":-29,"pct_sin_seguro":16,"pct_seguro_privado":0,"brecha_seguro":23,"pct_med_tradicional":2,"pct_automedicacion":15,"pct_remedios_caseros":31,"pct_viv_desocupada":0,"pct_alquiler":0,"pct_electricidad":80,"pct_agua_red":90,"pct_alcantarillado":90,"pct_gas_red":0,"pct_gas_garrafa":100,"pct_lena_guano":100,"pct_basura_formal":90,"pct_basura_quema":10,"pct_basura_informal":0,"pct_internet":90,"pct_celular":100,"pct_televisor":80}},{"type":"Feature","geometry":{"type":"Polygon","coordinates":[[[-65.27395,-19.63837],[-65.27402,-19.63848],[-65.27469,-19.63822],[-65.27458,-19.6379],[-65.2744,-19.63797],[-65.27445,-19.63806],[-65.27411,-19.63837],[-65.27406,-19.6383],[-65.27395,-19.63837]]]},"properties":{"n":"CKOCHAS","p":27,"personas_x_ha":156,"masculinidad":93,"pct_menor20":37,"pct_60mas":15,"pct_migrante":37,"dependencia_econ":42,"pct_empleados":47,"pct_cuentapropia":37,"pct_agricultura":37,"pct_comercio":5,"pct_manufactura":21,"pct_construccion":16,"pct_transporte":11,"pct_alojamiento":5,"pct_educ_superior":12,"brecha_educ":1,"pct_sin_seguro":33,"pct_seguro_privado":0,"brecha_seguro":25,"pct_med_tradicional":13,"pct_automedicacion":19,"pct_remedios_caseros":28,"pct_viv_desocupada":0,"pct_alquiler":0,"pct_electricidad":75,"pct_agua_red":100,"pct_alcantarillado":75,"pct_gas_red":0,"pct_gas_garrafa":100,"pct_lena_guano":100,"pct_basura_formal":100,"pct_basura_quema":0,"pct_basura_informal":0,"pct_internet":88,"pct_celular":88,"pct_televisor":62}},{"type":"Feature","geometry":{"type":"Polygon","coordinates":[[[-65.27382,-19.64057],[-65.27462,-19.64044],[-65.27458,-19.64003],[-65.27375,-19.64017],[-65.27382,-19.64057]]]},"properties":{"n":"CKOCHAS","p":22,"personas_x_ha":56,"masculinidad":144,"pct_menor20":41,"pct_60mas":5,"pct_migrante":14,"dependencia_econ":175,"pct_empleados":38,"pct_cuentapropia":38,"pct_agricultura":75,"pct_comercio":0,"pct_manufactura":0,"pct_construccion":25,"pct_transporte":12,"pct_alojamiento":0,"pct_educ_superior":21,"brecha_educ":-18,"pct_sin_seguro":0,"pct_seguro_privado":0,"brecha_seguro":0,"pct_med_tradicional":9,"pct_automedicacion":12,"pct_remedios_caseros":20,"pct_viv_desocupada":0,"pct_alquiler":0,"pct_electricidad":40,"pct_agua_red":90,"pct_alcantarillado":70,"pct_gas_red":0,"pct_gas_garrafa":70,"pct_lena_guano":70,"pct_basura_formal":100,"pct_basura_quema":0,"pct_basura_informal":0,"pct_internet":80,"pct_celular":90,"pct_televisor":50}},{"type":"Feature","geometry":{"type":"Polygon","coordinates":[[[-65.27469,-19.64088],[-65.27463,-19.64048],[-65.27382,-19.64062],[-65.27388,-19.64103],[-65.27469,-19.64088]]]},"properties":{"n":"CKOCHAS","p":19,"personas_x_ha":49,"masculinidad":138,"pct_menor20":37,"pct_60mas":16,"pct_migrante":5,"dependencia_econ":111,"pct_empleados":33,"pct_cuentapropia":56,"pct_agricultura":33,"pct_comercio":11,"pct_manufactura":0,"pct_construccion":22,"pct_transporte":0,"pct_alojamiento":0,"pct_educ_superior":0,"brecha_educ":-50,"pct_sin_seguro":5,"pct_seguro_privado":0,"brecha_seguro":9,"pct_med_tradicional":7,"pct_automedicacion":20,"pct_remedios_caseros":22,"pct_viv_desocupada":0,"pct_alquiler":0,"pct_electricidad":50,"pct_agua_red":100,"pct_alcantarillado":88,"pct_gas_red":0,"pct_gas_garrafa":62,"pct_lena_guano":62,"pct_basura_formal":75,"pct_basura_quema":0,"pct_basura_informal":0,"pct_internet":100,"pct_celular":100,"pct_televisor":25}},{"type":"Feature","geometry":{"type":"Polygon","coordinates":[[[-65.1396,-19.64327],[-65.13936,-19.64296],[-65.13929,-19.643],[-65.13943,-19.64384],[-65.14004,-19.64343],[-65.13982,-19.64313],[-65.1396,-19.64327]]]},"properties":{"n":"MELENA ALTA","p":38,"personas_x_ha":108,"masculinidad":46,"pct_menor20":42,"pct_60mas":8,"pct_migrante":21,"dependencia_econ":90,"pct_empleados":5,"pct_cuentapropia":65,"pct_agricultura":100,"pct_comercio":10,"pct_manufactura":0,"pct_construccion":5,"pct_transporte":0,"pct_alojamiento":0,"pct_educ_superior":17,"brecha_educ":-13,"pct_sin_seguro":8,"pct_seguro_privado":0,"brecha_seguro":1,"pct_med_tradicional":10,"pct_automedicacion":19,"pct_remedios_caseros":22,"pct_viv_desocupada":0,"pct_alquiler":0,"pct_electricidad":91,"pct_agua_red":82,"pct_alcantarillado":0,"pct_gas_red":0,"pct_gas_garrafa":82,"pct_lena_guano":82,"pct_basura_formal":0,"pct_basura_quema":91,"pct_basura_informal":0,"pct_internet":100,"pct_celular":100,"pct_televisor":82}},{"type":"Feature","geometry":{"type":"Polygon","coordinates":[[[-65.14021,-19.6444],[-65.14002,-19.64452],[-65.14034,-19.64493],[-65.14056,-19.64478],[-65.14021,-19.6444]]]},"properties":{"n":"MELENA ALTA","p":21,"personas_x_ha":144,"masculinidad":110,"pct_menor20":33,"pct_60mas":10,"pct_migrante":19,"dependencia_econ":62,"pct_empleados":8,"pct_cuentapropia":62,"pct_agricultura":92,"pct_comercio":0,"pct_manufactura":0,"pct_construccion":0,"pct_transporte":0,"pct_alojamiento":0,"pct_educ_superior":21,"brecha_educ":-43,"pct_sin_seguro":6,"pct_seguro_privado":0,"brecha_seguro":12,"pct_med_tradicional":7,"pct_automedicacion":9,"pct_remedios_caseros":35,"pct_viv_desocupada":0,"pct_alquiler":0,"pct_electricidad":100,"pct_agua_red":100,"pct_alcantarillado":0,"pct_gas_red":0,"pct_gas_garrafa":71,"pct_lena_guano":71,"pct_basura_formal":0,"pct_basura_quema":100,"pct_basura_informal":0,"pct_internet":71,"pct_celular":86,"pct_televisor":57}},{"type":"Feature","geometry":{"type":"Polygon","coordinates":[[[-64.94105,-19.81834],[-64.94038,-19.81825],[-64.94055,-19.81839],[-64.94081,-19.81888],[-64.94115,-19.8187],[-64.94132,-19.81896],[-64.94159,-19.81885],[-64.94105,-19.81834]]]},"properties":{"n":"TURUCHIPA","p":21,"personas_x_ha":49,"masculinidad":62,"pct_menor20":24,"pct_60mas":19,"pct_migrante":38,"dependencia_econ":233,"pct_empleados":50,"pct_cuentapropia":50,"pct_agricultura":50,"pct_comercio":0,"pct_manufactura":0,"pct_construccion":0,"pct_transporte":0,"pct_alojamiento":0,"pct_educ_superior":67,"brecha_educ":-6,"pct_sin_seguro":10,"pct_seguro_privado":0,"brecha_seguro":7,"pct_med_tradicional":3,"pct_automedicacion":13,"pct_remedios_caseros":27,"pct_viv_desocupada":29,"pct_alquiler":0,"pct_electricidad":62,"pct_agua_red":62,"pct_alcantarillado":0,"pct_gas_red":0,"pct_gas_garrafa":62,"pct_lena_guano":62,"pct_basura_formal":0,"pct_basura_quema":38,"pct_basura_informal":0,"pct_internet":62,"pct_celular":75,"pct_televisor":50}},{"type":"Feature","geometry":{"type":"Polygon","coordinates":[[[-64.94155,-19.81975],[-64.94167,-19.8197],[-64.94116,-19.81878],[-64.94083,-19.81891],[-64.94102,-19.81943],[-64.94135,-19.8194],[-64.94155,-19.81975]]]},"properties":{"n":"TURUCHIPA","p":43,"personas_x_ha":124,"masculinidad":79,"pct_menor20":28,"pct_60mas":26,"pct_migrante":33,"dependencia_econ":79,"pct_empleados":29,"pct_cuentapropia":58,"pct_agricultura":42,"pct_comercio":17,"pct_manufactura":8,"pct_construccion":0,"pct_transporte":4,"pct_alojamiento":8,"pct_educ_superior":39,"brecha_educ":-31,"pct_sin_seguro":17,"pct_seguro_privado":0,"brecha_seguro":29,"pct_med_tradicional":9,"pct_automedicacion":15,"pct_remedios_caseros":23,"pct_viv_desocupada":0,"pct_alquiler":9,"pct_electricidad":95,"pct_agua_red":86,"pct_alcantarillado":5,"pct_gas_red":0,"pct_gas_garrafa":82,"pct_lena_guano":82,"pct_basura_formal":0,"pct_basura_quema":73,"pct_basura_informal":0,"pct_internet":86,"pct_celular":95,"pct_televisor":68}},{"type":"Feature","geometry":{"type":"Polygon","coordinates":[[[-64.94121,-19.82005],[-64.94099,-19.81948],[-64.94061,-19.81954],[-64.94067,-19.81991],[-64.94094,-19.82005],[-64.94121,-19.82005]]]},"properties":{"n":"TURUCHIPA","p":32,"personas_x_ha":120,"masculinidad":88,"pct_menor20":25,"pct_60mas":12,"pct_migrante":6,"dependencia_econ":182,"pct_empleados":0,"pct_cuentapropia":82,"pct_agricultura":73,"pct_comercio":18,"pct_manufactura":0,"pct_construccion":9,"pct_transporte":0,"pct_alojamiento":0,"pct_educ_superior":35,"brecha_educ":-46,"pct_sin_seguro":10,"pct_seguro_privado":0,"brecha_seguro":10,"pct_med_tradicional":10,"pct_automedicacion":6,"pct_remedios_caseros":21,"pct_viv_desocupada":20,"pct_alquiler":17,"pct_electricidad":92,"pct_agua_red":67,"pct_alcantarillado":8,"pct_gas_red":0,"pct_gas_garrafa":92,"pct_lena_guano":92,"pct_basura_formal":0,"pct_basura_quema":67,"pct_basura_informal":0,"pct_internet":58,"pct_celular":92,"pct_televisor":58}}]}