{"type":"FeatureCollection","features":[{"type":"Feature","geometry":{"type":"Polygon","coordinates":[[[-66.51557,-21.84853],[-66.51477,-21.84812],[-66.51455,-21.84843],[-66.51453,-21.84868],[-66.51516,-21.849],[-66.51557,-21.84853]]]},"properties":{"n":"GUADALUPE","p":21,"personas_x_ha":35,"masculinidad":200,"pct_menor20":38,"pct_60mas":0,"pct_migrante":67,"dependencia_econ":122,"pct_empleados":100,"pct_cuentapropia":0,"pct_agricultura":0,"pct_comercio":0,"pct_manufactura":0,"pct_construccion":22,"pct_transporte":11,"pct_alojamiento":0,"pct_educ_superior":8,"brecha_educ":20,"pct_sin_seguro":11,"pct_seguro_privado":0,"brecha_seguro":17,"pct_med_tradicional":9,"pct_automedicacion":13,"pct_remedios_caseros":36,"pct_viv_desocupada":40,"pct_alquiler":33,"pct_electricidad":100,"pct_agua_red":67,"pct_alcantarillado":67,"pct_gas_red":0,"pct_gas_garrafa":100,"pct_lena_guano":100,"pct_basura_formal":33,"pct_basura_quema":67,"pct_basura_informal":0,"pct_internet":0,"pct_celular":100,"pct_televisor":67}},{"type":"Feature","geometry":{"type":"Polygon","coordinates":[[[-66.51363,-21.84902],[-66.51333,-21.84896],[-66.51324,-21.84923],[-66.51279,-21.84915],[-66.51268,-21.84951],[-66.51352,-21.8497],[-66.51363,-21.84902]]]},"properties":{"n":"GUADALUPE","p":47,"personas_x_ha":95,"masculinidad":114,"pct_menor20":55,"pct_60mas":0,"pct_migrante":55,"dependencia_econ":213,"pct_empleados":53,"pct_cuentapropia":20,"pct_agricultura":7,"pct_comercio":13,"pct_manufactura":0,"pct_construccion":0,"pct_transporte":0,"pct_alojamiento":7,"pct_educ_superior":27,"brecha_educ":-33,"pct_sin_seguro":6,"pct_seguro_privado":0,"brecha_seguro":3,"pct_med_tradicional":2,"pct_automedicacion":3,"pct_remedios_caseros":41,"pct_viv_desocupada":0,"pct_alquiler":27,"pct_electricidad":100,"pct_agua_red":60,"pct_alcantarillado":0,"pct_gas_red":0,"pct_gas_garrafa":87,"pct_lena_guano":87,"pct_basura_formal":0,"pct_basura_quema":93,"pct_basura_informal":0,"pct_internet":0,"pct_celular":100,"pct_televisor":73}},{"type":"Feature","geometry":{"type":"Polygon","coordinates":[[[-66.51419,-21.85003],[-66.51411,-21.85002],[-66.51405,-21.84985],[-66.51418,-21.84907],[-66.51437,-21.8491],[-66.51419,-21.85003]]]},"properties":{"n":"GUADALUPE","p":26,"personas_x_ha":130,"masculinidad":73,"pct_menor20":35,"pct_60mas":19,"pct_migrante":4,"dependencia_econ":550,"pct_empleados":50,"pct_cuentapropia":50,"pct_agricultura":50,"pct_comercio":25,"pct_manufactura":0,"pct_construccion":0,"pct_transporte":0,"pct_alojamiento":0,"pct_educ_superior":28,"brecha_educ":-25,"pct_sin_seguro":19,"pct_seguro_privado":0,"brecha_seguro":14,"pct_med_tradicional":17,"pct_automedicacion":6,"pct_remedios_caseros":29,"pct_viv_desocupada":0,"pct_alquiler":0,"pct_electricidad":100,"pct_agua_red":100,"pct_alcantarillado":0,"pct_gas_red":0,"pct_gas_garrafa":83,"pct_lena_guano":83,"pct_basura_formal":67,"pct_basura_quema":33,"pct_basura_informal":0,"pct_internet":8,"pct_celular":75,"pct_televisor":42}},{"type":"Feature","geometry":{"type":"Polygon","coordinates":[[[-66.5148,-21.8499],[-66.51506,-21.84968],[-66.51514,-21.84938],[-66.51464,-21.84904],[-66.51443,-21.849],[-66.5142,-21.85022],[-66.5146,-21.85044],[-66.51472,-21.8504],[-66.5148,-21.8499]]]},"properties":{"n":"GUADALUPE","p":33,"personas_x_ha":36,"masculinidad":120,"pct_menor20":58,"pct_60mas":6,"pct_migrante":0,"dependencia_econ":267,"pct_empleados":22,"pct_cuentapropia":44,"pct_agricultura":44,"pct_comercio":11,"pct_manufactura":0,"pct_construccion":22,"pct_transporte":0,"pct_alojamiento":0,"pct_educ_superior":14,"brecha_educ":44,"pct_sin_seguro":6,"pct_seguro_privado":0,"brecha_seguro":11,"pct_med_tradicional":4,"pct_automedicacion":13,"pct_remedios_caseros":40,"pct_viv_desocupada":0,"pct_alquiler":0,"pct_electricidad":100,"pct_agua_red":100,"pct_alcantarillado":0,"pct_gas_red":0,"pct_gas_garrafa":50,"pct_lena_guano":50,"pct_basura_formal":20,"pct_basura_quema":70,"pct_basura_informal":0,"pct_internet":0,"pct_celular":100,"pct_televisor":90}},{"type":"Feature","geometry":{"type":"Polygon","coordinates":[[[-66.51385,-21.84899],[-66.51388,-21.84846],[-66.51378,-21.84844],[-66.51368,-21.849],[-66.51385,-21.84899]]]},"properties":{"n":"GUADALUPE","p":38,"personas_x_ha":401,"masculinidad":280,"pct_menor20":26,"pct_60mas":3,"pct_migrante":84,"dependencia_econ":81,"pct_empleados":76,"pct_cuentapropia":10,"pct_agricultura":19,"pct_comercio":14,"pct_manufactura":5,"pct_construccion":0,"pct_transporte":10,"pct_alojamiento":5,"pct_educ_superior":29,"brecha_educ":10,"pct_sin_seguro":24,"pct_seguro_privado":0,"brecha_seguro":20,"pct_med_tradicional":7,"pct_automedicacion":18,"pct_remedios_caseros":30,"pct_viv_desocupada":0,"pct_alquiler":0,"pct_electricidad":100,"pct_agua_red":100,"pct_alcantarillado":25,"pct_gas_red":0,"pct_gas_garrafa":100,"pct_lena_guano":100,"pct_basura_formal":75,"pct_basura_quema":25,"pct_basura_informal":0,"pct_internet":25,"pct_celular":100,"pct_televisor":50}},{"type":"Feature","geometry":{"type":"Polygon","coordinates":[[[-66.85913,-22.30716],[-66.85861,-22.30703],[-66.85848,-22.30764],[-66.859,-22.30777],[-66.85913,-22.30716]]]},"properties":{"n":"RIO CHILENAS","p":21,"personas_x_ha":55,"masculinidad":110,"pct_menor20":48,"pct_60mas":5,"pct_migrante":33,"dependencia_econ":133,"pct_empleados":11,"pct_cuentapropia":78,"pct_agricultura":67,"pct_comercio":0,"pct_manufactura":0,"pct_construccion":22,"pct_transporte":0,"pct_alojamiento":0,"pct_educ_superior":18,"brecha_educ":-7,"pct_sin_seguro":24,"pct_seguro_privado":0,"brecha_seguro":7,"pct_med_tradicional":15,"pct_automedicacion":10,"pct_remedios_caseros":28,"pct_viv_desocupada":0,"pct_alquiler":12,"pct_electricidad":12,"pct_agua_red":75,"pct_alcantarillado":0,"pct_gas_red":0,"pct_gas_garrafa":38,"pct_lena_guano":38,"pct_basura_formal":62,"pct_basura_quema":12,"pct_basura_informal":0,"pct_internet":0,"pct_celular":100,"pct_televisor":0}},{"type":"Feature","geometry":{"type":"Polygon","coordinates":[[[-66.85979,-22.30766],[-66.85988,-22.30732],[-66.8592,-22.30716],[-66.85906,-22.30778],[-66.85937,-22.30785],[-66.85942,-22.30757],[-66.85979,-22.30766]]]},"properties":{"n":"RIO CHILENAS","p":20,"personas_x_ha":53,"masculinidad":122,"pct_menor20":55,"pct_60mas":0,"pct_migrante":10,"dependencia_econ":186,"pct_empleados":14,"pct_cuentapropia":86,"pct_agricultura":86,"pct_comercio":0,"pct_manufactura":14,"pct_construccion":14,"pct_transporte":0,"pct_alojamiento":0,"pct_educ_superior":11,"brecha_educ":-50,"pct_sin_seguro":26,"pct_seguro_privado":0,"brecha_seguro":29,"pct_med_tradicional":0,"pct_automedicacion":3,"pct_remedios_caseros":53,"pct_viv_desocupada":0,"pct_alquiler":0,"pct_electricidad":0,"pct_agua_red":100,"pct_alcantarillado":0,"pct_gas_red":0,"pct_gas_garrafa":0,"pct_lena_guano":0,"pct_basura_formal":55,"pct_basura_quema":27,"pct_basura_informal":0,"pct_internet":0,"pct_celular":91,"pct_televisor":9}},{"type":"Feature","geometry":{"type":"Polygon","coordinates":[[[-66.41982,-22.10449],[-66.41931,-22.10449],[-66.41931,-22.10491],[-66.41981,-22.10491],[-66.41982,-22.10449]]]},"properties":{"n":"RIO MOJON","p":34,"personas_x_ha":137,"masculinidad":89,"pct_menor20":15,"pct_60mas":12,"pct_migrante":6,"dependencia_econ":312,"pct_empleados":0,"pct_cuentapropia":62,"pct_agricultura":125,"pct_comercio":12,"pct_manufactura":0,"pct_construccion":88,"pct_transporte":12,"pct_alojamiento":0,"pct_educ_superior":3,"brecha_educ":1,"pct_sin_seguro":9,"pct_seguro_privado":0,"brecha_seguro":20,"pct_med_tradicional":0,"pct_automedicacion":0,"pct_remedios_caseros":0,"pct_viv_desocupada":0,"pct_alquiler":0,"pct_electricidad":0,"pct_agua_red":91,"pct_alcantarillado":9,"pct_gas_red":0,"pct_gas_garrafa":0,"pct_lena_guano":0,"pct_basura_formal":0,"pct_basura_quema":9,"pct_basura_informal":0,"pct_internet":27,"pct_celular":36,"pct_televisor":9}},{"type":"Feature","geometry":{"type":"Polygon","coordinates":[[[-66.41925,-22.10622],[-66.4182,-22.10622],[-66.41818,-22.10644],[-66.4183,-22.1067],[-66.41927,-22.10668],[-66.41925,-22.10622]]]},"properties":{"n":"RIO MOJON","p":45,"personas_x_ha":80,"masculinidad":114,"pct_menor20":56,"pct_60mas":2,"pct_migrante":2,"dependencia_econ":350,"pct_empleados":10,"pct_cuentapropia":70,"pct_agricultura":30,"pct_comercio":10,"pct_manufactura":10,"pct_construccion":20,"pct_transporte":0,"pct_alojamiento":10,"pct_educ_superior":0,"brecha_educ":-6,"pct_sin_seguro":9,"pct_seguro_privado":0,"brecha_seguro":8,"pct_med_tradicional":9,"pct_automedicacion":1,"pct_remedios_caseros":33,"pct_viv_desocupada":0,"pct_alquiler":0,"pct_electricidad":0,"pct_agua_red":100,"pct_alcantarillado":44,"pct_gas_red":0,"pct_gas_garrafa":33,"pct_lena_guano":33,"pct_basura_formal":89,"pct_basura_quema":11,"pct_basura_informal":0,"pct_internet":0,"pct_celular":67,"pct_televisor":11}},{"type":"Feature","geometry":{"type":"Polygon","coordinates":[[[-66.41988,-22.10403],[-66.41988,-22.10441],[-66.42018,-22.1044],[-66.42019,-22.10404],[-66.41988,-22.10403]]]},"properties":{"n":"RIO MOJON","p":21,"personas_x_ha":156,"masculinidad":133,"pct_menor20":14,"pct_60mas":33,"pct_migrante":10,"dependencia_econ":138,"pct_empleados":38,"pct_cuentapropia":62,"pct_agricultura":38,"pct_comercio":0,"pct_manufactura":25,"pct_construccion":38,"pct_transporte":12,"pct_alojamiento":0,"pct_educ_superior":0,"brecha_educ":-33,"pct_sin_seguro":41,"pct_seguro_privado":0,"brecha_seguro":7,"pct_med_tradicional":0,"pct_automedicacion":0,"pct_remedios_caseros":49,"pct_viv_desocupada":0,"pct_alquiler":0,"pct_electricidad":0,"pct_agua_red":60,"pct_alcantarillado":0,"pct_gas_red":0,"pct_gas_garrafa":0,"pct_lena_guano":0,"pct_basura_formal":80,"pct_basura_quema":20,"pct_basura_informal":0,"pct_internet":0,"pct_celular":40,"pct_televisor":0}},{"type":"Feature","geometry":{"type":"Polygon","coordinates":[[[-66.41922,-22.10441],[-66.41922,-22.10401],[-66.41857,-22.10401],[-66.41857,-22.10442],[-66.41922,-22.10441]]]},"properties":{"n":"RIO MOJON","p":23,"personas_x_ha":76,"masculinidad":109,"pct_menor20":30,"pct_60mas":0,"pct_migrante":9,"dependencia_econ":35,"pct_empleados":12,"pct_cuentapropia":71,"pct_agricultura":65,"pct_comercio":18,"pct_manufactura":0,"pct_construccion":12,"pct_transporte":0,"pct_alojamiento":0,"pct_educ_superior":24,"brecha_educ":-25,"pct_sin_seguro":0,"pct_seguro_privado":0,"brecha_seguro":0,"pct_med_tradicional":23,"pct_automedicacion":21,"pct_remedios_caseros":27,"pct_viv_desocupada":0,"pct_alquiler":0,"pct_electricidad":0,"pct_agua_red":100,"pct_alcantarillado":0,"pct_gas_red":0,"pct_gas_garrafa":11,"pct_lena_guano":11,"pct_basura_formal":56,"pct_basura_quema":22,"pct_basura_informal":0,"pct_internet":0,"pct_celular":89,"pct_televisor":11}},{"type":"Feature","geometry":{"type":"Polygon","coordinates":[[[-66.4198,-22.10505],[-66.41932,-22.10504],[-66.41931,-22.10551],[-66.41981,-22.1055],[-66.4198,-22.10505]]]},"properties":{"n":"RIO MOJON","p":18,"personas_x_ha":68,"masculinidad":260,"pct_menor20":11,"pct_60mas":17,"pct_migrante":0,"dependencia_econ":50,"pct_empleados":0,"pct_cuentapropia":92,"pct_agricultura":67,"pct_comercio":0,"pct_manufactura":0,"pct_construccion":33,"pct_transporte":0,"pct_alojamiento":0,"pct_educ_superior":0,"brecha_educ":-4,"pct_sin_seguro":28,"pct_seguro_privado":0,"brecha_seguro":11,"pct_med_tradicional":0,"pct_automedicacion":0,"pct_remedios_caseros":0,"pct_viv_desocupada":0,"pct_alquiler":0,"pct_electricidad":0,"pct_agua_red":100,"pct_alcantarillado":0,"pct_gas_red":0,"pct_gas_garrafa":100,"pct_lena_guano":100,"pct_basura_formal":100,"pct_basura_quema":0,"pct_basura_informal":0,"pct_internet":0,"pct_celular":75,"pct_televisor":38}},{"type":"Feature","geometry":{"type":"Polygon","coordinates":[[[-66.41925,-22.10611],[-66.41925,-22.10563],[-66.41817,-22.10564],[-66.41817,-22.10611],[-66.41925,-22.10611]]]},"properties":{"n":"RIO MOJON","p":28,"personas_x_ha":48,"masculinidad":75,"pct_menor20":61,"pct_60mas":0,"pct_migrante":0,"dependencia_econ":367,"pct_empleados":17,"pct_cuentapropia":67,"pct_agricultura":33,"pct_comercio":0,"pct_manufactura":0,"pct_construccion":67,"pct_transporte":0,"pct_alojamiento":0,"pct_educ_superior":0,"brecha_educ":-3,"pct_sin_seguro":4,"pct_seguro_privado":0,"brecha_seguro":8,"pct_med_tradicional":4,"pct_automedicacion":0,"pct_remedios_caseros":35,"pct_viv_desocupada":0,"pct_alquiler":0,"pct_electricidad":0,"pct_agua_red":88,"pct_alcantarillado":0,"pct_gas_red":0,"pct_gas_garrafa":38,"pct_lena_guano":38,"pct_basura_formal":75,"pct_basura_quema":25,"pct_basura_informal":0,"pct_internet":0,"pct_celular":100,"pct_televisor":12}},{"type":"Feature","geometry":{"type":"Polygon","coordinates":[[[-66.33177,-21.99898],[-66.3313,-21.99895],[-66.33127,-21.9994],[-66.33176,-21.99944],[-66.33177,-21.99898]]]},"properties":{"n":"RIO SECO","p":35,"personas_x_ha":138,"masculinidad":94,"pct_menor20":46,"pct_60mas":3,"pct_migrante":0,"dependencia_econ":119,"pct_empleados":0,"pct_cuentapropia":38,"pct_agricultura":94,"pct_comercio":0,"pct_manufactura":0,"pct_construccion":0,"pct_transporte":0,"pct_alojamiento":0,"pct_educ_superior":19,"brecha_educ":-5,"pct_sin_seguro":0,"pct_seguro_privado":0,"brecha_seguro":0,"pct_med_tradicional":4,"pct_automedicacion":0,"pct_remedios_caseros":47,"pct_viv_desocupada":0,"pct_alquiler":0,"pct_electricidad":0,"pct_agua_red":12,"pct_alcantarillado":25,"pct_gas_red":0,"pct_gas_garrafa":25,"pct_lena_guano":25,"pct_basura_formal":0,"pct_basura_quema":25,"pct_basura_informal":0,"pct_internet":0,"pct_celular":25,"pct_televisor":0}},{"type":"Feature","geometry":{"type":"Polygon","coordinates":[[[-66.33242,-21.99754],[-66.33197,-21.9974],[-66.33194,-21.99785],[-66.33237,-21.99783],[-66.33242,-21.99754]]]},"properties":{"n":"RIO SECO","p":20,"personas_x_ha":93,"masculinidad":122,"pct_menor20":35,"pct_60mas":15,"pct_migrante":0,"dependencia_econ":100,"pct_empleados":20,"pct_cuentapropia":20,"pct_agricultura":90,"pct_comercio":0,"pct_manufactura":0,"pct_construccion":10,"pct_transporte":0,"pct_alojamiento":0,"pct_educ_superior":7,"brecha_educ":-17,"pct_sin_seguro":0,"pct_seguro_privado":0,"brecha_seguro":0,"pct_med_tradicional":21,"pct_automedicacion":11,"pct_remedios_caseros":24,"pct_viv_desocupada":0,"pct_alquiler":0,"pct_electricidad":0,"pct_agua_red":100,"pct_alcantarillado":0,"pct_gas_red":0,"pct_gas_garrafa":0,"pct_lena_guano":0,"pct_basura_formal":67,"pct_basura_quema":33,"pct_basura_informal":0,"pct_internet":0,"pct_celular":100,"pct_televisor":11}},{"type":"Feature","geometry":{"type":"Polygon","coordinates":[[[-66.51912,-21.95061],[-66.51864,-21.95003],[-66.51851,-21.95016],[-66.51904,-21.95069],[-66.51912,-21.95061]]]},"properties":{"n":"SAN ANTONIO DE ESMORUCO","p":28,"personas_x_ha":223,"masculinidad":100,"pct_menor20":57,"pct_60mas":4,"pct_migrante":32,"dependencia_econ":155,"pct_empleados":9,"pct_cuentapropia":73,"pct_agricultura":36,"pct_comercio":18,"pct_manufactura":9,"pct_construccion":0,"pct_transporte":18,"pct_alojamiento":0,"pct_educ_superior":31,"brecha_educ":-14,"pct_sin_seguro":4,"pct_seguro_privado":0,"brecha_seguro":7,"pct_med_tradicional":21,"pct_automedicacion":16,"pct_remedios_caseros":33,"pct_viv_desocupada":0,"pct_alquiler":14,"pct_electricidad":86,"pct_agua_red":100,"pct_alcantarillado":0,"pct_gas_red":0,"pct_gas_garrafa":100,"pct_lena_guano":100,"pct_basura_formal":0,"pct_basura_quema":100,"pct_basura_informal":0,"pct_internet":100,"pct_celular":100,"pct_televisor":71}},{"type":"Feature","geometry":{"type":"Polygon","coordinates":[[[-66.51899,-21.95071],[-66.51844,-21.95019],[-66.51829,-21.95032],[-66.51884,-21.95089],[-66.51899,-21.95071]]]},"properties":{"n":"SAN ANTONIO DE ESMORUCO","p":34,"personas_x_ha":173,"masculinidad":89,"pct_menor20":53,"pct_60mas":3,"pct_migrante":12,"dependencia_econ":127,"pct_empleados":20,"pct_cuentapropia":33,"pct_agricultura":20,"pct_comercio":40,"pct_manufactura":7,"pct_construccion":0,"pct_transporte":13,"pct_alojamiento":0,"pct_educ_superior":0,"brecha_educ":-30,"pct_sin_seguro":6,"pct_seguro_privado":0,"brecha_seguro":1,"pct_med_tradicional":18,"pct_automedicacion":15,"pct_remedios_caseros":24,"pct_viv_desocupada":0,"pct_alquiler":8,"pct_electricidad":100,"pct_agua_red":100,"pct_alcantarillado":0,"pct_gas_red":0,"pct_gas_garrafa":92,"pct_lena_guano":92,"pct_basura_formal":0,"pct_basura_quema":100,"pct_basura_informal":0,"pct_internet":83,"pct_celular":83,"pct_televisor":75}},{"type":"Feature","geometry":{"type":"Polygon","coordinates":[[[-66.51817,-21.94956],[-66.51768,-21.94899],[-66.5175,-21.94919],[-66.51801,-21.94971],[-66.51817,-21.94956]]]},"properties":{"n":"SAN ANTONIO DE ESMORUCO","p":31,"personas_x_ha":147,"masculinidad":121,"pct_menor20":19,"pct_60mas":16,"pct_migrante":13,"dependencia_econ":58,"pct_empleados":26,"pct_cuentapropia":68,"pct_agricultura":26,"pct_comercio":26,"pct_manufactura":11,"pct_construccion":21,"pct_transporte":11,"pct_alojamiento":0,"pct_educ_superior":8,"brecha_educ":-64,"pct_sin_seguro":10,"pct_seguro_privado":0,"brecha_seguro":5,"pct_med_tradicional":13,"pct_automedicacion":15,"pct_remedios_caseros":33,"pct_viv_desocupada":0,"pct_alquiler":0,"pct_electricidad":100,"pct_agua_red":100,"pct_alcantarillado":0,"pct_gas_red":0,"pct_gas_garrafa":100,"pct_lena_guano":100,"pct_basura_formal":13,"pct_basura_quema":87,"pct_basura_informal":0,"pct_internet":93,"pct_celular":93,"pct_televisor":53}},{"type":"Feature","geometry":{"type":"Polygon","coordinates":[[[-66.51586,-21.9468],[-66.51645,-21.94661],[-66.51624,-21.94597],[-66.51609,-21.94601],[-66.51585,-21.94634],[-66.51586,-21.9468]]]},"properties":{"n":"SAN ANTONIO DE ESMORUCO","p":27,"personas_x_ha":72,"masculinidad":80,"pct_menor20":37,"pct_60mas":7,"pct_migrante":22,"dependencia_econ":108,"pct_empleados":69,"pct_cuentapropia":23,"pct_agricultura":31,"pct_comercio":23,"pct_manufactura":0,"pct_construccion":15,"pct_transporte":15,"pct_alojamiento":0,"pct_educ_superior":18,"brecha_educ":-16,"pct_sin_seguro":7,"pct_seguro_privado":0,"brecha_seguro":2,"pct_med_tradicional":15,"pct_automedicacion":13,"pct_remedios_caseros":30,"pct_viv_desocupada":0,"pct_alquiler":0,"pct_electricidad":100,"pct_agua_red":100,"pct_alcantarillado":0,"pct_gas_red":0,"pct_gas_garrafa":100,"pct_lena_guano":100,"pct_basura_formal":17,"pct_basura_quema":83,"pct_basura_informal":0,"pct_internet":83,"pct_celular":100,"pct_televisor":33}},{"type":"Feature","geometry":{"type":"Polygon","coordinates":[[[-66.51864,-21.95108],[-66.5188,-21.95092],[-66.51825,-21.95036],[-66.51809,-21.95051],[-66.51819,-21.95063],[-66.5182,-21.95084],[-66.51838,-21.951],[-66.51864,-21.95108]]]},"properties":{"n":"SAN ANTONIO DE ESMORUCO","p":35,"personas_x_ha":130,"masculinidad":106,"pct_menor20":57,"pct_60mas":3,"pct_migrante":17,"dependencia_econ":150,"pct_empleados":36,"pct_cuentapropia":50,"pct_agricultura":36,"pct_comercio":7,"pct_manufactura":0,"pct_construccion":21,"pct_transporte":7,"pct_alojamiento":7,"pct_educ_superior":7,"brecha_educ":-48,"pct_sin_seguro":6,"pct_seguro_privado":0,"brecha_seguro":0,"pct_med_tradicional":12,"pct_automedicacion":4,"pct_remedios_caseros":36,"pct_viv_desocupada":0,"pct_alquiler":0,"pct_electricidad":100,"pct_agua_red":100,"pct_alcantarillado":11,"pct_gas_red":0,"pct_gas_garrafa":89,"pct_lena_guano":89,"pct_basura_formal":0,"pct_basura_quema":100,"pct_basura_informal":0,"pct_internet":67,"pct_celular":89,"pct_televisor":56}},{"type":"Feature","geometry":{"type":"Polygon","coordinates":[[[-66.51801,-21.94977],[-66.51783,-21.94992],[-66.51825,-21.95031],[-66.51841,-21.95015],[-66.51801,-21.94977]]]},"properties":{"n":"SAN ANTONIO DE ESMORUCO","p":19,"personas_x_ha":132,"masculinidad":111,"pct_menor20":47,"pct_60mas":5,"pct_migrante":5,"dependencia_econ":138,"pct_empleados":25,"pct_cuentapropia":50,"pct_agricultura":50,"pct_comercio":0,"pct_manufactura":0,"pct_construccion":25,"pct_transporte":0,"pct_alojamiento":0,"pct_educ_superior":10,"brecha_educ":-42,"pct_sin_seguro":32,"pct_seguro_privado":0,"brecha_seguro":-3,"pct_med_tradicional":30,"pct_automedicacion":0,"pct_remedios_caseros":38,"pct_viv_desocupada":9,"pct_alquiler":0,"pct_electricidad":100,"pct_agua_red":86,"pct_alcantarillado":0,"pct_gas_red":0,"pct_gas_garrafa":86,"pct_lena_guano":86,"pct_basura_formal":0,"pct_basura_quema":14,"pct_basura_informal":171,"pct_internet":43,"pct_celular":86,"pct_televisor":29}},{"type":"Feature","geometry":{"type":"Polygon","coordinates":[[[-66.51764,-21.95008],[-66.51803,-21.95049],[-66.5182,-21.95034],[-66.51779,-21.94995],[-66.51764,-21.95008]]]},"properties":{"n":"SAN ANTONIO DE ESMORUCO","p":31,"personas_x_ha":210,"masculinidad":210,"pct_menor20":61,"pct_60mas":3,"pct_migrante":10,"dependencia_econ":158,"pct_empleados":25,"pct_cuentapropia":33,"pct_agricultura":50,"pct_comercio":8,"pct_manufactura":17,"pct_construccion":17,"pct_transporte":0,"pct_alojamiento":0,"pct_educ_superior":8,"brecha_educ":-33,"pct_sin_seguro":10,"pct_seguro_privado":0,"brecha_seguro":-15,"pct_med_tradicional":24,"pct_automedicacion":8,"pct_remedios_caseros":24,"pct_viv_desocupada":0,"pct_alquiler":0,"pct_electricidad":100,"pct_agua_red":100,"pct_alcantarillado":0,"pct_gas_red":0,"pct_gas_garrafa":100,"pct_lena_guano":100,"pct_basura_formal":43,"pct_basura_quema":57,"pct_basura_informal":0,"pct_internet":71,"pct_celular":86,"pct_televisor":43}},{"type":"Feature","geometry":{"type":"Polygon","coordinates":[[[-66.51672,-21.94713],[-66.51705,-21.94701],[-66.51694,-21.94674],[-66.51663,-21.94683],[-66.51672,-21.94713]]]},"properties":{"n":"SAN ANTONIO DE ESMORUCO","p":24,"personas_x_ha":206,"masculinidad":118,"pct_menor20":38,"pct_60mas":12,"pct_migrante":42,"dependencia_econ":140,"pct_empleados":30,"pct_cuentapropia":40,"pct_agricultura":50,"pct_comercio":10,"pct_manufactura":0,"pct_construccion":0,"pct_transporte":0,"pct_alojamiento":10,"pct_educ_superior":40,"brecha_educ":-33,"pct_sin_seguro":8,"pct_seguro_privado":0,"brecha_seguro":-1,"pct_med_tradicional":13,"pct_automedicacion":16,"pct_remedios_caseros":28,"pct_viv_desocupada":0,"pct_alquiler":0,"pct_electricidad":100,"pct_agua_red":100,"pct_alcantarillado":11,"pct_gas_red":0,"pct_gas_garrafa":89,"pct_lena_guano":89,"pct_basura_formal":11,"pct_basura_quema":78,"pct_basura_informal":22,"pct_internet":67,"pct_celular":100,"pct_televisor":44}},{"type":"Feature","geometry":{"type":"Polygon","coordinates":[[[-66.51691,-21.94826],[-66.51668,-21.9482],[-66.51653,-21.9484],[-66.51725,-21.94902],[-66.51746,-21.94879],[-66.51691,-21.94826]]]},"properties":{"n":"SAN ANTONIO DE ESMORUCO","p":19,"personas_x_ha":54,"masculinidad":90,"pct_menor20":42,"pct_60mas":0,"pct_migrante":100,"dependencia_econ":90,"pct_empleados":90,"pct_cuentapropia":10,"pct_agricultura":0,"pct_comercio":0,"pct_manufactura":0,"pct_construccion":0,"pct_transporte":10,"pct_alojamiento":0,"pct_educ_superior":82,"brecha_educ":25,"pct_sin_seguro":0,"pct_seguro_privado":0,"brecha_seguro":0,"pct_med_tradicional":9,"pct_automedicacion":21,"pct_remedios_caseros":17,"pct_viv_desocupada":0,"pct_alquiler":0,"pct_electricidad":100,"pct_agua_red":100,"pct_alcantarillado":0,"pct_gas_red":0,"pct_gas_garrafa":100,"pct_lena_guano":100,"pct_basura_formal":0,"pct_basura_quema":100,"pct_basura_informal":0,"pct_internet":100,"pct_celular":100,"pct_televisor":62}},{"type":"Feature","geometry":{"type":"Polygon","coordinates":[[[-66.51916,-21.95028],[-66.51884,-21.94987],[-66.51867,-21.95003],[-66.51913,-21.95056],[-66.51922,-21.95048],[-66.51916,-21.95028]]]},"properties":{"n":"SAN ANTONIO DE ESMORUCO","p":27,"personas_x_ha":159,"masculinidad":145,"pct_menor20":56,"pct_60mas":7,"pct_migrante":19,"dependencia_econ":170,"pct_empleados":20,"pct_cuentapropia":30,"pct_agricultura":50,"pct_comercio":0,"pct_manufactura":0,"pct_construccion":10,"pct_transporte":0,"pct_alojamiento":0,"pct_educ_superior":0,"brecha_educ":-9,"pct_sin_seguro":0,"pct_seguro_privado":0,"brecha_seguro":0,"pct_med_tradicional":0,"pct_automedicacion":0,"pct_remedios_caseros":37,"pct_viv_desocupada":0,"pct_alquiler":9,"pct_electricidad":100,"pct_agua_red":100,"pct_alcantarillado":0,"pct_gas_red":0,"pct_gas_garrafa":100,"pct_lena_guano":100,"pct_basura_formal":91,"pct_basura_quema":9,"pct_basura_informal":0,"pct_internet":0,"pct_celular":91,"pct_televisor":64}},{"type":"Feature","geometry":{"type":"Polygon","coordinates":[[[-66.51884,-21.94977],[-66.5185,-21.94936],[-66.51824,-21.94956],[-66.51861,-21.94996],[-66.51884,-21.94977]]]},"properties":{"n":"SAN ANTONIO DE ESMORUCO","p":20,"personas_x_ha":104,"masculinidad":67,"pct_menor20":40,"pct_60mas":5,"pct_migrante":40,"dependencia_econ":100,"pct_empleados":50,"pct_cuentapropia":40,"pct_agricultura":30,"pct_comercio":10,"pct_manufactura":20,"pct_construccion":0,"pct_transporte":0,"pct_alojamiento":0,"pct_educ_superior":25,"brecha_educ":0,"pct_sin_seguro":5,"pct_seguro_privado":0,"brecha_seguro":12,"pct_med_tradicional":8,"pct_automedicacion":15,"pct_remedios_caseros":28,"pct_viv_desocupada":0,"pct_alquiler":62,"pct_electricidad":100,"pct_agua_red":100,"pct_alcantarillado":0,"pct_gas_red":0,"pct_gas_garrafa":100,"pct_lena_guano":100,"pct_basura_formal":25,"pct_basura_quema":75,"pct_basura_informal":0,"pct_internet":88,"pct_celular":88,"pct_televisor":50}}]}