{"type":"FeatureCollection","features":[{"type":"Feature","geometry":{"type":"Polygon","coordinates":[[[-65.91971,-20.08488],[-65.91984,-20.08479],[-65.9197,-20.08456],[-65.91956,-20.08464],[-65.91971,-20.08488]]]},"properties":{"n":"CARACOTA","p":16,"personas_x_ha":313,"masculinidad":60,"pct_menor20":38,"pct_60mas":0,"pct_migrante":100,"dependencia_econ":60,"pct_empleados":100,"pct_cuentapropia":0,"pct_agricultura":0,"pct_comercio":0,"pct_manufactura":0,"pct_construccion":10,"pct_transporte":0,"pct_alojamiento":0,"pct_sin_educacion":0,"pct_educ_superior":80,"brecha_educ":0,"pct_sin_seguro":0,"pct_sus":6,"pct_seguro_privado":12,"brecha_seguro":0,"pct_salud_publica":4,"pct_med_tradicional":16,"pct_automedicacion":4,"pct_remedios_caseros":16,"pct_viv_desocupada":0,"pct_alquiler":0,"pct_electricidad":100,"pct_sin_electricidad":0,"pct_agua_red":100,"pct_alcantarillado":38,"pct_camara_septica":0,"pct_pozo_ciego":25,"pct_sin_desague":0,"pct_gas_red":0,"pct_gas_garrafa":50,"pct_lena_guano":0,"pct_basura_formal":100,"pct_basura_quema":0,"pct_basura_informal":0,"pct_internet":88,"pct_celular":100,"pct_televisor":50}},{"type":"Feature","geometry":{"type":"Polygon","coordinates":[[[-66.13441,-20.04595],[-66.13408,-20.046],[-66.13396,-20.04623],[-66.13383,-20.0463],[-66.13397,-20.0466],[-66.1339,-20.04662],[-66.13403,-20.04715],[-66.13427,-20.04702],[-66.134,-20.04665],[-66.13401,-20.04664],[-66.13409,-20.04676],[-66.13421,-20.04669],[-66.1341,-20.04677],[-66.13428,-20.04701],[-66.13446,-20.04689],[-66.13439,-20.04678],[-66.13509,-20.04636],[-66.13506,-20.04629],[-66.13521,-20.0462],[-66.13515,-20.04609],[-66.13502,-20.04613],[-66.13467,-20.0457],[-66.1344,-20.04581],[-66.13441,-20.04595]]]},"properties":{"n":"PUNUTUMA","p":50,"personas_x_ha":44,"masculinidad":100,"pct_menor20":34,"pct_60mas":24,"pct_migrante":48,"dependencia_econ":69,"pct_empleados":24,"pct_cuentapropia":55,"pct_agricultura":55,"pct_comercio":3,"pct_manufactura":3,"pct_construccion":3,"pct_transporte":0,"pct_alojamiento":0,"pct_sin_educacion":3,"pct_educ_superior":44,"brecha_educ":-1,"pct_sin_seguro":27,"pct_sus":52,"pct_seguro_privado":0,"brecha_seguro":4,"pct_salud_publica":22,"pct_med_tradicional":7,"pct_automedicacion":15,"pct_remedios_caseros":29,"pct_viv_desocupada":0,"pct_alquiler":0,"pct_electricidad":95,"pct_sin_electricidad":0,"pct_agua_red":63,"pct_alcantarillado":16,"pct_camara_septica":16,"pct_pozo_ciego":32,"pct_sin_desague":32,"pct_gas_red":0,"pct_gas_garrafa":100,"pct_lena_guano":0,"pct_basura_formal":0,"pct_basura_quema":100,"pct_basura_informal":0,"pct_internet":68,"pct_celular":89,"pct_televisor":79}},{"type":"Feature","geometry":{"type":"Polygon","coordinates":[[[-66.13459,-20.04756],[-66.13512,-20.04726],[-66.13498,-20.04704],[-66.13447,-20.04734],[-66.13459,-20.04756]]]},"properties":{"n":"PUNUTUMA","p":23,"personas_x_ha":129,"masculinidad":130,"pct_menor20":17,"pct_60mas":30,"pct_migrante":48,"dependencia_econ":77,"pct_empleados":62,"pct_cuentapropia":15,"pct_agricultura":15,"pct_comercio":23,"pct_manufactura":15,"pct_construccion":8,"pct_transporte":8,"pct_alojamiento":0,"pct_sin_educacion":11,"pct_educ_superior":47,"brecha_educ":-14,"pct_sin_seguro":0,"pct_sus":64,"pct_seguro_privado":23,"brecha_seguro":0,"pct_salud_publica":20,"pct_med_tradicional":2,"pct_automedicacion":14,"pct_remedios_caseros":24,"pct_viv_desocupada":0,"pct_alquiler":0,"pct_electricidad":100,"pct_sin_electricidad":0,"pct_agua_red":82,"pct_alcantarillado":27,"pct_camara_septica":36,"pct_pozo_ciego":0,"pct_sin_desague":36,"pct_gas_red":0,"pct_gas_garrafa":100,"pct_lena_guano":0,"pct_basura_formal":0,"pct_basura_quema":82,"pct_basura_informal":18,"pct_internet":55,"pct_celular":91,"pct_televisor":82}},{"type":"Feature","geometry":{"type":"Polygon","coordinates":[[[-66.13922,-20.04234],[-66.13886,-20.0427],[-66.13913,-20.04297],[-66.13959,-20.04265],[-66.13922,-20.04234]]]},"properties":{"n":"PUNUTUMA","p":19,"personas_x_ha":72,"masculinidad":111,"pct_menor20":16,"pct_60mas":21,"pct_migrante":32,"dependencia_econ":80,"pct_empleados":30,"pct_cuentapropia":40,"pct_agricultura":20,"pct_comercio":0,"pct_manufactura":0,"pct_construccion":0,"pct_transporte":0,"pct_alojamiento":0,"pct_sin_educacion":0,"pct_educ_superior":47,"brecha_educ":12,"pct_sin_seguro":0,"pct_sus":89,"pct_seguro_privado":0,"brecha_seguro":0,"pct_salud_publica":31,"pct_med_tradicional":4,"pct_automedicacion":25,"pct_remedios_caseros":29,"pct_viv_desocupada":0,"pct_alquiler":0,"pct_electricidad":100,"pct_sin_electricidad":0,"pct_agua_red":88,"pct_alcantarillado":0,"pct_camara_septica":75,"pct_pozo_ciego":12,"pct_sin_desague":12,"pct_gas_red":0,"pct_gas_garrafa":100,"pct_lena_guano":0,"pct_basura_formal":0,"pct_basura_quema":75,"pct_basura_informal":25,"pct_internet":88,"pct_celular":100,"pct_televisor":88}},{"type":"Feature","geometry":{"type":"Polygon","coordinates":[[[-66.13379,-20.04626],[-66.13404,-20.04609],[-66.13404,-20.04595],[-66.13417,-20.04592],[-66.13416,-20.04578],[-66.13378,-20.0458],[-66.13378,-20.04598],[-66.1337,-20.04599],[-66.13379,-20.04626]]]},"properties":{"n":"PUNUTUMA","p":23,"personas_x_ha":149,"masculinidad":109,"pct_menor20":22,"pct_60mas":17,"pct_migrante":35,"dependencia_econ":44,"pct_empleados":50,"pct_cuentapropia":12,"pct_agricultura":38,"pct_comercio":6,"pct_manufactura":0,"pct_construccion":12,"pct_transporte":12,"pct_alojamiento":0,"pct_sin_educacion":11,"pct_educ_superior":11,"brecha_educ":-5,"pct_sin_seguro":0,"pct_sus":73,"pct_seguro_privado":23,"brecha_seguro":0,"pct_salud_publica":24,"pct_med_tradicional":7,"pct_automedicacion":13,"pct_remedios_caseros":30,"pct_viv_desocupada":0,"pct_alquiler":11,"pct_electricidad":100,"pct_sin_electricidad":0,"pct_agua_red":78,"pct_alcantarillado":11,"pct_camara_septica":0,"pct_pozo_ciego":33,"pct_sin_desague":56,"pct_gas_red":0,"pct_gas_garrafa":89,"pct_lena_guano":11,"pct_basura_formal":11,"pct_basura_quema":56,"pct_basura_informal":11,"pct_internet":89,"pct_celular":100,"pct_televisor":78}},{"type":"Feature","geometry":{"type":"Polygon","coordinates":[[[-66.1254,-20.07433],[-66.12502,-20.07422],[-66.12485,-20.07494],[-66.12522,-20.07501],[-66.1254,-20.07433]]]},"properties":{"n":"YURA","p":29,"personas_x_ha":88,"masculinidad":81,"pct_menor20":45,"pct_60mas":10,"pct_migrante":41,"dependencia_econ":211,"pct_empleados":11,"pct_cuentapropia":78,"pct_agricultura":33,"pct_comercio":33,"pct_manufactura":0,"pct_construccion":11,"pct_transporte":0,"pct_alojamiento":11,"pct_sin_educacion":7,"pct_educ_superior":27,"brecha_educ":5,"pct_sin_seguro":0,"pct_sus":93,"pct_seguro_privado":0,"brecha_seguro":0,"pct_salud_publica":27,"pct_med_tradicional":9,"pct_automedicacion":15,"pct_remedios_caseros":30,"pct_viv_desocupada":22,"pct_alquiler":11,"pct_electricidad":100,"pct_sin_electricidad":0,"pct_agua_red":100,"pct_alcantarillado":89,"pct_camara_septica":0,"pct_pozo_ciego":0,"pct_sin_desague":11,"pct_gas_red":0,"pct_gas_garrafa":100,"pct_lena_guano":0,"pct_basura_formal":89,"pct_basura_quema":11,"pct_basura_informal":0,"pct_internet":89,"pct_celular":100,"pct_televisor":67}},{"type":"Feature","geometry":{"type":"Polygon","coordinates":[[[-66.12701,-20.07429],[-66.12742,-20.07403],[-66.12754,-20.07356],[-66.12715,-20.07351],[-66.12701,-20.07429]]]},"properties":{"n":"YURA","p":37,"personas_x_ha":122,"masculinidad":95,"pct_menor20":43,"pct_60mas":8,"pct_migrante":24,"dependencia_econ":236,"pct_empleados":55,"pct_cuentapropia":36,"pct_agricultura":27,"pct_comercio":0,"pct_manufactura":9,"pct_construccion":18,"pct_transporte":9,"pct_alojamiento":18,"pct_sin_educacion":14,"pct_educ_superior":19,"brecha_educ":3,"pct_sin_seguro":5,"pct_sus":89,"pct_seguro_privado":0,"brecha_seguro":-11,"pct_salud_publica":23,"pct_med_tradicional":15,"pct_automedicacion":16,"pct_remedios_caseros":24,"pct_viv_desocupada":6,"pct_alquiler":7,"pct_electricidad":86,"pct_sin_electricidad":14,"pct_agua_red":93,"pct_alcantarillado":79,"pct_camara_septica":0,"pct_pozo_ciego":0,"pct_sin_desague":21,"pct_gas_red":7,"pct_gas_garrafa":93,"pct_lena_guano":0,"pct_basura_formal":86,"pct_basura_quema":14,"pct_basura_informal":0,"pct_internet":64,"pct_celular":86,"pct_televisor":79}},{"type":"Feature","geometry":{"type":"Polygon","coordinates":[[[-66.12498,-20.0742],[-66.12449,-20.07411],[-66.12432,-20.07466],[-66.12442,-20.07479],[-66.12479,-20.07491],[-66.12498,-20.0742]]]},"properties":{"n":"YURA","p":21,"personas_x_ha":51,"masculinidad":75,"pct_menor20":19,"pct_60mas":24,"pct_migrante":48,"dependencia_econ":40,"pct_empleados":13,"pct_cuentapropia":47,"pct_agricultura":20,"pct_comercio":13,"pct_manufactura":7,"pct_construccion":7,"pct_transporte":0,"pct_alojamiento":13,"pct_sin_educacion":6,"pct_educ_superior":39,"brecha_educ":-17,"pct_sin_seguro":10,"pct_sus":71,"pct_seguro_privado":0,"brecha_seguro":3,"pct_salud_publica":30,"pct_med_tradicional":11,"pct_automedicacion":16,"pct_remedios_caseros":20,"pct_viv_desocupada":20,"pct_alquiler":33,"pct_electricidad":92,"pct_sin_electricidad":8,"pct_agua_red":92,"pct_alcantarillado":92,"pct_camara_septica":0,"pct_pozo_ciego":0,"pct_sin_desague":8,"pct_gas_red":0,"pct_gas_garrafa":100,"pct_lena_guano":0,"pct_basura_formal":83,"pct_basura_quema":17,"pct_basura_informal":0,"pct_internet":67,"pct_celular":92,"pct_televisor":50}},{"type":"Feature","geometry":{"type":"Polygon","coordinates":[[[-66.12708,-20.0735],[-66.12669,-20.07343],[-66.12649,-20.07447],[-66.12668,-20.0745],[-66.1269,-20.07432],[-66.12708,-20.0735]]]},"properties":{"n":"YURA","p":55,"personas_x_ha":121,"masculinidad":104,"pct_menor20":45,"pct_60mas":9,"pct_migrante":35,"dependencia_econ":175,"pct_empleados":40,"pct_cuentapropia":45,"pct_agricultura":35,"pct_comercio":5,"pct_manufactura":5,"pct_construccion":15,"pct_transporte":5,"pct_alojamiento":10,"pct_sin_educacion":17,"pct_educ_superior":13,"brecha_educ":-14,"pct_sin_seguro":4,"pct_sus":84,"pct_seguro_privado":4,"brecha_seguro":0,"pct_salud_publica":41,"pct_med_tradicional":11,"pct_automedicacion":8,"pct_remedios_caseros":29,"pct_viv_desocupada":5,"pct_alquiler":0,"pct_electricidad":100,"pct_sin_electricidad":0,"pct_agua_red":87,"pct_alcantarillado":100,"pct_camara_septica":0,"pct_pozo_ciego":0,"pct_sin_desague":0,"pct_gas_red":0,"pct_gas_garrafa":100,"pct_lena_guano":0,"pct_basura_formal":93,"pct_basura_quema":7,"pct_basura_informal":0,"pct_internet":73,"pct_celular":87,"pct_televisor":80}},{"type":"Feature","geometry":{"type":"Polygon","coordinates":[[[-66.12619,-20.07549],[-66.12591,-20.07625],[-66.12638,-20.0764],[-66.12671,-20.07567],[-66.12619,-20.07549]]]},"properties":{"n":"YURA","p":19,"personas_x_ha":38,"masculinidad":171,"pct_menor20":58,"pct_60mas":11,"pct_migrante":21,"dependencia_econ":280,"pct_empleados":20,"pct_cuentapropia":60,"pct_agricultura":60,"pct_comercio":0,"pct_manufactura":0,"pct_construccion":20,"pct_transporte":0,"pct_alojamiento":0,"pct_sin_educacion":12,"pct_educ_superior":12,"brecha_educ":25,"pct_sin_seguro":5,"pct_sus":68,"pct_seguro_privado":0,"brecha_seguro":8,"pct_salud_publica":22,"pct_med_tradicional":7,"pct_automedicacion":17,"pct_remedios_caseros":28,"pct_viv_desocupada":36,"pct_alquiler":0,"pct_electricidad":80,"pct_sin_electricidad":20,"pct_agua_red":60,"pct_alcantarillado":40,"pct_camara_septica":0,"pct_pozo_ciego":0,"pct_sin_desague":60,"pct_gas_red":0,"pct_gas_garrafa":80,"pct_lena_guano":0,"pct_basura_formal":60,"pct_basura_quema":20,"pct_basura_informal":0,"pct_internet":40,"pct_celular":80,"pct_televisor":60}},{"type":"Feature","geometry":{"type":"Polygon","coordinates":[[[-66.12425,-20.07282],[-66.1238,-20.07265],[-66.12358,-20.0731],[-66.12409,-20.07329],[-66.12425,-20.07282]]]},"properties":{"n":"YURA","p":38,"personas_x_ha":124,"masculinidad":41,"pct_menor20":53,"pct_60mas":11,"pct_migrante":32,"dependencia_econ":218,"pct_empleados":27,"pct_cuentapropia":64,"pct_agricultura":64,"pct_comercio":9,"pct_manufactura":0,"pct_construccion":0,"pct_transporte":0,"pct_alojamiento":0,"pct_sin_educacion":11,"pct_educ_superior":26,"brecha_educ":-35,"pct_sin_seguro":6,"pct_sus":60,"pct_seguro_privado":0,"brecha_seguro":-8,"pct_salud_publica":24,"pct_med_tradicional":9,"pct_automedicacion":20,"pct_remedios_caseros":27,"pct_viv_desocupada":8,"pct_alquiler":6,"pct_electricidad":94,"pct_sin_electricidad":6,"pct_agua_red":83,"pct_alcantarillado":83,"pct_camara_septica":6,"pct_pozo_ciego":0,"pct_sin_desague":11,"pct_gas_red":0,"pct_gas_garrafa":94,"pct_lena_guano":6,"pct_basura_formal":100,"pct_basura_quema":0,"pct_basura_informal":0,"pct_internet":89,"pct_celular":94,"pct_televisor":67}},{"type":"Feature","geometry":{"type":"Polygon","coordinates":[[[-66.1258,-20.07378],[-66.12578,-20.07394],[-66.12558,-20.07391],[-66.12549,-20.07424],[-66.12596,-20.07434],[-66.12608,-20.0738],[-66.1258,-20.07378]]]},"properties":{"n":"YURA","p":18,"personas_x_ha":71,"masculinidad":38,"pct_menor20":17,"pct_60mas":0,"pct_migrante":6,"dependencia_econ":88,"pct_empleados":12,"pct_cuentapropia":50,"pct_agricultura":38,"pct_comercio":12,"pct_manufactura":12,"pct_construccion":12,"pct_transporte":0,"pct_alojamiento":0,"pct_sin_educacion":0,"pct_educ_superior":33,"brecha_educ":-22,"pct_sin_seguro":13,"pct_sus":80,"pct_seguro_privado":0,"brecha_seguro":16,"pct_salud_publica":28,"pct_med_tradicional":17,"pct_automedicacion":10,"pct_remedios_caseros":28,"pct_viv_desocupada":17,"pct_alquiler":0,"pct_electricidad":86,"pct_sin_electricidad":0,"pct_agua_red":71,"pct_alcantarillado":57,"pct_camara_septica":0,"pct_pozo_ciego":14,"pct_sin_desague":29,"pct_gas_red":14,"pct_gas_garrafa":86,"pct_lena_guano":0,"pct_basura_formal":86,"pct_basura_quema":0,"pct_basura_informal":0,"pct_internet":100,"pct_celular":100,"pct_televisor":71}},{"type":"Feature","geometry":{"type":"Polygon","coordinates":[[[-66.12584,-20.07444],[-66.12545,-20.07436],[-66.12528,-20.07503],[-66.12566,-20.07511],[-66.12584,-20.07444]]]},"properties":{"n":"YURA","p":23,"personas_x_ha":72,"masculinidad":92,"pct_menor20":35,"pct_60mas":4,"pct_migrante":4,"dependencia_econ":62,"pct_empleados":8,"pct_cuentapropia":92,"pct_agricultura":46,"pct_comercio":0,"pct_manufactura":0,"pct_construccion":15,"pct_transporte":8,"pct_alojamiento":15,"pct_sin_educacion":12,"pct_educ_superior":0,"brecha_educ":-23,"pct_sin_seguro":10,"pct_sus":90,"pct_seguro_privado":0,"brecha_seguro":20,"pct_salud_publica":33,"pct_med_tradicional":5,"pct_automedicacion":25,"pct_remedios_caseros":32,"pct_viv_desocupada":0,"pct_alquiler":18,"pct_electricidad":100,"pct_sin_electricidad":0,"pct_agua_red":100,"pct_alcantarillado":73,"pct_camara_septica":0,"pct_pozo_ciego":0,"pct_sin_desague":27,"pct_gas_red":0,"pct_gas_garrafa":100,"pct_lena_guano":0,"pct_basura_formal":91,"pct_basura_quema":9,"pct_basura_informal":0,"pct_internet":45,"pct_celular":82,"pct_televisor":64}},{"type":"Feature","geometry":{"type":"Polygon","coordinates":[[[-66.12599,-20.07143],[-66.12578,-20.07137],[-66.12583,-20.07115],[-66.12563,-20.07113],[-66.12508,-20.07249],[-66.12555,-20.07264],[-66.12599,-20.07143]]]},"properties":{"n":"YURA","p":65,"personas_x_ha":77,"masculinidad":86,"pct_menor20":38,"pct_60mas":15,"pct_migrante":28,"dependencia_econ":70,"pct_empleados":35,"pct_cuentapropia":49,"pct_agricultura":35,"pct_comercio":22,"pct_manufactura":11,"pct_construccion":11,"pct_transporte":5,"pct_alojamiento":3,"pct_sin_educacion":8,"pct_educ_superior":11,"brecha_educ":-3,"pct_sin_seguro":17,"pct_sus":78,"pct_seguro_privado":2,"brecha_seguro":18,"pct_salud_publica":30,"pct_med_tradicional":9,"pct_automedicacion":15,"pct_remedios_caseros":28,"pct_viv_desocupada":5,"pct_alquiler":14,"pct_electricidad":91,"pct_sin_electricidad":9,"pct_agua_red":77,"pct_alcantarillado":77,"pct_camara_septica":0,"pct_pozo_ciego":0,"pct_sin_desague":23,"pct_gas_red":0,"pct_gas_garrafa":100,"pct_lena_guano":0,"pct_basura_formal":91,"pct_basura_quema":0,"pct_basura_informal":3,"pct_internet":66,"pct_celular":91,"pct_televisor":66}},{"type":"Feature","geometry":{"type":"Polygon","coordinates":[[[-66.12481,-20.07213],[-66.1243,-20.07192],[-66.12385,-20.07258],[-66.1243,-20.07278],[-66.12447,-20.0723],[-66.12471,-20.07234],[-66.12481,-20.07213]]]},"properties":{"n":"YURA","p":28,"personas_x_ha":62,"masculinidad":75,"pct_menor20":32,"pct_60mas":18,"pct_migrante":25,"dependencia_econ":100,"pct_empleados":7,"pct_cuentapropia":50,"pct_agricultura":50,"pct_comercio":7,"pct_manufactura":7,"pct_construccion":7,"pct_transporte":0,"pct_alojamiento":0,"pct_sin_educacion":15,"pct_educ_superior":40,"brecha_educ":-26,"pct_sin_seguro":11,"pct_sus":64,"pct_seguro_privado":0,"brecha_seguro":10,"pct_salud_publica":28,"pct_med_tradicional":12,"pct_automedicacion":10,"pct_remedios_caseros":32,"pct_viv_desocupada":16,"pct_alquiler":7,"pct_electricidad":93,"pct_sin_electricidad":7,"pct_agua_red":73,"pct_alcantarillado":73,"pct_camara_septica":0,"pct_pozo_ciego":0,"pct_sin_desague":27,"pct_gas_red":0,"pct_gas_garrafa":93,"pct_lena_guano":7,"pct_basura_formal":80,"pct_basura_quema":13,"pct_basura_informal":0,"pct_internet":80,"pct_celular":87,"pct_televisor":67}},{"type":"Feature","geometry":{"type":"Polygon","coordinates":[[[-66.12515,-20.07372],[-66.12466,-20.07355],[-66.1245,-20.07404],[-66.12499,-20.07414],[-66.12515,-20.07372]]]},"properties":{"n":"YURA","p":18,"personas_x_ha":63,"masculinidad":100,"pct_menor20":28,"pct_60mas":28,"pct_migrante":50,"dependencia_econ":64,"pct_empleados":18,"pct_cuentapropia":45,"pct_agricultura":45,"pct_comercio":27,"pct_manufactura":0,"pct_construccion":9,"pct_transporte":0,"pct_alojamiento":0,"pct_sin_educacion":0,"pct_educ_superior":46,"brecha_educ":-36,"pct_sin_seguro":0,"pct_sus":89,"pct_seguro_privado":0,"brecha_seguro":0,"pct_salud_publica":38,"pct_med_tradicional":8,"pct_automedicacion":5,"pct_remedios_caseros":28,"pct_viv_desocupada":27,"pct_alquiler":0,"pct_electricidad":100,"pct_sin_electricidad":0,"pct_agua_red":82,"pct_alcantarillado":82,"pct_camara_septica":0,"pct_pozo_ciego":0,"pct_sin_desague":18,"pct_gas_red":0,"pct_gas_garrafa":100,"pct_lena_guano":0,"pct_basura_formal":100,"pct_basura_quema":0,"pct_basura_informal":0,"pct_internet":9,"pct_celular":82,"pct_televisor":45}},{"type":"Feature","geometry":{"type":"Polygon","coordinates":[[[-66.12583,-20.07365],[-66.12584,-20.07354],[-66.12615,-20.07359],[-66.12616,-20.07336],[-66.12537,-20.07323],[-66.12519,-20.0737],[-66.12562,-20.07383],[-66.12571,-20.07362],[-66.12583,-20.07365]]]},"properties":{"n":"YURA","p":27,"personas_x_ha":67,"masculinidad":35,"pct_menor20":26,"pct_60mas":22,"pct_migrante":30,"dependencia_econ":53,"pct_empleados":13,"pct_cuentapropia":47,"pct_agricultura":60,"pct_comercio":13,"pct_manufactura":7,"pct_construccion":0,"pct_transporte":0,"pct_alojamiento":0,"pct_sin_educacion":18,"pct_educ_superior":29,"brecha_educ":-42,"pct_sin_seguro":14,"pct_sus":77,"pct_seguro_privado":0,"brecha_seguro":4,"pct_salud_publica":31,"pct_med_tradicional":6,"pct_automedicacion":6,"pct_remedios_caseros":32,"pct_viv_desocupada":5,"pct_alquiler":0,"pct_electricidad":82,"pct_sin_electricidad":18,"pct_agua_red":82,"pct_alcantarillado":53,"pct_camara_septica":0,"pct_pozo_ciego":12,"pct_sin_desague":35,"pct_gas_red":0,"pct_gas_garrafa":100,"pct_lena_guano":0,"pct_basura_formal":76,"pct_basura_quema":18,"pct_basura_informal":0,"pct_internet":53,"pct_celular":65,"pct_televisor":35}},{"type":"Feature","geometry":{"type":"Polygon","coordinates":[[[-66.12555,-20.07271],[-66.12504,-20.07252],[-66.12487,-20.07299],[-66.12536,-20.07317],[-66.12555,-20.07271]]]},"properties":{"n":"YURA","p":16,"personas_x_ha":52,"masculinidad":167,"pct_menor20":12,"pct_60mas":25,"pct_migrante":25,"dependencia_econ":67,"pct_empleados":11,"pct_cuentapropia":89,"pct_agricultura":0,"pct_comercio":33,"pct_manufactura":0,"pct_construccion":11,"pct_transporte":0,"pct_alojamiento":0,"pct_sin_educacion":0,"pct_educ_superior":31,"brecha_educ":-15,"pct_sin_seguro":29,"pct_sus":64,"pct_seguro_privado":0,"brecha_seguro":-18,"pct_salud_publica":23,"pct_med_tradicional":8,"pct_automedicacion":17,"pct_remedios_caseros":25,"pct_viv_desocupada":16,"pct_alquiler":9,"pct_electricidad":91,"pct_sin_electricidad":0,"pct_agua_red":82,"pct_alcantarillado":73,"pct_camara_septica":0,"pct_pozo_ciego":0,"pct_sin_desague":27,"pct_gas_red":0,"pct_gas_garrafa":100,"pct_lena_guano":0,"pct_basura_formal":91,"pct_basura_quema":9,"pct_basura_informal":0,"pct_internet":64,"pct_celular":100,"pct_televisor":82}},{"type":"Feature","geometry":{"type":"Polygon","coordinates":[[[-66.12501,-20.07248],[-66.1245,-20.07235],[-66.12434,-20.07278],[-66.12484,-20.07297],[-66.12501,-20.07248]]]},"properties":{"n":"YURA","p":30,"personas_x_ha":95,"masculinidad":173,"pct_menor20":23,"pct_60mas":20,"pct_migrante":7,"dependencia_econ":81,"pct_empleados":25,"pct_cuentapropia":38,"pct_agricultura":50,"pct_comercio":25,"pct_manufactura":6,"pct_construccion":0,"pct_transporte":6,"pct_alojamiento":0,"pct_sin_educacion":5,"pct_educ_superior":23,"brecha_educ":10,"pct_sin_seguro":11,"pct_sus":81,"pct_seguro_privado":0,"brecha_seguro":2,"pct_salud_publica":29,"pct_med_tradicional":8,"pct_automedicacion":20,"pct_remedios_caseros":31,"pct_viv_desocupada":0,"pct_alquiler":0,"pct_electricidad":94,"pct_sin_electricidad":6,"pct_agua_red":76,"pct_alcantarillado":59,"pct_camara_septica":0,"pct_pozo_ciego":6,"pct_sin_desague":35,"pct_gas_red":0,"pct_gas_garrafa":100,"pct_lena_guano":0,"pct_basura_formal":71,"pct_basura_quema":24,"pct_basura_informal":6,"pct_internet":82,"pct_celular":82,"pct_televisor":71}},{"type":"Feature","geometry":{"type":"Polygon","coordinates":[[[-66.1271,-20.07344],[-66.12713,-20.07327],[-66.12623,-20.07299],[-66.12615,-20.07328],[-66.1271,-20.07344]]]},"properties":{"n":"YURA","p":19,"personas_x_ha":71,"masculinidad":90,"pct_menor20":47,"pct_60mas":5,"pct_migrante":16,"dependencia_econ":125,"pct_empleados":0,"pct_cuentapropia":50,"pct_agricultura":50,"pct_comercio":12,"pct_manufactura":0,"pct_construccion":12,"pct_transporte":12,"pct_alojamiento":0,"pct_sin_educacion":11,"pct_educ_superior":33,"brecha_educ":-35,"pct_sin_seguro":0,"pct_sus":83,"pct_seguro_privado":17,"brecha_seguro":0,"pct_salud_publica":42,"pct_med_tradicional":14,"pct_automedicacion":0,"pct_remedios_caseros":19,"pct_viv_desocupada":30,"pct_alquiler":0,"pct_electricidad":100,"pct_sin_electricidad":0,"pct_agua_red":67,"pct_alcantarillado":83,"pct_camara_septica":0,"pct_pozo_ciego":17,"pct_sin_desague":0,"pct_gas_red":0,"pct_gas_garrafa":100,"pct_lena_guano":0,"pct_basura_formal":100,"pct_basura_quema":0,"pct_basura_informal":0,"pct_internet":83,"pct_celular":100,"pct_televisor":100}},{"type":"Feature","geometry":{"type":"Polygon","coordinates":[[[-66.12449,-20.07524],[-66.12461,-20.07497],[-66.12428,-20.07486],[-66.12422,-20.07499],[-66.12415,-20.07498],[-66.12373,-20.07597],[-66.12443,-20.0764],[-66.12438,-20.07648],[-66.12449,-20.07655],[-66.12446,-20.07661],[-66.12476,-20.07669],[-66.12518,-20.0752],[-66.12479,-20.0751],[-66.12443,-20.07601],[-66.12436,-20.07598],[-66.12472,-20.07508],[-66.12463,-20.07502],[-66.12449,-20.0753],[-66.12434,-20.07523],[-66.12437,-20.07518],[-66.12449,-20.07524]]]},"properties":{"n":"YURA","p":71,"personas_x_ha":42,"masculinidad":82,"pct_menor20":49,"pct_60mas":10,"pct_migrante":34,"dependencia_econ":137,"pct_empleados":37,"pct_cuentapropia":47,"pct_agricultura":37,"pct_comercio":3,"pct_manufactura":3,"pct_construccion":10,"pct_transporte":3,"pct_alojamiento":3,"pct_sin_educacion":8,"pct_educ_superior":16,"brecha_educ":-11,"pct_sin_seguro":14,"pct_sus":63,"pct_seguro_privado":4,"brecha_seguro":20,"pct_salud_publica":30,"pct_med_tradicional":8,"pct_automedicacion":12,"pct_remedios_caseros":29,"pct_viv_desocupada":9,"pct_alquiler":27,"pct_electricidad":88,"pct_sin_electricidad":12,"pct_agua_red":76,"pct_alcantarillado":79,"pct_camara_septica":0,"pct_pozo_ciego":6,"pct_sin_desague":15,"pct_gas_red":0,"pct_gas_garrafa":97,"pct_lena_guano":0,"pct_basura_formal":97,"pct_basura_quema":3,"pct_basura_informal":0,"pct_internet":61,"pct_celular":88,"pct_televisor":55}},{"type":"Feature","geometry":{"type":"Polygon","coordinates":[[[-66.12545,-20.07745],[-66.12593,-20.07605],[-66.12552,-20.07593],[-66.12518,-20.07709],[-66.12533,-20.07713],[-66.12527,-20.07739],[-66.12545,-20.07745]]]},"properties":{"n":"YURA","p":36,"personas_x_ha":56,"masculinidad":50,"pct_menor20":42,"pct_60mas":6,"pct_migrante":28,"dependencia_econ":143,"pct_empleados":36,"pct_cuentapropia":43,"pct_agricultura":50,"pct_comercio":0,"pct_manufactura":0,"pct_construccion":7,"pct_transporte":7,"pct_alojamiento":7,"pct_sin_educacion":26,"pct_educ_superior":11,"brecha_educ":-1,"pct_sin_seguro":12,"pct_sus":85,"pct_seguro_privado":0,"brecha_seguro":-4,"pct_salud_publica":35,"pct_med_tradicional":12,"pct_automedicacion":5,"pct_remedios_caseros":35,"pct_viv_desocupada":17,"pct_alquiler":7,"pct_electricidad":87,"pct_sin_electricidad":13,"pct_agua_red":80,"pct_alcantarillado":47,"pct_camara_septica":0,"pct_pozo_ciego":0,"pct_sin_desague":53,"pct_gas_red":0,"pct_gas_garrafa":93,"pct_lena_guano":7,"pct_basura_formal":53,"pct_basura_quema":40,"pct_basura_informal":0,"pct_internet":93,"pct_celular":100,"pct_televisor":60}},{"type":"Feature","geometry":{"type":"Polygon","coordinates":[[[-66.1272,-20.0747],[-66.12686,-20.07452],[-66.12642,-20.07482],[-66.12623,-20.07544],[-66.12685,-20.07564],[-66.1272,-20.0747]]]},"properties":{"n":"YURA","p":55,"personas_x_ha":72,"masculinidad":72,"pct_menor20":62,"pct_60mas":4,"pct_migrante":15,"dependencia_econ":267,"pct_empleados":27,"pct_cuentapropia":47,"pct_agricultura":47,"pct_comercio":7,"pct_manufactura":0,"pct_construccion":27,"pct_transporte":0,"pct_alojamiento":0,"pct_sin_educacion":9,"pct_educ_superior":23,"brecha_educ":-21,"pct_sin_seguro":2,"pct_sus":76,"pct_seguro_privado":0,"brecha_seguro":5,"pct_salud_publica":29,"pct_med_tradicional":15,"pct_automedicacion":9,"pct_remedios_caseros":29,"pct_viv_desocupada":6,"pct_alquiler":0,"pct_electricidad":93,"pct_sin_electricidad":7,"pct_agua_red":87,"pct_alcantarillado":40,"pct_camara_septica":0,"pct_pozo_ciego":20,"pct_sin_desague":40,"pct_gas_red":0,"pct_gas_garrafa":100,"pct_lena_guano":0,"pct_basura_formal":93,"pct_basura_quema":0,"pct_basura_informal":0,"pct_internet":73,"pct_celular":100,"pct_televisor":80}},{"type":"Feature","geometry":{"type":"Polygon","coordinates":[[[-66.12348,-20.07348],[-66.12313,-20.07328],[-66.12301,-20.07344],[-66.12275,-20.07423],[-66.12258,-20.07447],[-66.12279,-20.07458],[-66.12301,-20.07444],[-66.12348,-20.07348]]]},"properties":{"n":"YURA","p":34,"personas_x_ha":61,"masculinidad":100,"pct_menor20":47,"pct_60mas":3,"pct_migrante":15,"dependencia_econ":183,"pct_empleados":33,"pct_cuentapropia":42,"pct_agricultura":42,"pct_comercio":0,"pct_manufactura":0,"pct_construccion":8,"pct_transporte":8,"pct_alojamiento":0,"pct_sin_educacion":6,"pct_educ_superior":22,"brecha_educ":-22,"pct_sin_seguro":0,"pct_sus":68,"pct_seguro_privado":0,"brecha_seguro":0,"pct_salud_publica":43,"pct_med_tradicional":4,"pct_automedicacion":0,"pct_remedios_caseros":19,"pct_viv_desocupada":0,"pct_alquiler":8,"pct_electricidad":92,"pct_sin_electricidad":8,"pct_agua_red":100,"pct_alcantarillado":75,"pct_camara_septica":8,"pct_pozo_ciego":0,"pct_sin_desague":17,"pct_gas_red":0,"pct_gas_garrafa":100,"pct_lena_guano":0,"pct_basura_formal":100,"pct_basura_quema":0,"pct_basura_informal":0,"pct_internet":75,"pct_celular":83,"pct_televisor":75}},{"type":"Feature","geometry":{"type":"Polygon","coordinates":[[[-66.12632,-20.07681],[-66.12614,-20.07672],[-66.1262,-20.07646],[-66.12588,-20.07636],[-66.12548,-20.0777],[-66.12593,-20.07788],[-66.12632,-20.07681]]]},"properties":{"n":"YURA","p":16,"personas_x_ha":20,"masculinidad":100,"pct_menor20":31,"pct_60mas":19,"pct_migrante":50,"dependencia_econ":33,"pct_empleados":42,"pct_cuentapropia":50,"pct_agricultura":25,"pct_comercio":0,"pct_manufactura":0,"pct_construccion":17,"pct_transporte":17,"pct_alojamiento":8,"pct_sin_educacion":9,"pct_educ_superior":36,"brecha_educ":3,"pct_sin_seguro":6,"pct_sus":75,"pct_seguro_privado":0,"brecha_seguro":12,"pct_salud_publica":25,"pct_med_tradicional":7,"pct_automedicacion":20,"pct_remedios_caseros":27,"pct_viv_desocupada":44,"pct_alquiler":11,"pct_electricidad":89,"pct_sin_electricidad":11,"pct_agua_red":78,"pct_alcantarillado":33,"pct_camara_septica":0,"pct_pozo_ciego":11,"pct_sin_desague":56,"pct_gas_red":0,"pct_gas_garrafa":89,"pct_lena_guano":0,"pct_basura_formal":89,"pct_basura_quema":0,"pct_basura_informal":11,"pct_internet":78,"pct_celular":100,"pct_televisor":56}},{"type":"Feature","geometry":{"type":"Polygon","coordinates":[[[-66.12613,-20.07199],[-66.12627,-20.07206],[-66.12612,-20.072],[-66.12596,-20.07248],[-66.12621,-20.07289],[-66.1263,-20.07273],[-66.12625,-20.07235],[-66.12644,-20.07205],[-66.1268,-20.07237],[-66.12706,-20.0721],[-66.12708,-20.07181],[-66.12654,-20.07133],[-66.12632,-20.07154],[-66.12654,-20.07188],[-66.12631,-20.07158],[-66.12623,-20.07163],[-66.12613,-20.07199]]]},"properties":{"n":"YURA","p":46,"personas_x_ha":51,"masculinidad":53,"pct_menor20":48,"pct_60mas":4,"pct_migrante":46,"dependencia_econ":130,"pct_empleados":25,"pct_cuentapropia":55,"pct_agricultura":50,"pct_comercio":5,"pct_manufactura":10,"pct_construccion":15,"pct_transporte":5,"pct_alojamiento":5,"pct_sin_educacion":29,"pct_educ_superior":4,"brecha_educ":-30,"pct_sin_seguro":0,"pct_sus":96,"pct_seguro_privado":0,"brecha_seguro":0,"pct_salud_publica":36,"pct_med_tradicional":8,"pct_automedicacion":12,"pct_remedios_caseros":31,"pct_viv_desocupada":14,"pct_alquiler":5,"pct_electricidad":74,"pct_sin_electricidad":21,"pct_agua_red":58,"pct_alcantarillado":58,"pct_camara_septica":0,"pct_pozo_ciego":0,"pct_sin_desague":37,"pct_gas_red":0,"pct_gas_garrafa":74,"pct_lena_guano":21,"pct_basura_formal":84,"pct_basura_quema":16,"pct_basura_informal":0,"pct_internet":47,"pct_celular":84,"pct_televisor":42}},{"type":"Feature","geometry":{"type":"Polygon","coordinates":[[[-66.12421,-20.0746],[-66.1241,-20.07422],[-66.12403,-20.07421],[-66.12383,-20.07463],[-66.12374,-20.07459],[-66.12362,-20.07482],[-66.12387,-20.07489],[-66.12381,-20.07517],[-66.12398,-20.07522],[-66.12421,-20.0746]]]},"properties":{"n":"YURA","p":20,"personas_x_ha":61,"masculinidad":43,"pct_menor20":35,"pct_60mas":15,"pct_migrante":40,"dependencia_econ":46,"pct_empleados":15,"pct_cuentapropia":54,"pct_agricultura":38,"pct_comercio":31,"pct_manufactura":0,"pct_construccion":15,"pct_transporte":0,"pct_alojamiento":8,"pct_sin_educacion":0,"pct_educ_superior":42,"brecha_educ":-51,"pct_sin_seguro":11,"pct_sus":68,"pct_seguro_privado":0,"brecha_seguro":33,"pct_salud_publica":22,"pct_med_tradicional":17,"pct_automedicacion":16,"pct_remedios_caseros":28,"pct_viv_desocupada":0,"pct_alquiler":14,"pct_electricidad":100,"pct_sin_electricidad":0,"pct_agua_red":100,"pct_alcantarillado":100,"pct_camara_septica":0,"pct_pozo_ciego":0,"pct_sin_desague":0,"pct_gas_red":0,"pct_gas_garrafa":100,"pct_lena_guano":0,"pct_basura_formal":100,"pct_basura_quema":0,"pct_basura_informal":0,"pct_internet":100,"pct_celular":100,"pct_televisor":71}},{"type":"Feature","geometry":{"type":"Polygon","coordinates":[[[-66.12462,-20.07354],[-66.12413,-20.07335],[-66.1239,-20.07389],[-66.12445,-20.07403],[-66.12462,-20.07354]]]},"properties":{"n":"YURA","p":15,"personas_x_ha":41,"masculinidad":50,"pct_menor20":27,"pct_60mas":7,"pct_migrante":33,"dependencia_econ":40,"pct_empleados":0,"pct_cuentapropia":90,"pct_agricultura":70,"pct_comercio":0,"pct_manufactura":0,"pct_construccion":30,"pct_transporte":0,"pct_alojamiento":0,"pct_sin_educacion":9,"pct_educ_superior":27,"brecha_educ":-14,"pct_sin_seguro":57,"pct_sus":29,"pct_seguro_privado":0,"brecha_seguro":36,"pct_salud_publica":33,"pct_med_tradicional":4,"pct_automedicacion":24,"pct_remedios_caseros":31,"pct_viv_desocupada":0,"pct_alquiler":25,"pct_electricidad":100,"pct_sin_electricidad":0,"pct_agua_red":100,"pct_alcantarillado":100,"pct_camara_septica":0,"pct_pozo_ciego":0,"pct_sin_desague":0,"pct_gas_red":0,"pct_gas_garrafa":100,"pct_lena_guano":0,"pct_basura_formal":75,"pct_basura_quema":25,"pct_basura_informal":0,"pct_internet":100,"pct_celular":100,"pct_televisor":75}},{"type":"Feature","geometry":{"type":"Polygon","coordinates":[[[-66.12611,-20.07117],[-66.12561,-20.0727],[-66.12604,-20.07287],[-66.12607,-20.0728],[-66.12595,-20.07267],[-66.12589,-20.07241],[-66.12599,-20.07205],[-66.12639,-20.07125],[-66.12611,-20.07117]]]},"properties":{"n":"YURA","p":20,"personas_x_ha":47,"masculinidad":67,"pct_menor20":45,"pct_60mas":10,"pct_migrante":35,"dependencia_econ":186,"pct_empleados":29,"pct_cuentapropia":71,"pct_agricultura":14,"pct_comercio":0,"pct_manufactura":14,"pct_construccion":14,"pct_transporte":0,"pct_alojamiento":0,"pct_sin_educacion":18,"pct_educ_superior":18,"brecha_educ":-43,"pct_sin_seguro":10,"pct_sus":80,"pct_seguro_privado":0,"brecha_seguro":4,"pct_salud_publica":22,"pct_med_tradicional":17,"pct_automedicacion":17,"pct_remedios_caseros":19,"pct_viv_desocupada":48,"pct_alquiler":0,"pct_electricidad":88,"pct_sin_electricidad":12,"pct_agua_red":50,"pct_alcantarillado":62,"pct_camara_septica":0,"pct_pozo_ciego":0,"pct_sin_desague":38,"pct_gas_red":0,"pct_gas_garrafa":100,"pct_lena_guano":0,"pct_basura_formal":100,"pct_basura_quema":0,"pct_basura_informal":0,"pct_internet":75,"pct_celular":88,"pct_televisor":50}},{"type":"Feature","geometry":{"type":"Polygon","coordinates":[[[-66.12347,-20.07333],[-66.12372,-20.07378],[-66.12387,-20.07385],[-66.12408,-20.07335],[-66.12356,-20.07315],[-66.12347,-20.07333]]]},"properties":{"n":"YURA","p":16,"personas_x_ha":57,"masculinidad":78,"pct_menor20":12,"pct_60mas":38,"pct_migrante":25,"dependencia_econ":50,"pct_empleados":0,"pct_cuentapropia":60,"pct_agricultura":60,"pct_comercio":10,"pct_manufactura":10,"pct_construccion":10,"pct_transporte":0,"pct_alojamiento":0,"pct_sin_educacion":7,"pct_educ_superior":29,"brecha_educ":-14,"pct_sin_seguro":27,"pct_sus":60,"pct_seguro_privado":0,"brecha_seguro":4,"pct_salud_publica":37,"pct_med_tradicional":5,"pct_automedicacion":12,"pct_remedios_caseros":32,"pct_viv_desocupada":8,"pct_alquiler":0,"pct_electricidad":90,"pct_sin_electricidad":10,"pct_agua_red":70,"pct_alcantarillado":50,"pct_camara_septica":0,"pct_pozo_ciego":0,"pct_sin_desague":50,"pct_gas_red":0,"pct_gas_garrafa":70,"pct_lena_guano":20,"pct_basura_formal":90,"pct_basura_quema":0,"pct_basura_informal":0,"pct_internet":70,"pct_celular":90,"pct_televisor":30}},{"type":"Feature","geometry":{"type":"Polygon","coordinates":[[[-66.12547,-20.07095],[-66.12502,-20.07125],[-66.12482,-20.07119],[-66.12456,-20.0718],[-66.1249,-20.07199],[-66.12476,-20.07236],[-66.12503,-20.07244],[-66.12559,-20.0711],[-66.12547,-20.07095]]]},"properties":{"n":"YURA","p":49,"personas_x_ha":61,"masculinidad":88,"pct_menor20":18,"pct_60mas":27,"pct_migrante":27,"dependencia_econ":40,"pct_empleados":23,"pct_cuentapropia":34,"pct_agricultura":49,"pct_comercio":9,"pct_manufactura":3,"pct_construccion":20,"pct_transporte":0,"pct_alojamiento":6,"pct_sin_educacion":15,"pct_educ_superior":17,"brecha_educ":-15,"pct_sin_seguro":6,"pct_sus":76,"pct_seguro_privado":0,"brecha_seguro":-12,"pct_salud_publica":24,"pct_med_tradicional":15,"pct_automedicacion":14,"pct_remedios_caseros":26,"pct_viv_desocupada":19,"pct_alquiler":10,"pct_electricidad":90,"pct_sin_electricidad":10,"pct_agua_red":70,"pct_alcantarillado":70,"pct_camara_septica":0,"pct_pozo_ciego":5,"pct_sin_desague":25,"pct_gas_red":0,"pct_gas_garrafa":90,"pct_lena_guano":5,"pct_basura_formal":80,"pct_basura_quema":15,"pct_basura_informal":0,"pct_internet":80,"pct_celular":100,"pct_televisor":60}},{"type":"Feature","geometry":{"type":"Polygon","coordinates":[[[-66.12664,-20.07342],[-66.12625,-20.07337],[-66.12606,-20.07436],[-66.12643,-20.07445],[-66.12664,-20.07342]]]},"properties":{"n":"YURA","p":33,"personas_x_ha":71,"masculinidad":94,"pct_menor20":48,"pct_60mas":12,"pct_migrante":9,"dependencia_econ":68,"pct_empleados":37,"pct_cuentapropia":42,"pct_agricultura":53,"pct_comercio":11,"pct_manufactura":5,"pct_construccion":11,"pct_transporte":0,"pct_alojamiento":0,"pct_sin_educacion":17,"pct_educ_superior":11,"brecha_educ":-17,"pct_sin_seguro":13,"pct_sus":71,"pct_seguro_privado":0,"brecha_seguro":16,"pct_salud_publica":35,"pct_med_tradicional":8,"pct_automedicacion":13,"pct_remedios_caseros":31,"pct_viv_desocupada":26,"pct_alquiler":8,"pct_electricidad":100,"pct_sin_electricidad":0,"pct_agua_red":75,"pct_alcantarillado":100,"pct_camara_septica":0,"pct_pozo_ciego":0,"pct_sin_desague":0,"pct_gas_red":0,"pct_gas_garrafa":100,"pct_lena_guano":0,"pct_basura_formal":100,"pct_basura_quema":0,"pct_basura_informal":0,"pct_internet":83,"pct_celular":100,"pct_televisor":92}},{"type":"Feature","geometry":{"type":"Polygon","coordinates":[[[-66.12619,-20.07296],[-66.12558,-20.07274],[-66.12541,-20.07318],[-66.12606,-20.07328],[-66.12619,-20.07296]]]},"properties":{"n":"YURA","p":39,"personas_x_ha":119,"masculinidad":95,"pct_menor20":33,"pct_60mas":15,"pct_migrante":41,"dependencia_econ":95,"pct_empleados":40,"pct_cuentapropia":45,"pct_agricultura":25,"pct_comercio":35,"pct_manufactura":0,"pct_construccion":0,"pct_transporte":0,"pct_alojamiento":5,"pct_sin_educacion":11,"pct_educ_superior":44,"brecha_educ":-28,"pct_sin_seguro":3,"pct_sus":87,"pct_seguro_privado":0,"brecha_seguro":5,"pct_salud_publica":35,"pct_med_tradicional":5,"pct_automedicacion":13,"pct_remedios_caseros":27,"pct_viv_desocupada":15,"pct_alquiler":12,"pct_electricidad":100,"pct_sin_electricidad":0,"pct_agua_red":88,"pct_alcantarillado":94,"pct_camara_septica":0,"pct_pozo_ciego":0,"pct_sin_desague":6,"pct_gas_red":0,"pct_gas_garrafa":100,"pct_lena_guano":0,"pct_basura_formal":88,"pct_basura_quema":12,"pct_basura_informal":0,"pct_internet":62,"pct_celular":94,"pct_televisor":88}},{"type":"Feature","geometry":{"type":"Polygon","coordinates":[[[-66.12611,-20.07548],[-66.12569,-20.07534],[-66.12553,-20.07586],[-66.12592,-20.07598],[-66.12611,-20.07548]]]},"properties":{"n":"YURA","p":25,"personas_x_ha":92,"masculinidad":67,"pct_menor20":60,"pct_60mas":4,"pct_migrante":28,"dependencia_econ":243,"pct_empleados":29,"pct_cuentapropia":71,"pct_agricultura":29,"pct_comercio":0,"pct_manufactura":14,"pct_construccion":0,"pct_transporte":0,"pct_alojamiento":0,"pct_sin_educacion":10,"pct_educ_superior":20,"brecha_educ":-50,"pct_sin_seguro":0,"pct_sus":54,"pct_seguro_privado":0,"brecha_seguro":0,"pct_salud_publica":30,"pct_med_tradicional":2,"pct_automedicacion":6,"pct_remedios_caseros":38,"pct_viv_desocupada":9,"pct_alquiler":0,"pct_electricidad":71,"pct_sin_electricidad":14,"pct_agua_red":71,"pct_alcantarillado":29,"pct_camara_septica":0,"pct_pozo_ciego":0,"pct_sin_desague":71,"pct_gas_red":0,"pct_gas_garrafa":100,"pct_lena_guano":0,"pct_basura_formal":86,"pct_basura_quema":14,"pct_basura_informal":0,"pct_internet":57,"pct_celular":71,"pct_televisor":43}}]}