{"type":"FeatureCollection","features":[{"type":"Feature","geometry":{"type":"Polygon","coordinates":[[[-65.54475,-19.35048],[-65.54492,-19.35053],[-65.54505,-19.35011],[-65.5449,-19.35006],[-65.54475,-19.35048]]]},"properties":{"n":"CANUTILLOS","p":29,"personas_x_ha":336,"masculinidad":222,"pct_menor20":21,"pct_60mas":3,"pct_migrante":55,"dependencia_econ":71,"pct_empleados":6,"pct_cuentapropia":35,"pct_agricultura":0,"pct_comercio":12,"pct_manufactura":6,"pct_construccion":0,"pct_transporte":0,"pct_alojamiento":6,"pct_sin_educacion":13,"pct_educ_superior":13,"brecha_educ":-16,"pct_sin_seguro":14,"pct_sus":38,"pct_seguro_privado":0,"brecha_seguro":-12,"pct_salud_publica":24,"pct_med_tradicional":7,"pct_automedicacion":21,"pct_remedios_caseros":23,"pct_viv_desocupada":0,"pct_alquiler":9,"pct_electricidad":91,"pct_sin_electricidad":9,"pct_agua_red":9,"pct_alcantarillado":0,"pct_camara_septica":0,"pct_pozo_ciego":0,"pct_sin_desague":100,"pct_gas_red":0,"pct_gas_garrafa":100,"pct_lena_guano":0,"pct_basura_formal":0,"pct_basura_quema":27,"pct_basura_informal":45,"pct_internet":82,"pct_celular":91,"pct_televisor":45}},{"type":"Feature","geometry":{"type":"Polygon","coordinates":[[[-65.54494,-19.35084],[-65.5451,-19.3509],[-65.54517,-19.35066],[-65.54501,-19.35061],[-65.54494,-19.35084]]]},"properties":{"n":"CANUTILLOS","p":16,"personas_x_ha":332,"masculinidad":700,"pct_menor20":6,"pct_60mas":6,"pct_migrante":62,"dependencia_econ":14,"pct_empleados":29,"pct_cuentapropia":7,"pct_agricultura":0,"pct_comercio":21,"pct_manufactura":0,"pct_construccion":0,"pct_transporte":0,"pct_alojamiento":0,"pct_sin_educacion":0,"pct_educ_superior":33,"brecha_educ":31,"pct_sin_seguro":20,"pct_sus":33,"pct_seguro_privado":0,"brecha_seguro":-35,"pct_salud_publica":12,"pct_med_tradicional":11,"pct_automedicacion":19,"pct_remedios_caseros":25,"pct_viv_desocupada":0,"pct_alquiler":0,"pct_electricidad":100,"pct_sin_electricidad":0,"pct_agua_red":18,"pct_alcantarillado":0,"pct_camara_septica":0,"pct_pozo_ciego":0,"pct_sin_desague":100,"pct_gas_red":0,"pct_gas_garrafa":100,"pct_lena_guano":0,"pct_basura_formal":18,"pct_basura_quema":45,"pct_basura_informal":18,"pct_internet":45,"pct_celular":45,"pct_televisor":9}},{"type":"Feature","geometry":{"type":"Polygon","coordinates":[[[-65.54503,-19.35057],[-65.5452,-19.35062],[-65.54533,-19.35019],[-65.54518,-19.35014],[-65.54503,-19.35057]]]},"properties":{"n":"CANUTILLOS","p":18,"personas_x_ha":204,"masculinidad":50,"pct_menor20":44,"pct_60mas":11,"pct_migrante":67,"dependencia_econ":112,"pct_empleados":25,"pct_cuentapropia":12,"pct_agricultura":0,"pct_comercio":0,"pct_manufactura":12,"pct_construccion":12,"pct_transporte":0,"pct_alojamiento":12,"pct_sin_educacion":9,"pct_educ_superior":18,"brecha_educ":-47,"pct_sin_seguro":12,"pct_sus":24,"pct_seguro_privado":0,"brecha_seguro":33,"pct_salud_publica":20,"pct_med_tradicional":7,"pct_automedicacion":21,"pct_remedios_caseros":26,"pct_viv_desocupada":0,"pct_alquiler":29,"pct_electricidad":100,"pct_sin_electricidad":0,"pct_agua_red":14,"pct_alcantarillado":0,"pct_camara_septica":0,"pct_pozo_ciego":43,"pct_sin_desague":57,"pct_gas_red":0,"pct_gas_garrafa":100,"pct_lena_guano":0,"pct_basura_formal":0,"pct_basura_quema":0,"pct_basura_informal":100,"pct_internet":100,"pct_celular":100,"pct_televisor":57}},{"type":"Feature","geometry":{"type":"Polygon","coordinates":[[[-65.54912,-19.31943],[-65.5488,-19.31942],[-65.54873,-19.31967],[-65.54903,-19.31964],[-65.549,-19.31954],[-65.54913,-19.31951],[-65.54912,-19.31943]]]},"properties":{"n":"COLAVI BAJA","p":16,"personas_x_ha":191,"masculinidad":100,"pct_menor20":50,"pct_60mas":12,"pct_migrante":56,"dependencia_econ":220,"pct_empleados":0,"pct_cuentapropia":60,"pct_agricultura":0,"pct_comercio":40,"pct_manufactura":0,"pct_construccion":0,"pct_transporte":0,"pct_alojamiento":0,"pct_sin_educacion":25,"pct_educ_superior":12,"brecha_educ":0,"pct_sin_seguro":19,"pct_sus":6,"pct_seguro_privado":0,"brecha_seguro":-12,"pct_salud_publica":23,"pct_med_tradicional":13,"pct_automedicacion":13,"pct_remedios_caseros":23,"pct_viv_desocupada":20,"pct_alquiler":0,"pct_electricidad":100,"pct_sin_electricidad":0,"pct_agua_red":71,"pct_alcantarillado":0,"pct_camara_septica":0,"pct_pozo_ciego":0,"pct_sin_desague":14,"pct_gas_red":0,"pct_gas_garrafa":100,"pct_lena_guano":0,"pct_basura_formal":14,"pct_basura_quema":14,"pct_basura_informal":43,"pct_internet":71,"pct_celular":71,"pct_televisor":71}},{"type":"Feature","geometry":{"type":"Polygon","coordinates":[[[-65.54952,-19.31923],[-65.54986,-19.31948],[-65.55006,-19.31927],[-65.54992,-19.31875],[-65.54951,-19.31897],[-65.54952,-19.31923]]]},"properties":{"n":"COLAVI BAJA","p":37,"personas_x_ha":114,"masculinidad":106,"pct_menor20":35,"pct_60mas":8,"pct_migrante":19,"dependencia_econ":54,"pct_empleados":29,"pct_cuentapropia":46,"pct_agricultura":12,"pct_comercio":0,"pct_manufactura":12,"pct_construccion":8,"pct_transporte":0,"pct_alojamiento":12,"pct_sin_educacion":7,"pct_educ_superior":15,"brecha_educ":-5,"pct_sin_seguro":3,"pct_sus":81,"pct_seguro_privado":0,"brecha_seguro":5,"pct_salud_publica":66,"pct_med_tradicional":4,"pct_automedicacion":4,"pct_remedios_caseros":6,"pct_viv_desocupada":0,"pct_alquiler":7,"pct_electricidad":100,"pct_sin_electricidad":0,"pct_agua_red":67,"pct_alcantarillado":33,"pct_camara_septica":0,"pct_pozo_ciego":0,"pct_sin_desague":27,"pct_gas_red":0,"pct_gas_garrafa":100,"pct_lena_guano":0,"pct_basura_formal":0,"pct_basura_quema":40,"pct_basura_informal":53,"pct_internet":73,"pct_celular":73,"pct_televisor":40}},{"type":"Feature","geometry":{"type":"Polygon","coordinates":[[[-65.54903,-19.32003],[-65.54899,-19.3202],[-65.54889,-19.32019],[-65.54889,-19.31995],[-65.54932,-19.31981],[-65.54977,-19.31993],[-65.54975,-19.32014],[-65.5498,-19.31994],[-65.54987,-19.31996],[-65.55003,-19.32008],[-65.55024,-19.32043],[-65.55018,-19.32057],[-65.54993,-19.32043],[-65.54938,-19.32038],[-65.5494,-19.32019],[-65.54925,-19.32012],[-65.54925,-19.32005],[-65.54903,-19.32003]]]},"properties":{"n":"COLAVI BAJA","p":25,"personas_x_ha":45,"masculinidad":79,"pct_menor20":40,"pct_60mas":16,"pct_migrante":24,"dependencia_econ":56,"pct_empleados":0,"pct_cuentapropia":62,"pct_agricultura":75,"pct_comercio":6,"pct_manufactura":0,"pct_construccion":0,"pct_transporte":6,"pct_alojamiento":0,"pct_sin_educacion":7,"pct_educ_superior":7,"brecha_educ":-30,"pct_sin_seguro":20,"pct_sus":56,"pct_seguro_privado":0,"brecha_seguro":13,"pct_salud_publica":29,"pct_med_tradicional":4,"pct_automedicacion":16,"pct_remedios_caseros":20,"pct_viv_desocupada":17,"pct_alquiler":0,"pct_electricidad":90,"pct_sin_electricidad":10,"pct_agua_red":60,"pct_alcantarillado":20,"pct_camara_septica":0,"pct_pozo_ciego":0,"pct_sin_desague":70,"pct_gas_red":0,"pct_gas_garrafa":90,"pct_lena_guano":0,"pct_basura_formal":0,"pct_basura_quema":70,"pct_basura_informal":30,"pct_internet":100,"pct_celular":100,"pct_televisor":80}},{"type":"Feature","geometry":{"type":"Polygon","coordinates":[[[-65.54873,-19.31952],[-65.54845,-19.31946],[-65.54824,-19.31953],[-65.54871,-19.31966],[-65.54873,-19.31952]]]},"properties":{"n":"COLAVI BAJA","p":23,"personas_x_ha":395,"masculinidad":92,"pct_menor20":43,"pct_60mas":4,"pct_migrante":57,"dependencia_econ":130,"pct_empleados":10,"pct_cuentapropia":60,"pct_agricultura":40,"pct_comercio":0,"pct_manufactura":0,"pct_construccion":0,"pct_transporte":0,"pct_alojamiento":0,"pct_sin_educacion":0,"pct_educ_superior":15,"brecha_educ":-26,"pct_sin_seguro":5,"pct_sus":73,"pct_seguro_privado":9,"brecha_seguro":10,"pct_salud_publica":36,"pct_med_tradicional":8,"pct_automedicacion":10,"pct_remedios_caseros":22,"pct_viv_desocupada":0,"pct_alquiler":0,"pct_electricidad":100,"pct_sin_electricidad":0,"pct_agua_red":25,"pct_alcantarillado":0,"pct_camara_septica":0,"pct_pozo_ciego":0,"pct_sin_desague":38,"pct_gas_red":0,"pct_gas_garrafa":100,"pct_lena_guano":0,"pct_basura_formal":0,"pct_basura_quema":25,"pct_basura_informal":75,"pct_internet":100,"pct_celular":100,"pct_televisor":75}},{"type":"Feature","geometry":{"type":"Polygon","coordinates":[[[-65.55011,-19.31916],[-65.55026,-19.31926],[-65.55054,-19.31911],[-65.55062,-19.31861],[-65.54997,-19.31874],[-65.55011,-19.31916]]]},"properties":{"n":"COLAVI BAJA","p":37,"personas_x_ha":116,"masculinidad":185,"pct_menor20":22,"pct_60mas":14,"pct_migrante":46,"dependencia_econ":85,"pct_empleados":40,"pct_cuentapropia":25,"pct_agricultura":10,"pct_comercio":5,"pct_manufactura":0,"pct_construccion":15,"pct_transporte":0,"pct_alojamiento":0,"pct_sin_educacion":13,"pct_educ_superior":23,"brecha_educ":-40,"pct_sin_seguro":14,"pct_sus":77,"pct_seguro_privado":3,"brecha_seguro":9,"pct_salud_publica":68,"pct_med_tradicional":5,"pct_automedicacion":9,"pct_remedios_caseros":11,"pct_viv_desocupada":6,"pct_alquiler":0,"pct_electricidad":92,"pct_sin_electricidad":8,"pct_agua_red":31,"pct_alcantarillado":23,"pct_camara_septica":0,"pct_pozo_ciego":0,"pct_sin_desague":62,"pct_gas_red":0,"pct_gas_garrafa":100,"pct_lena_guano":0,"pct_basura_formal":0,"pct_basura_quema":46,"pct_basura_informal":54,"pct_internet":100,"pct_celular":100,"pct_televisor":54}},{"type":"Feature","geometry":{"type":"Polygon","coordinates":[[[-65.55126,-19.31949],[-65.55117,-19.31952],[-65.55064,-19.31958],[-65.55065,-19.31947],[-65.5511,-19.31929],[-65.55126,-19.31949]]]},"properties":{"n":"COLAVI BAJA","p":20,"personas_x_ha":163,"masculinidad":82,"pct_menor20":50,"pct_60mas":10,"pct_migrante":15,"dependencia_econ":375,"pct_empleados":0,"pct_cuentapropia":50,"pct_agricultura":25,"pct_comercio":0,"pct_manufactura":0,"pct_construccion":0,"pct_transporte":0,"pct_alojamiento":25,"pct_sin_educacion":22,"pct_educ_superior":0,"brecha_educ":-50,"pct_sin_seguro":5,"pct_sus":89,"pct_seguro_privado":0,"brecha_seguro":-10,"pct_salud_publica":34,"pct_med_tradicional":8,"pct_automedicacion":10,"pct_remedios_caseros":36,"pct_viv_desocupada":0,"pct_alquiler":0,"pct_electricidad":86,"pct_sin_electricidad":14,"pct_agua_red":57,"pct_alcantarillado":0,"pct_camara_septica":0,"pct_pozo_ciego":0,"pct_sin_desague":57,"pct_gas_red":0,"pct_gas_garrafa":100,"pct_lena_guano":0,"pct_basura_formal":0,"pct_basura_quema":57,"pct_basura_informal":43,"pct_internet":71,"pct_celular":57,"pct_televisor":57}},{"type":"Feature","geometry":{"type":"Polygon","coordinates":[[[-65.55132,-19.31951],[-65.55048,-19.31961],[-65.55047,-19.31972],[-65.55094,-19.31972],[-65.55134,-19.31962],[-65.55132,-19.31951]]]},"properties":{"n":"COLAVI BAJA","p":28,"personas_x_ha":241,"masculinidad":155,"pct_menor20":36,"pct_60mas":21,"pct_migrante":46,"dependencia_econ":115,"pct_empleados":38,"pct_cuentapropia":46,"pct_agricultura":8,"pct_comercio":8,"pct_manufactura":0,"pct_construccion":8,"pct_transporte":15,"pct_alojamiento":8,"pct_sin_educacion":5,"pct_educ_superior":21,"brecha_educ":7,"pct_sin_seguro":7,"pct_sus":85,"pct_seguro_privado":4,"brecha_seguro":12,"pct_salud_publica":31,"pct_med_tradicional":5,"pct_automedicacion":19,"pct_remedios_caseros":30,"pct_viv_desocupada":0,"pct_alquiler":8,"pct_electricidad":100,"pct_sin_electricidad":0,"pct_agua_red":75,"pct_alcantarillado":0,"pct_camara_septica":0,"pct_pozo_ciego":0,"pct_sin_desague":58,"pct_gas_red":0,"pct_gas_garrafa":92,"pct_lena_guano":8,"pct_basura_formal":0,"pct_basura_quema":17,"pct_basura_informal":83,"pct_internet":92,"pct_celular":92,"pct_televisor":75}},{"type":"Feature","geometry":{"type":"Polygon","coordinates":[[[-65.54195,-19.31816],[-65.54145,-19.31809],[-65.54131,-19.31888],[-65.54182,-19.31897],[-65.54195,-19.31816]]]},"properties":{"n":"SAN FELIPE DE COLAVI","p":17,"personas_x_ha":35,"masculinidad":143,"pct_menor20":53,"pct_60mas":12,"pct_migrante":24,"dependencia_econ":143,"pct_empleados":29,"pct_cuentapropia":71,"pct_agricultura":0,"pct_comercio":14,"pct_manufactura":0,"pct_construccion":0,"pct_transporte":0,"pct_alojamiento":0,"pct_sin_educacion":25,"pct_educ_superior":25,"brecha_educ":-50,"pct_sin_seguro":12,"pct_sus":82,"pct_seguro_privado":0,"brecha_seguro":-4,"pct_salud_publica":25,"pct_med_tradicional":13,"pct_automedicacion":20,"pct_remedios_caseros":31,"pct_viv_desocupada":0,"pct_alquiler":0,"pct_electricidad":86,"pct_sin_electricidad":14,"pct_agua_red":86,"pct_alcantarillado":0,"pct_camara_septica":0,"pct_pozo_ciego":0,"pct_sin_desague":100,"pct_gas_red":0,"pct_gas_garrafa":43,"pct_lena_guano":57,"pct_basura_formal":0,"pct_basura_quema":57,"pct_basura_informal":43,"pct_internet":86,"pct_celular":86,"pct_televisor":43}},{"type":"Feature","geometry":{"type":"Polygon","coordinates":[[[-65.54027,-19.31995],[-65.54034,-19.32024],[-65.5403,-19.32051],[-65.54046,-19.32055],[-65.54059,-19.32034],[-65.5406,-19.32008],[-65.54088,-19.31995],[-65.54065,-19.31966],[-65.54047,-19.31972],[-65.54027,-19.31995]]]},"properties":{"n":"SAN FELIPE DE COLAVI","p":17,"personas_x_ha":50,"masculinidad":70,"pct_menor20":24,"pct_60mas":12,"pct_migrante":29,"dependencia_econ":55,"pct_empleados":18,"pct_cuentapropia":64,"pct_agricultura":18,"pct_comercio":9,"pct_manufactura":0,"pct_construccion":0,"pct_transporte":0,"pct_alojamiento":9,"pct_sin_educacion":15,"pct_educ_superior":38,"brecha_educ":22,"pct_sin_seguro":24,"pct_sus":76,"pct_seguro_privado":0,"brecha_seguro":33,"pct_salud_publica":25,"pct_med_tradicional":2,"pct_automedicacion":19,"pct_remedios_caseros":23,"pct_viv_desocupada":8,"pct_alquiler":9,"pct_electricidad":100,"pct_sin_electricidad":0,"pct_agua_red":73,"pct_alcantarillado":9,"pct_camara_septica":0,"pct_pozo_ciego":0,"pct_sin_desague":91,"pct_gas_red":0,"pct_gas_garrafa":82,"pct_lena_guano":18,"pct_basura_formal":0,"pct_basura_quema":18,"pct_basura_informal":55,"pct_internet":55,"pct_celular":82,"pct_televisor":45}},{"type":"Feature","geometry":{"type":"Polygon","coordinates":[[[-65.54222,-19.31997],[-65.54168,-19.31987],[-65.5416,-19.32003],[-65.54166,-19.32015],[-65.54221,-19.32005],[-65.54222,-19.31997]]]},"properties":{"n":"SAN FELIPE DE COLAVI","p":17,"personas_x_ha":151,"masculinidad":143,"pct_menor20":41,"pct_60mas":12,"pct_migrante":6,"dependencia_econ":143,"pct_empleados":29,"pct_cuentapropia":57,"pct_agricultura":29,"pct_comercio":0,"pct_manufactura":0,"pct_construccion":0,"pct_transporte":0,"pct_alojamiento":0,"pct_sin_educacion":10,"pct_educ_superior":10,"brecha_educ":-5,"pct_sin_seguro":35,"pct_sus":65,"pct_seguro_privado":0,"brecha_seguro":-13,"pct_salud_publica":33,"pct_med_tradicional":3,"pct_automedicacion":5,"pct_remedios_caseros":31,"pct_viv_desocupada":33,"pct_alquiler":0,"pct_electricidad":100,"pct_sin_electricidad":0,"pct_agua_red":100,"pct_alcantarillado":0,"pct_camara_septica":0,"pct_pozo_ciego":0,"pct_sin_desague":50,"pct_gas_red":0,"pct_gas_garrafa":100,"pct_lena_guano":0,"pct_basura_formal":0,"pct_basura_quema":17,"pct_basura_informal":83,"pct_internet":17,"pct_celular":100,"pct_televisor":67}},{"type":"Feature","geometry":{"type":"Polygon","coordinates":[[[-65.5409,-19.3208],[-65.54082,-19.32088],[-65.54099,-19.32113],[-65.54084,-19.32133],[-65.54096,-19.3215],[-65.54103,-19.32145],[-65.5412,-19.32152],[-65.54132,-19.32135],[-65.54121,-19.32116],[-65.54126,-19.32112],[-65.5409,-19.3208]]]},"properties":{"n":"SAN FELIPE DE COLAVI","p":31,"personas_x_ha":138,"masculinidad":82,"pct_menor20":58,"pct_60mas":10,"pct_migrante":13,"dependencia_econ":288,"pct_empleados":0,"pct_cuentapropia":75,"pct_agricultura":0,"pct_comercio":12,"pct_manufactura":0,"pct_construccion":12,"pct_transporte":0,"pct_alojamiento":12,"pct_sin_educacion":29,"pct_educ_superior":7,"brecha_educ":-38,"pct_sin_seguro":6,"pct_sus":94,"pct_seguro_privado":0,"brecha_seguro":-12,"pct_salud_publica":32,"pct_med_tradicional":15,"pct_automedicacion":14,"pct_remedios_caseros":29,"pct_viv_desocupada":0,"pct_alquiler":0,"pct_electricidad":60,"pct_sin_electricidad":10,"pct_agua_red":100,"pct_alcantarillado":10,"pct_camara_septica":0,"pct_pozo_ciego":0,"pct_sin_desague":80,"pct_gas_red":0,"pct_gas_garrafa":50,"pct_lena_guano":50,"pct_basura_formal":0,"pct_basura_quema":50,"pct_basura_informal":50,"pct_internet":70,"pct_celular":100,"pct_televisor":50}},{"type":"Feature","geometry":{"type":"Polygon","coordinates":[[[-65.54026,-19.31985],[-65.54056,-19.31959],[-65.54045,-19.31944],[-65.54006,-19.3197],[-65.54018,-19.32012],[-65.53985,-19.32019],[-65.53996,-19.32045],[-65.54019,-19.32051],[-65.54026,-19.31985]]]},"properties":{"n":"SAN FELIPE DE COLAVI","p":18,"personas_x_ha":68,"masculinidad":200,"pct_menor20":6,"pct_60mas":0,"pct_migrante":50,"dependencia_econ":100,"pct_empleados":11,"pct_cuentapropia":56,"pct_agricultura":0,"pct_comercio":0,"pct_manufactura":0,"pct_construccion":0,"pct_transporte":11,"pct_alojamiento":0,"pct_sin_educacion":0,"pct_educ_superior":29,"brecha_educ":-50,"pct_sin_seguro":39,"pct_sus":33,"pct_seguro_privado":0,"brecha_seguro":-42,"pct_salud_publica":29,"pct_med_tradicional":7,"pct_automedicacion":20,"pct_remedios_caseros":29,"pct_viv_desocupada":14,"pct_alquiler":0,"pct_electricidad":100,"pct_sin_electricidad":0,"pct_agua_red":100,"pct_alcantarillado":0,"pct_camara_septica":0,"pct_pozo_ciego":0,"pct_sin_desague":100,"pct_gas_red":0,"pct_gas_garrafa":100,"pct_lena_guano":0,"pct_basura_formal":0,"pct_basura_quema":20,"pct_basura_informal":80,"pct_internet":100,"pct_celular":100,"pct_televisor":60}},{"type":"Feature","geometry":{"type":"Polygon","coordinates":[[[-65.54223,-19.32022],[-65.54227,-19.32029],[-65.5421,-19.3204],[-65.54228,-19.32059],[-65.54252,-19.3204],[-65.54238,-19.32014],[-65.54218,-19.32008],[-65.5419,-19.32014],[-65.54197,-19.32027],[-65.54223,-19.32022]]]},"properties":{"n":"SAN FELIPE DE COLAVI","p":20,"personas_x_ha":115,"masculinidad":100,"pct_menor20":45,"pct_60mas":10,"pct_migrante":45,"dependencia_econ":300,"pct_empleados":0,"pct_cuentapropia":100,"pct_agricultura":20,"pct_comercio":0,"pct_manufactura":0,"pct_construccion":0,"pct_transporte":0,"pct_alojamiento":20,"pct_sin_educacion":0,"pct_educ_superior":36,"brecha_educ":-10,"pct_sin_seguro":5,"pct_sus":95,"pct_seguro_privado":0,"brecha_seguro":10,"pct_salud_publica":24,"pct_med_tradicional":15,"pct_automedicacion":20,"pct_remedios_caseros":21,"pct_viv_desocupada":0,"pct_alquiler":14,"pct_electricidad":100,"pct_sin_electricidad":0,"pct_agua_red":0,"pct_alcantarillado":14,"pct_camara_septica":0,"pct_pozo_ciego":14,"pct_sin_desague":71,"pct_gas_red":0,"pct_gas_garrafa":86,"pct_lena_guano":14,"pct_basura_formal":0,"pct_basura_quema":29,"pct_basura_informal":71,"pct_internet":86,"pct_celular":71,"pct_televisor":57}},{"type":"Feature","geometry":{"type":"Polygon","coordinates":[[[-65.54183,-19.32015],[-65.54122,-19.32032],[-65.54093,-19.32069],[-65.54094,-19.32081],[-65.54138,-19.32072],[-65.54146,-19.32056],[-65.54173,-19.32054],[-65.54186,-19.32042],[-65.54183,-19.32015]]]},"properties":{"n":"SAN FELIPE DE COLAVI","p":24,"personas_x_ha":69,"masculinidad":71,"pct_menor20":42,"pct_60mas":17,"pct_migrante":29,"dependencia_econ":500,"pct_empleados":25,"pct_cuentapropia":50,"pct_agricultura":25,"pct_comercio":25,"pct_manufactura":0,"pct_construccion":0,"pct_transporte":0,"pct_alojamiento":0,"pct_sin_educacion":29,"pct_educ_superior":7,"brecha_educ":-50,"pct_sin_seguro":8,"pct_sus":46,"pct_seguro_privado":0,"brecha_seguro":-14,"pct_salud_publica":32,"pct_med_tradicional":8,"pct_automedicacion":17,"pct_remedios_caseros":25,"pct_viv_desocupada":0,"pct_alquiler":0,"pct_electricidad":100,"pct_sin_electricidad":0,"pct_agua_red":77,"pct_alcantarillado":0,"pct_camara_septica":0,"pct_pozo_ciego":8,"pct_sin_desague":69,"pct_gas_red":0,"pct_gas_garrafa":92,"pct_lena_guano":8,"pct_basura_formal":8,"pct_basura_quema":31,"pct_basura_informal":54,"pct_internet":77,"pct_celular":100,"pct_televisor":62}},{"type":"Feature","geometry":{"type":"Polygon","coordinates":[[[-65.55215,-19.19991],[-65.55235,-19.19973],[-65.55294,-19.20034],[-65.55286,-19.20043],[-65.55254,-19.20028],[-65.55215,-19.19991]]]},"properties":{"n":"TACOBAMBA","p":19,"personas_x_ha":84,"masculinidad":138,"pct_menor20":47,"pct_60mas":16,"pct_migrante":16,"dependencia_econ":90,"pct_empleados":30,"pct_cuentapropia":40,"pct_agricultura":60,"pct_comercio":10,"pct_manufactura":0,"pct_construccion":0,"pct_transporte":0,"pct_alojamiento":0,"pct_sin_educacion":10,"pct_educ_superior":40,"brecha_educ":25,"pct_sin_seguro":0,"pct_sus":83,"pct_seguro_privado":0,"brecha_seguro":0,"pct_salud_publica":36,"pct_med_tradicional":16,"pct_automedicacion":5,"pct_remedios_caseros":25,"pct_viv_desocupada":44,"pct_alquiler":20,"pct_electricidad":90,"pct_sin_electricidad":10,"pct_agua_red":70,"pct_alcantarillado":40,"pct_camara_septica":0,"pct_pozo_ciego":0,"pct_sin_desague":60,"pct_gas_red":0,"pct_gas_garrafa":80,"pct_lena_guano":20,"pct_basura_formal":40,"pct_basura_quema":20,"pct_basura_informal":30,"pct_internet":80,"pct_celular":90,"pct_televisor":40}},{"type":"Feature","geometry":{"type":"Polygon","coordinates":[[[-65.55181,-19.20069],[-65.55158,-19.2005],[-65.55173,-19.2003],[-65.55153,-19.20018],[-65.55139,-19.20038],[-65.55129,-19.20038],[-65.55122,-19.20059],[-65.55148,-19.2009],[-65.55181,-19.20069]]]},"properties":{"n":"TACOBAMBA","p":18,"personas_x_ha":73,"masculinidad":38,"pct_menor20":17,"pct_60mas":17,"pct_migrante":56,"dependencia_econ":29,"pct_empleados":64,"pct_cuentapropia":29,"pct_agricultura":21,"pct_comercio":0,"pct_manufactura":7,"pct_construccion":0,"pct_transporte":7,"pct_alojamiento":7,"pct_sin_educacion":13,"pct_educ_superior":40,"brecha_educ":-50,"pct_sin_seguro":22,"pct_sus":72,"pct_seguro_privado":0,"brecha_seguro":25,"pct_salud_publica":27,"pct_med_tradicional":2,"pct_automedicacion":9,"pct_remedios_caseros":27,"pct_viv_desocupada":0,"pct_alquiler":50,"pct_electricidad":93,"pct_sin_electricidad":7,"pct_agua_red":86,"pct_alcantarillado":71,"pct_camara_septica":7,"pct_pozo_ciego":0,"pct_sin_desague":21,"pct_gas_red":0,"pct_gas_garrafa":79,"pct_lena_guano":7,"pct_basura_formal":64,"pct_basura_quema":21,"pct_basura_informal":14,"pct_internet":86,"pct_celular":100,"pct_televisor":29}},{"type":"Feature","geometry":{"type":"Polygon","coordinates":[[[-65.5517,-19.1999],[-65.55189,-19.2],[-65.55177,-19.20025],[-65.55156,-19.20014],[-65.5517,-19.1999]]]},"properties":{"n":"TACOBAMBA","p":15,"personas_x_ha":205,"masculinidad":88,"pct_menor20":27,"pct_60mas":20,"pct_migrante":47,"dependencia_econ":33,"pct_empleados":67,"pct_cuentapropia":0,"pct_agricultura":11,"pct_comercio":0,"pct_manufactura":11,"pct_construccion":0,"pct_transporte":0,"pct_alojamiento":0,"pct_sin_educacion":0,"pct_educ_superior":89,"brecha_educ":0,"pct_sin_seguro":0,"pct_sus":82,"pct_seguro_privado":9,"brecha_seguro":0,"pct_salud_publica":34,"pct_med_tradicional":3,"pct_automedicacion":20,"pct_remedios_caseros":23,"pct_viv_desocupada":0,"pct_alquiler":62,"pct_electricidad":100,"pct_sin_electricidad":0,"pct_agua_red":100,"pct_alcantarillado":100,"pct_camara_septica":0,"pct_pozo_ciego":0,"pct_sin_desague":0,"pct_gas_red":0,"pct_gas_garrafa":100,"pct_lena_guano":0,"pct_basura_formal":75,"pct_basura_quema":25,"pct_basura_informal":0,"pct_internet":62,"pct_celular":88,"pct_televisor":25}},{"type":"Feature","geometry":{"type":"Polygon","coordinates":[[[-65.55212,-19.20145],[-65.55174,-19.20082],[-65.55142,-19.201],[-65.55179,-19.20169],[-65.55212,-19.20145]]]},"properties":{"n":"TACOBAMBA","p":16,"personas_x_ha":50,"masculinidad":60,"pct_menor20":56,"pct_60mas":0,"pct_migrante":38,"dependencia_econ":167,"pct_empleados":33,"pct_cuentapropia":67,"pct_agricultura":50,"pct_comercio":0,"pct_manufactura":17,"pct_construccion":0,"pct_transporte":0,"pct_alojamiento":0,"pct_sin_educacion":14,"pct_educ_superior":29,"brecha_educ":-30,"pct_sin_seguro":19,"pct_sus":81,"pct_seguro_privado":0,"brecha_seguro":23,"pct_salud_publica":22,"pct_med_tradicional":6,"pct_automedicacion":25,"pct_remedios_caseros":23,"pct_viv_desocupada":8,"pct_alquiler":0,"pct_electricidad":86,"pct_sin_electricidad":0,"pct_agua_red":29,"pct_alcantarillado":14,"pct_camara_septica":0,"pct_pozo_ciego":14,"pct_sin_desague":71,"pct_gas_red":0,"pct_gas_garrafa":57,"pct_lena_guano":43,"pct_basura_formal":14,"pct_basura_quema":0,"pct_basura_informal":71,"pct_internet":71,"pct_celular":100,"pct_televisor":14}},{"type":"Feature","geometry":{"type":"Polygon","coordinates":[[[-65.55194,-19.20003],[-65.55231,-19.20022],[-65.55227,-19.20035],[-65.55211,-19.20022],[-65.55226,-19.20038],[-65.55188,-19.20067],[-65.55167,-19.20049],[-65.55194,-19.20003]]]},"properties":{"n":"TACOBAMBA","p":21,"personas_x_ha":82,"masculinidad":91,"pct_menor20":10,"pct_60mas":29,"pct_migrante":14,"dependencia_econ":110,"pct_empleados":50,"pct_cuentapropia":40,"pct_agricultura":30,"pct_comercio":10,"pct_manufactura":0,"pct_construccion":10,"pct_transporte":0,"pct_alojamiento":10,"pct_sin_educacion":37,"pct_educ_superior":21,"brecha_educ":-68,"pct_sin_seguro":14,"pct_sus":71,"pct_seguro_privado":0,"brecha_seguro":11,"pct_salud_publica":28,"pct_med_tradicional":10,"pct_automedicacion":15,"pct_remedios_caseros":28,"pct_viv_desocupada":0,"pct_alquiler":6,"pct_electricidad":82,"pct_sin_electricidad":18,"pct_agua_red":65,"pct_alcantarillado":53,"pct_camara_septica":0,"pct_pozo_ciego":0,"pct_sin_desague":47,"pct_gas_red":0,"pct_gas_garrafa":71,"pct_lena_guano":24,"pct_basura_formal":41,"pct_basura_quema":24,"pct_basura_informal":29,"pct_internet":76,"pct_celular":88,"pct_televisor":29}}]}