{"type":"FeatureCollection","features":[{"type":"Feature","geometry":{"type":"Polygon","coordinates":[[[-66.18791,-19.2776],[-66.188,-19.27737],[-66.18728,-19.27727],[-66.18732,-19.27764],[-66.18791,-19.2776]]]},"properties":{"n":"CAHUAYO","p":17,"personas_x_ha":69,"masculinidad":183,"pct_menor20":0,"pct_60mas":12,"pct_migrante":6,"dependencia_econ":55,"pct_empleados":0,"pct_cuentapropia":100,"pct_agricultura":36,"pct_comercio":9,"pct_manufactura":9,"pct_construccion":0,"pct_transporte":0,"pct_alojamiento":0,"pct_educ_superior":12,"brecha_educ":-41,"pct_sin_seguro":71,"pct_seguro_privado":0,"brecha_seguro":6,"pct_med_tradicional":19,"pct_automedicacion":0,"pct_remedios_caseros":19,"pct_viv_desocupada":17,"pct_alquiler":0,"pct_electricidad":67,"pct_agua_red":33,"pct_alcantarillado":0,"pct_gas_red":0,"pct_gas_garrafa":89,"pct_lena_guano":89,"pct_basura_formal":0,"pct_basura_quema":89,"pct_basura_informal":0,"pct_internet":89,"pct_celular":89,"pct_televisor":11}},{"type":"Feature","geometry":{"type":"Polygon","coordinates":[[[-66.06613,-19.38795],[-66.06469,-19.3873],[-66.06445,-19.38677],[-66.06384,-19.38603],[-66.06353,-19.38583],[-66.06322,-19.38592],[-66.06303,-19.38586],[-66.06317,-19.38551],[-66.06336,-19.3855],[-66.06339,-19.3856],[-66.06342,-19.38547],[-66.06356,-19.38547],[-66.06364,-19.38527],[-66.06375,-19.38532],[-66.06368,-19.3855],[-66.06368,-19.38556],[-66.06376,-19.38533],[-66.06387,-19.38541],[-66.06377,-19.38562],[-66.06388,-19.38542],[-66.06423,-19.38568],[-66.06473,-19.38612],[-66.06461,-19.38631],[-66.06467,-19.38645],[-66.06465,-19.38635],[-66.06479,-19.38619],[-66.06493,-19.38629],[-66.06625,-19.38782],[-66.06613,-19.38795]]]},"properties":{"n":"URMIRI","p":80,"personas_x_ha":31,"masculinidad":116,"pct_menor20":29,"pct_60mas":20,"pct_migrante":24,"dependencia_econ":54,"pct_empleados":14,"pct_cuentapropia":78,"pct_agricultura":40,"pct_comercio":28,"pct_manufactura":4,"pct_construccion":10,"pct_transporte":2,"pct_alojamiento":2,"pct_educ_superior":16,"brecha_educ":-32,"pct_sin_seguro":17,"pct_seguro_privado":0,"brecha_seguro":0,"pct_med_tradicional":14,"pct_automedicacion":15,"pct_remedios_caseros":32,"pct_viv_desocupada":7,"pct_alquiler":0,"pct_electricidad":81,"pct_agua_red":44,"pct_alcantarillado":5,"pct_gas_red":0,"pct_gas_garrafa":65,"pct_lena_guano":65,"pct_basura_formal":0,"pct_basura_quema":74,"pct_basura_informal":14,"pct_internet":74,"pct_celular":88,"pct_televisor":37}},{"type":"Feature","geometry":{"type":"Polygon","coordinates":[[[-66.06342,-19.38544],[-66.06313,-19.38545],[-66.06311,-19.38525],[-66.06325,-19.38503],[-66.0636,-19.38524],[-66.06342,-19.38544]]]},"properties":{"n":"URMIRI","p":15,"personas_x_ha":92,"masculinidad":150,"pct_menor20":20,"pct_60mas":7,"pct_migrante":33,"dependencia_econ":50,"pct_empleados":0,"pct_cuentapropia":80,"pct_agricultura":50,"pct_comercio":50,"pct_manufactura":0,"pct_construccion":0,"pct_transporte":0,"pct_alojamiento":0,"pct_educ_superior":0,"brecha_educ":-26,"pct_sin_seguro":53,"pct_seguro_privado":0,"brecha_seguro":33,"pct_med_tradicional":25,"pct_automedicacion":16,"pct_remedios_caseros":25,"pct_viv_desocupada":0,"pct_alquiler":0,"pct_electricidad":100,"pct_agua_red":100,"pct_alcantarillado":14,"pct_gas_red":0,"pct_gas_garrafa":100,"pct_lena_guano":100,"pct_basura_formal":0,"pct_basura_quema":71,"pct_basura_informal":29,"pct_internet":71,"pct_celular":71,"pct_televisor":14}},{"type":"Feature","geometry":{"type":"Polygon","coordinates":[[[-66.06269,-19.38514],[-66.06212,-19.38508],[-66.06228,-19.38473],[-66.06222,-19.38466],[-66.06232,-19.3846],[-66.06252,-19.3848],[-66.06247,-19.38461],[-66.06263,-19.38442],[-66.06287,-19.38457],[-66.06303,-19.38484],[-66.06269,-19.38514]]]},"properties":{"n":"URMIRI","p":51,"personas_x_ha":111,"masculinidad":76,"pct_menor20":53,"pct_60mas":8,"pct_migrante":29,"dependencia_econ":155,"pct_empleados":40,"pct_cuentapropia":60,"pct_agricultura":35,"pct_comercio":20,"pct_manufactura":0,"pct_construccion":25,"pct_transporte":5,"pct_alojamiento":0,"pct_educ_superior":8,"brecha_educ":-8,"pct_sin_seguro":24,"pct_seguro_privado":2,"brecha_seguro":-25,"pct_med_tradicional":23,"pct_automedicacion":25,"pct_remedios_caseros":26,"pct_viv_desocupada":2,"pct_alquiler":0,"pct_electricidad":100,"pct_agua_red":71,"pct_alcantarillado":0,"pct_gas_red":0,"pct_gas_garrafa":50,"pct_lena_guano":50,"pct_basura_formal":0,"pct_basura_quema":79,"pct_basura_informal":29,"pct_internet":71,"pct_celular":100,"pct_televisor":50}},{"type":"Feature","geometry":{"type":"Polygon","coordinates":[[[-66.05602,-19.38994],[-66.05608,-19.38962],[-66.05637,-19.38932],[-66.05655,-19.3895],[-66.05607,-19.38997],[-66.05602,-19.38994]]]},"properties":{"n":"URMIRI PAMPA","p":21,"personas_x_ha":145,"masculinidad":200,"pct_menor20":19,"pct_60mas":10,"pct_migrante":0,"dependencia_econ":75,"pct_empleados":0,"pct_cuentapropia":83,"pct_agricultura":117,"pct_comercio":0,"pct_manufactura":0,"pct_construccion":0,"pct_transporte":0,"pct_alojamiento":0,"pct_educ_superior":0,"brecha_educ":-63,"pct_sin_seguro":29,"pct_seguro_privado":0,"brecha_seguro":43,"pct_med_tradicional":22,"pct_automedicacion":18,"pct_remedios_caseros":31,"pct_viv_desocupada":14,"pct_alquiler":0,"pct_electricidad":100,"pct_agua_red":0,"pct_alcantarillado":0,"pct_gas_red":0,"pct_gas_garrafa":20,"pct_lena_guano":20,"pct_basura_formal":0,"pct_basura_quema":40,"pct_basura_informal":0,"pct_internet":100,"pct_celular":100,"pct_televisor":0}},{"type":"Feature","geometry":{"type":"Polygon","coordinates":[[[-66.0568,-19.38925],[-66.0566,-19.38946],[-66.05639,-19.38926],[-66.05661,-19.38907],[-66.0568,-19.38925]]]},"properties":{"n":"URMIRI PAMPA","p":19,"personas_x_ha":196,"masculinidad":138,"pct_menor20":37,"pct_60mas":16,"pct_migrante":32,"dependencia_econ":280,"pct_empleados":0,"pct_cuentapropia":80,"pct_agricultura":100,"pct_comercio":0,"pct_manufactura":0,"pct_construccion":0,"pct_transporte":0,"pct_alojamiento":0,"pct_educ_superior":17,"brecha_educ":0,"pct_sin_seguro":37,"pct_seguro_privado":0,"brecha_seguro":42,"pct_med_tradicional":23,"pct_automedicacion":23,"pct_remedios_caseros":23,"pct_viv_desocupada":0,"pct_alquiler":0,"pct_electricidad":86,"pct_agua_red":0,"pct_alcantarillado":0,"pct_gas_red":0,"pct_gas_garrafa":0,"pct_lena_guano":0,"pct_basura_formal":0,"pct_basura_quema":57,"pct_basura_informal":0,"pct_internet":71,"pct_celular":71,"pct_televisor":0}}]}