{"type":"FeatureCollection","features":[{"type":"Feature","geometry":{"type":"Polygon","coordinates":[[[-66.34016,-21.79815],[-66.33999,-21.7982],[-66.33991,-21.79794],[-66.34001,-21.79791],[-66.34016,-21.79815]]]},"properties":{"n":"LA CIENEGA","p":15,"personas_x_ha":337,"masculinidad":67,"pct_menor20":33,"pct_60mas":20,"pct_migrante":27,"dependencia_econ":150,"pct_empleados":33,"pct_cuentapropia":50,"pct_agricultura":17,"pct_comercio":0,"pct_manufactura":0,"pct_construccion":17,"pct_transporte":0,"pct_alojamiento":0,"pct_educ_superior":10,"brecha_educ":-25,"pct_sin_seguro":7,"pct_seguro_privado":0,"brecha_seguro":17,"pct_med_tradicional":0,"pct_automedicacion":3,"pct_remedios_caseros":41,"pct_viv_desocupada":0,"pct_alquiler":14,"pct_electricidad":0,"pct_agua_red":86,"pct_alcantarillado":0,"pct_gas_red":0,"pct_gas_garrafa":29,"pct_lena_guano":29,"pct_basura_formal":0,"pct_basura_quema":0,"pct_basura_informal":0,"pct_internet":86,"pct_celular":86,"pct_televisor":14}},{"type":"Feature","geometry":{"type":"Polygon","coordinates":[[[-66.23912,-21.76552],[-66.2387,-21.76578],[-66.23855,-21.76575],[-66.2387,-21.76544],[-66.23906,-21.76544],[-66.23912,-21.76552]]]},"properties":{"n":"MOJINETE","p":37,"personas_x_ha":250,"masculinidad":76,"pct_menor20":35,"pct_60mas":8,"pct_migrante":43,"dependencia_econ":147,"pct_empleados":20,"pct_cuentapropia":53,"pct_agricultura":53,"pct_comercio":20,"pct_manufactura":7,"pct_construccion":0,"pct_transporte":7,"pct_alojamiento":0,"pct_educ_superior":25,"brecha_educ":-21,"pct_sin_seguro":16,"pct_seguro_privado":3,"brecha_seguro":4,"pct_med_tradicional":6,"pct_automedicacion":9,"pct_remedios_caseros":29,"pct_viv_desocupada":8,"pct_alquiler":25,"pct_electricidad":100,"pct_agua_red":100,"pct_alcantarillado":92,"pct_gas_red":0,"pct_gas_garrafa":92,"pct_lena_guano":92,"pct_basura_formal":100,"pct_basura_quema":0,"pct_basura_informal":0,"pct_internet":83,"pct_celular":83,"pct_televisor":58}},{"type":"Feature","geometry":{"type":"Polygon","coordinates":[[[-66.23869,-21.7651],[-66.23844,-21.76558],[-66.23853,-21.76561],[-66.23869,-21.7651]]]},"properties":{"n":"MOJINETE","p":28,"personas_x_ha":495,"masculinidad":65,"pct_menor20":50,"pct_60mas":0,"pct_migrante":75,"dependencia_econ":180,"pct_empleados":40,"pct_cuentapropia":50,"pct_agricultura":20,"pct_comercio":20,"pct_manufactura":0,"pct_construccion":30,"pct_transporte":0,"pct_alojamiento":0,"pct_educ_superior":27,"brecha_educ":-20,"pct_sin_seguro":26,"pct_seguro_privado":4,"brecha_seguro":6,"pct_med_tradicional":26,"pct_automedicacion":1,"pct_remedios_caseros":29,"pct_viv_desocupada":0,"pct_alquiler":14,"pct_electricidad":100,"pct_agua_red":86,"pct_alcantarillado":71,"pct_gas_red":0,"pct_gas_garrafa":86,"pct_lena_guano":86,"pct_basura_formal":100,"pct_basura_quema":0,"pct_basura_informal":0,"pct_internet":71,"pct_celular":86,"pct_televisor":71}},{"type":"Feature","geometry":{"type":"Polygon","coordinates":[[[-66.2378,-21.76681],[-66.23785,-21.76609],[-66.23746,-21.76612],[-66.23752,-21.76682],[-66.2378,-21.76681]]]},"properties":{"n":"MOJINETE","p":20,"personas_x_ha":65,"masculinidad":100,"pct_menor20":25,"pct_60mas":10,"pct_migrante":60,"dependencia_econ":43,"pct_empleados":50,"pct_cuentapropia":50,"pct_agricultura":14,"pct_comercio":0,"pct_manufactura":14,"pct_construccion":21,"pct_transporte":7,"pct_alojamiento":0,"pct_educ_superior":53,"brecha_educ":23,"pct_sin_seguro":30,"pct_seguro_privado":0,"brecha_seguro":0,"pct_med_tradicional":0,"pct_automedicacion":20,"pct_remedios_caseros":26,"pct_viv_desocupada":23,"pct_alquiler":30,"pct_electricidad":80,"pct_agua_red":80,"pct_alcantarillado":80,"pct_gas_red":10,"pct_gas_garrafa":70,"pct_lena_guano":70,"pct_basura_formal":80,"pct_basura_quema":0,"pct_basura_informal":0,"pct_internet":100,"pct_celular":100,"pct_televisor":60}},{"type":"Feature","geometry":{"type":"Polygon","coordinates":[[[-66.23965,-21.76497],[-66.23923,-21.76491],[-66.23916,-21.76537],[-66.23964,-21.76539],[-66.23965,-21.76497]]]},"properties":{"n":"MOJINETE","p":18,"personas_x_ha":78,"masculinidad":125,"pct_menor20":50,"pct_60mas":6,"pct_migrante":44,"dependencia_econ":200,"pct_empleados":67,"pct_cuentapropia":33,"pct_agricultura":17,"pct_comercio":0,"pct_manufactura":0,"pct_construccion":50,"pct_transporte":0,"pct_alojamiento":0,"pct_educ_superior":22,"brecha_educ":-17,"pct_sin_seguro":0,"pct_seguro_privado":0,"brecha_seguro":0,"pct_med_tradicional":11,"pct_automedicacion":14,"pct_remedios_caseros":28,"pct_viv_desocupada":0,"pct_alquiler":29,"pct_electricidad":86,"pct_agua_red":71,"pct_alcantarillado":86,"pct_gas_red":0,"pct_gas_garrafa":57,"pct_lena_guano":57,"pct_basura_formal":71,"pct_basura_quema":29,"pct_basura_informal":0,"pct_internet":86,"pct_celular":100,"pct_televisor":57}},{"type":"Feature","geometry":{"type":"Polygon","coordinates":[[[-66.23919,-21.7649],[-66.23891,-21.76485],[-66.23884,-21.76512],[-66.23871,-21.7651],[-66.23866,-21.76534],[-66.2391,-21.76538],[-66.23919,-21.7649]]]},"properties":{"n":"MOJINETE","p":35,"personas_x_ha":164,"masculinidad":84,"pct_menor20":34,"pct_60mas":9,"pct_migrante":63,"dependencia_econ":120,"pct_empleados":10,"pct_cuentapropia":70,"pct_agricultura":30,"pct_comercio":20,"pct_manufactura":10,"pct_construccion":10,"pct_transporte":0,"pct_alojamiento":0,"pct_educ_superior":57,"brecha_educ":-13,"pct_sin_seguro":5,"pct_seguro_privado":0,"brecha_seguro":11,"pct_med_tradicional":10,"pct_automedicacion":12,"pct_remedios_caseros":29,"pct_viv_desocupada":0,"pct_alquiler":29,"pct_electricidad":100,"pct_agua_red":100,"pct_alcantarillado":100,"pct_gas_red":0,"pct_gas_garrafa":100,"pct_lena_guano":100,"pct_basura_formal":100,"pct_basura_quema":0,"pct_basura_informal":0,"pct_internet":57,"pct_celular":100,"pct_televisor":86}}]}