{"type":"FeatureCollection","features":[{"type":"Feature","geometry":{"type":"Polygon","coordinates":[[[-65.46512,-20.36846],[-65.46492,-20.36839],[-65.46471,-20.36878],[-65.46496,-20.36886],[-65.46512,-20.36846]]]},"properties":{"n":"CALCHA","p":16,"personas_x_ha":123,"masculinidad":78,"pct_menor20":31,"pct_60mas":12,"pct_migrante":44,"dependencia_econ":67,"pct_empleados":22,"pct_cuentapropia":22,"pct_agricultura":11,"pct_comercio":11,"pct_manufactura":11,"pct_construccion":11,"pct_transporte":11,"pct_alojamiento":0,"pct_sin_educacion":0,"pct_educ_superior":60,"brecha_educ":-20,"pct_sin_seguro":13,"pct_sus":87,"pct_seguro_privado":0,"brecha_seguro":29,"pct_salud_publica":30,"pct_med_tradicional":8,"pct_automedicacion":22,"pct_remedios_caseros":28,"pct_viv_desocupada":29,"pct_alquiler":0,"pct_electricidad":100,"pct_sin_electricidad":0,"pct_agua_red":25,"pct_alcantarillado":0,"pct_camara_septica":0,"pct_pozo_ciego":25,"pct_sin_desague":75,"pct_gas_red":0,"pct_gas_garrafa":75,"pct_lena_guano":25,"pct_basura_formal":25,"pct_basura_quema":50,"pct_basura_informal":0,"pct_internet":100,"pct_celular":100,"pct_televisor":50}},{"type":"Feature","geometry":{"type":"Polygon","coordinates":[[[-65.46823,-20.3517],[-65.46854,-20.35172],[-65.4688,-20.35139],[-65.46875,-20.35118],[-65.4681,-20.35114],[-65.46758,-20.35223],[-65.46796,-20.3524],[-65.46818,-20.35215],[-65.46809,-20.35209],[-65.46821,-20.35212],[-65.46848,-20.35179],[-65.46823,-20.35178],[-65.46823,-20.3517]]]},"properties":{"n":"CHALAVI","p":19,"personas_x_ha":22,"masculinidad":73,"pct_menor20":42,"pct_60mas":0,"pct_migrante":0,"dependencia_econ":111,"pct_empleados":22,"pct_cuentapropia":56,"pct_agricultura":78,"pct_comercio":0,"pct_manufactura":0,"pct_construccion":0,"pct_transporte":0,"pct_alojamiento":0,"pct_sin_educacion":9,"pct_educ_superior":9,"brecha_educ":-4,"pct_sin_seguro":47,"pct_sus":53,"pct_seguro_privado":0,"brecha_seguro":48,"pct_salud_publica":40,"pct_med_tradicional":4,"pct_automedicacion":12,"pct_remedios_caseros":38,"pct_viv_desocupada":8,"pct_alquiler":0,"pct_electricidad":88,"pct_sin_electricidad":12,"pct_agua_red":75,"pct_alcantarillado":12,"pct_camara_septica":0,"pct_pozo_ciego":75,"pct_sin_desague":12,"pct_gas_red":0,"pct_gas_garrafa":50,"pct_lena_guano":50,"pct_basura_formal":0,"pct_basura_quema":100,"pct_basura_informal":0,"pct_internet":88,"pct_celular":88,"pct_televisor":62}},{"type":"Feature","geometry":{"type":"Polygon","coordinates":[[[-65.46959,-20.35106],[-65.46975,-20.34987],[-65.4696,-20.34986],[-65.46943,-20.35],[-65.4693,-20.35164],[-65.46995,-20.35188],[-65.47026,-20.35113],[-65.46959,-20.35106]]]},"properties":{"n":"CHALAVI","p":17,"personas_x_ha":17,"masculinidad":143,"pct_menor20":29,"pct_60mas":12,"pct_migrante":12,"dependencia_econ":33,"pct_empleados":33,"pct_cuentapropia":50,"pct_agricultura":58,"pct_comercio":0,"pct_manufactura":0,"pct_construccion":42,"pct_transporte":0,"pct_alojamiento":0,"pct_sin_educacion":8,"pct_educ_superior":0,"brecha_educ":17,"pct_sin_seguro":19,"pct_sus":62,"pct_seguro_privado":0,"brecha_seguro":-17,"pct_salud_publica":46,"pct_med_tradicional":0,"pct_automedicacion":0,"pct_remedios_caseros":41,"pct_viv_desocupada":14,"pct_alquiler":0,"pct_electricidad":100,"pct_sin_electricidad":0,"pct_agua_red":100,"pct_alcantarillado":20,"pct_camara_septica":0,"pct_pozo_ciego":80,"pct_sin_desague":0,"pct_gas_red":0,"pct_gas_garrafa":60,"pct_lena_guano":40,"pct_basura_formal":0,"pct_basura_quema":100,"pct_basura_informal":0,"pct_internet":60,"pct_celular":100,"pct_televisor":20}},{"type":"Feature","geometry":{"type":"Polygon","coordinates":[[[-65.45421,-20.37615],[-65.45368,-20.37703],[-65.4538,-20.37709],[-65.45377,-20.3772],[-65.45387,-20.3773],[-65.45387,-20.37745],[-65.45402,-20.37748],[-65.45415,-20.37708],[-65.45456,-20.37638],[-65.45421,-20.37615]]]},"properties":{"n":"PUCA PAMPA","p":21,"personas_x_ha":35,"masculinidad":133,"pct_menor20":43,"pct_60mas":10,"pct_migrante":29,"dependencia_econ":73,"pct_empleados":0,"pct_cuentapropia":82,"pct_agricultura":82,"pct_comercio":9,"pct_manufactura":0,"pct_construccion":9,"pct_transporte":0,"pct_alojamiento":0,"pct_sin_educacion":8,"pct_educ_superior":0,"brecha_educ":-67,"pct_sin_seguro":78,"pct_sus":17,"pct_seguro_privado":0,"brecha_seguro":10,"pct_salud_publica":23,"pct_med_tradicional":21,"pct_automedicacion":18,"pct_remedios_caseros":27,"pct_viv_desocupada":0,"pct_alquiler":0,"pct_electricidad":71,"pct_sin_electricidad":29,"pct_agua_red":71,"pct_alcantarillado":0,"pct_camara_septica":0,"pct_pozo_ciego":71,"pct_sin_desague":29,"pct_gas_red":0,"pct_gas_garrafa":71,"pct_lena_guano":29,"pct_basura_formal":0,"pct_basura_quema":100,"pct_basura_informal":0,"pct_internet":100,"pct_celular":100,"pct_televisor":43}},{"type":"Feature","geometry":{"type":"Polygon","coordinates":[[[-65.45542,-20.37505],[-65.4551,-20.37496],[-65.45495,-20.3754],[-65.45529,-20.3755],[-65.45542,-20.37505]]]},"properties":{"n":"PUCA PAMPA","p":26,"personas_x_ha":137,"masculinidad":117,"pct_menor20":23,"pct_60mas":4,"pct_migrante":27,"dependencia_econ":41,"pct_empleados":12,"pct_cuentapropia":65,"pct_agricultura":65,"pct_comercio":12,"pct_manufactura":0,"pct_construccion":18,"pct_transporte":0,"pct_alojamiento":0,"pct_sin_educacion":0,"pct_educ_superior":16,"brecha_educ":-6,"pct_sin_seguro":50,"pct_sus":50,"pct_seguro_privado":0,"brecha_seguro":-17,"pct_salud_publica":65,"pct_med_tradicional":5,"pct_automedicacion":10,"pct_remedios_caseros":20,"pct_viv_desocupada":11,"pct_alquiler":0,"pct_electricidad":38,"pct_sin_electricidad":62,"pct_agua_red":38,"pct_alcantarillado":0,"pct_camara_septica":0,"pct_pozo_ciego":88,"pct_sin_desague":12,"pct_gas_red":0,"pct_gas_garrafa":62,"pct_lena_guano":38,"pct_basura_formal":0,"pct_basura_quema":62,"pct_basura_informal":38,"pct_internet":50,"pct_celular":100,"pct_televisor":25}},{"type":"Feature","geometry":{"type":"Polygon","coordinates":[[[-65.45437,-20.37544],[-65.45377,-20.37618],[-65.454,-20.37632],[-65.45461,-20.37559],[-65.45437,-20.37544]]]},"properties":{"n":"PUCA PAMPA","p":40,"personas_x_ha":128,"masculinidad":74,"pct_menor20":18,"pct_60mas":20,"pct_migrante":15,"dependencia_econ":12,"pct_empleados":12,"pct_cuentapropia":66,"pct_agricultura":53,"pct_comercio":3,"pct_manufactura":22,"pct_construccion":16,"pct_transporte":0,"pct_alojamiento":0,"pct_sin_educacion":13,"pct_educ_superior":3,"brecha_educ":-33,"pct_sin_seguro":26,"pct_sus":69,"pct_seguro_privado":0,"brecha_seguro":2,"pct_salud_publica":43,"pct_med_tradicional":2,"pct_automedicacion":0,"pct_remedios_caseros":35,"pct_viv_desocupada":40,"pct_alquiler":0,"pct_electricidad":82,"pct_sin_electricidad":18,"pct_agua_red":82,"pct_alcantarillado":9,"pct_camara_septica":0,"pct_pozo_ciego":9,"pct_sin_desague":82,"pct_gas_red":0,"pct_gas_garrafa":27,"pct_lena_guano":73,"pct_basura_formal":0,"pct_basura_quema":100,"pct_basura_informal":0,"pct_internet":55,"pct_celular":73,"pct_televisor":73}},{"type":"Feature","geometry":{"type":"Polygon","coordinates":[[[-65.31869,-20.28956],[-65.31905,-20.28926],[-65.31897,-20.28913],[-65.31907,-20.28891],[-65.31902,-20.28914],[-65.3191,-20.28922],[-65.32031,-20.28832],[-65.32026,-20.28753],[-65.32009,-20.28736],[-65.3203,-20.28751],[-65.32037,-20.28823],[-65.32098,-20.28789],[-65.32092,-20.28741],[-65.32077,-20.28722],[-65.32048,-20.28714],[-65.32026,-20.28682],[-65.31975,-20.28702],[-65.31985,-20.28724],[-65.31926,-20.28797],[-65.31915,-20.28822],[-65.31864,-20.28838],[-65.31797,-20.28887],[-65.31777,-20.28935],[-65.31781,-20.28944],[-65.31797,-20.28944],[-65.31817,-20.28965],[-65.31869,-20.28956]]]},"properties":{"n":"TUSQUIÑA","p":78,"personas_x_ha":19,"masculinidad":81,"pct_menor20":45,"pct_60mas":14,"pct_migrante":17,"dependencia_econ":54,"pct_empleados":12,"pct_cuentapropia":56,"pct_agricultura":52,"pct_comercio":6,"pct_manufactura":2,"pct_construccion":10,"pct_transporte":4,"pct_alojamiento":2,"pct_sin_educacion":16,"pct_educ_superior":7,"brecha_educ":-11,"pct_sin_seguro":12,"pct_sus":88,"pct_seguro_privado":0,"brecha_seguro":0,"pct_salud_publica":25,"pct_med_tradicional":10,"pct_automedicacion":17,"pct_remedios_caseros":26,"pct_viv_desocupada":0,"pct_alquiler":0,"pct_electricidad":100,"pct_sin_electricidad":0,"pct_agua_red":36,"pct_alcantarillado":7,"pct_camara_septica":0,"pct_pozo_ciego":79,"pct_sin_desague":14,"pct_gas_red":7,"pct_gas_garrafa":50,"pct_lena_guano":43,"pct_basura_formal":0,"pct_basura_quema":93,"pct_basura_informal":0,"pct_internet":79,"pct_celular":79,"pct_televisor":86}},{"type":"Feature","geometry":{"type":"Polygon","coordinates":[[[-65.32747,-20.28527],[-65.32788,-20.28546],[-65.32798,-20.28518],[-65.32637,-20.28495],[-65.32631,-20.28507],[-65.3278,-20.2857],[-65.32789,-20.28551],[-65.32747,-20.28527]]]},"properties":{"n":"TUSQUIÑA","p":31,"personas_x_ha":48,"masculinidad":138,"pct_menor20":42,"pct_60mas":10,"pct_migrante":3,"dependencia_econ":55,"pct_empleados":35,"pct_cuentapropia":30,"pct_agricultura":35,"pct_comercio":20,"pct_manufactura":15,"pct_construccion":15,"pct_transporte":0,"pct_alojamiento":0,"pct_sin_educacion":6,"pct_educ_superior":28,"brecha_educ":-44,"pct_sin_seguro":0,"pct_sus":87,"pct_seguro_privado":0,"brecha_seguro":0,"pct_salud_publica":27,"pct_med_tradicional":11,"pct_automedicacion":25,"pct_remedios_caseros":29,"pct_viv_desocupada":0,"pct_alquiler":0,"pct_electricidad":89,"pct_sin_electricidad":11,"pct_agua_red":100,"pct_alcantarillado":0,"pct_camara_septica":0,"pct_pozo_ciego":44,"pct_sin_desague":22,"pct_gas_red":0,"pct_gas_garrafa":44,"pct_lena_guano":56,"pct_basura_formal":0,"pct_basura_quema":100,"pct_basura_informal":0,"pct_internet":100,"pct_celular":100,"pct_televisor":44}},{"type":"Feature","geometry":{"type":"Polygon","coordinates":[[[-65.3261,-20.287],[-65.32545,-20.28673],[-65.32531,-20.28704],[-65.32595,-20.28731],[-65.3261,-20.287]]]},"properties":{"n":"TUSQUIÑA","p":30,"personas_x_ha":105,"masculinidad":76,"pct_menor20":43,"pct_60mas":0,"pct_migrante":17,"dependencia_econ":500,"pct_empleados":60,"pct_cuentapropia":20,"pct_agricultura":0,"pct_comercio":0,"pct_manufactura":40,"pct_construccion":0,"pct_transporte":0,"pct_alojamiento":0,"pct_sin_educacion":0,"pct_educ_superior":17,"brecha_educ":-28,"pct_sin_seguro":10,"pct_sus":90,"pct_seguro_privado":0,"brecha_seguro":-5,"pct_salud_publica":29,"pct_med_tradicional":1,"pct_automedicacion":19,"pct_remedios_caseros":21,"pct_viv_desocupada":0,"pct_alquiler":0,"pct_electricidad":88,"pct_sin_electricidad":12,"pct_agua_red":88,"pct_alcantarillado":12,"pct_camara_septica":0,"pct_pozo_ciego":75,"pct_sin_desague":12,"pct_gas_red":0,"pct_gas_garrafa":75,"pct_lena_guano":25,"pct_basura_formal":0,"pct_basura_quema":100,"pct_basura_informal":0,"pct_internet":75,"pct_celular":88,"pct_televisor":50}},{"type":"Feature","geometry":{"type":"Polygon","coordinates":[[[-65.32771,-20.28575],[-65.32695,-20.28542],[-65.32678,-20.28574],[-65.32754,-20.28607],[-65.32771,-20.28575]]]},"properties":{"n":"TUSQUIÑA","p":24,"personas_x_ha":66,"masculinidad":118,"pct_menor20":38,"pct_60mas":4,"pct_migrante":21,"dependencia_econ":41,"pct_empleados":0,"pct_cuentapropia":82,"pct_agricultura":53,"pct_comercio":0,"pct_manufactura":12,"pct_construccion":6,"pct_transporte":6,"pct_alojamiento":0,"pct_sin_educacion":0,"pct_educ_superior":7,"brecha_educ":-16,"pct_sin_seguro":0,"pct_sus":100,"pct_seguro_privado":0,"brecha_seguro":0,"pct_salud_publica":80,"pct_med_tradicional":0,"pct_automedicacion":0,"pct_remedios_caseros":20,"pct_viv_desocupada":11,"pct_alquiler":0,"pct_electricidad":100,"pct_sin_electricidad":0,"pct_agua_red":100,"pct_alcantarillado":0,"pct_camara_septica":0,"pct_pozo_ciego":88,"pct_sin_desague":12,"pct_gas_red":0,"pct_gas_garrafa":100,"pct_lena_guano":0,"pct_basura_formal":0,"pct_basura_quema":100,"pct_basura_informal":0,"pct_internet":75,"pct_celular":100,"pct_televisor":50}},{"type":"Feature","geometry":{"type":"Polygon","coordinates":[[[-65.32379,-20.28614],[-65.32459,-20.28587],[-65.32449,-20.28555],[-65.32455,-20.28553],[-65.32463,-20.28578],[-65.32513,-20.28571],[-65.32525,-20.28536],[-65.3249,-20.28536],[-65.32534,-20.28531],[-65.32548,-20.28485],[-65.32535,-20.28447],[-65.32422,-20.2849],[-65.32391,-20.28556],[-65.32379,-20.28614]]]},"properties":{"n":"TUSQUIÑA","p":22,"personas_x_ha":12,"masculinidad":120,"pct_menor20":32,"pct_60mas":14,"pct_migrante":0,"dependencia_econ":38,"pct_empleados":25,"pct_cuentapropia":56,"pct_agricultura":31,"pct_comercio":0,"pct_manufactura":0,"pct_construccion":25,"pct_transporte":6,"pct_alojamiento":0,"pct_sin_educacion":13,"pct_educ_superior":0,"brecha_educ":-59,"pct_sin_seguro":9,"pct_sus":91,"pct_seguro_privado":0,"brecha_seguro":17,"pct_salud_publica":30,"pct_med_tradicional":16,"pct_automedicacion":4,"pct_remedios_caseros":25,"pct_viv_desocupada":0,"pct_alquiler":0,"pct_electricidad":100,"pct_sin_electricidad":0,"pct_agua_red":0,"pct_alcantarillado":0,"pct_camara_septica":0,"pct_pozo_ciego":29,"pct_sin_desague":14,"pct_gas_red":0,"pct_gas_garrafa":29,"pct_lena_guano":71,"pct_basura_formal":0,"pct_basura_quema":100,"pct_basura_informal":0,"pct_internet":100,"pct_celular":86,"pct_televisor":86}},{"type":"Feature","geometry":{"type":"Polygon","coordinates":[[[-65.32686,-20.28539],[-65.32611,-20.28505],[-65.32593,-20.28537],[-65.32671,-20.28572],[-65.32686,-20.28539]]]},"properties":{"n":"TUSQUIÑA","p":34,"personas_x_ha":93,"masculinidad":70,"pct_menor20":26,"pct_60mas":18,"pct_migrante":6,"dependencia_econ":76,"pct_empleados":24,"pct_cuentapropia":53,"pct_agricultura":59,"pct_comercio":6,"pct_manufactura":18,"pct_construccion":12,"pct_transporte":0,"pct_alojamiento":0,"pct_sin_educacion":14,"pct_educ_superior":5,"brecha_educ":0,"pct_sin_seguro":0,"pct_sus":100,"pct_seguro_privado":0,"brecha_seguro":0,"pct_salud_publica":100,"pct_med_tradicional":0,"pct_automedicacion":0,"pct_remedios_caseros":0,"pct_viv_desocupada":0,"pct_alquiler":0,"pct_electricidad":100,"pct_sin_electricidad":0,"pct_agua_red":100,"pct_alcantarillado":0,"pct_camara_septica":0,"pct_pozo_ciego":100,"pct_sin_desague":0,"pct_gas_red":0,"pct_gas_garrafa":100,"pct_lena_guano":0,"pct_basura_formal":0,"pct_basura_quema":100,"pct_basura_informal":0,"pct_internet":20,"pct_celular":70,"pct_televisor":60}},{"type":"Feature","geometry":{"type":"Polygon","coordinates":[[[-65.32677,-20.28775],[-65.32601,-20.28741],[-65.32584,-20.28773],[-65.32662,-20.28806],[-65.32677,-20.28775]]]},"properties":{"n":"TUSQUIÑA","p":19,"personas_x_ha":54,"masculinidad":111,"pct_menor20":26,"pct_60mas":26,"pct_migrante":21,"dependencia_econ":50,"pct_empleados":17,"pct_cuentapropia":83,"pct_agricultura":83,"pct_comercio":0,"pct_manufactura":8,"pct_construccion":8,"pct_transporte":0,"pct_alojamiento":0,"pct_sin_educacion":15,"pct_educ_superior":0,"brecha_educ":-24,"pct_sin_seguro":0,"pct_sus":81,"pct_seguro_privado":0,"brecha_seguro":0,"pct_salud_publica":68,"pct_med_tradicional":9,"pct_automedicacion":5,"pct_remedios_caseros":0,"pct_viv_desocupada":0,"pct_alquiler":0,"pct_electricidad":100,"pct_sin_electricidad":0,"pct_agua_red":14,"pct_alcantarillado":29,"pct_camara_septica":0,"pct_pozo_ciego":14,"pct_sin_desague":57,"pct_gas_red":0,"pct_gas_garrafa":0,"pct_lena_guano":100,"pct_basura_formal":0,"pct_basura_quema":100,"pct_basura_informal":0,"pct_internet":57,"pct_celular":71,"pct_televisor":86}},{"type":"Feature","geometry":{"type":"Polygon","coordinates":[[[-65.49415,-20.20755],[-65.49414,-20.20742],[-65.494,-20.20731],[-65.49366,-20.20669],[-65.49328,-20.20643],[-65.49318,-20.20649],[-65.49313,-20.20634],[-65.49255,-20.20656],[-65.49259,-20.20723],[-65.49277,-20.20725],[-65.49258,-20.20725],[-65.49245,-20.20785],[-65.49297,-20.20816],[-65.49339,-20.20856],[-65.49344,-20.2087],[-65.4936,-20.20868],[-65.49345,-20.20871],[-65.49341,-20.20953],[-65.49395,-20.21018],[-65.49469,-20.20976],[-65.49582,-20.20862],[-65.49624,-20.20853],[-65.49628,-20.20821],[-65.49577,-20.20839],[-65.49629,-20.20815],[-65.49634,-20.20781],[-65.4958,-20.2081],[-65.49576,-20.20806],[-65.49629,-20.20763],[-65.49631,-20.20733],[-65.49623,-20.20725],[-65.4958,-20.20739],[-65.49579,-20.20745],[-65.49576,-20.20737],[-65.49627,-20.20718],[-65.49621,-20.207],[-65.49605,-20.20679],[-65.49542,-20.20698],[-65.49539,-20.20694],[-65.4954,-20.20677],[-65.49541,-20.20694],[-65.49596,-20.20678],[-65.49581,-20.20638],[-65.49546,-20.20641],[-65.49582,-20.20635],[-65.49582,-20.20569],[-65.49527,-20.20575],[-65.49484,-20.20628],[-65.49481,-20.20621],[-65.49522,-20.20572],[-65.49494,-20.20575],[-65.49433,-20.20604],[-65.49413,-20.20622],[-65.49372,-20.20668],[-65.49409,-20.20731],[-65.49424,-20.20709],[-65.4943,-20.20711],[-65.49415,-20.20755]]]},"properties":{"n":"VITICHI","p":162,"personas_x_ha":13,"masculinidad":88,"pct_menor20":33,"pct_60mas":13,"pct_migrante":45,"dependencia_econ":58,"pct_empleados":32,"pct_cuentapropia":57,"pct_agricultura":19,"pct_comercio":21,"pct_manufactura":8,"pct_construccion":10,"pct_transporte":2,"pct_alojamiento":6,"pct_sin_educacion":6,"pct_educ_superior":41,"brecha_educ":-10,"pct_sin_seguro":10,"pct_sus":69,"pct_seguro_privado":0,"brecha_seguro":6,"pct_salud_publica":31,"pct_med_tradicional":9,"pct_automedicacion":14,"pct_remedios_caseros":25,"pct_viv_desocupada":8,"pct_alquiler":11,"pct_electricidad":95,"pct_sin_electricidad":3,"pct_agua_red":94,"pct_alcantarillado":73,"pct_camara_septica":5,"pct_pozo_ciego":6,"pct_sin_desague":14,"pct_gas_red":0,"pct_gas_garrafa":84,"pct_lena_guano":11,"pct_basura_formal":65,"pct_basura_quema":29,"pct_basura_informal":6,"pct_internet":76,"pct_celular":95,"pct_televisor":86}},{"type":"Feature","geometry":{"type":"Polygon","coordinates":[[[-65.49825,-20.20686],[-65.4983,-20.20759],[-65.49855,-20.20818],[-65.49852,-20.20831],[-65.49827,-20.20841],[-65.49786,-20.20739],[-65.49758,-20.20626],[-65.49752,-20.20527],[-65.4982,-20.20503],[-65.49824,-20.20536],[-65.49807,-20.20613],[-65.49825,-20.20686]]]},"properties":{"n":"VITICHI","p":55,"personas_x_ha":30,"masculinidad":90,"pct_menor20":35,"pct_60mas":4,"pct_migrante":49,"dependencia_econ":83,"pct_empleados":20,"pct_cuentapropia":63,"pct_agricultura":20,"pct_comercio":30,"pct_manufactura":20,"pct_construccion":0,"pct_transporte":7,"pct_alojamiento":13,"pct_sin_educacion":0,"pct_educ_superior":28,"brecha_educ":-26,"pct_sin_seguro":5,"pct_sus":93,"pct_seguro_privado":2,"brecha_seguro":4,"pct_salud_publica":32,"pct_med_tradicional":12,"pct_automedicacion":22,"pct_remedios_caseros":27,"pct_viv_desocupada":9,"pct_alquiler":0,"pct_electricidad":100,"pct_sin_electricidad":0,"pct_agua_red":84,"pct_alcantarillado":68,"pct_camara_septica":0,"pct_pozo_ciego":0,"pct_sin_desague":32,"pct_gas_red":0,"pct_gas_garrafa":89,"pct_lena_guano":5,"pct_basura_formal":53,"pct_basura_quema":42,"pct_basura_informal":0,"pct_internet":84,"pct_celular":100,"pct_televisor":79}},{"type":"Feature","geometry":{"type":"Polygon","coordinates":[[[-65.49291,-20.20579],[-65.49299,-20.20565],[-65.49286,-20.20551],[-65.49297,-20.20566],[-65.4929,-20.20578],[-65.49278,-20.20581],[-65.49263,-20.20549],[-65.4926,-20.20513],[-65.49283,-20.2042],[-65.49336,-20.20438],[-65.4934,-20.205],[-65.49318,-20.20561],[-65.49323,-20.20578],[-65.49302,-20.20583],[-65.49291,-20.20579]]]},"properties":{"n":"VITICHI","p":23,"personas_x_ha":20,"masculinidad":92,"pct_menor20":48,"pct_60mas":9,"pct_migrante":39,"dependencia_econ":130,"pct_empleados":30,"pct_cuentapropia":70,"pct_agricultura":10,"pct_comercio":20,"pct_manufactura":0,"pct_construccion":40,"pct_transporte":0,"pct_alojamiento":10,"pct_sin_educacion":0,"pct_educ_superior":8,"brecha_educ":-24,"pct_sin_seguro":0,"pct_sus":100,"pct_seguro_privado":0,"brecha_seguro":0,"pct_salud_publica":33,"pct_med_tradicional":10,"pct_automedicacion":19,"pct_remedios_caseros":29,"pct_viv_desocupada":0,"pct_alquiler":11,"pct_electricidad":89,"pct_sin_electricidad":11,"pct_agua_red":89,"pct_alcantarillado":78,"pct_camara_septica":0,"pct_pozo_ciego":0,"pct_sin_desague":22,"pct_gas_red":0,"pct_gas_garrafa":89,"pct_lena_guano":11,"pct_basura_formal":56,"pct_basura_quema":44,"pct_basura_informal":0,"pct_internet":100,"pct_celular":100,"pct_televisor":56}},{"type":"Feature","geometry":{"type":"Polygon","coordinates":[[[-65.49658,-20.20543],[-65.49641,-20.20434],[-65.49648,-20.20404],[-65.49604,-20.20391],[-65.49589,-20.20429],[-65.4958,-20.20491],[-65.49587,-20.20548],[-65.49658,-20.20543]]]},"properties":{"n":"VITICHI","p":27,"personas_x_ha":25,"masculinidad":69,"pct_menor20":30,"pct_60mas":26,"pct_migrante":33,"dependencia_econ":145,"pct_empleados":36,"pct_cuentapropia":55,"pct_agricultura":9,"pct_comercio":36,"pct_manufactura":0,"pct_construccion":0,"pct_transporte":0,"pct_alojamiento":9,"pct_sin_educacion":11,"pct_educ_superior":37,"brecha_educ":14,"pct_sin_seguro":7,"pct_sus":85,"pct_seguro_privado":0,"brecha_seguro":-12,"pct_salud_publica":27,"pct_med_tradicional":12,"pct_automedicacion":20,"pct_remedios_caseros":25,"pct_viv_desocupada":19,"pct_alquiler":40,"pct_electricidad":93,"pct_sin_electricidad":7,"pct_agua_red":93,"pct_alcantarillado":93,"pct_camara_septica":0,"pct_pozo_ciego":0,"pct_sin_desague":0,"pct_gas_red":0,"pct_gas_garrafa":100,"pct_lena_guano":0,"pct_basura_formal":100,"pct_basura_quema":0,"pct_basura_informal":0,"pct_internet":60,"pct_celular":73,"pct_televisor":67}},{"type":"Feature","geometry":{"type":"Polygon","coordinates":[[[-65.49641,-20.20728],[-65.49593,-20.20633],[-65.49593,-20.20576],[-65.49673,-20.2057],[-65.49674,-20.20587],[-65.49663,-20.2059],[-65.49675,-20.20679],[-65.49717,-20.20672],[-65.49722,-20.20694],[-65.49641,-20.20728]]]},"properties":{"n":"VITICHI","p":29,"personas_x_ha":22,"masculinidad":45,"pct_menor20":24,"pct_60mas":38,"pct_migrante":55,"dependencia_econ":53,"pct_empleados":26,"pct_cuentapropia":63,"pct_agricultura":32,"pct_comercio":16,"pct_manufactura":5,"pct_construccion":0,"pct_transporte":5,"pct_alojamiento":11,"pct_sin_educacion":9,"pct_educ_superior":27,"brecha_educ":-25,"pct_sin_seguro":14,"pct_sus":55,"pct_seguro_privado":0,"brecha_seguro":-20,"pct_salud_publica":50,"pct_med_tradicional":2,"pct_automedicacion":0,"pct_remedios_caseros":14,"pct_viv_desocupada":0,"pct_alquiler":12,"pct_electricidad":81,"pct_sin_electricidad":19,"pct_agua_red":94,"pct_alcantarillado":50,"pct_camara_septica":0,"pct_pozo_ciego":0,"pct_sin_desague":50,"pct_gas_red":0,"pct_gas_garrafa":75,"pct_lena_guano":25,"pct_basura_formal":75,"pct_basura_quema":12,"pct_basura_informal":12,"pct_internet":56,"pct_celular":81,"pct_televisor":44}},{"type":"Feature","geometry":{"type":"Polygon","coordinates":[[[-65.49551,-20.20561],[-65.49494,-20.20568],[-65.4944,-20.20593],[-65.49375,-20.20659],[-65.49352,-20.20658],[-65.49326,-20.20626],[-65.49343,-20.20613],[-65.49337,-20.20586],[-65.49381,-20.20578],[-65.49462,-20.20533],[-65.49503,-20.20487],[-65.4953,-20.20431],[-65.49577,-20.2043],[-65.49571,-20.20546],[-65.49551,-20.20561]]]},"properties":{"n":"VITICHI","p":90,"personas_x_ha":40,"masculinidad":105,"pct_menor20":24,"pct_60mas":23,"pct_migrante":38,"dependencia_econ":69,"pct_empleados":40,"pct_cuentapropia":48,"pct_agricultura":19,"pct_comercio":19,"pct_manufactura":6,"pct_construccion":8,"pct_transporte":2,"pct_alojamiento":10,"pct_sin_educacion":13,"pct_educ_superior":49,"brecha_educ":-21,"pct_sin_seguro":10,"pct_sus":70,"pct_seguro_privado":1,"brecha_seguro":-8,"pct_salud_publica":28,"pct_med_tradicional":11,"pct_automedicacion":15,"pct_remedios_caseros":27,"pct_viv_desocupada":0,"pct_alquiler":38,"pct_electricidad":98,"pct_sin_electricidad":2,"pct_agua_red":95,"pct_alcantarillado":88,"pct_camara_septica":2,"pct_pozo_ciego":2,"pct_sin_desague":8,"pct_gas_red":0,"pct_gas_garrafa":92,"pct_lena_guano":8,"pct_basura_formal":90,"pct_basura_quema":5,"pct_basura_informal":2,"pct_internet":85,"pct_celular":98,"pct_televisor":78}},{"type":"Feature","geometry":{"type":"Polygon","coordinates":[[[-65.49591,-20.20187],[-65.49663,-20.20182],[-65.49684,-20.20207],[-65.49681,-20.20224],[-65.49668,-20.2024],[-65.49649,-20.20227],[-65.49648,-20.20267],[-65.49613,-20.20274],[-65.49591,-20.20187]]]},"properties":{"n":"VITICHI","p":38,"personas_x_ha":57,"masculinidad":90,"pct_menor20":45,"pct_60mas":8,"pct_migrante":53,"dependencia_econ":90,"pct_empleados":45,"pct_cuentapropia":45,"pct_agricultura":15,"pct_comercio":30,"pct_manufactura":5,"pct_construccion":10,"pct_transporte":0,"pct_alojamiento":0,"pct_sin_educacion":10,"pct_educ_superior":33,"brecha_educ":-25,"pct_sin_seguro":13,"pct_sus":66,"pct_seguro_privado":3,"brecha_seguro":-4,"pct_salud_publica":35,"pct_med_tradicional":7,"pct_automedicacion":15,"pct_remedios_caseros":34,"pct_viv_desocupada":0,"pct_alquiler":0,"pct_electricidad":100,"pct_sin_electricidad":0,"pct_agua_red":100,"pct_alcantarillado":92,"pct_camara_septica":0,"pct_pozo_ciego":0,"pct_sin_desague":8,"pct_gas_red":0,"pct_gas_garrafa":85,"pct_lena_guano":15,"pct_basura_formal":85,"pct_basura_quema":15,"pct_basura_informal":0,"pct_internet":92,"pct_celular":92,"pct_televisor":77}},{"type":"Feature","geometry":{"type":"Polygon","coordinates":[[[-65.49335,-20.20612],[-65.49327,-20.20586],[-65.4928,-20.20588],[-65.49302,-20.2063],[-65.49335,-20.20612]]]},"properties":{"n":"VITICHI","p":26,"personas_x_ha":139,"masculinidad":53,"pct_menor20":23,"pct_60mas":15,"pct_migrante":50,"dependencia_econ":136,"pct_empleados":55,"pct_cuentapropia":27,"pct_agricultura":9,"pct_comercio":0,"pct_manufactura":18,"pct_construccion":0,"pct_transporte":0,"pct_alojamiento":0,"pct_sin_educacion":0,"pct_educ_superior":55,"brecha_educ":-21,"pct_sin_seguro":4,"pct_sus":65,"pct_seguro_privado":0,"brecha_seguro":11,"pct_salud_publica":47,"pct_med_tradicional":6,"pct_automedicacion":6,"pct_remedios_caseros":6,"pct_viv_desocupada":0,"pct_alquiler":17,"pct_electricidad":100,"pct_sin_electricidad":0,"pct_agua_red":100,"pct_alcantarillado":83,"pct_camara_septica":0,"pct_pozo_ciego":0,"pct_sin_desague":17,"pct_gas_red":0,"pct_gas_garrafa":100,"pct_lena_guano":0,"pct_basura_formal":100,"pct_basura_quema":0,"pct_basura_informal":0,"pct_internet":92,"pct_celular":100,"pct_televisor":83}},{"type":"Feature","geometry":{"type":"Polygon","coordinates":[[[-65.49234,-20.20595],[-65.49094,-20.20624],[-65.49064,-20.20678],[-65.4919,-20.20665],[-65.49248,-20.20647],[-65.49234,-20.20595]]]},"properties":{"n":"VITICHI","p":37,"personas_x_ha":34,"masculinidad":95,"pct_menor20":11,"pct_60mas":30,"pct_migrante":35,"dependencia_econ":68,"pct_empleados":36,"pct_cuentapropia":50,"pct_agricultura":18,"pct_comercio":14,"pct_manufactura":0,"pct_construccion":9,"pct_transporte":5,"pct_alojamiento":5,"pct_sin_educacion":0,"pct_educ_superior":61,"brecha_educ":-23,"pct_sin_seguro":11,"pct_sus":78,"pct_seguro_privado":0,"brecha_seguro":-10,"pct_salud_publica":21,"pct_med_tradicional":14,"pct_automedicacion":15,"pct_remedios_caseros":22,"pct_viv_desocupada":0,"pct_alquiler":6,"pct_electricidad":100,"pct_sin_electricidad":0,"pct_agua_red":100,"pct_alcantarillado":94,"pct_camara_septica":0,"pct_pozo_ciego":0,"pct_sin_desague":6,"pct_gas_red":0,"pct_gas_garrafa":100,"pct_lena_guano":0,"pct_basura_formal":100,"pct_basura_quema":0,"pct_basura_informal":0,"pct_internet":83,"pct_celular":89,"pct_televisor":72}},{"type":"Feature","geometry":{"type":"Polygon","coordinates":[[[-65.49265,-20.2045],[-65.49256,-20.20545],[-65.49271,-20.20578],[-65.49242,-20.20586],[-65.49225,-20.20539],[-65.4922,-20.20488],[-65.49244,-20.20443],[-65.49265,-20.2045]]]},"properties":{"n":"VITICHI","p":17,"personas_x_ha":33,"masculinidad":112,"pct_menor20":29,"pct_60mas":12,"pct_migrante":24,"dependencia_econ":112,"pct_empleados":25,"pct_cuentapropia":50,"pct_agricultura":38,"pct_comercio":12,"pct_manufactura":0,"pct_construccion":25,"pct_transporte":0,"pct_alojamiento":0,"pct_sin_educacion":17,"pct_educ_superior":42,"brecha_educ":-50,"pct_sin_seguro":41,"pct_sus":29,"pct_seguro_privado":0,"brecha_seguro":7,"pct_salud_publica":18,"pct_med_tradicional":13,"pct_automedicacion":27,"pct_remedios_caseros":26,"pct_viv_desocupada":11,"pct_alquiler":0,"pct_electricidad":100,"pct_sin_electricidad":0,"pct_agua_red":100,"pct_alcantarillado":100,"pct_camara_septica":0,"pct_pozo_ciego":0,"pct_sin_desague":0,"pct_gas_red":0,"pct_gas_garrafa":67,"pct_lena_guano":33,"pct_basura_formal":67,"pct_basura_quema":17,"pct_basura_informal":17,"pct_internet":83,"pct_celular":83,"pct_televisor":67}},{"type":"Feature","geometry":{"type":"Polygon","coordinates":[[[-65.49356,-20.20289],[-65.49345,-20.20379],[-65.49366,-20.20389],[-65.49404,-20.20366],[-65.49424,-20.20344],[-65.49453,-20.20378],[-65.4947,-20.20381],[-65.49514,-20.20425],[-65.49581,-20.20425],[-65.4961,-20.20346],[-65.496,-20.20257],[-65.49564,-20.2017],[-65.49524,-20.20173],[-65.49473,-20.20191],[-65.49438,-20.20213],[-65.49425,-20.20232],[-65.49422,-20.2027],[-65.49356,-20.20289]]]},"properties":{"n":"VITICHI","p":16,"personas_x_ha":3,"masculinidad":167,"pct_menor20":12,"pct_60mas":25,"pct_migrante":25,"dependencia_econ":60,"pct_empleados":60,"pct_cuentapropia":30,"pct_agricultura":40,"pct_comercio":10,"pct_manufactura":0,"pct_construccion":0,"pct_transporte":0,"pct_alojamiento":0,"pct_sin_educacion":7,"pct_educ_superior":36,"brecha_educ":-16,"pct_sin_seguro":0,"pct_sus":75,"pct_seguro_privado":0,"brecha_seguro":0,"pct_salud_publica":16,"pct_med_tradicional":12,"pct_automedicacion":23,"pct_remedios_caseros":23,"pct_viv_desocupada":14,"pct_alquiler":25,"pct_electricidad":92,"pct_sin_electricidad":8,"pct_agua_red":92,"pct_alcantarillado":75,"pct_camara_septica":0,"pct_pozo_ciego":0,"pct_sin_desague":25,"pct_gas_red":0,"pct_gas_garrafa":67,"pct_lena_guano":25,"pct_basura_formal":100,"pct_basura_quema":0,"pct_basura_informal":0,"pct_internet":100,"pct_celular":92,"pct_televisor":50}},{"type":"Feature","geometry":{"type":"Polygon","coordinates":[[[-65.49211,-20.20477],[-65.49229,-20.20588],[-65.49109,-20.2061],[-65.49086,-20.20602],[-65.49143,-20.20509],[-65.49188,-20.20501],[-65.49187,-20.20473],[-65.49211,-20.20477]]]},"properties":{"n":"VITICHI","p":42,"personas_x_ha":33,"masculinidad":62,"pct_menor20":40,"pct_60mas":21,"pct_migrante":52,"dependencia_econ":162,"pct_empleados":19,"pct_cuentapropia":56,"pct_agricultura":25,"pct_comercio":19,"pct_manufactura":6,"pct_construccion":12,"pct_transporte":0,"pct_alojamiento":6,"pct_sin_educacion":4,"pct_educ_superior":38,"brecha_educ":-40,"pct_sin_seguro":33,"pct_sus":14,"pct_seguro_privado":0,"brecha_seguro":7,"pct_salud_publica":28,"pct_med_tradicional":5,"pct_automedicacion":10,"pct_remedios_caseros":24,"pct_viv_desocupada":0,"pct_alquiler":13,"pct_electricidad":87,"pct_sin_electricidad":13,"pct_agua_red":80,"pct_alcantarillado":60,"pct_camara_septica":0,"pct_pozo_ciego":13,"pct_sin_desague":27,"pct_gas_red":0,"pct_gas_garrafa":73,"pct_lena_guano":27,"pct_basura_formal":80,"pct_basura_quema":7,"pct_basura_informal":13,"pct_internet":73,"pct_celular":80,"pct_televisor":67}},{"type":"Feature","geometry":{"type":"Polygon","coordinates":[[[-65.49173,-20.20918],[-65.49223,-20.20889],[-65.49214,-20.20957],[-65.49337,-20.20962],[-65.49352,-20.20986],[-65.49282,-20.21096],[-65.49204,-20.21195],[-65.49202,-20.21239],[-65.49164,-20.21242],[-65.49072,-20.21073],[-65.49142,-20.2097],[-65.49136,-20.20931],[-65.49173,-20.20918]]]},"properties":{"n":"VITICHI","p":29,"personas_x_ha":5,"masculinidad":53,"pct_menor20":38,"pct_60mas":14,"pct_migrante":34,"dependencia_econ":73,"pct_empleados":20,"pct_cuentapropia":47,"pct_agricultura":53,"pct_comercio":20,"pct_manufactura":13,"pct_construccion":0,"pct_transporte":0,"pct_alojamiento":0,"pct_sin_educacion":31,"pct_educ_superior":12,"brecha_educ":2,"pct_sin_seguro":8,"pct_sus":62,"pct_seguro_privado":0,"brecha_seguro":20,"pct_salud_publica":29,"pct_med_tradicional":9,"pct_automedicacion":14,"pct_remedios_caseros":23,"pct_viv_desocupada":12,"pct_alquiler":14,"pct_electricidad":86,"pct_sin_electricidad":14,"pct_agua_red":86,"pct_alcantarillado":71,"pct_camara_septica":0,"pct_pozo_ciego":0,"pct_sin_desague":29,"pct_gas_red":0,"pct_gas_garrafa":71,"pct_lena_guano":14,"pct_basura_formal":86,"pct_basura_quema":14,"pct_basura_informal":0,"pct_internet":100,"pct_celular":100,"pct_televisor":57}},{"type":"Feature","geometry":{"type":"Polygon","coordinates":[[[-65.49297,-20.20629],[-65.49275,-20.20587],[-65.49241,-20.20594],[-65.49255,-20.20643],[-65.49297,-20.20629]]]},"properties":{"n":"VITICHI","p":15,"personas_x_ha":63,"masculinidad":200,"pct_menor20":13,"pct_60mas":27,"pct_migrante":60,"dependencia_econ":43,"pct_empleados":86,"pct_cuentapropia":0,"pct_agricultura":0,"pct_comercio":0,"pct_manufactura":0,"pct_construccion":43,"pct_transporte":0,"pct_alojamiento":14,"pct_sin_educacion":0,"pct_educ_superior":40,"brecha_educ":14,"pct_sin_seguro":0,"pct_sus":67,"pct_seguro_privado":0,"brecha_seguro":0,"pct_salud_publica":25,"pct_med_tradicional":12,"pct_automedicacion":19,"pct_remedios_caseros":25,"pct_viv_desocupada":0,"pct_alquiler":25,"pct_electricidad":100,"pct_sin_electricidad":0,"pct_agua_red":100,"pct_alcantarillado":100,"pct_camara_septica":0,"pct_pozo_ciego":0,"pct_sin_desague":0,"pct_gas_red":0,"pct_gas_garrafa":100,"pct_lena_guano":0,"pct_basura_formal":100,"pct_basura_quema":0,"pct_basura_informal":0,"pct_internet":100,"pct_celular":100,"pct_televisor":100}},{"type":"Feature","geometry":{"type":"Polygon","coordinates":[[[-65.49155,-20.20721],[-65.49173,-20.20749],[-65.49214,-20.20729],[-65.49213,-20.2069],[-65.49152,-20.20696],[-65.49155,-20.20721]]]},"properties":{"n":"VITICHI","p":16,"personas_x_ha":51,"masculinidad":167,"pct_menor20":19,"pct_60mas":25,"pct_migrante":38,"dependencia_econ":100,"pct_empleados":67,"pct_cuentapropia":33,"pct_agricultura":0,"pct_comercio":17,"pct_manufactura":17,"pct_construccion":17,"pct_transporte":0,"pct_alojamiento":0,"pct_sin_educacion":0,"pct_educ_superior":56,"brecha_educ":-55,"pct_sin_seguro":25,"pct_sus":67,"pct_seguro_privado":8,"brecha_seguro":43,"pct_salud_publica":33,"pct_med_tradicional":11,"pct_automedicacion":22,"pct_remedios_caseros":30,"pct_viv_desocupada":31,"pct_alquiler":29,"pct_electricidad":100,"pct_sin_electricidad":0,"pct_agua_red":86,"pct_alcantarillado":86,"pct_camara_septica":0,"pct_pozo_ciego":0,"pct_sin_desague":14,"pct_gas_red":0,"pct_gas_garrafa":43,"pct_lena_guano":43,"pct_basura_formal":100,"pct_basura_quema":0,"pct_basura_informal":0,"pct_internet":86,"pct_celular":100,"pct_televisor":86}},{"type":"Feature","geometry":{"type":"Polygon","coordinates":[[[-65.38088,-20.24084],[-65.38067,-20.24089],[-65.38071,-20.24121],[-65.38095,-20.24117],[-65.38088,-20.24084]]]},"properties":{"n":"YAWISLA","p":15,"personas_x_ha":152,"masculinidad":67,"pct_menor20":13,"pct_60mas":13,"pct_migrante":0,"dependencia_econ":25,"pct_empleados":12,"pct_cuentapropia":62,"pct_agricultura":50,"pct_comercio":38,"pct_manufactura":0,"pct_construccion":12,"pct_transporte":0,"pct_alojamiento":0,"pct_sin_educacion":0,"pct_educ_superior":12,"brecha_educ":-7,"pct_sin_seguro":0,"pct_sus":90,"pct_seguro_privado":0,"brecha_seguro":0,"pct_salud_publica":21,"pct_med_tradicional":21,"pct_automedicacion":9,"pct_remedios_caseros":25,"pct_viv_desocupada":10,"pct_alquiler":0,"pct_electricidad":83,"pct_sin_electricidad":17,"pct_agua_red":83,"pct_alcantarillado":67,"pct_camara_septica":0,"pct_pozo_ciego":0,"pct_sin_desague":33,"pct_gas_red":0,"pct_gas_garrafa":50,"pct_lena_guano":50,"pct_basura_formal":33,"pct_basura_quema":67,"pct_basura_informal":0,"pct_internet":83,"pct_celular":83,"pct_televisor":50}},{"type":"Feature","geometry":{"type":"Polygon","coordinates":[[[-65.38121,-20.24052],[-65.3815,-20.24051],[-65.3814,-20.24],[-65.38114,-20.24003],[-65.38121,-20.24052]]]},"properties":{"n":"YAWISLA","p":16,"personas_x_ha":91,"masculinidad":45,"pct_menor20":19,"pct_60mas":38,"pct_migrante":6,"dependencia_econ":133,"pct_empleados":0,"pct_cuentapropia":83,"pct_agricultura":67,"pct_comercio":0,"pct_manufactura":0,"pct_construccion":0,"pct_transporte":17,"pct_alojamiento":0,"pct_sin_educacion":27,"pct_educ_superior":0,"brecha_educ":4,"pct_sin_seguro":7,"pct_sus":93,"pct_seguro_privado":0,"brecha_seguro":-11,"pct_salud_publica":80,"pct_med_tradicional":0,"pct_automedicacion":0,"pct_remedios_caseros":15,"pct_viv_desocupada":0,"pct_alquiler":0,"pct_electricidad":88,"pct_sin_electricidad":12,"pct_agua_red":100,"pct_alcantarillado":88,"pct_camara_septica":0,"pct_pozo_ciego":0,"pct_sin_desague":12,"pct_gas_red":0,"pct_gas_garrafa":62,"pct_lena_guano":38,"pct_basura_formal":88,"pct_basura_quema":12,"pct_basura_informal":0,"pct_internet":25,"pct_celular":100,"pct_televisor":50}},{"type":"Feature","geometry":{"type":"Polygon","coordinates":[[[-65.38127,-20.24111],[-65.3812,-20.24081],[-65.38095,-20.24084],[-65.38098,-20.24117],[-65.38127,-20.24111]]]},"properties":{"n":"YAWISLA","p":29,"personas_x_ha":268,"masculinidad":107,"pct_menor20":34,"pct_60mas":14,"pct_migrante":0,"dependencia_econ":142,"pct_empleados":0,"pct_cuentapropia":83,"pct_agricultura":50,"pct_comercio":33,"pct_manufactura":8,"pct_construccion":8,"pct_transporte":0,"pct_alojamiento":0,"pct_sin_educacion":15,"pct_educ_superior":15,"brecha_educ":-10,"pct_sin_seguro":7,"pct_sus":93,"pct_seguro_privado":0,"brecha_seguro":14,"pct_salud_publica":34,"pct_med_tradicional":15,"pct_automedicacion":18,"pct_remedios_caseros":30,"pct_viv_desocupada":9,"pct_alquiler":0,"pct_electricidad":100,"pct_sin_electricidad":0,"pct_agua_red":100,"pct_alcantarillado":71,"pct_camara_septica":0,"pct_pozo_ciego":0,"pct_sin_desague":29,"pct_gas_red":0,"pct_gas_garrafa":100,"pct_lena_guano":0,"pct_basura_formal":86,"pct_basura_quema":14,"pct_basura_informal":0,"pct_internet":43,"pct_celular":57,"pct_televisor":57}},{"type":"Feature","geometry":{"type":"Polygon","coordinates":[[[-65.38203,-20.2389],[-65.38139,-20.23918],[-65.38151,-20.23995],[-65.38198,-20.2399],[-65.38225,-20.23947],[-65.38226,-20.23927],[-65.38255,-20.23885],[-65.38313,-20.23849],[-65.38278,-20.23841],[-65.38256,-20.23856],[-65.38228,-20.2385],[-65.38206,-20.23856],[-65.38168,-20.23888],[-65.3817,-20.23904],[-65.38203,-20.2389]]]},"properties":{"n":"YAWISLA","p":26,"personas_x_ha":20,"masculinidad":62,"pct_menor20":35,"pct_60mas":12,"pct_migrante":15,"dependencia_econ":73,"pct_empleados":18,"pct_cuentapropia":64,"pct_agricultura":64,"pct_comercio":0,"pct_manufactura":0,"pct_construccion":18,"pct_transporte":0,"pct_alojamiento":0,"pct_sin_educacion":25,"pct_educ_superior":17,"brecha_educ":-66,"pct_sin_seguro":26,"pct_sus":68,"pct_seguro_privado":0,"brecha_seguro":-2,"pct_salud_publica":53,"pct_med_tradicional":4,"pct_automedicacion":4,"pct_remedios_caseros":32,"pct_viv_desocupada":12,"pct_alquiler":11,"pct_electricidad":100,"pct_sin_electricidad":0,"pct_agua_red":89,"pct_alcantarillado":44,"pct_camara_septica":0,"pct_pozo_ciego":22,"pct_sin_desague":33,"pct_gas_red":0,"pct_gas_garrafa":89,"pct_lena_guano":11,"pct_basura_formal":67,"pct_basura_quema":0,"pct_basura_informal":33,"pct_internet":67,"pct_celular":89,"pct_televisor":56}},{"type":"Feature","geometry":{"type":"Polygon","coordinates":[[[-65.3839,-20.2402],[-65.38384,-20.24002],[-65.38369,-20.24006],[-65.38367,-20.24023],[-65.38276,-20.24059],[-65.38254,-20.24061],[-65.38226,-20.24051],[-65.38209,-20.24032],[-65.38196,-20.23996],[-65.38151,-20.24],[-65.38155,-20.24022],[-65.3818,-20.24063],[-65.38187,-20.24106],[-65.38232,-20.24102],[-65.38301,-20.24136],[-65.38335,-20.24124],[-65.38373,-20.24086],[-65.38374,-20.24058],[-65.3839,-20.2402]]]},"properties":{"n":"YAWISLA","p":16,"personas_x_ha":9,"masculinidad":60,"pct_menor20":31,"pct_60mas":25,"pct_migrante":50,"dependencia_econ":100,"pct_empleados":38,"pct_cuentapropia":38,"pct_agricultura":25,"pct_comercio":12,"pct_manufactura":0,"pct_construccion":12,"pct_transporte":0,"pct_alojamiento":0,"pct_sin_educacion":9,"pct_educ_superior":55,"brecha_educ":-67,"pct_sin_seguro":19,"pct_sus":50,"pct_seguro_privado":0,"brecha_seguro":-30,"pct_salud_publica":27,"pct_med_tradicional":7,"pct_automedicacion":20,"pct_remedios_caseros":22,"pct_viv_desocupada":0,"pct_alquiler":0,"pct_electricidad":100,"pct_sin_electricidad":0,"pct_agua_red":70,"pct_alcantarillado":70,"pct_camara_septica":0,"pct_pozo_ciego":30,"pct_sin_desague":0,"pct_gas_red":0,"pct_gas_garrafa":90,"pct_lena_guano":10,"pct_basura_formal":80,"pct_basura_quema":10,"pct_basura_informal":10,"pct_internet":10,"pct_celular":70,"pct_televisor":30}},{"type":"Feature","geometry":{"type":"Polygon","coordinates":[[[-65.38248,-20.24221],[-65.38237,-20.24145],[-65.38204,-20.24152],[-65.38214,-20.24227],[-65.38248,-20.24221]]]},"properties":{"n":"YAWISLA","p":19,"personas_x_ha":62,"masculinidad":138,"pct_menor20":21,"pct_60mas":21,"pct_migrante":16,"dependencia_econ":19,"pct_empleados":31,"pct_cuentapropia":31,"pct_agricultura":50,"pct_comercio":12,"pct_manufactura":0,"pct_construccion":31,"pct_transporte":0,"pct_alojamiento":0,"pct_sin_educacion":0,"pct_educ_superior":13,"brecha_educ":-20,"pct_sin_seguro":5,"pct_sus":95,"pct_seguro_privado":0,"brecha_seguro":-12,"pct_salud_publica":63,"pct_med_tradicional":13,"pct_automedicacion":0,"pct_remedios_caseros":10,"pct_viv_desocupada":0,"pct_alquiler":0,"pct_electricidad":100,"pct_sin_electricidad":0,"pct_agua_red":100,"pct_alcantarillado":67,"pct_camara_septica":0,"pct_pozo_ciego":0,"pct_sin_desague":33,"pct_gas_red":0,"pct_gas_garrafa":17,"pct_lena_guano":83,"pct_basura_formal":0,"pct_basura_quema":100,"pct_basura_informal":0,"pct_internet":0,"pct_celular":50,"pct_televisor":67}},{"type":"Feature","geometry":{"type":"Polygon","coordinates":[[[-65.38193,-20.24253],[-65.38201,-20.24252],[-65.38203,-20.24229],[-65.38188,-20.2411],[-65.38165,-20.24113],[-65.38193,-20.24253]]]},"properties":{"n":"YAWISLA","p":21,"personas_x_ha":68,"masculinidad":62,"pct_menor20":43,"pct_60mas":14,"pct_migrante":14,"dependencia_econ":200,"pct_empleados":71,"pct_cuentapropia":29,"pct_agricultura":43,"pct_comercio":14,"pct_manufactura":0,"pct_construccion":0,"pct_transporte":0,"pct_alojamiento":0,"pct_sin_educacion":17,"pct_educ_superior":17,"brecha_educ":12,"pct_sin_seguro":0,"pct_sus":81,"pct_seguro_privado":0,"brecha_seguro":0,"pct_salud_publica":77,"pct_med_tradicional":0,"pct_automedicacion":0,"pct_remedios_caseros":0,"pct_viv_desocupada":7,"pct_alquiler":0,"pct_electricidad":100,"pct_sin_electricidad":0,"pct_agua_red":100,"pct_alcantarillado":44,"pct_camara_septica":0,"pct_pozo_ciego":0,"pct_sin_desague":56,"pct_gas_red":0,"pct_gas_garrafa":78,"pct_lena_guano":22,"pct_basura_formal":100,"pct_basura_quema":0,"pct_basura_informal":0,"pct_internet":22,"pct_celular":78,"pct_televisor":33}},{"type":"Feature","geometry":{"type":"Polygon","coordinates":[[[-65.38075,-20.23967],[-65.38079,-20.24005],[-65.38106,-20.24001],[-65.38102,-20.23965],[-65.38075,-20.23967]]]},"properties":{"n":"YAWISLA","p":17,"personas_x_ha":136,"masculinidad":112,"pct_menor20":59,"pct_60mas":18,"pct_migrante":18,"dependencia_econ":183,"pct_empleados":0,"pct_cuentapropia":83,"pct_agricultura":100,"pct_comercio":0,"pct_manufactura":0,"pct_construccion":0,"pct_transporte":0,"pct_alojamiento":0,"pct_sin_educacion":14,"pct_educ_superior":14,"brecha_educ":-17,"pct_sin_seguro":24,"pct_sus":76,"pct_seguro_privado":0,"brecha_seguro":-3,"pct_salud_publica":38,"pct_med_tradicional":12,"pct_automedicacion":12,"pct_remedios_caseros":22,"pct_viv_desocupada":0,"pct_alquiler":20,"pct_electricidad":80,"pct_sin_electricidad":20,"pct_agua_red":80,"pct_alcantarillado":60,"pct_camara_septica":0,"pct_pozo_ciego":0,"pct_sin_desague":40,"pct_gas_red":0,"pct_gas_garrafa":60,"pct_lena_guano":40,"pct_basura_formal":60,"pct_basura_quema":40,"pct_basura_informal":0,"pct_internet":80,"pct_celular":100,"pct_televisor":40}},{"type":"Feature","geometry":{"type":"Polygon","coordinates":[[[-65.38104,-20.23958],[-65.38133,-20.23954],[-65.38127,-20.23908],[-65.38099,-20.23911],[-65.38104,-20.23958]]]},"properties":{"n":"YAWISLA","p":15,"personas_x_ha":93,"masculinidad":67,"pct_menor20":47,"pct_60mas":20,"pct_migrante":7,"dependencia_econ":88,"pct_empleados":12,"pct_cuentapropia":75,"pct_agricultura":38,"pct_comercio":12,"pct_manufactura":12,"pct_construccion":12,"pct_transporte":0,"pct_alojamiento":25,"pct_sin_educacion":25,"pct_educ_superior":12,"brecha_educ":-27,"pct_sin_seguro":7,"pct_sus":93,"pct_seguro_privado":0,"brecha_seguro":17,"pct_salud_publica":25,"pct_med_tradicional":20,"pct_automedicacion":22,"pct_remedios_caseros":20,"pct_viv_desocupada":0,"pct_alquiler":0,"pct_electricidad":67,"pct_sin_electricidad":33,"pct_agua_red":100,"pct_alcantarillado":67,"pct_camara_septica":0,"pct_pozo_ciego":0,"pct_sin_desague":33,"pct_gas_red":0,"pct_gas_garrafa":100,"pct_lena_guano":0,"pct_basura_formal":67,"pct_basura_quema":33,"pct_basura_informal":0,"pct_internet":67,"pct_celular":100,"pct_televisor":33}}]}