{"type":"FeatureCollection","features":[{"type":"Feature","geometry":{"type":"Polygon","coordinates":[[[-65.96333,-19.07383],[-65.96354,-19.07387],[-65.96355,-19.07395],[-65.96359,-19.07401],[-65.96355,-19.07387],[-65.96398,-19.07369],[-65.96411,-19.07442],[-65.96418,-19.07447],[-65.96413,-19.07453],[-65.96384,-19.07441],[-65.96344,-19.07471],[-65.96333,-19.07467],[-65.9629,-19.07422],[-65.96333,-19.07383]]]},"properties":{"n":"ACTARA","p":30,"personas_x_ha":35,"masculinidad":100,"pct_menor20":40,"pct_60mas":13,"pct_migrante":17,"dependencia_econ":131,"pct_empleados":23,"pct_cuentapropia":62,"pct_agricultura":15,"pct_comercio":15,"pct_manufactura":8,"pct_construccion":23,"pct_transporte":0,"pct_alojamiento":8,"pct_sin_educacion":17,"pct_educ_superior":6,"brecha_educ":-11,"pct_sin_seguro":0,"pct_sus":90,"pct_seguro_privado":0,"brecha_seguro":0,"pct_salud_publica":31,"pct_med_tradicional":5,"pct_automedicacion":9,"pct_remedios_caseros":32,"pct_viv_desocupada":0,"pct_alquiler":0,"pct_electricidad":100,"pct_sin_electricidad":0,"pct_agua_red":73,"pct_alcantarillado":18,"pct_camara_septica":0,"pct_pozo_ciego":0,"pct_sin_desague":82,"pct_gas_red":0,"pct_gas_garrafa":64,"pct_lena_guano":64,"pct_basura_formal":0,"pct_basura_quema":82,"pct_basura_informal":0,"pct_internet":36,"pct_celular":64,"pct_televisor":64}},{"type":"Feature","geometry":{"type":"Polygon","coordinates":[[[-65.96143,-19.07395],[-65.96143,-19.07355],[-65.96126,-19.07346],[-65.96065,-19.07356],[-65.96068,-19.07369],[-65.9608,-19.07377],[-65.96143,-19.07395]]]},"properties":{"n":"ACTARA","p":16,"personas_x_ha":55,"masculinidad":100,"pct_menor20":31,"pct_60mas":19,"pct_migrante":12,"dependencia_econ":50,"pct_empleados":20,"pct_cuentapropia":60,"pct_agricultura":50,"pct_comercio":10,"pct_manufactura":10,"pct_construccion":10,"pct_transporte":0,"pct_alojamiento":0,"pct_sin_educacion":40,"pct_educ_superior":0,"brecha_educ":-25,"pct_sin_seguro":20,"pct_sus":80,"pct_seguro_privado":0,"brecha_seguro":16,"pct_salud_publica":24,"pct_med_tradicional":11,"pct_automedicacion":22,"pct_remedios_caseros":24,"pct_viv_desocupada":0,"pct_alquiler":0,"pct_electricidad":75,"pct_sin_electricidad":25,"pct_agua_red":75,"pct_alcantarillado":0,"pct_camara_septica":0,"pct_pozo_ciego":0,"pct_sin_desague":88,"pct_gas_red":0,"pct_gas_garrafa":12,"pct_lena_guano":12,"pct_basura_formal":0,"pct_basura_quema":75,"pct_basura_informal":0,"pct_internet":75,"pct_celular":75,"pct_televisor":25}},{"type":"Feature","geometry":{"type":"Polygon","coordinates":[[[-65.96209,-19.07428],[-65.96195,-19.07367],[-65.96163,-19.073],[-65.9614,-19.07304],[-65.96131,-19.07334],[-65.96145,-19.07354],[-65.96152,-19.07403],[-65.96178,-19.07424],[-65.96209,-19.07428]]]},"properties":{"n":"ACTARA","p":15,"personas_x_ha":24,"masculinidad":67,"pct_menor20":20,"pct_60mas":27,"pct_migrante":13,"dependencia_econ":33,"pct_empleados":0,"pct_cuentapropia":78,"pct_agricultura":33,"pct_comercio":11,"pct_manufactura":0,"pct_construccion":33,"pct_transporte":11,"pct_alojamiento":11,"pct_sin_educacion":10,"pct_educ_superior":20,"brecha_educ":0,"pct_sin_seguro":0,"pct_sus":100,"pct_seguro_privado":0,"brecha_seguro":0,"pct_salud_publica":48,"pct_med_tradicional":3,"pct_automedicacion":0,"pct_remedios_caseros":45,"pct_viv_desocupada":0,"pct_alquiler":0,"pct_electricidad":88,"pct_sin_electricidad":12,"pct_agua_red":75,"pct_alcantarillado":0,"pct_camara_septica":0,"pct_pozo_ciego":12,"pct_sin_desague":88,"pct_gas_red":0,"pct_gas_garrafa":12,"pct_lena_guano":12,"pct_basura_formal":0,"pct_basura_quema":88,"pct_basura_informal":0,"pct_internet":50,"pct_celular":100,"pct_televisor":38}},{"type":"Feature","geometry":{"type":"Polygon","coordinates":[[[-65.96328,-19.07385],[-65.9632,-19.07373],[-65.96282,-19.07371],[-65.96298,-19.07406],[-65.96328,-19.07385]]]},"properties":{"n":"ACTARA","p":15,"personas_x_ha":131,"masculinidad":200,"pct_menor20":47,"pct_60mas":13,"pct_migrante":47,"dependencia_econ":114,"pct_empleados":57,"pct_cuentapropia":29,"pct_agricultura":29,"pct_comercio":0,"pct_manufactura":0,"pct_construccion":29,"pct_transporte":0,"pct_alojamiento":0,"pct_sin_educacion":12,"pct_educ_superior":38,"brecha_educ":-13,"pct_sin_seguro":7,"pct_sus":40,"pct_seguro_privado":0,"brecha_seguro":10,"pct_salud_publica":22,"pct_med_tradicional":10,"pct_automedicacion":19,"pct_remedios_caseros":22,"pct_viv_desocupada":0,"pct_alquiler":0,"pct_electricidad":83,"pct_sin_electricidad":17,"pct_agua_red":50,"pct_alcantarillado":0,"pct_camara_septica":0,"pct_pozo_ciego":0,"pct_sin_desague":100,"pct_gas_red":0,"pct_gas_garrafa":83,"pct_lena_guano":83,"pct_basura_formal":17,"pct_basura_quema":50,"pct_basura_informal":67,"pct_internet":67,"pct_celular":100,"pct_televisor":67}},{"type":"Feature","geometry":{"type":"Polygon","coordinates":[[[-65.97161,-19.1256],[-65.97141,-19.12549],[-65.97095,-19.12538],[-65.97094,-19.12547],[-65.97152,-19.12573],[-65.97161,-19.1256]]]},"properties":{"n":"ANTHURA","p":68,"personas_x_ha":614,"masculinidad":74,"pct_menor20":47,"pct_60mas":4,"pct_migrante":31,"dependencia_econ":84,"pct_empleados":16,"pct_cuentapropia":32,"pct_agricultura":78,"pct_comercio":0,"pct_manufactura":0,"pct_construccion":0,"pct_transporte":0,"pct_alojamiento":3,"pct_sin_educacion":3,"pct_educ_superior":24,"brecha_educ":9,"pct_sin_seguro":9,"pct_sus":89,"pct_seguro_privado":0,"brecha_seguro":3,"pct_salud_publica":41,"pct_med_tradicional":6,"pct_automedicacion":1,"pct_remedios_caseros":41,"pct_viv_desocupada":0,"pct_alquiler":0,"pct_electricidad":100,"pct_sin_electricidad":0,"pct_agua_red":14,"pct_alcantarillado":0,"pct_camara_septica":0,"pct_pozo_ciego":0,"pct_sin_desague":100,"pct_gas_red":0,"pct_gas_garrafa":0,"pct_lena_guano":0,"pct_basura_formal":0,"pct_basura_quema":71,"pct_basura_informal":0,"pct_internet":64,"pct_celular":86,"pct_televisor":0}},{"type":"Feature","geometry":{"type":"Polygon","coordinates":[[[-65.97003,-19.12511],[-65.96976,-19.12493],[-65.96986,-19.1248],[-65.97037,-19.12516],[-65.97086,-19.12531],[-65.97068,-19.12546],[-65.97052,-19.12548],[-65.97052,-19.12573],[-65.97044,-19.1258],[-65.9702,-19.12567],[-65.9701,-19.12533],[-65.97003,-19.12532],[-65.97003,-19.12511]]]},"properties":{"n":"ANTHURA","p":20,"personas_x_ha":47,"masculinidad":100,"pct_menor20":55,"pct_60mas":10,"pct_migrante":5,"dependencia_econ":67,"pct_empleados":0,"pct_cuentapropia":42,"pct_agricultura":83,"pct_comercio":0,"pct_manufactura":0,"pct_construccion":0,"pct_transporte":0,"pct_alojamiento":0,"pct_sin_educacion":11,"pct_educ_superior":0,"brecha_educ":-55,"pct_sin_seguro":20,"pct_sus":55,"pct_seguro_privado":0,"brecha_seguro":0,"pct_salud_publica":34,"pct_med_tradicional":16,"pct_automedicacion":3,"pct_remedios_caseros":31,"pct_viv_desocupada":33,"pct_alquiler":0,"pct_electricidad":80,"pct_sin_electricidad":0,"pct_agua_red":60,"pct_alcantarillado":20,"pct_camara_septica":0,"pct_pozo_ciego":60,"pct_sin_desague":20,"pct_gas_red":20,"pct_gas_garrafa":0,"pct_lena_guano":0,"pct_basura_formal":20,"pct_basura_quema":80,"pct_basura_informal":0,"pct_internet":40,"pct_celular":80,"pct_televisor":40}},{"type":"Feature","geometry":{"type":"Polygon","coordinates":[[[-65.97115,-19.12511],[-65.97128,-19.1251],[-65.9713,-19.12524],[-65.97156,-19.12524],[-65.97136,-19.12463],[-65.97125,-19.12466],[-65.97064,-19.12447],[-65.97025,-19.12456],[-65.97115,-19.12511]]]},"properties":{"n":"ANTHURA","p":47,"personas_x_ha":94,"masculinidad":147,"pct_menor20":47,"pct_60mas":4,"pct_migrante":26,"dependencia_econ":104,"pct_empleados":4,"pct_cuentapropia":70,"pct_agricultura":96,"pct_comercio":0,"pct_manufactura":0,"pct_construccion":0,"pct_transporte":0,"pct_alojamiento":0,"pct_sin_educacion":4,"pct_educ_superior":8,"brecha_educ":-25,"pct_sin_seguro":37,"pct_sus":63,"pct_seguro_privado":0,"brecha_seguro":18,"pct_salud_publica":41,"pct_med_tradicional":11,"pct_automedicacion":5,"pct_remedios_caseros":36,"pct_viv_desocupada":0,"pct_alquiler":0,"pct_electricidad":82,"pct_sin_electricidad":18,"pct_agua_red":36,"pct_alcantarillado":0,"pct_camara_septica":0,"pct_pozo_ciego":0,"pct_sin_desague":91,"pct_gas_red":9,"pct_gas_garrafa":27,"pct_lena_guano":27,"pct_basura_formal":0,"pct_basura_quema":64,"pct_basura_informal":36,"pct_internet":36,"pct_celular":82,"pct_televisor":45}},{"type":"Feature","geometry":{"type":"Polygon","coordinates":[[[-65.97054,-19.12512],[-65.97063,-19.12491],[-65.9702,-19.12459],[-65.97,-19.12484],[-65.97062,-19.12522],[-65.97065,-19.12516],[-65.97054,-19.12512]]]},"properties":{"n":"ANTHURA","p":41,"personas_x_ha":178,"masculinidad":86,"pct_menor20":49,"pct_60mas":5,"pct_migrante":39,"dependencia_econ":208,"pct_empleados":54,"pct_cuentapropia":23,"pct_agricultura":38,"pct_comercio":0,"pct_manufactura":0,"pct_construccion":23,"pct_transporte":0,"pct_alojamiento":0,"pct_sin_educacion":10,"pct_educ_superior":25,"brecha_educ":10,"pct_sin_seguro":0,"pct_sus":82,"pct_seguro_privado":0,"brecha_seguro":0,"pct_salud_publica":30,"pct_med_tradicional":12,"pct_automedicacion":17,"pct_remedios_caseros":26,"pct_viv_desocupada":19,"pct_alquiler":0,"pct_electricidad":92,"pct_sin_electricidad":8,"pct_agua_red":23,"pct_alcantarillado":0,"pct_camara_septica":8,"pct_pozo_ciego":38,"pct_sin_desague":31,"pct_gas_red":0,"pct_gas_garrafa":62,"pct_lena_guano":62,"pct_basura_formal":23,"pct_basura_quema":69,"pct_basura_informal":0,"pct_internet":69,"pct_celular":77,"pct_televisor":62}},{"type":"Feature","geometry":{"type":"Polygon","coordinates":[[[-65.97025,-19.12575],[-65.97013,-19.12553],[-65.96994,-19.12552],[-65.96983,-19.12582],[-65.96963,-19.1259],[-65.96953,-19.12604],[-65.9698,-19.12625],[-65.97032,-19.12646],[-65.97057,-19.12647],[-65.97057,-19.12607],[-65.9705,-19.12593],[-65.97026,-19.12575],[-65.97017,-19.12597],[-65.97025,-19.12575]]]},"properties":{"n":"ANTHURA","p":36,"personas_x_ha":54,"masculinidad":157,"pct_menor20":17,"pct_60mas":22,"pct_migrante":0,"dependencia_econ":16,"pct_empleados":0,"pct_cuentapropia":45,"pct_agricultura":100,"pct_comercio":0,"pct_manufactura":0,"pct_construccion":0,"pct_transporte":0,"pct_alojamiento":0,"pct_sin_educacion":7,"pct_educ_superior":0,"brecha_educ":-9,"pct_sin_seguro":0,"pct_sus":100,"pct_seguro_privado":0,"brecha_seguro":0,"pct_salud_publica":37,"pct_med_tradicional":27,"pct_automedicacion":0,"pct_remedios_caseros":34,"pct_viv_desocupada":0,"pct_alquiler":0,"pct_electricidad":100,"pct_sin_electricidad":0,"pct_agua_red":70,"pct_alcantarillado":0,"pct_camara_septica":0,"pct_pozo_ciego":0,"pct_sin_desague":100,"pct_gas_red":0,"pct_gas_garrafa":0,"pct_lena_guano":0,"pct_basura_formal":0,"pct_basura_quema":100,"pct_basura_informal":0,"pct_internet":40,"pct_celular":70,"pct_televisor":10}},{"type":"Feature","geometry":{"type":"Polygon","coordinates":[[[-65.97013,-19.12444],[-65.96976,-19.12421],[-65.96962,-19.12419],[-65.96957,-19.12439],[-65.96963,-19.1245],[-65.97,-19.12466],[-65.97012,-19.12458],[-65.97013,-19.12444]]]},"properties":{"n":"ANTHURA","p":33,"personas_x_ha":184,"masculinidad":120,"pct_menor20":27,"pct_60mas":15,"pct_migrante":0,"dependencia_econ":3000,"pct_empleados":0,"pct_cuentapropia":0,"pct_agricultura":100,"pct_comercio":0,"pct_manufactura":0,"pct_construccion":0,"pct_transporte":0,"pct_alojamiento":0,"pct_sin_educacion":13,"pct_educ_superior":26,"brecha_educ":-22,"pct_sin_seguro":0,"pct_sus":97,"pct_seguro_privado":0,"brecha_seguro":0,"pct_salud_publica":82,"pct_med_tradicional":3,"pct_automedicacion":0,"pct_remedios_caseros":13,"pct_viv_desocupada":19,"pct_alquiler":0,"pct_electricidad":91,"pct_sin_electricidad":9,"pct_agua_red":64,"pct_alcantarillado":0,"pct_camara_septica":0,"pct_pozo_ciego":0,"pct_sin_desague":100,"pct_gas_red":0,"pct_gas_garrafa":9,"pct_lena_guano":9,"pct_basura_formal":0,"pct_basura_quema":45,"pct_basura_informal":0,"pct_internet":0,"pct_celular":45,"pct_televisor":45}},{"type":"Feature","geometry":{"type":"Polygon","coordinates":[[[-65.96928,-19.12256],[-65.96904,-19.12256],[-65.96908,-19.12215],[-65.96945,-19.12227],[-65.9695,-19.12236],[-65.96998,-19.12237],[-65.96988,-19.12304],[-65.96926,-19.123],[-65.96897,-19.12287],[-65.96904,-19.12259],[-65.96928,-19.12256]]]},"properties":{"n":"ANTHURA","p":20,"personas_x_ha":27,"masculinidad":82,"pct_menor20":40,"pct_60mas":5,"pct_migrante":10,"dependencia_econ":100,"pct_empleados":0,"pct_cuentapropia":40,"pct_agricultura":100,"pct_comercio":0,"pct_manufactura":0,"pct_construccion":0,"pct_transporte":0,"pct_alojamiento":0,"pct_sin_educacion":17,"pct_educ_superior":8,"brecha_educ":-33,"pct_sin_seguro":20,"pct_sus":80,"pct_seguro_privado":0,"brecha_seguro":24,"pct_salud_publica":31,"pct_med_tradicional":15,"pct_automedicacion":8,"pct_remedios_caseros":33,"pct_viv_desocupada":31,"pct_alquiler":0,"pct_electricidad":88,"pct_sin_electricidad":12,"pct_agua_red":100,"pct_alcantarillado":0,"pct_camara_septica":0,"pct_pozo_ciego":0,"pct_sin_desague":100,"pct_gas_red":0,"pct_gas_garrafa":62,"pct_lena_guano":62,"pct_basura_formal":0,"pct_basura_quema":75,"pct_basura_informal":0,"pct_internet":62,"pct_celular":75,"pct_televisor":38}},{"type":"Feature","geometry":{"type":"Polygon","coordinates":[[[-65.97017,-19.12391],[-65.96974,-19.12374],[-65.96977,-19.12353],[-65.97053,-19.12365],[-65.97047,-19.124],[-65.97027,-19.12444],[-65.96998,-19.12432],[-65.97022,-19.12383],[-65.97017,-19.12391]]]},"properties":{"n":"ANTHURA","p":17,"personas_x_ha":40,"masculinidad":143,"pct_menor20":59,"pct_60mas":6,"pct_migrante":6,"dependencia_econ":70,"pct_empleados":0,"pct_cuentapropia":100,"pct_agricultura":100,"pct_comercio":0,"pct_manufactura":0,"pct_construccion":0,"pct_transporte":0,"pct_alojamiento":0,"pct_sin_educacion":0,"pct_educ_superior":0,"brecha_educ":0,"pct_sin_seguro":0,"pct_sus":100,"pct_seguro_privado":0,"brecha_seguro":0,"pct_salud_publica":30,"pct_med_tradicional":13,"pct_automedicacion":0,"pct_remedios_caseros":36,"pct_viv_desocupada":25,"pct_alquiler":0,"pct_electricidad":100,"pct_sin_electricidad":0,"pct_agua_red":80,"pct_alcantarillado":0,"pct_camara_septica":0,"pct_pozo_ciego":0,"pct_sin_desague":100,"pct_gas_red":0,"pct_gas_garrafa":20,"pct_lena_guano":20,"pct_basura_formal":0,"pct_basura_quema":60,"pct_basura_informal":0,"pct_internet":100,"pct_celular":100,"pct_televisor":40}},{"type":"Feature","geometry":{"type":"Polygon","coordinates":[[[-65.97278,-19.12396],[-65.97248,-19.12427],[-65.97247,-19.12449],[-65.97236,-19.12461],[-65.97241,-19.12473],[-65.97272,-19.12483],[-65.9728,-19.12475],[-65.97269,-19.12459],[-65.97272,-19.12436],[-65.97306,-19.12426],[-65.97307,-19.12401],[-65.97292,-19.12393],[-65.97278,-19.12396]]]},"properties":{"n":"ANTHURA","p":43,"personas_x_ha":122,"masculinidad":115,"pct_menor20":53,"pct_60mas":9,"pct_migrante":21,"dependencia_econ":110,"pct_empleados":45,"pct_cuentapropia":40,"pct_agricultura":20,"pct_comercio":5,"pct_manufactura":5,"pct_construccion":15,"pct_transporte":5,"pct_alojamiento":15,"pct_sin_educacion":14,"pct_educ_superior":5,"brecha_educ":-38,"pct_sin_seguro":14,"pct_sus":76,"pct_seguro_privado":0,"brecha_seguro":8,"pct_salud_publica":21,"pct_med_tradicional":12,"pct_automedicacion":20,"pct_remedios_caseros":20,"pct_viv_desocupada":0,"pct_alquiler":0,"pct_electricidad":93,"pct_sin_electricidad":7,"pct_agua_red":93,"pct_alcantarillado":20,"pct_camara_septica":0,"pct_pozo_ciego":13,"pct_sin_desague":67,"pct_gas_red":0,"pct_gas_garrafa":27,"pct_lena_guano":27,"pct_basura_formal":0,"pct_basura_quema":80,"pct_basura_informal":0,"pct_internet":53,"pct_celular":60,"pct_televisor":20}},{"type":"Feature","geometry":{"type":"Polygon","coordinates":[[[-65.96944,-19.12491],[-65.96966,-19.1249],[-65.96967,-19.12497],[-65.96995,-19.12508],[-65.96992,-19.12532],[-65.96946,-19.12526],[-65.9694,-19.12496],[-65.96951,-19.12496],[-65.96944,-19.12491]]]},"properties":{"n":"ANTHURA","p":18,"personas_x_ha":93,"masculinidad":157,"pct_menor20":22,"pct_60mas":0,"pct_migrante":28,"dependencia_econ":13,"pct_empleados":7,"pct_cuentapropia":20,"pct_agricultura":73,"pct_comercio":0,"pct_manufactura":0,"pct_construccion":0,"pct_transporte":0,"pct_alojamiento":0,"pct_sin_educacion":0,"pct_educ_superior":31,"brecha_educ":-28,"pct_sin_seguro":35,"pct_sus":47,"pct_seguro_privado":6,"brecha_seguro":-13,"pct_salud_publica":30,"pct_med_tradicional":2,"pct_automedicacion":7,"pct_remedios_caseros":35,"pct_viv_desocupada":33,"pct_alquiler":0,"pct_electricidad":0,"pct_sin_electricidad":100,"pct_agua_red":50,"pct_alcantarillado":0,"pct_camara_septica":0,"pct_pozo_ciego":0,"pct_sin_desague":100,"pct_gas_red":0,"pct_gas_garrafa":50,"pct_lena_guano":50,"pct_basura_formal":0,"pct_basura_quema":50,"pct_basura_informal":0,"pct_internet":0,"pct_celular":100,"pct_televisor":0}},{"type":"Feature","geometry":{"type":"Polygon","coordinates":[[[-65.82161,-19.22127],[-65.82206,-19.22082],[-65.82207,-19.22064],[-65.82236,-19.2209],[-65.82186,-19.2214],[-65.82166,-19.22144],[-65.82163,-19.22134],[-65.8217,-19.22129],[-65.82161,-19.22127]]]},"properties":{"n":"TINGUIPAYA","p":52,"personas_x_ha":206,"masculinidad":62,"pct_menor20":17,"pct_60mas":42,"pct_migrante":31,"dependencia_econ":76,"pct_empleados":31,"pct_cuentapropia":45,"pct_agricultura":3,"pct_comercio":14,"pct_manufactura":10,"pct_construccion":3,"pct_transporte":7,"pct_alojamiento":3,"pct_sin_educacion":0,"pct_educ_superior":55,"brecha_educ":-22,"pct_sin_seguro":8,"pct_sus":65,"pct_seguro_privado":4,"brecha_seguro":12,"pct_salud_publica":22,"pct_med_tradicional":12,"pct_automedicacion":13,"pct_remedios_caseros":23,"pct_viv_desocupada":3,"pct_alquiler":13,"pct_electricidad":96,"pct_sin_electricidad":4,"pct_agua_red":91,"pct_alcantarillado":78,"pct_camara_septica":0,"pct_pozo_ciego":0,"pct_sin_desague":22,"pct_gas_red":0,"pct_gas_garrafa":100,"pct_lena_guano":100,"pct_basura_formal":91,"pct_basura_quema":0,"pct_basura_informal":0,"pct_internet":65,"pct_celular":91,"pct_televisor":91}},{"type":"Feature","geometry":{"type":"Polygon","coordinates":[[[-65.82209,-19.22154],[-65.82243,-19.22125],[-65.82233,-19.22096],[-65.8217,-19.22159],[-65.82189,-19.22177],[-65.82188,-19.22202],[-65.82205,-19.22201],[-65.82218,-19.2217],[-65.82209,-19.22154]]]},"properties":{"n":"TINGUIPAYA","p":35,"personas_x_ha":102,"masculinidad":75,"pct_menor20":14,"pct_60mas":43,"pct_migrante":37,"dependencia_econ":84,"pct_empleados":47,"pct_cuentapropia":37,"pct_agricultura":11,"pct_comercio":21,"pct_manufactura":5,"pct_construccion":11,"pct_transporte":0,"pct_alojamiento":0,"pct_sin_educacion":3,"pct_educ_superior":40,"brecha_educ":-20,"pct_sin_seguro":6,"pct_sus":69,"pct_seguro_privado":0,"brecha_seguro":13,"pct_salud_publica":21,"pct_med_tradicional":10,"pct_automedicacion":14,"pct_remedios_caseros":25,"pct_viv_desocupada":0,"pct_alquiler":14,"pct_electricidad":81,"pct_sin_electricidad":19,"pct_agua_red":95,"pct_alcantarillado":76,"pct_camara_septica":0,"pct_pozo_ciego":0,"pct_sin_desague":24,"pct_gas_red":0,"pct_gas_garrafa":100,"pct_lena_guano":100,"pct_basura_formal":100,"pct_basura_quema":0,"pct_basura_informal":0,"pct_internet":52,"pct_celular":95,"pct_televisor":62}},{"type":"Feature","geometry":{"type":"Polygon","coordinates":[[[-65.82425,-19.21931],[-65.82336,-19.21943],[-65.82387,-19.2197],[-65.82395,-19.21956],[-65.82422,-19.21944],[-65.82425,-19.21931]]]},"properties":{"n":"TINGUIPAYA","p":27,"personas_x_ha":138,"masculinidad":80,"pct_menor20":56,"pct_60mas":7,"pct_migrante":26,"dependencia_econ":136,"pct_empleados":18,"pct_cuentapropia":55,"pct_agricultura":27,"pct_comercio":27,"pct_manufactura":0,"pct_construccion":9,"pct_transporte":9,"pct_alojamiento":0,"pct_sin_educacion":25,"pct_educ_superior":8,"brecha_educ":-3,"pct_sin_seguro":17,"pct_sus":50,"pct_seguro_privado":0,"brecha_seguro":-17,"pct_salud_publica":22,"pct_med_tradicional":11,"pct_automedicacion":10,"pct_remedios_caseros":21,"pct_viv_desocupada":0,"pct_alquiler":0,"pct_electricidad":80,"pct_sin_electricidad":20,"pct_agua_red":80,"pct_alcantarillado":80,"pct_camara_septica":0,"pct_pozo_ciego":0,"pct_sin_desague":20,"pct_gas_red":0,"pct_gas_garrafa":80,"pct_lena_guano":80,"pct_basura_formal":80,"pct_basura_quema":0,"pct_basura_informal":0,"pct_internet":60,"pct_celular":80,"pct_televisor":60}},{"type":"Feature","geometry":{"type":"Polygon","coordinates":[[[-65.82281,-19.21956],[-65.82258,-19.21963],[-65.82257,-19.21979],[-65.82354,-19.21979],[-65.82343,-19.21987],[-65.82346,-19.22022],[-65.82377,-19.22018],[-65.82381,-19.21972],[-65.82333,-19.21947],[-65.82322,-19.21949],[-65.82319,-19.21918],[-65.82263,-19.21918],[-65.82274,-19.21923],[-65.82273,-19.21941],[-65.82261,-19.2194],[-65.8226,-19.21947],[-65.82281,-19.21948],[-65.82281,-19.21956]]]},"properties":{"n":"TINGUIPAYA","p":41,"personas_x_ha":60,"masculinidad":86,"pct_menor20":20,"pct_60mas":34,"pct_migrante":22,"dependencia_econ":173,"pct_empleados":20,"pct_cuentapropia":33,"pct_agricultura":33,"pct_comercio":0,"pct_manufactura":0,"pct_construccion":13,"pct_transporte":13,"pct_alojamiento":7,"pct_sin_educacion":12,"pct_educ_superior":24,"brecha_educ":2,"pct_sin_seguro":40,"pct_sus":48,"pct_seguro_privado":0,"brecha_seguro":-16,"pct_salud_publica":30,"pct_med_tradicional":8,"pct_automedicacion":17,"pct_remedios_caseros":24,"pct_viv_desocupada":10,"pct_alquiler":6,"pct_electricidad":94,"pct_sin_electricidad":6,"pct_agua_red":100,"pct_alcantarillado":81,"pct_camara_septica":0,"pct_pozo_ciego":0,"pct_sin_desague":19,"pct_gas_red":0,"pct_gas_garrafa":94,"pct_lena_guano":94,"pct_basura_formal":88,"pct_basura_quema":6,"pct_basura_informal":0,"pct_internet":62,"pct_celular":81,"pct_televisor":81}},{"type":"Feature","geometry":{"type":"Polygon","coordinates":[[[-65.82325,-19.22076],[-65.82326,-19.22062],[-65.82309,-19.22046],[-65.82269,-19.22066],[-65.82277,-19.22075],[-65.82325,-19.22076]]]},"properties":{"n":"TINGUIPAYA","p":22,"personas_x_ha":155,"masculinidad":83,"pct_menor20":23,"pct_60mas":32,"pct_migrante":50,"dependencia_econ":83,"pct_empleados":33,"pct_cuentapropia":58,"pct_agricultura":25,"pct_comercio":33,"pct_manufactura":0,"pct_construccion":8,"pct_transporte":0,"pct_alojamiento":0,"pct_sin_educacion":6,"pct_educ_superior":29,"brecha_educ":-19,"pct_sin_seguro":5,"pct_sus":33,"pct_seguro_privado":0,"brecha_seguro":10,"pct_salud_publica":20,"pct_med_tradicional":11,"pct_automedicacion":14,"pct_remedios_caseros":22,"pct_viv_desocupada":0,"pct_alquiler":30,"pct_electricidad":100,"pct_sin_electricidad":0,"pct_agua_red":90,"pct_alcantarillado":90,"pct_camara_septica":0,"pct_pozo_ciego":0,"pct_sin_desague":10,"pct_gas_red":0,"pct_gas_garrafa":90,"pct_lena_guano":90,"pct_basura_formal":90,"pct_basura_quema":10,"pct_basura_informal":0,"pct_internet":40,"pct_celular":70,"pct_televisor":60}},{"type":"Feature","geometry":{"type":"Polygon","coordinates":[[[-65.82064,-19.22281],[-65.82076,-19.22262],[-65.82059,-19.2226],[-65.82059,-19.22213],[-65.82051,-19.22214],[-65.82028,-19.22263],[-65.82053,-19.22266],[-65.8205,-19.22277],[-65.82064,-19.22281]]]},"properties":{"n":"TINGUIPAYA","p":18,"personas_x_ha":102,"masculinidad":100,"pct_menor20":17,"pct_60mas":28,"pct_migrante":11,"dependencia_econ":38,"pct_empleados":15,"pct_cuentapropia":69,"pct_agricultura":46,"pct_comercio":0,"pct_manufactura":0,"pct_construccion":38,"pct_transporte":0,"pct_alojamiento":0,"pct_sin_educacion":12,"pct_educ_superior":19,"brecha_educ":-35,"pct_sin_seguro":33,"pct_sus":67,"pct_seguro_privado":0,"brecha_seguro":0,"pct_salud_publica":31,"pct_med_tradicional":5,"pct_automedicacion":5,"pct_remedios_caseros":36,"pct_viv_desocupada":40,"pct_alquiler":0,"pct_electricidad":78,"pct_sin_electricidad":22,"pct_agua_red":100,"pct_alcantarillado":44,"pct_camara_septica":0,"pct_pozo_ciego":0,"pct_sin_desague":56,"pct_gas_red":0,"pct_gas_garrafa":89,"pct_lena_guano":89,"pct_basura_formal":11,"pct_basura_quema":22,"pct_basura_informal":0,"pct_internet":33,"pct_celular":67,"pct_televisor":44}},{"type":"Feature","geometry":{"type":"Polygon","coordinates":[[[-65.82474,-19.22343],[-65.82438,-19.22302],[-65.82452,-19.22287],[-65.82404,-19.22278],[-65.82407,-19.22301],[-65.82394,-19.22302],[-65.82394,-19.22311],[-65.82413,-19.22316],[-65.82496,-19.22369],[-65.82505,-19.22356],[-65.82474,-19.22343]]]},"properties":{"n":"TINGUIPAYA","p":24,"personas_x_ha":72,"masculinidad":100,"pct_menor20":58,"pct_60mas":4,"pct_migrante":46,"dependencia_econ":300,"pct_empleados":50,"pct_cuentapropia":50,"pct_agricultura":17,"pct_comercio":17,"pct_manufactura":0,"pct_construccion":17,"pct_transporte":0,"pct_alojamiento":0,"pct_sin_educacion":9,"pct_educ_superior":55,"brecha_educ":-43,"pct_sin_seguro":21,"pct_sus":50,"pct_seguro_privado":0,"brecha_seguro":-8,"pct_salud_publica":26,"pct_med_tradicional":13,"pct_automedicacion":17,"pct_remedios_caseros":26,"pct_viv_desocupada":0,"pct_alquiler":14,"pct_electricidad":100,"pct_sin_electricidad":0,"pct_agua_red":86,"pct_alcantarillado":0,"pct_camara_septica":43,"pct_pozo_ciego":29,"pct_sin_desague":14,"pct_gas_red":0,"pct_gas_garrafa":100,"pct_lena_guano":100,"pct_basura_formal":71,"pct_basura_quema":29,"pct_basura_informal":0,"pct_internet":86,"pct_celular":100,"pct_televisor":86}},{"type":"Feature","geometry":{"type":"Polygon","coordinates":[[[-65.82303,-19.22041],[-65.82242,-19.22045],[-65.82242,-19.22049],[-65.82263,-19.22068],[-65.82265,-19.22058],[-65.8227,-19.22062],[-65.82303,-19.22041]]]},"properties":{"n":"TINGUIPAYA","p":21,"personas_x_ha":245,"masculinidad":62,"pct_menor20":19,"pct_60mas":38,"pct_migrante":62,"dependencia_econ":40,"pct_empleados":40,"pct_cuentapropia":47,"pct_agricultura":7,"pct_comercio":33,"pct_manufactura":7,"pct_construccion":13,"pct_transporte":7,"pct_alojamiento":7,"pct_sin_educacion":5,"pct_educ_superior":37,"brecha_educ":-18,"pct_sin_seguro":0,"pct_sus":76,"pct_seguro_privado":5,"brecha_seguro":0,"pct_salud_publica":27,"pct_med_tradicional":9,"pct_automedicacion":13,"pct_remedios_caseros":26,"pct_viv_desocupada":0,"pct_alquiler":10,"pct_electricidad":100,"pct_sin_electricidad":0,"pct_agua_red":90,"pct_alcantarillado":90,"pct_camara_septica":0,"pct_pozo_ciego":0,"pct_sin_desague":10,"pct_gas_red":0,"pct_gas_garrafa":100,"pct_lena_guano":100,"pct_basura_formal":100,"pct_basura_quema":0,"pct_basura_informal":0,"pct_internet":70,"pct_celular":80,"pct_televisor":80}},{"type":"Feature","geometry":{"type":"Polygon","coordinates":[[[-65.8226,-19.21949],[-65.8226,-19.21962],[-65.8227,-19.21961],[-65.82271,-19.21949],[-65.8226,-19.21949]]]},"properties":{"n":"TINGUIPAYA","p":22,"personas_x_ha":1441,"masculinidad":47,"pct_menor20":27,"pct_60mas":27,"pct_migrante":41,"dependencia_econ":144,"pct_empleados":33,"pct_cuentapropia":67,"pct_agricultura":0,"pct_comercio":11,"pct_manufactura":22,"pct_construccion":11,"pct_transporte":0,"pct_alojamiento":22,"pct_sin_educacion":0,"pct_educ_superior":56,"brecha_educ":-9,"pct_sin_seguro":5,"pct_sus":64,"pct_seguro_privado":9,"brecha_seguro":14,"pct_salud_publica":25,"pct_med_tradicional":4,"pct_automedicacion":15,"pct_remedios_caseros":33,"pct_viv_desocupada":29,"pct_alquiler":22,"pct_electricidad":100,"pct_sin_electricidad":0,"pct_agua_red":100,"pct_alcantarillado":78,"pct_camara_septica":0,"pct_pozo_ciego":0,"pct_sin_desague":22,"pct_gas_red":0,"pct_gas_garrafa":100,"pct_lena_guano":100,"pct_basura_formal":100,"pct_basura_quema":0,"pct_basura_informal":0,"pct_internet":89,"pct_celular":100,"pct_televisor":100}},{"type":"Feature","geometry":{"type":"Polygon","coordinates":[[[-65.82084,-19.22239],[-65.82084,-19.22194],[-65.82092,-19.22182],[-65.82082,-19.22175],[-65.82062,-19.22209],[-65.82063,-19.22257],[-65.82076,-19.22259],[-65.82084,-19.22239]]]},"properties":{"n":"TINGUIPAYA","p":45,"personas_x_ha":257,"masculinidad":50,"pct_menor20":36,"pct_60mas":13,"pct_migrante":36,"dependencia_econ":221,"pct_empleados":7,"pct_cuentapropia":57,"pct_agricultura":0,"pct_comercio":50,"pct_manufactura":14,"pct_construccion":7,"pct_transporte":0,"pct_alojamiento":7,"pct_sin_educacion":14,"pct_educ_superior":3,"brecha_educ":26,"pct_sin_seguro":29,"pct_sus":67,"pct_seguro_privado":2,"brecha_seguro":27,"pct_salud_publica":43,"pct_med_tradicional":6,"pct_automedicacion":11,"pct_remedios_caseros":24,"pct_viv_desocupada":9,"pct_alquiler":6,"pct_electricidad":88,"pct_sin_electricidad":6,"pct_agua_red":94,"pct_alcantarillado":75,"pct_camara_septica":0,"pct_pozo_ciego":0,"pct_sin_desague":25,"pct_gas_red":0,"pct_gas_garrafa":100,"pct_lena_guano":100,"pct_basura_formal":6,"pct_basura_quema":31,"pct_basura_informal":0,"pct_internet":75,"pct_celular":88,"pct_televisor":56}},{"type":"Feature","geometry":{"type":"Polygon","coordinates":[[[-65.82246,-19.22],[-65.82216,-19.21999],[-65.82214,-19.2203],[-65.82226,-19.22031],[-65.82227,-19.22011],[-65.82246,-19.2201],[-65.82246,-19.22]]]},"properties":{"n":"TINGUIPAYA","p":23,"personas_x_ha":340,"masculinidad":156,"pct_menor20":4,"pct_60mas":26,"pct_migrante":9,"dependencia_econ":156,"pct_empleados":44,"pct_cuentapropia":44,"pct_agricultura":11,"pct_comercio":0,"pct_manufactura":22,"pct_construccion":0,"pct_transporte":11,"pct_alojamiento":0,"pct_sin_educacion":5,"pct_educ_superior":68,"brecha_educ":-33,"pct_sin_seguro":9,"pct_sus":86,"pct_seguro_privado":0,"brecha_seguro":-3,"pct_salud_publica":23,"pct_med_tradicional":8,"pct_automedicacion":21,"pct_remedios_caseros":23,"pct_viv_desocupada":8,"pct_alquiler":0,"pct_electricidad":100,"pct_sin_electricidad":0,"pct_agua_red":100,"pct_alcantarillado":75,"pct_camara_septica":0,"pct_pozo_ciego":0,"pct_sin_desague":25,"pct_gas_red":0,"pct_gas_garrafa":100,"pct_lena_guano":100,"pct_basura_formal":100,"pct_basura_quema":0,"pct_basura_informal":0,"pct_internet":50,"pct_celular":75,"pct_televisor":100}},{"type":"Feature","geometry":{"type":"Polygon","coordinates":[[[-65.82261,-19.21924],[-65.82235,-19.21928],[-65.82232,-19.2196],[-65.82238,-19.21952],[-65.82238,-19.2196],[-65.82257,-19.2196],[-65.82258,-19.21941],[-65.82249,-19.21944],[-65.82258,-19.2194],[-65.82261,-19.21924]]]},"properties":{"n":"TINGUIPAYA","p":18,"personas_x_ha":179,"masculinidad":100,"pct_menor20":11,"pct_60mas":33,"pct_migrante":33,"dependencia_econ":42,"pct_empleados":33,"pct_cuentapropia":42,"pct_agricultura":0,"pct_comercio":17,"pct_manufactura":17,"pct_construccion":17,"pct_transporte":0,"pct_alojamiento":8,"pct_sin_educacion":7,"pct_educ_superior":33,"brecha_educ":-20,"pct_sin_seguro":35,"pct_sus":41,"pct_seguro_privado":12,"brecha_seguro":43,"pct_salud_publica":20,"pct_med_tradicional":6,"pct_automedicacion":20,"pct_remedios_caseros":31,"pct_viv_desocupada":18,"pct_alquiler":0,"pct_electricidad":100,"pct_sin_electricidad":0,"pct_agua_red":100,"pct_alcantarillado":44,"pct_camara_septica":0,"pct_pozo_ciego":0,"pct_sin_desague":56,"pct_gas_red":0,"pct_gas_garrafa":100,"pct_lena_guano":100,"pct_basura_formal":78,"pct_basura_quema":0,"pct_basura_informal":0,"pct_internet":67,"pct_celular":100,"pct_televisor":67}},{"type":"Feature","geometry":{"type":"Polygon","coordinates":[[[-65.82249,-19.22082],[-65.82255,-19.22089],[-65.82251,-19.22081],[-65.82261,-19.22073],[-65.82267,-19.22094],[-65.82278,-19.22092],[-65.82268,-19.22093],[-65.82262,-19.22071],[-65.82267,-19.22067],[-65.82286,-19.22077],[-65.82286,-19.22088],[-65.82296,-19.22091],[-65.82307,-19.22085],[-65.82288,-19.22087],[-65.82288,-19.22079],[-65.82325,-19.22078],[-65.82321,-19.22104],[-65.82331,-19.2213],[-65.82326,-19.22153],[-65.82293,-19.22149],[-65.82217,-19.22163],[-65.82214,-19.22155],[-65.82233,-19.22138],[-65.82237,-19.22141],[-65.82254,-19.22141],[-65.82234,-19.22137],[-65.82244,-19.22126],[-65.82237,-19.22092],[-65.82249,-19.22082]]]},"properties":{"n":"TINGUIPAYA","p":69,"personas_x_ha":86,"masculinidad":68,"pct_menor20":28,"pct_60mas":25,"pct_migrante":52,"dependencia_econ":77,"pct_empleados":21,"pct_cuentapropia":62,"pct_agricultura":21,"pct_comercio":26,"pct_manufactura":15,"pct_construccion":5,"pct_transporte":5,"pct_alojamiento":5,"pct_sin_educacion":8,"pct_educ_superior":42,"brecha_educ":-12,"pct_sin_seguro":15,"pct_sus":59,"pct_seguro_privado":3,"brecha_seguro":-1,"pct_salud_publica":23,"pct_med_tradicional":8,"pct_automedicacion":19,"pct_remedios_caseros":22,"pct_viv_desocupada":12,"pct_alquiler":0,"pct_electricidad":90,"pct_sin_electricidad":7,"pct_agua_red":93,"pct_alcantarillado":67,"pct_camara_septica":0,"pct_pozo_ciego":3,"pct_sin_desague":30,"pct_gas_red":0,"pct_gas_garrafa":93,"pct_lena_guano":93,"pct_basura_formal":97,"pct_basura_quema":0,"pct_basura_informal":0,"pct_internet":87,"pct_celular":90,"pct_televisor":70}},{"type":"Feature","geometry":{"type":"Polygon","coordinates":[[[-65.82395,-19.21982],[-65.82387,-19.2198],[-65.82378,-19.21997],[-65.82381,-19.22016],[-65.82391,-19.22014],[-65.8237,-19.22024],[-65.8238,-19.22042],[-65.8247,-19.21994],[-65.82489,-19.21992],[-65.82498,-19.21974],[-65.82427,-19.21996],[-65.82429,-19.21984],[-65.82419,-19.21983],[-65.82425,-19.21947],[-65.82391,-19.21964],[-65.82395,-19.21982]]]},"properties":{"n":"TINGUIPAYA","p":56,"personas_x_ha":111,"masculinidad":75,"pct_menor20":54,"pct_60mas":14,"pct_migrante":32,"dependencia_econ":224,"pct_empleados":29,"pct_cuentapropia":59,"pct_agricultura":18,"pct_comercio":24,"pct_manufactura":0,"pct_construccion":18,"pct_transporte":6,"pct_alojamiento":6,"pct_sin_educacion":22,"pct_educ_superior":15,"brecha_educ":-32,"pct_sin_seguro":4,"pct_sus":69,"pct_seguro_privado":0,"brecha_seguro":8,"pct_salud_publica":22,"pct_med_tradicional":19,"pct_automedicacion":8,"pct_remedios_caseros":21,"pct_viv_desocupada":11,"pct_alquiler":6,"pct_electricidad":83,"pct_sin_electricidad":17,"pct_agua_red":83,"pct_alcantarillado":72,"pct_camara_septica":0,"pct_pozo_ciego":0,"pct_sin_desague":28,"pct_gas_red":0,"pct_gas_garrafa":83,"pct_lena_guano":83,"pct_basura_formal":56,"pct_basura_quema":39,"pct_basura_informal":0,"pct_internet":56,"pct_celular":83,"pct_televisor":39}},{"type":"Feature","geometry":{"type":"Polygon","coordinates":[[[-65.82255,-19.21963],[-65.82231,-19.21961],[-65.82229,-19.21981],[-65.82218,-19.21981],[-65.82217,-19.21996],[-65.82252,-19.21999],[-65.82255,-19.21963]]]},"properties":{"n":"TINGUIPAYA","p":18,"personas_x_ha":146,"masculinidad":29,"pct_menor20":17,"pct_60mas":44,"pct_migrante":61,"dependencia_econ":100,"pct_empleados":33,"pct_cuentapropia":56,"pct_agricultura":11,"pct_comercio":22,"pct_manufactura":0,"pct_construccion":11,"pct_transporte":0,"pct_alojamiento":0,"pct_sin_educacion":13,"pct_educ_superior":53,"brecha_educ":-45,"pct_sin_seguro":11,"pct_sus":67,"pct_seguro_privado":0,"brecha_seguro":-14,"pct_salud_publica":25,"pct_med_tradicional":12,"pct_automedicacion":8,"pct_remedios_caseros":35,"pct_viv_desocupada":6,"pct_alquiler":17,"pct_electricidad":100,"pct_sin_electricidad":0,"pct_agua_red":92,"pct_alcantarillado":83,"pct_camara_septica":0,"pct_pozo_ciego":0,"pct_sin_desague":17,"pct_gas_red":0,"pct_gas_garrafa":100,"pct_lena_guano":100,"pct_basura_formal":83,"pct_basura_quema":0,"pct_basura_informal":0,"pct_internet":50,"pct_celular":92,"pct_televisor":92}}]}