{"type":"FeatureCollection","features":[{"type":"Feature","geometry":{"type":"Polygon","coordinates":[[[-65.56534,-19.58385],[-65.56574,-19.58197],[-65.56574,-19.58134],[-65.56562,-19.58108],[-65.56525,-19.58148],[-65.56459,-19.58256],[-65.56437,-19.58304],[-65.56468,-19.58318],[-65.56434,-19.58308],[-65.56407,-19.58365],[-65.5641,-19.58393],[-65.5643,-19.58412],[-65.56412,-19.58403],[-65.56403,-19.58373],[-65.56358,-19.58476],[-65.56321,-19.58595],[-65.56369,-19.58599],[-65.56413,-19.58616],[-65.56437,-19.58602],[-65.56437,-19.58515],[-65.56468,-19.58503],[-65.56478,-19.58457],[-65.56539,-19.58451],[-65.56534,-19.58385]]]},"properties":{"n":"CHAQUI","p":52,"personas_x_ha":9,"masculinidad":100,"pct_menor20":31,"pct_60mas":23,"pct_migrante":46,"dependencia_econ":112,"pct_empleados":29,"pct_cuentapropia":58,"pct_agricultura":29,"pct_comercio":25,"pct_manufactura":0,"pct_construccion":12,"pct_transporte":0,"pct_alojamiento":4,"pct_educ_superior":20,"brecha_educ":-18,"pct_sin_seguro":10,"pct_seguro_privado":2,"brecha_seguro":-4,"pct_med_tradicional":13,"pct_automedicacion":19,"pct_remedios_caseros":28,"pct_viv_desocupada":8,"pct_alquiler":14,"pct_electricidad":95,"pct_agua_red":59,"pct_alcantarillado":68,"pct_gas_red":59,"pct_gas_garrafa":36,"pct_lena_guano":36,"pct_basura_formal":41,"pct_basura_quema":36,"pct_basura_informal":18,"pct_internet":50,"pct_celular":82,"pct_televisor":77}},{"type":"Feature","geometry":{"type":"Polygon","coordinates":[[[-65.56173,-19.58873],[-65.56106,-19.58858],[-65.5609,-19.58925],[-65.56157,-19.58943],[-65.56173,-19.58873]]]},"properties":{"n":"CHAQUI","p":32,"personas_x_ha":57,"masculinidad":100,"pct_menor20":16,"pct_60mas":34,"pct_migrante":28,"dependencia_econ":88,"pct_empleados":41,"pct_cuentapropia":53,"pct_agricultura":12,"pct_comercio":29,"pct_manufactura":0,"pct_construccion":18,"pct_transporte":0,"pct_alojamiento":6,"pct_educ_superior":44,"brecha_educ":-20,"pct_sin_seguro":25,"pct_seguro_privado":0,"brecha_seguro":0,"pct_med_tradicional":7,"pct_automedicacion":15,"pct_remedios_caseros":20,"pct_viv_desocupada":11,"pct_alquiler":19,"pct_electricidad":100,"pct_agua_red":94,"pct_alcantarillado":94,"pct_gas_red":50,"pct_gas_garrafa":44,"pct_lena_guano":44,"pct_basura_formal":94,"pct_basura_quema":6,"pct_basura_informal":0,"pct_internet":81,"pct_celular":88,"pct_televisor":75}},{"type":"Feature","geometry":{"type":"Polygon","coordinates":[[[-65.56083,-19.58924],[-65.561,-19.58861],[-65.56034,-19.58844],[-65.56021,-19.58906],[-65.56083,-19.58924]]]},"properties":{"n":"CHAQUI","p":17,"personas_x_ha":33,"masculinidad":112,"pct_menor20":24,"pct_60mas":41,"pct_migrante":47,"dependencia_econ":31,"pct_empleados":15,"pct_cuentapropia":85,"pct_agricultura":23,"pct_comercio":38,"pct_manufactura":0,"pct_construccion":8,"pct_transporte":23,"pct_alojamiento":8,"pct_educ_superior":23,"brecha_educ":-36,"pct_sin_seguro":6,"pct_seguro_privado":0,"brecha_seguro":11,"pct_med_tradicional":0,"pct_automedicacion":28,"pct_remedios_caseros":28,"pct_viv_desocupada":0,"pct_alquiler":25,"pct_electricidad":100,"pct_agua_red":100,"pct_alcantarillado":100,"pct_gas_red":50,"pct_gas_garrafa":50,"pct_lena_guano":50,"pct_basura_formal":100,"pct_basura_quema":0,"pct_basura_informal":0,"pct_internet":88,"pct_celular":100,"pct_televisor":62}},{"type":"Feature","geometry":{"type":"Polygon","coordinates":[[[-65.56415,-19.58796],[-65.56283,-19.58763],[-65.56268,-19.58826],[-65.56394,-19.58858],[-65.56415,-19.58796]]]},"properties":{"n":"CHAQUI","p":38,"personas_x_ha":39,"masculinidad":58,"pct_menor20":39,"pct_60mas":8,"pct_migrante":63,"dependencia_econ":124,"pct_empleados":53,"pct_cuentapropia":35,"pct_agricultura":24,"pct_comercio":6,"pct_manufactura":0,"pct_construccion":18,"pct_transporte":6,"pct_alojamiento":18,"pct_educ_superior":26,"brecha_educ":-29,"pct_sin_seguro":11,"pct_seguro_privado":0,"brecha_seguro":6,"pct_med_tradicional":8,"pct_automedicacion":23,"pct_remedios_caseros":28,"pct_viv_desocupada":7,"pct_alquiler":46,"pct_electricidad":92,"pct_agua_red":92,"pct_alcantarillado":69,"pct_gas_red":23,"pct_gas_garrafa":69,"pct_lena_guano":69,"pct_basura_formal":92,"pct_basura_quema":8,"pct_basura_informal":0,"pct_internet":92,"pct_celular":100,"pct_televisor":69}},{"type":"Feature","geometry":{"type":"Polygon","coordinates":[[[-65.55872,-19.58872],[-65.55679,-19.58839],[-65.55682,-19.58818],[-65.55701,-19.58799],[-65.55731,-19.58713],[-65.55908,-19.58747],[-65.55872,-19.58872]]]},"properties":{"n":"CHAQUI","p":26,"personas_x_ha":9,"masculinidad":225,"pct_menor20":27,"pct_60mas":8,"pct_migrante":35,"dependencia_econ":44,"pct_empleados":61,"pct_cuentapropia":39,"pct_agricultura":17,"pct_comercio":17,"pct_manufactura":0,"pct_construccion":50,"pct_transporte":0,"pct_alojamiento":6,"pct_educ_superior":10,"brecha_educ":-7,"pct_sin_seguro":4,"pct_seguro_privado":16,"brecha_seguro":-12,"pct_med_tradicional":23,"pct_automedicacion":25,"pct_remedios_caseros":25,"pct_viv_desocupada":36,"pct_alquiler":0,"pct_electricidad":86,"pct_agua_red":100,"pct_alcantarillado":14,"pct_gas_red":29,"pct_gas_garrafa":71,"pct_lena_guano":71,"pct_basura_formal":43,"pct_basura_quema":43,"pct_basura_informal":0,"pct_internet":71,"pct_celular":86,"pct_televisor":86}},{"type":"Feature","geometry":{"type":"Polygon","coordinates":[[[-65.55965,-19.58823],[-65.56031,-19.58837],[-65.56047,-19.58774],[-65.55981,-19.58761],[-65.55965,-19.58823]]]},"properties":{"n":"CHAQUI","p":21,"personas_x_ha":42,"masculinidad":133,"pct_menor20":33,"pct_60mas":19,"pct_migrante":5,"dependencia_econ":110,"pct_empleados":10,"pct_cuentapropia":80,"pct_agricultura":40,"pct_comercio":10,"pct_manufactura":0,"pct_construccion":30,"pct_transporte":10,"pct_alojamiento":0,"pct_educ_superior":36,"brecha_educ":-29,"pct_sin_seguro":15,"pct_seguro_privado":0,"brecha_seguro":25,"pct_med_tradicional":8,"pct_automedicacion":21,"pct_remedios_caseros":31,"pct_viv_desocupada":0,"pct_alquiler":0,"pct_electricidad":100,"pct_agua_red":90,"pct_alcantarillado":90,"pct_gas_red":80,"pct_gas_garrafa":20,"pct_lena_guano":20,"pct_basura_formal":100,"pct_basura_quema":0,"pct_basura_informal":0,"pct_internet":70,"pct_celular":70,"pct_televisor":90}},{"type":"Feature","geometry":{"type":"Polygon","coordinates":[[[-65.56258,-19.5883],[-65.56194,-19.58811],[-65.56179,-19.58875],[-65.56244,-19.58891],[-65.56258,-19.5883]]]},"properties":{"n":"CHAQUI","p":20,"personas_x_ha":39,"masculinidad":82,"pct_menor20":20,"pct_60mas":15,"pct_migrante":25,"dependencia_econ":43,"pct_empleados":21,"pct_cuentapropia":79,"pct_agricultura":14,"pct_comercio":21,"pct_manufactura":0,"pct_construccion":21,"pct_transporte":14,"pct_alojamiento":0,"pct_educ_superior":38,"brecha_educ":-19,"pct_sin_seguro":5,"pct_seguro_privado":5,"brecha_seguro":-9,"pct_med_tradicional":10,"pct_automedicacion":27,"pct_remedios_caseros":24,"pct_viv_desocupada":0,"pct_alquiler":0,"pct_electricidad":92,"pct_agua_red":100,"pct_alcantarillado":67,"pct_gas_red":17,"pct_gas_garrafa":75,"pct_lena_guano":75,"pct_basura_formal":92,"pct_basura_quema":8,"pct_basura_informal":0,"pct_internet":50,"pct_celular":100,"pct_televisor":83}},{"type":"Feature","geometry":{"type":"Polygon","coordinates":[[[-65.56243,-19.58895],[-65.56176,-19.5888],[-65.56161,-19.58944],[-65.56228,-19.58958],[-65.56243,-19.58895]]]},"properties":{"n":"CHAQUI","p":21,"personas_x_ha":39,"masculinidad":320,"pct_menor20":0,"pct_60mas":29,"pct_migrante":33,"dependencia_econ":100,"pct_empleados":40,"pct_cuentapropia":30,"pct_agricultura":40,"pct_comercio":0,"pct_manufactura":0,"pct_construccion":10,"pct_transporte":20,"pct_alojamiento":0,"pct_educ_superior":30,"brecha_educ":-33,"pct_sin_seguro":50,"pct_seguro_privado":0,"brecha_seguro":-13,"pct_med_tradicional":8,"pct_automedicacion":26,"pct_remedios_caseros":26,"pct_viv_desocupada":0,"pct_alquiler":18,"pct_electricidad":91,"pct_agua_red":64,"pct_alcantarillado":82,"pct_gas_red":18,"pct_gas_garrafa":82,"pct_lena_guano":82,"pct_basura_formal":64,"pct_basura_quema":27,"pct_basura_informal":18,"pct_internet":64,"pct_celular":73,"pct_televisor":64}},{"type":"Feature","geometry":{"type":"Polygon","coordinates":[[[-65.56289,-19.58693],[-65.56231,-19.58679],[-65.56213,-19.58737],[-65.56277,-19.58756],[-65.56289,-19.58693]]]},"properties":{"n":"CHAQUI","p":16,"personas_x_ha":33,"masculinidad":129,"pct_menor20":12,"pct_60mas":44,"pct_migrante":25,"dependencia_econ":700,"pct_empleados":0,"pct_cuentapropia":50,"pct_agricultura":100,"pct_comercio":0,"pct_manufactura":0,"pct_construccion":0,"pct_transporte":50,"pct_alojamiento":0,"pct_educ_superior":0,"brecha_educ":8,"pct_sin_seguro":50,"pct_seguro_privado":6,"brecha_seguro":-13,"pct_med_tradicional":6,"pct_automedicacion":19,"pct_remedios_caseros":23,"pct_viv_desocupada":22,"pct_alquiler":12,"pct_electricidad":100,"pct_agua_red":100,"pct_alcantarillado":88,"pct_gas_red":12,"pct_gas_garrafa":88,"pct_lena_guano":88,"pct_basura_formal":100,"pct_basura_quema":0,"pct_basura_informal":0,"pct_internet":50,"pct_celular":88,"pct_televisor":75}},{"type":"Feature","geometry":{"type":"Polygon","coordinates":[[[-65.56298,-19.58431],[-65.56234,-19.58675],[-65.56289,-19.58688],[-65.56337,-19.585],[-65.5645,-19.58247],[-65.56437,-19.58245],[-65.56407,-19.58293],[-65.56321,-19.58381],[-65.56292,-19.58426],[-65.56298,-19.58431]]]},"properties":{"n":"CHAQUI","p":54,"personas_x_ha":21,"masculinidad":108,"pct_menor20":41,"pct_60mas":15,"pct_migrante":33,"dependencia_econ":62,"pct_empleados":19,"pct_cuentapropia":72,"pct_agricultura":25,"pct_comercio":41,"pct_manufactura":0,"pct_construccion":16,"pct_transporte":0,"pct_alojamiento":0,"pct_educ_superior":14,"brecha_educ":-15,"pct_sin_seguro":25,"pct_seguro_privado":0,"brecha_seguro":-4,"pct_med_tradicional":16,"pct_automedicacion":19,"pct_remedios_caseros":26,"pct_viv_desocupada":0,"pct_alquiler":5,"pct_electricidad":95,"pct_agua_red":95,"pct_alcantarillado":55,"pct_gas_red":60,"pct_gas_garrafa":40,"pct_lena_guano":40,"pct_basura_formal":60,"pct_basura_quema":40,"pct_basura_informal":0,"pct_internet":90,"pct_celular":90,"pct_televisor":60}},{"type":"Feature","geometry":{"type":"Polygon","coordinates":[[[-65.5549,-19.58917],[-65.55444,-19.58929],[-65.5541,-19.58876],[-65.55395,-19.58885],[-65.55352,-19.58802],[-65.55424,-19.58802],[-65.55941,-19.58891],[-65.55924,-19.5897],[-65.55908,-19.59002],[-65.55881,-19.59],[-65.55861,-19.58977],[-65.55738,-19.58951],[-65.55721,-19.58923],[-65.55689,-19.58929],[-65.55658,-19.58949],[-65.55586,-19.5893],[-65.55574,-19.58909],[-65.55565,-19.58912],[-65.55537,-19.58886],[-65.5549,-19.58917]]]},"properties":{"n":"CHAQUI","p":20,"personas_x_ha":3,"masculinidad":233,"pct_menor20":35,"pct_60mas":15,"pct_migrante":50,"dependencia_econ":122,"pct_empleados":44,"pct_cuentapropia":56,"pct_agricultura":11,"pct_comercio":0,"pct_manufactura":0,"pct_construccion":44,"pct_transporte":0,"pct_alojamiento":22,"pct_educ_superior":21,"brecha_educ":17,"pct_sin_seguro":10,"pct_seguro_privado":0,"brecha_seguro":14,"pct_med_tradicional":2,"pct_automedicacion":29,"pct_remedios_caseros":34,"pct_viv_desocupada":12,"pct_alquiler":0,"pct_electricidad":67,"pct_agua_red":100,"pct_alcantarillado":0,"pct_gas_red":33,"pct_gas_garrafa":67,"pct_lena_guano":67,"pct_basura_formal":17,"pct_basura_quema":67,"pct_basura_informal":33,"pct_internet":33,"pct_celular":100,"pct_televisor":50}},{"type":"Feature","geometry":{"type":"Polygon","coordinates":[[[-65.56065,-19.58708],[-65.55999,-19.58691],[-65.55981,-19.58754],[-65.5605,-19.58769],[-65.56065,-19.58708]]]},"properties":{"n":"CHAQUI","p":16,"personas_x_ha":31,"masculinidad":100,"pct_menor20":31,"pct_60mas":19,"pct_migrante":31,"dependencia_econ":100,"pct_empleados":38,"pct_cuentapropia":38,"pct_agricultura":12,"pct_comercio":50,"pct_manufactura":25,"pct_construccion":12,"pct_transporte":0,"pct_alojamiento":0,"pct_educ_superior":18,"brecha_educ":-43,"pct_sin_seguro":0,"pct_seguro_privado":0,"brecha_seguro":0,"pct_med_tradicional":0,"pct_automedicacion":32,"pct_remedios_caseros":30,"pct_viv_desocupada":11,"pct_alquiler":14,"pct_electricidad":100,"pct_agua_red":100,"pct_alcantarillado":100,"pct_gas_red":29,"pct_gas_garrafa":57,"pct_lena_guano":57,"pct_basura_formal":43,"pct_basura_quema":57,"pct_basura_informal":0,"pct_internet":86,"pct_celular":86,"pct_televisor":57}},{"type":"Feature","geometry":{"type":"Polygon","coordinates":[[[-65.5644,-19.58875],[-65.5643,-19.58897],[-65.56435,-19.58874],[-65.56271,-19.58832],[-65.56254,-19.58898],[-65.56371,-19.58967],[-65.56457,-19.58976],[-65.56471,-19.58958],[-65.5656,-19.58941],[-65.56561,-19.5888],[-65.56539,-19.5889],[-65.56537,-19.58899],[-65.5644,-19.58875]]]},"properties":{"n":"CHAQUI","p":15,"personas_x_ha":5,"masculinidad":67,"pct_menor20":13,"pct_60mas":33,"pct_migrante":40,"dependencia_econ":114,"pct_empleados":14,"pct_cuentapropia":71,"pct_agricultura":57,"pct_comercio":29,"pct_manufactura":0,"pct_construccion":14,"pct_transporte":0,"pct_alojamiento":0,"pct_educ_superior":31,"brecha_educ":-10,"pct_sin_seguro":33,"pct_seguro_privado":0,"brecha_seguro":28,"pct_med_tradicional":15,"pct_automedicacion":17,"pct_remedios_caseros":17,"pct_viv_desocupada":8,"pct_alquiler":25,"pct_electricidad":100,"pct_agua_red":50,"pct_alcantarillado":75,"pct_gas_red":25,"pct_gas_garrafa":75,"pct_lena_guano":75,"pct_basura_formal":75,"pct_basura_quema":0,"pct_basura_informal":0,"pct_internet":50,"pct_celular":75,"pct_televisor":50}},{"type":"Feature","geometry":{"type":"Polygon","coordinates":[[[-65.56083,-19.58654],[-65.56095,-19.58656],[-65.56083,-19.58656],[-65.56072,-19.58704],[-65.56137,-19.58719],[-65.56149,-19.58677],[-65.56153,-19.58598],[-65.5614,-19.58597],[-65.56131,-19.58634],[-65.56137,-19.58599],[-65.56103,-19.58625],[-65.56083,-19.58654]]]},"properties":{"n":"CHAQUI","p":37,"personas_x_ha":48,"masculinidad":61,"pct_menor20":38,"pct_60mas":16,"pct_migrante":70,"dependencia_econ":140,"pct_empleados":47,"pct_cuentapropia":40,"pct_agricultura":27,"pct_comercio":20,"pct_manufactura":13,"pct_construccion":40,"pct_transporte":0,"pct_alojamiento":0,"pct_educ_superior":13,"brecha_educ":-24,"pct_sin_seguro":6,"pct_seguro_privado":0,"brecha_seguro":2,"pct_med_tradicional":9,"pct_automedicacion":27,"pct_remedios_caseros":27,"pct_viv_desocupada":12,"pct_alquiler":25,"pct_electricidad":100,"pct_agua_red":100,"pct_alcantarillado":83,"pct_gas_red":33,"pct_gas_garrafa":67,"pct_lena_guano":67,"pct_basura_formal":100,"pct_basura_quema":0,"pct_basura_informal":0,"pct_internet":75,"pct_celular":83,"pct_televisor":75}},{"type":"Feature","geometry":{"type":"Polygon","coordinates":[[[-65.56211,-19.58746],[-65.56275,-19.58762],[-65.5626,-19.58822],[-65.56195,-19.58807],[-65.56211,-19.58746]]]},"properties":{"n":"CHAQUI","p":37,"personas_x_ha":74,"masculinidad":118,"pct_menor20":24,"pct_60mas":22,"pct_migrante":57,"dependencia_econ":106,"pct_empleados":31,"pct_cuentapropia":38,"pct_agricultura":44,"pct_comercio":12,"pct_manufactura":0,"pct_construccion":12,"pct_transporte":6,"pct_alojamiento":0,"pct_educ_superior":46,"brecha_educ":3,"pct_sin_seguro":21,"pct_seguro_privado":15,"brecha_seguro":2,"pct_med_tradicional":10,"pct_automedicacion":22,"pct_remedios_caseros":15,"pct_viv_desocupada":0,"pct_alquiler":14,"pct_electricidad":100,"pct_agua_red":79,"pct_alcantarillado":100,"pct_gas_red":57,"pct_gas_garrafa":43,"pct_lena_guano":43,"pct_basura_formal":100,"pct_basura_quema":0,"pct_basura_informal":0,"pct_internet":71,"pct_celular":86,"pct_televisor":71}},{"type":"Feature","geometry":{"type":"Polygon","coordinates":[[[-65.56284,-19.58756],[-65.56365,-19.58779],[-65.56376,-19.58753],[-65.56368,-19.5878],[-65.56411,-19.58789],[-65.56445,-19.58735],[-65.5641,-19.58715],[-65.56298,-19.58695],[-65.56292,-19.58722],[-65.56308,-19.58726],[-65.56292,-19.58723],[-65.56284,-19.58756]]]},"properties":{"n":"CHAQUI","p":25,"personas_x_ha":22,"masculinidad":79,"pct_menor20":24,"pct_60mas":20,"pct_migrante":40,"dependencia_econ":64,"pct_empleados":29,"pct_cuentapropia":57,"pct_agricultura":29,"pct_comercio":21,"pct_manufactura":7,"pct_construccion":29,"pct_transporte":0,"pct_alojamiento":7,"pct_educ_superior":12,"brecha_educ":-40,"pct_sin_seguro":13,"pct_seguro_privado":0,"brecha_seguro":-5,"pct_med_tradicional":10,"pct_automedicacion":10,"pct_remedios_caseros":26,"pct_viv_desocupada":17,"pct_alquiler":10,"pct_electricidad":90,"pct_agua_red":100,"pct_alcantarillado":90,"pct_gas_red":50,"pct_gas_garrafa":50,"pct_lena_guano":50,"pct_basura_formal":90,"pct_basura_quema":10,"pct_basura_informal":0,"pct_internet":80,"pct_celular":80,"pct_televisor":70}},{"type":"Feature","geometry":{"type":"Polygon","coordinates":[[[-65.56231,-19.58664],[-65.5616,-19.58647],[-65.56143,-19.58722],[-65.56188,-19.58734],[-65.56192,-19.58694],[-65.56189,-19.58734],[-65.56209,-19.58737],[-65.56231,-19.58664]]]},"properties":{"n":"CHAQUI","p":24,"personas_x_ha":39,"masculinidad":140,"pct_menor20":33,"pct_60mas":12,"pct_migrante":50,"dependencia_econ":77,"pct_empleados":15,"pct_cuentapropia":85,"pct_agricultura":23,"pct_comercio":8,"pct_manufactura":8,"pct_construccion":31,"pct_transporte":15,"pct_alojamiento":8,"pct_educ_superior":27,"brecha_educ":-4,"pct_sin_seguro":35,"pct_seguro_privado":0,"brecha_seguro":-9,"pct_med_tradicional":16,"pct_automedicacion":17,"pct_remedios_caseros":22,"pct_viv_desocupada":0,"pct_alquiler":0,"pct_electricidad":100,"pct_agua_red":92,"pct_alcantarillado":100,"pct_gas_red":42,"pct_gas_garrafa":58,"pct_lena_guano":58,"pct_basura_formal":92,"pct_basura_quema":8,"pct_basura_informal":0,"pct_internet":42,"pct_celular":58,"pct_televisor":83}},{"type":"Feature","geometry":{"type":"Polygon","coordinates":[[[-65.55983,-19.58949],[-65.55954,-19.5903],[-65.56055,-19.5906],[-65.56083,-19.58928],[-65.56016,-19.58909],[-65.55983,-19.58949]]]},"properties":{"n":"CHAQUI","p":17,"personas_x_ha":12,"masculinidad":89,"pct_menor20":35,"pct_60mas":24,"pct_migrante":12,"dependencia_econ":31,"pct_empleados":31,"pct_cuentapropia":69,"pct_agricultura":38,"pct_comercio":0,"pct_manufactura":0,"pct_construccion":8,"pct_transporte":23,"pct_alojamiento":0,"pct_educ_superior":27,"brecha_educ":-30,"pct_sin_seguro":24,"pct_seguro_privado":0,"brecha_seguro":-21,"pct_med_tradicional":11,"pct_automedicacion":11,"pct_remedios_caseros":15,"pct_viv_desocupada":15,"pct_alquiler":12,"pct_electricidad":88,"pct_agua_red":88,"pct_alcantarillado":75,"pct_gas_red":50,"pct_gas_garrafa":38,"pct_lena_guano":38,"pct_basura_formal":100,"pct_basura_quema":0,"pct_basura_informal":0,"pct_internet":50,"pct_celular":100,"pct_televisor":75}},{"type":"Feature","geometry":{"type":"Polygon","coordinates":[[[-65.55949,-19.58594],[-65.56013,-19.58621],[-65.55997,-19.58685],[-65.55932,-19.58672],[-65.55949,-19.58594]]]},"properties":{"n":"CHAQUI","p":23,"personas_x_ha":41,"masculinidad":92,"pct_menor20":61,"pct_60mas":4,"pct_migrante":65,"dependencia_econ":109,"pct_empleados":27,"pct_cuentapropia":45,"pct_agricultura":45,"pct_comercio":18,"pct_manufactura":9,"pct_construccion":0,"pct_transporte":0,"pct_alojamiento":0,"pct_educ_superior":0,"brecha_educ":61,"pct_sin_seguro":9,"pct_seguro_privado":0,"brecha_seguro":2,"pct_med_tradicional":5,"pct_automedicacion":26,"pct_remedios_caseros":31,"pct_viv_desocupada":25,"pct_alquiler":0,"pct_electricidad":100,"pct_agua_red":50,"pct_alcantarillado":67,"pct_gas_red":67,"pct_gas_garrafa":33,"pct_lena_guano":33,"pct_basura_formal":33,"pct_basura_quema":33,"pct_basura_informal":67,"pct_internet":50,"pct_celular":100,"pct_televisor":83}},{"type":"Feature","geometry":{"type":"Polygon","coordinates":[[[-65.56206,-19.58744],[-65.5614,-19.58728],[-65.56127,-19.58785],[-65.56191,-19.58801],[-65.56206,-19.58744]]]},"properties":{"n":"CHAQUI","p":21,"personas_x_ha":46,"masculinidad":75,"pct_menor20":29,"pct_60mas":10,"pct_migrante":19,"dependencia_econ":91,"pct_empleados":18,"pct_cuentapropia":18,"pct_agricultura":36,"pct_comercio":27,"pct_manufactura":0,"pct_construccion":18,"pct_transporte":0,"pct_alojamiento":0,"pct_educ_superior":44,"brecha_educ":-33,"pct_sin_seguro":29,"pct_seguro_privado":0,"brecha_seguro":-31,"pct_med_tradicional":2,"pct_automedicacion":22,"pct_remedios_caseros":12,"pct_viv_desocupada":0,"pct_alquiler":0,"pct_electricidad":100,"pct_agua_red":100,"pct_alcantarillado":83,"pct_gas_red":33,"pct_gas_garrafa":67,"pct_lena_guano":67,"pct_basura_formal":100,"pct_basura_quema":0,"pct_basura_informal":0,"pct_internet":83,"pct_celular":100,"pct_televisor":83}},{"type":"Feature","geometry":{"type":"Polygon","coordinates":[[[-65.56033,-19.59158],[-65.55864,-19.59143],[-65.55908,-19.59026],[-65.56048,-19.59071],[-65.56045,-19.59098],[-65.56016,-19.59098],[-65.56044,-19.59101],[-65.56033,-19.59158]]]},"properties":{"n":"CHAQUI","p":19,"personas_x_ha":10,"masculinidad":90,"pct_menor20":32,"pct_60mas":11,"pct_migrante":68,"dependencia_econ":171,"pct_empleados":29,"pct_cuentapropia":57,"pct_agricultura":29,"pct_comercio":29,"pct_manufactura":0,"pct_construccion":0,"pct_transporte":0,"pct_alojamiento":14,"pct_educ_superior":43,"brecha_educ":-25,"pct_sin_seguro":5,"pct_seguro_privado":0,"brecha_seguro":-10,"pct_med_tradicional":7,"pct_automedicacion":13,"pct_remedios_caseros":27,"pct_viv_desocupada":29,"pct_alquiler":0,"pct_electricidad":100,"pct_agua_red":50,"pct_alcantarillado":50,"pct_gas_red":75,"pct_gas_garrafa":25,"pct_lena_guano":25,"pct_basura_formal":100,"pct_basura_quema":0,"pct_basura_informal":0,"pct_internet":25,"pct_celular":50,"pct_televisor":25}},{"type":"Feature","geometry":{"type":"Polygon","coordinates":[[[-65.55974,-19.59426],[-65.55947,-19.59418],[-65.55946,-19.59443],[-65.55934,-19.59464],[-65.55976,-19.59525],[-65.5606,-19.59537],[-65.56065,-19.59516],[-65.56054,-19.5949],[-65.56049,-19.59442],[-65.56061,-19.59371],[-65.55987,-19.59353],[-65.55974,-19.59426]]]},"properties":{"n":"CHAQUI","p":15,"personas_x_ha":8,"masculinidad":150,"pct_menor20":13,"pct_60mas":20,"pct_migrante":7,"dependencia_econ":15,"pct_empleados":15,"pct_cuentapropia":85,"pct_agricultura":38,"pct_comercio":8,"pct_manufactura":15,"pct_construccion":31,"pct_transporte":0,"pct_alojamiento":0,"pct_educ_superior":0,"brecha_educ":-50,"pct_sin_seguro":14,"pct_seguro_privado":7,"brecha_seguro":22,"pct_med_tradicional":9,"pct_automedicacion":23,"pct_remedios_caseros":26,"pct_viv_desocupada":20,"pct_alquiler":0,"pct_electricidad":100,"pct_agua_red":38,"pct_alcantarillado":25,"pct_gas_red":50,"pct_gas_garrafa":50,"pct_lena_guano":50,"pct_basura_formal":0,"pct_basura_quema":38,"pct_basura_informal":0,"pct_internet":38,"pct_celular":88,"pct_televisor":62}},{"type":"Feature","geometry":{"type":"Polygon","coordinates":[[[-65.5612,-19.58787],[-65.56134,-19.58724],[-65.5607,-19.5871],[-65.56056,-19.58771],[-65.5612,-19.58787]]]},"properties":{"n":"CHAQUI","p":25,"personas_x_ha":49,"masculinidad":127,"pct_menor20":36,"pct_60mas":24,"pct_migrante":60,"dependencia_econ":150,"pct_empleados":40,"pct_cuentapropia":40,"pct_agricultura":40,"pct_comercio":20,"pct_manufactura":0,"pct_construccion":20,"pct_transporte":0,"pct_alojamiento":0,"pct_educ_superior":38,"brecha_educ":-10,"pct_sin_seguro":12,"pct_seguro_privado":0,"brecha_seguro":5,"pct_med_tradicional":13,"pct_automedicacion":18,"pct_remedios_caseros":26,"pct_viv_desocupada":5,"pct_alquiler":30,"pct_electricidad":100,"pct_agua_red":80,"pct_alcantarillado":80,"pct_gas_red":20,"pct_gas_garrafa":70,"pct_lena_guano":70,"pct_basura_formal":90,"pct_basura_quema":0,"pct_basura_informal":0,"pct_internet":50,"pct_celular":90,"pct_televisor":70}},{"type":"Feature","geometry":{"type":"Polygon","coordinates":[[[-65.56132,-19.59044],[-65.56068,-19.59032],[-65.56047,-19.59122],[-65.56068,-19.59145],[-65.56103,-19.5914],[-65.56132,-19.59044]]]},"properties":{"n":"CHAQUI","p":19,"personas_x_ha":24,"masculinidad":171,"pct_menor20":26,"pct_60mas":26,"pct_migrante":21,"dependencia_econ":29,"pct_empleados":36,"pct_cuentapropia":43,"pct_agricultura":21,"pct_comercio":14,"pct_manufactura":0,"pct_construccion":7,"pct_transporte":7,"pct_alojamiento":7,"pct_educ_superior":29,"brecha_educ":-7,"pct_sin_seguro":17,"pct_seguro_privado":0,"brecha_seguro":25,"pct_med_tradicional":6,"pct_automedicacion":14,"pct_remedios_caseros":29,"pct_viv_desocupada":38,"pct_alquiler":0,"pct_electricidad":100,"pct_agua_red":100,"pct_alcantarillado":100,"pct_gas_red":20,"pct_gas_garrafa":80,"pct_lena_guano":80,"pct_basura_formal":60,"pct_basura_quema":40,"pct_basura_informal":0,"pct_internet":60,"pct_celular":80,"pct_televisor":100}},{"type":"Feature","geometry":{"type":"Polygon","coordinates":[[[-65.57253,-19.62441],[-65.57227,-19.62432],[-65.5724,-19.62392],[-65.57162,-19.62415],[-65.57153,-19.62408],[-65.57154,-19.62391],[-65.57202,-19.62366],[-65.57202,-19.62342],[-65.5718,-19.62347],[-65.57149,-19.62329],[-65.571,-19.62318],[-65.5709,-19.62365],[-65.57116,-19.62374],[-65.57089,-19.62371],[-65.57079,-19.62391],[-65.57073,-19.62441],[-65.57231,-19.62472],[-65.57246,-19.62462],[-65.57253,-19.62441]]]},"properties":{"n":"CHAQUI BAÑOS","p":56,"personas_x_ha":31,"masculinidad":115,"pct_menor20":27,"pct_60mas":23,"pct_migrante":36,"dependencia_econ":80,"pct_empleados":10,"pct_cuentapropia":67,"pct_agricultura":27,"pct_comercio":17,"pct_manufactura":3,"pct_construccion":7,"pct_transporte":23,"pct_alojamiento":17,"pct_educ_superior":10,"brecha_educ":2,"pct_sin_seguro":9,"pct_seguro_privado":0,"brecha_seguro":2,"pct_med_tradicional":7,"pct_automedicacion":20,"pct_remedios_caseros":27,"pct_viv_desocupada":33,"pct_alquiler":7,"pct_electricidad":100,"pct_agua_red":86,"pct_alcantarillado":86,"pct_gas_red":57,"pct_gas_garrafa":43,"pct_lena_guano":43,"pct_basura_formal":36,"pct_basura_quema":57,"pct_basura_informal":14,"pct_internet":93,"pct_celular":93,"pct_televisor":93}},{"type":"Feature","geometry":{"type":"Polygon","coordinates":[[[-65.56767,-19.62574],[-65.56816,-19.6261],[-65.56839,-19.62659],[-65.56778,-19.62697],[-65.56584,-19.62771],[-65.56525,-19.62823],[-65.56507,-19.62806],[-65.56535,-19.62725],[-65.56557,-19.62705],[-65.5657,-19.62645],[-65.5661,-19.62638],[-65.5673,-19.62593],[-65.56698,-19.62692],[-65.56714,-19.62665],[-65.56735,-19.62592],[-65.56767,-19.62574]]]},"properties":{"n":"CHAQUI BAÑOS","p":32,"personas_x_ha":8,"masculinidad":78,"pct_menor20":50,"pct_60mas":6,"pct_migrante":34,"dependencia_econ":100,"pct_empleados":44,"pct_cuentapropia":56,"pct_agricultura":12,"pct_comercio":31,"pct_manufactura":6,"pct_construccion":0,"pct_transporte":0,"pct_alojamiento":31,"pct_educ_superior":12,"brecha_educ":-6,"pct_sin_seguro":16,"pct_seguro_privado":0,"brecha_seguro":-2,"pct_med_tradicional":2,"pct_automedicacion":2,"pct_remedios_caseros":23,"pct_viv_desocupada":0,"pct_alquiler":0,"pct_electricidad":71,"pct_agua_red":43,"pct_alcantarillado":0,"pct_gas_red":29,"pct_gas_garrafa":43,"pct_lena_guano":43,"pct_basura_formal":0,"pct_basura_quema":100,"pct_basura_informal":0,"pct_internet":86,"pct_celular":100,"pct_televisor":43}},{"type":"Feature","geometry":{"type":"Polygon","coordinates":[[[-65.56955,-19.62668],[-65.56903,-19.6271],[-65.56942,-19.62731],[-65.56949,-19.62728],[-65.57048,-19.62515],[-65.57006,-19.625],[-65.56961,-19.62514],[-65.56956,-19.62523],[-65.56937,-19.62523],[-65.56935,-19.62551],[-65.56985,-19.62598],[-65.56955,-19.62668]]]},"properties":{"n":"CHAQUI BAÑOS","p":53,"personas_x_ha":40,"masculinidad":89,"pct_menor20":25,"pct_60mas":15,"pct_migrante":40,"dependencia_econ":51,"pct_empleados":14,"pct_cuentapropia":77,"pct_agricultura":23,"pct_comercio":29,"pct_manufactura":0,"pct_construccion":3,"pct_transporte":34,"pct_alojamiento":0,"pct_educ_superior":20,"brecha_educ":-26,"pct_sin_seguro":16,"pct_seguro_privado":0,"brecha_seguro":2,"pct_med_tradicional":13,"pct_automedicacion":17,"pct_remedios_caseros":25,"pct_viv_desocupada":5,"pct_alquiler":20,"pct_electricidad":100,"pct_agua_red":100,"pct_alcantarillado":85,"pct_gas_red":30,"pct_gas_garrafa":70,"pct_lena_guano":70,"pct_basura_formal":5,"pct_basura_quema":85,"pct_basura_informal":10,"pct_internet":80,"pct_celular":90,"pct_televisor":65}},{"type":"Feature","geometry":{"type":"Polygon","coordinates":[[[-65.57087,-19.62644],[-65.56988,-19.62712],[-65.56975,-19.62706],[-65.57022,-19.62598],[-65.57052,-19.62583],[-65.57077,-19.62592],[-65.57087,-19.62644]]]},"properties":{"n":"CHAQUI BAÑOS","p":54,"personas_x_ha":68,"masculinidad":80,"pct_menor20":37,"pct_60mas":20,"pct_migrante":20,"dependencia_econ":112,"pct_empleados":12,"pct_cuentapropia":76,"pct_agricultura":12,"pct_comercio":12,"pct_manufactura":0,"pct_construccion":20,"pct_transporte":4,"pct_alojamiento":44,"pct_educ_superior":15,"brecha_educ":-12,"pct_sin_seguro":2,"pct_seguro_privado":0,"brecha_seguro":4,"pct_med_tradicional":3,"pct_automedicacion":1,"pct_remedios_caseros":21,"pct_viv_desocupada":0,"pct_alquiler":0,"pct_electricidad":100,"pct_agua_red":100,"pct_alcantarillado":94,"pct_gas_red":41,"pct_gas_garrafa":53,"pct_lena_guano":53,"pct_basura_formal":18,"pct_basura_quema":59,"pct_basura_informal":35,"pct_internet":71,"pct_celular":82,"pct_televisor":82}},{"type":"Feature","geometry":{"type":"Polygon","coordinates":[[[-65.56915,-19.63014],[-65.56985,-19.63021],[-65.5696,-19.62969],[-65.56954,-19.62933],[-65.5687,-19.62932],[-65.56856,-19.62954],[-65.56835,-19.63033],[-65.56915,-19.63014]]]},"properties":{"n":"CHAQUI BAÑOS","p":27,"personas_x_ha":23,"masculinidad":145,"pct_menor20":37,"pct_60mas":19,"pct_migrante":52,"dependencia_econ":136,"pct_empleados":18,"pct_cuentapropia":64,"pct_agricultura":0,"pct_comercio":18,"pct_manufactura":36,"pct_construccion":9,"pct_transporte":9,"pct_alojamiento":9,"pct_educ_superior":12,"brecha_educ":-12,"pct_sin_seguro":23,"pct_seguro_privado":0,"brecha_seguro":-7,"pct_med_tradicional":7,"pct_automedicacion":25,"pct_remedios_caseros":31,"pct_viv_desocupada":0,"pct_alquiler":0,"pct_electricidad":100,"pct_agua_red":100,"pct_alcantarillado":18,"pct_gas_red":36,"pct_gas_garrafa":64,"pct_lena_guano":64,"pct_basura_formal":0,"pct_basura_quema":100,"pct_basura_informal":0,"pct_internet":91,"pct_celular":91,"pct_televisor":55}},{"type":"Feature","geometry":{"type":"Polygon","coordinates":[[[-65.57063,-19.62438],[-65.57108,-19.62268],[-65.57053,-19.62238],[-65.57033,-19.62252],[-65.57035,-19.62278],[-65.57058,-19.62301],[-65.57035,-19.62436],[-65.57063,-19.62438]]]},"properties":{"n":"CHAQUI BAÑOS","p":36,"personas_x_ha":40,"masculinidad":89,"pct_menor20":36,"pct_60mas":8,"pct_migrante":33,"dependencia_econ":200,"pct_empleados":17,"pct_cuentapropia":58,"pct_agricultura":8,"pct_comercio":17,"pct_manufactura":8,"pct_construccion":8,"pct_transporte":8,"pct_alojamiento":42,"pct_educ_superior":30,"brecha_educ":-11,"pct_sin_seguro":8,"pct_seguro_privado":0,"brecha_seguro":18,"pct_med_tradicional":13,"pct_automedicacion":22,"pct_remedios_caseros":24,"pct_viv_desocupada":0,"pct_alquiler":0,"pct_electricidad":83,"pct_agua_red":75,"pct_alcantarillado":42,"pct_gas_red":25,"pct_gas_garrafa":75,"pct_lena_guano":75,"pct_basura_formal":0,"pct_basura_quema":92,"pct_basura_informal":0,"pct_internet":92,"pct_celular":92,"pct_televisor":92}},{"type":"Feature","geometry":{"type":"Polygon","coordinates":[[[-65.56808,-19.62212],[-65.56805,-19.62095],[-65.56774,-19.62094],[-65.56748,-19.62104],[-65.56744,-19.62126],[-65.56762,-19.62205],[-65.56808,-19.62212]]]},"properties":{"n":"CHAQUI BAÑOS","p":20,"personas_x_ha":27,"masculinidad":82,"pct_menor20":45,"pct_60mas":15,"pct_migrante":50,"dependencia_econ":67,"pct_empleados":17,"pct_cuentapropia":83,"pct_agricultura":17,"pct_comercio":58,"pct_manufactura":0,"pct_construccion":8,"pct_transporte":8,"pct_alojamiento":8,"pct_educ_superior":31,"brecha_educ":-12,"pct_sin_seguro":15,"pct_seguro_privado":0,"brecha_seguro":13,"pct_med_tradicional":16,"pct_automedicacion":9,"pct_remedios_caseros":20,"pct_viv_desocupada":0,"pct_alquiler":0,"pct_electricidad":86,"pct_agua_red":100,"pct_alcantarillado":43,"pct_gas_red":43,"pct_gas_garrafa":14,"pct_lena_guano":14,"pct_basura_formal":0,"pct_basura_quema":100,"pct_basura_informal":0,"pct_internet":57,"pct_celular":86,"pct_televisor":71}},{"type":"Feature","geometry":{"type":"Polygon","coordinates":[[[-65.5701,-19.62317],[-65.56946,-19.62296],[-65.56967,-19.62253],[-65.56916,-19.62238],[-65.56866,-19.62379],[-65.56911,-19.62395],[-65.56945,-19.62393],[-65.56986,-19.62424],[-65.5703,-19.62435],[-65.57039,-19.62404],[-65.57023,-19.6233],[-65.5701,-19.62317]]]},"properties":{"n":"CHAQUI BAÑOS","p":48,"personas_x_ha":22,"masculinidad":55,"pct_menor20":40,"pct_60mas":12,"pct_migrante":52,"dependencia_econ":135,"pct_empleados":10,"pct_cuentapropia":70,"pct_agricultura":35,"pct_comercio":15,"pct_manufactura":10,"pct_construccion":10,"pct_transporte":0,"pct_alojamiento":35,"pct_educ_superior":3,"brecha_educ":-26,"pct_sin_seguro":21,"pct_seguro_privado":0,"brecha_seguro":-23,"pct_med_tradicional":12,"pct_automedicacion":21,"pct_remedios_caseros":23,"pct_viv_desocupada":0,"pct_alquiler":7,"pct_electricidad":100,"pct_agua_red":57,"pct_alcantarillado":43,"pct_gas_red":21,"pct_gas_garrafa":79,"pct_lena_guano":79,"pct_basura_formal":29,"pct_basura_quema":43,"pct_basura_informal":43,"pct_internet":86,"pct_celular":93,"pct_televisor":71}},{"type":"Feature","geometry":{"type":"Polygon","coordinates":[[[-65.56928,-19.62457],[-65.56966,-19.62418],[-65.56952,-19.62402],[-65.56905,-19.62399],[-65.56863,-19.62385],[-65.56851,-19.62425],[-65.56928,-19.62457]]]},"properties":{"n":"CHAQUI BAÑOS","p":26,"personas_x_ha":48,"masculinidad":136,"pct_menor20":35,"pct_60mas":23,"pct_migrante":35,"dependencia_econ":117,"pct_empleados":33,"pct_cuentapropia":67,"pct_agricultura":0,"pct_comercio":0,"pct_manufactura":42,"pct_construccion":25,"pct_transporte":17,"pct_alojamiento":8,"pct_educ_superior":12,"brecha_educ":-51,"pct_sin_seguro":4,"pct_seguro_privado":0,"brecha_seguro":7,"pct_med_tradicional":20,"pct_automedicacion":9,"pct_remedios_caseros":29,"pct_viv_desocupada":27,"pct_alquiler":0,"pct_electricidad":100,"pct_agua_red":75,"pct_alcantarillado":100,"pct_gas_red":0,"pct_gas_garrafa":100,"pct_lena_guano":100,"pct_basura_formal":0,"pct_basura_quema":88,"pct_basura_informal":25,"pct_internet":88,"pct_celular":100,"pct_televisor":62}},{"type":"Feature","geometry":{"type":"Polygon","coordinates":[[[-65.56859,-19.62489],[-65.5692,-19.62527],[-65.56953,-19.6252],[-65.56962,-19.62507],[-65.56989,-19.62506],[-65.56997,-19.62497],[-65.56834,-19.62431],[-65.56812,-19.6247],[-65.56859,-19.62489]]]},"properties":{"n":"CHAQUI BAÑOS","p":59,"personas_x_ha":70,"masculinidad":111,"pct_menor20":41,"pct_60mas":14,"pct_migrante":42,"dependencia_econ":74,"pct_empleados":29,"pct_cuentapropia":62,"pct_agricultura":6,"pct_comercio":41,"pct_manufactura":0,"pct_construccion":12,"pct_transporte":0,"pct_alojamiento":32,"pct_educ_superior":27,"brecha_educ":-23,"pct_sin_seguro":5,"pct_seguro_privado":0,"brecha_seguro":10,"pct_med_tradicional":12,"pct_automedicacion":18,"pct_remedios_caseros":24,"pct_viv_desocupada":0,"pct_alquiler":14,"pct_electricidad":100,"pct_agua_red":100,"pct_alcantarillado":86,"pct_gas_red":50,"pct_gas_garrafa":50,"pct_lena_guano":50,"pct_basura_formal":14,"pct_basura_quema":79,"pct_basura_informal":14,"pct_internet":71,"pct_celular":86,"pct_televisor":79}},{"type":"Feature","geometry":{"type":"Polygon","coordinates":[[[-65.56858,-19.62371],[-65.56903,-19.62259],[-65.56828,-19.62228],[-65.56819,-19.62234],[-65.56768,-19.62233],[-65.56789,-19.62328],[-65.56831,-19.62361],[-65.56858,-19.62371]]]},"properties":{"n":"CHAQUI BAÑOS","p":20,"personas_x_ha":14,"masculinidad":67,"pct_menor20":60,"pct_60mas":5,"pct_migrante":55,"dependencia_econ":300,"pct_empleados":0,"pct_cuentapropia":100,"pct_agricultura":40,"pct_comercio":40,"pct_manufactura":0,"pct_construccion":0,"pct_transporte":0,"pct_alojamiento":40,"pct_educ_superior":38,"brecha_educ":-17,"pct_sin_seguro":0,"pct_seguro_privado":0,"brecha_seguro":0,"pct_med_tradicional":1,"pct_automedicacion":26,"pct_remedios_caseros":26,"pct_viv_desocupada":12,"pct_alquiler":0,"pct_electricidad":86,"pct_agua_red":100,"pct_alcantarillado":57,"pct_gas_red":14,"pct_gas_garrafa":86,"pct_lena_guano":86,"pct_basura_formal":14,"pct_basura_quema":86,"pct_basura_informal":0,"pct_internet":100,"pct_celular":100,"pct_televisor":71}},{"type":"Feature","geometry":{"type":"Polygon","coordinates":[[[-65.56735,-19.624],[-65.56796,-19.62407],[-65.56782,-19.62353],[-65.5669,-19.62345],[-65.56649,-19.62331],[-65.56652,-19.62376],[-65.56735,-19.624]]]},"properties":{"n":"CHAQUI BAÑOS","p":22,"personas_x_ha":30,"masculinidad":214,"pct_menor20":45,"pct_60mas":14,"pct_migrante":18,"dependencia_econ":47,"pct_empleados":20,"pct_cuentapropia":80,"pct_agricultura":13,"pct_comercio":40,"pct_manufactura":0,"pct_construccion":13,"pct_transporte":7,"pct_alojamiento":7,"pct_educ_superior":0,"brecha_educ":17,"pct_sin_seguro":5,"pct_seguro_privado":0,"brecha_seguro":7,"pct_med_tradicional":11,"pct_automedicacion":11,"pct_remedios_caseros":24,"pct_viv_desocupada":14,"pct_alquiler":0,"pct_electricidad":83,"pct_agua_red":50,"pct_alcantarillado":33,"pct_gas_red":17,"pct_gas_garrafa":83,"pct_lena_guano":83,"pct_basura_formal":0,"pct_basura_quema":100,"pct_basura_informal":0,"pct_internet":67,"pct_celular":100,"pct_televisor":83}},{"type":"Feature","geometry":{"type":"Polygon","coordinates":[[[-65.57015,-19.62492],[-65.57038,-19.62469],[-65.57017,-19.62454],[-65.5702,-19.62443],[-65.56969,-19.62421],[-65.56933,-19.62459],[-65.57015,-19.62492]]]},"properties":{"n":"CHAQUI BAÑOS","p":42,"personas_x_ha":93,"masculinidad":100,"pct_menor20":38,"pct_60mas":12,"pct_migrante":69,"dependencia_econ":90,"pct_empleados":29,"pct_cuentapropia":67,"pct_agricultura":5,"pct_comercio":29,"pct_manufactura":0,"pct_construccion":29,"pct_transporte":5,"pct_alojamiento":38,"pct_educ_superior":28,"brecha_educ":-6,"pct_sin_seguro":15,"pct_seguro_privado":0,"brecha_seguro":-19,"pct_med_tradicional":15,"pct_automedicacion":16,"pct_remedios_caseros":25,"pct_viv_desocupada":13,"pct_alquiler":0,"pct_electricidad":92,"pct_agua_red":92,"pct_alcantarillado":85,"pct_gas_red":15,"pct_gas_garrafa":77,"pct_lena_guano":77,"pct_basura_formal":0,"pct_basura_quema":54,"pct_basura_informal":92,"pct_internet":69,"pct_celular":100,"pct_televisor":77}},{"type":"Feature","geometry":{"type":"Polygon","coordinates":[[[-65.57081,-19.62449],[-65.57035,-19.62442],[-65.57033,-19.62452],[-65.57048,-19.62465],[-65.57078,-19.62469],[-65.57081,-19.62449]]]},"properties":{"n":"CHAQUI BAÑOS","p":32,"personas_x_ha":303,"masculinidad":52,"pct_menor20":38,"pct_60mas":19,"pct_migrante":41,"dependencia_econ":78,"pct_empleados":28,"pct_cuentapropia":61,"pct_agricultura":6,"pct_comercio":50,"pct_manufactura":0,"pct_construccion":6,"pct_transporte":6,"pct_alojamiento":17,"pct_educ_superior":27,"brecha_educ":-50,"pct_sin_seguro":9,"pct_seguro_privado":3,"brecha_seguro":0,"pct_med_tradicional":15,"pct_automedicacion":12,"pct_remedios_caseros":28,"pct_viv_desocupada":8,"pct_alquiler":0,"pct_electricidad":100,"pct_agua_red":92,"pct_alcantarillado":92,"pct_gas_red":58,"pct_gas_garrafa":42,"pct_lena_guano":42,"pct_basura_formal":8,"pct_basura_quema":42,"pct_basura_informal":100,"pct_internet":75,"pct_celular":92,"pct_televisor":75}},{"type":"Feature","geometry":{"type":"Polygon","coordinates":[[[-65.56836,-19.62885],[-65.56841,-19.62875],[-65.56875,-19.62884],[-65.56845,-19.62948],[-65.56806,-19.62935],[-65.568,-19.62953],[-65.56839,-19.62963],[-65.56812,-19.63041],[-65.56772,-19.63047],[-65.56758,-19.63058],[-65.56714,-19.63042],[-65.5666,-19.63002],[-65.56612,-19.62995],[-65.56611,-19.6298],[-65.56626,-19.62959],[-65.56678,-19.62947],[-65.56735,-19.62915],[-65.56682,-19.62877],[-65.5669,-19.62851],[-65.56685,-19.62848],[-65.56676,-19.62878],[-65.56724,-19.62913],[-65.56676,-19.62941],[-65.56633,-19.62952],[-65.56602,-19.62947],[-65.5657,-19.62926],[-65.56552,-19.62912],[-65.56546,-19.62892],[-65.56506,-19.62858],[-65.56553,-19.62806],[-65.56597,-19.62773],[-65.56781,-19.62702],[-65.56845,-19.62666],[-65.56883,-19.62706],[-65.56944,-19.62744],[-65.56876,-19.6288],[-65.56839,-19.6287],[-65.56834,-19.6288],[-65.56799,-19.6287],[-65.56836,-19.62885]]]},"properties":{"n":"CHAQUI BAÑOS","p":39,"personas_x_ha":4,"masculinidad":95,"pct_menor20":28,"pct_60mas":26,"pct_migrante":31,"dependencia_econ":52,"pct_empleados":12,"pct_cuentapropia":76,"pct_agricultura":40,"pct_comercio":28,"pct_manufactura":0,"pct_construccion":16,"pct_transporte":8,"pct_alojamiento":20,"pct_educ_superior":14,"brecha_educ":-13,"pct_sin_seguro":18,"pct_seguro_privado":0,"brecha_seguro":-16,"pct_med_tradicional":11,"pct_automedicacion":17,"pct_remedios_caseros":26,"pct_viv_desocupada":0,"pct_alquiler":0,"pct_electricidad":82,"pct_agua_red":82,"pct_alcantarillado":12,"pct_gas_red":12,"pct_gas_garrafa":71,"pct_lena_guano":71,"pct_basura_formal":0,"pct_basura_quema":76,"pct_basura_informal":35,"pct_internet":29,"pct_celular":88,"pct_televisor":53}},{"type":"Feature","geometry":{"type":"Polygon","coordinates":[[[-65.4207,-19.71902],[-65.42075,-19.71945],[-65.41949,-19.71966],[-65.41942,-19.71936],[-65.41946,-19.71915],[-65.42035,-19.71904],[-65.42041,-19.71932],[-65.42039,-19.71904],[-65.4207,-19.71902]]]},"properties":{"n":"CHARCAS FLORIDA","p":29,"personas_x_ha":40,"masculinidad":93,"pct_menor20":55,"pct_60mas":14,"pct_migrante":24,"dependencia_econ":164,"pct_empleados":0,"pct_cuentapropia":100,"pct_agricultura":100,"pct_comercio":0,"pct_manufactura":9,"pct_construccion":9,"pct_transporte":0,"pct_alojamiento":0,"pct_educ_superior":0,"brecha_educ":-14,"pct_sin_seguro":3,"pct_seguro_privado":0,"brecha_seguro":-7,"pct_med_tradicional":17,"pct_automedicacion":19,"pct_remedios_caseros":21,"pct_viv_desocupada":0,"pct_alquiler":0,"pct_electricidad":100,"pct_agua_red":100,"pct_alcantarillado":25,"pct_gas_red":0,"pct_gas_garrafa":38,"pct_lena_guano":38,"pct_basura_formal":0,"pct_basura_quema":62,"pct_basura_informal":0,"pct_internet":50,"pct_celular":62,"pct_televisor":62}},{"type":"Feature","geometry":{"type":"Polygon","coordinates":[[[-65.41966,-19.72046],[-65.41968,-19.72028],[-65.41942,-19.71963],[-65.419,-19.71977],[-65.4188,-19.71975],[-65.41863,-19.71986],[-65.41884,-19.72059],[-65.41966,-19.72046]]]},"properties":{"n":"CHARCAS FLORIDA","p":32,"personas_x_ha":38,"masculinidad":113,"pct_menor20":31,"pct_60mas":19,"pct_migrante":22,"dependencia_econ":60,"pct_empleados":10,"pct_cuentapropia":80,"pct_agricultura":75,"pct_comercio":0,"pct_manufactura":0,"pct_construccion":10,"pct_transporte":0,"pct_alojamiento":0,"pct_educ_superior":17,"brecha_educ":-37,"pct_sin_seguro":16,"pct_seguro_privado":0,"brecha_seguro":29,"pct_med_tradicional":19,"pct_automedicacion":22,"pct_remedios_caseros":19,"pct_viv_desocupada":27,"pct_alquiler":0,"pct_electricidad":73,"pct_agua_red":100,"pct_alcantarillado":0,"pct_gas_red":0,"pct_gas_garrafa":9,"pct_lena_guano":9,"pct_basura_formal":0,"pct_basura_quema":100,"pct_basura_informal":0,"pct_internet":45,"pct_celular":91,"pct_televisor":45}},{"type":"Feature","geometry":{"type":"Polygon","coordinates":[[[-65.41862,-19.71921],[-65.41936,-19.71916],[-65.41942,-19.71961],[-65.41897,-19.71974],[-65.41878,-19.71972],[-65.41863,-19.71984],[-65.41849,-19.71937],[-65.41862,-19.71921]]]},"properties":{"n":"CHARCAS FLORIDA","p":35,"personas_x_ha":67,"masculinidad":106,"pct_menor20":37,"pct_60mas":3,"pct_migrante":31,"dependencia_econ":127,"pct_empleados":13,"pct_cuentapropia":53,"pct_agricultura":73,"pct_comercio":7,"pct_manufactura":0,"pct_construccion":13,"pct_transporte":0,"pct_alojamiento":0,"pct_educ_superior":14,"brecha_educ":-22,"pct_sin_seguro":27,"pct_seguro_privado":0,"brecha_seguro":20,"pct_med_tradicional":6,"pct_automedicacion":28,"pct_remedios_caseros":15,"pct_viv_desocupada":27,"pct_alquiler":0,"pct_electricidad":100,"pct_agua_red":100,"pct_alcantarillado":0,"pct_gas_red":0,"pct_gas_garrafa":17,"pct_lena_guano":17,"pct_basura_formal":0,"pct_basura_quema":83,"pct_basura_informal":0,"pct_internet":100,"pct_celular":100,"pct_televisor":67}},{"type":"Feature","geometry":{"type":"Polygon","coordinates":[[[-65.53255,-19.68003],[-65.53237,-19.67903],[-65.53224,-19.679],[-65.53206,-19.67944],[-65.53215,-19.68019],[-65.53255,-19.68003]]]},"properties":{"n":"CHICO CHICO","p":19,"personas_x_ha":44,"masculinidad":90,"pct_menor20":42,"pct_60mas":5,"pct_migrante":32,"dependencia_econ":138,"pct_empleados":25,"pct_cuentapropia":75,"pct_agricultura":50,"pct_comercio":25,"pct_manufactura":0,"pct_construccion":0,"pct_transporte":12,"pct_alojamiento":0,"pct_educ_superior":18,"brecha_educ":-62,"pct_sin_seguro":26,"pct_seguro_privado":0,"brecha_seguro":13,"pct_med_tradicional":13,"pct_automedicacion":17,"pct_remedios_caseros":23,"pct_viv_desocupada":12,"pct_alquiler":0,"pct_electricidad":71,"pct_agua_red":71,"pct_alcantarillado":0,"pct_gas_red":0,"pct_gas_garrafa":57,"pct_lena_guano":57,"pct_basura_formal":0,"pct_basura_quema":100,"pct_basura_informal":0,"pct_internet":71,"pct_celular":71,"pct_televisor":43}},{"type":"Feature","geometry":{"type":"Polygon","coordinates":[[[-65.53175,-19.68019],[-65.53204,-19.67891],[-65.53162,-19.67873],[-65.53141,-19.67972],[-65.53141,-19.68013],[-65.53175,-19.68019]]]},"properties":{"n":"CHICO CHICO","p":20,"personas_x_ha":31,"masculinidad":150,"pct_menor20":50,"pct_60mas":15,"pct_migrante":40,"dependencia_econ":186,"pct_empleados":14,"pct_cuentapropia":57,"pct_agricultura":71,"pct_comercio":0,"pct_manufactura":0,"pct_construccion":0,"pct_transporte":0,"pct_alojamiento":0,"pct_educ_superior":0,"brecha_educ":20,"pct_sin_seguro":5,"pct_seguro_privado":0,"brecha_seguro":-14,"pct_med_tradicional":21,"pct_automedicacion":11,"pct_remedios_caseros":30,"pct_viv_desocupada":0,"pct_alquiler":0,"pct_electricidad":67,"pct_agua_red":83,"pct_alcantarillado":0,"pct_gas_red":33,"pct_gas_garrafa":67,"pct_lena_guano":67,"pct_basura_formal":0,"pct_basura_quema":83,"pct_basura_informal":0,"pct_internet":67,"pct_celular":83,"pct_televisor":17}},{"type":"Feature","geometry":{"type":"Polygon","coordinates":[[[-65.53312,-19.67814],[-65.53299,-19.67846],[-65.53392,-19.67862],[-65.53403,-19.67828],[-65.53312,-19.67814]]]},"properties":{"n":"CHICO CHICO","p":36,"personas_x_ha":95,"masculinidad":125,"pct_menor20":44,"pct_60mas":3,"pct_migrante":33,"dependencia_econ":89,"pct_empleados":5,"pct_cuentapropia":89,"pct_agricultura":37,"pct_comercio":37,"pct_manufactura":5,"pct_construccion":11,"pct_transporte":5,"pct_alojamiento":0,"pct_educ_superior":36,"brecha_educ":-4,"pct_sin_seguro":8,"pct_seguro_privado":3,"brecha_seguro":-7,"pct_med_tradicional":2,"pct_automedicacion":21,"pct_remedios_caseros":25,"pct_viv_desocupada":15,"pct_alquiler":0,"pct_electricidad":69,"pct_agua_red":92,"pct_alcantarillado":8,"pct_gas_red":38,"pct_gas_garrafa":23,"pct_lena_guano":23,"pct_basura_formal":0,"pct_basura_quema":92,"pct_basura_informal":15,"pct_internet":92,"pct_celular":92,"pct_televisor":54}},{"type":"Feature","geometry":{"type":"Polygon","coordinates":[[[-65.56459,-19.64457],[-65.56363,-19.64492],[-65.56371,-19.64521],[-65.56443,-19.64496],[-65.5645,-19.64524],[-65.56481,-19.64533],[-65.56459,-19.64457]]]},"properties":{"n":"CHUTAWA ALTA","p":40,"personas_x_ha":81,"masculinidad":48,"pct_menor20":32,"pct_60mas":10,"pct_migrante":25,"dependencia_econ":73,"pct_empleados":14,"pct_cuentapropia":45,"pct_agricultura":64,"pct_comercio":9,"pct_manufactura":0,"pct_construccion":0,"pct_transporte":9,"pct_alojamiento":5,"pct_educ_superior":20,"brecha_educ":-10,"pct_sin_seguro":18,"pct_seguro_privado":0,"brecha_seguro":54,"pct_med_tradicional":9,"pct_automedicacion":16,"pct_remedios_caseros":24,"pct_viv_desocupada":22,"pct_alquiler":14,"pct_electricidad":71,"pct_agua_red":86,"pct_alcantarillado":0,"pct_gas_red":29,"pct_gas_garrafa":57,"pct_lena_guano":57,"pct_basura_formal":0,"pct_basura_quema":71,"pct_basura_informal":57,"pct_internet":86,"pct_celular":100,"pct_televisor":43}},{"type":"Feature","geometry":{"type":"Polygon","coordinates":[[[-65.56565,-19.64393],[-65.5663,-19.64364],[-65.56636,-19.64386],[-65.56517,-19.64427],[-65.56502,-19.64409],[-65.56514,-19.64391],[-65.56565,-19.64393]]]},"properties":{"n":"CHUTAWA ALTA","p":19,"personas_x_ha":51,"masculinidad":73,"pct_menor20":58,"pct_60mas":0,"pct_migrante":11,"dependencia_econ":138,"pct_empleados":12,"pct_cuentapropia":50,"pct_agricultura":75,"pct_comercio":12,"pct_manufactura":0,"pct_construccion":0,"pct_transporte":0,"pct_alojamiento":12,"pct_educ_superior":11,"brecha_educ":17,"pct_sin_seguro":5,"pct_seguro_privado":0,"brecha_seguro":-9,"pct_med_tradicional":18,"pct_automedicacion":18,"pct_remedios_caseros":21,"pct_viv_desocupada":30,"pct_alquiler":0,"pct_electricidad":33,"pct_agua_red":33,"pct_alcantarillado":0,"pct_gas_red":33,"pct_gas_garrafa":50,"pct_lena_guano":50,"pct_basura_formal":0,"pct_basura_quema":100,"pct_basura_informal":0,"pct_internet":100,"pct_celular":100,"pct_televisor":67}},{"type":"Feature","geometry":{"type":"Polygon","coordinates":[[[-65.56312,-19.64559],[-65.56312,-19.64607],[-65.5633,-19.64594],[-65.56336,-19.64569],[-65.56313,-19.64505],[-65.56296,-19.6451],[-65.56312,-19.64559]]]},"properties":{"n":"CHUTAWA ALTA","p":29,"personas_x_ha":122,"masculinidad":107,"pct_menor20":66,"pct_60mas":3,"pct_migrante":17,"dependencia_econ":222,"pct_empleados":22,"pct_cuentapropia":56,"pct_agricultura":44,"pct_comercio":0,"pct_manufactura":0,"pct_construccion":0,"pct_transporte":22,"pct_alojamiento":11,"pct_educ_superior":20,"brecha_educ":20,"pct_sin_seguro":3,"pct_seguro_privado":0,"brecha_seguro":7,"pct_med_tradicional":20,"pct_automedicacion":15,"pct_remedios_caseros":23,"pct_viv_desocupada":0,"pct_alquiler":0,"pct_electricidad":43,"pct_agua_red":57,"pct_alcantarillado":0,"pct_gas_red":71,"pct_gas_garrafa":14,"pct_lena_guano":14,"pct_basura_formal":0,"pct_basura_quema":100,"pct_basura_informal":0,"pct_internet":14,"pct_celular":86,"pct_televisor":43}},{"type":"Feature","geometry":{"type":"Polygon","coordinates":[[[-65.43548,-19.61135],[-65.43591,-19.61096],[-65.43626,-19.61094],[-65.43644,-19.6108],[-65.43647,-19.61052],[-65.4359,-19.6097],[-65.4348,-19.6101],[-65.43436,-19.61067],[-65.43415,-19.61135],[-65.43422,-19.61151],[-65.43515,-19.6113],[-65.43548,-19.61135]]]},"properties":{"n":"COIPASI","p":16,"personas_x_ha":5,"masculinidad":129,"pct_menor20":38,"pct_60mas":25,"pct_migrante":0,"dependencia_econ":100,"pct_empleados":0,"pct_cuentapropia":88,"pct_agricultura":100,"pct_comercio":0,"pct_manufactura":0,"pct_construccion":0,"pct_transporte":0,"pct_alojamiento":0,"pct_educ_superior":10,"brecha_educ":-40,"pct_sin_seguro":25,"pct_seguro_privado":0,"brecha_seguro":19,"pct_med_tradicional":2,"pct_automedicacion":33,"pct_remedios_caseros":35,"pct_viv_desocupada":0,"pct_alquiler":0,"pct_electricidad":86,"pct_agua_red":71,"pct_alcantarillado":0,"pct_gas_red":71,"pct_gas_garrafa":0,"pct_lena_guano":0,"pct_basura_formal":0,"pct_basura_quema":86,"pct_basura_informal":29,"pct_internet":71,"pct_celular":71,"pct_televisor":43}},{"type":"Feature","geometry":{"type":"Polygon","coordinates":[[[-65.43216,-19.60805],[-65.43144,-19.60848],[-65.43116,-19.60816],[-65.43137,-19.60735],[-65.43178,-19.60697],[-65.43289,-19.60819],[-65.43263,-19.60847],[-65.43216,-19.60805]]]},"properties":{"n":"COIPASI","p":20,"personas_x_ha":12,"masculinidad":122,"pct_menor20":45,"pct_60mas":10,"pct_migrante":30,"dependencia_econ":138,"pct_empleados":25,"pct_cuentapropia":38,"pct_agricultura":38,"pct_comercio":12,"pct_manufactura":0,"pct_construccion":0,"pct_transporte":12,"pct_alojamiento":12,"pct_educ_superior":40,"brecha_educ":-40,"pct_sin_seguro":0,"pct_seguro_privado":0,"brecha_seguro":0,"pct_med_tradicional":7,"pct_automedicacion":22,"pct_remedios_caseros":23,"pct_viv_desocupada":33,"pct_alquiler":0,"pct_electricidad":100,"pct_agua_red":67,"pct_alcantarillado":0,"pct_gas_red":83,"pct_gas_garrafa":17,"pct_lena_guano":17,"pct_basura_formal":0,"pct_basura_quema":83,"pct_basura_informal":0,"pct_internet":67,"pct_celular":50,"pct_televisor":17}},{"type":"Feature","geometry":{"type":"Polygon","coordinates":[[[-65.43155,-19.60707],[-65.43105,-19.60668],[-65.43213,-19.60678],[-65.43348,-19.60735],[-65.43313,-19.60789],[-65.43291,-19.60808],[-65.43181,-19.60691],[-65.43155,-19.60707]]]},"properties":{"n":"COIPASI","p":44,"personas_x_ha":32,"masculinidad":91,"pct_menor20":30,"pct_60mas":16,"pct_migrante":30,"dependencia_econ":132,"pct_empleados":26,"pct_cuentapropia":68,"pct_agricultura":32,"pct_comercio":0,"pct_manufactura":16,"pct_construccion":11,"pct_transporte":11,"pct_alojamiento":0,"pct_educ_superior":42,"brecha_educ":-31,"pct_sin_seguro":18,"pct_seguro_privado":0,"brecha_seguro":11,"pct_med_tradicional":7,"pct_automedicacion":22,"pct_remedios_caseros":26,"pct_viv_desocupada":0,"pct_alquiler":0,"pct_electricidad":100,"pct_agua_red":85,"pct_alcantarillado":15,"pct_gas_red":77,"pct_gas_garrafa":23,"pct_lena_guano":23,"pct_basura_formal":0,"pct_basura_quema":100,"pct_basura_informal":0,"pct_internet":92,"pct_celular":92,"pct_televisor":85}},{"type":"Feature","geometry":{"type":"Polygon","coordinates":[[[-65.60789,-19.50109],[-65.60815,-19.5014],[-65.60707,-19.502],[-65.60675,-19.50158],[-65.60727,-19.50126],[-65.60789,-19.50109]]]},"properties":{"n":"DON DIEGO","p":18,"personas_x_ha":25,"masculinidad":125,"pct_menor20":33,"pct_60mas":22,"pct_migrante":72,"dependencia_econ":260,"pct_empleados":80,"pct_cuentapropia":0,"pct_agricultura":0,"pct_comercio":60,"pct_manufactura":0,"pct_construccion":20,"pct_transporte":0,"pct_alojamiento":0,"pct_educ_superior":8,"brecha_educ":-23,"pct_sin_seguro":6,"pct_seguro_privado":0,"brecha_seguro":10,"pct_med_tradicional":19,"pct_automedicacion":7,"pct_remedios_caseros":23,"pct_viv_desocupada":0,"pct_alquiler":0,"pct_electricidad":100,"pct_agua_red":71,"pct_alcantarillado":29,"pct_gas_red":0,"pct_gas_garrafa":100,"pct_lena_guano":100,"pct_basura_formal":100,"pct_basura_quema":0,"pct_basura_informal":0,"pct_internet":29,"pct_celular":43,"pct_televisor":43}},{"type":"Feature","geometry":{"type":"Polygon","coordinates":[[[-65.60198,-19.50095],[-65.60194,-19.50061],[-65.60106,-19.50103],[-65.60109,-19.5011],[-65.60125,-19.50103],[-65.60129,-19.5011],[-65.6016,-19.50094],[-65.60168,-19.50109],[-65.60198,-19.50095]]]},"properties":{"n":"DON DIEGO","p":41,"personas_x_ha":153,"masculinidad":116,"pct_menor20":27,"pct_60mas":7,"pct_migrante":61,"dependencia_econ":215,"pct_empleados":69,"pct_cuentapropia":31,"pct_agricultura":15,"pct_comercio":8,"pct_manufactura":8,"pct_construccion":0,"pct_transporte":0,"pct_alojamiento":0,"pct_educ_superior":13,"brecha_educ":-25,"pct_sin_seguro":10,"pct_seguro_privado":26,"brecha_seguro":9,"pct_med_tradicional":3,"pct_automedicacion":16,"pct_remedios_caseros":22,"pct_viv_desocupada":8,"pct_alquiler":20,"pct_electricidad":100,"pct_agua_red":90,"pct_alcantarillado":50,"pct_gas_red":0,"pct_gas_garrafa":100,"pct_lena_guano":100,"pct_basura_formal":90,"pct_basura_quema":10,"pct_basura_informal":0,"pct_internet":80,"pct_celular":100,"pct_televisor":60}},{"type":"Feature","geometry":{"type":"Polygon","coordinates":[[[-65.59911,-19.50263],[-65.59923,-19.50278],[-65.59946,-19.5026],[-65.59933,-19.50244],[-65.59868,-19.50263],[-65.59883,-19.50283],[-65.59911,-19.50263]]]},"properties":{"n":"DON DIEGO","p":22,"personas_x_ha":124,"masculinidad":144,"pct_menor20":27,"pct_60mas":9,"pct_migrante":41,"dependencia_econ":144,"pct_empleados":56,"pct_cuentapropia":44,"pct_agricultura":0,"pct_comercio":0,"pct_manufactura":22,"pct_construccion":22,"pct_transporte":0,"pct_alojamiento":0,"pct_educ_superior":12,"brecha_educ":-12,"pct_sin_seguro":9,"pct_seguro_privado":32,"brecha_seguro":15,"pct_med_tradicional":9,"pct_automedicacion":11,"pct_remedios_caseros":24,"pct_viv_desocupada":12,"pct_alquiler":29,"pct_electricidad":100,"pct_agua_red":71,"pct_alcantarillado":86,"pct_gas_red":0,"pct_gas_garrafa":100,"pct_lena_guano":100,"pct_basura_formal":100,"pct_basura_quema":0,"pct_basura_informal":0,"pct_internet":100,"pct_celular":100,"pct_televisor":71}},{"type":"Feature","geometry":{"type":"Polygon","coordinates":[[[-65.60802,-19.49979],[-65.60838,-19.49983],[-65.60775,-19.5011],[-65.60744,-19.50102],[-65.60736,-19.50118],[-65.60697,-19.50133],[-65.60609,-19.50187],[-65.60584,-19.50112],[-65.60685,-19.50073],[-65.60742,-19.50074],[-65.60802,-19.49979]]]},"properties":{"n":"DON DIEGO","p":32,"personas_x_ha":18,"masculinidad":78,"pct_menor20":34,"pct_60mas":12,"pct_migrante":62,"dependencia_econ":78,"pct_empleados":72,"pct_cuentapropia":17,"pct_agricultura":11,"pct_comercio":17,"pct_manufactura":0,"pct_construccion":11,"pct_transporte":6,"pct_alojamiento":6,"pct_educ_superior":43,"brecha_educ":2,"pct_sin_seguro":16,"pct_seguro_privado":16,"brecha_seguro":10,"pct_med_tradicional":4,"pct_automedicacion":14,"pct_remedios_caseros":25,"pct_viv_desocupada":0,"pct_alquiler":0,"pct_electricidad":100,"pct_agua_red":83,"pct_alcantarillado":67,"pct_gas_red":0,"pct_gas_garrafa":100,"pct_lena_guano":100,"pct_basura_formal":92,"pct_basura_quema":0,"pct_basura_informal":17,"pct_internet":75,"pct_celular":100,"pct_televisor":92}},{"type":"Feature","geometry":{"type":"Polygon","coordinates":[[[-65.60443,-19.50153],[-65.60501,-19.5017],[-65.60508,-19.50107],[-65.60451,-19.50102],[-65.60443,-19.50153]]]},"properties":{"n":"DON DIEGO","p":24,"personas_x_ha":62,"masculinidad":85,"pct_menor20":46,"pct_60mas":0,"pct_migrante":54,"dependencia_econ":200,"pct_empleados":88,"pct_cuentapropia":12,"pct_agricultura":0,"pct_comercio":0,"pct_manufactura":0,"pct_construccion":0,"pct_transporte":0,"pct_alojamiento":0,"pct_educ_superior":15,"brecha_educ":-17,"pct_sin_seguro":0,"pct_seguro_privado":42,"brecha_seguro":0,"pct_med_tradicional":7,"pct_automedicacion":26,"pct_remedios_caseros":26,"pct_viv_desocupada":0,"pct_alquiler":0,"pct_electricidad":86,"pct_agua_red":43,"pct_alcantarillado":14,"pct_gas_red":0,"pct_gas_garrafa":86,"pct_lena_guano":86,"pct_basura_formal":29,"pct_basura_quema":14,"pct_basura_informal":86,"pct_internet":100,"pct_celular":100,"pct_televisor":100}},{"type":"Feature","geometry":{"type":"Polygon","coordinates":[[[-65.60296,-19.50044],[-65.60294,-19.50054],[-65.6019,-19.50037],[-65.60191,-19.50023],[-65.60222,-19.50019],[-65.60296,-19.50044]]]},"properties":{"n":"DON DIEGO","p":17,"personas_x_ha":82,"masculinidad":55,"pct_menor20":41,"pct_60mas":18,"pct_migrante":59,"dependencia_econ":112,"pct_empleados":38,"pct_cuentapropia":38,"pct_agricultura":38,"pct_comercio":0,"pct_manufactura":12,"pct_construccion":0,"pct_transporte":0,"pct_alojamiento":12,"pct_educ_superior":50,"brecha_educ":-50,"pct_sin_seguro":6,"pct_seguro_privado":0,"brecha_seguro":17,"pct_med_tradicional":13,"pct_automedicacion":13,"pct_remedios_caseros":23,"pct_viv_desocupada":38,"pct_alquiler":20,"pct_electricidad":100,"pct_agua_red":100,"pct_alcantarillado":60,"pct_gas_red":0,"pct_gas_garrafa":100,"pct_lena_guano":100,"pct_basura_formal":100,"pct_basura_quema":0,"pct_basura_informal":0,"pct_internet":100,"pct_celular":100,"pct_televisor":100}},{"type":"Feature","geometry":{"type":"Polygon","coordinates":[[[-65.40724,-19.61391],[-65.40708,-19.61383],[-65.4071,-19.6136],[-65.4071,-19.61381],[-65.40775,-19.6138],[-65.40778,-19.61372],[-65.40732,-19.61349],[-65.40696,-19.613],[-65.40627,-19.61377],[-65.40594,-19.61429],[-65.40594,-19.6144],[-65.40666,-19.61439],[-65.40724,-19.61391]]]},"properties":{"n":"PALAPAYA","p":22,"personas_x_ha":17,"masculinidad":83,"pct_menor20":41,"pct_60mas":32,"pct_migrante":41,"dependencia_econ":144,"pct_empleados":22,"pct_cuentapropia":56,"pct_agricultura":78,"pct_comercio":0,"pct_manufactura":0,"pct_construccion":22,"pct_transporte":0,"pct_alojamiento":0,"pct_educ_superior":0,"brecha_educ":-24,"pct_sin_seguro":27,"pct_seguro_privado":0,"brecha_seguro":23,"pct_med_tradicional":4,"pct_automedicacion":29,"pct_remedios_caseros":31,"pct_viv_desocupada":12,"pct_alquiler":0,"pct_electricidad":100,"pct_agua_red":17,"pct_alcantarillado":0,"pct_gas_red":0,"pct_gas_garrafa":33,"pct_lena_guano":33,"pct_basura_formal":0,"pct_basura_quema":50,"pct_basura_informal":100,"pct_internet":67,"pct_celular":67,"pct_televisor":50}},{"type":"Feature","geometry":{"type":"Polygon","coordinates":[[[-65.40924,-19.61176],[-65.40983,-19.61179],[-65.41021,-19.61254],[-65.40954,-19.61278],[-65.40918,-19.61317],[-65.40882,-19.61291],[-65.40906,-19.61264],[-65.40847,-19.6131],[-65.4084,-19.61299],[-65.40881,-19.61232],[-65.40913,-19.61208],[-65.40924,-19.61176]]]},"properties":{"n":"PALAPAYA","p":16,"personas_x_ha":11,"masculinidad":100,"pct_menor20":38,"pct_60mas":31,"pct_migrante":19,"dependencia_econ":129,"pct_empleados":0,"pct_cuentapropia":71,"pct_agricultura":100,"pct_comercio":0,"pct_manufactura":0,"pct_construccion":0,"pct_transporte":0,"pct_alojamiento":14,"pct_educ_superior":10,"brecha_educ":-20,"pct_sin_seguro":6,"pct_seguro_privado":0,"brecha_seguro":-12,"pct_med_tradicional":2,"pct_automedicacion":20,"pct_remedios_caseros":25,"pct_viv_desocupada":0,"pct_alquiler":0,"pct_electricidad":100,"pct_agua_red":0,"pct_alcantarillado":20,"pct_gas_red":0,"pct_gas_garrafa":40,"pct_lena_guano":40,"pct_basura_formal":0,"pct_basura_quema":60,"pct_basura_informal":40,"pct_internet":20,"pct_celular":60,"pct_televisor":40}}]}