{"type":"FeatureCollection","features":[{"type":"Feature","geometry":{"type":"Polygon","coordinates":[[[-65.68915,-18.31866],[-65.68897,-18.3182],[-65.68871,-18.31829],[-65.68859,-18.31807],[-65.68813,-18.31819],[-65.68797,-18.31835],[-65.68817,-18.31896],[-65.68915,-18.31866]]]},"properties":{"n":"CARASI","p":17,"personas_x_ha":21,"masculinidad":183,"pct_menor20":12,"pct_60mas":29,"pct_migrante":47,"dependencia_econ":55,"pct_empleados":36,"pct_cuentapropia":36,"pct_agricultura":27,"pct_comercio":9,"pct_manufactura":0,"pct_construccion":0,"pct_transporte":9,"pct_alojamiento":0,"pct_educ_superior":31,"brecha_educ":-24,"pct_sin_seguro":0,"pct_seguro_privado":0,"brecha_seguro":0,"pct_med_tradicional":11,"pct_automedicacion":18,"pct_remedios_caseros":23,"pct_viv_desocupada":18,"pct_alquiler":0,"pct_electricidad":100,"pct_agua_red":85,"pct_alcantarillado":0,"pct_gas_red":0,"pct_gas_garrafa":77,"pct_lena_guano":77,"pct_basura_formal":0,"pct_basura_quema":77,"pct_basura_informal":0,"pct_internet":62,"pct_celular":69,"pct_televisor":62}},{"type":"Feature","geometry":{"type":"Polygon","coordinates":[[[-65.68997,-18.32005],[-65.6895,-18.31993],[-65.68932,-18.31965],[-65.68918,-18.31959],[-65.68914,-18.31943],[-65.68823,-18.31943],[-65.68786,-18.31968],[-65.68783,-18.31924],[-65.68799,-18.31911],[-65.68807,-18.31923],[-65.68827,-18.31923],[-65.68932,-18.31909],[-65.68995,-18.31967],[-65.69006,-18.31996],[-65.68997,-18.32005]]]},"properties":{"n":"CARASI","p":31,"personas_x_ha":32,"masculinidad":138,"pct_menor20":52,"pct_60mas":10,"pct_migrante":39,"dependencia_econ":107,"pct_empleados":13,"pct_cuentapropia":60,"pct_agricultura":40,"pct_comercio":20,"pct_manufactura":7,"pct_construccion":7,"pct_transporte":0,"pct_alojamiento":13,"pct_educ_superior":27,"brecha_educ":-20,"pct_sin_seguro":3,"pct_seguro_privado":0,"brecha_seguro":-8,"pct_med_tradicional":8,"pct_automedicacion":10,"pct_remedios_caseros":21,"pct_viv_desocupada":5,"pct_alquiler":8,"pct_electricidad":100,"pct_agua_red":100,"pct_alcantarillado":8,"pct_gas_red":0,"pct_gas_garrafa":46,"pct_lena_guano":46,"pct_basura_formal":0,"pct_basura_quema":69,"pct_basura_informal":31,"pct_internet":77,"pct_celular":85,"pct_televisor":69}},{"type":"Feature","geometry":{"type":"Polygon","coordinates":[[[-65.6882,-18.31914],[-65.6888,-18.3191],[-65.68873,-18.31885],[-65.68819,-18.319],[-65.6882,-18.31914]]]},"properties":{"n":"CARASI","p":18,"personas_x_ha":120,"masculinidad":80,"pct_menor20":28,"pct_60mas":22,"pct_migrante":44,"dependencia_econ":38,"pct_empleados":23,"pct_cuentapropia":62,"pct_agricultura":46,"pct_comercio":0,"pct_manufactura":15,"pct_construccion":8,"pct_transporte":8,"pct_alojamiento":8,"pct_educ_superior":15,"brecha_educ":-24,"pct_sin_seguro":0,"pct_seguro_privado":0,"brecha_seguro":0,"pct_med_tradicional":23,"pct_automedicacion":9,"pct_remedios_caseros":24,"pct_viv_desocupada":18,"pct_alquiler":29,"pct_electricidad":100,"pct_agua_red":100,"pct_alcantarillado":0,"pct_gas_red":0,"pct_gas_garrafa":86,"pct_lena_guano":86,"pct_basura_formal":0,"pct_basura_quema":71,"pct_basura_informal":57,"pct_internet":86,"pct_celular":86,"pct_televisor":71}},{"type":"Feature","geometry":{"type":"Polygon","coordinates":[[[-65.76137,-18.13643],[-65.76132,-18.13605],[-65.76094,-18.13611],[-65.76089,-18.13598],[-65.76204,-18.1349],[-65.76233,-18.13512],[-65.76182,-18.13569],[-65.76175,-18.13593],[-65.76177,-18.13655],[-65.76137,-18.13643]]]},"properties":{"n":"TORO TORO","p":32,"personas_x_ha":32,"masculinidad":129,"pct_menor20":38,"pct_60mas":6,"pct_migrante":81,"dependencia_econ":59,"pct_empleados":41,"pct_cuentapropia":41,"pct_agricultura":12,"pct_comercio":29,"pct_manufactura":12,"pct_construccion":6,"pct_transporte":18,"pct_alojamiento":0,"pct_educ_superior":50,"brecha_educ":0,"pct_sin_seguro":4,"pct_seguro_privado":0,"brecha_seguro":7,"pct_med_tradicional":9,"pct_automedicacion":23,"pct_remedios_caseros":21,"pct_viv_desocupada":4,"pct_alquiler":46,"pct_electricidad":100,"pct_agua_red":100,"pct_alcantarillado":100,"pct_gas_red":0,"pct_gas_garrafa":85,"pct_lena_guano":85,"pct_basura_formal":100,"pct_basura_quema":0,"pct_basura_informal":0,"pct_internet":92,"pct_celular":92,"pct_televisor":62}},{"type":"Feature","geometry":{"type":"Polygon","coordinates":[[[-65.76363,-18.13614],[-65.76436,-18.13546],[-65.76365,-18.13481],[-65.76288,-18.13552],[-65.76363,-18.13614]]]},"properties":{"n":"TORO TORO","p":95,"personas_x_ha":80,"masculinidad":76,"pct_menor20":41,"pct_60mas":6,"pct_migrante":52,"dependencia_econ":100,"pct_empleados":32,"pct_cuentapropia":60,"pct_agricultura":6,"pct_comercio":19,"pct_manufactura":13,"pct_construccion":2,"pct_transporte":9,"pct_alojamiento":19,"pct_educ_superior":53,"brecha_educ":-26,"pct_sin_seguro":7,"pct_seguro_privado":0,"brecha_seguro":0,"pct_med_tradicional":10,"pct_automedicacion":25,"pct_remedios_caseros":25,"pct_viv_desocupada":2,"pct_alquiler":19,"pct_electricidad":100,"pct_agua_red":91,"pct_alcantarillado":97,"pct_gas_red":0,"pct_gas_garrafa":88,"pct_lena_guano":88,"pct_basura_formal":97,"pct_basura_quema":0,"pct_basura_informal":0,"pct_internet":75,"pct_celular":84,"pct_televisor":66}},{"type":"Feature","geometry":{"type":"Polygon","coordinates":[[[-65.7627,-18.13353],[-65.76171,-18.13441],[-65.76156,-18.13461],[-65.76199,-18.13481],[-65.763,-18.1339],[-65.7627,-18.13353]]]},"properties":{"n":"TORO TORO","p":16,"personas_x_ha":20,"masculinidad":78,"pct_menor20":12,"pct_60mas":25,"pct_migrante":62,"dependencia_econ":60,"pct_empleados":20,"pct_cuentapropia":70,"pct_agricultura":0,"pct_comercio":20,"pct_manufactura":20,"pct_construccion":0,"pct_transporte":10,"pct_alojamiento":10,"pct_educ_superior":57,"brecha_educ":-14,"pct_sin_seguro":25,"pct_seguro_privado":6,"brecha_seguro":32,"pct_med_tradicional":4,"pct_automedicacion":23,"pct_remedios_caseros":17,"pct_viv_desocupada":0,"pct_alquiler":33,"pct_electricidad":100,"pct_agua_red":100,"pct_alcantarillado":100,"pct_gas_red":0,"pct_gas_garrafa":100,"pct_lena_guano":100,"pct_basura_formal":100,"pct_basura_quema":0,"pct_basura_informal":0,"pct_internet":67,"pct_celular":75,"pct_televisor":75}},{"type":"Feature","geometry":{"type":"Polygon","coordinates":[[[-65.76531,-18.13656],[-65.76578,-18.13585],[-65.76484,-18.13468],[-65.76428,-18.13526],[-65.76485,-18.13589],[-65.76531,-18.13656]]]},"properties":{"n":"TORO TORO","p":49,"personas_x_ha":33,"masculinidad":88,"pct_menor20":33,"pct_60mas":14,"pct_migrante":43,"dependencia_econ":81,"pct_empleados":30,"pct_cuentapropia":59,"pct_agricultura":11,"pct_comercio":26,"pct_manufactura":7,"pct_construccion":4,"pct_transporte":15,"pct_alojamiento":22,"pct_educ_superior":30,"brecha_educ":-6,"pct_sin_seguro":12,"pct_seguro_privado":6,"brecha_seguro":-15,"pct_med_tradicional":8,"pct_automedicacion":18,"pct_remedios_caseros":26,"pct_viv_desocupada":0,"pct_alquiler":21,"pct_electricidad":95,"pct_agua_red":89,"pct_alcantarillado":95,"pct_gas_red":0,"pct_gas_garrafa":95,"pct_lena_guano":95,"pct_basura_formal":100,"pct_basura_quema":0,"pct_basura_informal":0,"pct_internet":68,"pct_celular":79,"pct_televisor":68}},{"type":"Feature","geometry":{"type":"Polygon","coordinates":[[[-65.76368,-18.13472],[-65.76423,-18.13525],[-65.76482,-18.13463],[-65.76432,-18.134],[-65.76368,-18.13472]]]},"properties":{"n":"TORO TORO","p":26,"personas_x_ha":30,"masculinidad":44,"pct_menor20":46,"pct_60mas":19,"pct_migrante":31,"dependencia_econ":92,"pct_empleados":31,"pct_cuentapropia":46,"pct_agricultura":31,"pct_comercio":23,"pct_manufactura":0,"pct_construccion":15,"pct_transporte":8,"pct_alojamiento":15,"pct_educ_superior":15,"brecha_educ":-28,"pct_sin_seguro":16,"pct_seguro_privado":0,"brecha_seguro":-2,"pct_med_tradicional":14,"pct_automedicacion":18,"pct_remedios_caseros":22,"pct_viv_desocupada":0,"pct_alquiler":0,"pct_electricidad":91,"pct_agua_red":82,"pct_alcantarillado":82,"pct_gas_red":0,"pct_gas_garrafa":91,"pct_lena_guano":91,"pct_basura_formal":100,"pct_basura_quema":0,"pct_basura_informal":0,"pct_internet":55,"pct_celular":55,"pct_televisor":45}},{"type":"Feature","geometry":{"type":"Polygon","coordinates":[[[-65.76204,-18.14428],[-65.76207,-18.14443],[-65.76164,-18.14454],[-65.76118,-18.14486],[-65.76114,-18.14429],[-65.76204,-18.14428]]]},"properties":{"n":"TORO TORO","p":32,"personas_x_ha":92,"masculinidad":78,"pct_menor20":59,"pct_60mas":3,"pct_migrante":9,"dependencia_econ":244,"pct_empleados":22,"pct_cuentapropia":78,"pct_agricultura":11,"pct_comercio":22,"pct_manufactura":11,"pct_construccion":22,"pct_transporte":11,"pct_alojamiento":0,"pct_educ_superior":8,"brecha_educ":-17,"pct_sin_seguro":3,"pct_seguro_privado":0,"brecha_seguro":7,"pct_med_tradicional":10,"pct_automedicacion":30,"pct_remedios_caseros":29,"pct_viv_desocupada":0,"pct_alquiler":20,"pct_electricidad":100,"pct_agua_red":90,"pct_alcantarillado":0,"pct_gas_red":0,"pct_gas_garrafa":100,"pct_lena_guano":100,"pct_basura_formal":0,"pct_basura_quema":100,"pct_basura_informal":0,"pct_internet":90,"pct_celular":100,"pct_televisor":60}},{"type":"Feature","geometry":{"type":"Polygon","coordinates":[[[-65.76265,-18.1335],[-65.76155,-18.132],[-65.76138,-18.13226],[-65.7613,-18.13268],[-65.76111,-18.13304],[-65.76057,-18.13362],[-65.76044,-18.13398],[-65.76151,-18.13453],[-65.76265,-18.1335]]]},"properties":{"n":"TORO TORO","p":26,"personas_x_ha":8,"masculinidad":53,"pct_menor20":46,"pct_60mas":12,"pct_migrante":81,"dependencia_econ":92,"pct_empleados":54,"pct_cuentapropia":31,"pct_agricultura":31,"pct_comercio":15,"pct_manufactura":0,"pct_construccion":0,"pct_transporte":0,"pct_alojamiento":0,"pct_educ_superior":64,"brecha_educ":-21,"pct_sin_seguro":0,"pct_seguro_privado":0,"brecha_seguro":0,"pct_med_tradicional":8,"pct_automedicacion":18,"pct_remedios_caseros":26,"pct_viv_desocupada":6,"pct_alquiler":60,"pct_electricidad":100,"pct_agua_red":70,"pct_alcantarillado":80,"pct_gas_red":0,"pct_gas_garrafa":90,"pct_lena_guano":90,"pct_basura_formal":100,"pct_basura_quema":0,"pct_basura_informal":0,"pct_internet":70,"pct_celular":80,"pct_televisor":60}},{"type":"Feature","geometry":{"type":"Polygon","coordinates":[[[-65.7663,-18.13747],[-65.76583,-18.13677],[-65.7656,-18.13705],[-65.76595,-18.13761],[-65.766,-18.13768],[-65.7663,-18.13747]]]},"properties":{"n":"TORO TORO","p":26,"personas_x_ha":77,"masculinidad":160,"pct_menor20":62,"pct_60mas":4,"pct_migrante":35,"dependencia_econ":160,"pct_empleados":10,"pct_cuentapropia":80,"pct_agricultura":30,"pct_comercio":20,"pct_manufactura":0,"pct_construccion":10,"pct_transporte":10,"pct_alojamiento":10,"pct_educ_superior":20,"brecha_educ":0,"pct_sin_seguro":24,"pct_seguro_privado":0,"brecha_seguro":23,"pct_med_tradicional":0,"pct_automedicacion":4,"pct_remedios_caseros":0,"pct_viv_desocupada":0,"pct_alquiler":0,"pct_electricidad":86,"pct_agua_red":86,"pct_alcantarillado":0,"pct_gas_red":0,"pct_gas_garrafa":100,"pct_lena_guano":100,"pct_basura_formal":100,"pct_basura_quema":0,"pct_basura_informal":0,"pct_internet":43,"pct_celular":57,"pct_televisor":86}},{"type":"Feature","geometry":{"type":"Polygon","coordinates":[[[-65.76779,-18.13869],[-65.76732,-18.13801],[-65.76694,-18.13825],[-65.76739,-18.13894],[-65.76779,-18.13869]]]},"properties":{"n":"TORO TORO","p":22,"personas_x_ha":49,"masculinidad":83,"pct_menor20":50,"pct_60mas":14,"pct_migrante":32,"dependencia_econ":83,"pct_empleados":17,"pct_cuentapropia":75,"pct_agricultura":8,"pct_comercio":8,"pct_manufactura":8,"pct_construccion":25,"pct_transporte":17,"pct_alojamiento":17,"pct_educ_superior":9,"brecha_educ":7,"pct_sin_seguro":27,"pct_seguro_privado":0,"brecha_seguro":23,"pct_med_tradicional":2,"pct_automedicacion":29,"pct_remedios_caseros":26,"pct_viv_desocupada":25,"pct_alquiler":0,"pct_electricidad":100,"pct_agua_red":43,"pct_alcantarillado":14,"pct_gas_red":0,"pct_gas_garrafa":100,"pct_lena_guano":100,"pct_basura_formal":71,"pct_basura_quema":14,"pct_basura_informal":0,"pct_internet":86,"pct_celular":86,"pct_televisor":57}},{"type":"Feature","geometry":{"type":"Polygon","coordinates":[[[-65.76319,-18.13409],[-65.76303,-18.13393],[-65.76206,-18.13485],[-65.76241,-18.13505],[-65.76307,-18.13438],[-65.76305,-18.13427],[-65.76319,-18.13409]]]},"properties":{"n":"TORO TORO","p":22,"personas_x_ha":41,"masculinidad":69,"pct_menor20":23,"pct_60mas":32,"pct_migrante":59,"dependencia_econ":83,"pct_empleados":25,"pct_cuentapropia":75,"pct_agricultura":8,"pct_comercio":17,"pct_manufactura":8,"pct_construccion":0,"pct_transporte":50,"pct_alojamiento":0,"pct_educ_superior":39,"brecha_educ":-30,"pct_sin_seguro":9,"pct_seguro_privado":0,"brecha_seguro":22,"pct_med_tradicional":7,"pct_automedicacion":18,"pct_remedios_caseros":27,"pct_viv_desocupada":13,"pct_alquiler":0,"pct_electricidad":100,"pct_agua_red":100,"pct_alcantarillado":100,"pct_gas_red":0,"pct_gas_garrafa":100,"pct_lena_guano":100,"pct_basura_formal":100,"pct_basura_quema":0,"pct_basura_informal":0,"pct_internet":86,"pct_celular":86,"pct_televisor":86}},{"type":"Feature","geometry":{"type":"Polygon","coordinates":[[[-65.76887,-18.13931],[-65.76868,-18.13978],[-65.76926,-18.13995],[-65.76942,-18.13948],[-65.76887,-18.13931]]]},"properties":{"n":"TORO TORO","p":19,"personas_x_ha":55,"masculinidad":73,"pct_menor20":47,"pct_60mas":11,"pct_migrante":5,"dependencia_econ":375,"pct_empleados":25,"pct_cuentapropia":75,"pct_agricultura":50,"pct_comercio":50,"pct_manufactura":0,"pct_construccion":25,"pct_transporte":25,"pct_alojamiento":0,"pct_educ_superior":0,"brecha_educ":-33,"pct_sin_seguro":5,"pct_seguro_privado":0,"brecha_seguro":-9,"pct_med_tradicional":4,"pct_automedicacion":20,"pct_remedios_caseros":32,"pct_viv_desocupada":11,"pct_alquiler":0,"pct_electricidad":86,"pct_agua_red":86,"pct_alcantarillado":0,"pct_gas_red":0,"pct_gas_garrafa":71,"pct_lena_guano":71,"pct_basura_formal":57,"pct_basura_quema":43,"pct_basura_informal":0,"pct_internet":57,"pct_celular":86,"pct_televisor":57}},{"type":"Feature","geometry":{"type":"Polygon","coordinates":[[[-65.77002,-18.1396],[-65.77024,-18.13895],[-65.76976,-18.13878],[-65.76954,-18.13945],[-65.77002,-18.1396]]]},"properties":{"n":"TORO TORO","p":19,"personas_x_ha":46,"masculinidad":46,"pct_menor20":53,"pct_60mas":11,"pct_migrante":26,"dependencia_econ":90,"pct_empleados":10,"pct_cuentapropia":70,"pct_agricultura":40,"pct_comercio":10,"pct_manufactura":10,"pct_construccion":0,"pct_transporte":0,"pct_alojamiento":30,"pct_educ_superior":10,"brecha_educ":12,"pct_sin_seguro":0,"pct_seguro_privado":0,"brecha_seguro":0,"pct_med_tradicional":22,"pct_automedicacion":21,"pct_remedios_caseros":22,"pct_viv_desocupada":0,"pct_alquiler":0,"pct_electricidad":83,"pct_agua_red":83,"pct_alcantarillado":17,"pct_gas_red":0,"pct_gas_garrafa":100,"pct_lena_guano":100,"pct_basura_formal":83,"pct_basura_quema":0,"pct_basura_informal":0,"pct_internet":50,"pct_celular":50,"pct_televisor":33}},{"type":"Feature","geometry":{"type":"Polygon","coordinates":[[[-65.76518,-18.1366],[-65.76477,-18.1368],[-65.76475,-18.13675],[-65.76515,-18.13655],[-65.76441,-18.13558],[-65.76407,-18.13586],[-65.76434,-18.1362],[-65.76344,-18.13709],[-65.76323,-18.13756],[-65.76378,-18.13776],[-65.76386,-18.13768],[-65.76468,-18.13788],[-65.76545,-18.13709],[-65.76518,-18.1366]]]},"properties":{"n":"TORO TORO","p":50,"personas_x_ha":16,"masculinidad":127,"pct_menor20":46,"pct_60mas":4,"pct_migrante":48,"dependencia_econ":206,"pct_empleados":50,"pct_cuentapropia":50,"pct_agricultura":19,"pct_comercio":6,"pct_manufactura":6,"pct_construccion":6,"pct_transporte":0,"pct_alojamiento":12,"pct_educ_superior":61,"brecha_educ":-50,"pct_sin_seguro":8,"pct_seguro_privado":0,"brecha_seguro":6,"pct_med_tradicional":18,"pct_automedicacion":22,"pct_remedios_caseros":24,"pct_viv_desocupada":0,"pct_alquiler":29,"pct_electricidad":95,"pct_agua_red":95,"pct_alcantarillado":33,"pct_gas_red":0,"pct_gas_garrafa":90,"pct_lena_guano":90,"pct_basura_formal":86,"pct_basura_quema":14,"pct_basura_informal":0,"pct_internet":86,"pct_celular":90,"pct_televisor":57}},{"type":"Feature","geometry":{"type":"Polygon","coordinates":[[[-65.76047,-18.14088],[-65.76006,-18.14066],[-65.7598,-18.14117],[-65.76021,-18.14136],[-65.76047,-18.14088]]]},"properties":{"n":"TORO TORO","p":19,"personas_x_ha":63,"masculinidad":217,"pct_menor20":42,"pct_60mas":0,"pct_migrante":47,"dependencia_econ":138,"pct_empleados":38,"pct_cuentapropia":50,"pct_agricultura":0,"pct_comercio":12,"pct_manufactura":0,"pct_construccion":38,"pct_transporte":0,"pct_alojamiento":12,"pct_educ_superior":45,"brecha_educ":-11,"pct_sin_seguro":0,"pct_seguro_privado":0,"brecha_seguro":0,"pct_med_tradicional":12,"pct_automedicacion":19,"pct_remedios_caseros":18,"pct_viv_desocupada":0,"pct_alquiler":50,"pct_electricidad":100,"pct_agua_red":100,"pct_alcantarillado":88,"pct_gas_red":0,"pct_gas_garrafa":75,"pct_lena_guano":75,"pct_basura_formal":100,"pct_basura_quema":0,"pct_basura_informal":0,"pct_internet":88,"pct_celular":100,"pct_televisor":38}},{"type":"Feature","geometry":{"type":"Polygon","coordinates":[[[-65.76353,-18.13302],[-65.76194,-18.13118],[-65.76269,-18.13009],[-65.76275,-18.13011],[-65.76278,-18.13037],[-65.76264,-18.13105],[-65.76278,-18.13125],[-65.76311,-18.13142],[-65.76288,-18.13182],[-65.76328,-18.13216],[-65.76377,-18.1328],[-65.76353,-18.13302]]]},"properties":{"n":"TORO TORO","p":19,"personas_x_ha":11,"masculinidad":138,"pct_menor20":47,"pct_60mas":16,"pct_migrante":16,"dependencia_econ":138,"pct_empleados":50,"pct_cuentapropia":38,"pct_agricultura":38,"pct_comercio":12,"pct_manufactura":12,"pct_construccion":25,"pct_transporte":0,"pct_alojamiento":0,"pct_educ_superior":45,"brecha_educ":-7,"pct_sin_seguro":11,"pct_seguro_privado":0,"brecha_seguro":-3,"pct_med_tradicional":21,"pct_automedicacion":25,"pct_remedios_caseros":17,"pct_viv_desocupada":10,"pct_alquiler":56,"pct_electricidad":100,"pct_agua_red":89,"pct_alcantarillado":100,"pct_gas_red":0,"pct_gas_garrafa":89,"pct_lena_guano":89,"pct_basura_formal":100,"pct_basura_quema":0,"pct_basura_informal":0,"pct_internet":78,"pct_celular":100,"pct_televisor":56}},{"type":"Feature","geometry":{"type":"Polygon","coordinates":[[[-65.76016,-18.14146],[-65.75978,-18.14121],[-65.75918,-18.14242],[-65.75955,-18.14269],[-65.76016,-18.14146]]]},"properties":{"n":"TORO TORO","p":37,"personas_x_ha":49,"masculinidad":68,"pct_menor20":62,"pct_60mas":3,"pct_migrante":24,"dependencia_econ":185,"pct_empleados":54,"pct_cuentapropia":38,"pct_agricultura":46,"pct_comercio":38,"pct_manufactura":0,"pct_construccion":15,"pct_transporte":8,"pct_alojamiento":8,"pct_educ_superior":19,"brecha_educ":5,"pct_sin_seguro":6,"pct_seguro_privado":0,"brecha_seguro":13,"pct_med_tradicional":19,"pct_automedicacion":20,"pct_remedios_caseros":23,"pct_viv_desocupada":0,"pct_alquiler":14,"pct_electricidad":86,"pct_agua_red":79,"pct_alcantarillado":43,"pct_gas_red":0,"pct_gas_garrafa":86,"pct_lena_guano":86,"pct_basura_formal":29,"pct_basura_quema":71,"pct_basura_informal":0,"pct_internet":57,"pct_celular":86,"pct_televisor":50}},{"type":"Feature","geometry":{"type":"Polygon","coordinates":[[[-65.76774,-18.13744],[-65.767,-18.13713],[-65.76689,-18.13724],[-65.76736,-18.13789],[-65.76772,-18.13765],[-65.76774,-18.13744]]]},"properties":{"n":"TORO TORO","p":38,"personas_x_ha":98,"masculinidad":100,"pct_menor20":32,"pct_60mas":0,"pct_migrante":16,"dependencia_econ":95,"pct_empleados":11,"pct_cuentapropia":74,"pct_agricultura":42,"pct_comercio":11,"pct_manufactura":5,"pct_construccion":16,"pct_transporte":0,"pct_alojamiento":16,"pct_educ_superior":44,"brecha_educ":-14,"pct_sin_seguro":3,"pct_seguro_privado":0,"brecha_seguro":5,"pct_med_tradicional":14,"pct_automedicacion":28,"pct_remedios_caseros":21,"pct_viv_desocupada":0,"pct_alquiler":0,"pct_electricidad":92,"pct_agua_red":100,"pct_alcantarillado":0,"pct_gas_red":0,"pct_gas_garrafa":100,"pct_lena_guano":100,"pct_basura_formal":100,"pct_basura_quema":0,"pct_basura_informal":0,"pct_internet":77,"pct_celular":100,"pct_televisor":69}},{"type":"Feature","geometry":{"type":"Polygon","coordinates":[[[-65.76247,-18.13688],[-65.76264,-18.13658],[-65.763,-18.13692],[-65.7636,-18.13621],[-65.76285,-18.13557],[-65.76235,-18.13603],[-65.76188,-18.13661],[-65.76247,-18.13688]]]},"properties":{"n":"TORO TORO","p":54,"personas_x_ha":38,"masculinidad":100,"pct_menor20":39,"pct_60mas":9,"pct_migrante":43,"dependencia_econ":100,"pct_empleados":41,"pct_cuentapropia":44,"pct_agricultura":19,"pct_comercio":19,"pct_manufactura":4,"pct_construccion":22,"pct_transporte":7,"pct_alojamiento":7,"pct_educ_superior":47,"brecha_educ":-28,"pct_sin_seguro":0,"pct_seguro_privado":0,"brecha_seguro":0,"pct_med_tradicional":8,"pct_automedicacion":22,"pct_remedios_caseros":21,"pct_viv_desocupada":0,"pct_alquiler":35,"pct_electricidad":100,"pct_agua_red":100,"pct_alcantarillado":100,"pct_gas_red":0,"pct_gas_garrafa":83,"pct_lena_guano":83,"pct_basura_formal":96,"pct_basura_quema":4,"pct_basura_informal":0,"pct_internet":100,"pct_celular":100,"pct_televisor":87}},{"type":"Feature","geometry":{"type":"Polygon","coordinates":[[[-65.76277,-18.1355],[-65.76237,-18.13517],[-65.76191,-18.13565],[-65.76238,-18.1359],[-65.76277,-18.1355]]]},"properties":{"n":"TORO TORO","p":30,"personas_x_ha":77,"masculinidad":114,"pct_menor20":33,"pct_60mas":17,"pct_migrante":33,"dependencia_econ":58,"pct_empleados":32,"pct_cuentapropia":63,"pct_agricultura":0,"pct_comercio":47,"pct_manufactura":0,"pct_construccion":5,"pct_transporte":5,"pct_alojamiento":11,"pct_educ_superior":40,"brecha_educ":-26,"pct_sin_seguro":3,"pct_seguro_privado":0,"brecha_seguro":7,"pct_med_tradicional":13,"pct_automedicacion":17,"pct_remedios_caseros":21,"pct_viv_desocupada":0,"pct_alquiler":20,"pct_electricidad":100,"pct_agua_red":90,"pct_alcantarillado":100,"pct_gas_red":0,"pct_gas_garrafa":90,"pct_lena_guano":90,"pct_basura_formal":100,"pct_basura_quema":0,"pct_basura_informal":0,"pct_internet":90,"pct_celular":100,"pct_televisor":70}},{"type":"Feature","geometry":{"type":"Polygon","coordinates":[[[-65.76113,-18.14425],[-65.76203,-18.14424],[-65.76203,-18.14423],[-65.7619,-18.14393],[-65.76114,-18.14388],[-65.76113,-18.14425]]]},"properties":{"n":"TORO TORO","p":21,"personas_x_ha":62,"masculinidad":133,"pct_menor20":29,"pct_60mas":10,"pct_migrante":10,"dependencia_econ":54,"pct_empleados":38,"pct_cuentapropia":46,"pct_agricultura":31,"pct_comercio":15,"pct_manufactura":0,"pct_construccion":15,"pct_transporte":23,"pct_alojamiento":0,"pct_educ_superior":0,"brecha_educ":-25,"pct_sin_seguro":10,"pct_seguro_privado":0,"brecha_seguro":18,"pct_med_tradicional":9,"pct_automedicacion":32,"pct_remedios_caseros":25,"pct_viv_desocupada":0,"pct_alquiler":0,"pct_electricidad":100,"pct_agua_red":100,"pct_alcantarillado":0,"pct_gas_red":0,"pct_gas_garrafa":100,"pct_lena_guano":100,"pct_basura_formal":0,"pct_basura_quema":89,"pct_basura_informal":0,"pct_internet":89,"pct_celular":100,"pct_televisor":56}},{"type":"Feature","geometry":{"type":"Polygon","coordinates":[[[-65.76821,-18.1386],[-65.76809,-18.13897],[-65.76885,-18.13921],[-65.76899,-18.13896],[-65.76821,-18.1386]]]},"properties":{"n":"TORO TORO","p":30,"personas_x_ha":86,"masculinidad":100,"pct_menor20":63,"pct_60mas":0,"pct_migrante":37,"dependencia_econ":275,"pct_empleados":50,"pct_cuentapropia":50,"pct_agricultura":0,"pct_comercio":0,"pct_manufactura":0,"pct_construccion":38,"pct_transporte":12,"pct_alojamiento":0,"pct_educ_superior":9,"brecha_educ":-46,"pct_sin_seguro":3,"pct_seguro_privado":0,"brecha_seguro":7,"pct_med_tradicional":24,"pct_automedicacion":23,"pct_remedios_caseros":22,"pct_viv_desocupada":0,"pct_alquiler":0,"pct_electricidad":100,"pct_agua_red":90,"pct_alcantarillado":0,"pct_gas_red":0,"pct_gas_garrafa":100,"pct_lena_guano":100,"pct_basura_formal":100,"pct_basura_quema":0,"pct_basura_informal":0,"pct_internet":60,"pct_celular":80,"pct_televisor":50}},{"type":"Feature","geometry":{"type":"Polygon","coordinates":[[[-65.76163,-18.13829],[-65.76119,-18.13812],[-65.76112,-18.13839],[-65.76148,-18.13854],[-65.76163,-18.13829]]]},"properties":{"n":"TORO TORO","p":21,"personas_x_ha":148,"masculinidad":110,"pct_menor20":62,"pct_60mas":10,"pct_migrante":19,"dependencia_econ":200,"pct_empleados":29,"pct_cuentapropia":57,"pct_agricultura":43,"pct_comercio":14,"pct_manufactura":0,"pct_construccion":14,"pct_transporte":0,"pct_alojamiento":14,"pct_educ_superior":0,"brecha_educ":-83,"pct_sin_seguro":18,"pct_seguro_privado":0,"brecha_seguro":38,"pct_med_tradicional":10,"pct_automedicacion":29,"pct_remedios_caseros":28,"pct_viv_desocupada":25,"pct_alquiler":50,"pct_electricidad":83,"pct_agua_red":33,"pct_alcantarillado":33,"pct_gas_red":0,"pct_gas_garrafa":100,"pct_lena_guano":100,"pct_basura_formal":100,"pct_basura_quema":0,"pct_basura_informal":0,"pct_internet":50,"pct_celular":67,"pct_televisor":33}},{"type":"Feature","geometry":{"type":"Polygon","coordinates":[[[-65.76698,-18.13929],[-65.76765,-18.14038],[-65.76783,-18.13974],[-65.76735,-18.13904],[-65.76698,-18.13929]]]},"properties":{"n":"TORO TORO","p":22,"personas_x_ha":39,"masculinidad":120,"pct_menor20":41,"pct_60mas":14,"pct_migrante":9,"dependencia_econ":175,"pct_empleados":38,"pct_cuentapropia":38,"pct_agricultura":12,"pct_comercio":12,"pct_manufactura":0,"pct_construccion":25,"pct_transporte":0,"pct_alojamiento":0,"pct_educ_superior":15,"brecha_educ":-50,"pct_sin_seguro":0,"pct_seguro_privado":0,"brecha_seguro":0,"pct_med_tradicional":4,"pct_automedicacion":8,"pct_remedios_caseros":0,"pct_viv_desocupada":0,"pct_alquiler":0,"pct_electricidad":91,"pct_agua_red":9,"pct_alcantarillado":0,"pct_gas_red":0,"pct_gas_garrafa":100,"pct_lena_guano":100,"pct_basura_formal":100,"pct_basura_quema":0,"pct_basura_informal":0,"pct_internet":45,"pct_celular":82,"pct_televisor":55}},{"type":"Feature","geometry":{"type":"Polygon","coordinates":[[[-65.76148,-18.13698],[-65.76089,-18.13661],[-65.76084,-18.13718],[-65.76109,-18.1379],[-65.76107,-18.13823],[-65.76148,-18.13698]]]},"properties":{"n":"TORO TORO","p":30,"personas_x_ha":48,"masculinidad":131,"pct_menor20":43,"pct_60mas":10,"pct_migrante":43,"dependencia_econ":88,"pct_empleados":19,"pct_cuentapropia":56,"pct_agricultura":38,"pct_comercio":0,"pct_manufactura":6,"pct_construccion":12,"pct_transporte":6,"pct_alojamiento":0,"pct_educ_superior":33,"brecha_educ":-20,"pct_sin_seguro":3,"pct_seguro_privado":0,"brecha_seguro":-8,"pct_med_tradicional":11,"pct_automedicacion":24,"pct_remedios_caseros":20,"pct_viv_desocupada":0,"pct_alquiler":25,"pct_electricidad":100,"pct_agua_red":92,"pct_alcantarillado":92,"pct_gas_red":0,"pct_gas_garrafa":100,"pct_lena_guano":100,"pct_basura_formal":100,"pct_basura_quema":0,"pct_basura_informal":0,"pct_internet":58,"pct_celular":67,"pct_televisor":58}},{"type":"Feature","geometry":{"type":"Polygon","coordinates":[[[-65.76192,-18.13487],[-65.76028,-18.13402],[-65.76021,-18.1344],[-65.75986,-18.13504],[-65.76047,-18.13575],[-65.76077,-18.13596],[-65.76192,-18.13487]]]},"properties":{"n":"TORO TORO","p":46,"personas_x_ha":19,"masculinidad":77,"pct_menor20":33,"pct_60mas":13,"pct_migrante":78,"dependencia_econ":92,"pct_empleados":79,"pct_cuentapropia":8,"pct_agricultura":0,"pct_comercio":4,"pct_manufactura":8,"pct_construccion":0,"pct_transporte":8,"pct_alojamiento":8,"pct_educ_superior":84,"brecha_educ":-11,"pct_sin_seguro":4,"pct_seguro_privado":0,"brecha_seguro":-8,"pct_med_tradicional":9,"pct_automedicacion":15,"pct_remedios_caseros":23,"pct_viv_desocupada":0,"pct_alquiler":65,"pct_electricidad":94,"pct_agua_red":94,"pct_alcantarillado":94,"pct_gas_red":0,"pct_gas_garrafa":100,"pct_lena_guano":100,"pct_basura_formal":94,"pct_basura_quema":6,"pct_basura_informal":0,"pct_internet":94,"pct_celular":100,"pct_televisor":76}},{"type":"Feature","geometry":{"type":"Polygon","coordinates":[[[-65.7612,-18.1381],[-65.76164,-18.13827],[-65.76197,-18.13767],[-65.76244,-18.13794],[-65.76243,-18.13764],[-65.76233,-18.13752],[-65.76238,-18.13729],[-65.76224,-18.13693],[-65.76181,-18.13667],[-65.76154,-18.13702],[-65.7612,-18.1381]]]},"properties":{"n":"TORO TORO","p":29,"personas_x_ha":22,"masculinidad":123,"pct_menor20":24,"pct_60mas":10,"pct_migrante":55,"dependencia_econ":71,"pct_empleados":53,"pct_cuentapropia":35,"pct_agricultura":12,"pct_comercio":0,"pct_manufactura":6,"pct_construccion":0,"pct_transporte":0,"pct_alojamiento":35,"pct_educ_superior":50,"brecha_educ":-18,"pct_sin_seguro":0,"pct_seguro_privado":0,"brecha_seguro":0,"pct_med_tradicional":7,"pct_automedicacion":21,"pct_remedios_caseros":23,"pct_viv_desocupada":0,"pct_alquiler":43,"pct_electricidad":86,"pct_agua_red":86,"pct_alcantarillado":79,"pct_gas_red":7,"pct_gas_garrafa":71,"pct_lena_guano":71,"pct_basura_formal":93,"pct_basura_quema":7,"pct_basura_informal":0,"pct_internet":93,"pct_celular":93,"pct_televisor":71}},{"type":"Feature","geometry":{"type":"Polygon","coordinates":[[[-65.76684,-18.13715],[-65.76684,-18.13705],[-65.76638,-18.13672],[-65.76616,-18.1364],[-65.76588,-18.13669],[-65.76638,-18.13742],[-65.76684,-18.13715]]]},"properties":{"n":"TORO TORO","p":15,"personas_x_ha":29,"masculinidad":200,"pct_menor20":33,"pct_60mas":7,"pct_migrante":27,"dependencia_econ":88,"pct_empleados":25,"pct_cuentapropia":62,"pct_agricultura":38,"pct_comercio":0,"pct_manufactura":0,"pct_construccion":25,"pct_transporte":0,"pct_alojamiento":12,"pct_educ_superior":30,"brecha_educ":12,"pct_sin_seguro":0,"pct_seguro_privado":0,"brecha_seguro":0,"pct_med_tradicional":16,"pct_automedicacion":15,"pct_remedios_caseros":23,"pct_viv_desocupada":17,"pct_alquiler":0,"pct_electricidad":100,"pct_agua_red":100,"pct_alcantarillado":10,"pct_gas_red":0,"pct_gas_garrafa":100,"pct_lena_guano":100,"pct_basura_formal":100,"pct_basura_quema":0,"pct_basura_informal":0,"pct_internet":100,"pct_celular":100,"pct_televisor":50}},{"type":"Feature","geometry":{"type":"Polygon","coordinates":[[[-65.7611,-18.14446],[-65.76102,-18.1439],[-65.76089,-18.1439],[-65.76039,-18.14411],[-65.7603,-18.1442],[-65.76029,-18.14438],[-65.76044,-18.14468],[-65.76069,-18.14451],[-65.7611,-18.14446]]]},"properties":{"n":"TORO TORO","p":21,"personas_x_ha":44,"masculinidad":91,"pct_menor20":38,"pct_60mas":19,"pct_migrante":19,"dependencia_econ":40,"pct_empleados":13,"pct_cuentapropia":67,"pct_agricultura":67,"pct_comercio":13,"pct_manufactura":0,"pct_construccion":7,"pct_transporte":0,"pct_alojamiento":0,"pct_educ_superior":8,"brecha_educ":-24,"pct_sin_seguro":14,"pct_seguro_privado":0,"brecha_seguro":11,"pct_med_tradicional":25,"pct_automedicacion":16,"pct_remedios_caseros":24,"pct_viv_desocupada":0,"pct_alquiler":0,"pct_electricidad":92,"pct_agua_red":83,"pct_alcantarillado":0,"pct_gas_red":0,"pct_gas_garrafa":92,"pct_lena_guano":92,"pct_basura_formal":8,"pct_basura_quema":92,"pct_basura_informal":0,"pct_internet":67,"pct_celular":75,"pct_televisor":50}},{"type":"Feature","geometry":{"type":"Polygon","coordinates":[[[-65.75959,-18.1392],[-65.75948,-18.13872],[-65.75909,-18.13882],[-65.7586,-18.13818],[-65.75985,-18.13647],[-65.76017,-18.13581],[-65.76033,-18.13578],[-65.76068,-18.13597],[-65.76083,-18.13614],[-65.76084,-18.13646],[-65.76072,-18.13673],[-65.76072,-18.13723],[-65.76102,-18.13801],[-65.76098,-18.13854],[-65.76065,-18.13921],[-65.76013,-18.1389],[-65.75959,-18.1392]]]},"properties":{"n":"TORO TORO","p":45,"personas_x_ha":8,"masculinidad":125,"pct_menor20":44,"pct_60mas":9,"pct_migrante":29,"dependencia_econ":159,"pct_empleados":29,"pct_cuentapropia":65,"pct_agricultura":18,"pct_comercio":12,"pct_manufactura":0,"pct_construccion":12,"pct_transporte":18,"pct_alojamiento":12,"pct_educ_superior":29,"brecha_educ":13,"pct_sin_seguro":36,"pct_seguro_privado":5,"brecha_seguro":-16,"pct_med_tradicional":0,"pct_automedicacion":4,"pct_remedios_caseros":2,"pct_viv_desocupada":0,"pct_alquiler":36,"pct_electricidad":100,"pct_agua_red":100,"pct_alcantarillado":79,"pct_gas_red":0,"pct_gas_garrafa":86,"pct_lena_guano":86,"pct_basura_formal":93,"pct_basura_quema":7,"pct_basura_informal":0,"pct_internet":79,"pct_celular":86,"pct_televisor":57}},{"type":"Feature","geometry":{"type":"Polygon","coordinates":[[[-65.7639,-18.13645],[-65.76332,-18.13707],[-65.76311,-18.13691],[-65.76364,-18.13624],[-65.7639,-18.13645]]]},"properties":{"n":"TORO TORO","p":18,"personas_x_ha":61,"masculinidad":80,"pct_menor20":39,"pct_60mas":11,"pct_migrante":17,"dependencia_econ":157,"pct_empleados":43,"pct_cuentapropia":29,"pct_agricultura":43,"pct_comercio":14,"pct_manufactura":0,"pct_construccion":29,"pct_transporte":0,"pct_alojamiento":14,"pct_educ_superior":27,"brecha_educ":-30,"pct_sin_seguro":6,"pct_seguro_privado":0,"brecha_seguro":-10,"pct_med_tradicional":0,"pct_automedicacion":19,"pct_remedios_caseros":27,"pct_viv_desocupada":0,"pct_alquiler":14,"pct_electricidad":100,"pct_agua_red":100,"pct_alcantarillado":86,"pct_gas_red":0,"pct_gas_garrafa":86,"pct_lena_guano":86,"pct_basura_formal":86,"pct_basura_quema":14,"pct_basura_informal":0,"pct_internet":71,"pct_celular":100,"pct_televisor":43}},{"type":"Feature","geometry":{"type":"Polygon","coordinates":[[[-65.76605,-18.13629],[-65.76582,-18.1359],[-65.76532,-18.13668],[-65.76553,-18.13699],[-65.76605,-18.13629]]]},"properties":{"n":"TORO TORO","p":47,"personas_x_ha":106,"masculinidad":81,"pct_menor20":49,"pct_60mas":4,"pct_migrante":30,"dependencia_econ":262,"pct_empleados":15,"pct_cuentapropia":85,"pct_agricultura":23,"pct_comercio":31,"pct_manufactura":8,"pct_construccion":38,"pct_transporte":0,"pct_alojamiento":8,"pct_educ_superior":24,"brecha_educ":-17,"pct_sin_seguro":0,"pct_seguro_privado":0,"brecha_seguro":0,"pct_med_tradicional":20,"pct_automedicacion":17,"pct_remedios_caseros":27,"pct_viv_desocupada":6,"pct_alquiler":0,"pct_electricidad":92,"pct_agua_red":100,"pct_alcantarillado":38,"pct_gas_red":0,"pct_gas_garrafa":85,"pct_lena_guano":85,"pct_basura_formal":100,"pct_basura_quema":0,"pct_basura_informal":0,"pct_internet":85,"pct_celular":92,"pct_televisor":54}},{"type":"Feature","geometry":{"type":"Polygon","coordinates":[[[-65.7631,-18.13521],[-65.76293,-18.13508],[-65.76306,-18.13525],[-65.76279,-18.13545],[-65.76243,-18.13513],[-65.76317,-18.13439],[-65.76358,-18.13476],[-65.7631,-18.13521]]]},"properties":{"n":"TORO TORO","p":17,"personas_x_ha":25,"masculinidad":325,"pct_menor20":18,"pct_60mas":35,"pct_migrante":53,"dependencia_econ":55,"pct_empleados":36,"pct_cuentapropia":55,"pct_agricultura":9,"pct_comercio":0,"pct_manufactura":18,"pct_construccion":0,"pct_transporte":27,"pct_alojamiento":0,"pct_educ_superior":50,"brecha_educ":-5,"pct_sin_seguro":18,"pct_seguro_privado":0,"brecha_seguro":-10,"pct_med_tradicional":5,"pct_automedicacion":13,"pct_remedios_caseros":13,"pct_viv_desocupada":7,"pct_alquiler":33,"pct_electricidad":100,"pct_agua_red":100,"pct_alcantarillado":100,"pct_gas_red":0,"pct_gas_garrafa":100,"pct_lena_guano":100,"pct_basura_formal":100,"pct_basura_quema":0,"pct_basura_informal":0,"pct_internet":56,"pct_celular":89,"pct_televisor":56}},{"type":"Feature","geometry":{"type":"Polygon","coordinates":[[[-65.76385,-18.13345],[-65.76311,-18.13389],[-65.76323,-18.13405],[-65.76362,-18.13394],[-65.76395,-18.13431],[-65.76428,-18.13396],[-65.76385,-18.13345]]]},"properties":{"n":"TORO TORO","p":16,"personas_x_ha":30,"masculinidad":129,"pct_menor20":19,"pct_60mas":31,"pct_migrante":56,"dependencia_econ":129,"pct_empleados":29,"pct_cuentapropia":71,"pct_agricultura":14,"pct_comercio":14,"pct_manufactura":14,"pct_construccion":14,"pct_transporte":0,"pct_alojamiento":14,"pct_educ_superior":69,"brecha_educ":-17,"pct_sin_seguro":6,"pct_seguro_privado":0,"brecha_seguro":-14,"pct_med_tradicional":4,"pct_automedicacion":29,"pct_remedios_caseros":21,"pct_viv_desocupada":0,"pct_alquiler":9,"pct_electricidad":100,"pct_agua_red":100,"pct_alcantarillado":100,"pct_gas_red":0,"pct_gas_garrafa":91,"pct_lena_guano":91,"pct_basura_formal":91,"pct_basura_quema":0,"pct_basura_informal":0,"pct_internet":91,"pct_celular":100,"pct_televisor":73}},{"type":"Feature","geometry":{"type":"Polygon","coordinates":[[[-65.77005,-18.13969],[-65.76951,-18.13952],[-65.76934,-18.13997],[-65.76983,-18.14016],[-65.77014,-18.14064],[-65.77051,-18.1404],[-65.77013,-18.13996],[-65.77005,-18.13969]]]},"properties":{"n":"TORO TORO","p":16,"personas_x_ha":25,"masculinidad":60,"pct_menor20":44,"pct_60mas":19,"pct_migrante":38,"dependencia_econ":78,"pct_empleados":22,"pct_cuentapropia":78,"pct_agricultura":33,"pct_comercio":22,"pct_manufactura":0,"pct_construccion":0,"pct_transporte":11,"pct_alojamiento":11,"pct_educ_superior":33,"brecha_educ":-33,"pct_sin_seguro":6,"pct_seguro_privado":0,"brecha_seguro":17,"pct_med_tradicional":15,"pct_automedicacion":15,"pct_remedios_caseros":28,"pct_viv_desocupada":0,"pct_alquiler":0,"pct_electricidad":100,"pct_agua_red":25,"pct_alcantarillado":0,"pct_gas_red":0,"pct_gas_garrafa":88,"pct_lena_guano":88,"pct_basura_formal":50,"pct_basura_quema":50,"pct_basura_informal":0,"pct_internet":25,"pct_celular":75,"pct_televisor":25}},{"type":"Feature","geometry":{"type":"Polygon","coordinates":[[[-65.76803,-18.13907],[-65.76782,-18.13876],[-65.76743,-18.139],[-65.76783,-18.13957],[-65.76803,-18.13907]]]},"properties":{"n":"TORO TORO","p":16,"personas_x_ha":53,"masculinidad":167,"pct_menor20":50,"pct_60mas":6,"pct_migrante":19,"dependencia_econ":78,"pct_empleados":33,"pct_cuentapropia":44,"pct_agricultura":11,"pct_comercio":11,"pct_manufactura":0,"pct_construccion":33,"pct_transporte":0,"pct_alojamiento":22,"pct_educ_superior":0,"brecha_educ":-27,"pct_sin_seguro":12,"pct_seguro_privado":0,"brecha_seguro":20,"pct_med_tradicional":0,"pct_automedicacion":24,"pct_remedios_caseros":24,"pct_viv_desocupada":45,"pct_alquiler":0,"pct_electricidad":83,"pct_agua_red":83,"pct_alcantarillado":0,"pct_gas_red":0,"pct_gas_garrafa":67,"pct_lena_guano":67,"pct_basura_formal":83,"pct_basura_quema":17,"pct_basura_informal":0,"pct_internet":67,"pct_celular":67,"pct_televisor":33}},{"type":"Feature","geometry":{"type":"Polygon","coordinates":[[[-65.76681,-18.13822],[-65.76635,-18.13756],[-65.76596,-18.13781],[-65.76642,-18.13847],[-65.76681,-18.13822]]]},"properties":{"n":"TORO TORO","p":19,"personas_x_ha":44,"masculinidad":90,"pct_menor20":42,"pct_60mas":16,"pct_migrante":26,"dependencia_econ":138,"pct_empleados":12,"pct_cuentapropia":75,"pct_agricultura":25,"pct_comercio":38,"pct_manufactura":12,"pct_construccion":0,"pct_transporte":0,"pct_alojamiento":12,"pct_educ_superior":18,"brecha_educ":7,"pct_sin_seguro":12,"pct_seguro_privado":6,"brecha_seguro":25,"pct_med_tradicional":8,"pct_automedicacion":32,"pct_remedios_caseros":5,"pct_viv_desocupada":0,"pct_alquiler":0,"pct_electricidad":100,"pct_agua_red":86,"pct_alcantarillado":0,"pct_gas_red":0,"pct_gas_garrafa":100,"pct_lena_guano":100,"pct_basura_formal":100,"pct_basura_quema":0,"pct_basura_informal":0,"pct_internet":57,"pct_celular":100,"pct_televisor":71}},{"type":"Feature","geometry":{"type":"Polygon","coordinates":[[[-65.76803,-18.13755],[-65.76834,-18.13698],[-65.76766,-18.13664],[-65.7673,-18.13677],[-65.76687,-18.13677],[-65.7668,-18.13696],[-65.76774,-18.13732],[-65.76803,-18.13755]]]},"properties":{"n":"TORO TORO","p":29,"personas_x_ha":35,"masculinidad":107,"pct_menor20":48,"pct_60mas":0,"pct_migrante":28,"dependencia_econ":262,"pct_empleados":12,"pct_cuentapropia":88,"pct_agricultura":0,"pct_comercio":38,"pct_manufactura":12,"pct_construccion":50,"pct_transporte":0,"pct_alojamiento":12,"pct_educ_superior":12,"brecha_educ":-33,"pct_sin_seguro":4,"pct_seguro_privado":0,"brecha_seguro":8,"pct_med_tradicional":0,"pct_automedicacion":5,"pct_remedios_caseros":30,"pct_viv_desocupada":0,"pct_alquiler":12,"pct_electricidad":88,"pct_agua_red":88,"pct_alcantarillado":0,"pct_gas_red":0,"pct_gas_garrafa":100,"pct_lena_guano":100,"pct_basura_formal":100,"pct_basura_quema":0,"pct_basura_informal":0,"pct_internet":88,"pct_celular":100,"pct_televisor":62}},{"type":"Feature","geometry":{"type":"Polygon","coordinates":[[[-65.76118,-18.13846],[-65.76112,-18.13842],[-65.7604,-18.13997],[-65.76079,-18.14019],[-65.76086,-18.14009],[-65.76064,-18.13997],[-65.7609,-18.13948],[-65.76102,-18.13952],[-65.76108,-18.13942],[-65.76121,-18.13942],[-65.76118,-18.13846]]]},"properties":{"n":"TORO TORO","p":52,"personas_x_ha":89,"masculinidad":108,"pct_menor20":33,"pct_60mas":17,"pct_migrante":71,"dependencia_econ":88,"pct_empleados":46,"pct_cuentapropia":46,"pct_agricultura":15,"pct_comercio":15,"pct_manufactura":15,"pct_construccion":4,"pct_transporte":0,"pct_alojamiento":8,"pct_educ_superior":48,"brecha_educ":-23,"pct_sin_seguro":2,"pct_seguro_privado":0,"brecha_seguro":-4,"pct_med_tradicional":12,"pct_automedicacion":21,"pct_remedios_caseros":19,"pct_viv_desocupada":0,"pct_alquiler":21,"pct_electricidad":100,"pct_agua_red":100,"pct_alcantarillado":95,"pct_gas_red":0,"pct_gas_garrafa":100,"pct_lena_guano":100,"pct_basura_formal":89,"pct_basura_quema":11,"pct_basura_informal":0,"pct_internet":84,"pct_celular":95,"pct_televisor":58}},{"type":"Feature","geometry":{"type":"Polygon","coordinates":[[[-65.7608,-18.14386],[-65.76001,-18.14289],[-65.75983,-18.14246],[-65.75977,-18.14246],[-65.75957,-18.14274],[-65.76002,-18.14336],[-65.76033,-18.14407],[-65.7608,-18.14386]]]},"properties":{"n":"TORO TORO","p":22,"personas_x_ha":31,"masculinidad":69,"pct_menor20":59,"pct_60mas":5,"pct_migrante":14,"dependencia_econ":144,"pct_empleados":22,"pct_cuentapropia":67,"pct_agricultura":44,"pct_comercio":0,"pct_manufactura":0,"pct_construccion":33,"pct_transporte":11,"pct_alojamiento":11,"pct_educ_superior":20,"brecha_educ":20,"pct_sin_seguro":0,"pct_seguro_privado":0,"brecha_seguro":0,"pct_med_tradicional":19,"pct_automedicacion":16,"pct_remedios_caseros":21,"pct_viv_desocupada":8,"pct_alquiler":8,"pct_electricidad":83,"pct_agua_red":83,"pct_alcantarillado":8,"pct_gas_red":0,"pct_gas_garrafa":83,"pct_lena_guano":83,"pct_basura_formal":8,"pct_basura_quema":92,"pct_basura_informal":0,"pct_internet":92,"pct_celular":100,"pct_televisor":50}},{"type":"Feature","geometry":{"type":"Polygon","coordinates":[[[-65.76726,-18.13793],[-65.76682,-18.13728],[-65.76643,-18.13751],[-65.76689,-18.13817],[-65.76726,-18.13793]]]},"properties":{"n":"TORO TORO","p":27,"personas_x_ha":65,"masculinidad":69,"pct_menor20":52,"pct_60mas":15,"pct_migrante":26,"dependencia_econ":93,"pct_empleados":29,"pct_cuentapropia":36,"pct_agricultura":43,"pct_comercio":14,"pct_manufactura":0,"pct_construccion":21,"pct_transporte":0,"pct_alojamiento":14,"pct_educ_superior":29,"brecha_educ":-4,"pct_sin_seguro":7,"pct_seguro_privado":0,"brecha_seguro":3,"pct_med_tradicional":15,"pct_automedicacion":22,"pct_remedios_caseros":25,"pct_viv_desocupada":0,"pct_alquiler":18,"pct_electricidad":73,"pct_agua_red":82,"pct_alcantarillado":9,"pct_gas_red":0,"pct_gas_garrafa":82,"pct_lena_guano":82,"pct_basura_formal":100,"pct_basura_quema":0,"pct_basura_informal":0,"pct_internet":73,"pct_celular":82,"pct_televisor":36}},{"type":"Feature","geometry":{"type":"Polygon","coordinates":[[[-65.76451,-18.13802],[-65.763,-18.13763],[-65.76284,-18.13789],[-65.76285,-18.13795],[-65.76369,-18.13816],[-65.76372,-18.13826],[-65.76426,-18.13839],[-65.76451,-18.13802]]]},"properties":{"n":"TORO TORO","p":16,"personas_x_ha":23,"masculinidad":100,"pct_menor20":50,"pct_60mas":0,"pct_migrante":25,"dependencia_econ":45,"pct_empleados":27,"pct_cuentapropia":45,"pct_agricultura":9,"pct_comercio":18,"pct_manufactura":0,"pct_construccion":36,"pct_transporte":0,"pct_alojamiento":9,"pct_educ_superior":33,"brecha_educ":-55,"pct_sin_seguro":0,"pct_seguro_privado":0,"brecha_seguro":0,"pct_med_tradicional":13,"pct_automedicacion":28,"pct_remedios_caseros":23,"pct_viv_desocupada":10,"pct_alquiler":0,"pct_electricidad":86,"pct_agua_red":86,"pct_alcantarillado":0,"pct_gas_red":0,"pct_gas_garrafa":86,"pct_lena_guano":86,"pct_basura_formal":86,"pct_basura_quema":14,"pct_basura_informal":0,"pct_internet":100,"pct_celular":100,"pct_televisor":57}}]}