{"type":"FeatureCollection","features":[{"type":"Feature","geometry":{"type":"Polygon","coordinates":[[[-67.90862,-19.76636],[-67.90834,-19.76632],[-67.9083,-19.7669],[-67.90853,-19.76693],[-67.90862,-19.76636]]]},"properties":{"n":"CACOMA","p":17,"personas_x_ha":97,"masculinidad":89,"pct_menor20":41,"pct_60mas":29,"pct_migrante":53,"dependencia_econ":55,"pct_empleados":9,"pct_cuentapropia":73,"pct_agricultura":91,"pct_comercio":0,"pct_manufactura":0,"pct_construccion":0,"pct_transporte":0,"pct_alojamiento":0,"pct_sin_educacion":0,"pct_educ_superior":30,"brecha_educ":20,"pct_sin_seguro":41,"pct_sus":41,"pct_seguro_privado":0,"brecha_seguro":-7,"pct_salud_publica":26,"pct_med_tradicional":26,"pct_automedicacion":0,"pct_remedios_caseros":37,"pct_viv_desocupada":0,"pct_alquiler":0,"pct_electricidad":86,"pct_sin_electricidad":14,"pct_agua_red":0,"pct_alcantarillado":0,"pct_camara_septica":0,"pct_pozo_ciego":0,"pct_sin_desague":100,"pct_gas_red":0,"pct_gas_garrafa":0,"pct_lena_guano":0,"pct_basura_formal":0,"pct_basura_quema":71,"pct_basura_informal":0,"pct_internet":86,"pct_celular":100,"pct_televisor":14}},{"type":"Feature","geometry":{"type":"Polygon","coordinates":[[[-67.7703,-19.84038],[-67.77067,-19.84031],[-67.77052,-19.83978],[-67.77027,-19.83984],[-67.77004,-19.84002],[-67.77005,-19.84028],[-67.7703,-19.84038]]]},"properties":{"n":"CAQUENA","p":17,"personas_x_ha":53,"masculinidad":240,"pct_menor20":18,"pct_60mas":35,"pct_migrante":24,"dependencia_econ":750,"pct_empleados":0,"pct_cuentapropia":50,"pct_agricultura":50,"pct_comercio":0,"pct_manufactura":0,"pct_construccion":0,"pct_transporte":0,"pct_alojamiento":0,"pct_sin_educacion":0,"pct_educ_superior":21,"brecha_educ":-100,"pct_sin_seguro":76,"pct_sus":24,"pct_seguro_privado":0,"brecha_seguro":-5,"pct_salud_publica":20,"pct_med_tradicional":15,"pct_automedicacion":17,"pct_remedios_caseros":31,"pct_viv_desocupada":0,"pct_alquiler":0,"pct_electricidad":91,"pct_sin_electricidad":9,"pct_agua_red":100,"pct_alcantarillado":0,"pct_camara_septica":0,"pct_pozo_ciego":0,"pct_sin_desague":100,"pct_gas_red":0,"pct_gas_garrafa":45,"pct_lena_guano":45,"pct_basura_formal":0,"pct_basura_quema":55,"pct_basura_informal":18,"pct_internet":73,"pct_celular":91,"pct_televisor":64}},{"type":"Feature","geometry":{"type":"Polygon","coordinates":[[[-67.77051,-19.84114],[-67.76994,-19.84088],[-67.76982,-19.84114],[-67.77003,-19.84132],[-67.7708,-19.84145],[-67.77101,-19.84164],[-67.7712,-19.84165],[-67.77119,-19.8412],[-67.77051,-19.84114]]]},"properties":{"n":"CAQUENA","p":21,"personas_x_ha":42,"masculinidad":200,"pct_menor20":19,"pct_60mas":19,"pct_migrante":14,"dependencia_econ":33,"pct_empleados":27,"pct_cuentapropia":60,"pct_agricultura":53,"pct_comercio":7,"pct_manufactura":0,"pct_construccion":20,"pct_transporte":0,"pct_alojamiento":0,"pct_sin_educacion":0,"pct_educ_superior":25,"brecha_educ":-60,"pct_sin_seguro":10,"pct_sus":75,"pct_seguro_privado":0,"brecha_seguro":14,"pct_salud_publica":28,"pct_med_tradicional":11,"pct_automedicacion":18,"pct_remedios_caseros":29,"pct_viv_desocupada":0,"pct_alquiler":0,"pct_electricidad":100,"pct_sin_electricidad":0,"pct_agua_red":55,"pct_alcantarillado":0,"pct_camara_septica":0,"pct_pozo_ciego":27,"pct_sin_desague":73,"pct_gas_red":0,"pct_gas_garrafa":82,"pct_lena_guano":82,"pct_basura_formal":18,"pct_basura_quema":18,"pct_basura_informal":36,"pct_internet":73,"pct_celular":100,"pct_televisor":91}},{"type":"Feature","geometry":{"type":"Polygon","coordinates":[[[-67.69478,-19.89059],[-67.69541,-19.89063],[-67.69549,-19.88987],[-67.69484,-19.88981],[-67.69478,-19.89059]]]},"properties":{"n":"TAHUA","p":20,"personas_x_ha":33,"masculinidad":100,"pct_menor20":40,"pct_60mas":20,"pct_migrante":50,"dependencia_econ":73,"pct_empleados":36,"pct_cuentapropia":55,"pct_agricultura":27,"pct_comercio":27,"pct_manufactura":0,"pct_construccion":9,"pct_transporte":0,"pct_alojamiento":27,"pct_sin_educacion":0,"pct_educ_superior":0,"brecha_educ":-23,"pct_sin_seguro":16,"pct_sus":74,"pct_seguro_privado":0,"brecha_seguro":30,"pct_salud_publica":37,"pct_med_tradicional":2,"pct_automedicacion":22,"pct_remedios_caseros":33,"pct_viv_desocupada":0,"pct_alquiler":0,"pct_electricidad":88,"pct_sin_electricidad":12,"pct_agua_red":88,"pct_alcantarillado":38,"pct_camara_septica":0,"pct_pozo_ciego":12,"pct_sin_desague":50,"pct_gas_red":0,"pct_gas_garrafa":100,"pct_lena_guano":100,"pct_basura_formal":50,"pct_basura_quema":50,"pct_basura_informal":0,"pct_internet":88,"pct_celular":88,"pct_televisor":75}},{"type":"Feature","geometry":{"type":"Polygon","coordinates":[[[-67.69144,-19.89093],[-67.69171,-19.89144],[-67.69265,-19.89113],[-67.69252,-19.89083],[-67.69206,-19.89099],[-67.69193,-19.89071],[-67.69144,-19.89093]]]},"properties":{"n":"TAHUA","p":31,"personas_x_ha":57,"masculinidad":41,"pct_menor20":16,"pct_60mas":26,"pct_migrante":48,"dependencia_econ":82,"pct_empleados":35,"pct_cuentapropia":53,"pct_agricultura":41,"pct_comercio":6,"pct_manufactura":6,"pct_construccion":12,"pct_transporte":0,"pct_alojamiento":0,"pct_sin_educacion":0,"pct_educ_superior":4,"brecha_educ":3,"pct_sin_seguro":45,"pct_sus":55,"pct_seguro_privado":0,"brecha_seguro":-17,"pct_salud_publica":31,"pct_med_tradicional":26,"pct_automedicacion":12,"pct_remedios_caseros":28,"pct_viv_desocupada":0,"pct_alquiler":0,"pct_electricidad":100,"pct_sin_electricidad":0,"pct_agua_red":100,"pct_alcantarillado":89,"pct_camara_septica":11,"pct_pozo_ciego":0,"pct_sin_desague":0,"pct_gas_red":0,"pct_gas_garrafa":100,"pct_lena_guano":100,"pct_basura_formal":100,"pct_basura_quema":0,"pct_basura_informal":0,"pct_internet":100,"pct_celular":100,"pct_televisor":100}},{"type":"Feature","geometry":{"type":"Polygon","coordinates":[[[-67.69384,-19.89157],[-67.69457,-19.89165],[-67.69465,-19.89095],[-67.6939,-19.8909],[-67.69384,-19.89157]]]},"properties":{"n":"TAHUA","p":34,"personas_x_ha":57,"masculinidad":100,"pct_menor20":41,"pct_60mas":15,"pct_migrante":29,"dependencia_econ":108,"pct_empleados":0,"pct_cuentapropia":54,"pct_agricultura":54,"pct_comercio":31,"pct_manufactura":0,"pct_construccion":8,"pct_transporte":8,"pct_alojamiento":0,"pct_sin_educacion":7,"pct_educ_superior":14,"brecha_educ":-4,"pct_sin_seguro":59,"pct_sus":41,"pct_seguro_privado":0,"brecha_seguro":10,"pct_salud_publica":32,"pct_med_tradicional":12,"pct_automedicacion":15,"pct_remedios_caseros":22,"pct_viv_desocupada":0,"pct_alquiler":8,"pct_electricidad":85,"pct_sin_electricidad":15,"pct_agua_red":92,"pct_alcantarillado":54,"pct_camara_septica":8,"pct_pozo_ciego":8,"pct_sin_desague":31,"pct_gas_red":0,"pct_gas_garrafa":77,"pct_lena_guano":77,"pct_basura_formal":69,"pct_basura_quema":23,"pct_basura_informal":15,"pct_internet":46,"pct_celular":92,"pct_televisor":77}},{"type":"Feature","geometry":{"type":"Polygon","coordinates":[[[-67.6966,-19.88808],[-67.6966,-19.88764],[-67.69653,-19.88753],[-67.69619,-19.88756],[-67.69616,-19.88844],[-67.6965,-19.88844],[-67.6966,-19.88808]]]},"properties":{"n":"TAHUA","p":36,"personas_x_ha":84,"masculinidad":89,"pct_menor20":58,"pct_60mas":0,"pct_migrante":19,"dependencia_econ":177,"pct_empleados":8,"pct_cuentapropia":62,"pct_agricultura":46,"pct_comercio":23,"pct_manufactura":0,"pct_construccion":8,"pct_transporte":0,"pct_alojamiento":8,"pct_sin_educacion":7,"pct_educ_superior":13,"brecha_educ":17,"pct_sin_seguro":3,"pct_sus":97,"pct_seguro_privado":0,"brecha_seguro":6,"pct_salud_publica":53,"pct_med_tradicional":5,"pct_automedicacion":0,"pct_remedios_caseros":24,"pct_viv_desocupada":14,"pct_alquiler":0,"pct_electricidad":75,"pct_sin_electricidad":8,"pct_agua_red":75,"pct_alcantarillado":33,"pct_camara_septica":17,"pct_pozo_ciego":42,"pct_sin_desague":8,"pct_gas_red":0,"pct_gas_garrafa":100,"pct_lena_guano":100,"pct_basura_formal":50,"pct_basura_quema":42,"pct_basura_informal":0,"pct_internet":83,"pct_celular":92,"pct_televisor":75}},{"type":"Feature","geometry":{"type":"Polygon","coordinates":[[[-67.69479,-19.88981],[-67.69403,-19.88972],[-67.69393,-19.89051],[-67.6947,-19.89058],[-67.69479,-19.88981]]]},"properties":{"n":"TAHUA","p":43,"personas_x_ha":61,"masculinidad":95,"pct_menor20":28,"pct_60mas":21,"pct_migrante":12,"dependencia_econ":95,"pct_empleados":14,"pct_cuentapropia":73,"pct_agricultura":18,"pct_comercio":45,"pct_manufactura":0,"pct_construccion":9,"pct_transporte":0,"pct_alojamiento":0,"pct_sin_educacion":0,"pct_educ_superior":23,"brecha_educ":-5,"pct_sin_seguro":12,"pct_sus":77,"pct_seguro_privado":0,"brecha_seguro":5,"pct_salud_publica":29,"pct_med_tradicional":16,"pct_automedicacion":10,"pct_remedios_caseros":24,"pct_viv_desocupada":0,"pct_alquiler":13,"pct_electricidad":93,"pct_sin_electricidad":7,"pct_agua_red":100,"pct_alcantarillado":87,"pct_camara_septica":0,"pct_pozo_ciego":0,"pct_sin_desague":13,"pct_gas_red":0,"pct_gas_garrafa":93,"pct_lena_guano":93,"pct_basura_formal":100,"pct_basura_quema":0,"pct_basura_informal":0,"pct_internet":93,"pct_celular":100,"pct_televisor":100}},{"type":"Feature","geometry":{"type":"Polygon","coordinates":[[[-67.6955,-19.88982],[-67.69554,-19.88902],[-67.69495,-19.88896],[-67.69485,-19.88976],[-67.6955,-19.88982]]]},"properties":{"n":"TAHUA","p":24,"personas_x_ha":41,"masculinidad":200,"pct_menor20":21,"pct_60mas":8,"pct_migrante":12,"dependencia_econ":26,"pct_empleados":11,"pct_cuentapropia":79,"pct_agricultura":79,"pct_comercio":0,"pct_manufactura":0,"pct_construccion":0,"pct_transporte":5,"pct_alojamiento":0,"pct_sin_educacion":0,"pct_educ_superior":32,"brecha_educ":-25,"pct_sin_seguro":26,"pct_sus":52,"pct_seguro_privado":0,"brecha_seguro":-18,"pct_salud_publica":43,"pct_med_tradicional":4,"pct_automedicacion":4,"pct_remedios_caseros":43,"pct_viv_desocupada":0,"pct_alquiler":0,"pct_electricidad":100,"pct_sin_electricidad":0,"pct_agua_red":100,"pct_alcantarillado":50,"pct_camara_septica":0,"pct_pozo_ciego":17,"pct_sin_desague":33,"pct_gas_red":0,"pct_gas_garrafa":100,"pct_lena_guano":100,"pct_basura_formal":58,"pct_basura_quema":42,"pct_basura_informal":0,"pct_internet":67,"pct_celular":67,"pct_televisor":67}},{"type":"Feature","geometry":{"type":"Polygon","coordinates":[[[-68.02827,-20.63362],[-68.02839,-20.634],[-68.02861,-20.63392],[-68.02852,-20.63354],[-68.02827,-20.63362]]]},"properties":{"n":"YONZA","p":22,"personas_x_ha":192,"masculinidad":69,"pct_menor20":41,"pct_60mas":5,"pct_migrante":36,"dependencia_econ":69,"pct_empleados":31,"pct_cuentapropia":62,"pct_agricultura":77,"pct_comercio":0,"pct_manufactura":0,"pct_construccion":0,"pct_transporte":0,"pct_alojamiento":8,"pct_sin_educacion":0,"pct_educ_superior":31,"brecha_educ":0,"pct_sin_seguro":0,"pct_sus":82,"pct_seguro_privado":0,"brecha_seguro":0,"pct_salud_publica":20,"pct_med_tradicional":21,"pct_automedicacion":16,"pct_remedios_caseros":22,"pct_viv_desocupada":0,"pct_alquiler":0,"pct_electricidad":100,"pct_sin_electricidad":0,"pct_agua_red":100,"pct_alcantarillado":0,"pct_camara_septica":0,"pct_pozo_ciego":0,"pct_sin_desague":100,"pct_gas_red":0,"pct_gas_garrafa":86,"pct_lena_guano":86,"pct_basura_formal":14,"pct_basura_quema":43,"pct_basura_informal":0,"pct_internet":86,"pct_celular":86,"pct_televisor":71}},{"type":"Feature","geometry":{"type":"Polygon","coordinates":[[[-68.02732,-20.63412],[-68.02748,-20.6344],[-68.02777,-20.63426],[-68.02761,-20.63398],[-68.02732,-20.63412]]]},"properties":{"n":"YONZA","p":15,"personas_x_ha":124,"masculinidad":88,"pct_menor20":27,"pct_60mas":20,"pct_migrante":33,"dependencia_econ":75,"pct_empleados":50,"pct_cuentapropia":38,"pct_agricultura":50,"pct_comercio":0,"pct_manufactura":0,"pct_construccion":0,"pct_transporte":0,"pct_alojamiento":0,"pct_sin_educacion":9,"pct_educ_superior":45,"brecha_educ":-18,"pct_sin_seguro":7,"pct_sus":71,"pct_seguro_privado":0,"brecha_seguro":14,"pct_salud_publica":19,"pct_med_tradicional":10,"pct_automedicacion":19,"pct_remedios_caseros":21,"pct_viv_desocupada":0,"pct_alquiler":0,"pct_electricidad":100,"pct_sin_electricidad":0,"pct_agua_red":100,"pct_alcantarillado":0,"pct_camara_septica":0,"pct_pozo_ciego":8,"pct_sin_desague":92,"pct_gas_red":0,"pct_gas_garrafa":100,"pct_lena_guano":100,"pct_basura_formal":0,"pct_basura_quema":58,"pct_basura_informal":67,"pct_internet":83,"pct_celular":83,"pct_televisor":75}},{"type":"Feature","geometry":{"type":"Polygon","coordinates":[[[-68.02785,-20.63431],[-68.02802,-20.63462],[-68.02822,-20.63451],[-68.02811,-20.63417],[-68.02785,-20.63431]]]},"properties":{"n":"YONZA","p":19,"personas_x_ha":167,"masculinidad":138,"pct_menor20":32,"pct_60mas":16,"pct_migrante":63,"dependencia_econ":375,"pct_empleados":0,"pct_cuentapropia":100,"pct_agricultura":100,"pct_comercio":0,"pct_manufactura":0,"pct_construccion":0,"pct_transporte":0,"pct_alojamiento":0,"pct_sin_educacion":0,"pct_educ_superior":8,"brecha_educ":-50,"pct_sin_seguro":42,"pct_sus":58,"pct_seguro_privado":0,"brecha_seguro":30,"pct_salud_publica":41,"pct_med_tradicional":9,"pct_automedicacion":3,"pct_remedios_caseros":22,"pct_viv_desocupada":0,"pct_alquiler":0,"pct_electricidad":89,"pct_sin_electricidad":11,"pct_agua_red":100,"pct_alcantarillado":0,"pct_camara_septica":0,"pct_pozo_ciego":0,"pct_sin_desague":100,"pct_gas_red":0,"pct_gas_garrafa":100,"pct_lena_guano":100,"pct_basura_formal":11,"pct_basura_quema":11,"pct_basura_informal":0,"pct_internet":89,"pct_celular":100,"pct_televisor":67}}]}