{"type":"FeatureCollection","features":[{"type":"Feature","geometry":{"type":"Polygon","coordinates":[[[-68.03971,-20.9455],[-68.03982,-20.94517],[-68.03979,-20.94499],[-68.03895,-20.94517],[-68.03907,-20.94566],[-68.03971,-20.9455]]]},"properties":{"n":"PELCOYA","p":34,"personas_x_ha":73,"masculinidad":100,"pct_menor20":24,"pct_60mas":24,"pct_migrante":21,"dependencia_econ":89,"pct_empleados":22,"pct_cuentapropia":67,"pct_agricultura":50,"pct_comercio":11,"pct_manufactura":17,"pct_construccion":6,"pct_transporte":0,"pct_alojamiento":0,"pct_sin_educacion":0,"pct_educ_superior":46,"brecha_educ":-6,"pct_sin_seguro":24,"pct_sus":64,"pct_seguro_privado":0,"brecha_seguro":-11,"pct_salud_publica":26,"pct_med_tradicional":16,"pct_automedicacion":11,"pct_remedios_caseros":30,"pct_viv_desocupada":0,"pct_alquiler":0,"pct_electricidad":100,"pct_sin_electricidad":0,"pct_agua_red":100,"pct_alcantarillado":70,"pct_camara_septica":0,"pct_pozo_ciego":20,"pct_sin_desague":10,"pct_gas_red":0,"pct_gas_garrafa":100,"pct_lena_guano":0,"pct_basura_formal":10,"pct_basura_quema":70,"pct_basura_informal":0,"pct_internet":90,"pct_celular":80,"pct_televisor":70}},{"type":"Feature","geometry":{"type":"Polygon","coordinates":[[[-68.0377,-20.9454],[-68.03839,-20.94524],[-68.03831,-20.94476],[-68.03758,-20.94494],[-68.0377,-20.9454]]]},"properties":{"n":"PELCOYA","p":17,"personas_x_ha":41,"masculinidad":89,"pct_menor20":18,"pct_60mas":29,"pct_migrante":12,"dependencia_econ":89,"pct_empleados":44,"pct_cuentapropia":11,"pct_agricultura":44,"pct_comercio":0,"pct_manufactura":11,"pct_construccion":0,"pct_transporte":0,"pct_alojamiento":11,"pct_sin_educacion":0,"pct_educ_superior":7,"brecha_educ":-8,"pct_sin_seguro":24,"pct_sus":71,"pct_seguro_privado":0,"brecha_seguro":3,"pct_salud_publica":35,"pct_med_tradicional":0,"pct_automedicacion":14,"pct_remedios_caseros":33,"pct_viv_desocupada":12,"pct_alquiler":0,"pct_electricidad":80,"pct_sin_electricidad":20,"pct_agua_red":60,"pct_alcantarillado":20,"pct_camara_septica":0,"pct_pozo_ciego":20,"pct_sin_desague":40,"pct_gas_red":0,"pct_gas_garrafa":80,"pct_lena_guano":0,"pct_basura_formal":40,"pct_basura_quema":60,"pct_basura_informal":0,"pct_internet":100,"pct_celular":100,"pct_televisor":60}},{"type":"Feature","geometry":{"type":"Polygon","coordinates":[[[-68.03892,-20.94518],[-68.03741,-20.94551],[-68.0375,-20.94589],[-68.03902,-20.94561],[-68.03892,-20.94518]]]},"properties":{"n":"PELCOYA","p":24,"personas_x_ha":32,"masculinidad":100,"pct_menor20":38,"pct_60mas":8,"pct_migrante":46,"dependencia_econ":100,"pct_empleados":50,"pct_cuentapropia":33,"pct_agricultura":0,"pct_comercio":17,"pct_manufactura":0,"pct_construccion":25,"pct_transporte":17,"pct_alojamiento":8,"pct_sin_educacion":0,"pct_educ_superior":40,"brecha_educ":0,"pct_sin_seguro":50,"pct_sus":17,"pct_seguro_privado":0,"brecha_seguro":17,"pct_salud_publica":31,"pct_med_tradicional":4,"pct_automedicacion":12,"pct_remedios_caseros":27,"pct_viv_desocupada":0,"pct_alquiler":17,"pct_electricidad":83,"pct_sin_electricidad":17,"pct_agua_red":83,"pct_alcantarillado":67,"pct_camara_septica":0,"pct_pozo_ciego":33,"pct_sin_desague":0,"pct_gas_red":0,"pct_gas_garrafa":83,"pct_lena_guano":17,"pct_basura_formal":50,"pct_basura_quema":33,"pct_basura_informal":0,"pct_internet":100,"pct_celular":100,"pct_televisor":67}},{"type":"Feature","geometry":{"type":"Polygon","coordinates":[[[-68.04881,-20.7475],[-68.0487,-20.74715],[-68.04848,-20.74719],[-68.04858,-20.74757],[-68.04881,-20.7475]]]},"properties":{"n":"SAN PEDRO DE QUEMES","p":20,"personas_x_ha":188,"masculinidad":122,"pct_menor20":50,"pct_60mas":5,"pct_migrante":10,"dependencia_econ":122,"pct_empleados":0,"pct_cuentapropia":33,"pct_agricultura":67,"pct_comercio":11,"pct_manufactura":0,"pct_construccion":0,"pct_transporte":0,"pct_alojamiento":0,"pct_sin_educacion":0,"pct_educ_superior":40,"brecha_educ":-25,"pct_sin_seguro":80,"pct_sus":20,"pct_seguro_privado":0,"brecha_seguro":-16,"pct_salud_publica":47,"pct_med_tradicional":8,"pct_automedicacion":13,"pct_remedios_caseros":21,"pct_viv_desocupada":0,"pct_alquiler":0,"pct_electricidad":100,"pct_sin_electricidad":0,"pct_agua_red":100,"pct_alcantarillado":100,"pct_camara_septica":0,"pct_pozo_ciego":0,"pct_sin_desague":0,"pct_gas_red":0,"pct_gas_garrafa":100,"pct_lena_guano":0,"pct_basura_formal":0,"pct_basura_quema":86,"pct_basura_informal":0,"pct_internet":86,"pct_celular":86,"pct_televisor":86}},{"type":"Feature","geometry":{"type":"Polygon","coordinates":[[[-68.04974,-20.7468],[-68.0496,-20.74637],[-68.04917,-20.74648],[-68.04928,-20.74692],[-68.04974,-20.7468]]]},"properties":{"n":"SAN PEDRO DE QUEMES","p":18,"personas_x_ha":72,"masculinidad":38,"pct_menor20":44,"pct_60mas":22,"pct_migrante":28,"dependencia_econ":500,"pct_empleados":67,"pct_cuentapropia":33,"pct_agricultura":33,"pct_comercio":0,"pct_manufactura":0,"pct_construccion":0,"pct_transporte":0,"pct_alojamiento":0,"pct_sin_educacion":0,"pct_educ_superior":36,"brecha_educ":-22,"pct_sin_seguro":11,"pct_sus":89,"pct_seguro_privado":0,"brecha_seguro":12,"pct_salud_publica":38,"pct_med_tradicional":17,"pct_automedicacion":6,"pct_remedios_caseros":26,"pct_viv_desocupada":0,"pct_alquiler":0,"pct_electricidad":100,"pct_sin_electricidad":0,"pct_agua_red":100,"pct_alcantarillado":50,"pct_camara_septica":0,"pct_pozo_ciego":12,"pct_sin_desague":38,"pct_gas_red":0,"pct_gas_garrafa":100,"pct_lena_guano":0,"pct_basura_formal":75,"pct_basura_quema":12,"pct_basura_informal":12,"pct_internet":50,"pct_celular":75,"pct_televisor":88}},{"type":"Feature","geometry":{"type":"Polygon","coordinates":[[[-68.0505,-20.74761],[-68.05035,-20.74713],[-68.04996,-20.74724],[-68.05012,-20.74772],[-68.0505,-20.74761]]]},"properties":{"n":"SAN PEDRO DE QUEMES","p":42,"personas_x_ha":174,"masculinidad":223,"pct_menor20":14,"pct_60mas":19,"pct_migrante":19,"dependencia_econ":58,"pct_empleados":62,"pct_cuentapropia":35,"pct_agricultura":12,"pct_comercio":19,"pct_manufactura":4,"pct_construccion":12,"pct_transporte":27,"pct_alojamiento":4,"pct_sin_educacion":6,"pct_educ_superior":53,"brecha_educ":-1,"pct_sin_seguro":59,"pct_sus":32,"pct_seguro_privado":2,"brecha_seguro":-4,"pct_salud_publica":29,"pct_med_tradicional":9,"pct_automedicacion":27,"pct_remedios_caseros":33,"pct_viv_desocupada":0,"pct_alquiler":18,"pct_electricidad":100,"pct_sin_electricidad":0,"pct_agua_red":91,"pct_alcantarillado":91,"pct_camara_septica":0,"pct_pozo_ciego":0,"pct_sin_desague":9,"pct_gas_red":0,"pct_gas_garrafa":91,"pct_lena_guano":9,"pct_basura_formal":9,"pct_basura_quema":9,"pct_basura_informal":0,"pct_internet":91,"pct_celular":91,"pct_televisor":64}},{"type":"Feature","geometry":{"type":"Polygon","coordinates":[[[-68.04942,-20.74734],[-68.04987,-20.74722],[-68.04976,-20.74685],[-68.0493,-20.74698],[-68.04942,-20.74734]]]},"properties":{"n":"SAN PEDRO DE QUEMES","p":16,"personas_x_ha":73,"masculinidad":220,"pct_menor20":6,"pct_60mas":44,"pct_migrante":44,"dependencia_econ":25,"pct_empleados":17,"pct_cuentapropia":67,"pct_agricultura":33,"pct_comercio":0,"pct_manufactura":0,"pct_construccion":0,"pct_transporte":33,"pct_alojamiento":0,"pct_sin_educacion":7,"pct_educ_superior":21,"brecha_educ":-40,"pct_sin_seguro":13,"pct_sus":87,"pct_seguro_privado":0,"brecha_seguro":-10,"pct_salud_publica":18,"pct_med_tradicional":15,"pct_automedicacion":15,"pct_remedios_caseros":16,"pct_viv_desocupada":0,"pct_alquiler":0,"pct_electricidad":100,"pct_sin_electricidad":0,"pct_agua_red":100,"pct_alcantarillado":88,"pct_camara_septica":0,"pct_pozo_ciego":0,"pct_sin_desague":12,"pct_gas_red":0,"pct_gas_garrafa":88,"pct_lena_guano":0,"pct_basura_formal":38,"pct_basura_quema":38,"pct_basura_informal":0,"pct_internet":88,"pct_celular":88,"pct_televisor":75}},{"type":"Feature","geometry":{"type":"Polygon","coordinates":[[[-68.04934,-20.74735],[-68.04923,-20.747],[-68.04877,-20.74714],[-68.04888,-20.74748],[-68.04934,-20.74735]]]},"properties":{"n":"SAN PEDRO DE QUEMES","p":22,"personas_x_ha":105,"masculinidad":29,"pct_menor20":23,"pct_60mas":18,"pct_migrante":0,"dependencia_econ":144,"pct_empleados":11,"pct_cuentapropia":44,"pct_agricultura":33,"pct_comercio":56,"pct_manufactura":0,"pct_construccion":0,"pct_transporte":0,"pct_alojamiento":0,"pct_sin_educacion":6,"pct_educ_superior":28,"brecha_educ":-36,"pct_sin_seguro":0,"pct_sus":90,"pct_seguro_privado":0,"brecha_seguro":0,"pct_salud_publica":39,"pct_med_tradicional":2,"pct_automedicacion":4,"pct_remedios_caseros":39,"pct_viv_desocupada":0,"pct_alquiler":0,"pct_electricidad":100,"pct_sin_electricidad":0,"pct_agua_red":89,"pct_alcantarillado":100,"pct_camara_septica":0,"pct_pozo_ciego":0,"pct_sin_desague":0,"pct_gas_red":0,"pct_gas_garrafa":89,"pct_lena_guano":11,"pct_basura_formal":11,"pct_basura_quema":22,"pct_basura_informal":0,"pct_internet":67,"pct_celular":100,"pct_televisor":89}},{"type":"Feature","geometry":{"type":"Polygon","coordinates":[[[-68.04959,-20.74631],[-68.04943,-20.74586],[-68.04897,-20.74597],[-68.04913,-20.74644],[-68.04959,-20.74631]]]},"properties":{"n":"SAN PEDRO DE QUEMES","p":24,"personas_x_ha":88,"masculinidad":100,"pct_menor20":54,"pct_60mas":4,"pct_migrante":42,"dependencia_econ":130,"pct_empleados":30,"pct_cuentapropia":10,"pct_agricultura":30,"pct_comercio":30,"pct_manufactura":0,"pct_construccion":10,"pct_transporte":0,"pct_alojamiento":0,"pct_sin_educacion":8,"pct_educ_superior":33,"brecha_educ":-33,"pct_sin_seguro":9,"pct_sus":86,"pct_seguro_privado":0,"brecha_seguro":2,"pct_salud_publica":23,"pct_med_tradicional":13,"pct_automedicacion":17,"pct_remedios_caseros":25,"pct_viv_desocupada":0,"pct_alquiler":25,"pct_electricidad":100,"pct_sin_electricidad":0,"pct_agua_red":100,"pct_alcantarillado":75,"pct_camara_septica":0,"pct_pozo_ciego":0,"pct_sin_desague":25,"pct_gas_red":0,"pct_gas_garrafa":100,"pct_lena_guano":0,"pct_basura_formal":0,"pct_basura_quema":100,"pct_basura_informal":0,"pct_internet":88,"pct_celular":75,"pct_televisor":100}}]}