{"type":"FeatureCollection","features":[{"type":"Feature","geometry":{"type":"Polygon","coordinates":[[[-66.14972,-18.8685],[-66.14976,-18.86864],[-66.14969,-18.86851],[-66.14942,-18.8686],[-66.14951,-18.86883],[-66.14998,-18.86867],[-66.14989,-18.86844],[-66.14972,-18.8685]]]},"properties":{"n":"AYOMA","p":32,"personas_x_ha":227,"masculinidad":100,"pct_menor20":41,"pct_60mas":16,"pct_migrante":22,"dependencia_econ":146,"pct_empleados":8,"pct_cuentapropia":46,"pct_agricultura":77,"pct_comercio":8,"pct_manufactura":0,"pct_construccion":8,"pct_transporte":0,"pct_alojamiento":0,"pct_sin_educacion":21,"pct_educ_superior":16,"brecha_educ":-47,"pct_sin_seguro":0,"pct_sus":88,"pct_seguro_privado":0,"brecha_seguro":0,"pct_salud_publica":78,"pct_med_tradicional":3,"pct_automedicacion":0,"pct_remedios_caseros":3,"pct_viv_desocupada":0,"pct_alquiler":0,"pct_electricidad":100,"pct_sin_electricidad":0,"pct_agua_red":88,"pct_alcantarillado":0,"pct_camara_septica":0,"pct_pozo_ciego":62,"pct_sin_desague":38,"pct_gas_red":0,"pct_gas_garrafa":62,"pct_lena_guano":62,"pct_basura_formal":0,"pct_basura_quema":38,"pct_basura_informal":0,"pct_internet":38,"pct_celular":50,"pct_televisor":62}},{"type":"Feature","geometry":{"type":"Polygon","coordinates":[[[-66.15006,-18.86957],[-66.1502,-18.86973],[-66.15005,-18.86958],[-66.14989,-18.86971],[-66.14976,-18.87032],[-66.15008,-18.87045],[-66.15051,-18.87008],[-66.15061,-18.8698],[-66.15047,-18.86963],[-66.15043,-18.86939],[-66.15006,-18.86957]]]},"properties":{"n":"AYOMA","p":27,"personas_x_ha":43,"masculinidad":125,"pct_menor20":48,"pct_60mas":19,"pct_migrante":52,"dependencia_econ":86,"pct_empleados":36,"pct_cuentapropia":50,"pct_agricultura":29,"pct_comercio":14,"pct_manufactura":0,"pct_construccion":21,"pct_transporte":7,"pct_alojamiento":0,"pct_sin_educacion":8,"pct_educ_superior":31,"brecha_educ":-36,"pct_sin_seguro":8,"pct_sus":64,"pct_seguro_privado":0,"brecha_seguro":-2,"pct_salud_publica":24,"pct_med_tradicional":15,"pct_automedicacion":16,"pct_remedios_caseros":23,"pct_viv_desocupada":9,"pct_alquiler":0,"pct_electricidad":100,"pct_sin_electricidad":0,"pct_agua_red":100,"pct_alcantarillado":0,"pct_camara_septica":0,"pct_pozo_ciego":80,"pct_sin_desague":20,"pct_gas_red":0,"pct_gas_garrafa":80,"pct_lena_guano":80,"pct_basura_formal":0,"pct_basura_quema":90,"pct_basura_informal":0,"pct_internet":90,"pct_celular":90,"pct_televisor":60}},{"type":"Feature","geometry":{"type":"Polygon","coordinates":[[[-66.14949,-18.8689],[-66.14926,-18.86901],[-66.14935,-18.86915],[-66.14927,-18.86905],[-66.14911,-18.86918],[-66.14927,-18.8694],[-66.14966,-18.86918],[-66.14949,-18.8689]]]},"properties":{"n":"AYOMA","p":23,"personas_x_ha":137,"masculinidad":188,"pct_menor20":17,"pct_60mas":39,"pct_migrante":17,"dependencia_econ":28,"pct_empleados":28,"pct_cuentapropia":50,"pct_agricultura":67,"pct_comercio":0,"pct_manufactura":0,"pct_construccion":11,"pct_transporte":0,"pct_alojamiento":0,"pct_sin_educacion":21,"pct_educ_superior":21,"brecha_educ":-52,"pct_sin_seguro":23,"pct_sus":50,"pct_seguro_privado":0,"brecha_seguro":16,"pct_salud_publica":20,"pct_med_tradicional":17,"pct_automedicacion":8,"pct_remedios_caseros":24,"pct_viv_desocupada":0,"pct_alquiler":0,"pct_electricidad":100,"pct_sin_electricidad":0,"pct_agua_red":80,"pct_alcantarillado":0,"pct_camara_septica":0,"pct_pozo_ciego":50,"pct_sin_desague":40,"pct_gas_red":0,"pct_gas_garrafa":80,"pct_lena_guano":80,"pct_basura_formal":0,"pct_basura_quema":50,"pct_basura_informal":60,"pct_internet":50,"pct_celular":90,"pct_televisor":70}},{"type":"Feature","geometry":{"type":"Polygon","coordinates":[[[-66.14938,-18.86864],[-66.14894,-18.86879],[-66.14861,-18.86881],[-66.14861,-18.86903],[-66.14907,-18.86919],[-66.14921,-18.86907],[-66.14919,-18.86898],[-66.14947,-18.86885],[-66.14938,-18.86864]]]},"properties":{"n":"AYOMA","p":21,"personas_x_ha":69,"masculinidad":62,"pct_menor20":43,"pct_60mas":14,"pct_migrante":67,"dependencia_econ":67,"pct_empleados":25,"pct_cuentapropia":50,"pct_agricultura":50,"pct_comercio":0,"pct_manufactura":0,"pct_construccion":0,"pct_transporte":0,"pct_alojamiento":0,"pct_sin_educacion":18,"pct_educ_superior":45,"brecha_educ":-17,"pct_sin_seguro":0,"pct_sus":63,"pct_seguro_privado":0,"brecha_seguro":0,"pct_salud_publica":22,"pct_med_tradicional":14,"pct_automedicacion":15,"pct_remedios_caseros":19,"pct_viv_desocupada":0,"pct_alquiler":11,"pct_electricidad":89,"pct_sin_electricidad":0,"pct_agua_red":67,"pct_alcantarillado":0,"pct_camara_septica":0,"pct_pozo_ciego":89,"pct_sin_desague":11,"pct_gas_red":0,"pct_gas_garrafa":67,"pct_lena_guano":67,"pct_basura_formal":0,"pct_basura_quema":100,"pct_basura_informal":0,"pct_internet":67,"pct_celular":67,"pct_televisor":56}},{"type":"Feature","geometry":{"type":"Polygon","coordinates":[[[-66.14999,-18.86957],[-66.15041,-18.86936],[-66.15018,-18.86904],[-66.14993,-18.86913],[-66.15,-18.86927],[-66.14983,-18.86937],[-66.14999,-18.86957]]]},"properties":{"n":"AYOMA","p":17,"personas_x_ha":92,"masculinidad":112,"pct_menor20":18,"pct_60mas":41,"pct_migrante":35,"dependencia_econ":70,"pct_empleados":20,"pct_cuentapropia":50,"pct_agricultura":70,"pct_comercio":10,"pct_manufactura":0,"pct_construccion":0,"pct_transporte":10,"pct_alojamiento":0,"pct_sin_educacion":0,"pct_educ_superior":0,"brecha_educ":-14,"pct_sin_seguro":31,"pct_sus":69,"pct_seguro_privado":0,"brecha_seguro":-38,"pct_salud_publica":25,"pct_med_tradicional":8,"pct_automedicacion":15,"pct_remedios_caseros":29,"pct_viv_desocupada":0,"pct_alquiler":0,"pct_electricidad":89,"pct_sin_electricidad":11,"pct_agua_red":56,"pct_alcantarillado":0,"pct_camara_septica":0,"pct_pozo_ciego":67,"pct_sin_desague":22,"pct_gas_red":0,"pct_gas_garrafa":67,"pct_lena_guano":67,"pct_basura_formal":11,"pct_basura_quema":56,"pct_basura_informal":0,"pct_internet":56,"pct_celular":78,"pct_televisor":33}},{"type":"Feature","geometry":{"type":"Polygon","coordinates":[[[-66.14889,-18.86971],[-66.14837,-18.86976],[-66.1484,-18.86997],[-66.14814,-18.87054],[-66.1482,-18.87089],[-66.14844,-18.87088],[-66.14846,-18.87073],[-66.14961,-18.86985],[-66.14951,-18.86973],[-66.14945,-18.86976],[-66.14928,-18.8695],[-66.14889,-18.86971]]]},"properties":{"n":"AYOMA","p":27,"personas_x_ha":25,"masculinidad":93,"pct_menor20":37,"pct_60mas":19,"pct_migrante":30,"dependencia_econ":93,"pct_empleados":7,"pct_cuentapropia":86,"pct_agricultura":50,"pct_comercio":21,"pct_manufactura":7,"pct_construccion":14,"pct_transporte":0,"pct_alojamiento":0,"pct_sin_educacion":18,"pct_educ_superior":35,"brecha_educ":-21,"pct_sin_seguro":4,"pct_sus":96,"pct_seguro_privado":0,"brecha_seguro":-7,"pct_salud_publica":25,"pct_med_tradicional":20,"pct_automedicacion":14,"pct_remedios_caseros":22,"pct_viv_desocupada":0,"pct_alquiler":0,"pct_electricidad":80,"pct_sin_electricidad":0,"pct_agua_red":90,"pct_alcantarillado":0,"pct_camara_septica":20,"pct_pozo_ciego":60,"pct_sin_desague":20,"pct_gas_red":0,"pct_gas_garrafa":80,"pct_lena_guano":80,"pct_basura_formal":0,"pct_basura_quema":70,"pct_basura_informal":0,"pct_internet":70,"pct_celular":90,"pct_televisor":70}},{"type":"Feature","geometry":{"type":"Polygon","coordinates":[[[-66.2049,-18.90303],[-66.20516,-18.90281],[-66.20514,-18.90205],[-66.20484,-18.90205],[-66.20485,-18.90256],[-66.20463,-18.90277],[-66.2049,-18.90303]]]},"properties":{"n":"BOMBORI","p":26,"personas_x_ha":69,"masculinidad":136,"pct_menor20":46,"pct_60mas":4,"pct_migrante":23,"dependencia_econ":86,"pct_empleados":7,"pct_cuentapropia":71,"pct_agricultura":50,"pct_comercio":29,"pct_manufactura":0,"pct_construccion":7,"pct_transporte":0,"pct_alojamiento":14,"pct_sin_educacion":36,"pct_educ_superior":0,"brecha_educ":-60,"pct_sin_seguro":4,"pct_sus":96,"pct_seguro_privado":0,"brecha_seguro":7,"pct_salud_publica":36,"pct_med_tradicional":16,"pct_automedicacion":1,"pct_remedios_caseros":32,"pct_viv_desocupada":0,"pct_alquiler":0,"pct_electricidad":89,"pct_sin_electricidad":11,"pct_agua_red":11,"pct_alcantarillado":67,"pct_camara_septica":0,"pct_pozo_ciego":0,"pct_sin_desague":33,"pct_gas_red":0,"pct_gas_garrafa":67,"pct_lena_guano":67,"pct_basura_formal":11,"pct_basura_quema":78,"pct_basura_informal":0,"pct_internet":33,"pct_celular":56,"pct_televisor":56}},{"type":"Feature","geometry":{"type":"Polygon","coordinates":[[[-66.20498,-18.90585],[-66.20517,-18.90591],[-66.20544,-18.90572],[-66.20509,-18.90525],[-66.20469,-18.90575],[-66.2048,-18.90586],[-66.20465,-18.90576],[-66.20442,-18.90611],[-66.20455,-18.9062],[-66.20477,-18.90597],[-66.20494,-18.90603],[-66.20498,-18.90585]]]},"properties":{"n":"BOMBORI","p":17,"personas_x_ha":40,"masculinidad":143,"pct_menor20":65,"pct_60mas":18,"pct_migrante":12,"dependencia_econ":325,"pct_empleados":0,"pct_cuentapropia":100,"pct_agricultura":0,"pct_comercio":50,"pct_manufactura":0,"pct_construccion":25,"pct_transporte":0,"pct_alojamiento":0,"pct_sin_educacion":33,"pct_educ_superior":0,"brecha_educ":-33,"pct_sin_seguro":12,"pct_sus":81,"pct_seguro_privado":0,"brecha_seguro":-7,"pct_salud_publica":26,"pct_med_tradicional":13,"pct_automedicacion":13,"pct_remedios_caseros":21,"pct_viv_desocupada":0,"pct_alquiler":0,"pct_electricidad":100,"pct_sin_electricidad":0,"pct_agua_red":67,"pct_alcantarillado":78,"pct_camara_septica":0,"pct_pozo_ciego":0,"pct_sin_desague":22,"pct_gas_red":0,"pct_gas_garrafa":89,"pct_lena_guano":89,"pct_basura_formal":11,"pct_basura_quema":67,"pct_basura_informal":0,"pct_internet":33,"pct_celular":89,"pct_televisor":56}},{"type":"Feature","geometry":{"type":"Polygon","coordinates":[[[-66.20528,-18.90546],[-66.20579,-18.90603],[-66.20636,-18.90581],[-66.20642,-18.90572],[-66.20625,-18.90548],[-66.20602,-18.90553],[-66.20566,-18.90519],[-66.20528,-18.90546]]]},"properties":{"n":"BOMBORI","p":36,"personas_x_ha":63,"masculinidad":100,"pct_menor20":31,"pct_60mas":19,"pct_migrante":6,"dependencia_econ":100,"pct_empleados":0,"pct_cuentapropia":61,"pct_agricultura":72,"pct_comercio":11,"pct_manufactura":0,"pct_construccion":0,"pct_transporte":0,"pct_alojamiento":6,"pct_sin_educacion":36,"pct_educ_superior":0,"brecha_educ":2,"pct_sin_seguro":3,"pct_sus":97,"pct_seguro_privado":0,"brecha_seguro":6,"pct_salud_publica":32,"pct_med_tradicional":15,"pct_automedicacion":5,"pct_remedios_caseros":23,"pct_viv_desocupada":0,"pct_alquiler":6,"pct_electricidad":94,"pct_sin_electricidad":6,"pct_agua_red":59,"pct_alcantarillado":53,"pct_camara_septica":0,"pct_pozo_ciego":0,"pct_sin_desague":41,"pct_gas_red":0,"pct_gas_garrafa":94,"pct_lena_guano":94,"pct_basura_formal":29,"pct_basura_quema":65,"pct_basura_informal":0,"pct_internet":65,"pct_celular":82,"pct_televisor":71}},{"type":"Feature","geometry":{"type":"Polygon","coordinates":[[[-66.20628,-18.90488],[-66.20626,-18.90475],[-66.20643,-18.9047],[-66.2063,-18.90452],[-66.20683,-18.90414],[-66.20672,-18.90397],[-66.20564,-18.90462],[-66.20589,-18.90507],[-66.20628,-18.90488]]]},"properties":{"n":"BOMBORI","p":30,"personas_x_ha":55,"masculinidad":76,"pct_menor20":33,"pct_60mas":13,"pct_migrante":17,"dependencia_econ":58,"pct_empleados":11,"pct_cuentapropia":42,"pct_agricultura":79,"pct_comercio":5,"pct_manufactura":5,"pct_construccion":0,"pct_transporte":0,"pct_alojamiento":0,"pct_sin_educacion":45,"pct_educ_superior":0,"brecha_educ":0,"pct_sin_seguro":17,"pct_sus":83,"pct_seguro_privado":0,"brecha_seguro":11,"pct_salud_publica":28,"pct_med_tradicional":12,"pct_automedicacion":12,"pct_remedios_caseros":26,"pct_viv_desocupada":0,"pct_alquiler":0,"pct_electricidad":100,"pct_sin_electricidad":0,"pct_agua_red":23,"pct_alcantarillado":77,"pct_camara_septica":0,"pct_pozo_ciego":8,"pct_sin_desague":15,"pct_gas_red":8,"pct_gas_garrafa":85,"pct_lena_guano":85,"pct_basura_formal":46,"pct_basura_quema":54,"pct_basura_informal":0,"pct_internet":54,"pct_celular":85,"pct_televisor":69}},{"type":"Feature","geometry":{"type":"Polygon","coordinates":[[[-66.20653,-18.90529],[-66.20648,-18.90503],[-66.20637,-18.90495],[-66.20567,-18.90518],[-66.20619,-18.90545],[-66.20653,-18.90529]]]},"properties":{"n":"BOMBORI","p":18,"personas_x_ha":59,"masculinidad":157,"pct_menor20":28,"pct_60mas":28,"pct_migrante":6,"dependencia_econ":50,"pct_empleados":8,"pct_cuentapropia":92,"pct_agricultura":92,"pct_comercio":0,"pct_manufactura":0,"pct_construccion":8,"pct_transporte":0,"pct_alojamiento":0,"pct_sin_educacion":36,"pct_educ_superior":7,"brecha_educ":38,"pct_sin_seguro":12,"pct_sus":82,"pct_seguro_privado":0,"brecha_seguro":20,"pct_salud_publica":29,"pct_med_tradicional":14,"pct_automedicacion":10,"pct_remedios_caseros":31,"pct_viv_desocupada":31,"pct_alquiler":0,"pct_electricidad":56,"pct_sin_electricidad":33,"pct_agua_red":56,"pct_alcantarillado":67,"pct_camara_septica":0,"pct_pozo_ciego":0,"pct_sin_desague":33,"pct_gas_red":0,"pct_gas_garrafa":56,"pct_lena_guano":56,"pct_basura_formal":44,"pct_basura_quema":56,"pct_basura_informal":0,"pct_internet":22,"pct_celular":56,"pct_televisor":56}},{"type":"Feature","geometry":{"type":"Polygon","coordinates":[[[-66.20462,-18.90571],[-66.20476,-18.90552],[-66.20425,-18.9052],[-66.20413,-18.90543],[-66.20462,-18.90571]]]},"properties":{"n":"BOMBORI","p":15,"personas_x_ha":88,"masculinidad":114,"pct_menor20":47,"pct_60mas":13,"pct_migrante":7,"dependencia_econ":133,"pct_empleados":17,"pct_cuentapropia":67,"pct_agricultura":33,"pct_comercio":33,"pct_manufactura":0,"pct_construccion":0,"pct_transporte":17,"pct_alojamiento":17,"pct_sin_educacion":29,"pct_educ_superior":14,"brecha_educ":-25,"pct_sin_seguro":36,"pct_sus":64,"pct_seguro_privado":0,"brecha_seguro":14,"pct_salud_publica":41,"pct_med_tradicional":16,"pct_automedicacion":12,"pct_remedios_caseros":19,"pct_viv_desocupada":0,"pct_alquiler":0,"pct_electricidad":62,"pct_sin_electricidad":38,"pct_agua_red":75,"pct_alcantarillado":75,"pct_camara_septica":0,"pct_pozo_ciego":0,"pct_sin_desague":25,"pct_gas_red":0,"pct_gas_garrafa":100,"pct_lena_guano":100,"pct_basura_formal":12,"pct_basura_quema":38,"pct_basura_informal":0,"pct_internet":12,"pct_celular":75,"pct_televisor":38}},{"type":"Feature","geometry":{"type":"Polygon","coordinates":[[[-66.20515,-18.90354],[-66.20509,-18.90352],[-66.20435,-18.90411],[-66.20482,-18.90462],[-66.20518,-18.90441],[-66.20515,-18.90354]]]},"properties":{"n":"BOMBORI","p":34,"personas_x_ha":56,"masculinidad":79,"pct_menor20":38,"pct_60mas":6,"pct_migrante":41,"dependencia_econ":112,"pct_empleados":31,"pct_cuentapropia":44,"pct_agricultura":31,"pct_comercio":25,"pct_manufactura":0,"pct_construccion":12,"pct_transporte":0,"pct_alojamiento":0,"pct_sin_educacion":14,"pct_educ_superior":23,"brecha_educ":-8,"pct_sin_seguro":3,"pct_sus":91,"pct_seguro_privado":0,"brecha_seguro":7,"pct_salud_publica":28,"pct_med_tradicional":12,"pct_automedicacion":14,"pct_remedios_caseros":21,"pct_viv_desocupada":0,"pct_alquiler":14,"pct_electricidad":93,"pct_sin_electricidad":7,"pct_agua_red":93,"pct_alcantarillado":64,"pct_camara_septica":0,"pct_pozo_ciego":0,"pct_sin_desague":36,"pct_gas_red":0,"pct_gas_garrafa":86,"pct_lena_guano":86,"pct_basura_formal":43,"pct_basura_quema":57,"pct_basura_informal":0,"pct_internet":57,"pct_celular":100,"pct_televisor":64}},{"type":"Feature","geometry":{"type":"Polygon","coordinates":[[[-66.20616,-18.90365],[-66.20561,-18.90405],[-66.20533,-18.90365],[-66.20526,-18.90366],[-66.20525,-18.9039],[-66.20562,-18.90457],[-66.20643,-18.90405],[-66.20616,-18.90365]]]},"properties":{"n":"BOMBORI","p":40,"personas_x_ha":64,"masculinidad":100,"pct_menor20":45,"pct_60mas":10,"pct_migrante":5,"dependencia_econ":77,"pct_empleados":0,"pct_cuentapropia":50,"pct_agricultura":82,"pct_comercio":5,"pct_manufactura":0,"pct_construccion":5,"pct_transporte":0,"pct_alojamiento":0,"pct_sin_educacion":22,"pct_educ_superior":4,"brecha_educ":-55,"pct_sin_seguro":8,"pct_sus":92,"pct_seguro_privado":0,"brecha_seguro":5,"pct_salud_publica":28,"pct_med_tradicional":13,"pct_automedicacion":12,"pct_remedios_caseros":26,"pct_viv_desocupada":0,"pct_alquiler":0,"pct_electricidad":81,"pct_sin_electricidad":19,"pct_agua_red":75,"pct_alcantarillado":75,"pct_camara_septica":0,"pct_pozo_ciego":0,"pct_sin_desague":25,"pct_gas_red":0,"pct_gas_garrafa":81,"pct_lena_guano":81,"pct_basura_formal":25,"pct_basura_quema":75,"pct_basura_informal":0,"pct_internet":75,"pct_celular":88,"pct_televisor":62}},{"type":"Feature","geometry":{"type":"Polygon","coordinates":[[[-66.20433,-18.90352],[-66.20407,-18.90324],[-66.20379,-18.90348],[-66.20404,-18.90376],[-66.20433,-18.90352]]]},"properties":{"n":"BOMBORI","p":21,"personas_x_ha":127,"masculinidad":40,"pct_menor20":57,"pct_60mas":0,"pct_migrante":10,"dependencia_econ":133,"pct_empleados":11,"pct_cuentapropia":22,"pct_agricultura":78,"pct_comercio":11,"pct_manufactura":0,"pct_construccion":11,"pct_transporte":0,"pct_alojamiento":0,"pct_sin_educacion":20,"pct_educ_superior":0,"brecha_educ":-60,"pct_sin_seguro":14,"pct_sus":76,"pct_seguro_privado":0,"brecha_seguro":3,"pct_salud_publica":20,"pct_med_tradicional":14,"pct_automedicacion":5,"pct_remedios_caseros":23,"pct_viv_desocupada":0,"pct_alquiler":0,"pct_electricidad":86,"pct_sin_electricidad":14,"pct_agua_red":100,"pct_alcantarillado":86,"pct_camara_septica":0,"pct_pozo_ciego":0,"pct_sin_desague":14,"pct_gas_red":0,"pct_gas_garrafa":57,"pct_lena_guano":57,"pct_basura_formal":14,"pct_basura_quema":86,"pct_basura_informal":0,"pct_internet":43,"pct_celular":71,"pct_televisor":29}},{"type":"Feature","geometry":{"type":"Polygon","coordinates":[[[-66.20513,-18.90297],[-66.20445,-18.90352],[-66.20467,-18.90379],[-66.20517,-18.90337],[-66.20513,-18.90297]]]},"properties":{"n":"BOMBORI","p":36,"personas_x_ha":113,"masculinidad":71,"pct_menor20":58,"pct_60mas":0,"pct_migrante":17,"dependencia_econ":125,"pct_empleados":19,"pct_cuentapropia":56,"pct_agricultura":50,"pct_comercio":6,"pct_manufactura":0,"pct_construccion":12,"pct_transporte":6,"pct_alojamiento":6,"pct_sin_educacion":0,"pct_educ_superior":0,"brecha_educ":-28,"pct_sin_seguro":28,"pct_sus":72,"pct_seguro_privado":0,"brecha_seguro":21,"pct_salud_publica":42,"pct_med_tradicional":1,"pct_automedicacion":15,"pct_remedios_caseros":30,"pct_viv_desocupada":8,"pct_alquiler":0,"pct_electricidad":82,"pct_sin_electricidad":18,"pct_agua_red":27,"pct_alcantarillado":64,"pct_camara_septica":0,"pct_pozo_ciego":9,"pct_sin_desague":27,"pct_gas_red":0,"pct_gas_garrafa":91,"pct_lena_guano":91,"pct_basura_formal":18,"pct_basura_quema":64,"pct_basura_informal":18,"pct_internet":64,"pct_celular":91,"pct_televisor":64}},{"type":"Feature","geometry":{"type":"Polygon","coordinates":[[[-66.20429,-18.9025],[-66.20383,-18.90287],[-66.20408,-18.90314],[-66.20452,-18.90277],[-66.20429,-18.9025]]]},"properties":{"n":"BOMBORI","p":15,"personas_x_ha":61,"masculinidad":114,"pct_menor20":67,"pct_60mas":0,"pct_migrante":13,"dependencia_econ":114,"pct_empleados":0,"pct_cuentapropia":86,"pct_agricultura":86,"pct_comercio":0,"pct_manufactura":0,"pct_construccion":0,"pct_transporte":0,"pct_alojamiento":14,"pct_sin_educacion":0,"pct_educ_superior":0,"brecha_educ":-67,"pct_sin_seguro":7,"pct_sus":93,"pct_seguro_privado":0,"brecha_seguro":-14,"pct_salud_publica":32,"pct_med_tradicional":2,"pct_automedicacion":12,"pct_remedios_caseros":35,"pct_viv_desocupada":0,"pct_alquiler":0,"pct_electricidad":38,"pct_sin_electricidad":62,"pct_agua_red":50,"pct_alcantarillado":75,"pct_camara_septica":0,"pct_pozo_ciego":0,"pct_sin_desague":25,"pct_gas_red":0,"pct_gas_garrafa":62,"pct_lena_guano":62,"pct_basura_formal":0,"pct_basura_quema":88,"pct_basura_informal":0,"pct_internet":75,"pct_celular":75,"pct_televisor":25}},{"type":"Feature","geometry":{"type":"Polygon","coordinates":[[[-66.20519,-18.90482],[-66.20518,-18.90449],[-66.20487,-18.90467],[-66.20507,-18.90489],[-66.20519,-18.90482]]]},"properties":{"n":"BOMBORI","p":16,"personas_x_ha":182,"masculinidad":129,"pct_menor20":56,"pct_60mas":6,"pct_migrante":6,"dependencia_econ":220,"pct_empleados":0,"pct_cuentapropia":100,"pct_agricultura":40,"pct_comercio":20,"pct_manufactura":0,"pct_construccion":0,"pct_transporte":40,"pct_alojamiento":0,"pct_sin_educacion":29,"pct_educ_superior":0,"brecha_educ":8,"pct_sin_seguro":0,"pct_sus":100,"pct_seguro_privado":0,"brecha_seguro":0,"pct_salud_publica":40,"pct_med_tradicional":20,"pct_automedicacion":3,"pct_remedios_caseros":34,"pct_viv_desocupada":0,"pct_alquiler":0,"pct_electricidad":86,"pct_sin_electricidad":14,"pct_agua_red":57,"pct_alcantarillado":43,"pct_camara_septica":0,"pct_pozo_ciego":0,"pct_sin_desague":57,"pct_gas_red":0,"pct_gas_garrafa":86,"pct_lena_guano":86,"pct_basura_formal":29,"pct_basura_quema":57,"pct_basura_informal":0,"pct_internet":57,"pct_celular":86,"pct_televisor":57}},{"type":"Feature","geometry":{"type":"Polygon","coordinates":[[[-66.20422,-18.9051],[-66.20471,-18.90469],[-66.20391,-18.90392],[-66.2034,-18.90436],[-66.2034,-18.90445],[-66.20422,-18.9051]]]},"properties":{"n":"BOMBORI","p":29,"personas_x_ha":32,"masculinidad":45,"pct_menor20":45,"pct_60mas":14,"pct_migrante":38,"dependencia_econ":107,"pct_empleados":29,"pct_cuentapropia":50,"pct_agricultura":57,"pct_comercio":0,"pct_manufactura":0,"pct_construccion":7,"pct_transporte":0,"pct_alojamiento":14,"pct_sin_educacion":44,"pct_educ_superior":31,"brecha_educ":-5,"pct_sin_seguro":4,"pct_sus":85,"pct_seguro_privado":0,"brecha_seguro":-5,"pct_salud_publica":29,"pct_med_tradicional":16,"pct_automedicacion":7,"pct_remedios_caseros":32,"pct_viv_desocupada":0,"pct_alquiler":0,"pct_electricidad":53,"pct_sin_electricidad":47,"pct_agua_red":47,"pct_alcantarillado":33,"pct_camara_septica":7,"pct_pozo_ciego":13,"pct_sin_desague":47,"pct_gas_red":0,"pct_gas_garrafa":80,"pct_lena_guano":80,"pct_basura_formal":13,"pct_basura_quema":53,"pct_basura_informal":0,"pct_internet":47,"pct_celular":73,"pct_televisor":53}},{"type":"Feature","geometry":{"type":"Polygon","coordinates":[[[-66.20558,-18.90461],[-66.20529,-18.90408],[-66.20525,-18.90408],[-66.20526,-18.90479],[-66.20558,-18.90461]]]},"properties":{"n":"BOMBORI","p":18,"personas_x_ha":117,"masculinidad":157,"pct_menor20":28,"pct_60mas":22,"pct_migrante":6,"dependencia_econ":80,"pct_empleados":30,"pct_cuentapropia":50,"pct_agricultura":60,"pct_comercio":0,"pct_manufactura":0,"pct_construccion":20,"pct_transporte":0,"pct_alojamiento":0,"pct_sin_educacion":21,"pct_educ_superior":14,"brecha_educ":-54,"pct_sin_seguro":0,"pct_sus":76,"pct_seguro_privado":0,"brecha_seguro":0,"pct_salud_publica":43,"pct_med_tradicional":11,"pct_automedicacion":11,"pct_remedios_caseros":29,"pct_viv_desocupada":0,"pct_alquiler":0,"pct_electricidad":86,"pct_sin_electricidad":14,"pct_agua_red":57,"pct_alcantarillado":43,"pct_camara_septica":7,"pct_pozo_ciego":0,"pct_sin_desague":50,"pct_gas_red":0,"pct_gas_garrafa":100,"pct_lena_guano":100,"pct_basura_formal":7,"pct_basura_quema":86,"pct_basura_informal":0,"pct_internet":43,"pct_celular":79,"pct_televisor":50}},{"type":"Feature","geometry":{"type":"Polygon","coordinates":[[[-66.20372,-18.90341],[-66.20401,-18.90318],[-66.20338,-18.90254],[-66.20317,-18.90275],[-66.20372,-18.90341]]]},"properties":{"n":"BOMBORI","p":17,"personas_x_ha":46,"masculinidad":143,"pct_menor20":53,"pct_60mas":6,"pct_migrante":18,"dependencia_econ":143,"pct_empleados":29,"pct_cuentapropia":71,"pct_agricultura":86,"pct_comercio":14,"pct_manufactura":0,"pct_construccion":0,"pct_transporte":0,"pct_alojamiento":0,"pct_sin_educacion":25,"pct_educ_superior":0,"brecha_educ":13,"pct_sin_seguro":29,"pct_sus":71,"pct_seguro_privado":0,"brecha_seguro":-47,"pct_salud_publica":75,"pct_med_tradicional":0,"pct_automedicacion":0,"pct_remedios_caseros":25,"pct_viv_desocupada":6,"pct_alquiler":0,"pct_electricidad":55,"pct_sin_electricidad":45,"pct_agua_red":55,"pct_alcantarillado":73,"pct_camara_septica":0,"pct_pozo_ciego":9,"pct_sin_desague":18,"pct_gas_red":0,"pct_gas_garrafa":82,"pct_lena_guano":82,"pct_basura_formal":0,"pct_basura_quema":64,"pct_basura_informal":0,"pct_internet":64,"pct_celular":73,"pct_televisor":55}},{"type":"Feature","geometry":{"type":"Polygon","coordinates":[[[-66.20475,-18.90475],[-66.20437,-18.90513],[-66.2048,-18.90547],[-66.20514,-18.90513],[-66.20475,-18.90475]]]},"properties":{"n":"BOMBORI","p":34,"personas_x_ha":103,"masculinidad":89,"pct_menor20":32,"pct_60mas":0,"pct_migrante":15,"dependencia_econ":120,"pct_empleados":13,"pct_cuentapropia":40,"pct_agricultura":27,"pct_comercio":47,"pct_manufactura":7,"pct_construccion":7,"pct_transporte":0,"pct_alojamiento":7,"pct_sin_educacion":14,"pct_educ_superior":14,"brecha_educ":-3,"pct_sin_seguro":9,"pct_sus":75,"pct_seguro_privado":0,"brecha_seguro":7,"pct_salud_publica":24,"pct_med_tradicional":13,"pct_automedicacion":18,"pct_remedios_caseros":30,"pct_viv_desocupada":5,"pct_alquiler":0,"pct_electricidad":69,"pct_sin_electricidad":25,"pct_agua_red":38,"pct_alcantarillado":62,"pct_camara_septica":0,"pct_pozo_ciego":0,"pct_sin_desague":38,"pct_gas_red":0,"pct_gas_garrafa":75,"pct_lena_guano":75,"pct_basura_formal":38,"pct_basura_quema":56,"pct_basura_informal":12,"pct_internet":31,"pct_celular":88,"pct_televisor":62}},{"type":"Feature","geometry":{"type":"Polygon","coordinates":[[[-66.2037,-18.90353],[-66.20329,-18.90386],[-66.20347,-18.90415],[-66.20392,-18.90377],[-66.2037,-18.90353]]]},"properties":{"n":"BOMBORI","p":17,"personas_x_ha":78,"masculinidad":89,"pct_menor20":53,"pct_60mas":6,"pct_migrante":29,"dependencia_econ":183,"pct_empleados":17,"pct_cuentapropia":67,"pct_agricultura":83,"pct_comercio":0,"pct_manufactura":0,"pct_construccion":0,"pct_transporte":0,"pct_alojamiento":0,"pct_sin_educacion":12,"pct_educ_superior":0,"brecha_educ":-13,"pct_sin_seguro":0,"pct_sus":100,"pct_seguro_privado":0,"brecha_seguro":0,"pct_salud_publica":26,"pct_med_tradicional":5,"pct_automedicacion":21,"pct_remedios_caseros":27,"pct_viv_desocupada":42,"pct_alquiler":0,"pct_electricidad":57,"pct_sin_electricidad":43,"pct_agua_red":71,"pct_alcantarillado":43,"pct_camara_septica":0,"pct_pozo_ciego":0,"pct_sin_desague":57,"pct_gas_red":0,"pct_gas_garrafa":71,"pct_lena_guano":71,"pct_basura_formal":14,"pct_basura_quema":86,"pct_basura_informal":0,"pct_internet":43,"pct_celular":57,"pct_televisor":43}},{"type":"Feature","geometry":{"type":"Polygon","coordinates":[[[-66.24809,-18.8385],[-66.24789,-18.83766],[-66.24753,-18.83772],[-66.2477,-18.83857],[-66.24809,-18.8385]]]},"properties":{"n":"CALLAMPAYANI","p":16,"personas_x_ha":42,"masculinidad":100,"pct_menor20":44,"pct_60mas":0,"pct_migrante":6,"dependencia_econ":100,"pct_empleados":12,"pct_cuentapropia":12,"pct_agricultura":100,"pct_comercio":0,"pct_manufactura":0,"pct_construccion":0,"pct_transporte":0,"pct_alojamiento":0,"pct_sin_educacion":89,"pct_educ_superior":0,"brecha_educ":-25,"pct_sin_seguro":14,"pct_sus":86,"pct_seguro_privado":0,"brecha_seguro":-29,"pct_salud_publica":36,"pct_med_tradicional":0,"pct_automedicacion":0,"pct_remedios_caseros":30,"pct_viv_desocupada":0,"pct_alquiler":0,"pct_electricidad":100,"pct_sin_electricidad":0,"pct_agua_red":100,"pct_alcantarillado":0,"pct_camara_septica":0,"pct_pozo_ciego":43,"pct_sin_desague":57,"pct_gas_red":0,"pct_gas_garrafa":43,"pct_lena_guano":43,"pct_basura_formal":0,"pct_basura_quema":100,"pct_basura_informal":0,"pct_internet":71,"pct_celular":86,"pct_televisor":57}},{"type":"Feature","geometry":{"type":"Polygon","coordinates":[[[-66.24863,-18.83886],[-66.24854,-18.83847],[-66.24816,-18.83854],[-66.24825,-18.83893],[-66.24863,-18.83886]]]},"properties":{"n":"CALLAMPAYANI","p":19,"personas_x_ha":105,"masculinidad":171,"pct_menor20":42,"pct_60mas":32,"pct_migrante":16,"dependencia_econ":58,"pct_empleados":8,"pct_cuentapropia":75,"pct_agricultura":83,"pct_comercio":0,"pct_manufactura":0,"pct_construccion":8,"pct_transporte":0,"pct_alojamiento":0,"pct_sin_educacion":27,"pct_educ_superior":0,"brecha_educ":25,"pct_sin_seguro":5,"pct_sus":95,"pct_seguro_privado":0,"brecha_seguro":-14,"pct_salud_publica":27,"pct_med_tradicional":26,"pct_automedicacion":15,"pct_remedios_caseros":26,"pct_viv_desocupada":0,"pct_alquiler":0,"pct_electricidad":100,"pct_sin_electricidad":0,"pct_agua_red":88,"pct_alcantarillado":12,"pct_camara_septica":0,"pct_pozo_ciego":12,"pct_sin_desague":75,"pct_gas_red":0,"pct_gas_garrafa":62,"pct_lena_guano":62,"pct_basura_formal":0,"pct_basura_quema":100,"pct_basura_informal":0,"pct_internet":38,"pct_celular":50,"pct_televisor":25}},{"type":"Feature","geometry":{"type":"Polygon","coordinates":[[[-65.91076,-18.85957],[-65.91048,-18.85944],[-65.91053,-18.85925],[-65.9097,-18.85889],[-65.90952,-18.85922],[-65.91071,-18.85975],[-65.91076,-18.85957]]]},"properties":{"n":"CENTRO POBLADO TOMAYCURI","p":23,"personas_x_ha":47,"masculinidad":77,"pct_menor20":30,"pct_60mas":13,"pct_migrante":35,"dependencia_econ":109,"pct_empleados":36,"pct_cuentapropia":45,"pct_agricultura":27,"pct_comercio":27,"pct_manufactura":9,"pct_construccion":0,"pct_transporte":18,"pct_alojamiento":0,"pct_sin_educacion":44,"pct_educ_superior":19,"brecha_educ":-2,"pct_sin_seguro":30,"pct_sus":70,"pct_seguro_privado":0,"brecha_seguro":35,"pct_salud_publica":31,"pct_med_tradicional":0,"pct_automedicacion":4,"pct_remedios_caseros":40,"pct_viv_desocupada":4,"pct_alquiler":18,"pct_electricidad":100,"pct_sin_electricidad":0,"pct_agua_red":45,"pct_alcantarillado":0,"pct_camara_septica":0,"pct_pozo_ciego":0,"pct_sin_desague":100,"pct_gas_red":0,"pct_gas_garrafa":82,"pct_lena_guano":82,"pct_basura_formal":0,"pct_basura_quema":45,"pct_basura_informal":0,"pct_internet":82,"pct_celular":91,"pct_televisor":91}},{"type":"Feature","geometry":{"type":"Polygon","coordinates":[[[-65.91003,-18.86101],[-65.9104,-18.85982],[-65.90946,-18.85937],[-65.9089,-18.86049],[-65.91003,-18.86101]]]},"properties":{"n":"CENTRO POBLADO TOMAYCURI","p":16,"personas_x_ha":10,"masculinidad":78,"pct_menor20":44,"pct_60mas":6,"pct_migrante":25,"dependencia_econ":100,"pct_empleados":38,"pct_cuentapropia":50,"pct_agricultura":62,"pct_comercio":0,"pct_manufactura":0,"pct_construccion":0,"pct_transporte":0,"pct_alojamiento":0,"pct_sin_educacion":22,"pct_educ_superior":44,"brecha_educ":-35,"pct_sin_seguro":6,"pct_sus":62,"pct_seguro_privado":0,"brecha_seguro":-11,"pct_salud_publica":24,"pct_med_tradicional":24,"pct_automedicacion":14,"pct_remedios_caseros":31,"pct_viv_desocupada":12,"pct_alquiler":0,"pct_electricidad":86,"pct_sin_electricidad":14,"pct_agua_red":29,"pct_alcantarillado":29,"pct_camara_septica":0,"pct_pozo_ciego":0,"pct_sin_desague":71,"pct_gas_red":0,"pct_gas_garrafa":100,"pct_lena_guano":100,"pct_basura_formal":14,"pct_basura_quema":57,"pct_basura_informal":29,"pct_internet":86,"pct_celular":86,"pct_televisor":71}},{"type":"Feature","geometry":{"type":"Polygon","coordinates":[[[-66.03582,-18.81769],[-66.03567,-18.81852],[-66.03607,-18.81855],[-66.03635,-18.81867],[-66.03663,-18.81785],[-66.03582,-18.81769]]]},"properties":{"n":"MACHA","p":30,"personas_x_ha":39,"masculinidad":76,"pct_menor20":17,"pct_60mas":37,"pct_migrante":37,"dependencia_econ":100,"pct_empleados":20,"pct_cuentapropia":73,"pct_agricultura":20,"pct_comercio":40,"pct_manufactura":0,"pct_construccion":13,"pct_transporte":13,"pct_alojamiento":7,"pct_sin_educacion":16,"pct_educ_superior":32,"brecha_educ":-20,"pct_sin_seguro":13,"pct_sus":77,"pct_seguro_privado":0,"brecha_seguro":17,"pct_salud_publica":30,"pct_med_tradicional":7,"pct_automedicacion":14,"pct_remedios_caseros":22,"pct_viv_desocupada":24,"pct_alquiler":10,"pct_electricidad":95,"pct_sin_electricidad":0,"pct_agua_red":90,"pct_alcantarillado":86,"pct_camara_septica":0,"pct_pozo_ciego":0,"pct_sin_desague":14,"pct_gas_red":0,"pct_gas_garrafa":90,"pct_lena_guano":90,"pct_basura_formal":100,"pct_basura_quema":0,"pct_basura_informal":0,"pct_internet":57,"pct_celular":76,"pct_televisor":71}},{"type":"Feature","geometry":{"type":"Polygon","coordinates":[[[-66.03746,-18.81911],[-66.03737,-18.81932],[-66.03744,-18.8191],[-66.03715,-18.81901],[-66.03687,-18.81972],[-66.03753,-18.81997],[-66.03785,-18.81924],[-66.03746,-18.81911]]]},"properties":{"n":"MACHA","p":45,"personas_x_ha":69,"masculinidad":61,"pct_menor20":11,"pct_60mas":44,"pct_migrante":40,"dependencia_econ":55,"pct_empleados":17,"pct_cuentapropia":59,"pct_agricultura":24,"pct_comercio":31,"pct_manufactura":3,"pct_construccion":0,"pct_transporte":10,"pct_alojamiento":3,"pct_sin_educacion":8,"pct_educ_superior":45,"brecha_educ":-14,"pct_sin_seguro":25,"pct_sus":59,"pct_seguro_privado":0,"brecha_seguro":10,"pct_salud_publica":29,"pct_med_tradicional":8,"pct_automedicacion":18,"pct_remedios_caseros":33,"pct_viv_desocupada":14,"pct_alquiler":3,"pct_electricidad":86,"pct_sin_electricidad":14,"pct_agua_red":86,"pct_alcantarillado":79,"pct_camara_septica":3,"pct_pozo_ciego":0,"pct_sin_desague":17,"pct_gas_red":0,"pct_gas_garrafa":97,"pct_lena_guano":97,"pct_basura_formal":76,"pct_basura_quema":10,"pct_basura_informal":0,"pct_internet":66,"pct_celular":90,"pct_televisor":79}},{"type":"Feature","geometry":{"type":"Polygon","coordinates":[[[-66.03688,-18.81889],[-66.03625,-18.8187],[-66.03616,-18.81896],[-66.03642,-18.81906],[-66.03631,-18.81963],[-66.03605,-18.81963],[-66.03603,-18.81979],[-66.03653,-18.8198],[-66.03688,-18.81889]]]},"properties":{"n":"MACHA","p":35,"personas_x_ha":70,"masculinidad":84,"pct_menor20":26,"pct_60mas":37,"pct_migrante":40,"dependencia_econ":78,"pct_empleados":11,"pct_cuentapropia":61,"pct_agricultura":17,"pct_comercio":39,"pct_manufactura":11,"pct_construccion":0,"pct_transporte":0,"pct_alojamiento":0,"pct_sin_educacion":8,"pct_educ_superior":15,"brecha_educ":-10,"pct_sin_seguro":6,"pct_sus":74,"pct_seguro_privado":0,"brecha_seguro":1,"pct_salud_publica":30,"pct_med_tradicional":11,"pct_automedicacion":13,"pct_remedios_caseros":35,"pct_viv_desocupada":8,"pct_alquiler":0,"pct_electricidad":90,"pct_sin_electricidad":10,"pct_agua_red":80,"pct_alcantarillado":60,"pct_camara_septica":5,"pct_pozo_ciego":0,"pct_sin_desague":30,"pct_gas_red":0,"pct_gas_garrafa":90,"pct_lena_guano":90,"pct_basura_formal":85,"pct_basura_quema":15,"pct_basura_informal":0,"pct_internet":55,"pct_celular":80,"pct_televisor":35}},{"type":"Feature","geometry":{"type":"Polygon","coordinates":[[[-66.03576,-18.81767],[-66.03474,-18.81748],[-66.03458,-18.81752],[-66.03452,-18.81766],[-66.03465,-18.81801],[-66.035,-18.81813],[-66.03518,-18.8183],[-66.03532,-18.81805],[-66.03547,-18.81809],[-66.0355,-18.81792],[-66.03571,-18.81795],[-66.03576,-18.81767]]]},"properties":{"n":"MACHA","p":39,"personas_x_ha":56,"masculinidad":95,"pct_menor20":23,"pct_60mas":36,"pct_migrante":23,"dependencia_econ":64,"pct_empleados":18,"pct_cuentapropia":64,"pct_agricultura":64,"pct_comercio":14,"pct_manufactura":5,"pct_construccion":9,"pct_transporte":0,"pct_alojamiento":0,"pct_sin_educacion":26,"pct_educ_superior":4,"brecha_educ":-5,"pct_sin_seguro":17,"pct_sus":83,"pct_seguro_privado":0,"brecha_seguro":13,"pct_salud_publica":29,"pct_med_tradicional":14,"pct_automedicacion":10,"pct_remedios_caseros":32,"pct_viv_desocupada":3,"pct_alquiler":5,"pct_electricidad":82,"pct_sin_electricidad":18,"pct_agua_red":86,"pct_alcantarillado":68,"pct_camara_septica":0,"pct_pozo_ciego":0,"pct_sin_desague":27,"pct_gas_red":9,"pct_gas_garrafa":77,"pct_lena_guano":77,"pct_basura_formal":77,"pct_basura_quema":9,"pct_basura_informal":0,"pct_internet":73,"pct_celular":91,"pct_televisor":68}},{"type":"Feature","geometry":{"type":"Polygon","coordinates":[[[-66.0359,-18.82286],[-66.03624,-18.82302],[-66.03678,-18.82268],[-66.03685,-18.82241],[-66.03667,-18.8218],[-66.03671,-18.82146],[-66.03632,-18.82131],[-66.03574,-18.82197],[-66.03586,-18.82206],[-66.03579,-18.82222],[-66.03582,-18.82207],[-66.03571,-18.82199],[-66.0354,-18.8223],[-66.03531,-18.82247],[-66.03563,-18.82264],[-66.03583,-18.82244],[-66.0359,-18.82286]]]},"properties":{"n":"MACHA","p":51,"personas_x_ha":29,"masculinidad":38,"pct_menor20":49,"pct_60mas":20,"pct_migrante":14,"dependencia_econ":308,"pct_empleados":0,"pct_cuentapropia":92,"pct_agricultura":42,"pct_comercio":33,"pct_manufactura":8,"pct_construccion":8,"pct_transporte":0,"pct_alojamiento":0,"pct_sin_educacion":36,"pct_educ_superior":8,"brecha_educ":-40,"pct_sin_seguro":2,"pct_sus":98,"pct_seguro_privado":0,"brecha_seguro":-3,"pct_salud_publica":34,"pct_med_tradicional":21,"pct_automedicacion":5,"pct_remedios_caseros":30,"pct_viv_desocupada":6,"pct_alquiler":0,"pct_electricidad":87,"pct_sin_electricidad":13,"pct_agua_red":83,"pct_alcantarillado":26,"pct_camara_septica":0,"pct_pozo_ciego":0,"pct_sin_desague":74,"pct_gas_red":0,"pct_gas_garrafa":83,"pct_lena_guano":87,"pct_basura_formal":74,"pct_basura_quema":26,"pct_basura_informal":0,"pct_internet":61,"pct_celular":78,"pct_televisor":61}},{"type":"Feature","geometry":{"type":"Polygon","coordinates":[[[-66.03205,-18.81814],[-66.03308,-18.81802],[-66.03331,-18.81792],[-66.03317,-18.8176],[-66.03259,-18.81775],[-66.03175,-18.8178],[-66.03143,-18.81761],[-66.03136,-18.81766],[-66.03136,-18.81803],[-66.03205,-18.81814]]]},"properties":{"n":"MACHA","p":29,"personas_x_ha":37,"masculinidad":45,"pct_menor20":45,"pct_60mas":7,"pct_migrante":31,"dependencia_econ":93,"pct_empleados":27,"pct_cuentapropia":53,"pct_agricultura":40,"pct_comercio":7,"pct_manufactura":7,"pct_construccion":7,"pct_transporte":0,"pct_alojamiento":0,"pct_sin_educacion":62,"pct_educ_superior":0,"brecha_educ":-100,"pct_sin_seguro":4,"pct_sus":96,"pct_seguro_privado":0,"brecha_seguro":11,"pct_salud_publica":56,"pct_med_tradicional":6,"pct_automedicacion":8,"pct_remedios_caseros":20,"pct_viv_desocupada":12,"pct_alquiler":0,"pct_electricidad":79,"pct_sin_electricidad":21,"pct_agua_red":79,"pct_alcantarillado":0,"pct_camara_septica":0,"pct_pozo_ciego":0,"pct_sin_desague":100,"pct_gas_red":0,"pct_gas_garrafa":79,"pct_lena_guano":79,"pct_basura_formal":93,"pct_basura_quema":7,"pct_basura_informal":0,"pct_internet":57,"pct_celular":79,"pct_televisor":36}},{"type":"Feature","geometry":{"type":"Polygon","coordinates":[[[-66.03579,-18.8176],[-66.03583,-18.81741],[-66.03569,-18.81736],[-66.03565,-18.81712],[-66.03447,-18.8168],[-66.03415,-18.81696],[-66.03458,-18.81726],[-66.0351,-18.81748],[-66.03579,-18.8176]]]},"properties":{"n":"MACHA","p":21,"personas_x_ha":28,"masculinidad":91,"pct_menor20":29,"pct_60mas":29,"pct_migrante":19,"dependencia_econ":82,"pct_empleados":18,"pct_cuentapropia":55,"pct_agricultura":45,"pct_comercio":9,"pct_manufactura":0,"pct_construccion":9,"pct_transporte":9,"pct_alojamiento":9,"pct_sin_educacion":29,"pct_educ_superior":7,"brecha_educ":-25,"pct_sin_seguro":5,"pct_sus":95,"pct_seguro_privado":0,"brecha_seguro":-9,"pct_salud_publica":74,"pct_med_tradicional":0,"pct_automedicacion":7,"pct_remedios_caseros":15,"pct_viv_desocupada":0,"pct_alquiler":11,"pct_electricidad":89,"pct_sin_electricidad":0,"pct_agua_red":78,"pct_alcantarillado":67,"pct_camara_septica":0,"pct_pozo_ciego":0,"pct_sin_desague":11,"pct_gas_red":0,"pct_gas_garrafa":100,"pct_lena_guano":100,"pct_basura_formal":100,"pct_basura_quema":0,"pct_basura_informal":0,"pct_internet":33,"pct_celular":67,"pct_televisor":44}},{"type":"Feature","geometry":{"type":"Polygon","coordinates":[[[-66.03471,-18.82217],[-66.03406,-18.82274],[-66.03444,-18.82308],[-66.03489,-18.8223],[-66.03471,-18.82217]]]},"properties":{"n":"MACHA","p":21,"personas_x_ha":56,"masculinidad":31,"pct_menor20":57,"pct_60mas":5,"pct_migrante":19,"dependencia_econ":600,"pct_empleados":0,"pct_cuentapropia":67,"pct_agricultura":67,"pct_comercio":0,"pct_manufactura":0,"pct_construccion":0,"pct_transporte":33,"pct_alojamiento":0,"pct_sin_educacion":44,"pct_educ_superior":0,"brecha_educ":null,"pct_sin_seguro":0,"pct_sus":100,"pct_seguro_privado":0,"brecha_seguro":0,"pct_salud_publica":45,"pct_med_tradicional":7,"pct_automedicacion":19,"pct_remedios_caseros":26,"pct_viv_desocupada":9,"pct_alquiler":0,"pct_electricidad":78,"pct_sin_electricidad":22,"pct_agua_red":0,"pct_alcantarillado":0,"pct_camara_septica":0,"pct_pozo_ciego":0,"pct_sin_desague":100,"pct_gas_red":0,"pct_gas_garrafa":100,"pct_lena_guano":100,"pct_basura_formal":11,"pct_basura_quema":89,"pct_basura_informal":0,"pct_internet":78,"pct_celular":89,"pct_televisor":44}},{"type":"Feature","geometry":{"type":"Polygon","coordinates":[[[-66.0366,-18.81963],[-66.03684,-18.81971],[-66.03713,-18.81898],[-66.03693,-18.8189],[-66.0366,-18.81963]]]},"properties":{"n":"MACHA","p":24,"personas_x_ha":111,"masculinidad":140,"pct_menor20":17,"pct_60mas":33,"pct_migrante":38,"dependencia_econ":71,"pct_empleados":21,"pct_cuentapropia":57,"pct_agricultura":7,"pct_comercio":21,"pct_manufactura":0,"pct_construccion":36,"pct_transporte":0,"pct_alojamiento":0,"pct_sin_educacion":15,"pct_educ_superior":10,"brecha_educ":-28,"pct_sin_seguro":25,"pct_sus":54,"pct_seguro_privado":0,"brecha_seguro":9,"pct_salud_publica":33,"pct_med_tradicional":11,"pct_automedicacion":10,"pct_remedios_caseros":29,"pct_viv_desocupada":6,"pct_alquiler":14,"pct_electricidad":86,"pct_sin_electricidad":14,"pct_agua_red":79,"pct_alcantarillado":36,"pct_camara_septica":0,"pct_pozo_ciego":14,"pct_sin_desague":50,"pct_gas_red":0,"pct_gas_garrafa":93,"pct_lena_guano":93,"pct_basura_formal":93,"pct_basura_quema":0,"pct_basura_informal":0,"pct_internet":57,"pct_celular":86,"pct_televisor":43}},{"type":"Feature","geometry":{"type":"Polygon","coordinates":[[[-66.03793,-18.81924],[-66.0376,-18.82001],[-66.03799,-18.82024],[-66.03821,-18.82008],[-66.0385,-18.82003],[-66.03854,-18.81944],[-66.03793,-18.81924]]]},"properties":{"n":"MACHA","p":19,"personas_x_ha":27,"masculinidad":90,"pct_menor20":5,"pct_60mas":53,"pct_migrante":42,"dependencia_econ":36,"pct_empleados":36,"pct_cuentapropia":43,"pct_agricultura":21,"pct_comercio":36,"pct_manufactura":0,"pct_construccion":7,"pct_transporte":7,"pct_alojamiento":7,"pct_sin_educacion":11,"pct_educ_superior":28,"brecha_educ":-11,"pct_sin_seguro":32,"pct_sus":58,"pct_seguro_privado":0,"brecha_seguro":3,"pct_salud_publica":27,"pct_med_tradicional":5,"pct_automedicacion":18,"pct_remedios_caseros":25,"pct_viv_desocupada":17,"pct_alquiler":19,"pct_electricidad":94,"pct_sin_electricidad":6,"pct_agua_red":88,"pct_alcantarillado":88,"pct_camara_septica":0,"pct_pozo_ciego":0,"pct_sin_desague":12,"pct_gas_red":0,"pct_gas_garrafa":94,"pct_lena_guano":94,"pct_basura_formal":100,"pct_basura_quema":0,"pct_basura_informal":0,"pct_internet":56,"pct_celular":69,"pct_televisor":81}},{"type":"Feature","geometry":{"type":"Polygon","coordinates":[[[-66.03481,-18.81844],[-66.0348,-18.8186],[-66.03493,-18.81861],[-66.035,-18.81819],[-66.03439,-18.81804],[-66.03432,-18.8183],[-66.03481,-18.81844]]]},"properties":{"n":"MACHA","p":20,"personas_x_ha":79,"masculinidad":100,"pct_menor20":40,"pct_60mas":20,"pct_migrante":40,"dependencia_econ":54,"pct_empleados":23,"pct_cuentapropia":31,"pct_agricultura":46,"pct_comercio":15,"pct_manufactura":0,"pct_construccion":15,"pct_transporte":8,"pct_alojamiento":8,"pct_sin_educacion":33,"pct_educ_superior":17,"brecha_educ":3,"pct_sin_seguro":15,"pct_sus":85,"pct_seguro_privado":0,"brecha_seguro":-10,"pct_salud_publica":25,"pct_med_tradicional":16,"pct_automedicacion":20,"pct_remedios_caseros":24,"pct_viv_desocupada":11,"pct_alquiler":0,"pct_electricidad":100,"pct_sin_electricidad":0,"pct_agua_red":86,"pct_alcantarillado":43,"pct_camara_septica":0,"pct_pozo_ciego":0,"pct_sin_desague":57,"pct_gas_red":0,"pct_gas_garrafa":43,"pct_lena_guano":43,"pct_basura_formal":71,"pct_basura_quema":29,"pct_basura_informal":0,"pct_internet":86,"pct_celular":100,"pct_televisor":71}},{"type":"Feature","geometry":{"type":"Polygon","coordinates":[[[-66.03804,-18.81631],[-66.03757,-18.81677],[-66.03682,-18.81696],[-66.03682,-18.81702],[-66.03782,-18.81722],[-66.03808,-18.81676],[-66.03816,-18.81669],[-66.03826,-18.81674],[-66.03844,-18.81659],[-66.03863,-18.81619],[-66.03804,-18.81631]]]},"properties":{"n":"MACHA","p":48,"personas_x_ha":62,"masculinidad":66,"pct_menor20":38,"pct_60mas":21,"pct_migrante":33,"dependencia_econ":109,"pct_empleados":13,"pct_cuentapropia":65,"pct_agricultura":17,"pct_comercio":43,"pct_manufactura":4,"pct_construccion":4,"pct_transporte":9,"pct_alojamiento":9,"pct_sin_educacion":7,"pct_educ_superior":17,"brecha_educ":-40,"pct_sin_seguro":19,"pct_sus":68,"pct_seguro_privado":0,"brecha_seguro":14,"pct_salud_publica":41,"pct_med_tradicional":5,"pct_automedicacion":16,"pct_remedios_caseros":27,"pct_viv_desocupada":13,"pct_alquiler":14,"pct_electricidad":91,"pct_sin_electricidad":9,"pct_agua_red":86,"pct_alcantarillado":59,"pct_camara_septica":0,"pct_pozo_ciego":0,"pct_sin_desague":23,"pct_gas_red":0,"pct_gas_garrafa":91,"pct_lena_guano":91,"pct_basura_formal":68,"pct_basura_quema":9,"pct_basura_informal":0,"pct_internet":77,"pct_celular":91,"pct_televisor":73}},{"type":"Feature","geometry":{"type":"Polygon","coordinates":[[[-66.03737,-18.82308],[-66.03694,-18.82267],[-66.03656,-18.82293],[-66.0371,-18.82356],[-66.03737,-18.82308]]]},"properties":{"n":"MACHA","p":18,"personas_x_ha":46,"masculinidad":64,"pct_menor20":39,"pct_60mas":11,"pct_migrante":11,"dependencia_econ":50,"pct_empleados":8,"pct_cuentapropia":83,"pct_agricultura":50,"pct_comercio":8,"pct_manufactura":8,"pct_construccion":17,"pct_transporte":0,"pct_alojamiento":8,"pct_sin_educacion":55,"pct_educ_superior":0,"brecha_educ":-86,"pct_sin_seguro":7,"pct_sus":93,"pct_seguro_privado":0,"brecha_seguro":20,"pct_salud_publica":38,"pct_med_tradicional":22,"pct_automedicacion":0,"pct_remedios_caseros":34,"pct_viv_desocupada":0,"pct_alquiler":0,"pct_electricidad":100,"pct_sin_electricidad":0,"pct_agua_red":82,"pct_alcantarillado":9,"pct_camara_septica":9,"pct_pozo_ciego":0,"pct_sin_desague":82,"pct_gas_red":0,"pct_gas_garrafa":82,"pct_lena_guano":82,"pct_basura_formal":64,"pct_basura_quema":18,"pct_basura_informal":0,"pct_internet":82,"pct_celular":82,"pct_televisor":45}},{"type":"Feature","geometry":{"type":"Polygon","coordinates":[[[-66.03859,-18.8176],[-66.03785,-18.81729],[-66.03744,-18.81799],[-66.03828,-18.81831],[-66.03859,-18.8176]]]},"properties":{"n":"MACHA","p":37,"personas_x_ha":46,"masculinidad":147,"pct_menor20":30,"pct_60mas":27,"pct_migrante":35,"dependencia_econ":76,"pct_empleados":10,"pct_cuentapropia":52,"pct_agricultura":10,"pct_comercio":24,"pct_manufactura":0,"pct_construccion":0,"pct_transporte":10,"pct_alojamiento":10,"pct_sin_educacion":4,"pct_educ_superior":22,"brecha_educ":-3,"pct_sin_seguro":17,"pct_sus":67,"pct_seguro_privado":0,"brecha_seguro":6,"pct_salud_publica":38,"pct_med_tradicional":8,"pct_automedicacion":16,"pct_remedios_caseros":24,"pct_viv_desocupada":20,"pct_alquiler":14,"pct_electricidad":95,"pct_sin_electricidad":5,"pct_agua_red":86,"pct_alcantarillado":90,"pct_camara_septica":0,"pct_pozo_ciego":0,"pct_sin_desague":10,"pct_gas_red":0,"pct_gas_garrafa":100,"pct_lena_guano":100,"pct_basura_formal":90,"pct_basura_quema":0,"pct_basura_informal":0,"pct_internet":86,"pct_celular":86,"pct_televisor":71}},{"type":"Feature","geometry":{"type":"Polygon","coordinates":[[[-66.036,-18.81698],[-66.03599,-18.81717],[-66.0357,-18.81714],[-66.03569,-18.81729],[-66.03585,-18.81739],[-66.03582,-18.81762],[-66.03664,-18.81779],[-66.03687,-18.81705],[-66.03676,-18.81703],[-66.03662,-18.8168],[-66.036,-18.81698]]]},"properties":{"n":"MACHA","p":44,"personas_x_ha":52,"masculinidad":144,"pct_menor20":23,"pct_60mas":32,"pct_migrante":45,"dependencia_econ":105,"pct_empleados":19,"pct_cuentapropia":52,"pct_agricultura":24,"pct_comercio":24,"pct_manufactura":0,"pct_construccion":5,"pct_transporte":10,"pct_alojamiento":0,"pct_sin_educacion":6,"pct_educ_superior":24,"brecha_educ":-38,"pct_sin_seguro":14,"pct_sus":77,"pct_seguro_privado":0,"brecha_seguro":-14,"pct_salud_publica":40,"pct_med_tradicional":4,"pct_automedicacion":13,"pct_remedios_caseros":27,"pct_viv_desocupada":5,"pct_alquiler":0,"pct_electricidad":95,"pct_sin_electricidad":5,"pct_agua_red":95,"pct_alcantarillado":75,"pct_camara_septica":0,"pct_pozo_ciego":0,"pct_sin_desague":20,"pct_gas_red":0,"pct_gas_garrafa":100,"pct_lena_guano":100,"pct_basura_formal":95,"pct_basura_quema":5,"pct_basura_informal":0,"pct_internet":80,"pct_celular":100,"pct_televisor":75}},{"type":"Feature","geometry":{"type":"Polygon","coordinates":[[[-66.03811,-18.81685],[-66.03789,-18.81723],[-66.03852,-18.81751],[-66.03845,-18.81701],[-66.03811,-18.81685]]]},"properties":{"n":"MACHA","p":20,"personas_x_ha":76,"masculinidad":100,"pct_menor20":25,"pct_60mas":30,"pct_migrante":50,"dependencia_econ":54,"pct_empleados":38,"pct_cuentapropia":54,"pct_agricultura":8,"pct_comercio":23,"pct_manufactura":15,"pct_construccion":0,"pct_transporte":15,"pct_alojamiento":0,"pct_sin_educacion":0,"pct_educ_superior":33,"brecha_educ":-2,"pct_sin_seguro":25,"pct_sus":65,"pct_seguro_privado":0,"brecha_seguro":30,"pct_salud_publica":42,"pct_med_tradicional":8,"pct_automedicacion":15,"pct_remedios_caseros":28,"pct_viv_desocupada":25,"pct_alquiler":0,"pct_electricidad":83,"pct_sin_electricidad":17,"pct_agua_red":83,"pct_alcantarillado":92,"pct_camara_septica":0,"pct_pozo_ciego":0,"pct_sin_desague":8,"pct_gas_red":0,"pct_gas_garrafa":92,"pct_lena_guano":92,"pct_basura_formal":92,"pct_basura_quema":0,"pct_basura_informal":0,"pct_internet":75,"pct_celular":92,"pct_televisor":75}},{"type":"Feature","geometry":{"type":"Polygon","coordinates":[[[-66.03442,-18.82166],[-66.03357,-18.82225],[-66.03402,-18.82271],[-66.0348,-18.82201],[-66.03442,-18.82166]]]},"properties":{"n":"MACHA","p":22,"personas_x_ha":31,"masculinidad":120,"pct_menor20":55,"pct_60mas":9,"pct_migrante":41,"dependencia_econ":83,"pct_empleados":17,"pct_cuentapropia":50,"pct_agricultura":50,"pct_comercio":0,"pct_manufactura":0,"pct_construccion":8,"pct_transporte":0,"pct_alojamiento":0,"pct_sin_educacion":9,"pct_educ_superior":18,"brecha_educ":7,"pct_sin_seguro":29,"pct_sus":71,"pct_seguro_privado":0,"brecha_seguro":11,"pct_salud_publica":34,"pct_med_tradicional":8,"pct_automedicacion":20,"pct_remedios_caseros":26,"pct_viv_desocupada":33,"pct_alquiler":0,"pct_electricidad":55,"pct_sin_electricidad":45,"pct_agua_red":0,"pct_alcantarillado":9,"pct_camara_septica":0,"pct_pozo_ciego":0,"pct_sin_desague":91,"pct_gas_red":0,"pct_gas_garrafa":91,"pct_lena_guano":91,"pct_basura_formal":55,"pct_basura_quema":36,"pct_basura_informal":0,"pct_internet":45,"pct_celular":73,"pct_televisor":18}},{"type":"Feature","geometry":{"type":"Polygon","coordinates":[[[-66.03449,-18.82443],[-66.03417,-18.82411],[-66.03361,-18.82461],[-66.03385,-18.82483],[-66.03407,-18.82458],[-66.0343,-18.8246],[-66.03449,-18.82443]]]},"properties":{"n":"MACHA","p":24,"personas_x_ha":74,"masculinidad":60,"pct_menor20":62,"pct_60mas":12,"pct_migrante":8,"dependencia_econ":167,"pct_empleados":0,"pct_cuentapropia":67,"pct_agricultura":56,"pct_comercio":0,"pct_manufactura":0,"pct_construccion":0,"pct_transporte":11,"pct_alojamiento":22,"pct_sin_educacion":22,"pct_educ_superior":11,"brecha_educ":-36,"pct_sin_seguro":0,"pct_sus":100,"pct_seguro_privado":0,"brecha_seguro":0,"pct_salud_publica":100,"pct_med_tradicional":0,"pct_automedicacion":0,"pct_remedios_caseros":0,"pct_viv_desocupada":20,"pct_alquiler":0,"pct_electricidad":62,"pct_sin_electricidad":25,"pct_agua_red":12,"pct_alcantarillado":0,"pct_camara_septica":0,"pct_pozo_ciego":0,"pct_sin_desague":100,"pct_gas_red":0,"pct_gas_garrafa":100,"pct_lena_guano":100,"pct_basura_formal":0,"pct_basura_quema":75,"pct_basura_informal":25,"pct_internet":0,"pct_celular":0,"pct_televisor":50}},{"type":"Feature","geometry":{"type":"Polygon","coordinates":[[[-66.03664,-18.82052],[-66.03722,-18.82063],[-66.0375,-18.82002],[-66.03659,-18.81971],[-66.03664,-18.82052]]]},"properties":{"n":"MACHA","p":45,"personas_x_ha":68,"masculinidad":114,"pct_menor20":11,"pct_60mas":49,"pct_migrante":24,"dependencia_econ":68,"pct_empleados":8,"pct_cuentapropia":60,"pct_agricultura":40,"pct_comercio":8,"pct_manufactura":4,"pct_construccion":8,"pct_transporte":8,"pct_alojamiento":12,"pct_sin_educacion":14,"pct_educ_superior":16,"brecha_educ":-9,"pct_sin_seguro":12,"pct_sus":86,"pct_seguro_privado":0,"brecha_seguro":4,"pct_salud_publica":31,"pct_med_tradicional":5,"pct_automedicacion":20,"pct_remedios_caseros":35,"pct_viv_desocupada":6,"pct_alquiler":0,"pct_electricidad":77,"pct_sin_electricidad":17,"pct_agua_red":90,"pct_alcantarillado":60,"pct_camara_septica":0,"pct_pozo_ciego":7,"pct_sin_desague":33,"pct_gas_red":0,"pct_gas_garrafa":90,"pct_lena_guano":90,"pct_basura_formal":87,"pct_basura_quema":7,"pct_basura_informal":7,"pct_internet":87,"pct_celular":100,"pct_televisor":70}},{"type":"Feature","geometry":{"type":"Polygon","coordinates":[[[-66.03662,-18.82339],[-66.03664,-18.82313],[-66.03648,-18.82299],[-66.03602,-18.82328],[-66.03609,-18.82342],[-66.03594,-18.82362],[-66.03611,-18.82372],[-66.03641,-18.8237],[-66.03662,-18.82339]]]},"properties":{"n":"MACHA","p":16,"personas_x_ha":42,"masculinidad":100,"pct_menor20":44,"pct_60mas":19,"pct_migrante":19,"dependencia_econ":129,"pct_empleados":0,"pct_cuentapropia":14,"pct_agricultura":86,"pct_comercio":14,"pct_manufactura":0,"pct_construccion":0,"pct_transporte":0,"pct_alojamiento":0,"pct_sin_educacion":56,"pct_educ_superior":11,"brecha_educ":-36,"pct_sin_seguro":12,"pct_sus":88,"pct_seguro_privado":0,"brecha_seguro":0,"pct_salud_publica":27,"pct_med_tradicional":18,"pct_automedicacion":13,"pct_remedios_caseros":25,"pct_viv_desocupada":0,"pct_alquiler":0,"pct_electricidad":57,"pct_sin_electricidad":29,"pct_agua_red":71,"pct_alcantarillado":0,"pct_camara_septica":0,"pct_pozo_ciego":14,"pct_sin_desague":86,"pct_gas_red":0,"pct_gas_garrafa":100,"pct_lena_guano":100,"pct_basura_formal":86,"pct_basura_quema":0,"pct_basura_informal":29,"pct_internet":100,"pct_celular":100,"pct_televisor":43}},{"type":"Feature","geometry":{"type":"Polygon","coordinates":[[[-66.03597,-18.81978],[-66.03588,-18.81962],[-66.03537,-18.81996],[-66.03547,-18.82008],[-66.03526,-18.82018],[-66.03516,-18.81994],[-66.03488,-18.82006],[-66.03504,-18.82053],[-66.03505,-18.82087],[-66.03525,-18.82082],[-66.0353,-18.82048],[-66.03589,-18.82008],[-66.03575,-18.81995],[-66.03597,-18.81978]]]},"properties":{"n":"MACHA","p":36,"personas_x_ha":61,"masculinidad":57,"pct_menor20":75,"pct_60mas":6,"pct_migrante":14,"dependencia_econ":218,"pct_empleados":27,"pct_cuentapropia":45,"pct_agricultura":36,"pct_comercio":18,"pct_manufactura":0,"pct_construccion":9,"pct_transporte":0,"pct_alojamiento":27,"pct_sin_educacion":33,"pct_educ_superior":0,"brecha_educ":12,"pct_sin_seguro":0,"pct_sus":100,"pct_seguro_privado":0,"brecha_seguro":0,"pct_salud_publica":38,"pct_med_tradicional":7,"pct_automedicacion":7,"pct_remedios_caseros":38,"pct_viv_desocupada":0,"pct_alquiler":0,"pct_electricidad":80,"pct_sin_electricidad":20,"pct_agua_red":60,"pct_alcantarillado":0,"pct_camara_septica":0,"pct_pozo_ciego":0,"pct_sin_desague":100,"pct_gas_red":0,"pct_gas_garrafa":90,"pct_lena_guano":90,"pct_basura_formal":60,"pct_basura_quema":40,"pct_basura_informal":0,"pct_internet":80,"pct_celular":100,"pct_televisor":80}},{"type":"Feature","geometry":{"type":"Polygon","coordinates":[[[-66.04378,-18.818],[-66.04373,-18.81809],[-66.0439,-18.81817],[-66.04398,-18.818],[-66.04428,-18.81812],[-66.04441,-18.81786],[-66.04416,-18.81754],[-66.0438,-18.81759],[-66.04303,-18.81725],[-66.04272,-18.81721],[-66.04223,-18.81746],[-66.04191,-18.81816],[-66.04248,-18.81837],[-66.04267,-18.8179],[-66.04279,-18.81781],[-66.04353,-18.8181],[-66.04362,-18.81794],[-66.04378,-18.818]]]},"properties":{"n":"MACHA","p":38,"personas_x_ha":22,"masculinidad":81,"pct_menor20":29,"pct_60mas":18,"pct_migrante":32,"dependencia_econ":48,"pct_empleados":4,"pct_cuentapropia":72,"pct_agricultura":64,"pct_comercio":4,"pct_manufactura":0,"pct_construccion":8,"pct_transporte":0,"pct_alojamiento":4,"pct_sin_educacion":37,"pct_educ_superior":11,"brecha_educ":-2,"pct_sin_seguro":3,"pct_sus":89,"pct_seguro_privado":0,"brecha_seguro":6,"pct_salud_publica":37,"pct_med_tradicional":11,"pct_automedicacion":15,"pct_remedios_caseros":23,"pct_viv_desocupada":18,"pct_alquiler":0,"pct_electricidad":0,"pct_sin_electricidad":100,"pct_agua_red":0,"pct_alcantarillado":0,"pct_camara_septica":0,"pct_pozo_ciego":3,"pct_sin_desague":97,"pct_gas_red":0,"pct_gas_garrafa":55,"pct_lena_guano":55,"pct_basura_formal":0,"pct_basura_quema":66,"pct_basura_informal":28,"pct_internet":52,"pct_celular":72,"pct_televisor":17}},{"type":"Feature","geometry":{"type":"Polygon","coordinates":[[[-66.03848,-18.81938],[-66.03856,-18.81867],[-66.03865,-18.81868],[-66.03865,-18.8183],[-66.03892,-18.81768],[-66.03882,-18.81761],[-66.03866,-18.81763],[-66.03794,-18.8192],[-66.03848,-18.81938]]]},"properties":{"n":"MACHA","p":48,"personas_x_ha":64,"masculinidad":100,"pct_menor20":21,"pct_60mas":27,"pct_migrante":40,"dependencia_econ":85,"pct_empleados":19,"pct_cuentapropia":62,"pct_agricultura":38,"pct_comercio":27,"pct_manufactura":0,"pct_construccion":12,"pct_transporte":0,"pct_alojamiento":4,"pct_sin_educacion":11,"pct_educ_superior":24,"brecha_educ":8,"pct_sin_seguro":10,"pct_sus":75,"pct_seguro_privado":2,"brecha_seguro":4,"pct_salud_publica":37,"pct_med_tradicional":10,"pct_automedicacion":19,"pct_remedios_caseros":17,"pct_viv_desocupada":9,"pct_alquiler":19,"pct_electricidad":90,"pct_sin_electricidad":6,"pct_agua_red":94,"pct_alcantarillado":71,"pct_camara_septica":3,"pct_pozo_ciego":0,"pct_sin_desague":16,"pct_gas_red":0,"pct_gas_garrafa":94,"pct_lena_guano":94,"pct_basura_formal":84,"pct_basura_quema":16,"pct_basura_informal":0,"pct_internet":52,"pct_celular":94,"pct_televisor":71}},{"type":"Feature","geometry":{"type":"Polygon","coordinates":[[[-66.03646,-18.8187],[-66.03689,-18.81884],[-66.03735,-18.81799],[-66.03671,-18.81784],[-66.03646,-18.8187]]]},"properties":{"n":"MACHA","p":48,"personas_x_ha":80,"masculinidad":129,"pct_menor20":31,"pct_60mas":21,"pct_migrante":42,"dependencia_econ":140,"pct_empleados":40,"pct_cuentapropia":55,"pct_agricultura":10,"pct_comercio":40,"pct_manufactura":0,"pct_construccion":0,"pct_transporte":5,"pct_alojamiento":5,"pct_sin_educacion":3,"pct_educ_superior":50,"brecha_educ":-29,"pct_sin_seguro":17,"pct_sus":60,"pct_seguro_privado":0,"brecha_seguro":13,"pct_salud_publica":29,"pct_med_tradicional":9,"pct_automedicacion":14,"pct_remedios_caseros":24,"pct_viv_desocupada":10,"pct_alquiler":18,"pct_electricidad":96,"pct_sin_electricidad":4,"pct_agua_red":96,"pct_alcantarillado":89,"pct_camara_septica":4,"pct_pozo_ciego":0,"pct_sin_desague":7,"pct_gas_red":0,"pct_gas_garrafa":96,"pct_lena_guano":96,"pct_basura_formal":96,"pct_basura_quema":4,"pct_basura_informal":0,"pct_internet":89,"pct_celular":96,"pct_televisor":82}},{"type":"Feature","geometry":{"type":"Polygon","coordinates":[[[-66.03675,-18.82144],[-66.03686,-18.82147],[-66.0372,-18.82068],[-66.03665,-18.82058],[-66.03675,-18.82144]]]},"properties":{"n":"MACHA","p":29,"personas_x_ha":86,"masculinidad":71,"pct_menor20":41,"pct_60mas":21,"pct_migrante":45,"dependencia_econ":120,"pct_empleados":10,"pct_cuentapropia":40,"pct_agricultura":20,"pct_comercio":40,"pct_manufactura":10,"pct_construccion":20,"pct_transporte":10,"pct_alojamiento":0,"pct_sin_educacion":30,"pct_educ_superior":20,"brecha_educ":-17,"pct_sin_seguro":5,"pct_sus":95,"pct_seguro_privado":0,"brecha_seguro":-8,"pct_salud_publica":32,"pct_med_tradicional":6,"pct_automedicacion":15,"pct_remedios_caseros":32,"pct_viv_desocupada":0,"pct_alquiler":7,"pct_electricidad":80,"pct_sin_electricidad":20,"pct_agua_red":100,"pct_alcantarillado":80,"pct_camara_septica":0,"pct_pozo_ciego":0,"pct_sin_desague":20,"pct_gas_red":0,"pct_gas_garrafa":93,"pct_lena_guano":93,"pct_basura_formal":93,"pct_basura_quema":0,"pct_basura_informal":0,"pct_internet":67,"pct_celular":87,"pct_televisor":40}},{"type":"Feature","geometry":{"type":"Polygon","coordinates":[[[-66.03629,-18.82066],[-66.03656,-18.82061],[-66.03654,-18.82023],[-66.03605,-18.82024],[-66.03601,-18.82069],[-66.03586,-18.82077],[-66.03587,-18.82086],[-66.03558,-18.82094],[-66.03557,-18.82119],[-66.03605,-18.82113],[-66.03608,-18.82102],[-66.03627,-18.82104],[-66.03629,-18.82066]]]},"properties":{"n":"MACHA","p":21,"personas_x_ha":39,"masculinidad":133,"pct_menor20":38,"pct_60mas":33,"pct_migrante":33,"dependencia_econ":75,"pct_empleados":0,"pct_cuentapropia":50,"pct_agricultura":67,"pct_comercio":0,"pct_manufactura":0,"pct_construccion":0,"pct_transporte":0,"pct_alojamiento":17,"pct_sin_educacion":62,"pct_educ_superior":0,"brecha_educ":-60,"pct_sin_seguro":67,"pct_sus":24,"pct_seguro_privado":5,"brecha_seguro":0,"pct_salud_publica":37,"pct_med_tradicional":3,"pct_automedicacion":3,"pct_remedios_caseros":50,"pct_viv_desocupada":0,"pct_alquiler":8,"pct_electricidad":67,"pct_sin_electricidad":33,"pct_agua_red":8,"pct_alcantarillado":25,"pct_camara_septica":0,"pct_pozo_ciego":0,"pct_sin_desague":75,"pct_gas_red":0,"pct_gas_garrafa":75,"pct_lena_guano":75,"pct_basura_formal":67,"pct_basura_quema":25,"pct_basura_informal":0,"pct_internet":8,"pct_celular":42,"pct_televisor":42}},{"type":"Feature","geometry":{"type":"Polygon","coordinates":[[[-66.03692,-18.82188],[-66.03681,-18.82203],[-66.037,-18.82257],[-66.03741,-18.82247],[-66.03746,-18.82229],[-66.0373,-18.82224],[-66.03747,-18.82224],[-66.03752,-18.82208],[-66.03692,-18.82188]]]},"properties":{"n":"MACHA","p":26,"personas_x_ha":73,"masculinidad":53,"pct_menor20":46,"pct_60mas":15,"pct_migrante":50,"dependencia_econ":86,"pct_empleados":14,"pct_cuentapropia":64,"pct_agricultura":7,"pct_comercio":36,"pct_manufactura":0,"pct_construccion":14,"pct_transporte":7,"pct_alojamiento":0,"pct_sin_educacion":20,"pct_educ_superior":0,"brecha_educ":-17,"pct_sin_seguro":0,"pct_sus":100,"pct_seguro_privado":0,"brecha_seguro":0,"pct_salud_publica":37,"pct_med_tradicional":10,"pct_automedicacion":5,"pct_remedios_caseros":34,"pct_viv_desocupada":0,"pct_alquiler":0,"pct_electricidad":100,"pct_sin_electricidad":0,"pct_agua_red":60,"pct_alcantarillado":60,"pct_camara_septica":0,"pct_pozo_ciego":0,"pct_sin_desague":40,"pct_gas_red":0,"pct_gas_garrafa":100,"pct_lena_guano":100,"pct_basura_formal":70,"pct_basura_quema":30,"pct_basura_informal":0,"pct_internet":80,"pct_celular":80,"pct_televisor":90}},{"type":"Feature","geometry":{"type":"Polygon","coordinates":[[[-66.039,-18.81713],[-66.03867,-18.8171],[-66.03884,-18.81698],[-66.03865,-18.81693],[-66.03863,-18.81633],[-66.03848,-18.81659],[-66.03819,-18.81684],[-66.03848,-18.81697],[-66.03856,-18.81753],[-66.03869,-18.81756],[-66.03877,-18.81745],[-66.03885,-18.81746],[-66.03889,-18.81722],[-66.03899,-18.81722],[-66.039,-18.81713]]]},"properties":{"n":"MACHA","p":40,"personas_x_ha":105,"masculinidad":74,"pct_menor20":45,"pct_60mas":20,"pct_migrante":50,"dependencia_econ":217,"pct_empleados":25,"pct_cuentapropia":50,"pct_agricultura":17,"pct_comercio":17,"pct_manufactura":0,"pct_construccion":8,"pct_transporte":17,"pct_alojamiento":8,"pct_sin_educacion":24,"pct_educ_superior":29,"brecha_educ":-16,"pct_sin_seguro":16,"pct_sus":54,"pct_seguro_privado":0,"brecha_seguro":15,"pct_salud_publica":29,"pct_med_tradicional":10,"pct_automedicacion":21,"pct_remedios_caseros":27,"pct_viv_desocupada":0,"pct_alquiler":7,"pct_electricidad":87,"pct_sin_electricidad":13,"pct_agua_red":87,"pct_alcantarillado":40,"pct_camara_septica":20,"pct_pozo_ciego":0,"pct_sin_desague":40,"pct_gas_red":0,"pct_gas_garrafa":80,"pct_lena_guano":80,"pct_basura_formal":67,"pct_basura_quema":13,"pct_basura_informal":0,"pct_internet":67,"pct_celular":80,"pct_televisor":53}},{"type":"Feature","geometry":{"type":"Polygon","coordinates":[[[-66.03251,-18.8235],[-66.03198,-18.82388],[-66.03228,-18.82423],[-66.03278,-18.82382],[-66.03251,-18.8235]]]},"properties":{"n":"MACHA","p":19,"personas_x_ha":57,"masculinidad":19,"pct_menor20":68,"pct_60mas":0,"pct_migrante":37,"dependencia_econ":171,"pct_empleados":14,"pct_cuentapropia":71,"pct_agricultura":86,"pct_comercio":0,"pct_manufactura":0,"pct_construccion":0,"pct_transporte":0,"pct_alojamiento":14,"pct_sin_educacion":67,"pct_educ_superior":0,"brecha_educ":null,"pct_sin_seguro":16,"pct_sus":84,"pct_seguro_privado":0,"brecha_seguro":60,"pct_salud_publica":55,"pct_med_tradicional":10,"pct_automedicacion":0,"pct_remedios_caseros":24,"pct_viv_desocupada":11,"pct_alquiler":14,"pct_electricidad":71,"pct_sin_electricidad":29,"pct_agua_red":0,"pct_alcantarillado":0,"pct_camara_septica":0,"pct_pozo_ciego":0,"pct_sin_desague":100,"pct_gas_red":0,"pct_gas_garrafa":29,"pct_lena_guano":29,"pct_basura_formal":43,"pct_basura_quema":14,"pct_basura_informal":86,"pct_internet":71,"pct_celular":86,"pct_televisor":29}},{"type":"Feature","geometry":{"type":"Polygon","coordinates":[[[-66.03638,-18.82129],[-66.0367,-18.82143],[-66.03662,-18.82081],[-66.03638,-18.82129]]]},"properties":{"n":"MACHA","p":18,"personas_x_ha":162,"masculinidad":100,"pct_menor20":50,"pct_60mas":11,"pct_migrante":22,"dependencia_econ":157,"pct_empleados":29,"pct_cuentapropia":43,"pct_agricultura":43,"pct_comercio":0,"pct_manufactura":0,"pct_construccion":14,"pct_transporte":14,"pct_alojamiento":0,"pct_sin_educacion":11,"pct_educ_superior":22,"brecha_educ":-35,"pct_sin_seguro":28,"pct_sus":72,"pct_seguro_privado":0,"brecha_seguro":11,"pct_salud_publica":23,"pct_med_tradicional":24,"pct_automedicacion":22,"pct_remedios_caseros":24,"pct_viv_desocupada":0,"pct_alquiler":0,"pct_electricidad":100,"pct_sin_electricidad":0,"pct_agua_red":83,"pct_alcantarillado":50,"pct_camara_septica":0,"pct_pozo_ciego":0,"pct_sin_desague":50,"pct_gas_red":0,"pct_gas_garrafa":100,"pct_lena_guano":100,"pct_basura_formal":83,"pct_basura_quema":17,"pct_basura_informal":0,"pct_internet":67,"pct_celular":83,"pct_televisor":50}},{"type":"Feature","geometry":{"type":"Polygon","coordinates":[[[-66.03697,-18.81887],[-66.03787,-18.81918],[-66.03824,-18.81836],[-66.03741,-18.81804],[-66.03697,-18.81887]]]},"properties":{"n":"MACHA","p":53,"personas_x_ha":54,"masculinidad":96,"pct_menor20":21,"pct_60mas":30,"pct_migrante":42,"dependencia_econ":117,"pct_empleados":29,"pct_cuentapropia":54,"pct_agricultura":4,"pct_comercio":17,"pct_manufactura":12,"pct_construccion":4,"pct_transporte":17,"pct_alojamiento":4,"pct_sin_educacion":7,"pct_educ_superior":24,"brecha_educ":-14,"pct_sin_seguro":4,"pct_sus":76,"pct_seguro_privado":0,"brecha_seguro":0,"pct_salud_publica":33,"pct_med_tradicional":13,"pct_automedicacion":12,"pct_remedios_caseros":21,"pct_viv_desocupada":8,"pct_alquiler":10,"pct_electricidad":100,"pct_sin_electricidad":0,"pct_agua_red":100,"pct_alcantarillado":100,"pct_camara_septica":0,"pct_pozo_ciego":0,"pct_sin_desague":0,"pct_gas_red":0,"pct_gas_garrafa":93,"pct_lena_guano":93,"pct_basura_formal":93,"pct_basura_quema":3,"pct_basura_informal":0,"pct_internet":83,"pct_celular":93,"pct_televisor":79}},{"type":"Feature","geometry":{"type":"Polygon","coordinates":[[[-66.03825,-18.82154],[-66.03869,-18.82088],[-66.03878,-18.82057],[-66.03844,-18.82007],[-66.0383,-18.82009],[-66.03778,-18.82042],[-66.038,-18.82058],[-66.0378,-18.82093],[-66.0379,-18.82056],[-66.03773,-18.82043],[-66.03793,-18.82024],[-66.03758,-18.82003],[-66.0372,-18.82083],[-66.03739,-18.82088],[-66.0372,-18.82084],[-66.03677,-18.8218],[-66.03777,-18.82201],[-66.03801,-18.82213],[-66.03818,-18.82209],[-66.03829,-18.82185],[-66.03825,-18.82154]]]},"properties":{"n":"MACHA","p":60,"personas_x_ha":20,"masculinidad":40,"pct_menor20":23,"pct_60mas":25,"pct_migrante":20,"dependencia_econ":138,"pct_empleados":33,"pct_cuentapropia":58,"pct_agricultura":29,"pct_comercio":21,"pct_manufactura":8,"pct_construccion":8,"pct_transporte":8,"pct_alojamiento":4,"pct_sin_educacion":12,"pct_educ_superior":9,"brecha_educ":-20,"pct_sin_seguro":20,"pct_sus":74,"pct_seguro_privado":2,"brecha_seguro":7,"pct_salud_publica":36,"pct_med_tradicional":10,"pct_automedicacion":18,"pct_remedios_caseros":28,"pct_viv_desocupada":9,"pct_alquiler":3,"pct_electricidad":88,"pct_sin_electricidad":12,"pct_agua_red":70,"pct_alcantarillado":64,"pct_camara_septica":0,"pct_pozo_ciego":0,"pct_sin_desague":36,"pct_gas_red":0,"pct_gas_garrafa":88,"pct_lena_guano":88,"pct_basura_formal":88,"pct_basura_quema":9,"pct_basura_informal":0,"pct_internet":45,"pct_celular":67,"pct_televisor":48}},{"type":"Feature","geometry":{"type":"Polygon","coordinates":[[[-66.10652,-18.85749],[-66.1057,-18.85724],[-66.10552,-18.85769],[-66.10639,-18.8579],[-66.10652,-18.85749]]]},"properties":{"n":"PAMPA COLORADA","p":26,"personas_x_ha":54,"masculinidad":117,"pct_menor20":27,"pct_60mas":23,"pct_migrante":31,"dependencia_econ":62,"pct_empleados":6,"pct_cuentapropia":62,"pct_agricultura":38,"pct_comercio":38,"pct_manufactura":0,"pct_construccion":25,"pct_transporte":0,"pct_alojamiento":0,"pct_sin_educacion":21,"pct_educ_superior":11,"brecha_educ":-40,"pct_sin_seguro":23,"pct_sus":77,"pct_seguro_privado":0,"brecha_seguro":-19,"pct_salud_publica":24,"pct_med_tradicional":15,"pct_automedicacion":24,"pct_remedios_caseros":24,"pct_viv_desocupada":0,"pct_alquiler":0,"pct_electricidad":86,"pct_sin_electricidad":14,"pct_agua_red":0,"pct_alcantarillado":0,"pct_camara_septica":0,"pct_pozo_ciego":0,"pct_sin_desague":93,"pct_gas_red":0,"pct_gas_garrafa":86,"pct_lena_guano":86,"pct_basura_formal":21,"pct_basura_quema":57,"pct_basura_informal":0,"pct_internet":93,"pct_celular":100,"pct_televisor":36}},{"type":"Feature","geometry":{"type":"Polygon","coordinates":[[[-66.10285,-18.85872],[-66.10309,-18.85813],[-66.10242,-18.85787],[-66.10223,-18.85831],[-66.10285,-18.85872]]]},"properties":{"n":"PAMPA COLORADA","p":27,"personas_x_ha":57,"masculinidad":145,"pct_menor20":41,"pct_60mas":7,"pct_migrante":7,"dependencia_econ":62,"pct_empleados":6,"pct_cuentapropia":56,"pct_agricultura":75,"pct_comercio":0,"pct_manufactura":0,"pct_construccion":6,"pct_transporte":0,"pct_alojamiento":0,"pct_sin_educacion":38,"pct_educ_superior":6,"brecha_educ":3,"pct_sin_seguro":19,"pct_sus":81,"pct_seguro_privado":0,"brecha_seguro":-14,"pct_salud_publica":45,"pct_med_tradicional":5,"pct_automedicacion":0,"pct_remedios_caseros":42,"pct_viv_desocupada":0,"pct_alquiler":0,"pct_electricidad":55,"pct_sin_electricidad":45,"pct_agua_red":0,"pct_alcantarillado":0,"pct_camara_septica":0,"pct_pozo_ciego":27,"pct_sin_desague":64,"pct_gas_red":0,"pct_gas_garrafa":45,"pct_lena_guano":45,"pct_basura_formal":0,"pct_basura_quema":55,"pct_basura_informal":0,"pct_internet":64,"pct_celular":82,"pct_televisor":18}},{"type":"Feature","geometry":{"type":"Polygon","coordinates":[[[-66.10454,-18.85759],[-66.1043,-18.858],[-66.10466,-18.85812],[-66.1049,-18.85771],[-66.10454,-18.85759]]]},"properties":{"n":"PAMPA COLORADA","p":25,"personas_x_ha":119,"masculinidad":92,"pct_menor20":12,"pct_60mas":40,"pct_migrante":4,"dependencia_econ":39,"pct_empleados":17,"pct_cuentapropia":61,"pct_agricultura":61,"pct_comercio":22,"pct_manufactura":6,"pct_construccion":0,"pct_transporte":0,"pct_alojamiento":6,"pct_sin_educacion":55,"pct_educ_superior":14,"brecha_educ":-12,"pct_sin_seguro":8,"pct_sus":88,"pct_seguro_privado":0,"brecha_seguro":1,"pct_salud_publica":39,"pct_med_tradicional":10,"pct_automedicacion":15,"pct_remedios_caseros":31,"pct_viv_desocupada":0,"pct_alquiler":20,"pct_electricidad":100,"pct_sin_electricidad":0,"pct_agua_red":0,"pct_alcantarillado":20,"pct_camara_septica":0,"pct_pozo_ciego":30,"pct_sin_desague":40,"pct_gas_red":0,"pct_gas_garrafa":80,"pct_lena_guano":80,"pct_basura_formal":20,"pct_basura_quema":30,"pct_basura_informal":0,"pct_internet":40,"pct_celular":80,"pct_televisor":50}},{"type":"Feature","geometry":{"type":"Polygon","coordinates":[[[-66.10399,-18.8579],[-66.10426,-18.85798],[-66.10448,-18.85757],[-66.10412,-18.85746],[-66.10399,-18.8579]]]},"properties":{"n":"PAMPA COLORADA","p":34,"personas_x_ha":185,"masculinidad":62,"pct_menor20":29,"pct_60mas":18,"pct_migrante":26,"dependencia_econ":67,"pct_empleados":6,"pct_cuentapropia":39,"pct_agricultura":72,"pct_comercio":28,"pct_manufactura":0,"pct_construccion":0,"pct_transporte":0,"pct_alojamiento":0,"pct_sin_educacion":67,"pct_educ_superior":12,"brecha_educ":6,"pct_sin_seguro":3,"pct_sus":97,"pct_seguro_privado":0,"brecha_seguro":9,"pct_salud_publica":44,"pct_med_tradicional":12,"pct_automedicacion":0,"pct_remedios_caseros":39,"pct_viv_desocupada":0,"pct_alquiler":0,"pct_electricidad":100,"pct_sin_electricidad":0,"pct_agua_red":0,"pct_alcantarillado":0,"pct_camara_septica":0,"pct_pozo_ciego":22,"pct_sin_desague":78,"pct_gas_red":0,"pct_gas_garrafa":100,"pct_lena_guano":100,"pct_basura_formal":0,"pct_basura_quema":78,"pct_basura_informal":22,"pct_internet":56,"pct_celular":78,"pct_televisor":56}},{"type":"Feature","geometry":{"type":"Polygon","coordinates":[[[-66.10525,-18.85712],[-66.10432,-18.8569],[-66.10406,-18.85712],[-66.10403,-18.85724],[-66.10501,-18.85754],[-66.10525,-18.85712]]]},"properties":{"n":"PAMPA COLORADA","p":63,"personas_x_ha":116,"masculinidad":85,"pct_menor20":29,"pct_60mas":6,"pct_migrante":41,"dependencia_econ":56,"pct_empleados":13,"pct_cuentapropia":64,"pct_agricultura":33,"pct_comercio":31,"pct_manufactura":0,"pct_construccion":15,"pct_transporte":5,"pct_alojamiento":0,"pct_sin_educacion":9,"pct_educ_superior":9,"brecha_educ":9,"pct_sin_seguro":27,"pct_sus":63,"pct_seguro_privado":0,"brecha_seguro":12,"pct_salud_publica":31,"pct_med_tradicional":5,"pct_automedicacion":17,"pct_remedios_caseros":30,"pct_viv_desocupada":0,"pct_alquiler":16,"pct_electricidad":100,"pct_sin_electricidad":0,"pct_agua_red":0,"pct_alcantarillado":0,"pct_camara_septica":0,"pct_pozo_ciego":16,"pct_sin_desague":84,"pct_gas_red":0,"pct_gas_garrafa":100,"pct_lena_guano":100,"pct_basura_formal":16,"pct_basura_quema":84,"pct_basura_informal":0,"pct_internet":84,"pct_celular":100,"pct_televisor":63}},{"type":"Feature","geometry":{"type":"Polygon","coordinates":[[[-66.10604,-18.85803],[-66.10546,-18.85784],[-66.10525,-18.85831],[-66.10641,-18.85868],[-66.10649,-18.85865],[-66.10659,-18.85834],[-66.10604,-18.85803]]]},"properties":{"n":"PAMPA COLORADA","p":20,"personas_x_ha":28,"masculinidad":54,"pct_menor20":25,"pct_60mas":50,"pct_migrante":10,"dependencia_econ":27,"pct_empleados":7,"pct_cuentapropia":93,"pct_agricultura":27,"pct_comercio":27,"pct_manufactura":7,"pct_construccion":7,"pct_transporte":0,"pct_alojamiento":20,"pct_sin_educacion":29,"pct_educ_superior":14,"brecha_educ":21,"pct_sin_seguro":5,"pct_sus":95,"pct_seguro_privado":0,"brecha_seguro":-8,"pct_salud_publica":39,"pct_med_tradicional":14,"pct_automedicacion":12,"pct_remedios_caseros":27,"pct_viv_desocupada":13,"pct_alquiler":0,"pct_electricidad":100,"pct_sin_electricidad":0,"pct_agua_red":0,"pct_alcantarillado":0,"pct_camara_septica":0,"pct_pozo_ciego":33,"pct_sin_desague":67,"pct_gas_red":0,"pct_gas_garrafa":89,"pct_lena_guano":89,"pct_basura_formal":44,"pct_basura_quema":22,"pct_basura_informal":0,"pct_internet":67,"pct_celular":89,"pct_televisor":44}},{"type":"Feature","geometry":{"type":"Polygon","coordinates":[[[-66.10333,-18.85776],[-66.1031,-18.85836],[-66.10368,-18.85853],[-66.10389,-18.85793],[-66.10333,-18.85776]]]},"properties":{"n":"PAMPA COLORADA","p":51,"personas_x_ha":114,"masculinidad":76,"pct_menor20":37,"pct_60mas":16,"pct_migrante":20,"dependencia_econ":122,"pct_empleados":13,"pct_cuentapropia":52,"pct_agricultura":61,"pct_comercio":4,"pct_manufactura":0,"pct_construccion":17,"pct_transporte":0,"pct_alojamiento":4,"pct_sin_educacion":27,"pct_educ_superior":12,"brecha_educ":-11,"pct_sin_seguro":16,"pct_sus":78,"pct_seguro_privado":0,"brecha_seguro":-3,"pct_salud_publica":36,"pct_med_tradicional":13,"pct_automedicacion":6,"pct_remedios_caseros":32,"pct_viv_desocupada":0,"pct_alquiler":0,"pct_electricidad":93,"pct_sin_electricidad":7,"pct_agua_red":0,"pct_alcantarillado":0,"pct_camara_septica":0,"pct_pozo_ciego":53,"pct_sin_desague":47,"pct_gas_red":0,"pct_gas_garrafa":93,"pct_lena_guano":93,"pct_basura_formal":7,"pct_basura_quema":60,"pct_basura_informal":27,"pct_internet":93,"pct_celular":93,"pct_televisor":73}},{"type":"Feature","geometry":{"type":"Polygon","coordinates":[[[-66.10543,-18.85765],[-66.10565,-18.85723],[-66.10529,-18.85714],[-66.10509,-18.85754],[-66.10543,-18.85765]]]},"properties":{"n":"PAMPA COLORADA","p":16,"personas_x_ha":78,"masculinidad":78,"pct_menor20":25,"pct_60mas":25,"pct_migrante":0,"dependencia_econ":60,"pct_empleados":0,"pct_cuentapropia":50,"pct_agricultura":40,"pct_comercio":30,"pct_manufactura":0,"pct_construccion":20,"pct_transporte":0,"pct_alojamiento":0,"pct_sin_educacion":33,"pct_educ_superior":0,"brecha_educ":-11,"pct_sin_seguro":19,"pct_sus":62,"pct_seguro_privado":0,"brecha_seguro":-8,"pct_salud_publica":21,"pct_med_tradicional":10,"pct_automedicacion":23,"pct_remedios_caseros":29,"pct_viv_desocupada":0,"pct_alquiler":0,"pct_electricidad":86,"pct_sin_electricidad":14,"pct_agua_red":0,"pct_alcantarillado":0,"pct_camara_septica":0,"pct_pozo_ciego":0,"pct_sin_desague":100,"pct_gas_red":0,"pct_gas_garrafa":100,"pct_lena_guano":100,"pct_basura_formal":0,"pct_basura_quema":100,"pct_basura_informal":0,"pct_internet":57,"pct_celular":71,"pct_televisor":29}},{"type":"Feature","geometry":{"type":"Polygon","coordinates":[[[-66.10398,-18.85911],[-66.10407,-18.85883],[-66.10417,-18.85885],[-66.1042,-18.85877],[-66.10373,-18.85863],[-66.1036,-18.85902],[-66.10398,-18.85911]]]},"properties":{"n":"PAMPA COLORADA","p":17,"personas_x_ha":89,"masculinidad":70,"pct_menor20":29,"pct_60mas":35,"pct_migrante":41,"dependencia_econ":60,"pct_empleados":0,"pct_cuentapropia":50,"pct_agricultura":60,"pct_comercio":0,"pct_manufactura":20,"pct_construccion":20,"pct_transporte":0,"pct_alojamiento":0,"pct_sin_educacion":55,"pct_educ_superior":0,"brecha_educ":-3,"pct_sin_seguro":6,"pct_sus":94,"pct_seguro_privado":0,"brecha_seguro":-11,"pct_salud_publica":33,"pct_med_tradicional":4,"pct_automedicacion":21,"pct_remedios_caseros":33,"pct_viv_desocupada":0,"pct_alquiler":0,"pct_electricidad":57,"pct_sin_electricidad":29,"pct_agua_red":0,"pct_alcantarillado":0,"pct_camara_septica":0,"pct_pozo_ciego":0,"pct_sin_desague":100,"pct_gas_red":0,"pct_gas_garrafa":86,"pct_lena_guano":86,"pct_basura_formal":0,"pct_basura_quema":57,"pct_basura_informal":0,"pct_internet":29,"pct_celular":57,"pct_televisor":29}},{"type":"Feature","geometry":{"type":"Polygon","coordinates":[[[-66.10405,-18.85743],[-66.10378,-18.85734],[-66.10356,-18.85713],[-66.10333,-18.8577],[-66.10391,-18.85785],[-66.10405,-18.85743]]]},"properties":{"n":"PAMPA COLORADA","p":22,"personas_x_ha":64,"masculinidad":69,"pct_menor20":50,"pct_60mas":27,"pct_migrante":23,"dependencia_econ":133,"pct_empleados":0,"pct_cuentapropia":33,"pct_agricultura":33,"pct_comercio":44,"pct_manufactura":0,"pct_construccion":0,"pct_transporte":0,"pct_alojamiento":0,"pct_sin_educacion":40,"pct_educ_superior":0,"brecha_educ":29,"pct_sin_seguro":10,"pct_sus":76,"pct_seguro_privado":14,"brecha_seguro":5,"pct_salud_publica":27,"pct_med_tradicional":10,"pct_automedicacion":10,"pct_remedios_caseros":23,"pct_viv_desocupada":9,"pct_alquiler":0,"pct_electricidad":75,"pct_sin_electricidad":25,"pct_agua_red":0,"pct_alcantarillado":0,"pct_camara_septica":0,"pct_pozo_ciego":25,"pct_sin_desague":75,"pct_gas_red":0,"pct_gas_garrafa":100,"pct_lena_guano":100,"pct_basura_formal":0,"pct_basura_quema":12,"pct_basura_informal":25,"pct_internet":75,"pct_celular":88,"pct_televisor":50}},{"type":"Feature","geometry":{"type":"Polygon","coordinates":[[[-66.10367,-18.85861],[-66.10305,-18.85842],[-66.10291,-18.85879],[-66.10343,-18.85914],[-66.1035,-18.85911],[-66.10367,-18.85861]]]},"properties":{"n":"PAMPA COLORADA","p":16,"personas_x_ha":42,"masculinidad":167,"pct_menor20":25,"pct_60mas":6,"pct_migrante":19,"dependencia_econ":60,"pct_empleados":10,"pct_cuentapropia":90,"pct_agricultura":30,"pct_comercio":40,"pct_manufactura":0,"pct_construccion":30,"pct_transporte":0,"pct_alojamiento":0,"pct_sin_educacion":17,"pct_educ_superior":8,"brecha_educ":-23,"pct_sin_seguro":12,"pct_sus":81,"pct_seguro_privado":6,"brecha_seguro":20,"pct_salud_publica":25,"pct_med_tradicional":6,"pct_automedicacion":19,"pct_remedios_caseros":29,"pct_viv_desocupada":38,"pct_alquiler":0,"pct_electricidad":86,"pct_sin_electricidad":14,"pct_agua_red":29,"pct_alcantarillado":0,"pct_camara_septica":14,"pct_pozo_ciego":0,"pct_sin_desague":86,"pct_gas_red":0,"pct_gas_garrafa":100,"pct_lena_guano":100,"pct_basura_formal":14,"pct_basura_quema":71,"pct_basura_informal":0,"pct_internet":86,"pct_celular":86,"pct_televisor":29}},{"type":"Feature","geometry":{"type":"Polygon","coordinates":[[[-66.10394,-18.85798],[-66.10375,-18.85858],[-66.10431,-18.85874],[-66.10463,-18.85819],[-66.10394,-18.85798]]]},"properties":{"n":"PAMPA COLORADA","p":28,"personas_x_ha":57,"masculinidad":155,"pct_menor20":0,"pct_60mas":25,"pct_migrante":0,"dependencia_econ":87,"pct_empleados":0,"pct_cuentapropia":80,"pct_agricultura":73,"pct_comercio":7,"pct_manufactura":7,"pct_construccion":13,"pct_transporte":0,"pct_alojamiento":0,"pct_sin_educacion":39,"pct_educ_superior":4,"brecha_educ":6,"pct_sin_seguro":46,"pct_sus":54,"pct_seguro_privado":0,"brecha_seguro":2,"pct_salud_publica":28,"pct_med_tradicional":16,"pct_automedicacion":10,"pct_remedios_caseros":24,"pct_viv_desocupada":0,"pct_alquiler":0,"pct_electricidad":70,"pct_sin_electricidad":30,"pct_agua_red":0,"pct_alcantarillado":0,"pct_camara_septica":0,"pct_pozo_ciego":0,"pct_sin_desague":100,"pct_gas_red":0,"pct_gas_garrafa":75,"pct_lena_guano":75,"pct_basura_formal":5,"pct_basura_quema":70,"pct_basura_informal":0,"pct_internet":85,"pct_celular":85,"pct_televisor":10}},{"type":"Feature","geometry":{"type":"Polygon","coordinates":[[[-66.10516,-18.85835],[-66.10469,-18.85819],[-66.10435,-18.85875],[-66.10491,-18.85894],[-66.10516,-18.85835]]]},"properties":{"n":"PAMPA COLORADA","p":15,"personas_x_ha":37,"masculinidad":275,"pct_menor20":7,"pct_60mas":20,"pct_migrante":20,"dependencia_econ":7,"pct_empleados":21,"pct_cuentapropia":43,"pct_agricultura":64,"pct_comercio":7,"pct_manufactura":14,"pct_construccion":7,"pct_transporte":0,"pct_alojamiento":0,"pct_sin_educacion":14,"pct_educ_superior":14,"brecha_educ":-15,"pct_sin_seguro":0,"pct_sus":100,"pct_seguro_privado":0,"brecha_seguro":0,"pct_salud_publica":33,"pct_med_tradicional":4,"pct_automedicacion":11,"pct_remedios_caseros":26,"pct_viv_desocupada":0,"pct_alquiler":14,"pct_electricidad":86,"pct_sin_electricidad":14,"pct_agua_red":0,"pct_alcantarillado":14,"pct_camara_septica":0,"pct_pozo_ciego":0,"pct_sin_desague":86,"pct_gas_red":0,"pct_gas_garrafa":100,"pct_lena_guano":100,"pct_basura_formal":0,"pct_basura_quema":100,"pct_basura_informal":0,"pct_internet":14,"pct_celular":86,"pct_televisor":43}},{"type":"Feature","geometry":{"type":"Polygon","coordinates":[[[-66.10574,-18.85715],[-66.1066,-18.85738],[-66.10693,-18.85688],[-66.10595,-18.85663],[-66.10574,-18.85715]]]},"properties":{"n":"PAMPA COLORADA","p":23,"personas_x_ha":37,"masculinidad":92,"pct_menor20":52,"pct_60mas":4,"pct_migrante":22,"dependencia_econ":283,"pct_empleados":17,"pct_cuentapropia":33,"pct_agricultura":83,"pct_comercio":0,"pct_manufactura":0,"pct_construccion":0,"pct_transporte":0,"pct_alojamiento":0,"pct_sin_educacion":9,"pct_educ_superior":0,"brecha_educ":27,"pct_sin_seguro":13,"pct_sus":83,"pct_seguro_privado":4,"brecha_seguro":10,"pct_salud_publica":40,"pct_med_tradicional":5,"pct_automedicacion":11,"pct_remedios_caseros":32,"pct_viv_desocupada":0,"pct_alquiler":14,"pct_electricidad":86,"pct_sin_electricidad":14,"pct_agua_red":0,"pct_alcantarillado":0,"pct_camara_septica":0,"pct_pozo_ciego":29,"pct_sin_desague":71,"pct_gas_red":0,"pct_gas_garrafa":86,"pct_lena_guano":86,"pct_basura_formal":0,"pct_basura_quema":57,"pct_basura_informal":0,"pct_internet":57,"pct_celular":100,"pct_televisor":71}}]}