{"type":"FeatureCollection","features":[{"type":"Feature","geometry":{"type":"Polygon","coordinates":[[[-66.37758,-20.09579],[-66.37702,-20.09574],[-66.37678,-20.09511],[-66.37637,-20.0953],[-66.37661,-20.09571],[-66.37696,-20.09592],[-66.37758,-20.0959],[-66.37758,-20.09579]]]},"properties":{"n":"CALAZAYA","p":16,"personas_x_ha":38,"masculinidad":100,"pct_menor20":38,"pct_60mas":6,"pct_migrante":6,"dependencia_econ":220,"pct_empleados":40,"pct_cuentapropia":40,"pct_agricultura":20,"pct_comercio":20,"pct_manufactura":0,"pct_construccion":20,"pct_transporte":20,"pct_alojamiento":0,"pct_sin_educacion":0,"pct_educ_superior":18,"brecha_educ":-29,"pct_sin_seguro":0,"pct_sus":100,"pct_seguro_privado":0,"brecha_seguro":0,"pct_salud_publica":35,"pct_med_tradicional":8,"pct_automedicacion":0,"pct_remedios_caseros":43,"pct_viv_desocupada":0,"pct_alquiler":0,"pct_electricidad":100,"pct_sin_electricidad":0,"pct_agua_red":86,"pct_alcantarillado":0,"pct_camara_septica":0,"pct_pozo_ciego":0,"pct_sin_desague":100,"pct_gas_red":0,"pct_gas_garrafa":100,"pct_lena_guano":100,"pct_basura_formal":43,"pct_basura_quema":57,"pct_basura_informal":0,"pct_internet":29,"pct_celular":100,"pct_televisor":71}},{"type":"Feature","geometry":{"type":"Polygon","coordinates":[[[-66.37773,-20.09668],[-66.37823,-20.09664],[-66.37822,-20.09638],[-66.37771,-20.0964],[-66.37773,-20.09668]]]},"properties":{"n":"CALAZAYA","p":16,"personas_x_ha":96,"masculinidad":129,"pct_menor20":25,"pct_60mas":31,"pct_migrante":19,"dependencia_econ":60,"pct_empleados":70,"pct_cuentapropia":30,"pct_agricultura":30,"pct_comercio":0,"pct_manufactura":0,"pct_construccion":20,"pct_transporte":0,"pct_alojamiento":0,"pct_sin_educacion":8,"pct_educ_superior":42,"brecha_educ":-17,"pct_sin_seguro":0,"pct_sus":75,"pct_seguro_privado":19,"brecha_seguro":0,"pct_salud_publica":18,"pct_med_tradicional":21,"pct_automedicacion":18,"pct_remedios_caseros":21,"pct_viv_desocupada":0,"pct_alquiler":12,"pct_electricidad":100,"pct_sin_electricidad":0,"pct_agua_red":100,"pct_alcantarillado":0,"pct_camara_septica":0,"pct_pozo_ciego":38,"pct_sin_desague":62,"pct_gas_red":0,"pct_gas_garrafa":100,"pct_lena_guano":100,"pct_basura_formal":25,"pct_basura_quema":38,"pct_basura_informal":0,"pct_internet":100,"pct_celular":100,"pct_televisor":88}},{"type":"Feature","geometry":{"type":"Polygon","coordinates":[[[-66.37985,-20.09613],[-66.37999,-20.09697],[-66.38042,-20.09692],[-66.38041,-20.09658],[-66.38114,-20.09645],[-66.38129,-20.09577],[-66.37985,-20.09613]]]},"properties":{"n":"CALAZAYA","p":24,"personas_x_ha":23,"masculinidad":85,"pct_menor20":33,"pct_60mas":12,"pct_migrante":25,"dependencia_econ":118,"pct_empleados":27,"pct_cuentapropia":73,"pct_agricultura":18,"pct_comercio":9,"pct_manufactura":0,"pct_construccion":27,"pct_transporte":0,"pct_alojamiento":0,"pct_sin_educacion":0,"pct_educ_superior":31,"brecha_educ":-25,"pct_sin_seguro":17,"pct_sus":79,"pct_seguro_privado":0,"brecha_seguro":36,"pct_salud_publica":37,"pct_med_tradicional":3,"pct_automedicacion":7,"pct_remedios_caseros":25,"pct_viv_desocupada":0,"pct_alquiler":10,"pct_electricidad":90,"pct_sin_electricidad":10,"pct_agua_red":100,"pct_alcantarillado":0,"pct_camara_septica":10,"pct_pozo_ciego":50,"pct_sin_desague":40,"pct_gas_red":0,"pct_gas_garrafa":90,"pct_lena_guano":90,"pct_basura_formal":70,"pct_basura_quema":20,"pct_basura_informal":0,"pct_internet":100,"pct_celular":100,"pct_televisor":90}},{"type":"Feature","geometry":{"type":"Polygon","coordinates":[[[-66.37815,-20.09592],[-66.37764,-20.09594],[-66.37768,-20.09636],[-66.3782,-20.09631],[-66.37815,-20.09592]]]},"properties":{"n":"CALAZAYA","p":17,"personas_x_ha":70,"masculinidad":31,"pct_menor20":35,"pct_60mas":24,"pct_migrante":41,"dependencia_econ":143,"pct_empleados":14,"pct_cuentapropia":43,"pct_agricultura":43,"pct_comercio":14,"pct_manufactura":0,"pct_construccion":0,"pct_transporte":0,"pct_alojamiento":0,"pct_sin_educacion":9,"pct_educ_superior":27,"brecha_educ":28,"pct_sin_seguro":12,"pct_sus":88,"pct_seguro_privado":0,"brecha_seguro":-15,"pct_salud_publica":19,"pct_med_tradicional":9,"pct_automedicacion":9,"pct_remedios_caseros":23,"pct_viv_desocupada":0,"pct_alquiler":0,"pct_electricidad":100,"pct_sin_electricidad":0,"pct_agua_red":100,"pct_alcantarillado":0,"pct_camara_septica":0,"pct_pozo_ciego":40,"pct_sin_desague":60,"pct_gas_red":0,"pct_gas_garrafa":100,"pct_lena_guano":100,"pct_basura_formal":60,"pct_basura_quema":20,"pct_basura_informal":40,"pct_internet":80,"pct_celular":100,"pct_televisor":80}},{"type":"Feature","geometry":{"type":"Polygon","coordinates":[[[-66.37679,-20.09599],[-66.37682,-20.09643],[-66.37764,-20.09637],[-66.37759,-20.09594],[-66.37679,-20.09599]]]},"properties":{"n":"CALAZAYA","p":19,"personas_x_ha":46,"masculinidad":73,"pct_menor20":42,"pct_60mas":0,"pct_migrante":16,"dependencia_econ":138,"pct_empleados":62,"pct_cuentapropia":25,"pct_agricultura":38,"pct_comercio":0,"pct_manufactura":0,"pct_construccion":0,"pct_transporte":0,"pct_alojamiento":0,"pct_sin_educacion":0,"pct_educ_superior":73,"brecha_educ":0,"pct_sin_seguro":0,"pct_sus":89,"pct_seguro_privado":0,"brecha_seguro":0,"pct_salud_publica":17,"pct_med_tradicional":4,"pct_automedicacion":8,"pct_remedios_caseros":26,"pct_viv_desocupada":0,"pct_alquiler":0,"pct_electricidad":86,"pct_sin_electricidad":0,"pct_agua_red":100,"pct_alcantarillado":0,"pct_camara_septica":0,"pct_pozo_ciego":14,"pct_sin_desague":86,"pct_gas_red":0,"pct_gas_garrafa":100,"pct_lena_guano":100,"pct_basura_formal":86,"pct_basura_quema":14,"pct_basura_informal":0,"pct_internet":71,"pct_celular":86,"pct_televisor":57}},{"type":"Feature","geometry":{"type":"Polygon","coordinates":[[[-66.37776,-20.09781],[-66.37828,-20.09797],[-66.3784,-20.09715],[-66.37737,-20.09725],[-66.37737,-20.0974],[-66.3775,-20.09739],[-66.37754,-20.09774],[-66.37775,-20.09774],[-66.37776,-20.09781]]]},"properties":{"n":"CALAZAYA","p":22,"personas_x_ha":33,"masculinidad":69,"pct_menor20":55,"pct_60mas":5,"pct_migrante":45,"dependencia_econ":91,"pct_empleados":18,"pct_cuentapropia":45,"pct_agricultura":27,"pct_comercio":0,"pct_manufactura":0,"pct_construccion":9,"pct_transporte":0,"pct_alojamiento":0,"pct_sin_educacion":0,"pct_educ_superior":73,"brecha_educ":0,"pct_sin_seguro":0,"pct_sus":90,"pct_seguro_privado":0,"brecha_seguro":0,"pct_salud_publica":32,"pct_med_tradicional":3,"pct_automedicacion":21,"pct_remedios_caseros":29,"pct_viv_desocupada":0,"pct_alquiler":0,"pct_electricidad":100,"pct_sin_electricidad":0,"pct_agua_red":100,"pct_alcantarillado":12,"pct_camara_septica":0,"pct_pozo_ciego":50,"pct_sin_desague":38,"pct_gas_red":0,"pct_gas_garrafa":100,"pct_lena_guano":100,"pct_basura_formal":100,"pct_basura_quema":0,"pct_basura_informal":0,"pct_internet":88,"pct_celular":88,"pct_televisor":75}},{"type":"Feature","geometry":{"type":"Polygon","coordinates":[[[-66.82452,-20.00533],[-66.82426,-20.00582],[-66.82482,-20.00591],[-66.82497,-20.00554],[-66.82452,-20.00533]]]},"properties":{"n":"KELUYO CUSCO","p":18,"personas_x_ha":57,"masculinidad":80,"pct_menor20":39,"pct_60mas":6,"pct_migrante":17,"dependencia_econ":55,"pct_empleados":0,"pct_cuentapropia":82,"pct_agricultura":55,"pct_comercio":36,"pct_manufactura":0,"pct_construccion":0,"pct_transporte":9,"pct_alojamiento":0,"pct_sin_educacion":0,"pct_educ_superior":18,"brecha_educ":-3,"pct_sin_seguro":6,"pct_sus":94,"pct_seguro_privado":0,"brecha_seguro":-11,"pct_salud_publica":31,"pct_med_tradicional":11,"pct_automedicacion":20,"pct_remedios_caseros":26,"pct_viv_desocupada":0,"pct_alquiler":0,"pct_electricidad":80,"pct_sin_electricidad":20,"pct_agua_red":20,"pct_alcantarillado":0,"pct_camara_septica":0,"pct_pozo_ciego":0,"pct_sin_desague":100,"pct_gas_red":0,"pct_gas_garrafa":100,"pct_lena_guano":100,"pct_basura_formal":20,"pct_basura_quema":20,"pct_basura_informal":0,"pct_internet":100,"pct_celular":100,"pct_televisor":80}},{"type":"Feature","geometry":{"type":"Polygon","coordinates":[[[-66.22717,-19.87521],[-66.22725,-19.87483],[-66.22664,-19.87465],[-66.22648,-19.87495],[-66.22676,-19.875],[-66.22684,-19.87509],[-66.22693,-19.87506],[-66.22717,-19.87521]]]},"properties":{"n":"TACORA","p":33,"personas_x_ha":126,"masculinidad":74,"pct_menor20":30,"pct_60mas":15,"pct_migrante":9,"dependencia_econ":175,"pct_empleados":25,"pct_cuentapropia":42,"pct_agricultura":50,"pct_comercio":33,"pct_manufactura":0,"pct_construccion":0,"pct_transporte":0,"pct_alojamiento":0,"pct_sin_educacion":0,"pct_educ_superior":13,"brecha_educ":15,"pct_sin_seguro":12,"pct_sus":82,"pct_seguro_privado":3,"brecha_seguro":4,"pct_salud_publica":38,"pct_med_tradicional":1,"pct_automedicacion":9,"pct_remedios_caseros":40,"pct_viv_desocupada":0,"pct_alquiler":0,"pct_electricidad":100,"pct_sin_electricidad":0,"pct_agua_red":56,"pct_alcantarillado":11,"pct_camara_septica":0,"pct_pozo_ciego":11,"pct_sin_desague":78,"pct_gas_red":0,"pct_gas_garrafa":44,"pct_lena_guano":44,"pct_basura_formal":100,"pct_basura_quema":0,"pct_basura_informal":0,"pct_internet":89,"pct_celular":89,"pct_televisor":67}},{"type":"Feature","geometry":{"type":"Polygon","coordinates":[[[-66.22831,-19.87293],[-66.22803,-19.87312],[-66.22827,-19.87322],[-66.22818,-19.87338],[-66.22834,-19.87353],[-66.22845,-19.87327],[-66.2287,-19.8733],[-66.22889,-19.8731],[-66.22882,-19.87291],[-66.22862,-19.87278],[-66.22831,-19.87285],[-66.22831,-19.87293]]]},"properties":{"n":"TACORA","p":19,"personas_x_ha":52,"masculinidad":375,"pct_menor20":5,"pct_60mas":42,"pct_migrante":11,"dependencia_econ":27,"pct_empleados":7,"pct_cuentapropia":73,"pct_agricultura":47,"pct_comercio":13,"pct_manufactura":0,"pct_construccion":0,"pct_transporte":33,"pct_alojamiento":0,"pct_sin_educacion":17,"pct_educ_superior":6,"brecha_educ":-39,"pct_sin_seguro":0,"pct_sus":95,"pct_seguro_privado":0,"brecha_seguro":0,"pct_salud_publica":35,"pct_med_tradicional":22,"pct_automedicacion":2,"pct_remedios_caseros":35,"pct_viv_desocupada":0,"pct_alquiler":0,"pct_electricidad":71,"pct_sin_electricidad":29,"pct_agua_red":29,"pct_alcantarillado":0,"pct_camara_septica":0,"pct_pozo_ciego":14,"pct_sin_desague":86,"pct_gas_red":0,"pct_gas_garrafa":57,"pct_lena_guano":57,"pct_basura_formal":43,"pct_basura_quema":29,"pct_basura_informal":57,"pct_internet":43,"pct_celular":86,"pct_televisor":29}},{"type":"Feature","geometry":{"type":"Polygon","coordinates":[[[-66.2265,-19.87388],[-66.22585,-19.87327],[-66.22561,-19.87324],[-66.2255,-19.87331],[-66.22615,-19.87381],[-66.22647,-19.87396],[-66.2265,-19.87388]]]},"properties":{"n":"TACORA","p":33,"personas_x_ha":136,"masculinidad":136,"pct_menor20":21,"pct_60mas":9,"pct_migrante":24,"dependencia_econ":100,"pct_empleados":29,"pct_cuentapropia":64,"pct_agricultura":57,"pct_comercio":21,"pct_manufactura":0,"pct_construccion":7,"pct_transporte":0,"pct_alojamiento":0,"pct_sin_educacion":0,"pct_educ_superior":29,"brecha_educ":14,"pct_sin_seguro":26,"pct_sus":52,"pct_seguro_privado":0,"brecha_seguro":17,"pct_salud_publica":46,"pct_med_tradicional":1,"pct_automedicacion":4,"pct_remedios_caseros":38,"pct_viv_desocupada":0,"pct_alquiler":0,"pct_electricidad":88,"pct_sin_electricidad":12,"pct_agua_red":100,"pct_alcantarillado":0,"pct_camara_septica":0,"pct_pozo_ciego":12,"pct_sin_desague":75,"pct_gas_red":0,"pct_gas_garrafa":88,"pct_lena_guano":88,"pct_basura_formal":25,"pct_basura_quema":25,"pct_basura_informal":0,"pct_internet":100,"pct_celular":100,"pct_televisor":50}},{"type":"Feature","geometry":{"type":"Polygon","coordinates":[[[-66.2268,-19.87465],[-66.22726,-19.87481],[-66.22746,-19.87443],[-66.22688,-19.87419],[-66.22678,-19.87435],[-66.22692,-19.87443],[-66.2268,-19.87465]]]},"properties":{"n":"TACORA","p":51,"personas_x_ha":169,"masculinidad":70,"pct_menor20":33,"pct_60mas":12,"pct_migrante":8,"dependencia_econ":104,"pct_empleados":12,"pct_cuentapropia":52,"pct_agricultura":52,"pct_comercio":20,"pct_manufactura":0,"pct_construccion":4,"pct_transporte":4,"pct_alojamiento":0,"pct_sin_educacion":9,"pct_educ_superior":23,"brecha_educ":-19,"pct_sin_seguro":0,"pct_sus":98,"pct_seguro_privado":0,"brecha_seguro":0,"pct_salud_publica":42,"pct_med_tradicional":11,"pct_automedicacion":5,"pct_remedios_caseros":41,"pct_viv_desocupada":0,"pct_alquiler":9,"pct_electricidad":100,"pct_sin_electricidad":0,"pct_agua_red":100,"pct_alcantarillado":0,"pct_camara_septica":0,"pct_pozo_ciego":18,"pct_sin_desague":73,"pct_gas_red":0,"pct_gas_garrafa":73,"pct_lena_guano":73,"pct_basura_formal":45,"pct_basura_quema":36,"pct_basura_informal":0,"pct_internet":82,"pct_celular":82,"pct_televisor":55}},{"type":"Feature","geometry":{"type":"Polygon","coordinates":[[[-66.22552,-19.87573],[-66.2259,-19.87585],[-66.22602,-19.87548],[-66.22586,-19.87519],[-66.22551,-19.8749],[-66.22552,-19.87573]]]},"properties":{"n":"TACORA","p":43,"personas_x_ha":111,"masculinidad":95,"pct_menor20":26,"pct_60mas":21,"pct_migrante":0,"dependencia_econ":187,"pct_empleados":7,"pct_cuentapropia":73,"pct_agricultura":40,"pct_comercio":0,"pct_manufactura":0,"pct_construccion":7,"pct_transporte":13,"pct_alojamiento":0,"pct_sin_educacion":3,"pct_educ_superior":12,"brecha_educ":-26,"pct_sin_seguro":0,"pct_sus":91,"pct_seguro_privado":0,"brecha_seguro":0,"pct_salud_publica":48,"pct_med_tradicional":1,"pct_automedicacion":0,"pct_remedios_caseros":44,"pct_viv_desocupada":0,"pct_alquiler":0,"pct_electricidad":100,"pct_sin_electricidad":0,"pct_agua_red":91,"pct_alcantarillado":9,"pct_camara_septica":9,"pct_pozo_ciego":27,"pct_sin_desague":55,"pct_gas_red":0,"pct_gas_garrafa":73,"pct_lena_guano":73,"pct_basura_formal":18,"pct_basura_quema":73,"pct_basura_informal":0,"pct_internet":18,"pct_celular":73,"pct_televisor":36}},{"type":"Feature","geometry":{"type":"Polygon","coordinates":[[[-66.22573,-19.87364],[-66.22571,-19.87393],[-66.22594,-19.87395],[-66.22597,-19.87426],[-66.22631,-19.87444],[-66.22645,-19.87399],[-66.22588,-19.87364],[-66.22573,-19.87364]]]},"properties":{"n":"TACORA","p":46,"personas_x_ha":131,"masculinidad":142,"pct_menor20":30,"pct_60mas":24,"pct_migrante":22,"dependencia_econ":246,"pct_empleados":31,"pct_cuentapropia":46,"pct_agricultura":31,"pct_comercio":0,"pct_manufactura":8,"pct_construccion":8,"pct_transporte":8,"pct_alojamiento":8,"pct_sin_educacion":3,"pct_educ_superior":10,"brecha_educ":-12,"pct_sin_seguro":27,"pct_sus":71,"pct_seguro_privado":0,"brecha_seguro":24,"pct_salud_publica":33,"pct_med_tradicional":12,"pct_automedicacion":4,"pct_remedios_caseros":37,"pct_viv_desocupada":0,"pct_alquiler":0,"pct_electricidad":92,"pct_sin_electricidad":8,"pct_agua_red":92,"pct_alcantarillado":17,"pct_camara_septica":0,"pct_pozo_ciego":8,"pct_sin_desague":75,"pct_gas_red":0,"pct_gas_garrafa":92,"pct_lena_guano":92,"pct_basura_formal":83,"pct_basura_quema":8,"pct_basura_informal":17,"pct_internet":50,"pct_celular":75,"pct_televisor":58}},{"type":"Feature","geometry":{"type":"Polygon","coordinates":[[[-66.22692,-19.87391],[-66.22727,-19.87382],[-66.2276,-19.87393],[-66.22746,-19.87439],[-66.22686,-19.87412],[-66.22692,-19.87391]]]},"properties":{"n":"TACORA","p":27,"personas_x_ha":91,"masculinidad":170,"pct_menor20":26,"pct_60mas":19,"pct_migrante":26,"dependencia_econ":69,"pct_empleados":50,"pct_cuentapropia":44,"pct_agricultura":6,"pct_comercio":50,"pct_manufactura":6,"pct_construccion":0,"pct_transporte":12,"pct_alojamiento":0,"pct_sin_educacion":0,"pct_educ_superior":14,"brecha_educ":-17,"pct_sin_seguro":8,"pct_sus":92,"pct_seguro_privado":0,"brecha_seguro":-6,"pct_salud_publica":49,"pct_med_tradicional":6,"pct_automedicacion":0,"pct_remedios_caseros":35,"pct_viv_desocupada":0,"pct_alquiler":0,"pct_electricidad":86,"pct_sin_electricidad":14,"pct_agua_red":100,"pct_alcantarillado":0,"pct_camara_septica":0,"pct_pozo_ciego":0,"pct_sin_desague":100,"pct_gas_red":0,"pct_gas_garrafa":71,"pct_lena_guano":71,"pct_basura_formal":0,"pct_basura_quema":14,"pct_basura_informal":29,"pct_internet":57,"pct_celular":57,"pct_televisor":14}},{"type":"Feature","geometry":{"type":"Polygon","coordinates":[[[-66.22563,-19.87663],[-66.22554,-19.87608],[-66.22527,-19.87608],[-66.22512,-19.87644],[-66.22525,-19.87653],[-66.22509,-19.87718],[-66.22514,-19.87732],[-66.22529,-19.87741],[-66.22539,-19.87742],[-66.22563,-19.87663]]]},"properties":{"n":"TACORA","p":33,"personas_x_ha":57,"masculinidad":136,"pct_menor20":48,"pct_60mas":6,"pct_migrante":6,"dependencia_econ":74,"pct_empleados":16,"pct_cuentapropia":63,"pct_agricultura":53,"pct_comercio":11,"pct_manufactura":5,"pct_construccion":11,"pct_transporte":11,"pct_alojamiento":0,"pct_sin_educacion":0,"pct_educ_superior":17,"brecha_educ":9,"pct_sin_seguro":3,"pct_sus":88,"pct_seguro_privado":0,"brecha_seguro":-7,"pct_salud_publica":53,"pct_med_tradicional":7,"pct_automedicacion":2,"pct_remedios_caseros":29,"pct_viv_desocupada":0,"pct_alquiler":0,"pct_electricidad":75,"pct_sin_electricidad":25,"pct_agua_red":100,"pct_alcantarillado":0,"pct_camara_septica":0,"pct_pozo_ciego":38,"pct_sin_desague":62,"pct_gas_red":0,"pct_gas_garrafa":50,"pct_lena_guano":50,"pct_basura_formal":62,"pct_basura_quema":25,"pct_basura_informal":25,"pct_internet":12,"pct_celular":50,"pct_televisor":50}},{"type":"Feature","geometry":{"type":"Polygon","coordinates":[[[-66.31659,-20.14233],[-66.31598,-20.14225],[-66.31592,-20.14264],[-66.31652,-20.14271],[-66.31659,-20.14233]]]},"properties":{"n":"TICA TICA","p":16,"personas_x_ha":58,"masculinidad":78,"pct_menor20":44,"pct_60mas":12,"pct_migrante":25,"dependencia_econ":129,"pct_empleados":0,"pct_cuentapropia":43,"pct_agricultura":43,"pct_comercio":14,"pct_manufactura":0,"pct_construccion":14,"pct_transporte":0,"pct_alojamiento":0,"pct_sin_educacion":0,"pct_educ_superior":11,"brecha_educ":-30,"pct_sin_seguro":0,"pct_sus":87,"pct_seguro_privado":0,"brecha_seguro":0,"pct_salud_publica":33,"pct_med_tradicional":16,"pct_automedicacion":9,"pct_remedios_caseros":28,"pct_viv_desocupada":0,"pct_alquiler":20,"pct_electricidad":80,"pct_sin_electricidad":20,"pct_agua_red":100,"pct_alcantarillado":80,"pct_camara_septica":0,"pct_pozo_ciego":0,"pct_sin_desague":20,"pct_gas_red":0,"pct_gas_garrafa":100,"pct_lena_guano":100,"pct_basura_formal":100,"pct_basura_quema":0,"pct_basura_informal":0,"pct_internet":100,"pct_celular":100,"pct_televisor":20}},{"type":"Feature","geometry":{"type":"Polygon","coordinates":[[[-66.31436,-20.15121],[-66.31424,-20.14904],[-66.31452,-20.14904],[-66.31452,-20.14843],[-66.31434,-20.14843],[-66.31451,-20.14837],[-66.31451,-20.14815],[-66.31438,-20.14815],[-66.31451,-20.1481],[-66.31447,-20.14545],[-66.3132,-20.14555],[-66.31301,-20.15035],[-66.31351,-20.15142],[-66.31436,-20.15121]]]},"properties":{"n":"TICA TICA","p":23,"personas_x_ha":3,"masculinidad":92,"pct_menor20":30,"pct_60mas":13,"pct_migrante":30,"dependencia_econ":83,"pct_empleados":25,"pct_cuentapropia":42,"pct_agricultura":33,"pct_comercio":17,"pct_manufactura":0,"pct_construccion":8,"pct_transporte":0,"pct_alojamiento":0,"pct_sin_educacion":0,"pct_educ_superior":33,"brecha_educ":-11,"pct_sin_seguro":9,"pct_sus":77,"pct_seguro_privado":0,"brecha_seguro":0,"pct_salud_publica":30,"pct_med_tradicional":15,"pct_automedicacion":8,"pct_remedios_caseros":25,"pct_viv_desocupada":16,"pct_alquiler":0,"pct_electricidad":90,"pct_sin_electricidad":10,"pct_agua_red":90,"pct_alcantarillado":80,"pct_camara_septica":0,"pct_pozo_ciego":20,"pct_sin_desague":0,"pct_gas_red":10,"pct_gas_garrafa":90,"pct_lena_guano":90,"pct_basura_formal":80,"pct_basura_quema":20,"pct_basura_informal":0,"pct_internet":70,"pct_celular":90,"pct_televisor":80}},{"type":"Feature","geometry":{"type":"Polygon","coordinates":[[[-66.31646,-20.14299],[-66.31588,-20.14292],[-66.3159,-20.14268],[-66.31651,-20.14275],[-66.31646,-20.14299]]]},"properties":{"n":"TICA TICA","p":17,"personas_x_ha":102,"masculinidad":89,"pct_menor20":59,"pct_60mas":6,"pct_migrante":24,"dependencia_econ":240,"pct_empleados":40,"pct_cuentapropia":40,"pct_agricultura":40,"pct_comercio":0,"pct_manufactura":0,"pct_construccion":20,"pct_transporte":0,"pct_alojamiento":0,"pct_sin_educacion":12,"pct_educ_superior":25,"brecha_educ":-25,"pct_sin_seguro":6,"pct_sus":71,"pct_seguro_privado":24,"brecha_seguro":-11,"pct_salud_publica":26,"pct_med_tradicional":10,"pct_automedicacion":10,"pct_remedios_caseros":34,"pct_viv_desocupada":0,"pct_alquiler":0,"pct_electricidad":100,"pct_sin_electricidad":0,"pct_agua_red":100,"pct_alcantarillado":100,"pct_camara_septica":0,"pct_pozo_ciego":0,"pct_sin_desague":0,"pct_gas_red":0,"pct_gas_garrafa":83,"pct_lena_guano":83,"pct_basura_formal":100,"pct_basura_quema":0,"pct_basura_informal":0,"pct_internet":67,"pct_celular":100,"pct_televisor":83}},{"type":"Feature","geometry":{"type":"Polygon","coordinates":[[[-66.31532,-20.14424],[-66.31513,-20.14424],[-66.31457,-20.14418],[-66.31459,-20.1444],[-66.31532,-20.14438],[-66.31532,-20.14424]]]},"properties":{"n":"TICA TICA","p":16,"personas_x_ha":108,"masculinidad":45,"pct_menor20":44,"pct_60mas":0,"pct_migrante":38,"dependencia_econ":129,"pct_empleados":29,"pct_cuentapropia":57,"pct_agricultura":0,"pct_comercio":14,"pct_manufactura":0,"pct_construccion":0,"pct_transporte":0,"pct_alojamiento":57,"pct_sin_educacion":0,"pct_educ_superior":44,"brecha_educ":0,"pct_sin_seguro":6,"pct_sus":94,"pct_seguro_privado":0,"brecha_seguro":-9,"pct_salud_publica":31,"pct_med_tradicional":24,"pct_automedicacion":4,"pct_remedios_caseros":31,"pct_viv_desocupada":10,"pct_alquiler":0,"pct_electricidad":100,"pct_sin_electricidad":0,"pct_agua_red":100,"pct_alcantarillado":100,"pct_camara_septica":0,"pct_pozo_ciego":0,"pct_sin_desague":0,"pct_gas_red":0,"pct_gas_garrafa":100,"pct_lena_guano":100,"pct_basura_formal":100,"pct_basura_quema":0,"pct_basura_informal":0,"pct_internet":100,"pct_celular":100,"pct_televisor":100}},{"type":"Feature","geometry":{"type":"Polygon","coordinates":[[[-66.31485,-20.15049],[-66.31484,-20.15019],[-66.31495,-20.15018],[-66.31494,-20.14962],[-66.31462,-20.14962],[-66.31464,-20.1505],[-66.31485,-20.15049]]]},"properties":{"n":"TICA TICA","p":21,"personas_x_ha":74,"masculinidad":50,"pct_menor20":52,"pct_60mas":10,"pct_migrante":14,"dependencia_econ":200,"pct_empleados":57,"pct_cuentapropia":0,"pct_agricultura":14,"pct_comercio":29,"pct_manufactura":0,"pct_construccion":14,"pct_transporte":0,"pct_alojamiento":0,"pct_sin_educacion":30,"pct_educ_superior":20,"brecha_educ":-57,"pct_sin_seguro":5,"pct_sus":84,"pct_seguro_privado":0,"brecha_seguro":14,"pct_salud_publica":40,"pct_med_tradicional":2,"pct_automedicacion":8,"pct_remedios_caseros":27,"pct_viv_desocupada":42,"pct_alquiler":0,"pct_electricidad":100,"pct_sin_electricidad":0,"pct_agua_red":100,"pct_alcantarillado":100,"pct_camara_septica":0,"pct_pozo_ciego":0,"pct_sin_desague":0,"pct_gas_red":0,"pct_gas_garrafa":100,"pct_lena_guano":100,"pct_basura_formal":100,"pct_basura_quema":0,"pct_basura_informal":0,"pct_internet":40,"pct_celular":100,"pct_televisor":100}},{"type":"Feature","geometry":{"type":"Polygon","coordinates":[[[-66.31646,-20.14429],[-66.31596,-20.14428],[-66.31597,-20.14532],[-66.31644,-20.14529],[-66.31646,-20.14429]]]},"properties":{"n":"TICA TICA","p":21,"personas_x_ha":36,"masculinidad":17,"pct_menor20":52,"pct_60mas":10,"pct_migrante":10,"dependencia_econ":233,"pct_empleados":17,"pct_cuentapropia":67,"pct_agricultura":83,"pct_comercio":0,"pct_manufactura":17,"pct_construccion":0,"pct_transporte":0,"pct_alojamiento":0,"pct_sin_educacion":9,"pct_educ_superior":18,"brecha_educ":-44,"pct_sin_seguro":0,"pct_sus":85,"pct_seguro_privado":0,"brecha_seguro":0,"pct_salud_publica":28,"pct_med_tradicional":28,"pct_automedicacion":7,"pct_remedios_caseros":13,"pct_viv_desocupada":0,"pct_alquiler":0,"pct_electricidad":89,"pct_sin_electricidad":0,"pct_agua_red":67,"pct_alcantarillado":100,"pct_camara_septica":0,"pct_pozo_ciego":0,"pct_sin_desague":0,"pct_gas_red":0,"pct_gas_garrafa":100,"pct_lena_guano":100,"pct_basura_formal":100,"pct_basura_quema":0,"pct_basura_informal":0,"pct_internet":100,"pct_celular":100,"pct_televisor":100}},{"type":"Feature","geometry":{"type":"Polygon","coordinates":[[[-66.31693,-20.14274],[-66.31696,-20.14237],[-66.31663,-20.14234],[-66.31659,-20.1427],[-66.31693,-20.14274]]]},"properties":{"n":"TICA TICA","p":19,"personas_x_ha":133,"masculinidad":73,"pct_menor20":47,"pct_60mas":5,"pct_migrante":58,"dependencia_econ":217,"pct_empleados":50,"pct_cuentapropia":33,"pct_agricultura":33,"pct_comercio":0,"pct_manufactura":0,"pct_construccion":33,"pct_transporte":0,"pct_alojamiento":0,"pct_sin_educacion":0,"pct_educ_superior":10,"brecha_educ":-40,"pct_sin_seguro":0,"pct_sus":100,"pct_seguro_privado":0,"brecha_seguro":0,"pct_salud_publica":21,"pct_med_tradicional":20,"pct_automedicacion":19,"pct_remedios_caseros":20,"pct_viv_desocupada":0,"pct_alquiler":0,"pct_electricidad":100,"pct_sin_electricidad":0,"pct_agua_red":50,"pct_alcantarillado":50,"pct_camara_septica":0,"pct_pozo_ciego":0,"pct_sin_desague":50,"pct_gas_red":0,"pct_gas_garrafa":100,"pct_lena_guano":100,"pct_basura_formal":100,"pct_basura_quema":0,"pct_basura_informal":0,"pct_internet":100,"pct_celular":100,"pct_televisor":67}},{"type":"Feature","geometry":{"type":"Polygon","coordinates":[[[-66.31483,-20.14309],[-66.3152,-20.14307],[-66.31523,-20.14296],[-66.31468,-20.14273],[-66.31454,-20.14295],[-66.31458,-20.14361],[-66.31531,-20.1436],[-66.31529,-20.14312],[-66.31483,-20.14309]]]},"properties":{"n":"TICA TICA","p":24,"personas_x_ha":39,"masculinidad":41,"pct_menor20":46,"pct_60mas":17,"pct_migrante":38,"dependencia_econ":100,"pct_empleados":17,"pct_cuentapropia":50,"pct_agricultura":58,"pct_comercio":0,"pct_manufactura":0,"pct_construccion":8,"pct_transporte":0,"pct_alojamiento":17,"pct_sin_educacion":23,"pct_educ_superior":23,"brecha_educ":-31,"pct_sin_seguro":4,"pct_sus":88,"pct_seguro_privado":0,"brecha_seguro":14,"pct_salud_publica":32,"pct_med_tradicional":6,"pct_automedicacion":20,"pct_remedios_caseros":33,"pct_viv_desocupada":18,"pct_alquiler":0,"pct_electricidad":100,"pct_sin_electricidad":0,"pct_agua_red":100,"pct_alcantarillado":100,"pct_camara_septica":0,"pct_pozo_ciego":0,"pct_sin_desague":0,"pct_gas_red":0,"pct_gas_garrafa":100,"pct_lena_guano":100,"pct_basura_formal":67,"pct_basura_quema":11,"pct_basura_informal":0,"pct_internet":44,"pct_celular":67,"pct_televisor":67}},{"type":"Feature","geometry":{"type":"Polygon","coordinates":[[[-66.31447,-20.14452],[-66.3144,-20.14287],[-66.3143,-20.14281],[-66.31344,-20.14371],[-66.31328,-20.14397],[-66.31321,-20.14548],[-66.31447,-20.14538],[-66.31447,-20.14494],[-66.3144,-20.14494],[-66.3144,-20.14453],[-66.31447,-20.14452]]]},"properties":{"n":"TICA TICA","p":42,"personas_x_ha":14,"masculinidad":83,"pct_menor20":29,"pct_60mas":38,"pct_migrante":40,"dependencia_econ":91,"pct_empleados":14,"pct_cuentapropia":36,"pct_agricultura":68,"pct_comercio":9,"pct_manufactura":0,"pct_construccion":5,"pct_transporte":5,"pct_alojamiento":14,"pct_sin_educacion":7,"pct_educ_superior":20,"brecha_educ":-13,"pct_sin_seguro":0,"pct_sus":86,"pct_seguro_privado":0,"brecha_seguro":0,"pct_salud_publica":32,"pct_med_tradicional":7,"pct_automedicacion":16,"pct_remedios_caseros":24,"pct_viv_desocupada":21,"pct_alquiler":0,"pct_electricidad":95,"pct_sin_electricidad":5,"pct_agua_red":71,"pct_alcantarillado":86,"pct_camara_septica":0,"pct_pozo_ciego":0,"pct_sin_desague":14,"pct_gas_red":0,"pct_gas_garrafa":95,"pct_lena_guano":95,"pct_basura_formal":76,"pct_basura_quema":24,"pct_basura_informal":0,"pct_internet":81,"pct_celular":90,"pct_televisor":86}},{"type":"Feature","geometry":{"type":"Polygon","coordinates":[[[-66.3165,-20.14326],[-66.31589,-20.1432],[-66.31591,-20.14358],[-66.31649,-20.14359],[-66.3165,-20.14326]]]},"properties":{"n":"TICA TICA","p":19,"personas_x_ha":79,"masculinidad":73,"pct_menor20":42,"pct_60mas":21,"pct_migrante":11,"dependencia_econ":90,"pct_empleados":40,"pct_cuentapropia":10,"pct_agricultura":50,"pct_comercio":0,"pct_manufactura":0,"pct_construccion":10,"pct_transporte":10,"pct_alojamiento":0,"pct_sin_educacion":0,"pct_educ_superior":27,"brecha_educ":-10,"pct_sin_seguro":5,"pct_sus":74,"pct_seguro_privado":0,"brecha_seguro":12,"pct_salud_publica":39,"pct_med_tradicional":5,"pct_automedicacion":18,"pct_remedios_caseros":36,"pct_viv_desocupada":0,"pct_alquiler":0,"pct_electricidad":86,"pct_sin_electricidad":14,"pct_agua_red":100,"pct_alcantarillado":86,"pct_camara_septica":0,"pct_pozo_ciego":0,"pct_sin_desague":14,"pct_gas_red":0,"pct_gas_garrafa":100,"pct_lena_guano":100,"pct_basura_formal":86,"pct_basura_quema":14,"pct_basura_informal":0,"pct_internet":71,"pct_celular":100,"pct_televisor":57}},{"type":"Feature","geometry":{"type":"Polygon","coordinates":[[[-66.5689,-20.21336],[-66.56905,-20.21339],[-66.5689,-20.21339],[-66.56889,-20.21362],[-66.56935,-20.21365],[-66.56931,-20.21316],[-66.56891,-20.21315],[-66.5689,-20.21336]]]},"properties":{"n":"TOLAPAMPA","p":17,"personas_x_ha":72,"masculinidad":89,"pct_menor20":47,"pct_60mas":0,"pct_migrante":88,"dependencia_econ":70,"pct_empleados":20,"pct_cuentapropia":70,"pct_agricultura":50,"pct_comercio":10,"pct_manufactura":0,"pct_construccion":0,"pct_transporte":0,"pct_alojamiento":20,"pct_sin_educacion":0,"pct_educ_superior":33,"brecha_educ":25,"pct_sin_seguro":6,"pct_sus":53,"pct_seguro_privado":0,"brecha_seguro":12,"pct_salud_publica":26,"pct_med_tradicional":0,"pct_automedicacion":26,"pct_remedios_caseros":30,"pct_viv_desocupada":9,"pct_alquiler":0,"pct_electricidad":75,"pct_sin_electricidad":25,"pct_agua_red":50,"pct_alcantarillado":0,"pct_camara_septica":0,"pct_pozo_ciego":75,"pct_sin_desague":25,"pct_gas_red":0,"pct_gas_garrafa":75,"pct_lena_guano":75,"pct_basura_formal":50,"pct_basura_quema":50,"pct_basura_informal":0,"pct_internet":75,"pct_celular":75,"pct_televisor":50}},{"type":"Feature","geometry":{"type":"Polygon","coordinates":[[[-66.52884,-20.0654],[-66.52897,-20.06497],[-66.5285,-20.06481],[-66.52835,-20.06525],[-66.52884,-20.0654]]]},"properties":{"n":"TOMAVE","p":24,"personas_x_ha":90,"masculinidad":100,"pct_menor20":58,"pct_60mas":4,"pct_migrante":8,"dependencia_econ":229,"pct_empleados":0,"pct_cuentapropia":71,"pct_agricultura":57,"pct_comercio":14,"pct_manufactura":0,"pct_construccion":14,"pct_transporte":0,"pct_alojamiento":0,"pct_sin_educacion":0,"pct_educ_superior":0,"brecha_educ":-20,"pct_sin_seguro":26,"pct_sus":70,"pct_seguro_privado":4,"brecha_seguro":2,"pct_salud_publica":29,"pct_med_tradicional":13,"pct_automedicacion":3,"pct_remedios_caseros":30,"pct_viv_desocupada":0,"pct_alquiler":0,"pct_electricidad":100,"pct_sin_electricidad":0,"pct_agua_red":100,"pct_alcantarillado":100,"pct_camara_septica":0,"pct_pozo_ciego":0,"pct_sin_desague":0,"pct_gas_red":0,"pct_gas_garrafa":100,"pct_lena_guano":100,"pct_basura_formal":0,"pct_basura_quema":83,"pct_basura_informal":0,"pct_internet":50,"pct_celular":67,"pct_televisor":33}},{"type":"Feature","geometry":{"type":"Polygon","coordinates":[[[-66.5322,-20.06497],[-66.53142,-20.06471],[-66.53131,-20.06501],[-66.53208,-20.06531],[-66.5322,-20.06497]]]},"properties":{"n":"TOMAVE","p":26,"personas_x_ha":79,"masculinidad":117,"pct_menor20":46,"pct_60mas":8,"pct_migrante":27,"dependencia_econ":73,"pct_empleados":13,"pct_cuentapropia":60,"pct_agricultura":27,"pct_comercio":13,"pct_manufactura":0,"pct_construccion":20,"pct_transporte":0,"pct_alojamiento":0,"pct_sin_educacion":0,"pct_educ_superior":57,"brecha_educ":-4,"pct_sin_seguro":4,"pct_sus":76,"pct_seguro_privado":0,"brecha_seguro":-8,"pct_salud_publica":31,"pct_med_tradicional":9,"pct_automedicacion":11,"pct_remedios_caseros":26,"pct_viv_desocupada":5,"pct_alquiler":17,"pct_electricidad":100,"pct_sin_electricidad":0,"pct_agua_red":100,"pct_alcantarillado":92,"pct_camara_septica":0,"pct_pozo_ciego":0,"pct_sin_desague":8,"pct_gas_red":0,"pct_gas_garrafa":100,"pct_lena_guano":100,"pct_basura_formal":50,"pct_basura_quema":50,"pct_basura_informal":0,"pct_internet":67,"pct_celular":92,"pct_televisor":83}},{"type":"Feature","geometry":{"type":"Polygon","coordinates":[[[-66.5329,-20.06431],[-66.53328,-20.06445],[-66.53344,-20.06386],[-66.53309,-20.06378],[-66.5329,-20.06431]]]},"properties":{"n":"TOMAVE","p":15,"personas_x_ha":56,"masculinidad":67,"pct_menor20":20,"pct_60mas":0,"pct_migrante":27,"dependencia_econ":50,"pct_empleados":70,"pct_cuentapropia":30,"pct_agricultura":0,"pct_comercio":20,"pct_manufactura":0,"pct_construccion":0,"pct_transporte":10,"pct_alojamiento":10,"pct_sin_educacion":0,"pct_educ_superior":67,"brecha_educ":-14,"pct_sin_seguro":13,"pct_sus":87,"pct_seguro_privado":0,"brecha_seguro":6,"pct_salud_publica":22,"pct_med_tradicional":27,"pct_automedicacion":15,"pct_remedios_caseros":27,"pct_viv_desocupada":12,"pct_alquiler":0,"pct_electricidad":100,"pct_sin_electricidad":0,"pct_agua_red":100,"pct_alcantarillado":80,"pct_camara_septica":0,"pct_pozo_ciego":0,"pct_sin_desague":20,"pct_gas_red":0,"pct_gas_garrafa":100,"pct_lena_guano":100,"pct_basura_formal":20,"pct_basura_quema":80,"pct_basura_informal":0,"pct_internet":100,"pct_celular":100,"pct_televisor":40}},{"type":"Feature","geometry":{"type":"Polygon","coordinates":[[[-66.53274,-20.06474],[-66.53238,-20.0646],[-66.53226,-20.06495],[-66.53263,-20.06509],[-66.53274,-20.06474]]]},"properties":{"n":"TOMAVE","p":26,"personas_x_ha":152,"masculinidad":86,"pct_menor20":50,"pct_60mas":12,"pct_migrante":65,"dependencia_econ":160,"pct_empleados":40,"pct_cuentapropia":60,"pct_agricultura":40,"pct_comercio":0,"pct_manufactura":0,"pct_construccion":10,"pct_transporte":0,"pct_alojamiento":10,"pct_sin_educacion":0,"pct_educ_superior":69,"brecha_educ":14,"pct_sin_seguro":8,"pct_sus":65,"pct_seguro_privado":0,"brecha_seguro":17,"pct_salud_publica":19,"pct_med_tradicional":20,"pct_automedicacion":12,"pct_remedios_caseros":26,"pct_viv_desocupada":0,"pct_alquiler":9,"pct_electricidad":91,"pct_sin_electricidad":9,"pct_agua_red":91,"pct_alcantarillado":82,"pct_camara_septica":0,"pct_pozo_ciego":0,"pct_sin_desague":18,"pct_gas_red":0,"pct_gas_garrafa":82,"pct_lena_guano":82,"pct_basura_formal":82,"pct_basura_quema":9,"pct_basura_informal":0,"pct_internet":100,"pct_celular":100,"pct_televisor":82}},{"type":"Feature","geometry":{"type":"Polygon","coordinates":[[[-66.53197,-20.0658],[-66.53106,-20.06549],[-66.53088,-20.06582],[-66.53124,-20.06611],[-66.5314,-20.06615],[-66.53144,-20.06603],[-66.53186,-20.06617],[-66.53197,-20.0658]]]},"properties":{"n":"TOMAVE","p":21,"personas_x_ha":41,"masculinidad":50,"pct_menor20":33,"pct_60mas":19,"pct_migrante":29,"dependencia_econ":91,"pct_empleados":73,"pct_cuentapropia":18,"pct_agricultura":0,"pct_comercio":9,"pct_manufactura":0,"pct_construccion":18,"pct_transporte":0,"pct_alojamiento":18,"pct_sin_educacion":7,"pct_educ_superior":60,"brecha_educ":6,"pct_sin_seguro":5,"pct_sus":71,"pct_seguro_privado":0,"brecha_seguro":-7,"pct_salud_publica":26,"pct_med_tradicional":22,"pct_automedicacion":7,"pct_remedios_caseros":26,"pct_viv_desocupada":0,"pct_alquiler":22,"pct_electricidad":100,"pct_sin_electricidad":0,"pct_agua_red":100,"pct_alcantarillado":78,"pct_camara_septica":0,"pct_pozo_ciego":22,"pct_sin_desague":0,"pct_gas_red":0,"pct_gas_garrafa":89,"pct_lena_guano":89,"pct_basura_formal":56,"pct_basura_quema":44,"pct_basura_informal":0,"pct_internet":100,"pct_celular":100,"pct_televisor":44}},{"type":"Feature","geometry":{"type":"Polygon","coordinates":[[[-66.53251,-20.06547],[-66.53262,-20.06513],[-66.53226,-20.06499],[-66.53214,-20.06535],[-66.53251,-20.06547]]]},"properties":{"n":"TOMAVE","p":30,"personas_x_ha":179,"masculinidad":150,"pct_menor20":30,"pct_60mas":13,"pct_migrante":33,"dependencia_econ":36,"pct_empleados":32,"pct_cuentapropia":64,"pct_agricultura":14,"pct_comercio":14,"pct_manufactura":5,"pct_construccion":0,"pct_transporte":9,"pct_alojamiento":5,"pct_sin_educacion":0,"pct_educ_superior":41,"brecha_educ":0,"pct_sin_seguro":24,"pct_sus":34,"pct_seguro_privado":21,"brecha_seguro":-1,"pct_salud_publica":16,"pct_med_tradicional":17,"pct_automedicacion":15,"pct_remedios_caseros":22,"pct_viv_desocupada":0,"pct_alquiler":0,"pct_electricidad":91,"pct_sin_electricidad":9,"pct_agua_red":73,"pct_alcantarillado":73,"pct_camara_septica":0,"pct_pozo_ciego":0,"pct_sin_desague":27,"pct_gas_red":0,"pct_gas_garrafa":100,"pct_lena_guano":100,"pct_basura_formal":73,"pct_basura_quema":9,"pct_basura_informal":0,"pct_internet":64,"pct_celular":100,"pct_televisor":73}},{"type":"Feature","geometry":{"type":"Polygon","coordinates":[[[-66.53111,-20.06412],[-66.53101,-20.06451],[-66.53176,-20.06475],[-66.53188,-20.06439],[-66.53111,-20.06412]]]},"properties":{"n":"TOMAVE","p":25,"personas_x_ha":67,"masculinidad":92,"pct_menor20":20,"pct_60mas":20,"pct_migrante":44,"dependencia_econ":39,"pct_empleados":67,"pct_cuentapropia":33,"pct_agricultura":28,"pct_comercio":0,"pct_manufactura":0,"pct_construccion":6,"pct_transporte":0,"pct_alojamiento":11,"pct_sin_educacion":5,"pct_educ_superior":60,"brecha_educ":-25,"pct_sin_seguro":0,"pct_sus":89,"pct_seguro_privado":0,"brecha_seguro":0,"pct_salud_publica":38,"pct_med_tradicional":19,"pct_automedicacion":8,"pct_remedios_caseros":11,"pct_viv_desocupada":0,"pct_alquiler":10,"pct_electricidad":90,"pct_sin_electricidad":10,"pct_agua_red":90,"pct_alcantarillado":80,"pct_camara_septica":0,"pct_pozo_ciego":10,"pct_sin_desague":10,"pct_gas_red":0,"pct_gas_garrafa":90,"pct_lena_guano":90,"pct_basura_formal":50,"pct_basura_quema":0,"pct_basura_informal":60,"pct_internet":80,"pct_celular":90,"pct_televisor":40}},{"type":"Feature","geometry":{"type":"Polygon","coordinates":[[[-66.53117,-20.0652],[-66.53123,-20.06505],[-66.53023,-20.06475],[-66.53016,-20.06504],[-66.53036,-20.06512],[-66.53033,-20.06522],[-66.53099,-20.06543],[-66.53108,-20.06518],[-66.53117,-20.0652]]]},"properties":{"n":"TOMAVE","p":16,"personas_x_ha":35,"masculinidad":33,"pct_menor20":50,"pct_60mas":12,"pct_migrante":31,"dependencia_econ":78,"pct_empleados":33,"pct_cuentapropia":56,"pct_agricultura":22,"pct_comercio":44,"pct_manufactura":0,"pct_construccion":0,"pct_transporte":0,"pct_alojamiento":0,"pct_sin_educacion":0,"pct_educ_superior":50,"brecha_educ":-33,"pct_sin_seguro":31,"pct_sus":50,"pct_seguro_privado":0,"brecha_seguro":-42,"pct_salud_publica":20,"pct_med_tradicional":7,"pct_automedicacion":12,"pct_remedios_caseros":27,"pct_viv_desocupada":0,"pct_alquiler":0,"pct_electricidad":62,"pct_sin_electricidad":38,"pct_agua_red":38,"pct_alcantarillado":50,"pct_camara_septica":0,"pct_pozo_ciego":0,"pct_sin_desague":50,"pct_gas_red":0,"pct_gas_garrafa":88,"pct_lena_guano":88,"pct_basura_formal":25,"pct_basura_quema":62,"pct_basura_informal":0,"pct_internet":100,"pct_celular":100,"pct_televisor":50}},{"type":"Feature","geometry":{"type":"Polygon","coordinates":[[[-66.53304,-20.06374],[-66.53265,-20.06368],[-66.5325,-20.06416],[-66.53286,-20.06429],[-66.53304,-20.06374]]]},"properties":{"n":"TOMAVE","p":16,"personas_x_ha":63,"masculinidad":100,"pct_menor20":38,"pct_60mas":25,"pct_migrante":56,"dependencia_econ":100,"pct_empleados":12,"pct_cuentapropia":88,"pct_agricultura":12,"pct_comercio":0,"pct_manufactura":12,"pct_construccion":38,"pct_transporte":0,"pct_alojamiento":0,"pct_sin_educacion":10,"pct_educ_superior":10,"brecha_educ":-40,"pct_sin_seguro":12,"pct_sus":81,"pct_seguro_privado":0,"brecha_seguro":25,"pct_salud_publica":62,"pct_med_tradicional":0,"pct_automedicacion":10,"pct_remedios_caseros":24,"pct_viv_desocupada":0,"pct_alquiler":0,"pct_electricidad":100,"pct_sin_electricidad":0,"pct_agua_red":83,"pct_alcantarillado":83,"pct_camara_septica":0,"pct_pozo_ciego":0,"pct_sin_desague":17,"pct_gas_red":0,"pct_gas_garrafa":83,"pct_lena_guano":83,"pct_basura_formal":83,"pct_basura_quema":17,"pct_basura_informal":0,"pct_internet":67,"pct_celular":100,"pct_televisor":33}},{"type":"Feature","geometry":{"type":"Polygon","coordinates":[[[-66.25669,-19.83802],[-66.25613,-19.83831],[-66.25622,-19.83837],[-66.25633,-19.83833],[-66.2564,-19.83846],[-66.25682,-19.83828],[-66.25669,-19.83802]]]},"properties":{"n":"VILUYO","p":15,"personas_x_ha":84,"masculinidad":88,"pct_menor20":27,"pct_60mas":33,"pct_migrante":20,"dependencia_econ":67,"pct_empleados":11,"pct_cuentapropia":56,"pct_agricultura":33,"pct_comercio":44,"pct_manufactura":0,"pct_construccion":11,"pct_transporte":0,"pct_alojamiento":0,"pct_sin_educacion":18,"pct_educ_superior":9,"brecha_educ":-27,"pct_sin_seguro":7,"pct_sus":73,"pct_seguro_privado":0,"brecha_seguro":14,"pct_salud_publica":81,"pct_med_tradicional":0,"pct_automedicacion":0,"pct_remedios_caseros":0,"pct_viv_desocupada":0,"pct_alquiler":0,"pct_electricidad":100,"pct_sin_electricidad":0,"pct_agua_red":100,"pct_alcantarillado":0,"pct_camara_septica":0,"pct_pozo_ciego":86,"pct_sin_desague":14,"pct_gas_red":0,"pct_gas_garrafa":86,"pct_lena_guano":86,"pct_basura_formal":0,"pct_basura_quema":57,"pct_basura_informal":0,"pct_internet":0,"pct_celular":71,"pct_televisor":57}}]}