{"type":"FeatureCollection","features":[{"type":"Feature","geometry":{"type":"Polygon","coordinates":[[[-66.30244,-18.59469],[-66.30259,-18.59443],[-66.30258,-18.59418],[-66.30233,-18.59414],[-66.30222,-18.59462],[-66.30244,-18.59469]]]},"properties":{"n":"BELEN","p":51,"personas_x_ha":305,"masculinidad":89,"pct_menor20":31,"pct_60mas":25,"pct_migrante":8,"dependencia_econ":96,"pct_empleados":27,"pct_cuentapropia":62,"pct_agricultura":31,"pct_comercio":12,"pct_manufactura":4,"pct_construccion":12,"pct_transporte":15,"pct_alojamiento":4,"pct_sin_educacion":31,"pct_educ_superior":11,"brecha_educ":-21,"pct_sin_seguro":2,"pct_sus":98,"pct_seguro_privado":0,"brecha_seguro":-4,"pct_salud_publica":56,"pct_med_tradicional":1,"pct_automedicacion":5,"pct_remedios_caseros":38,"pct_viv_desocupada":0,"pct_alquiler":0,"pct_electricidad":90,"pct_sin_electricidad":5,"pct_agua_red":0,"pct_alcantarillado":0,"pct_camara_septica":0,"pct_pozo_ciego":0,"pct_sin_desague":100,"pct_gas_red":0,"pct_gas_garrafa":43,"pct_lena_guano":57,"pct_basura_formal":5,"pct_basura_quema":90,"pct_basura_informal":5,"pct_internet":43,"pct_celular":48,"pct_televisor":52}},{"type":"Feature","geometry":{"type":"Polygon","coordinates":[[[-66.30307,-18.59407],[-66.30312,-18.59391],[-66.30268,-18.59381],[-66.30269,-18.59417],[-66.30307,-18.59407]]]},"properties":{"n":"BELEN","p":26,"personas_x_ha":183,"masculinidad":117,"pct_menor20":23,"pct_60mas":23,"pct_migrante":0,"dependencia_econ":13,"pct_empleados":4,"pct_cuentapropia":52,"pct_agricultura":74,"pct_comercio":0,"pct_manufactura":4,"pct_construccion":4,"pct_transporte":0,"pct_alojamiento":4,"pct_sin_educacion":15,"pct_educ_superior":20,"brecha_educ":-10,"pct_sin_seguro":12,"pct_sus":88,"pct_seguro_privado":0,"brecha_seguro":5,"pct_salud_publica":35,"pct_med_tradicional":27,"pct_automedicacion":6,"pct_remedios_caseros":25,"pct_viv_desocupada":0,"pct_alquiler":0,"pct_electricidad":92,"pct_sin_electricidad":8,"pct_agua_red":15,"pct_alcantarillado":0,"pct_camara_septica":0,"pct_pozo_ciego":15,"pct_sin_desague":85,"pct_gas_red":0,"pct_gas_garrafa":46,"pct_lena_guano":54,"pct_basura_formal":0,"pct_basura_quema":77,"pct_basura_informal":23,"pct_internet":54,"pct_celular":54,"pct_televisor":62}},{"type":"Feature","geometry":{"type":"Polygon","coordinates":[[[-66.30261,-18.59411],[-66.30265,-18.59375],[-66.30278,-18.59377],[-66.30279,-18.59364],[-66.30245,-18.59356],[-66.30245,-18.59388],[-66.30211,-18.5939],[-66.30208,-18.59412],[-66.30261,-18.59411]]]},"properties":{"n":"BELEN","p":20,"personas_x_ha":80,"masculinidad":122,"pct_menor20":60,"pct_60mas":10,"pct_migrante":5,"dependencia_econ":233,"pct_empleados":0,"pct_cuentapropia":50,"pct_agricultura":33,"pct_comercio":0,"pct_manufactura":0,"pct_construccion":17,"pct_transporte":0,"pct_alojamiento":17,"pct_sin_educacion":22,"pct_educ_superior":11,"brecha_educ":-35,"pct_sin_seguro":11,"pct_sus":89,"pct_seguro_privado":0,"brecha_seguro":18,"pct_salud_publica":29,"pct_med_tradicional":10,"pct_automedicacion":13,"pct_remedios_caseros":27,"pct_viv_desocupada":0,"pct_alquiler":0,"pct_electricidad":100,"pct_sin_electricidad":0,"pct_agua_red":43,"pct_alcantarillado":0,"pct_camara_septica":0,"pct_pozo_ciego":0,"pct_sin_desague":100,"pct_gas_red":0,"pct_gas_garrafa":100,"pct_lena_guano":0,"pct_basura_formal":0,"pct_basura_quema":29,"pct_basura_informal":57,"pct_internet":29,"pct_celular":71,"pct_televisor":71}},{"type":"Feature","geometry":{"type":"Polygon","coordinates":[[[-66.30219,-18.59462],[-66.30228,-18.5942],[-66.30208,-18.59422],[-66.30182,-18.59439],[-66.30182,-18.59453],[-66.30219,-18.59462]]]},"properties":{"n":"BELEN","p":49,"personas_x_ha":317,"masculinidad":145,"pct_menor20":51,"pct_60mas":14,"pct_migrante":0,"dependencia_econ":308,"pct_empleados":8,"pct_cuentapropia":17,"pct_agricultura":17,"pct_comercio":0,"pct_manufactura":0,"pct_construccion":17,"pct_transporte":0,"pct_alojamiento":0,"pct_sin_educacion":36,"pct_educ_superior":0,"brecha_educ":-38,"pct_sin_seguro":0,"pct_sus":96,"pct_seguro_privado":0,"brecha_seguro":0,"pct_salud_publica":32,"pct_med_tradicional":5,"pct_automedicacion":21,"pct_remedios_caseros":15,"pct_viv_desocupada":0,"pct_alquiler":0,"pct_electricidad":89,"pct_sin_electricidad":6,"pct_agua_red":0,"pct_alcantarillado":0,"pct_camara_septica":0,"pct_pozo_ciego":0,"pct_sin_desague":100,"pct_gas_red":0,"pct_gas_garrafa":56,"pct_lena_guano":44,"pct_basura_formal":0,"pct_basura_quema":89,"pct_basura_informal":6,"pct_internet":44,"pct_celular":56,"pct_televisor":61}},{"type":"Feature","geometry":{"type":"Polygon","coordinates":[[[-66.30117,-18.5938],[-66.30109,-18.59302],[-66.30089,-18.59287],[-66.30075,-18.5929],[-66.30068,-18.59296],[-66.30071,-18.59359],[-66.30092,-18.59364],[-66.30099,-18.59393],[-66.30084,-18.59442],[-66.3009,-18.59449],[-66.30106,-18.59428],[-66.30117,-18.5938]]]},"properties":{"n":"BELEN","p":50,"personas_x_ha":97,"masculinidad":127,"pct_menor20":38,"pct_60mas":8,"pct_migrante":0,"dependencia_econ":76,"pct_empleados":8,"pct_cuentapropia":68,"pct_agricultura":44,"pct_comercio":4,"pct_manufactura":0,"pct_construccion":8,"pct_transporte":4,"pct_alojamiento":4,"pct_sin_educacion":18,"pct_educ_superior":7,"brecha_educ":-14,"pct_sin_seguro":11,"pct_sus":83,"pct_seguro_privado":0,"brecha_seguro":7,"pct_salud_publica":36,"pct_med_tradicional":15,"pct_automedicacion":5,"pct_remedios_caseros":18,"pct_viv_desocupada":12,"pct_alquiler":0,"pct_electricidad":100,"pct_sin_electricidad":0,"pct_agua_red":0,"pct_alcantarillado":0,"pct_camara_septica":0,"pct_pozo_ciego":0,"pct_sin_desague":93,"pct_gas_red":0,"pct_gas_garrafa":50,"pct_lena_guano":50,"pct_basura_formal":0,"pct_basura_quema":86,"pct_basura_informal":14,"pct_internet":36,"pct_celular":86,"pct_televisor":71}},{"type":"Feature","geometry":{"type":"Polygon","coordinates":[[[-66.30279,-18.59488],[-66.30302,-18.5951],[-66.30271,-18.59547],[-66.30279,-18.59547],[-66.3028,-18.59558],[-66.30254,-18.59553],[-66.30253,-18.59516],[-66.3026,-18.595],[-66.30279,-18.59488]]]},"properties":{"n":"BELEN","p":38,"personas_x_ha":165,"masculinidad":124,"pct_menor20":37,"pct_60mas":11,"pct_migrante":8,"dependencia_econ":41,"pct_empleados":4,"pct_cuentapropia":15,"pct_agricultura":44,"pct_comercio":0,"pct_manufactura":0,"pct_construccion":4,"pct_transporte":0,"pct_alojamiento":0,"pct_sin_educacion":72,"pct_educ_superior":12,"brecha_educ":10,"pct_sin_seguro":5,"pct_sus":95,"pct_seguro_privado":0,"brecha_seguro":-1,"pct_salud_publica":62,"pct_med_tradicional":3,"pct_automedicacion":21,"pct_remedios_caseros":5,"pct_viv_desocupada":0,"pct_alquiler":0,"pct_electricidad":94,"pct_sin_electricidad":6,"pct_agua_red":50,"pct_alcantarillado":6,"pct_camara_septica":0,"pct_pozo_ciego":0,"pct_sin_desague":94,"pct_gas_red":0,"pct_gas_garrafa":69,"pct_lena_guano":31,"pct_basura_formal":0,"pct_basura_quema":88,"pct_basura_informal":0,"pct_internet":31,"pct_celular":75,"pct_televisor":31}},{"type":"Feature","geometry":{"type":"Polygon","coordinates":[[[-66.30189,-18.59617],[-66.30191,-18.59631],[-66.30189,-18.59659],[-66.3018,-18.59658],[-66.30175,-18.59638],[-66.3018,-18.59616],[-66.30164,-18.59614],[-66.30162,-18.59603],[-66.30189,-18.59617]]]},"properties":{"n":"BELEN","p":17,"personas_x_ha":202,"masculinidad":183,"pct_menor20":24,"pct_60mas":18,"pct_migrante":0,"dependencia_econ":31,"pct_empleados":0,"pct_cuentapropia":92,"pct_agricultura":77,"pct_comercio":8,"pct_manufactura":0,"pct_construccion":8,"pct_transporte":8,"pct_alojamiento":0,"pct_sin_educacion":15,"pct_educ_superior":0,"brecha_educ":-31,"pct_sin_seguro":0,"pct_sus":100,"pct_seguro_privado":0,"brecha_seguro":0,"pct_salud_publica":40,"pct_med_tradicional":21,"pct_automedicacion":14,"pct_remedios_caseros":26,"pct_viv_desocupada":0,"pct_alquiler":0,"pct_electricidad":100,"pct_sin_electricidad":0,"pct_agua_red":0,"pct_alcantarillado":0,"pct_camara_septica":0,"pct_pozo_ciego":0,"pct_sin_desague":88,"pct_gas_red":0,"pct_gas_garrafa":38,"pct_lena_guano":62,"pct_basura_formal":0,"pct_basura_quema":62,"pct_basura_informal":38,"pct_internet":62,"pct_celular":75,"pct_televisor":25}},{"type":"Feature","geometry":{"type":"Polygon","coordinates":[[[-66.30297,-18.59498],[-66.30273,-18.59481],[-66.30279,-18.5947],[-66.30317,-18.59478],[-66.30297,-18.59498]]]},"properties":{"n":"BELEN","p":26,"personas_x_ha":347,"masculinidad":100,"pct_menor20":42,"pct_60mas":23,"pct_migrante":8,"dependencia_econ":73,"pct_empleados":13,"pct_cuentapropia":87,"pct_agricultura":60,"pct_comercio":7,"pct_manufactura":7,"pct_construccion":7,"pct_transporte":0,"pct_alojamiento":0,"pct_sin_educacion":20,"pct_educ_superior":0,"brecha_educ":-30,"pct_sin_seguro":12,"pct_sus":88,"pct_seguro_privado":0,"brecha_seguro":-8,"pct_salud_publica":74,"pct_med_tradicional":0,"pct_automedicacion":0,"pct_remedios_caseros":26,"pct_viv_desocupada":0,"pct_alquiler":0,"pct_electricidad":70,"pct_sin_electricidad":30,"pct_agua_red":0,"pct_alcantarillado":0,"pct_camara_septica":0,"pct_pozo_ciego":0,"pct_sin_desague":100,"pct_gas_red":0,"pct_gas_garrafa":70,"pct_lena_guano":30,"pct_basura_formal":0,"pct_basura_quema":80,"pct_basura_informal":20,"pct_internet":60,"pct_celular":70,"pct_televisor":30}},{"type":"Feature","geometry":{"type":"Polygon","coordinates":[[[-66.30272,-18.59478],[-66.30295,-18.59418],[-66.3026,-18.59423],[-66.30261,-18.59442],[-66.30246,-18.5947],[-66.30257,-18.59479],[-66.30272,-18.59478]]]},"properties":{"n":"BELEN","p":42,"personas_x_ha":222,"masculinidad":100,"pct_menor20":40,"pct_60mas":19,"pct_migrante":52,"dependencia_econ":95,"pct_empleados":33,"pct_cuentapropia":24,"pct_agricultura":19,"pct_comercio":0,"pct_manufactura":0,"pct_construccion":5,"pct_transporte":10,"pct_alojamiento":0,"pct_sin_educacion":4,"pct_educ_superior":4,"brecha_educ":-6,"pct_sin_seguro":0,"pct_sus":96,"pct_seguro_privado":0,"brecha_seguro":0,"pct_salud_publica":75,"pct_med_tradicional":2,"pct_automedicacion":0,"pct_remedios_caseros":20,"pct_viv_desocupada":5,"pct_alquiler":0,"pct_electricidad":95,"pct_sin_electricidad":5,"pct_agua_red":0,"pct_alcantarillado":0,"pct_camara_septica":0,"pct_pozo_ciego":0,"pct_sin_desague":84,"pct_gas_red":0,"pct_gas_garrafa":26,"pct_lena_guano":74,"pct_basura_formal":0,"pct_basura_quema":84,"pct_basura_informal":16,"pct_internet":32,"pct_celular":68,"pct_televisor":42}},{"type":"Feature","geometry":{"type":"Polygon","coordinates":[[[-66.30239,-18.59519],[-66.3023,-18.59482],[-66.30223,-18.59466],[-66.30241,-18.59471],[-66.3025,-18.59479],[-66.30245,-18.59489],[-66.30259,-18.59497],[-66.30249,-18.59546],[-66.30232,-18.59536],[-66.30239,-18.59519]]]},"properties":{"n":"BELEN","p":45,"personas_x_ha":257,"masculinidad":61,"pct_menor20":40,"pct_60mas":16,"pct_migrante":4,"dependencia_econ":207,"pct_empleados":7,"pct_cuentapropia":71,"pct_agricultura":71,"pct_comercio":7,"pct_manufactura":7,"pct_construccion":0,"pct_transporte":0,"pct_alojamiento":0,"pct_sin_educacion":23,"pct_educ_superior":8,"brecha_educ":-30,"pct_sin_seguro":71,"pct_sus":27,"pct_seguro_privado":0,"brecha_seguro":20,"pct_salud_publica":47,"pct_med_tradicional":2,"pct_automedicacion":1,"pct_remedios_caseros":38,"pct_viv_desocupada":0,"pct_alquiler":0,"pct_electricidad":100,"pct_sin_electricidad":0,"pct_agua_red":0,"pct_alcantarillado":0,"pct_camara_septica":0,"pct_pozo_ciego":0,"pct_sin_desague":100,"pct_gas_red":0,"pct_gas_garrafa":85,"pct_lena_guano":15,"pct_basura_formal":0,"pct_basura_quema":69,"pct_basura_informal":23,"pct_internet":46,"pct_celular":77,"pct_televisor":38}},{"type":"Feature","geometry":{"type":"Polygon","coordinates":[[[-66.30155,-18.59279],[-66.30145,-18.59343],[-66.30124,-18.59353],[-66.3012,-18.59296],[-66.30155,-18.59279]]]},"properties":{"n":"BELEN","p":26,"personas_x_ha":117,"masculinidad":100,"pct_menor20":38,"pct_60mas":8,"pct_migrante":0,"dependencia_econ":60,"pct_empleados":20,"pct_cuentapropia":40,"pct_agricultura":40,"pct_comercio":0,"pct_manufactura":0,"pct_construccion":13,"pct_transporte":0,"pct_alojamiento":7,"pct_sin_educacion":19,"pct_educ_superior":6,"brecha_educ":5,"pct_sin_seguro":17,"pct_sus":78,"pct_seguro_privado":0,"brecha_seguro":-19,"pct_salud_publica":26,"pct_med_tradicional":8,"pct_automedicacion":13,"pct_remedios_caseros":22,"pct_viv_desocupada":0,"pct_alquiler":8,"pct_electricidad":83,"pct_sin_electricidad":17,"pct_agua_red":0,"pct_alcantarillado":0,"pct_camara_septica":0,"pct_pozo_ciego":0,"pct_sin_desague":100,"pct_gas_red":0,"pct_gas_garrafa":58,"pct_lena_guano":42,"pct_basura_formal":0,"pct_basura_quema":50,"pct_basura_informal":50,"pct_internet":42,"pct_celular":83,"pct_televisor":42}},{"type":"Feature","geometry":{"type":"Polygon","coordinates":[[[-66.36748,-18.58985],[-66.36732,-18.58961],[-66.36657,-18.59002],[-66.36667,-18.5904],[-66.3664,-18.59118],[-66.3668,-18.59117],[-66.36732,-18.59056],[-66.36748,-18.58985]]]},"properties":{"n":"CHUQUIHUTA","p":40,"personas_x_ha":36,"masculinidad":90,"pct_menor20":52,"pct_60mas":5,"pct_migrante":28,"dependencia_econ":208,"pct_empleados":62,"pct_cuentapropia":23,"pct_agricultura":15,"pct_comercio":0,"pct_manufactura":8,"pct_construccion":8,"pct_transporte":0,"pct_alojamiento":0,"pct_sin_educacion":5,"pct_educ_superior":0,"brecha_educ":-19,"pct_sin_seguro":2,"pct_sus":45,"pct_seguro_privado":0,"brecha_seguro":5,"pct_salud_publica":27,"pct_med_tradicional":8,"pct_automedicacion":22,"pct_remedios_caseros":13,"pct_viv_desocupada":0,"pct_alquiler":8,"pct_electricidad":77,"pct_sin_electricidad":23,"pct_agua_red":31,"pct_alcantarillado":15,"pct_camara_septica":0,"pct_pozo_ciego":0,"pct_sin_desague":85,"pct_gas_red":0,"pct_gas_garrafa":100,"pct_lena_guano":0,"pct_basura_formal":54,"pct_basura_quema":46,"pct_basura_informal":0,"pct_internet":77,"pct_celular":85,"pct_televisor":46}},{"type":"Feature","geometry":{"type":"Polygon","coordinates":[[[-66.35823,-18.59232],[-66.35767,-18.59194],[-66.35772,-18.59178],[-66.3579,-18.59177],[-66.35794,-18.59196],[-66.35823,-18.59205],[-66.35832,-18.59226],[-66.35823,-18.59232]]]},"properties":{"n":"CHUQUIHUTA","p":29,"personas_x_ha":170,"masculinidad":81,"pct_menor20":52,"pct_60mas":3,"pct_migrante":24,"dependencia_econ":190,"pct_empleados":20,"pct_cuentapropia":40,"pct_agricultura":30,"pct_comercio":0,"pct_manufactura":10,"pct_construccion":10,"pct_transporte":0,"pct_alojamiento":0,"pct_sin_educacion":7,"pct_educ_superior":7,"brecha_educ":-4,"pct_sin_seguro":14,"pct_sus":86,"pct_seguro_privado":0,"brecha_seguro":-11,"pct_salud_publica":18,"pct_med_tradicional":11,"pct_automedicacion":18,"pct_remedios_caseros":17,"pct_viv_desocupada":8,"pct_alquiler":0,"pct_electricidad":89,"pct_sin_electricidad":0,"pct_agua_red":89,"pct_alcantarillado":67,"pct_camara_septica":0,"pct_pozo_ciego":0,"pct_sin_desague":33,"pct_gas_red":0,"pct_gas_garrafa":100,"pct_lena_guano":0,"pct_basura_formal":100,"pct_basura_quema":0,"pct_basura_informal":0,"pct_internet":56,"pct_celular":67,"pct_televisor":56}},{"type":"Feature","geometry":{"type":"Polygon","coordinates":[[[-66.36689,-18.59155],[-66.36713,-18.59234],[-66.36745,-18.59221],[-66.36718,-18.59149],[-66.36689,-18.59155]]]},"properties":{"n":"CHUQUIHUTA","p":22,"personas_x_ha":69,"masculinidad":83,"pct_menor20":68,"pct_60mas":9,"pct_migrante":50,"dependencia_econ":120,"pct_empleados":10,"pct_cuentapropia":50,"pct_agricultura":60,"pct_comercio":0,"pct_manufactura":0,"pct_construccion":0,"pct_transporte":10,"pct_alojamiento":10,"pct_sin_educacion":14,"pct_educ_superior":29,"brecha_educ":8,"pct_sin_seguro":23,"pct_sus":77,"pct_seguro_privado":0,"brecha_seguro":-5,"pct_salud_publica":32,"pct_med_tradicional":12,"pct_automedicacion":2,"pct_remedios_caseros":30,"pct_viv_desocupada":0,"pct_alquiler":0,"pct_electricidad":100,"pct_sin_electricidad":0,"pct_agua_red":86,"pct_alcantarillado":29,"pct_camara_septica":0,"pct_pozo_ciego":0,"pct_sin_desague":71,"pct_gas_red":0,"pct_gas_garrafa":100,"pct_lena_guano":0,"pct_basura_formal":29,"pct_basura_quema":71,"pct_basura_informal":0,"pct_internet":100,"pct_celular":100,"pct_televisor":43}},{"type":"Feature","geometry":{"type":"Polygon","coordinates":[[[-66.3656,-18.59208],[-66.36544,-18.59173],[-66.36495,-18.59192],[-66.36506,-18.59211],[-66.36519,-18.59208],[-66.36531,-18.59224],[-66.36546,-18.59211],[-66.36537,-18.59198],[-66.36542,-18.59195],[-66.36548,-18.59211],[-66.3656,-18.59208]]]},"properties":{"n":"CHUQUIHUTA","p":45,"personas_x_ha":234,"masculinidad":67,"pct_menor20":44,"pct_60mas":4,"pct_migrante":49,"dependencia_econ":105,"pct_empleados":23,"pct_cuentapropia":18,"pct_agricultura":27,"pct_comercio":5,"pct_manufactura":0,"pct_construccion":5,"pct_transporte":0,"pct_alojamiento":14,"pct_sin_educacion":4,"pct_educ_superior":4,"brecha_educ":-21,"pct_sin_seguro":2,"pct_sus":98,"pct_seguro_privado":0,"brecha_seguro":6,"pct_salud_publica":31,"pct_med_tradicional":10,"pct_automedicacion":12,"pct_remedios_caseros":18,"pct_viv_desocupada":0,"pct_alquiler":20,"pct_electricidad":100,"pct_sin_electricidad":0,"pct_agua_red":80,"pct_alcantarillado":33,"pct_camara_septica":7,"pct_pozo_ciego":0,"pct_sin_desague":20,"pct_gas_red":0,"pct_gas_garrafa":100,"pct_lena_guano":0,"pct_basura_formal":100,"pct_basura_quema":0,"pct_basura_informal":0,"pct_internet":87,"pct_celular":87,"pct_televisor":87}},{"type":"Feature","geometry":{"type":"Polygon","coordinates":[[[-66.35897,-18.59598],[-66.35942,-18.59474],[-66.35952,-18.59482],[-66.35943,-18.59505],[-66.35951,-18.59535],[-66.35944,-18.59576],[-66.35922,-18.59611],[-66.35897,-18.59598]]]},"properties":{"n":"CHUQUIHUTA","p":22,"personas_x_ha":52,"masculinidad":69,"pct_menor20":41,"pct_60mas":0,"pct_migrante":27,"dependencia_econ":144,"pct_empleados":44,"pct_cuentapropia":33,"pct_agricultura":11,"pct_comercio":0,"pct_manufactura":11,"pct_construccion":0,"pct_transporte":0,"pct_alojamiento":0,"pct_sin_educacion":8,"pct_educ_superior":62,"brecha_educ":19,"pct_sin_seguro":0,"pct_sus":59,"pct_seguro_privado":0,"brecha_seguro":0,"pct_salud_publica":23,"pct_med_tradicional":9,"pct_automedicacion":18,"pct_remedios_caseros":23,"pct_viv_desocupada":0,"pct_alquiler":12,"pct_electricidad":100,"pct_sin_electricidad":0,"pct_agua_red":100,"pct_alcantarillado":50,"pct_camara_septica":0,"pct_pozo_ciego":0,"pct_sin_desague":12,"pct_gas_red":0,"pct_gas_garrafa":88,"pct_lena_guano":0,"pct_basura_formal":75,"pct_basura_quema":0,"pct_basura_informal":12,"pct_internet":62,"pct_celular":75,"pct_televisor":62}},{"type":"Feature","geometry":{"type":"Polygon","coordinates":[[[-66.3587,-18.59184],[-66.35881,-18.59205],[-66.35891,-18.59201],[-66.35882,-18.59178],[-66.3587,-18.59184]]]},"properties":{"n":"CHUQUIHUTA","p":35,"personas_x_ha":996,"masculinidad":169,"pct_menor20":29,"pct_60mas":6,"pct_migrante":37,"dependencia_econ":106,"pct_empleados":41,"pct_cuentapropia":18,"pct_agricultura":35,"pct_comercio":0,"pct_manufactura":0,"pct_construccion":0,"pct_transporte":6,"pct_alojamiento":0,"pct_sin_educacion":4,"pct_educ_superior":20,"brecha_educ":-15,"pct_sin_seguro":3,"pct_sus":43,"pct_seguro_privado":0,"brecha_seguro":5,"pct_salud_publica":19,"pct_med_tradicional":15,"pct_automedicacion":19,"pct_remedios_caseros":21,"pct_viv_desocupada":0,"pct_alquiler":15,"pct_electricidad":100,"pct_sin_electricidad":0,"pct_agua_red":92,"pct_alcantarillado":8,"pct_camara_septica":0,"pct_pozo_ciego":8,"pct_sin_desague":62,"pct_gas_red":0,"pct_gas_garrafa":100,"pct_lena_guano":0,"pct_basura_formal":100,"pct_basura_quema":0,"pct_basura_informal":0,"pct_internet":85,"pct_celular":85,"pct_televisor":92}},{"type":"Feature","geometry":{"type":"Polygon","coordinates":[[[-66.36043,-18.59315],[-66.36022,-18.59325],[-66.36024,-18.59381],[-66.36032,-18.59381],[-66.36034,-18.59364],[-66.36053,-18.59344],[-66.36045,-18.59335],[-66.36079,-18.59324],[-66.36043,-18.59315]]]},"properties":{"n":"CHUQUIHUTA","p":31,"personas_x_ha":172,"masculinidad":94,"pct_menor20":35,"pct_60mas":10,"pct_migrante":58,"dependencia_econ":107,"pct_empleados":27,"pct_cuentapropia":47,"pct_agricultura":20,"pct_comercio":13,"pct_manufactura":0,"pct_construccion":7,"pct_transporte":13,"pct_alojamiento":0,"pct_sin_educacion":10,"pct_educ_superior":29,"brecha_educ":22,"pct_sin_seguro":0,"pct_sus":45,"pct_seguro_privado":26,"brecha_seguro":0,"pct_salud_publica":23,"pct_med_tradicional":5,"pct_automedicacion":9,"pct_remedios_caseros":29,"pct_viv_desocupada":15,"pct_alquiler":7,"pct_electricidad":100,"pct_sin_electricidad":0,"pct_agua_red":93,"pct_alcantarillado":93,"pct_camara_septica":0,"pct_pozo_ciego":0,"pct_sin_desague":7,"pct_gas_red":0,"pct_gas_garrafa":100,"pct_lena_guano":0,"pct_basura_formal":93,"pct_basura_quema":0,"pct_basura_informal":7,"pct_internet":57,"pct_celular":100,"pct_televisor":71}},{"type":"Feature","geometry":{"type":"Polygon","coordinates":[[[-66.35793,-18.59029],[-66.35781,-18.59032],[-66.35775,-18.59008],[-66.35762,-18.59013],[-66.35781,-18.5905],[-66.35793,-18.59029]]]},"properties":{"n":"CHUQUIHUTA","p":21,"personas_x_ha":306,"masculinidad":91,"pct_menor20":38,"pct_60mas":10,"pct_migrante":33,"dependencia_econ":91,"pct_empleados":18,"pct_cuentapropia":36,"pct_agricultura":27,"pct_comercio":9,"pct_manufactura":0,"pct_construccion":0,"pct_transporte":0,"pct_alojamiento":0,"pct_sin_educacion":14,"pct_educ_superior":7,"brecha_educ":4,"pct_sin_seguro":33,"pct_sus":67,"pct_seguro_privado":0,"brecha_seguro":-25,"pct_salud_publica":18,"pct_med_tradicional":23,"pct_automedicacion":21,"pct_remedios_caseros":23,"pct_viv_desocupada":0,"pct_alquiler":25,"pct_electricidad":100,"pct_sin_electricidad":0,"pct_agua_red":62,"pct_alcantarillado":0,"pct_camara_septica":0,"pct_pozo_ciego":0,"pct_sin_desague":75,"pct_gas_red":0,"pct_gas_garrafa":100,"pct_lena_guano":0,"pct_basura_formal":50,"pct_basura_quema":50,"pct_basura_informal":0,"pct_internet":88,"pct_celular":88,"pct_televisor":75}},{"type":"Feature","geometry":{"type":"Polygon","coordinates":[[[-66.36106,-18.59238],[-66.36094,-18.59261],[-66.36117,-18.59263],[-66.36133,-18.59253],[-66.36141,-18.59227],[-66.36124,-18.59223],[-66.36118,-18.59242],[-66.36106,-18.59238]]]},"properties":{"n":"CHUQUIHUTA","p":33,"personas_x_ha":282,"masculinidad":94,"pct_menor20":33,"pct_60mas":9,"pct_migrante":42,"dependencia_econ":82,"pct_empleados":18,"pct_cuentapropia":35,"pct_agricultura":29,"pct_comercio":12,"pct_manufactura":0,"pct_construccion":0,"pct_transporte":12,"pct_alojamiento":0,"pct_sin_educacion":5,"pct_educ_superior":14,"brecha_educ":-18,"pct_sin_seguro":10,"pct_sus":20,"pct_seguro_privado":3,"brecha_seguro":19,"pct_salud_publica":35,"pct_med_tradicional":0,"pct_automedicacion":9,"pct_remedios_caseros":0,"pct_viv_desocupada":0,"pct_alquiler":33,"pct_electricidad":100,"pct_sin_electricidad":0,"pct_agua_red":100,"pct_alcantarillado":0,"pct_camara_septica":0,"pct_pozo_ciego":0,"pct_sin_desague":25,"pct_gas_red":0,"pct_gas_garrafa":100,"pct_lena_guano":0,"pct_basura_formal":100,"pct_basura_quema":0,"pct_basura_informal":0,"pct_internet":83,"pct_celular":92,"pct_televisor":92}},{"type":"Feature","geometry":{"type":"Polygon","coordinates":[[[-66.35818,-18.59113],[-66.35862,-18.59127],[-66.35864,-18.5918],[-66.35897,-18.59227],[-66.35864,-18.59269],[-66.35849,-18.59302],[-66.35773,-18.59352],[-66.35768,-18.59349],[-66.35809,-18.59264],[-66.35825,-18.59236],[-66.35838,-18.59239],[-66.35846,-18.59222],[-66.35837,-18.59215],[-66.3585,-18.59197],[-66.35852,-18.59147],[-66.3581,-18.59126],[-66.35818,-18.59113]]]},"properties":{"n":"CHUQUIHUTA","p":59,"personas_x_ha":56,"masculinidad":111,"pct_menor20":42,"pct_60mas":2,"pct_migrante":31,"dependencia_econ":119,"pct_empleados":33,"pct_cuentapropia":56,"pct_agricultura":11,"pct_comercio":15,"pct_manufactura":0,"pct_construccion":0,"pct_transporte":0,"pct_alojamiento":4,"pct_sin_educacion":0,"pct_educ_superior":23,"brecha_educ":-39,"pct_sin_seguro":3,"pct_sus":37,"pct_seguro_privado":2,"brecha_seguro":0,"pct_salud_publica":24,"pct_med_tradicional":8,"pct_automedicacion":21,"pct_remedios_caseros":20,"pct_viv_desocupada":0,"pct_alquiler":5,"pct_electricidad":89,"pct_sin_electricidad":11,"pct_agua_red":58,"pct_alcantarillado":11,"pct_camara_septica":0,"pct_pozo_ciego":0,"pct_sin_desague":37,"pct_gas_red":0,"pct_gas_garrafa":100,"pct_lena_guano":0,"pct_basura_formal":100,"pct_basura_quema":0,"pct_basura_informal":0,"pct_internet":84,"pct_celular":95,"pct_televisor":79}},{"type":"Feature","geometry":{"type":"Polygon","coordinates":[[[-66.36595,-18.5917],[-66.36554,-18.5916],[-66.36543,-18.59164],[-66.36568,-18.5921],[-66.3661,-18.59197],[-66.3661,-18.59186],[-66.36657,-18.5916],[-66.36654,-18.59154],[-66.36595,-18.5917]]]},"properties":{"n":"CHUQUIHUTA","p":68,"personas_x_ha":212,"masculinidad":127,"pct_menor20":44,"pct_60mas":7,"pct_migrante":46,"dependencia_econ":94,"pct_empleados":17,"pct_cuentapropia":46,"pct_agricultura":26,"pct_comercio":11,"pct_manufactura":0,"pct_construccion":0,"pct_transporte":0,"pct_alojamiento":3,"pct_sin_educacion":5,"pct_educ_superior":12,"brecha_educ":-20,"pct_sin_seguro":6,"pct_sus":71,"pct_seguro_privado":0,"brecha_seguro":-1,"pct_salud_publica":22,"pct_med_tradicional":14,"pct_automedicacion":17,"pct_remedios_caseros":18,"pct_viv_desocupada":0,"pct_alquiler":21,"pct_electricidad":96,"pct_sin_electricidad":0,"pct_agua_red":17,"pct_alcantarillado":50,"pct_camara_septica":8,"pct_pozo_ciego":17,"pct_sin_desague":25,"pct_gas_red":0,"pct_gas_garrafa":100,"pct_lena_guano":0,"pct_basura_formal":96,"pct_basura_quema":4,"pct_basura_informal":0,"pct_internet":88,"pct_celular":92,"pct_televisor":71}},{"type":"Feature","geometry":{"type":"Polygon","coordinates":[[[-66.36163,-18.5927],[-66.3617,-18.59276],[-66.36162,-18.59271],[-66.36116,-18.59301],[-66.36132,-18.59336],[-66.36113,-18.593],[-66.36101,-18.59328],[-66.36083,-18.59337],[-66.36086,-18.59347],[-66.36112,-18.59339],[-66.36119,-18.59357],[-66.3614,-18.59344],[-66.36133,-18.59316],[-66.36194,-18.59267],[-66.36183,-18.5926],[-66.36163,-18.5927]]]},"properties":{"n":"CHUQUIHUTA","p":80,"personas_x_ha":231,"masculinidad":100,"pct_menor20":35,"pct_60mas":5,"pct_migrante":40,"dependencia_econ":82,"pct_empleados":34,"pct_cuentapropia":20,"pct_agricultura":14,"pct_comercio":0,"pct_manufactura":0,"pct_construccion":2,"pct_transporte":2,"pct_alojamiento":2,"pct_sin_educacion":4,"pct_educ_superior":50,"brecha_educ":-12,"pct_sin_seguro":5,"pct_sus":46,"pct_seguro_privado":0,"brecha_seguro":10,"pct_salud_publica":18,"pct_med_tradicional":14,"pct_automedicacion":18,"pct_remedios_caseros":20,"pct_viv_desocupada":0,"pct_alquiler":8,"pct_electricidad":100,"pct_sin_electricidad":0,"pct_agua_red":96,"pct_alcantarillado":88,"pct_camara_septica":4,"pct_pozo_ciego":0,"pct_sin_desague":8,"pct_gas_red":0,"pct_gas_garrafa":96,"pct_lena_guano":0,"pct_basura_formal":96,"pct_basura_quema":0,"pct_basura_informal":4,"pct_internet":84,"pct_celular":88,"pct_televisor":88}},{"type":"Feature","geometry":{"type":"Polygon","coordinates":[[[-66.35954,-18.59606],[-66.35972,-18.59565],[-66.35972,-18.59529],[-66.35964,-18.59528],[-66.35957,-18.59485],[-66.3595,-18.59497],[-66.3596,-18.59551],[-66.3594,-18.59603],[-66.35954,-18.59606]]]},"properties":{"n":"CHUQUIHUTA","p":20,"personas_x_ha":121,"masculinidad":122,"pct_menor20":25,"pct_60mas":10,"pct_migrante":55,"dependencia_econ":100,"pct_empleados":70,"pct_cuentapropia":10,"pct_agricultura":0,"pct_comercio":10,"pct_manufactura":0,"pct_construccion":0,"pct_transporte":0,"pct_alojamiento":0,"pct_sin_educacion":0,"pct_educ_superior":60,"brecha_educ":16,"pct_sin_seguro":0,"pct_sus":40,"pct_seguro_privado":0,"brecha_seguro":0,"pct_salud_publica":15,"pct_med_tradicional":17,"pct_automedicacion":21,"pct_remedios_caseros":22,"pct_viv_desocupada":0,"pct_alquiler":33,"pct_electricidad":100,"pct_sin_electricidad":0,"pct_agua_red":67,"pct_alcantarillado":50,"pct_camara_septica":0,"pct_pozo_ciego":0,"pct_sin_desague":17,"pct_gas_red":0,"pct_gas_garrafa":100,"pct_lena_guano":0,"pct_basura_formal":100,"pct_basura_quema":0,"pct_basura_informal":0,"pct_internet":83,"pct_celular":83,"pct_televisor":100}},{"type":"Feature","geometry":{"type":"Polygon","coordinates":[[[-66.35769,-18.59206],[-66.3579,-18.59216],[-66.35797,-18.59229],[-66.35764,-18.59234],[-66.35741,-18.59227],[-66.35769,-18.59206]]]},"properties":{"n":"CHUQUIHUTA","p":29,"personas_x_ha":289,"masculinidad":81,"pct_menor20":52,"pct_60mas":7,"pct_migrante":31,"dependencia_econ":222,"pct_empleados":0,"pct_cuentapropia":56,"pct_agricultura":33,"pct_comercio":0,"pct_manufactura":0,"pct_construccion":0,"pct_transporte":0,"pct_alojamiento":0,"pct_sin_educacion":21,"pct_educ_superior":29,"brecha_educ":12,"pct_sin_seguro":3,"pct_sus":48,"pct_seguro_privado":0,"brecha_seguro":8,"pct_salud_publica":22,"pct_med_tradicional":14,"pct_automedicacion":22,"pct_remedios_caseros":21,"pct_viv_desocupada":23,"pct_alquiler":0,"pct_electricidad":100,"pct_sin_electricidad":0,"pct_agua_red":100,"pct_alcantarillado":0,"pct_camara_septica":10,"pct_pozo_ciego":0,"pct_sin_desague":70,"pct_gas_red":0,"pct_gas_garrafa":100,"pct_lena_guano":0,"pct_basura_formal":100,"pct_basura_quema":0,"pct_basura_informal":0,"pct_internet":70,"pct_celular":90,"pct_televisor":90}},{"type":"Feature","geometry":{"type":"Polygon","coordinates":[[[-66.3646,-18.59214],[-66.36457,-18.59208],[-66.36435,-18.59218],[-66.36413,-18.59212],[-66.36412,-18.59222],[-66.36442,-18.59229],[-66.3646,-18.59214]]]},"properties":{"n":"CHUQUIHUTA","p":27,"personas_x_ha":479,"masculinidad":145,"pct_menor20":30,"pct_60mas":7,"pct_migrante":59,"dependencia_econ":59,"pct_empleados":12,"pct_cuentapropia":6,"pct_agricultura":0,"pct_comercio":29,"pct_manufactura":0,"pct_construccion":6,"pct_transporte":0,"pct_alojamiento":0,"pct_sin_educacion":5,"pct_educ_superior":47,"brecha_educ":-18,"pct_sin_seguro":4,"pct_sus":35,"pct_seguro_privado":0,"brecha_seguro":7,"pct_salud_publica":12,"pct_med_tradicional":6,"pct_automedicacion":26,"pct_remedios_caseros":30,"pct_viv_desocupada":0,"pct_alquiler":36,"pct_electricidad":100,"pct_sin_electricidad":0,"pct_agua_red":100,"pct_alcantarillado":18,"pct_camara_septica":0,"pct_pozo_ciego":0,"pct_sin_desague":0,"pct_gas_red":0,"pct_gas_garrafa":100,"pct_lena_guano":0,"pct_basura_formal":100,"pct_basura_quema":0,"pct_basura_informal":0,"pct_internet":91,"pct_celular":100,"pct_televisor":91}},{"type":"Feature","geometry":{"type":"Polygon","coordinates":[[[-66.36063,-18.59292],[-66.36062,-18.59286],[-66.36025,-18.5929],[-66.36017,-18.59303],[-66.36019,-18.5932],[-66.36041,-18.59314],[-66.36041,-18.59297],[-66.36063,-18.59292]]]},"properties":{"n":"CHUQUIHUTA","p":31,"personas_x_ha":298,"masculinidad":82,"pct_menor20":39,"pct_60mas":16,"pct_migrante":55,"dependencia_econ":138,"pct_empleados":38,"pct_cuentapropia":54,"pct_agricultura":0,"pct_comercio":15,"pct_manufactura":0,"pct_construccion":0,"pct_transporte":15,"pct_alojamiento":15,"pct_sin_educacion":0,"pct_educ_superior":58,"brecha_educ":2,"pct_sin_seguro":3,"pct_sus":23,"pct_seguro_privado":0,"brecha_seguro":7,"pct_salud_publica":21,"pct_med_tradicional":11,"pct_automedicacion":18,"pct_remedios_caseros":19,"pct_viv_desocupada":6,"pct_alquiler":17,"pct_electricidad":100,"pct_sin_electricidad":0,"pct_agua_red":100,"pct_alcantarillado":100,"pct_camara_septica":0,"pct_pozo_ciego":0,"pct_sin_desague":0,"pct_gas_red":0,"pct_gas_garrafa":100,"pct_lena_guano":0,"pct_basura_formal":100,"pct_basura_quema":0,"pct_basura_informal":0,"pct_internet":58,"pct_celular":92,"pct_televisor":100}},{"type":"Feature","geometry":{"type":"Polygon","coordinates":[[[-66.35753,-18.59272],[-66.35718,-18.59296],[-66.35759,-18.59297],[-66.35766,-18.59283],[-66.35768,-18.59293],[-66.35789,-18.59285],[-66.35794,-18.59274],[-66.35779,-18.59274],[-66.3578,-18.59266],[-66.35773,-18.59265],[-66.35782,-18.59264],[-66.35781,-18.59272],[-66.35794,-18.59272],[-66.35813,-18.59255],[-66.35816,-18.59242],[-66.35732,-18.59257],[-66.35734,-18.59282],[-66.35753,-18.59272]]]},"properties":{"n":"CHUQUIHUTA","p":78,"personas_x_ha":241,"masculinidad":90,"pct_menor20":50,"pct_60mas":3,"pct_migrante":28,"dependencia_econ":225,"pct_empleados":42,"pct_cuentapropia":17,"pct_agricultura":21,"pct_comercio":8,"pct_manufactura":0,"pct_construccion":8,"pct_transporte":0,"pct_alojamiento":0,"pct_sin_educacion":13,"pct_educ_superior":8,"brecha_educ":-18,"pct_sin_seguro":24,"pct_sus":76,"pct_seguro_privado":0,"brecha_seguro":5,"pct_salud_publica":17,"pct_med_tradicional":12,"pct_automedicacion":18,"pct_remedios_caseros":24,"pct_viv_desocupada":0,"pct_alquiler":5,"pct_electricidad":100,"pct_sin_electricidad":0,"pct_agua_red":100,"pct_alcantarillado":0,"pct_camara_septica":0,"pct_pozo_ciego":5,"pct_sin_desague":86,"pct_gas_red":5,"pct_gas_garrafa":95,"pct_lena_guano":0,"pct_basura_formal":90,"pct_basura_quema":10,"pct_basura_informal":0,"pct_internet":95,"pct_celular":95,"pct_televisor":95}},{"type":"Feature","geometry":{"type":"Polygon","coordinates":[[[-66.35958,-18.5924],[-66.35922,-18.5921],[-66.35948,-18.59206],[-66.35992,-18.59243],[-66.35995,-18.59258],[-66.35981,-18.59304],[-66.35965,-18.59257],[-66.35978,-18.59249],[-66.35964,-18.59255],[-66.35959,-18.59243],[-66.35971,-18.59234],[-66.35958,-18.5924]]]},"properties":{"n":"CHUQUIHUTA","p":49,"personas_x_ha":183,"masculinidad":104,"pct_menor20":43,"pct_60mas":6,"pct_migrante":55,"dependencia_econ":123,"pct_empleados":23,"pct_cuentapropia":23,"pct_agricultura":23,"pct_comercio":5,"pct_manufactura":5,"pct_construccion":0,"pct_transporte":0,"pct_alojamiento":0,"pct_sin_educacion":4,"pct_educ_superior":25,"brecha_educ":-32,"pct_sin_seguro":2,"pct_sus":29,"pct_seguro_privado":0,"brecha_seguro":4,"pct_salud_publica":19,"pct_med_tradicional":11,"pct_automedicacion":21,"pct_remedios_caseros":23,"pct_viv_desocupada":16,"pct_alquiler":7,"pct_electricidad":100,"pct_sin_electricidad":0,"pct_agua_red":79,"pct_alcantarillado":29,"pct_camara_septica":0,"pct_pozo_ciego":0,"pct_sin_desague":0,"pct_gas_red":0,"pct_gas_garrafa":100,"pct_lena_guano":0,"pct_basura_formal":100,"pct_basura_quema":0,"pct_basura_informal":0,"pct_internet":93,"pct_celular":86,"pct_televisor":93}},{"type":"Feature","geometry":{"type":"Polygon","coordinates":[[[-66.36087,-18.59263],[-66.3606,-18.59254],[-66.36074,-18.59209],[-66.36083,-18.59212],[-66.36095,-18.59207],[-66.36076,-18.59207],[-66.36084,-18.59185],[-66.36099,-18.59178],[-66.36119,-18.59185],[-66.36127,-18.59164],[-66.36147,-18.59167],[-66.36151,-18.59216],[-66.36145,-18.59224],[-66.36123,-18.59215],[-66.36115,-18.59238],[-66.36103,-18.59234],[-66.36099,-18.59244],[-66.36089,-18.59242],[-66.36098,-18.59246],[-66.36087,-18.59263]]]},"properties":{"n":"CHUQUIHUTA","p":103,"personas_x_ha":188,"masculinidad":106,"pct_menor20":44,"pct_60mas":3,"pct_migrante":54,"dependencia_econ":212,"pct_empleados":21,"pct_cuentapropia":30,"pct_agricultura":3,"pct_comercio":9,"pct_manufactura":0,"pct_construccion":3,"pct_transporte":0,"pct_alojamiento":0,"pct_sin_educacion":0,"pct_educ_superior":27,"brecha_educ":-20,"pct_sin_seguro":4,"pct_sus":57,"pct_seguro_privado":1,"brecha_seguro":4,"pct_salud_publica":19,"pct_med_tradicional":12,"pct_automedicacion":20,"pct_remedios_caseros":21,"pct_viv_desocupada":16,"pct_alquiler":13,"pct_electricidad":100,"pct_sin_electricidad":0,"pct_agua_red":81,"pct_alcantarillado":42,"pct_camara_septica":3,"pct_pozo_ciego":0,"pct_sin_desague":16,"pct_gas_red":6,"pct_gas_garrafa":87,"pct_lena_guano":0,"pct_basura_formal":97,"pct_basura_quema":3,"pct_basura_informal":0,"pct_internet":77,"pct_celular":94,"pct_televisor":97}},{"type":"Feature","geometry":{"type":"Polygon","coordinates":[[[-66.35876,-18.59102],[-66.35882,-18.59059],[-66.35917,-18.59083],[-66.35914,-18.59166],[-66.35946,-18.592],[-66.35913,-18.59205],[-66.35899,-18.59196],[-66.35897,-18.59119],[-66.35889,-18.59104],[-66.35876,-18.59102]]]},"properties":{"n":"CHUQUIHUTA","p":35,"personas_x_ha":73,"masculinidad":67,"pct_menor20":37,"pct_60mas":6,"pct_migrante":49,"dependencia_econ":133,"pct_empleados":40,"pct_cuentapropia":27,"pct_agricultura":20,"pct_comercio":7,"pct_manufactura":7,"pct_construccion":0,"pct_transporte":0,"pct_alojamiento":7,"pct_sin_educacion":5,"pct_educ_superior":23,"brecha_educ":-12,"pct_sin_seguro":6,"pct_sus":69,"pct_seguro_privado":3,"brecha_seguro":2,"pct_salud_publica":17,"pct_med_tradicional":18,"pct_automedicacion":13,"pct_remedios_caseros":22,"pct_viv_desocupada":0,"pct_alquiler":17,"pct_electricidad":100,"pct_sin_electricidad":0,"pct_agua_red":75,"pct_alcantarillado":8,"pct_camara_septica":0,"pct_pozo_ciego":0,"pct_sin_desague":17,"pct_gas_red":0,"pct_gas_garrafa":100,"pct_lena_guano":0,"pct_basura_formal":83,"pct_basura_quema":17,"pct_basura_informal":0,"pct_internet":100,"pct_celular":100,"pct_televisor":83}},{"type":"Feature","geometry":{"type":"Polygon","coordinates":[[[-66.36384,-18.59175],[-66.3632,-18.59183],[-66.36306,-18.59174],[-66.36314,-18.59167],[-66.36308,-18.59163],[-66.36304,-18.59173],[-66.36272,-18.59161],[-66.36271,-18.59146],[-66.36293,-18.59153],[-66.36273,-18.59144],[-66.36379,-18.59128],[-66.36382,-18.59152],[-66.36354,-18.59163],[-66.36367,-18.59149],[-66.36354,-18.59153],[-66.3635,-18.59165],[-66.36382,-18.59154],[-66.36384,-18.59175]]]},"properties":{"n":"CHUQUIHUTA","p":110,"personas_x_ha":208,"masculinidad":108,"pct_menor20":54,"pct_60mas":0,"pct_migrante":33,"dependencia_econ":189,"pct_empleados":37,"pct_cuentapropia":24,"pct_agricultura":11,"pct_comercio":11,"pct_manufactura":3,"pct_construccion":5,"pct_transporte":0,"pct_alojamiento":3,"pct_sin_educacion":6,"pct_educ_superior":12,"brecha_educ":-11,"pct_sin_seguro":3,"pct_sus":63,"pct_seguro_privado":0,"brecha_seguro":2,"pct_salud_publica":18,"pct_med_tradicional":20,"pct_automedicacion":19,"pct_remedios_caseros":23,"pct_viv_desocupada":0,"pct_alquiler":24,"pct_electricidad":97,"pct_sin_electricidad":3,"pct_agua_red":82,"pct_alcantarillado":18,"pct_camara_septica":0,"pct_pozo_ciego":3,"pct_sin_desague":32,"pct_gas_red":3,"pct_gas_garrafa":97,"pct_lena_guano":0,"pct_basura_formal":91,"pct_basura_quema":9,"pct_basura_informal":0,"pct_internet":85,"pct_celular":91,"pct_televisor":82}},{"type":"Feature","geometry":{"type":"Polygon","coordinates":[[[-66.36356,-18.59218],[-66.36341,-18.59233],[-66.36346,-18.59294],[-66.3633,-18.59293],[-66.36328,-18.59216],[-66.36356,-18.59218]]]},"properties":{"n":"CHUQUIHUTA","p":47,"personas_x_ha":292,"masculinidad":68,"pct_menor20":45,"pct_60mas":2,"pct_migrante":49,"dependencia_econ":161,"pct_empleados":11,"pct_cuentapropia":17,"pct_agricultura":17,"pct_comercio":11,"pct_manufactura":0,"pct_construccion":0,"pct_transporte":0,"pct_alojamiento":0,"pct_sin_educacion":4,"pct_educ_superior":15,"brecha_educ":-10,"pct_sin_seguro":2,"pct_sus":98,"pct_seguro_privado":0,"brecha_seguro":-4,"pct_salud_publica":23,"pct_med_tradicional":13,"pct_automedicacion":21,"pct_remedios_caseros":20,"pct_viv_desocupada":0,"pct_alquiler":22,"pct_electricidad":100,"pct_sin_electricidad":0,"pct_agua_red":83,"pct_alcantarillado":61,"pct_camara_septica":0,"pct_pozo_ciego":28,"pct_sin_desague":11,"pct_gas_red":0,"pct_gas_garrafa":100,"pct_lena_guano":0,"pct_basura_formal":100,"pct_basura_quema":0,"pct_basura_informal":0,"pct_internet":100,"pct_celular":100,"pct_televisor":94}},{"type":"Feature","geometry":{"type":"Polygon","coordinates":[[[-66.36014,-18.59332],[-66.36012,-18.59396],[-66.36024,-18.59408],[-66.36001,-18.59433],[-66.35971,-18.59402],[-66.35991,-18.59378],[-66.36005,-18.59381],[-66.35998,-18.59336],[-66.36014,-18.59332]]]},"properties":{"n":"CHUQUIHUTA","p":27,"personas_x_ha":98,"masculinidad":80,"pct_menor20":44,"pct_60mas":0,"pct_migrante":52,"dependencia_econ":59,"pct_empleados":18,"pct_cuentapropia":71,"pct_agricultura":0,"pct_comercio":59,"pct_manufactura":6,"pct_construccion":0,"pct_transporte":6,"pct_alojamiento":6,"pct_sin_educacion":0,"pct_educ_superior":44,"brecha_educ":20,"pct_sin_seguro":4,"pct_sus":63,"pct_seguro_privado":0,"brecha_seguro":-7,"pct_salud_publica":21,"pct_med_tradicional":12,"pct_automedicacion":21,"pct_remedios_caseros":20,"pct_viv_desocupada":29,"pct_alquiler":10,"pct_electricidad":100,"pct_sin_electricidad":0,"pct_agua_red":90,"pct_alcantarillado":60,"pct_camara_septica":0,"pct_pozo_ciego":0,"pct_sin_desague":30,"pct_gas_red":0,"pct_gas_garrafa":100,"pct_lena_guano":0,"pct_basura_formal":100,"pct_basura_quema":0,"pct_basura_informal":0,"pct_internet":90,"pct_celular":100,"pct_televisor":80}},{"type":"Feature","geometry":{"type":"Polygon","coordinates":[[[-66.35722,-18.59193],[-66.35764,-18.59193],[-66.35764,-18.59162],[-66.3574,-18.59147],[-66.35717,-18.5916],[-66.35704,-18.59173],[-66.35722,-18.59193]]]},"properties":{"n":"CHUQUIHUTA","p":44,"personas_x_ha":180,"masculinidad":132,"pct_menor20":43,"pct_60mas":0,"pct_migrante":20,"dependencia_econ":95,"pct_empleados":23,"pct_cuentapropia":36,"pct_agricultura":14,"pct_comercio":5,"pct_manufactura":0,"pct_construccion":0,"pct_transporte":0,"pct_alojamiento":0,"pct_sin_educacion":4,"pct_educ_superior":8,"brecha_educ":-4,"pct_sin_seguro":15,"pct_sus":66,"pct_seguro_privado":0,"brecha_seguro":5,"pct_salud_publica":24,"pct_med_tradicional":9,"pct_automedicacion":21,"pct_remedios_caseros":19,"pct_viv_desocupada":12,"pct_alquiler":7,"pct_electricidad":100,"pct_sin_electricidad":0,"pct_agua_red":79,"pct_alcantarillado":0,"pct_camara_septica":0,"pct_pozo_ciego":0,"pct_sin_desague":100,"pct_gas_red":0,"pct_gas_garrafa":100,"pct_lena_guano":0,"pct_basura_formal":100,"pct_basura_quema":0,"pct_basura_informal":0,"pct_internet":93,"pct_celular":93,"pct_televisor":86}},{"type":"Feature","geometry":{"type":"Polygon","coordinates":[[[-66.36103,-18.59305],[-66.36095,-18.59291],[-66.36075,-18.59286],[-66.3606,-18.59311],[-66.3608,-18.59323],[-66.36103,-18.59305]]]},"properties":{"n":"CHUQUIHUTA","p":17,"personas_x_ha":161,"masculinidad":143,"pct_menor20":24,"pct_60mas":12,"pct_migrante":41,"dependencia_econ":143,"pct_empleados":29,"pct_cuentapropia":43,"pct_agricultura":14,"pct_comercio":29,"pct_manufactura":0,"pct_construccion":0,"pct_transporte":0,"pct_alojamiento":0,"pct_sin_educacion":7,"pct_educ_superior":50,"brecha_educ":-29,"pct_sin_seguro":12,"pct_sus":47,"pct_seguro_privado":0,"brecha_seguro":20,"pct_salud_publica":21,"pct_med_tradicional":13,"pct_automedicacion":17,"pct_remedios_caseros":17,"pct_viv_desocupada":0,"pct_alquiler":12,"pct_electricidad":100,"pct_sin_electricidad":0,"pct_agua_red":88,"pct_alcantarillado":100,"pct_camara_septica":0,"pct_pozo_ciego":0,"pct_sin_desague":0,"pct_gas_red":0,"pct_gas_garrafa":100,"pct_lena_guano":0,"pct_basura_formal":100,"pct_basura_quema":0,"pct_basura_informal":0,"pct_internet":62,"pct_celular":88,"pct_televisor":88}},{"type":"Feature","geometry":{"type":"Polygon","coordinates":[[[-66.36208,-18.59242],[-66.36187,-18.59259],[-66.36222,-18.59282],[-66.36271,-18.59262],[-66.36281,-18.59286],[-66.36293,-18.59285],[-66.36303,-18.59332],[-66.36315,-18.5933],[-66.36309,-18.59255],[-66.36293,-18.5923],[-66.3621,-18.59247],[-66.36208,-18.59242]]]},"properties":{"n":"CHUQUIHUTA","p":71,"personas_x_ha":118,"masculinidad":103,"pct_menor20":45,"pct_60mas":6,"pct_migrante":31,"dependencia_econ":106,"pct_empleados":9,"pct_cuentapropia":67,"pct_agricultura":12,"pct_comercio":9,"pct_manufactura":0,"pct_construccion":12,"pct_transporte":0,"pct_alojamiento":3,"pct_sin_educacion":5,"pct_educ_superior":24,"brecha_educ":-23,"pct_sin_seguro":1,"pct_sus":56,"pct_seguro_privado":0,"brecha_seguro":-3,"pct_salud_publica":22,"pct_med_tradicional":18,"pct_automedicacion":20,"pct_remedios_caseros":20,"pct_viv_desocupada":15,"pct_alquiler":22,"pct_electricidad":100,"pct_sin_electricidad":0,"pct_agua_red":96,"pct_alcantarillado":30,"pct_camara_septica":0,"pct_pozo_ciego":4,"pct_sin_desague":65,"pct_gas_red":0,"pct_gas_garrafa":96,"pct_lena_guano":0,"pct_basura_formal":87,"pct_basura_quema":13,"pct_basura_informal":0,"pct_internet":91,"pct_celular":91,"pct_televisor":78}},{"type":"Feature","geometry":{"type":"Polygon","coordinates":[[[-66.35737,-18.59224],[-66.35728,-18.59203],[-66.35746,-18.59196],[-66.35765,-18.59199],[-66.35765,-18.59208],[-66.35737,-18.59224]]]},"properties":{"n":"CHUQUIHUTA","p":15,"personas_x_ha":186,"masculinidad":50,"pct_menor20":40,"pct_60mas":20,"pct_migrante":27,"dependencia_econ":150,"pct_empleados":0,"pct_cuentapropia":100,"pct_agricultura":17,"pct_comercio":17,"pct_manufactura":17,"pct_construccion":0,"pct_transporte":0,"pct_alojamiento":33,"pct_sin_educacion":22,"pct_educ_superior":22,"brecha_educ":-33,"pct_sin_seguro":14,"pct_sus":86,"pct_seguro_privado":0,"brecha_seguro":-22,"pct_salud_publica":27,"pct_med_tradicional":6,"pct_automedicacion":15,"pct_remedios_caseros":27,"pct_viv_desocupada":0,"pct_alquiler":0,"pct_electricidad":100,"pct_sin_electricidad":0,"pct_agua_red":86,"pct_alcantarillado":0,"pct_camara_septica":0,"pct_pozo_ciego":14,"pct_sin_desague":86,"pct_gas_red":0,"pct_gas_garrafa":100,"pct_lena_guano":0,"pct_basura_formal":71,"pct_basura_quema":0,"pct_basura_informal":29,"pct_internet":43,"pct_celular":86,"pct_televisor":71}},{"type":"Feature","geometry":{"type":"Polygon","coordinates":[[[-66.36421,-18.59168],[-66.36481,-18.5915],[-66.36501,-18.59117],[-66.36556,-18.59105],[-66.36618,-18.59117],[-66.36619,-18.591],[-66.36601,-18.59098],[-66.36598,-18.59083],[-66.36576,-18.59093],[-66.36545,-18.5908],[-66.36533,-18.59048],[-66.36515,-18.59036],[-66.36483,-18.59032],[-66.36455,-18.59089],[-66.36399,-18.59108],[-66.36384,-18.59125],[-66.36392,-18.59176],[-66.36417,-18.59169],[-66.36409,-18.59143],[-66.36436,-18.59131],[-66.36413,-18.59144],[-66.36421,-18.59168]]]},"properties":{"n":"CHUQUIHUTA","p":72,"personas_x_ha":47,"masculinidad":132,"pct_menor20":49,"pct_60mas":4,"pct_migrante":31,"dependencia_econ":163,"pct_empleados":33,"pct_cuentapropia":22,"pct_agricultura":15,"pct_comercio":4,"pct_manufactura":4,"pct_construccion":0,"pct_transporte":4,"pct_alojamiento":4,"pct_sin_educacion":11,"pct_educ_superior":8,"brecha_educ":10,"pct_sin_seguro":3,"pct_sus":71,"pct_seguro_privado":0,"brecha_seguro":-1,"pct_salud_publica":32,"pct_med_tradicional":19,"pct_automedicacion":11,"pct_remedios_caseros":16,"pct_viv_desocupada":0,"pct_alquiler":12,"pct_electricidad":96,"pct_sin_electricidad":4,"pct_agua_red":96,"pct_alcantarillado":4,"pct_camara_septica":0,"pct_pozo_ciego":0,"pct_sin_desague":38,"pct_gas_red":0,"pct_gas_garrafa":96,"pct_lena_guano":0,"pct_basura_formal":96,"pct_basura_quema":4,"pct_basura_informal":0,"pct_internet":88,"pct_celular":92,"pct_televisor":79}},{"type":"Feature","geometry":{"type":"Polygon","coordinates":[[[-66.35807,-18.59128],[-66.35811,-18.5912],[-66.35804,-18.5911],[-66.3579,-18.59104],[-66.35778,-18.59133],[-66.3578,-18.59154],[-66.35795,-18.59177],[-66.35804,-18.59179],[-66.35836,-18.59163],[-66.35837,-18.59143],[-66.35807,-18.59128]]]},"properties":{"n":"CHUQUIHUTA","p":30,"personas_x_ha":93,"masculinidad":150,"pct_menor20":57,"pct_60mas":0,"pct_migrante":63,"dependencia_econ":233,"pct_empleados":11,"pct_cuentapropia":67,"pct_agricultura":22,"pct_comercio":11,"pct_manufactura":0,"pct_construccion":0,"pct_transporte":0,"pct_alojamiento":0,"pct_sin_educacion":0,"pct_educ_superior":15,"brecha_educ":-12,"pct_sin_seguro":10,"pct_sus":23,"pct_seguro_privado":0,"brecha_seguro":3,"pct_salud_publica":21,"pct_med_tradicional":19,"pct_automedicacion":18,"pct_remedios_caseros":21,"pct_viv_desocupada":0,"pct_alquiler":0,"pct_electricidad":100,"pct_sin_electricidad":0,"pct_agua_red":100,"pct_alcantarillado":14,"pct_camara_septica":43,"pct_pozo_ciego":0,"pct_sin_desague":43,"pct_gas_red":0,"pct_gas_garrafa":100,"pct_lena_guano":0,"pct_basura_formal":100,"pct_basura_quema":0,"pct_basura_informal":0,"pct_internet":100,"pct_celular":100,"pct_televisor":86}},{"type":"Feature","geometry":{"type":"Polygon","coordinates":[[[-66.35892,-18.59002],[-66.3587,-18.58987],[-66.35894,-18.59001],[-66.35917,-18.58988],[-66.35902,-18.58952],[-66.35882,-18.58935],[-66.35863,-18.5896],[-66.3584,-18.58964],[-66.35843,-18.59008],[-66.35836,-18.58972],[-66.3582,-18.58996],[-66.35799,-18.59],[-66.35794,-18.59031],[-66.35817,-18.59041],[-66.35832,-18.59016],[-66.35822,-18.59041],[-66.35835,-18.59044],[-66.35838,-18.59036],[-66.3584,-18.59037],[-66.35833,-18.59047],[-66.35851,-18.59051],[-66.35848,-18.59043],[-66.35851,-18.59036],[-66.35863,-18.5904],[-66.3585,-18.59042],[-66.35869,-18.59056],[-66.35873,-18.59011],[-66.35858,-18.59015],[-66.35892,-18.59002]]]},"properties":{"n":"CHUQUIHUTA","p":72,"personas_x_ha":89,"masculinidad":125,"pct_menor20":43,"pct_60mas":4,"pct_migrante":22,"dependencia_econ":157,"pct_empleados":29,"pct_cuentapropia":46,"pct_agricultura":11,"pct_comercio":11,"pct_manufactura":0,"pct_construccion":0,"pct_transporte":0,"pct_alojamiento":4,"pct_sin_educacion":9,"pct_educ_superior":9,"brecha_educ":-13,"pct_sin_seguro":7,"pct_sus":58,"pct_seguro_privado":0,"brecha_seguro":1,"pct_salud_publica":19,"pct_med_tradicional":13,"pct_automedicacion":19,"pct_remedios_caseros":21,"pct_viv_desocupada":16,"pct_alquiler":20,"pct_electricidad":100,"pct_sin_electricidad":0,"pct_agua_red":76,"pct_alcantarillado":0,"pct_camara_septica":0,"pct_pozo_ciego":8,"pct_sin_desague":60,"pct_gas_red":0,"pct_gas_garrafa":100,"pct_lena_guano":0,"pct_basura_formal":92,"pct_basura_quema":4,"pct_basura_informal":4,"pct_internet":80,"pct_celular":84,"pct_televisor":88}},{"type":"Feature","geometry":{"type":"Polygon","coordinates":[[[-66.36327,-18.59358],[-66.36353,-18.59359],[-66.36346,-18.59299],[-66.36336,-18.593],[-66.36327,-18.59358]]]},"properties":{"n":"CHUQUIHUTA","p":18,"personas_x_ha":143,"masculinidad":64,"pct_menor20":56,"pct_60mas":6,"pct_migrante":33,"dependencia_econ":125,"pct_empleados":25,"pct_cuentapropia":38,"pct_agricultura":0,"pct_comercio":12,"pct_manufactura":12,"pct_construccion":0,"pct_transporte":0,"pct_alojamiento":0,"pct_sin_educacion":12,"pct_educ_superior":25,"brecha_educ":27,"pct_sin_seguro":6,"pct_sus":72,"pct_seguro_privado":0,"brecha_seguro":-9,"pct_salud_publica":33,"pct_med_tradicional":9,"pct_automedicacion":16,"pct_remedios_caseros":29,"pct_viv_desocupada":0,"pct_alquiler":0,"pct_electricidad":100,"pct_sin_electricidad":0,"pct_agua_red":100,"pct_alcantarillado":0,"pct_camara_septica":0,"pct_pozo_ciego":12,"pct_sin_desague":88,"pct_gas_red":0,"pct_gas_garrafa":100,"pct_lena_guano":0,"pct_basura_formal":62,"pct_basura_quema":38,"pct_basura_informal":0,"pct_internet":25,"pct_celular":88,"pct_televisor":62}},{"type":"Feature","geometry":{"type":"Polygon","coordinates":[[[-66.35909,-18.59256],[-66.35933,-18.59242],[-66.35931,-18.59234],[-66.35922,-18.59236],[-66.35919,-18.59225],[-66.35923,-18.59234],[-66.35931,-18.59233],[-66.35935,-18.59243],[-66.35943,-18.5924],[-66.35907,-18.59216],[-66.35899,-18.59218],[-66.35903,-18.59234],[-66.35867,-18.59271],[-66.35852,-18.59305],[-66.35764,-18.59366],[-66.35775,-18.5938],[-66.35796,-18.59377],[-66.35807,-18.59361],[-66.35841,-18.59343],[-66.35862,-18.59352],[-66.35876,-18.59341],[-66.35898,-18.59338],[-66.359,-18.59311],[-66.35871,-18.59295],[-66.359,-18.59308],[-66.35902,-18.5929],[-66.35913,-18.59292],[-66.35915,-18.59282],[-66.35901,-18.59285],[-66.35886,-18.59283],[-66.35902,-18.59264],[-66.35888,-18.59282],[-66.3591,-18.59278],[-66.35916,-18.5926],[-66.35909,-18.59256]]]},"properties":{"n":"CHUQUIHUTA","p":123,"personas_x_ha":143,"masculinidad":95,"pct_menor20":46,"pct_60mas":2,"pct_migrante":28,"dependencia_econ":154,"pct_empleados":31,"pct_cuentapropia":40,"pct_agricultura":25,"pct_comercio":12,"pct_manufactura":0,"pct_construccion":0,"pct_transporte":0,"pct_alojamiento":2,"pct_sin_educacion":10,"pct_educ_superior":19,"brecha_educ":-16,"pct_sin_seguro":16,"pct_sus":76,"pct_seguro_privado":0,"brecha_seguro":-2,"pct_salud_publica":17,"pct_med_tradicional":15,"pct_automedicacion":18,"pct_remedios_caseros":24,"pct_viv_desocupada":7,"pct_alquiler":4,"pct_electricidad":96,"pct_sin_electricidad":4,"pct_agua_red":75,"pct_alcantarillado":14,"pct_camara_septica":0,"pct_pozo_ciego":0,"pct_sin_desague":43,"pct_gas_red":0,"pct_gas_garrafa":100,"pct_lena_guano":0,"pct_basura_formal":86,"pct_basura_quema":11,"pct_basura_informal":4,"pct_internet":75,"pct_celular":82,"pct_televisor":82}},{"type":"Feature","geometry":{"type":"Polygon","coordinates":[[[-66.36157,-18.59224],[-66.36153,-18.59174],[-66.36182,-18.59148],[-66.36195,-18.59152],[-66.36196,-18.59181],[-66.36264,-18.59162],[-66.36268,-18.59175],[-66.36204,-18.59195],[-66.36193,-18.5921],[-66.36157,-18.59224]]]},"properties":{"n":"CHUQUIHUTA","p":75,"personas_x_ha":176,"masculinidad":92,"pct_menor20":51,"pct_60mas":4,"pct_migrante":32,"dependencia_econ":147,"pct_empleados":63,"pct_cuentapropia":13,"pct_agricultura":13,"pct_comercio":3,"pct_manufactura":0,"pct_construccion":0,"pct_transporte":0,"pct_alojamiento":7,"pct_sin_educacion":5,"pct_educ_superior":33,"brecha_educ":-48,"pct_sin_seguro":1,"pct_sus":18,"pct_seguro_privado":0,"brecha_seguro":3,"pct_salud_publica":17,"pct_med_tradicional":8,"pct_automedicacion":22,"pct_remedios_caseros":22,"pct_viv_desocupada":0,"pct_alquiler":14,"pct_electricidad":100,"pct_sin_electricidad":0,"pct_agua_red":100,"pct_alcantarillado":18,"pct_camara_septica":0,"pct_pozo_ciego":0,"pct_sin_desague":18,"pct_gas_red":0,"pct_gas_garrafa":100,"pct_lena_guano":0,"pct_basura_formal":100,"pct_basura_quema":0,"pct_basura_informal":0,"pct_internet":95,"pct_celular":95,"pct_televisor":100}},{"type":"Feature","geometry":{"type":"Polygon","coordinates":[[[-66.36429,-18.59491],[-66.36357,-18.59403],[-66.36355,-18.59363],[-66.36327,-18.5936],[-66.36326,-18.59381],[-66.36357,-18.59436],[-66.36419,-18.59496],[-66.36429,-18.59491]]]},"properties":{"n":"CHUQUIHUTA","p":58,"personas_x_ha":157,"masculinidad":57,"pct_menor20":55,"pct_60mas":0,"pct_migrante":7,"dependencia_econ":262,"pct_empleados":44,"pct_cuentapropia":31,"pct_agricultura":6,"pct_comercio":6,"pct_manufactura":0,"pct_construccion":12,"pct_transporte":0,"pct_alojamiento":6,"pct_sin_educacion":15,"pct_educ_superior":4,"brecha_educ":-34,"pct_sin_seguro":23,"pct_sus":50,"pct_seguro_privado":0,"brecha_seguro":1,"pct_salud_publica":22,"pct_med_tradicional":26,"pct_automedicacion":5,"pct_remedios_caseros":34,"pct_viv_desocupada":0,"pct_alquiler":0,"pct_electricidad":100,"pct_sin_electricidad":0,"pct_agua_red":100,"pct_alcantarillado":22,"pct_camara_septica":0,"pct_pozo_ciego":17,"pct_sin_desague":61,"pct_gas_red":0,"pct_gas_garrafa":100,"pct_lena_guano":0,"pct_basura_formal":28,"pct_basura_quema":72,"pct_basura_informal":0,"pct_internet":78,"pct_celular":78,"pct_televisor":78}},{"type":"Feature","geometry":{"type":"Polygon","coordinates":[[[-66.3601,-18.59329],[-66.35994,-18.59329],[-66.36001,-18.59298],[-66.36029,-18.59277],[-66.36031,-18.59283],[-66.36011,-18.59301],[-66.3601,-18.59329]]]},"properties":{"n":"CHUQUIHUTA","p":24,"personas_x_ha":310,"masculinidad":140,"pct_menor20":46,"pct_60mas":8,"pct_migrante":50,"dependencia_econ":167,"pct_empleados":44,"pct_cuentapropia":33,"pct_agricultura":0,"pct_comercio":0,"pct_manufactura":0,"pct_construccion":0,"pct_transporte":0,"pct_alojamiento":0,"pct_sin_educacion":0,"pct_educ_superior":50,"brecha_educ":-4,"pct_sin_seguro":0,"pct_sus":21,"pct_seguro_privado":0,"brecha_seguro":0,"pct_salud_publica":20,"pct_med_tradicional":14,"pct_automedicacion":18,"pct_remedios_caseros":18,"pct_viv_desocupada":0,"pct_alquiler":0,"pct_electricidad":100,"pct_sin_electricidad":0,"pct_agua_red":88,"pct_alcantarillado":62,"pct_camara_septica":0,"pct_pozo_ciego":0,"pct_sin_desague":25,"pct_gas_red":0,"pct_gas_garrafa":88,"pct_lena_guano":0,"pct_basura_formal":100,"pct_basura_quema":0,"pct_basura_informal":0,"pct_internet":88,"pct_celular":100,"pct_televisor":100}},{"type":"Feature","geometry":{"type":"Polygon","coordinates":[[[-66.35969,-18.59364],[-66.35939,-18.59331],[-66.35932,-18.59304],[-66.35925,-18.59304],[-66.35926,-18.59249],[-66.35952,-18.59248],[-66.35958,-18.59285],[-66.35946,-18.59287],[-66.35939,-18.59292],[-66.35936,-18.59286],[-66.35936,-18.59294],[-66.35943,-18.59296],[-66.35947,-18.59317],[-66.35944,-18.59293],[-66.35954,-18.59287],[-66.35969,-18.59364]]]},"properties":{"n":"CHUQUIHUTA","p":64,"personas_x_ha":205,"masculinidad":113,"pct_menor20":33,"pct_60mas":3,"pct_migrante":33,"dependencia_econ":106,"pct_empleados":42,"pct_cuentapropia":19,"pct_agricultura":16,"pct_comercio":6,"pct_manufactura":0,"pct_construccion":3,"pct_transporte":0,"pct_alojamiento":3,"pct_sin_educacion":2,"pct_educ_superior":9,"brecha_educ":-7,"pct_sin_seguro":14,"pct_sus":22,"pct_seguro_privado":0,"brecha_seguro":14,"pct_salud_publica":20,"pct_med_tradicional":12,"pct_automedicacion":21,"pct_remedios_caseros":23,"pct_viv_desocupada":0,"pct_alquiler":10,"pct_electricidad":95,"pct_sin_electricidad":0,"pct_agua_red":33,"pct_alcantarillado":10,"pct_camara_septica":0,"pct_pozo_ciego":0,"pct_sin_desague":38,"pct_gas_red":0,"pct_gas_garrafa":95,"pct_lena_guano":0,"pct_basura_formal":95,"pct_basura_quema":5,"pct_basura_informal":0,"pct_internet":71,"pct_celular":90,"pct_televisor":100}},{"type":"Feature","geometry":{"type":"Polygon","coordinates":[[[-66.36245,-18.59103],[-66.36225,-18.59095],[-66.36192,-18.59134],[-66.3623,-18.59159],[-66.36267,-18.5916],[-66.3627,-18.59128],[-66.36245,-18.59103]]]},"properties":{"n":"CHUQUIHUTA","p":26,"personas_x_ha":70,"masculinidad":86,"pct_menor20":35,"pct_60mas":12,"pct_migrante":15,"dependencia_econ":100,"pct_empleados":23,"pct_cuentapropia":38,"pct_agricultura":8,"pct_comercio":23,"pct_manufactura":0,"pct_construccion":0,"pct_transporte":0,"pct_alojamiento":15,"pct_sin_educacion":18,"pct_educ_superior":24,"brecha_educ":-18,"pct_sin_seguro":4,"pct_sus":42,"pct_seguro_privado":0,"brecha_seguro":-7,"pct_salud_publica":19,"pct_med_tradicional":13,"pct_automedicacion":19,"pct_remedios_caseros":30,"pct_viv_desocupada":0,"pct_alquiler":0,"pct_electricidad":100,"pct_sin_electricidad":0,"pct_agua_red":88,"pct_alcantarillado":0,"pct_camara_septica":0,"pct_pozo_ciego":0,"pct_sin_desague":75,"pct_gas_red":0,"pct_gas_garrafa":100,"pct_lena_guano":0,"pct_basura_formal":88,"pct_basura_quema":12,"pct_basura_informal":0,"pct_internet":75,"pct_celular":100,"pct_televisor":62}},{"type":"Feature","geometry":{"type":"Polygon","coordinates":[[[-66.36317,-18.59214],[-66.36314,-18.59203],[-66.36265,-18.59216],[-66.36268,-18.59228],[-66.36317,-18.59214]]]},"properties":{"n":"CHUQUIHUTA","p":40,"personas_x_ha":550,"masculinidad":111,"pct_menor20":40,"pct_60mas":0,"pct_migrante":57,"dependencia_econ":167,"pct_empleados":27,"pct_cuentapropia":0,"pct_agricultura":7,"pct_comercio":0,"pct_manufactura":0,"pct_construccion":0,"pct_transporte":0,"pct_alojamiento":0,"pct_sin_educacion":0,"pct_educ_superior":46,"brecha_educ":-20,"pct_sin_seguro":0,"pct_sus":35,"pct_seguro_privado":0,"brecha_seguro":0,"pct_salud_publica":16,"pct_med_tradicional":16,"pct_automedicacion":21,"pct_remedios_caseros":22,"pct_viv_desocupada":0,"pct_alquiler":14,"pct_electricidad":100,"pct_sin_electricidad":0,"pct_agua_red":100,"pct_alcantarillado":93,"pct_camara_septica":0,"pct_pozo_ciego":0,"pct_sin_desague":7,"pct_gas_red":0,"pct_gas_garrafa":100,"pct_lena_guano":0,"pct_basura_formal":79,"pct_basura_quema":14,"pct_basura_informal":7,"pct_internet":100,"pct_celular":100,"pct_televisor":100}},{"type":"Feature","geometry":{"type":"Polygon","coordinates":[[[-66.33128,-18.59334],[-66.33127,-18.59317],[-66.3309,-18.59331],[-66.33095,-18.59341],[-66.3311,-18.59341],[-66.33128,-18.59334]]]},"properties":{"n":"HUSTAYA","p":25,"personas_x_ha":381,"masculinidad":67,"pct_menor20":44,"pct_60mas":24,"pct_migrante":56,"dependencia_econ":127,"pct_empleados":27,"pct_cuentapropia":45,"pct_agricultura":9,"pct_comercio":0,"pct_manufactura":0,"pct_construccion":0,"pct_transporte":18,"pct_alojamiento":18,"pct_sin_educacion":29,"pct_educ_superior":21,"brecha_educ":-42,"pct_sin_seguro":12,"pct_sus":88,"pct_seguro_privado":0,"brecha_seguro":13,"pct_salud_publica":31,"pct_med_tradicional":8,"pct_automedicacion":25,"pct_remedios_caseros":34,"pct_viv_desocupada":0,"pct_alquiler":0,"pct_electricidad":82,"pct_sin_electricidad":18,"pct_agua_red":0,"pct_alcantarillado":0,"pct_camara_septica":0,"pct_pozo_ciego":0,"pct_sin_desague":100,"pct_gas_red":0,"pct_gas_garrafa":82,"pct_lena_guano":18,"pct_basura_formal":0,"pct_basura_quema":55,"pct_basura_informal":27,"pct_internet":27,"pct_celular":27,"pct_televisor":18}},{"type":"Feature","geometry":{"type":"Polygon","coordinates":[[[-66.33169,-18.59252],[-66.33146,-18.59249],[-66.33143,-18.59293],[-66.33176,-18.59286],[-66.3318,-18.59269],[-66.33168,-18.59266],[-66.33169,-18.59252]]]},"properties":{"n":"HUSTAYA","p":26,"personas_x_ha":177,"masculinidad":189,"pct_menor20":38,"pct_60mas":4,"pct_migrante":27,"dependencia_econ":62,"pct_empleados":0,"pct_cuentapropia":62,"pct_agricultura":44,"pct_comercio":6,"pct_manufactura":0,"pct_construccion":6,"pct_transporte":0,"pct_alojamiento":6,"pct_sin_educacion":0,"pct_educ_superior":6,"brecha_educ":-42,"pct_sin_seguro":0,"pct_sus":100,"pct_seguro_privado":0,"brecha_seguro":0,"pct_salud_publica":56,"pct_med_tradicional":12,"pct_automedicacion":7,"pct_remedios_caseros":15,"pct_viv_desocupada":0,"pct_alquiler":9,"pct_electricidad":100,"pct_sin_electricidad":0,"pct_agua_red":0,"pct_alcantarillado":0,"pct_camara_septica":0,"pct_pozo_ciego":9,"pct_sin_desague":64,"pct_gas_red":0,"pct_gas_garrafa":64,"pct_lena_guano":36,"pct_basura_formal":0,"pct_basura_quema":73,"pct_basura_informal":0,"pct_internet":91,"pct_celular":100,"pct_televisor":73}},{"type":"Feature","geometry":{"type":"Polygon","coordinates":[[[-66.33142,-18.59247],[-66.33121,-18.59246],[-66.33122,-18.59293],[-66.33139,-18.59293],[-66.33142,-18.59247]]]},"properties":{"n":"HUSTAYA","p":30,"personas_x_ha":272,"masculinidad":100,"pct_menor20":50,"pct_60mas":0,"pct_migrante":0,"dependencia_econ":100,"pct_empleados":13,"pct_cuentapropia":60,"pct_agricultura":33,"pct_comercio":7,"pct_manufactura":20,"pct_construccion":20,"pct_transporte":0,"pct_alojamiento":0,"pct_sin_educacion":0,"pct_educ_superior":0,"brecha_educ":-5,"pct_sin_seguro":3,"pct_sus":70,"pct_seguro_privado":0,"brecha_seguro":-7,"pct_salud_publica":26,"pct_med_tradicional":23,"pct_automedicacion":28,"pct_remedios_caseros":21,"pct_viv_desocupada":11,"pct_alquiler":0,"pct_electricidad":88,"pct_sin_electricidad":12,"pct_agua_red":0,"pct_alcantarillado":0,"pct_camara_septica":0,"pct_pozo_ciego":100,"pct_sin_desague":0,"pct_gas_red":0,"pct_gas_garrafa":100,"pct_lena_guano":0,"pct_basura_formal":0,"pct_basura_quema":88,"pct_basura_informal":0,"pct_internet":62,"pct_celular":100,"pct_televisor":75}},{"type":"Feature","geometry":{"type":"Polygon","coordinates":[[[-66.37426,-18.66109],[-66.37403,-18.66109],[-66.37403,-18.66117],[-66.37425,-18.66124],[-66.37426,-18.66109]]]},"properties":{"n":"KATARFAYA","p":15,"personas_x_ha":407,"masculinidad":650,"pct_menor20":27,"pct_60mas":13,"pct_migrante":13,"dependencia_econ":67,"pct_empleados":22,"pct_cuentapropia":44,"pct_agricultura":67,"pct_comercio":0,"pct_manufactura":0,"pct_construccion":11,"pct_transporte":0,"pct_alojamiento":11,"pct_sin_educacion":9,"pct_educ_superior":9,"brecha_educ":-17,"pct_sin_seguro":13,"pct_sus":87,"pct_seguro_privado":0,"brecha_seguro":15,"pct_salud_publica":27,"pct_med_tradicional":17,"pct_automedicacion":25,"pct_remedios_caseros":25,"pct_viv_desocupada":0,"pct_alquiler":0,"pct_electricidad":50,"pct_sin_electricidad":50,"pct_agua_red":38,"pct_alcantarillado":0,"pct_camara_septica":0,"pct_pozo_ciego":0,"pct_sin_desague":100,"pct_gas_red":0,"pct_gas_garrafa":12,"pct_lena_guano":88,"pct_basura_formal":0,"pct_basura_quema":12,"pct_basura_informal":25,"pct_internet":75,"pct_celular":62,"pct_televisor":25}},{"type":"Feature","geometry":{"type":"Polygon","coordinates":[[[-66.37513,-18.66056],[-66.37513,-18.66077],[-66.37546,-18.66076],[-66.37546,-18.66056],[-66.37513,-18.66056]]]},"properties":{"n":"KATARFAYA","p":25,"personas_x_ha":316,"masculinidad":317,"pct_menor20":32,"pct_60mas":12,"pct_migrante":16,"dependencia_econ":67,"pct_empleados":0,"pct_cuentapropia":73,"pct_agricultura":47,"pct_comercio":7,"pct_manufactura":0,"pct_construccion":27,"pct_transporte":7,"pct_alojamiento":0,"pct_sin_educacion":12,"pct_educ_superior":12,"brecha_educ":4,"pct_sin_seguro":12,"pct_sus":68,"pct_seguro_privado":0,"brecha_seguro":16,"pct_salud_publica":53,"pct_med_tradicional":8,"pct_automedicacion":0,"pct_remedios_caseros":22,"pct_viv_desocupada":0,"pct_alquiler":0,"pct_electricidad":67,"pct_sin_electricidad":33,"pct_agua_red":11,"pct_alcantarillado":0,"pct_camara_septica":0,"pct_pozo_ciego":0,"pct_sin_desague":100,"pct_gas_red":0,"pct_gas_garrafa":0,"pct_lena_guano":100,"pct_basura_formal":0,"pct_basura_quema":67,"pct_basura_informal":33,"pct_internet":67,"pct_celular":100,"pct_televisor":0}},{"type":"Feature","geometry":{"type":"Polygon","coordinates":[[[-66.37583,-18.66105],[-66.37588,-18.66082],[-66.37554,-18.66083],[-66.37553,-18.66105],[-66.37583,-18.66105]]]},"properties":{"n":"KATARFAYA","p":25,"personas_x_ha":275,"masculinidad":127,"pct_menor20":36,"pct_60mas":16,"pct_migrante":24,"dependencia_econ":79,"pct_empleados":36,"pct_cuentapropia":43,"pct_agricultura":64,"pct_comercio":0,"pct_manufactura":0,"pct_construccion":7,"pct_transporte":7,"pct_alojamiento":14,"pct_sin_educacion":25,"pct_educ_superior":6,"brecha_educ":-35,"pct_sin_seguro":4,"pct_sus":68,"pct_seguro_privado":0,"brecha_seguro":7,"pct_salud_publica":23,"pct_med_tradicional":14,"pct_automedicacion":17,"pct_remedios_caseros":35,"pct_viv_desocupada":30,"pct_alquiler":0,"pct_electricidad":14,"pct_sin_electricidad":71,"pct_agua_red":14,"pct_alcantarillado":0,"pct_camara_septica":0,"pct_pozo_ciego":0,"pct_sin_desague":100,"pct_gas_red":0,"pct_gas_garrafa":0,"pct_lena_guano":100,"pct_basura_formal":0,"pct_basura_quema":43,"pct_basura_informal":43,"pct_internet":100,"pct_celular":100,"pct_televisor":14}},{"type":"Feature","geometry":{"type":"Polygon","coordinates":[[[-66.37619,-18.66066],[-66.37553,-18.66075],[-66.37552,-18.66031],[-66.37568,-18.66043],[-66.3762,-18.66059],[-66.37619,-18.66066]]]},"properties":{"n":"KATARFAYA","p":20,"personas_x_ha":95,"masculinidad":122,"pct_menor20":20,"pct_60mas":10,"pct_migrante":35,"dependencia_econ":42,"pct_empleados":8,"pct_cuentapropia":75,"pct_agricultura":33,"pct_comercio":17,"pct_manufactura":8,"pct_construccion":17,"pct_transporte":8,"pct_alojamiento":0,"pct_sin_educacion":23,"pct_educ_superior":15,"brecha_educ":-35,"pct_sin_seguro":0,"pct_sus":88,"pct_seguro_privado":0,"brecha_seguro":0,"pct_salud_publica":40,"pct_med_tradicional":9,"pct_automedicacion":9,"pct_remedios_caseros":32,"pct_viv_desocupada":0,"pct_alquiler":0,"pct_electricidad":50,"pct_sin_electricidad":50,"pct_agua_red":12,"pct_alcantarillado":12,"pct_camara_septica":0,"pct_pozo_ciego":0,"pct_sin_desague":88,"pct_gas_red":0,"pct_gas_garrafa":12,"pct_lena_guano":88,"pct_basura_formal":0,"pct_basura_quema":88,"pct_basura_informal":0,"pct_internet":62,"pct_celular":62,"pct_televisor":25}},{"type":"Feature","geometry":{"type":"Polygon","coordinates":[[[-66.37541,-18.66013],[-66.37513,-18.66048],[-66.37513,-18.66052],[-66.37546,-18.66051],[-66.37541,-18.66013]]]},"properties":{"n":"KATARFAYA","p":22,"personas_x_ha":248,"masculinidad":144,"pct_menor20":36,"pct_60mas":14,"pct_migrante":36,"dependencia_econ":69,"pct_empleados":15,"pct_cuentapropia":77,"pct_agricultura":38,"pct_comercio":23,"pct_manufactura":0,"pct_construccion":15,"pct_transporte":0,"pct_alojamiento":0,"pct_sin_educacion":14,"pct_educ_superior":7,"brecha_educ":-29,"pct_sin_seguro":14,"pct_sus":77,"pct_seguro_privado":0,"brecha_seguro":23,"pct_salud_publica":40,"pct_med_tradicional":20,"pct_automedicacion":0,"pct_remedios_caseros":33,"pct_viv_desocupada":0,"pct_alquiler":0,"pct_electricidad":43,"pct_sin_electricidad":57,"pct_agua_red":29,"pct_alcantarillado":0,"pct_camara_septica":0,"pct_pozo_ciego":0,"pct_sin_desague":100,"pct_gas_red":0,"pct_gas_garrafa":0,"pct_lena_guano":100,"pct_basura_formal":0,"pct_basura_quema":100,"pct_basura_informal":0,"pct_internet":29,"pct_celular":57,"pct_televisor":0}},{"type":"Feature","geometry":{"type":"Polygon","coordinates":[[[-66.37467,-18.66104],[-66.37467,-18.66082],[-66.37433,-18.66081],[-66.37433,-18.66102],[-66.37467,-18.66104]]]},"properties":{"n":"KATARFAYA","p":16,"personas_x_ha":187,"masculinidad":167,"pct_menor20":56,"pct_60mas":12,"pct_migrante":0,"dependencia_econ":275,"pct_empleados":0,"pct_cuentapropia":50,"pct_agricultura":25,"pct_comercio":25,"pct_manufactura":0,"pct_construccion":0,"pct_transporte":25,"pct_alojamiento":0,"pct_sin_educacion":50,"pct_educ_superior":0,"brecha_educ":-40,"pct_sin_seguro":47,"pct_sus":40,"pct_seguro_privado":13,"brecha_seguro":-20,"pct_salud_publica":15,"pct_med_tradicional":21,"pct_automedicacion":21,"pct_remedios_caseros":33,"pct_viv_desocupada":14,"pct_alquiler":0,"pct_electricidad":67,"pct_sin_electricidad":33,"pct_agua_red":33,"pct_alcantarillado":0,"pct_camara_septica":0,"pct_pozo_ciego":0,"pct_sin_desague":100,"pct_gas_red":0,"pct_gas_garrafa":0,"pct_lena_guano":100,"pct_basura_formal":0,"pct_basura_quema":33,"pct_basura_informal":67,"pct_internet":67,"pct_celular":67,"pct_televisor":33}},{"type":"Feature","geometry":{"type":"Polygon","coordinates":[[[-66.33467,-18.54635],[-66.33504,-18.54586],[-66.33492,-18.54573],[-66.33441,-18.5459],[-66.33428,-18.54614],[-66.33455,-18.5463],[-66.33454,-18.54645],[-66.33467,-18.54646],[-66.33467,-18.54635]]]},"properties":{"n":"MICANI","p":45,"personas_x_ha":130,"masculinidad":114,"pct_menor20":38,"pct_60mas":20,"pct_migrante":7,"dependencia_econ":67,"pct_empleados":0,"pct_cuentapropia":63,"pct_agricultura":44,"pct_comercio":0,"pct_manufactura":0,"pct_construccion":4,"pct_transporte":0,"pct_alojamiento":7,"pct_sin_educacion":21,"pct_educ_superior":0,"brecha_educ":-23,"pct_sin_seguro":8,"pct_sus":92,"pct_seguro_privado":0,"brecha_seguro":4,"pct_salud_publica":21,"pct_med_tradicional":21,"pct_automedicacion":14,"pct_remedios_caseros":22,"pct_viv_desocupada":25,"pct_alquiler":0,"pct_electricidad":93,"pct_sin_electricidad":7,"pct_agua_red":7,"pct_alcantarillado":7,"pct_camara_septica":0,"pct_pozo_ciego":7,"pct_sin_desague":86,"pct_gas_red":0,"pct_gas_garrafa":79,"pct_lena_guano":21,"pct_basura_formal":0,"pct_basura_quema":100,"pct_basura_informal":0,"pct_internet":36,"pct_celular":79,"pct_televisor":86}},{"type":"Feature","geometry":{"type":"Polygon","coordinates":[[[-66.33298,-18.547],[-66.33277,-18.5472],[-66.33275,-18.54761],[-66.33262,-18.5478],[-66.33306,-18.54815],[-66.33332,-18.54819],[-66.3334,-18.5479],[-66.33322,-18.54782],[-66.33302,-18.54721],[-66.33316,-18.54716],[-66.33312,-18.54705],[-66.33298,-18.547]]]},"properties":{"n":"MICANI","p":64,"personas_x_ha":120,"masculinidad":83,"pct_menor20":64,"pct_60mas":5,"pct_migrante":5,"dependencia_econ":113,"pct_empleados":7,"pct_cuentapropia":70,"pct_agricultura":57,"pct_comercio":7,"pct_manufactura":0,"pct_construccion":7,"pct_transporte":0,"pct_alojamiento":10,"pct_sin_educacion":20,"pct_educ_superior":0,"brecha_educ":-19,"pct_sin_seguro":0,"pct_sus":100,"pct_seguro_privado":0,"brecha_seguro":0,"pct_salud_publica":32,"pct_med_tradicional":16,"pct_automedicacion":15,"pct_remedios_caseros":21,"pct_viv_desocupada":7,"pct_alquiler":0,"pct_electricidad":64,"pct_sin_electricidad":0,"pct_agua_red":29,"pct_alcantarillado":0,"pct_camara_septica":0,"pct_pozo_ciego":36,"pct_sin_desague":64,"pct_gas_red":0,"pct_gas_garrafa":100,"pct_lena_guano":0,"pct_basura_formal":0,"pct_basura_quema":86,"pct_basura_informal":7,"pct_internet":86,"pct_celular":93,"pct_televisor":100}},{"type":"Feature","geometry":{"type":"Polygon","coordinates":[[[-66.33405,-18.54603],[-66.33405,-18.54573],[-66.33381,-18.54569],[-66.33358,-18.54608],[-66.33371,-18.54621],[-66.33405,-18.54603]]]},"properties":{"n":"MICANI","p":67,"personas_x_ha":369,"masculinidad":103,"pct_menor20":48,"pct_60mas":12,"pct_migrante":19,"dependencia_econ":63,"pct_empleados":2,"pct_cuentapropia":59,"pct_agricultura":54,"pct_comercio":2,"pct_manufactura":2,"pct_construccion":0,"pct_transporte":2,"pct_alojamiento":2,"pct_sin_educacion":18,"pct_educ_superior":8,"brecha_educ":-6,"pct_sin_seguro":0,"pct_sus":100,"pct_seguro_privado":0,"brecha_seguro":0,"pct_salud_publica":64,"pct_med_tradicional":16,"pct_automedicacion":1,"pct_remedios_caseros":17,"pct_viv_desocupada":0,"pct_alquiler":5,"pct_electricidad":95,"pct_sin_electricidad":5,"pct_agua_red":50,"pct_alcantarillado":5,"pct_camara_septica":0,"pct_pozo_ciego":0,"pct_sin_desague":95,"pct_gas_red":0,"pct_gas_garrafa":95,"pct_lena_guano":5,"pct_basura_formal":5,"pct_basura_quema":95,"pct_basura_informal":0,"pct_internet":55,"pct_celular":65,"pct_televisor":45}},{"type":"Feature","geometry":{"type":"Polygon","coordinates":[[[-66.333,-18.54594],[-66.3331,-18.54608],[-66.33306,-18.54612],[-66.33323,-18.54632],[-66.33337,-18.54612],[-66.33337,-18.54596],[-66.333,-18.54594]]]},"properties":{"n":"MICANI","p":21,"personas_x_ha":216,"masculinidad":110,"pct_menor20":43,"pct_60mas":24,"pct_migrante":10,"dependencia_econ":200,"pct_empleados":0,"pct_cuentapropia":33,"pct_agricultura":67,"pct_comercio":0,"pct_manufactura":0,"pct_construccion":0,"pct_transporte":0,"pct_alojamiento":0,"pct_sin_educacion":25,"pct_educ_superior":0,"brecha_educ":-50,"pct_sin_seguro":27,"pct_sus":73,"pct_seguro_privado":0,"brecha_seguro":-23,"pct_salud_publica":73,"pct_med_tradicional":12,"pct_automedicacion":0,"pct_remedios_caseros":4,"pct_viv_desocupada":0,"pct_alquiler":0,"pct_electricidad":100,"pct_sin_electricidad":0,"pct_agua_red":0,"pct_alcantarillado":0,"pct_camara_septica":0,"pct_pozo_ciego":0,"pct_sin_desague":100,"pct_gas_red":0,"pct_gas_garrafa":55,"pct_lena_guano":45,"pct_basura_formal":0,"pct_basura_quema":36,"pct_basura_informal":0,"pct_internet":9,"pct_celular":91,"pct_televisor":27}},{"type":"Feature","geometry":{"type":"Polygon","coordinates":[[[-66.3341,-18.54576],[-66.33408,-18.54602],[-66.33427,-18.546],[-66.33429,-18.54582],[-66.3341,-18.54576]]]},"properties":{"n":"MICANI","p":23,"personas_x_ha":350,"masculinidad":109,"pct_menor20":48,"pct_60mas":0,"pct_migrante":9,"dependencia_econ":156,"pct_empleados":11,"pct_cuentapropia":78,"pct_agricultura":0,"pct_comercio":0,"pct_manufactura":0,"pct_construccion":11,"pct_transporte":11,"pct_alojamiento":0,"pct_sin_educacion":8,"pct_educ_superior":0,"brecha_educ":-33,"pct_sin_seguro":4,"pct_sus":96,"pct_seguro_privado":0,"brecha_seguro":8,"pct_salud_publica":43,"pct_med_tradicional":28,"pct_automedicacion":0,"pct_remedios_caseros":30,"pct_viv_desocupada":0,"pct_alquiler":0,"pct_electricidad":100,"pct_sin_electricidad":0,"pct_agua_red":25,"pct_alcantarillado":0,"pct_camara_septica":0,"pct_pozo_ciego":0,"pct_sin_desague":100,"pct_gas_red":0,"pct_gas_garrafa":100,"pct_lena_guano":0,"pct_basura_formal":0,"pct_basura_quema":88,"pct_basura_informal":0,"pct_internet":38,"pct_celular":88,"pct_televisor":88}},{"type":"Feature","geometry":{"type":"Polygon","coordinates":[[[-66.33452,-18.54632],[-66.33425,-18.54619],[-66.33407,-18.54639],[-66.33405,-18.54682],[-66.33412,-18.54683],[-66.33414,-18.54729],[-66.33421,-18.54729],[-66.33425,-18.54673],[-66.33436,-18.54673],[-66.33452,-18.54632]]]},"properties":{"n":"MICANI","p":39,"personas_x_ha":140,"masculinidad":70,"pct_menor20":41,"pct_60mas":10,"pct_migrante":18,"dependencia_econ":255,"pct_empleados":0,"pct_cuentapropia":64,"pct_agricultura":36,"pct_comercio":9,"pct_manufactura":0,"pct_construccion":0,"pct_transporte":9,"pct_alojamiento":0,"pct_sin_educacion":22,"pct_educ_superior":26,"brecha_educ":-20,"pct_sin_seguro":11,"pct_sus":69,"pct_seguro_privado":0,"brecha_seguro":-8,"pct_salud_publica":19,"pct_med_tradicional":17,"pct_automedicacion":15,"pct_remedios_caseros":29,"pct_viv_desocupada":15,"pct_alquiler":0,"pct_electricidad":100,"pct_sin_electricidad":0,"pct_agua_red":10,"pct_alcantarillado":0,"pct_camara_septica":0,"pct_pozo_ciego":0,"pct_sin_desague":100,"pct_gas_red":0,"pct_gas_garrafa":80,"pct_lena_guano":20,"pct_basura_formal":0,"pct_basura_quema":60,"pct_basura_informal":40,"pct_internet":60,"pct_celular":70,"pct_televisor":60}},{"type":"Feature","geometry":{"type":"Polygon","coordinates":[[[-66.33353,-18.5461],[-66.33331,-18.54619],[-66.33326,-18.54638],[-66.33357,-18.54652],[-66.33363,-18.54668],[-66.33374,-18.54668],[-66.3337,-18.54627],[-66.33353,-18.5461]]]},"properties":{"n":"MICANI","p":27,"personas_x_ha":142,"masculinidad":238,"pct_menor20":11,"pct_60mas":22,"pct_migrante":4,"dependencia_econ":69,"pct_empleados":19,"pct_cuentapropia":50,"pct_agricultura":44,"pct_comercio":0,"pct_manufactura":0,"pct_construccion":0,"pct_transporte":6,"pct_alojamiento":0,"pct_sin_educacion":25,"pct_educ_superior":17,"brecha_educ":-50,"pct_sin_seguro":4,"pct_sus":89,"pct_seguro_privado":0,"brecha_seguro":5,"pct_salud_publica":26,"pct_med_tradicional":32,"pct_automedicacion":0,"pct_remedios_caseros":28,"pct_viv_desocupada":0,"pct_alquiler":0,"pct_electricidad":62,"pct_sin_electricidad":38,"pct_agua_red":62,"pct_alcantarillado":0,"pct_camara_septica":0,"pct_pozo_ciego":0,"pct_sin_desague":100,"pct_gas_red":0,"pct_gas_garrafa":85,"pct_lena_guano":8,"pct_basura_formal":0,"pct_basura_quema":100,"pct_basura_informal":0,"pct_internet":85,"pct_celular":92,"pct_televisor":62}},{"type":"Feature","geometry":{"type":"Polygon","coordinates":[[[-66.33429,-18.54602],[-66.33375,-18.54625],[-66.33377,-18.54661],[-66.33398,-18.54668],[-66.33407,-18.54631],[-66.33429,-18.54602]]]},"properties":{"n":"MICANI","p":60,"personas_x_ha":298,"masculinidad":131,"pct_menor20":33,"pct_60mas":7,"pct_migrante":18,"dependencia_econ":59,"pct_empleados":0,"pct_cuentapropia":68,"pct_agricultura":41,"pct_comercio":3,"pct_manufactura":5,"pct_construccion":0,"pct_transporte":5,"pct_alojamiento":3,"pct_sin_educacion":15,"pct_educ_superior":0,"brecha_educ":-20,"pct_sin_seguro":5,"pct_sus":95,"pct_seguro_privado":0,"brecha_seguro":2,"pct_salud_publica":26,"pct_med_tradicional":20,"pct_automedicacion":13,"pct_remedios_caseros":27,"pct_viv_desocupada":21,"pct_alquiler":0,"pct_electricidad":100,"pct_sin_electricidad":0,"pct_agua_red":5,"pct_alcantarillado":10,"pct_camara_septica":0,"pct_pozo_ciego":14,"pct_sin_desague":76,"pct_gas_red":0,"pct_gas_garrafa":81,"pct_lena_guano":19,"pct_basura_formal":0,"pct_basura_quema":86,"pct_basura_informal":5,"pct_internet":33,"pct_celular":90,"pct_televisor":71}},{"type":"Feature","geometry":{"type":"Polygon","coordinates":[[[-66.33315,-18.54675],[-66.33324,-18.54677],[-66.33327,-18.54703],[-66.33337,-18.54703],[-66.3335,-18.54735],[-66.33397,-18.54742],[-66.33389,-18.54719],[-66.33361,-18.547],[-66.33354,-18.54656],[-66.33324,-18.54647],[-66.33324,-18.54658],[-66.33314,-18.54659],[-66.33315,-18.54675]]]},"properties":{"n":"MICANI","p":114,"personas_x_ha":275,"masculinidad":119,"pct_menor20":51,"pct_60mas":4,"pct_migrante":21,"dependencia_econ":148,"pct_empleados":13,"pct_cuentapropia":50,"pct_agricultura":37,"pct_comercio":2,"pct_manufactura":0,"pct_construccion":4,"pct_transporte":2,"pct_alojamiento":2,"pct_sin_educacion":3,"pct_educ_superior":12,"brecha_educ":-10,"pct_sin_seguro":28,"pct_sus":72,"pct_seguro_privado":0,"brecha_seguro":-5,"pct_salud_publica":32,"pct_med_tradicional":14,"pct_automedicacion":19,"pct_remedios_caseros":28,"pct_viv_desocupada":11,"pct_alquiler":3,"pct_electricidad":100,"pct_sin_electricidad":0,"pct_agua_red":62,"pct_alcantarillado":0,"pct_camara_septica":0,"pct_pozo_ciego":3,"pct_sin_desague":97,"pct_gas_red":0,"pct_gas_garrafa":81,"pct_lena_guano":16,"pct_basura_formal":0,"pct_basura_quema":91,"pct_basura_informal":9,"pct_internet":75,"pct_celular":84,"pct_televisor":69}}]}