{"type":"FeatureCollection","features":[{"type":"Feature","geometry":{"type":"Polygon","coordinates":[[[-63.94579,-18.33639],[-63.94648,-18.33678],[-63.94608,-18.33746],[-63.94552,-18.33783],[-63.94536,-18.33719],[-63.94579,-18.33639]]]},"properties":{"n":"QUIRUSILLAS - LOS TAJIBOS","p":83,"personas_x_ha":78,"masculinidad":84,"pct_menor20":30,"pct_60mas":10,"pct_migrante":49,"dependencia_econ":102,"pct_empleados":46,"pct_cuentapropia":49,"pct_agricultura":29,"pct_comercio":24,"pct_manufactura":20,"pct_construccion":7,"pct_transporte":0,"pct_alojamiento":2,"pct_educ_superior":34,"brecha_educ":-1,"pct_sin_seguro":16,"pct_seguro_privado":1,"brecha_seguro":0,"pct_med_tradicional":1,"pct_automedicacion":19,"pct_remedios_caseros":11,"pct_viv_desocupada":0,"pct_alquiler":14,"pct_electricidad":100,"pct_agua_red":100,"pct_alcantarillado":7,"pct_gas_red":0,"pct_gas_garrafa":100,"pct_lena_guano":100,"pct_basura_formal":100,"pct_basura_quema":0,"pct_basura_informal":0,"pct_internet":100,"pct_celular":100,"pct_televisor":86}},{"type":"Feature","geometry":{"type":"Polygon","coordinates":[[[-63.9476,-18.33636],[-63.94796,-18.33567],[-63.94721,-18.33525],[-63.94693,-18.33601],[-63.9476,-18.33636]]]},"properties":{"n":"QUIRUSILLAS - LOS TAJIBOS","p":72,"personas_x_ha":94,"masculinidad":95,"pct_menor20":15,"pct_60mas":14,"pct_migrante":49,"dependencia_econ":71,"pct_empleados":29,"pct_cuentapropia":69,"pct_agricultura":38,"pct_comercio":12,"pct_manufactura":17,"pct_construccion":2,"pct_transporte":7,"pct_alojamiento":10,"pct_educ_superior":18,"brecha_educ":-8,"pct_sin_seguro":25,"pct_seguro_privado":0,"brecha_seguro":1,"pct_med_tradicional":3,"pct_automedicacion":27,"pct_remedios_caseros":29,"pct_viv_desocupada":5,"pct_alquiler":52,"pct_electricidad":100,"pct_agua_red":100,"pct_alcantarillado":5,"pct_gas_red":0,"pct_gas_garrafa":90,"pct_lena_guano":90,"pct_basura_formal":95,"pct_basura_quema":5,"pct_basura_informal":0,"pct_internet":76,"pct_celular":71,"pct_televisor":71}},{"type":"Feature","geometry":{"type":"Polygon","coordinates":[[[-63.94836,-18.33697],[-63.94864,-18.33713],[-63.94857,-18.33762],[-63.94823,-18.33745],[-63.94836,-18.33697]]]},"properties":{"n":"QUIRUSILLAS - LOS TAJIBOS","p":60,"personas_x_ha":285,"masculinidad":82,"pct_menor20":8,"pct_60mas":13,"pct_migrante":23,"dependencia_econ":84,"pct_empleados":19,"pct_cuentapropia":78,"pct_agricultura":44,"pct_comercio":3,"pct_manufactura":22,"pct_construccion":3,"pct_transporte":6,"pct_alojamiento":3,"pct_educ_superior":15,"brecha_educ":-15,"pct_sin_seguro":30,"pct_seguro_privado":0,"brecha_seguro":-18,"pct_med_tradicional":0,"pct_automedicacion":24,"pct_remedios_caseros":28,"pct_viv_desocupada":0,"pct_alquiler":22,"pct_electricidad":100,"pct_agua_red":100,"pct_alcantarillado":0,"pct_gas_red":0,"pct_gas_garrafa":89,"pct_lena_guano":89,"pct_basura_formal":78,"pct_basura_quema":22,"pct_basura_informal":0,"pct_internet":78,"pct_celular":78,"pct_televisor":89}},{"type":"Feature","geometry":{"type":"Polygon","coordinates":[[[-63.94949,-18.33648],[-63.94895,-18.3362],[-63.94864,-18.3368],[-63.94865,-18.33702],[-63.9489,-18.33723],[-63.94949,-18.33648]]]},"properties":{"n":"QUIRUSILLAS - LOS TAJIBOS","p":51,"personas_x_ha":94,"masculinidad":82,"pct_menor20":25,"pct_60mas":8,"pct_migrante":55,"dependencia_econ":112,"pct_empleados":42,"pct_cuentapropia":42,"pct_agricultura":50,"pct_comercio":0,"pct_manufactura":4,"pct_construccion":4,"pct_transporte":4,"pct_alojamiento":0,"pct_educ_superior":42,"brecha_educ":-10,"pct_sin_seguro":12,"pct_seguro_privado":0,"brecha_seguro":-6,"pct_med_tradicional":12,"pct_automedicacion":18,"pct_remedios_caseros":22,"pct_viv_desocupada":0,"pct_alquiler":40,"pct_electricidad":93,"pct_agua_red":100,"pct_alcantarillado":0,"pct_gas_red":0,"pct_gas_garrafa":100,"pct_lena_guano":100,"pct_basura_formal":100,"pct_basura_quema":0,"pct_basura_informal":0,"pct_internet":67,"pct_celular":93,"pct_televisor":73}},{"type":"Feature","geometry":{"type":"Polygon","coordinates":[[[-63.94631,-18.33396],[-63.94601,-18.33456],[-63.94658,-18.33486],[-63.94689,-18.3344],[-63.94631,-18.33396]]]},"properties":{"n":"QUIRUSILLAS - LOS TAJIBOS","p":147,"personas_x_ha":300,"masculinidad":65,"pct_menor20":17,"pct_60mas":14,"pct_migrante":31,"dependencia_econ":444,"pct_empleados":22,"pct_cuentapropia":44,"pct_agricultura":63,"pct_comercio":4,"pct_manufactura":0,"pct_construccion":7,"pct_transporte":0,"pct_alojamiento":0,"pct_educ_superior":15,"brecha_educ":15,"pct_sin_seguro":37,"pct_seguro_privado":0,"brecha_seguro":-14,"pct_med_tradicional":6,"pct_automedicacion":17,"pct_remedios_caseros":24,"pct_viv_desocupada":0,"pct_alquiler":45,"pct_electricidad":100,"pct_agua_red":90,"pct_alcantarillado":5,"pct_gas_red":0,"pct_gas_garrafa":100,"pct_lena_guano":100,"pct_basura_formal":95,"pct_basura_quema":5,"pct_basura_informal":0,"pct_internet":65,"pct_celular":85,"pct_televisor":85}},{"type":"Feature","geometry":{"type":"Polygon","coordinates":[[[-63.94755,-18.33649],[-63.94687,-18.33611],[-63.94661,-18.33673],[-63.94723,-18.33703],[-63.94755,-18.33649]]]},"properties":{"n":"QUIRUSILLAS - LOS TAJIBOS","p":60,"personas_x_ha":102,"masculinidad":161,"pct_menor20":27,"pct_60mas":12,"pct_migrante":60,"dependencia_econ":76,"pct_empleados":47,"pct_cuentapropia":50,"pct_agricultura":56,"pct_comercio":9,"pct_manufactura":9,"pct_construccion":3,"pct_transporte":0,"pct_alojamiento":0,"pct_educ_superior":38,"brecha_educ":1,"pct_sin_seguro":39,"pct_seguro_privado":0,"brecha_seguro":6,"pct_med_tradicional":10,"pct_automedicacion":17,"pct_remedios_caseros":23,"pct_viv_desocupada":0,"pct_alquiler":50,"pct_electricidad":100,"pct_agua_red":100,"pct_alcantarillado":0,"pct_gas_red":0,"pct_gas_garrafa":90,"pct_lena_guano":90,"pct_basura_formal":90,"pct_basura_quema":5,"pct_basura_informal":0,"pct_internet":90,"pct_celular":95,"pct_televisor":85}},{"type":"Feature","geometry":{"type":"Polygon","coordinates":[[[-63.94617,-18.33566],[-63.9468,-18.33607],[-63.94652,-18.33663],[-63.94582,-18.33631],[-63.94617,-18.33566]]]},"properties":{"n":"QUIRUSILLAS - LOS TAJIBOS","p":76,"personas_x_ha":120,"masculinidad":95,"pct_menor20":17,"pct_60mas":11,"pct_migrante":39,"dependencia_econ":70,"pct_empleados":27,"pct_cuentapropia":64,"pct_agricultura":36,"pct_comercio":11,"pct_manufactura":5,"pct_construccion":5,"pct_transporte":0,"pct_alojamiento":2,"pct_educ_superior":40,"brecha_educ":-4,"pct_sin_seguro":18,"pct_seguro_privado":0,"brecha_seguro":-7,"pct_med_tradicional":9,"pct_automedicacion":20,"pct_remedios_caseros":28,"pct_viv_desocupada":0,"pct_alquiler":11,"pct_electricidad":100,"pct_agua_red":100,"pct_alcantarillado":16,"pct_gas_red":0,"pct_gas_garrafa":95,"pct_lena_guano":95,"pct_basura_formal":89,"pct_basura_quema":0,"pct_basura_informal":0,"pct_internet":74,"pct_celular":95,"pct_televisor":79}},{"type":"Feature","geometry":{"type":"Polygon","coordinates":[[[-63.9466,-18.33496],[-63.9471,-18.33521],[-63.94684,-18.33595],[-63.94624,-18.33562],[-63.9466,-18.33496]]]},"properties":{"n":"QUIRUSILLAS - LOS TAJIBOS","p":105,"personas_x_ha":184,"masculinidad":123,"pct_menor20":30,"pct_60mas":8,"pct_migrante":46,"dependencia_econ":112,"pct_empleados":31,"pct_cuentapropia":58,"pct_agricultura":38,"pct_comercio":8,"pct_manufactura":6,"pct_construccion":4,"pct_transporte":2,"pct_alojamiento":6,"pct_educ_superior":44,"brecha_educ":-11,"pct_sin_seguro":1,"pct_seguro_privado":0,"brecha_seguro":-2,"pct_med_tradicional":4,"pct_automedicacion":26,"pct_remedios_caseros":26,"pct_viv_desocupada":0,"pct_alquiler":18,"pct_electricidad":100,"pct_agua_red":100,"pct_alcantarillado":4,"pct_gas_red":0,"pct_gas_garrafa":96,"pct_lena_guano":96,"pct_basura_formal":100,"pct_basura_quema":0,"pct_basura_informal":0,"pct_internet":82,"pct_celular":93,"pct_televisor":68}},{"type":"Feature","geometry":{"type":"Polygon","coordinates":[[[-63.9461,-18.33561],[-63.94555,-18.33531],[-63.94519,-18.33594],[-63.94576,-18.33623],[-63.9461,-18.33561]]]},"properties":{"n":"QUIRUSILLAS - LOS TAJIBOS","p":74,"personas_x_ha":132,"masculinidad":95,"pct_menor20":19,"pct_60mas":14,"pct_migrante":22,"dependencia_econ":59,"pct_empleados":30,"pct_cuentapropia":66,"pct_agricultura":39,"pct_comercio":39,"pct_manufactura":0,"pct_construccion":0,"pct_transporte":2,"pct_alojamiento":2,"pct_educ_superior":31,"brecha_educ":-7,"pct_sin_seguro":4,"pct_seguro_privado":0,"brecha_seguro":9,"pct_med_tradicional":4,"pct_automedicacion":20,"pct_remedios_caseros":29,"pct_viv_desocupada":0,"pct_alquiler":6,"pct_electricidad":100,"pct_agua_red":100,"pct_alcantarillado":6,"pct_gas_red":0,"pct_gas_garrafa":100,"pct_lena_guano":100,"pct_basura_formal":100,"pct_basura_quema":0,"pct_basura_informal":0,"pct_internet":82,"pct_celular":94,"pct_televisor":82}},{"type":"Feature","geometry":{"type":"Polygon","coordinates":[[[-63.94993,-18.33401],[-63.94983,-18.33418],[-63.94964,-18.33424],[-63.94946,-18.33445],[-63.94939,-18.33465],[-63.9495,-18.33485],[-63.94982,-18.33509],[-63.95003,-18.3356],[-63.94999,-18.33565],[-63.94974,-18.33566],[-63.9496,-18.33578],[-63.94952,-18.33602],[-63.94935,-18.33606],[-63.949,-18.33604],[-63.94813,-18.33564],[-63.94823,-18.33541],[-63.94897,-18.33448],[-63.94965,-18.3339],[-63.94985,-18.33391],[-63.94993,-18.33401]]]},"properties":{"n":"QUIRUSILLAS - LOS TAJIBOS","p":44,"personas_x_ha":19,"masculinidad":120,"pct_menor20":16,"pct_60mas":9,"pct_migrante":48,"dependencia_econ":52,"pct_empleados":34,"pct_cuentapropia":52,"pct_agricultura":59,"pct_comercio":17,"pct_manufactura":3,"pct_construccion":7,"pct_transporte":3,"pct_alojamiento":7,"pct_educ_superior":18,"brecha_educ":-8,"pct_sin_seguro":27,"pct_seguro_privado":0,"brecha_seguro":4,"pct_med_tradicional":14,"pct_automedicacion":20,"pct_remedios_caseros":20,"pct_viv_desocupada":0,"pct_alquiler":0,"pct_electricidad":100,"pct_agua_red":100,"pct_alcantarillado":11,"pct_gas_red":0,"pct_gas_garrafa":89,"pct_lena_guano":89,"pct_basura_formal":89,"pct_basura_quema":11,"pct_basura_informal":0,"pct_internet":89,"pct_celular":100,"pct_televisor":100}},{"type":"Feature","geometry":{"type":"Polygon","coordinates":[[[-63.9516,-18.32946],[-63.9513,-18.32935],[-63.95102,-18.32949],[-63.95066,-18.32984],[-63.95053,-18.32985],[-63.95043,-18.32959],[-63.95007,-18.32954],[-63.94989,-18.32901],[-63.94973,-18.32898],[-63.9482,-18.32939],[-63.94775,-18.32988],[-63.94689,-18.33005],[-63.94654,-18.33035],[-63.94646,-18.33064],[-63.94696,-18.33128],[-63.94687,-18.3322],[-63.9477,-18.33219],[-63.94823,-18.33307],[-63.94803,-18.33364],[-63.94857,-18.33368],[-63.94857,-18.33376],[-63.94798,-18.33375],[-63.94753,-18.33469],[-63.94841,-18.33503],[-63.94863,-18.3348],[-63.94884,-18.3344],[-63.94935,-18.33405],[-63.94966,-18.33373],[-63.95,-18.33378],[-63.95074,-18.33327],[-63.95093,-18.33297],[-63.95152,-18.33246],[-63.95162,-18.33232],[-63.95167,-18.33189],[-63.952,-18.33145],[-63.95239,-18.3311],[-63.95289,-18.33098],[-63.95334,-18.33099],[-63.95357,-18.33087],[-63.95332,-18.33031],[-63.95348,-18.32981],[-63.9528,-18.32973],[-63.95222,-18.32992],[-63.95182,-18.32972],[-63.9516,-18.32946]]]},"properties":{"n":"QUIRUSILLAS - LOS TAJIBOS","p":60,"personas_x_ha":2,"masculinidad":150,"pct_menor20":18,"pct_60mas":10,"pct_migrante":35,"dependencia_econ":76,"pct_empleados":29,"pct_cuentapropia":71,"pct_agricultura":65,"pct_comercio":6,"pct_manufactura":3,"pct_construccion":3,"pct_transporte":6,"pct_alojamiento":6,"pct_educ_superior":24,"brecha_educ":-6,"pct_sin_seguro":13,"pct_seguro_privado":0,"brecha_seguro":8,"pct_med_tradicional":6,"pct_automedicacion":29,"pct_remedios_caseros":30,"pct_viv_desocupada":0,"pct_alquiler":12,"pct_electricidad":94,"pct_agua_red":100,"pct_alcantarillado":0,"pct_gas_red":0,"pct_gas_garrafa":82,"pct_lena_guano":82,"pct_basura_formal":88,"pct_basura_quema":12,"pct_basura_informal":0,"pct_internet":82,"pct_celular":100,"pct_televisor":82}},{"type":"Feature","geometry":{"type":"Polygon","coordinates":[[[-63.94717,-18.33512],[-63.94665,-18.33488],[-63.94693,-18.33445],[-63.94734,-18.33474],[-63.94717,-18.33512]]]},"properties":{"n":"QUIRUSILLAS - LOS TAJIBOS","p":44,"personas_x_ha":149,"masculinidad":144,"pct_menor20":16,"pct_60mas":20,"pct_migrante":36,"dependencia_econ":267,"pct_empleados":25,"pct_cuentapropia":67,"pct_agricultura":50,"pct_comercio":25,"pct_manufactura":0,"pct_construccion":8,"pct_transporte":0,"pct_alojamiento":0,"pct_educ_superior":21,"brecha_educ":-25,"pct_sin_seguro":23,"pct_seguro_privado":2,"brecha_seguro":2,"pct_med_tradicional":5,"pct_automedicacion":9,"pct_remedios_caseros":33,"pct_viv_desocupada":0,"pct_alquiler":56,"pct_electricidad":100,"pct_agua_red":78,"pct_alcantarillado":0,"pct_gas_red":0,"pct_gas_garrafa":100,"pct_lena_guano":100,"pct_basura_formal":100,"pct_basura_quema":0,"pct_basura_informal":0,"pct_internet":33,"pct_celular":56,"pct_televisor":100}},{"type":"Feature","geometry":{"type":"Polygon","coordinates":[[[-63.94658,-18.33862],[-63.9477,-18.33912],[-63.94786,-18.33911],[-63.94818,-18.33841],[-63.94802,-18.33787],[-63.94818,-18.33748],[-63.94765,-18.33738],[-63.94735,-18.33724],[-63.94727,-18.33767],[-63.94732,-18.33786],[-63.94728,-18.33797],[-63.94717,-18.33794],[-63.94725,-18.33721],[-63.94655,-18.33682],[-63.94606,-18.33767],[-63.94658,-18.33862]]]},"properties":{"n":"QUIRUSILLAS - LOS TAJIBOS","p":28,"personas_x_ha":8,"masculinidad":56,"pct_menor20":43,"pct_60mas":14,"pct_migrante":79,"dependencia_econ":115,"pct_empleados":23,"pct_cuentapropia":46,"pct_agricultura":38,"pct_comercio":38,"pct_manufactura":0,"pct_construccion":8,"pct_transporte":0,"pct_alojamiento":0,"pct_educ_superior":44,"brecha_educ":12,"pct_sin_seguro":14,"pct_seguro_privado":0,"brecha_seguro":9,"pct_med_tradicional":22,"pct_automedicacion":16,"pct_remedios_caseros":24,"pct_viv_desocupada":11,"pct_alquiler":12,"pct_electricidad":100,"pct_agua_red":100,"pct_alcantarillado":0,"pct_gas_red":0,"pct_gas_garrafa":75,"pct_lena_guano":75,"pct_basura_formal":50,"pct_basura_quema":25,"pct_basura_informal":0,"pct_internet":75,"pct_celular":88,"pct_televisor":62}},{"type":"Feature","geometry":{"type":"Polygon","coordinates":[[[-63.94553,-18.33519],[-63.94587,-18.33459],[-63.9454,-18.33432],[-63.94506,-18.33491],[-63.94553,-18.33519]]]},"properties":{"n":"QUIRUSILLAS - LOS TAJIBOS","p":32,"personas_x_ha":71,"masculinidad":113,"pct_menor20":34,"pct_60mas":3,"pct_migrante":72,"dependencia_econ":88,"pct_empleados":12,"pct_cuentapropia":88,"pct_agricultura":12,"pct_comercio":47,"pct_manufactura":0,"pct_construccion":6,"pct_transporte":6,"pct_alojamiento":0,"pct_educ_superior":43,"brecha_educ":-6,"pct_sin_seguro":0,"pct_seguro_privado":10,"brecha_seguro":0,"pct_med_tradicional":14,"pct_automedicacion":24,"pct_remedios_caseros":19,"pct_viv_desocupada":0,"pct_alquiler":10,"pct_electricidad":100,"pct_agua_red":100,"pct_alcantarillado":0,"pct_gas_red":0,"pct_gas_garrafa":100,"pct_lena_guano":100,"pct_basura_formal":100,"pct_basura_quema":0,"pct_basura_informal":0,"pct_internet":100,"pct_celular":100,"pct_televisor":90}},{"type":"Feature","geometry":{"type":"Polygon","coordinates":[[[-63.94504,-18.33586],[-63.94476,-18.33569],[-63.94512,-18.33504],[-63.94548,-18.33528],[-63.94504,-18.33586]]]},"properties":{"n":"QUIRUSILLAS - LOS TAJIBOS","p":46,"personas_x_ha":128,"masculinidad":92,"pct_menor20":26,"pct_60mas":11,"pct_migrante":61,"dependencia_econ":77,"pct_empleados":23,"pct_cuentapropia":62,"pct_agricultura":62,"pct_comercio":19,"pct_manufactura":8,"pct_construccion":4,"pct_transporte":4,"pct_alojamiento":12,"pct_educ_superior":6,"brecha_educ":8,"pct_sin_seguro":9,"pct_seguro_privado":0,"brecha_seguro":9,"pct_med_tradicional":9,"pct_automedicacion":15,"pct_remedios_caseros":29,"pct_viv_desocupada":0,"pct_alquiler":14,"pct_electricidad":100,"pct_agua_red":100,"pct_alcantarillado":7,"pct_gas_red":0,"pct_gas_garrafa":86,"pct_lena_guano":86,"pct_basura_formal":93,"pct_basura_quema":7,"pct_basura_informal":0,"pct_internet":57,"pct_celular":93,"pct_televisor":57}},{"type":"Feature","geometry":{"type":"Polygon","coordinates":[[[-63.9477,-18.3364],[-63.94805,-18.33573],[-63.94885,-18.33613],[-63.94856,-18.33678],[-63.9477,-18.3364]]]},"properties":{"n":"QUIRUSILLAS - LOS TAJIBOS","p":67,"personas_x_ha":82,"masculinidad":109,"pct_menor20":22,"pct_60mas":22,"pct_migrante":58,"dependencia_econ":91,"pct_empleados":34,"pct_cuentapropia":66,"pct_agricultura":49,"pct_comercio":9,"pct_manufactura":3,"pct_construccion":14,"pct_transporte":3,"pct_alojamiento":9,"pct_educ_superior":38,"brecha_educ":15,"pct_sin_seguro":17,"pct_seguro_privado":8,"brecha_seguro":-5,"pct_med_tradicional":0,"pct_automedicacion":20,"pct_remedios_caseros":18,"pct_viv_desocupada":4,"pct_alquiler":30,"pct_electricidad":100,"pct_agua_red":100,"pct_alcantarillado":0,"pct_gas_red":0,"pct_gas_garrafa":96,"pct_lena_guano":96,"pct_basura_formal":100,"pct_basura_quema":0,"pct_basura_informal":0,"pct_internet":59,"pct_celular":85,"pct_televisor":67}},{"type":"Feature","geometry":{"type":"Polygon","coordinates":[[[-63.94829,-18.33685],[-63.94766,-18.33652],[-63.94736,-18.33708],[-63.9481,-18.33739],[-63.94829,-18.33685]]]},"properties":{"n":"QUIRUSILLAS - LOS TAJIBOS","p":73,"personas_x_ha":123,"masculinidad":97,"pct_menor20":27,"pct_60mas":14,"pct_migrante":63,"dependencia_econ":70,"pct_empleados":63,"pct_cuentapropia":35,"pct_agricultura":42,"pct_comercio":2,"pct_manufactura":5,"pct_construccion":5,"pct_transporte":7,"pct_alojamiento":5,"pct_educ_superior":18,"brecha_educ":-22,"pct_sin_seguro":7,"pct_seguro_privado":0,"brecha_seguro":-8,"pct_med_tradicional":12,"pct_automedicacion":22,"pct_remedios_caseros":25,"pct_viv_desocupada":0,"pct_alquiler":24,"pct_electricidad":94,"pct_agua_red":94,"pct_alcantarillado":6,"pct_gas_red":0,"pct_gas_garrafa":71,"pct_lena_guano":71,"pct_basura_formal":94,"pct_basura_quema":6,"pct_basura_informal":0,"pct_internet":71,"pct_celular":71,"pct_televisor":82}},{"type":"Feature","geometry":{"type":"Polygon","coordinates":[[[-63.94745,-18.33476],[-63.94826,-18.33509],[-63.94802,-18.33559],[-63.94725,-18.33518],[-63.94745,-18.33476]]]},"properties":{"n":"QUIRUSILLAS - LOS TAJIBOS","p":74,"personas_x_ha":141,"masculinidad":118,"pct_menor20":32,"pct_60mas":8,"pct_migrante":22,"dependencia_econ":80,"pct_empleados":20,"pct_cuentapropia":73,"pct_agricultura":34,"pct_comercio":7,"pct_manufactura":7,"pct_construccion":5,"pct_transporte":5,"pct_alojamiento":0,"pct_educ_superior":27,"brecha_educ":-21,"pct_sin_seguro":14,"pct_seguro_privado":0,"brecha_seguro":4,"pct_med_tradicional":12,"pct_automedicacion":17,"pct_remedios_caseros":18,"pct_viv_desocupada":0,"pct_alquiler":19,"pct_electricidad":100,"pct_agua_red":100,"pct_alcantarillado":0,"pct_gas_red":0,"pct_gas_garrafa":95,"pct_lena_guano":95,"pct_basura_formal":100,"pct_basura_quema":0,"pct_basura_informal":0,"pct_internet":67,"pct_celular":81,"pct_televisor":90}},{"type":"Feature","geometry":{"type":"Polygon","coordinates":[[[-63.94491,-18.33659],[-63.94513,-18.33603],[-63.94569,-18.33636],[-63.94529,-18.33706],[-63.94491,-18.33659]]]},"properties":{"n":"QUIRUSILLAS - LOS TAJIBOS","p":49,"personas_x_ha":92,"masculinidad":75,"pct_menor20":10,"pct_60mas":8,"pct_migrante":49,"dependencia_econ":53,"pct_empleados":41,"pct_cuentapropia":53,"pct_agricultura":34,"pct_comercio":31,"pct_manufactura":6,"pct_construccion":9,"pct_transporte":0,"pct_alojamiento":3,"pct_educ_superior":25,"brecha_educ":9,"pct_sin_seguro":22,"pct_seguro_privado":0,"brecha_seguro":36,"pct_med_tradicional":4,"pct_automedicacion":14,"pct_remedios_caseros":18,"pct_viv_desocupada":0,"pct_alquiler":50,"pct_electricidad":100,"pct_agua_red":100,"pct_alcantarillado":20,"pct_gas_red":0,"pct_gas_garrafa":100,"pct_lena_guano":100,"pct_basura_formal":100,"pct_basura_quema":0,"pct_basura_informal":0,"pct_internet":60,"pct_celular":80,"pct_televisor":70}}]}