{"type":"FeatureCollection","features":[{"type":"Feature","geometry":{"type":"Polygon","coordinates":[[[-61.87448,-16.72157],[-61.87432,-16.72062],[-61.87362,-16.72075],[-61.87377,-16.72168],[-61.87448,-16.72157]]]},"properties":{"n":"COLORADILLO","p":21,"personas_x_ha":26,"masculinidad":110,"pct_menor20":52,"pct_60mas":10,"pct_migrante":10,"dependencia_econ":320,"pct_empleados":0,"pct_cuentapropia":80,"pct_agricultura":60,"pct_comercio":20,"pct_manufactura":0,"pct_construccion":0,"pct_transporte":0,"pct_alojamiento":0,"pct_sin_educacion":20,"pct_educ_superior":0,"brecha_educ":-8,"pct_sin_seguro":10,"pct_sus":90,"pct_seguro_privado":0,"brecha_seguro":18,"pct_salud_publica":47,"pct_med_tradicional":2,"pct_automedicacion":18,"pct_remedios_caseros":29,"pct_viv_desocupada":0,"pct_alquiler":0,"pct_electricidad":100,"pct_sin_electricidad":0,"pct_agua_red":86,"pct_alcantarillado":14,"pct_camara_septica":0,"pct_pozo_ciego":43,"pct_sin_desague":0,"pct_gas_red":0,"pct_gas_garrafa":57,"pct_lena_guano":43,"pct_basura_formal":0,"pct_basura_quema":100,"pct_basura_informal":0,"pct_internet":14,"pct_celular":57,"pct_televisor":14}},{"type":"Feature","geometry":{"type":"Polygon","coordinates":[[[-61.87527,-16.72036],[-61.87515,-16.7198],[-61.87431,-16.71997],[-61.87441,-16.7205],[-61.87527,-16.72036]]]},"properties":{"n":"COLORADILLO","p":26,"personas_x_ha":46,"masculinidad":189,"pct_menor20":38,"pct_60mas":8,"pct_migrante":27,"dependencia_econ":100,"pct_empleados":23,"pct_cuentapropia":62,"pct_agricultura":23,"pct_comercio":15,"pct_manufactura":15,"pct_construccion":31,"pct_transporte":0,"pct_alojamiento":0,"pct_sin_educacion":0,"pct_educ_superior":0,"brecha_educ":-33,"pct_sin_seguro":15,"pct_sus":85,"pct_seguro_privado":0,"brecha_seguro":-10,"pct_salud_publica":26,"pct_med_tradicional":14,"pct_automedicacion":21,"pct_remedios_caseros":31,"pct_viv_desocupada":0,"pct_alquiler":0,"pct_electricidad":100,"pct_sin_electricidad":0,"pct_agua_red":57,"pct_alcantarillado":0,"pct_camara_septica":0,"pct_pozo_ciego":0,"pct_sin_desague":14,"pct_gas_red":0,"pct_gas_garrafa":0,"pct_lena_guano":100,"pct_basura_formal":0,"pct_basura_quema":100,"pct_basura_informal":0,"pct_internet":29,"pct_celular":57,"pct_televisor":43}},{"type":"Feature","geometry":{"type":"Polygon","coordinates":[[[-61.87533,-16.72083],[-61.87529,-16.72049],[-61.87442,-16.72062],[-61.87459,-16.72154],[-61.87498,-16.72148],[-61.87533,-16.72083]]]},"properties":{"n":"COLORADILLO","p":24,"personas_x_ha":31,"masculinidad":200,"pct_menor20":46,"pct_60mas":8,"pct_migrante":12,"dependencia_econ":85,"pct_empleados":31,"pct_cuentapropia":46,"pct_agricultura":46,"pct_comercio":23,"pct_manufactura":0,"pct_construccion":15,"pct_transporte":0,"pct_alojamiento":0,"pct_sin_educacion":0,"pct_educ_superior":0,"brecha_educ":-42,"pct_sin_seguro":5,"pct_sus":95,"pct_seguro_privado":0,"brecha_seguro":-12,"pct_salud_publica":48,"pct_med_tradicional":0,"pct_automedicacion":0,"pct_remedios_caseros":50,"pct_viv_desocupada":0,"pct_alquiler":0,"pct_electricidad":100,"pct_sin_electricidad":0,"pct_agua_red":100,"pct_alcantarillado":0,"pct_camara_septica":0,"pct_pozo_ciego":14,"pct_sin_desague":0,"pct_gas_red":0,"pct_gas_garrafa":0,"pct_lena_guano":100,"pct_basura_formal":0,"pct_basura_quema":100,"pct_basura_informal":0,"pct_internet":86,"pct_celular":86,"pct_televisor":57}},{"type":"Feature","geometry":{"type":"Polygon","coordinates":[[[-61.83888,-16.6831],[-61.83885,-16.68381],[-61.83948,-16.68384],[-61.84001,-16.68263],[-61.83908,-16.68226],[-61.83888,-16.6831]]]},"properties":{"n":"FATIMA","p":35,"personas_x_ha":24,"masculinidad":169,"pct_menor20":51,"pct_60mas":9,"pct_migrante":20,"dependencia_econ":119,"pct_empleados":25,"pct_cuentapropia":44,"pct_agricultura":56,"pct_comercio":6,"pct_manufactura":19,"pct_construccion":6,"pct_transporte":6,"pct_alojamiento":0,"pct_sin_educacion":11,"pct_educ_superior":17,"brecha_educ":-5,"pct_sin_seguro":9,"pct_sus":91,"pct_seguro_privado":0,"brecha_seguro":1,"pct_salud_publica":24,"pct_med_tradicional":20,"pct_automedicacion":21,"pct_remedios_caseros":26,"pct_viv_desocupada":0,"pct_alquiler":0,"pct_electricidad":100,"pct_sin_electricidad":0,"pct_agua_red":50,"pct_alcantarillado":12,"pct_camara_septica":0,"pct_pozo_ciego":25,"pct_sin_desague":0,"pct_gas_red":0,"pct_gas_garrafa":12,"pct_lena_guano":88,"pct_basura_formal":0,"pct_basura_quema":88,"pct_basura_informal":0,"pct_internet":88,"pct_celular":88,"pct_televisor":12}},{"type":"Feature","geometry":{"type":"Polygon","coordinates":[[[-61.8374,-16.68144],[-61.83468,-16.68037],[-61.83393,-16.6801],[-61.8342,-16.6796],[-61.83573,-16.68017],[-61.83821,-16.68124],[-61.83761,-16.68264],[-61.837,-16.68242],[-61.8374,-16.68144]]]},"properties":{"n":"FATIMA","p":29,"personas_x_ha":8,"masculinidad":107,"pct_menor20":45,"pct_60mas":7,"pct_migrante":41,"dependencia_econ":107,"pct_empleados":14,"pct_cuentapropia":57,"pct_agricultura":50,"pct_comercio":7,"pct_manufactura":0,"pct_construccion":21,"pct_transporte":0,"pct_alojamiento":0,"pct_sin_educacion":6,"pct_educ_superior":6,"brecha_educ":-21,"pct_sin_seguro":10,"pct_sus":90,"pct_seguro_privado":0,"brecha_seguro":20,"pct_salud_publica":28,"pct_med_tradicional":16,"pct_automedicacion":21,"pct_remedios_caseros":29,"pct_viv_desocupada":0,"pct_alquiler":0,"pct_electricidad":100,"pct_sin_electricidad":0,"pct_agua_red":83,"pct_alcantarillado":0,"pct_camara_septica":0,"pct_pozo_ciego":17,"pct_sin_desague":0,"pct_gas_red":0,"pct_gas_garrafa":0,"pct_lena_guano":100,"pct_basura_formal":0,"pct_basura_quema":100,"pct_basura_informal":0,"pct_internet":100,"pct_celular":100,"pct_televisor":33}},{"type":"Feature","geometry":{"type":"Polygon","coordinates":[[[-61.78097,-16.74508],[-61.78063,-16.74478],[-61.78054,-16.74431],[-61.77963,-16.74447],[-61.77984,-16.74541],[-61.78097,-16.74508]]]},"properties":{"n":"LA ASUNTA DE LOMERIO","p":24,"personas_x_ha":23,"masculinidad":140,"pct_menor20":46,"pct_60mas":4,"pct_migrante":0,"dependencia_econ":300,"pct_empleados":17,"pct_cuentapropia":33,"pct_agricultura":83,"pct_comercio":0,"pct_manufactura":0,"pct_construccion":0,"pct_transporte":0,"pct_alojamiento":0,"pct_sin_educacion":0,"pct_educ_superior":15,"brecha_educ":-5,"pct_sin_seguro":5,"pct_sus":77,"pct_seguro_privado":0,"brecha_seguro":8,"pct_salud_publica":45,"pct_med_tradicional":6,"pct_automedicacion":2,"pct_remedios_caseros":39,"pct_viv_desocupada":0,"pct_alquiler":0,"pct_electricidad":50,"pct_sin_electricidad":33,"pct_agua_red":33,"pct_alcantarillado":17,"pct_camara_septica":0,"pct_pozo_ciego":67,"pct_sin_desague":17,"pct_gas_red":0,"pct_gas_garrafa":17,"pct_lena_guano":83,"pct_basura_formal":0,"pct_basura_quema":100,"pct_basura_informal":0,"pct_internet":33,"pct_celular":50,"pct_televisor":17}},{"type":"Feature","geometry":{"type":"Polygon","coordinates":[[[-61.93538,-16.7528],[-61.93585,-16.75199],[-61.93502,-16.75161],[-61.93456,-16.75237],[-61.93538,-16.7528]]]},"properties":{"n":"PALMIRA DE LOMERIO","p":25,"personas_x_ha":25,"masculinidad":108,"pct_menor20":36,"pct_60mas":12,"pct_migrante":0,"dependencia_econ":92,"pct_empleados":38,"pct_cuentapropia":38,"pct_agricultura":31,"pct_comercio":0,"pct_manufactura":38,"pct_construccion":0,"pct_transporte":0,"pct_alojamiento":0,"pct_sin_educacion":0,"pct_educ_superior":69,"brecha_educ":-38,"pct_sin_seguro":0,"pct_sus":64,"pct_seguro_privado":0,"brecha_seguro":0,"pct_salud_publica":39,"pct_med_tradicional":5,"pct_automedicacion":8,"pct_remedios_caseros":32,"pct_viv_desocupada":0,"pct_alquiler":0,"pct_electricidad":100,"pct_sin_electricidad":0,"pct_agua_red":100,"pct_alcantarillado":0,"pct_camara_septica":0,"pct_pozo_ciego":88,"pct_sin_desague":0,"pct_gas_red":0,"pct_gas_garrafa":62,"pct_lena_guano":38,"pct_basura_formal":0,"pct_basura_quema":62,"pct_basura_informal":0,"pct_internet":50,"pct_celular":88,"pct_televisor":75}},{"type":"Feature","geometry":{"type":"Polygon","coordinates":[[[-61.93443,-16.7523],[-61.9349,-16.75154],[-61.93406,-16.75109],[-61.93362,-16.75186],[-61.93443,-16.7523]]]},"properties":{"n":"PALMIRA DE LOMERIO","p":23,"personas_x_ha":23,"masculinidad":77,"pct_menor20":26,"pct_60mas":22,"pct_migrante":0,"dependencia_econ":35,"pct_empleados":12,"pct_cuentapropia":29,"pct_agricultura":47,"pct_comercio":0,"pct_manufactura":0,"pct_construccion":0,"pct_transporte":0,"pct_alojamiento":6,"pct_sin_educacion":17,"pct_educ_superior":56,"brecha_educ":-55,"pct_sin_seguro":9,"pct_sus":91,"pct_seguro_privado":0,"brecha_seguro":2,"pct_salud_publica":37,"pct_med_tradicional":21,"pct_automedicacion":0,"pct_remedios_caseros":40,"pct_viv_desocupada":0,"pct_alquiler":0,"pct_electricidad":100,"pct_sin_electricidad":0,"pct_agua_red":100,"pct_alcantarillado":0,"pct_camara_septica":0,"pct_pozo_ciego":57,"pct_sin_desague":0,"pct_gas_red":0,"pct_gas_garrafa":0,"pct_lena_guano":100,"pct_basura_formal":0,"pct_basura_quema":86,"pct_basura_informal":14,"pct_internet":71,"pct_celular":86,"pct_televisor":43}},{"type":"Feature","geometry":{"type":"Polygon","coordinates":[[[-61.93638,-16.75549],[-61.93733,-16.75399],[-61.93635,-16.75346],[-61.93586,-16.75435],[-61.93614,-16.7548],[-61.93638,-16.75549]]]},"properties":{"n":"PALMIRA DE LOMERIO","p":25,"personas_x_ha":14,"masculinidad":79,"pct_menor20":48,"pct_60mas":0,"pct_migrante":24,"dependencia_econ":108,"pct_empleados":25,"pct_cuentapropia":50,"pct_agricultura":50,"pct_comercio":0,"pct_manufactura":25,"pct_construccion":0,"pct_transporte":0,"pct_alojamiento":17,"pct_sin_educacion":0,"pct_educ_superior":29,"brecha_educ":-25,"pct_sin_seguro":8,"pct_sus":92,"pct_seguro_privado":0,"brecha_seguro":18,"pct_salud_publica":58,"pct_med_tradicional":0,"pct_automedicacion":0,"pct_remedios_caseros":37,"pct_viv_desocupada":0,"pct_alquiler":0,"pct_electricidad":100,"pct_sin_electricidad":0,"pct_agua_red":100,"pct_alcantarillado":12,"pct_camara_septica":0,"pct_pozo_ciego":75,"pct_sin_desague":12,"pct_gas_red":0,"pct_gas_garrafa":0,"pct_lena_guano":100,"pct_basura_formal":0,"pct_basura_quema":100,"pct_basura_informal":0,"pct_internet":38,"pct_celular":62,"pct_televisor":75}},{"type":"Feature","geometry":{"type":"Polygon","coordinates":[[[-61.93429,-16.75462],[-61.93477,-16.75384],[-61.93395,-16.75339],[-61.93348,-16.75418],[-61.93429,-16.75462]]]},"properties":{"n":"PALMIRA DE LOMERIO","p":42,"personas_x_ha":42,"masculinidad":91,"pct_menor20":52,"pct_60mas":12,"pct_migrante":2,"dependencia_econ":147,"pct_empleados":18,"pct_cuentapropia":47,"pct_agricultura":47,"pct_comercio":0,"pct_manufactura":12,"pct_construccion":0,"pct_transporte":0,"pct_alojamiento":24,"pct_sin_educacion":20,"pct_educ_superior":10,"brecha_educ":10,"pct_sin_seguro":2,"pct_sus":95,"pct_seguro_privado":2,"brecha_seguro":-5,"pct_salud_publica":27,"pct_med_tradicional":23,"pct_automedicacion":1,"pct_remedios_caseros":27,"pct_viv_desocupada":0,"pct_alquiler":0,"pct_electricidad":100,"pct_sin_electricidad":0,"pct_agua_red":100,"pct_alcantarillado":0,"pct_camara_septica":0,"pct_pozo_ciego":100,"pct_sin_desague":0,"pct_gas_red":0,"pct_gas_garrafa":22,"pct_lena_guano":78,"pct_basura_formal":0,"pct_basura_quema":100,"pct_basura_informal":0,"pct_internet":67,"pct_celular":67,"pct_televisor":0}},{"type":"Feature","geometry":{"type":"Polygon","coordinates":[[[-61.93384,-16.75331],[-61.93302,-16.75287],[-61.93255,-16.75368],[-61.93338,-16.75411],[-61.93384,-16.75331]]]},"properties":{"n":"PALMIRA DE LOMERIO","p":33,"personas_x_ha":32,"masculinidad":83,"pct_menor20":45,"pct_60mas":15,"pct_migrante":9,"dependencia_econ":83,"pct_empleados":0,"pct_cuentapropia":61,"pct_agricultura":78,"pct_comercio":6,"pct_manufactura":11,"pct_construccion":0,"pct_transporte":0,"pct_alojamiento":0,"pct_sin_educacion":15,"pct_educ_superior":10,"brecha_educ":10,"pct_sin_seguro":3,"pct_sus":97,"pct_seguro_privado":0,"brecha_seguro":-6,"pct_salud_publica":44,"pct_med_tradicional":0,"pct_automedicacion":11,"pct_remedios_caseros":44,"pct_viv_desocupada":0,"pct_alquiler":0,"pct_electricidad":100,"pct_sin_electricidad":0,"pct_agua_red":100,"pct_alcantarillado":0,"pct_camara_septica":30,"pct_pozo_ciego":70,"pct_sin_desague":0,"pct_gas_red":0,"pct_gas_garrafa":20,"pct_lena_guano":70,"pct_basura_formal":0,"pct_basura_quema":100,"pct_basura_informal":0,"pct_internet":20,"pct_celular":80,"pct_televisor":70}},{"type":"Feature","geometry":{"type":"Polygon","coordinates":[[[-61.85818,-16.98305],[-61.85833,-16.98229],[-61.85746,-16.98218],[-61.85729,-16.98296],[-61.85818,-16.98305]]]},"properties":{"n":"SALINAS DE LOMERIO","p":19,"personas_x_ha":23,"masculinidad":111,"pct_menor20":26,"pct_60mas":0,"pct_migrante":26,"dependencia_econ":36,"pct_empleados":43,"pct_cuentapropia":50,"pct_agricultura":50,"pct_comercio":21,"pct_manufactura":14,"pct_construccion":0,"pct_transporte":0,"pct_alojamiento":7,"pct_sin_educacion":0,"pct_educ_superior":7,"brecha_educ":0,"pct_sin_seguro":11,"pct_sus":79,"pct_seguro_privado":0,"brecha_seguro":20,"pct_salud_publica":34,"pct_med_tradicional":14,"pct_automedicacion":5,"pct_remedios_caseros":29,"pct_viv_desocupada":0,"pct_alquiler":0,"pct_electricidad":50,"pct_sin_electricidad":50,"pct_agua_red":0,"pct_alcantarillado":0,"pct_camara_septica":17,"pct_pozo_ciego":33,"pct_sin_desague":33,"pct_gas_red":0,"pct_gas_garrafa":50,"pct_lena_guano":33,"pct_basura_formal":0,"pct_basura_quema":100,"pct_basura_informal":0,"pct_internet":83,"pct_celular":83,"pct_televisor":50}},{"type":"Feature","geometry":{"type":"Polygon","coordinates":[[[-61.8585,-16.98128],[-61.85767,-16.9812],[-61.85749,-16.98208],[-61.85835,-16.98216],[-61.8585,-16.98128]]]},"properties":{"n":"SALINAS DE LOMERIO","p":26,"personas_x_ha":28,"masculinidad":136,"pct_menor20":31,"pct_60mas":23,"pct_migrante":23,"dependencia_econ":91,"pct_empleados":27,"pct_cuentapropia":73,"pct_agricultura":55,"pct_comercio":18,"pct_manufactura":9,"pct_construccion":0,"pct_transporte":0,"pct_alojamiento":0,"pct_sin_educacion":14,"pct_educ_superior":7,"brecha_educ":-29,"pct_sin_seguro":0,"pct_sus":100,"pct_seguro_privado":0,"brecha_seguro":0,"pct_salud_publica":45,"pct_med_tradicional":2,"pct_automedicacion":4,"pct_remedios_caseros":46,"pct_viv_desocupada":0,"pct_alquiler":0,"pct_electricidad":100,"pct_sin_electricidad":0,"pct_agua_red":0,"pct_alcantarillado":0,"pct_camara_septica":88,"pct_pozo_ciego":12,"pct_sin_desague":0,"pct_gas_red":0,"pct_gas_garrafa":75,"pct_lena_guano":25,"pct_basura_formal":0,"pct_basura_quema":100,"pct_basura_informal":0,"pct_internet":38,"pct_celular":75,"pct_televisor":50}},{"type":"Feature","geometry":{"type":"Polygon","coordinates":[[[-61.85661,-16.98104],[-61.85757,-16.98105],[-61.85789,-16.97897],[-61.85644,-16.979],[-61.85645,-16.98004],[-61.85617,-16.98043],[-61.85637,-16.9809],[-61.85661,-16.98104]]]},"properties":{"n":"SALINAS DE LOMERIO","p":53,"personas_x_ha":16,"masculinidad":77,"pct_menor20":43,"pct_60mas":6,"pct_migrante":66,"dependencia_econ":160,"pct_empleados":65,"pct_cuentapropia":20,"pct_agricultura":40,"pct_comercio":25,"pct_manufactura":10,"pct_construccion":5,"pct_transporte":10,"pct_alojamiento":5,"pct_sin_educacion":0,"pct_educ_superior":9,"brecha_educ":-12,"pct_sin_seguro":10,"pct_sus":71,"pct_seguro_privado":0,"brecha_seguro":6,"pct_salud_publica":40,"pct_med_tradicional":2,"pct_automedicacion":2,"pct_remedios_caseros":40,"pct_viv_desocupada":0,"pct_alquiler":0,"pct_electricidad":100,"pct_sin_electricidad":0,"pct_agua_red":14,"pct_alcantarillado":0,"pct_camara_septica":43,"pct_pozo_ciego":14,"pct_sin_desague":0,"pct_gas_red":0,"pct_gas_garrafa":43,"pct_lena_guano":57,"pct_basura_formal":0,"pct_basura_quema":100,"pct_basura_informal":0,"pct_internet":100,"pct_celular":100,"pct_televisor":71}},{"type":"Feature","geometry":{"type":"Polygon","coordinates":[[[-61.81048,-16.7696],[-61.81033,-16.76931],[-61.80983,-16.76926],[-61.80974,-16.77013],[-61.81041,-16.77024],[-61.81048,-16.7696]]]},"properties":{"n":"SAN ANTONIO DE LOMERIO","p":54,"personas_x_ha":78,"masculinidad":93,"pct_menor20":41,"pct_60mas":11,"pct_migrante":22,"dependencia_econ":179,"pct_empleados":53,"pct_cuentapropia":26,"pct_agricultura":16,"pct_comercio":26,"pct_manufactura":0,"pct_construccion":0,"pct_transporte":0,"pct_alojamiento":11,"pct_sin_educacion":0,"pct_educ_superior":53,"brecha_educ":-4,"pct_sin_seguro":4,"pct_sus":55,"pct_seguro_privado":0,"brecha_seguro":0,"pct_salud_publica":23,"pct_med_tradicional":16,"pct_automedicacion":16,"pct_remedios_caseros":23,"pct_viv_desocupada":0,"pct_alquiler":0,"pct_electricidad":100,"pct_sin_electricidad":0,"pct_agua_red":77,"pct_alcantarillado":0,"pct_camara_septica":54,"pct_pozo_ciego":31,"pct_sin_desague":0,"pct_gas_red":0,"pct_gas_garrafa":77,"pct_lena_guano":23,"pct_basura_formal":0,"pct_basura_quema":77,"pct_basura_informal":0,"pct_internet":85,"pct_celular":92,"pct_televisor":100}},{"type":"Feature","geometry":{"type":"Polygon","coordinates":[[[-61.81356,-16.76856],[-61.81363,-16.76771],[-61.81272,-16.76765],[-61.81264,-16.76851],[-61.81356,-16.76856]]]},"properties":{"n":"SAN ANTONIO DE LOMERIO","p":40,"personas_x_ha":43,"masculinidad":90,"pct_menor20":50,"pct_60mas":15,"pct_migrante":12,"dependencia_econ":300,"pct_empleados":50,"pct_cuentapropia":20,"pct_agricultura":30,"pct_comercio":30,"pct_manufactura":0,"pct_construccion":0,"pct_transporte":0,"pct_alojamiento":0,"pct_sin_educacion":5,"pct_educ_superior":19,"brecha_educ":6,"pct_sin_seguro":0,"pct_sus":100,"pct_seguro_privado":0,"brecha_seguro":0,"pct_salud_publica":27,"pct_med_tradicional":24,"pct_automedicacion":22,"pct_remedios_caseros":26,"pct_viv_desocupada":0,"pct_alquiler":11,"pct_electricidad":100,"pct_sin_electricidad":0,"pct_agua_red":100,"pct_alcantarillado":0,"pct_camara_septica":0,"pct_pozo_ciego":11,"pct_sin_desague":0,"pct_gas_red":0,"pct_gas_garrafa":22,"pct_lena_guano":78,"pct_basura_formal":0,"pct_basura_quema":100,"pct_basura_informal":0,"pct_internet":78,"pct_celular":78,"pct_televisor":89}},{"type":"Feature","geometry":{"type":"Polygon","coordinates":[[[-61.81347,-16.76969],[-61.81342,-16.76962],[-61.8126,-16.76954],[-61.81251,-16.77048],[-61.81336,-16.77055],[-61.81347,-16.76969]]]},"properties":{"n":"SAN ANTONIO DE LOMERIO","p":39,"personas_x_ha":40,"masculinidad":62,"pct_menor20":41,"pct_60mas":5,"pct_migrante":10,"dependencia_econ":144,"pct_empleados":56,"pct_cuentapropia":31,"pct_agricultura":12,"pct_comercio":6,"pct_manufactura":19,"pct_construccion":19,"pct_transporte":0,"pct_alojamiento":6,"pct_sin_educacion":0,"pct_educ_superior":48,"brecha_educ":-5,"pct_sin_seguro":0,"pct_sus":100,"pct_seguro_privado":0,"brecha_seguro":0,"pct_salud_publica":44,"pct_med_tradicional":0,"pct_automedicacion":10,"pct_remedios_caseros":40,"pct_viv_desocupada":0,"pct_alquiler":0,"pct_electricidad":100,"pct_sin_electricidad":0,"pct_agua_red":100,"pct_alcantarillado":0,"pct_camara_septica":89,"pct_pozo_ciego":11,"pct_sin_desague":0,"pct_gas_red":0,"pct_gas_garrafa":100,"pct_lena_guano":0,"pct_basura_formal":0,"pct_basura_quema":89,"pct_basura_informal":0,"pct_internet":100,"pct_celular":89,"pct_televisor":89}},{"type":"Feature","geometry":{"type":"Polygon","coordinates":[[[-61.80763,-16.76977],[-61.80859,-16.76994],[-61.80871,-16.76914],[-61.80771,-16.76904],[-61.80763,-16.76977]]]},"properties":{"n":"SAN ANTONIO DE LOMERIO","p":44,"personas_x_ha":47,"masculinidad":120,"pct_menor20":36,"pct_60mas":2,"pct_migrante":14,"dependencia_econ":120,"pct_empleados":20,"pct_cuentapropia":65,"pct_agricultura":25,"pct_comercio":5,"pct_manufactura":10,"pct_construccion":15,"pct_transporte":0,"pct_alojamiento":5,"pct_sin_educacion":0,"pct_educ_superior":57,"brecha_educ":13,"pct_sin_seguro":9,"pct_sus":66,"pct_seguro_privado":0,"brecha_seguro":7,"pct_salud_publica":34,"pct_med_tradicional":1,"pct_automedicacion":24,"pct_remedios_caseros":34,"pct_viv_desocupada":0,"pct_alquiler":0,"pct_electricidad":93,"pct_sin_electricidad":0,"pct_agua_red":100,"pct_alcantarillado":0,"pct_camara_septica":33,"pct_pozo_ciego":67,"pct_sin_desague":0,"pct_gas_red":0,"pct_gas_garrafa":40,"pct_lena_guano":60,"pct_basura_formal":0,"pct_basura_quema":100,"pct_basura_informal":0,"pct_internet":87,"pct_celular":87,"pct_televisor":73}},{"type":"Feature","geometry":{"type":"Polygon","coordinates":[[[-61.80971,-16.76927],[-61.80881,-16.76914],[-61.80873,-16.76998],[-61.80961,-16.77011],[-61.80971,-16.76927]]]},"properties":{"n":"SAN ANTONIO DE LOMERIO","p":41,"personas_x_ha":45,"masculinidad":78,"pct_menor20":27,"pct_60mas":15,"pct_migrante":2,"dependencia_econ":82,"pct_empleados":23,"pct_cuentapropia":50,"pct_agricultura":27,"pct_comercio":5,"pct_manufactura":14,"pct_construccion":9,"pct_transporte":0,"pct_alojamiento":0,"pct_sin_educacion":0,"pct_educ_superior":63,"brecha_educ":-17,"pct_sin_seguro":0,"pct_sus":95,"pct_seguro_privado":0,"brecha_seguro":0,"pct_salud_publica":23,"pct_med_tradicional":23,"pct_automedicacion":19,"pct_remedios_caseros":23,"pct_viv_desocupada":0,"pct_alquiler":9,"pct_electricidad":100,"pct_sin_electricidad":0,"pct_agua_red":91,"pct_alcantarillado":18,"pct_camara_septica":18,"pct_pozo_ciego":55,"pct_sin_desague":0,"pct_gas_red":0,"pct_gas_garrafa":100,"pct_lena_guano":0,"pct_basura_formal":0,"pct_basura_quema":100,"pct_basura_informal":0,"pct_internet":64,"pct_celular":73,"pct_televisor":73}},{"type":"Feature","geometry":{"type":"Polygon","coordinates":[[[-61.80961,-16.7711],[-61.81024,-16.77118],[-61.81039,-16.77036],[-61.80972,-16.77025],[-61.80961,-16.7711]]]},"properties":{"n":"SAN ANTONIO DE LOMERIO","p":42,"personas_x_ha":61,"masculinidad":110,"pct_menor20":38,"pct_60mas":17,"pct_migrante":7,"dependencia_econ":75,"pct_empleados":21,"pct_cuentapropia":62,"pct_agricultura":29,"pct_comercio":25,"pct_manufactura":17,"pct_construccion":8,"pct_transporte":4,"pct_alojamiento":4,"pct_sin_educacion":0,"pct_educ_superior":19,"brecha_educ":-27,"pct_sin_seguro":5,"pct_sus":93,"pct_seguro_privado":0,"brecha_seguro":9,"pct_salud_publica":37,"pct_med_tradicional":11,"pct_automedicacion":15,"pct_remedios_caseros":33,"pct_viv_desocupada":0,"pct_alquiler":0,"pct_electricidad":100,"pct_sin_electricidad":0,"pct_agua_red":100,"pct_alcantarillado":0,"pct_camara_septica":60,"pct_pozo_ciego":30,"pct_sin_desague":0,"pct_gas_red":0,"pct_gas_garrafa":60,"pct_lena_guano":40,"pct_basura_formal":0,"pct_basura_quema":100,"pct_basura_informal":0,"pct_internet":80,"pct_celular":90,"pct_televisor":60}},{"type":"Feature","geometry":{"type":"Polygon","coordinates":[[[-61.80991,-16.76723],[-61.80998,-16.76645],[-61.8092,-16.76636],[-61.80911,-16.76716],[-61.80991,-16.76723]]]},"properties":{"n":"SAN ANTONIO DE LOMERIO","p":30,"personas_x_ha":40,"masculinidad":131,"pct_menor20":33,"pct_60mas":23,"pct_migrante":30,"dependencia_econ":47,"pct_empleados":20,"pct_cuentapropia":73,"pct_agricultura":33,"pct_comercio":7,"pct_manufactura":47,"pct_construccion":7,"pct_transporte":0,"pct_alojamiento":0,"pct_sin_educacion":14,"pct_educ_superior":29,"brecha_educ":-57,"pct_sin_seguro":0,"pct_sus":95,"pct_seguro_privado":0,"brecha_seguro":0,"pct_salud_publica":29,"pct_med_tradicional":6,"pct_automedicacion":27,"pct_remedios_caseros":29,"pct_viv_desocupada":0,"pct_alquiler":18,"pct_electricidad":100,"pct_sin_electricidad":0,"pct_agua_red":91,"pct_alcantarillado":9,"pct_camara_septica":45,"pct_pozo_ciego":45,"pct_sin_desague":0,"pct_gas_red":0,"pct_gas_garrafa":27,"pct_lena_guano":55,"pct_basura_formal":0,"pct_basura_quema":100,"pct_basura_informal":0,"pct_internet":64,"pct_celular":73,"pct_televisor":36}},{"type":"Feature","geometry":{"type":"Polygon","coordinates":[[[-61.80897,-16.76819],[-61.8098,-16.76826],[-61.80989,-16.7674],[-61.80906,-16.7673],[-61.80897,-16.76819]]]},"properties":{"n":"SAN ANTONIO DE LOMERIO","p":34,"personas_x_ha":37,"masculinidad":89,"pct_menor20":35,"pct_60mas":15,"pct_migrante":18,"dependencia_econ":89,"pct_empleados":50,"pct_cuentapropia":11,"pct_agricultura":44,"pct_comercio":0,"pct_manufactura":11,"pct_construccion":6,"pct_transporte":6,"pct_alojamiento":0,"pct_sin_educacion":5,"pct_educ_superior":32,"brecha_educ":-22,"pct_sin_seguro":9,"pct_sus":91,"pct_seguro_privado":0,"brecha_seguro":-5,"pct_salud_publica":26,"pct_med_tradicional":21,"pct_automedicacion":19,"pct_remedios_caseros":26,"pct_viv_desocupada":0,"pct_alquiler":0,"pct_electricidad":100,"pct_sin_electricidad":0,"pct_agua_red":89,"pct_alcantarillado":11,"pct_camara_septica":11,"pct_pozo_ciego":78,"pct_sin_desague":0,"pct_gas_red":0,"pct_gas_garrafa":44,"pct_lena_guano":56,"pct_basura_formal":0,"pct_basura_quema":100,"pct_basura_informal":0,"pct_internet":78,"pct_celular":78,"pct_televisor":67}},{"type":"Feature","geometry":{"type":"Polygon","coordinates":[[[-61.80816,-16.76625],[-61.80802,-16.76704],[-61.80893,-16.76715],[-61.80905,-16.76632],[-61.80816,-16.76625]]]},"properties":{"n":"SAN ANTONIO DE LOMERIO","p":66,"personas_x_ha":73,"masculinidad":78,"pct_menor20":47,"pct_60mas":18,"pct_migrante":38,"dependencia_econ":91,"pct_empleados":6,"pct_cuentapropia":47,"pct_agricultura":53,"pct_comercio":21,"pct_manufactura":6,"pct_construccion":6,"pct_transporte":0,"pct_alojamiento":3,"pct_sin_educacion":9,"pct_educ_superior":12,"brecha_educ":-4,"pct_sin_seguro":8,"pct_sus":92,"pct_seguro_privado":0,"brecha_seguro":-14,"pct_salud_publica":31,"pct_med_tradicional":23,"pct_automedicacion":7,"pct_remedios_caseros":28,"pct_viv_desocupada":0,"pct_alquiler":10,"pct_electricidad":100,"pct_sin_electricidad":0,"pct_agua_red":10,"pct_alcantarillado":10,"pct_camara_septica":20,"pct_pozo_ciego":30,"pct_sin_desague":0,"pct_gas_red":0,"pct_gas_garrafa":60,"pct_lena_guano":40,"pct_basura_formal":0,"pct_basura_quema":100,"pct_basura_informal":0,"pct_internet":90,"pct_celular":90,"pct_televisor":60}},{"type":"Feature","geometry":{"type":"Polygon","coordinates":[[[-61.80748,-16.77447],[-61.80837,-16.7746],[-61.80867,-16.77382],[-61.80787,-16.77366],[-61.80748,-16.77447]]]},"properties":{"n":"SAN ANTONIO DE LOMERIO","p":32,"personas_x_ha":39,"masculinidad":146,"pct_menor20":41,"pct_60mas":12,"pct_migrante":0,"dependencia_econ":88,"pct_empleados":6,"pct_cuentapropia":62,"pct_agricultura":81,"pct_comercio":0,"pct_manufactura":0,"pct_construccion":12,"pct_transporte":0,"pct_alojamiento":0,"pct_sin_educacion":74,"pct_educ_superior":5,"brecha_educ":-25,"pct_sin_seguro":0,"pct_sus":100,"pct_seguro_privado":0,"brecha_seguro":0,"pct_salud_publica":48,"pct_med_tradicional":2,"pct_automedicacion":2,"pct_remedios_caseros":49,"pct_viv_desocupada":0,"pct_alquiler":0,"pct_electricidad":75,"pct_sin_electricidad":25,"pct_agua_red":25,"pct_alcantarillado":0,"pct_camara_septica":12,"pct_pozo_ciego":12,"pct_sin_desague":12,"pct_gas_red":0,"pct_gas_garrafa":12,"pct_lena_guano":62,"pct_basura_formal":0,"pct_basura_quema":88,"pct_basura_informal":0,"pct_internet":25,"pct_celular":88,"pct_televisor":25}},{"type":"Feature","geometry":{"type":"Polygon","coordinates":[[[-61.81241,-16.77049],[-61.81252,-16.76953],[-61.81168,-16.76944],[-61.81161,-16.77042],[-61.81241,-16.77049]]]},"properties":{"n":"SAN ANTONIO DE LOMERIO","p":31,"personas_x_ha":32,"masculinidad":63,"pct_menor20":39,"pct_60mas":6,"pct_migrante":19,"dependencia_econ":72,"pct_empleados":22,"pct_cuentapropia":28,"pct_agricultura":17,"pct_comercio":22,"pct_manufactura":6,"pct_construccion":6,"pct_transporte":6,"pct_alojamiento":11,"pct_sin_educacion":0,"pct_educ_superior":53,"brecha_educ":11,"pct_sin_seguro":0,"pct_sus":100,"pct_seguro_privado":0,"brecha_seguro":0,"pct_salud_publica":60,"pct_med_tradicional":11,"pct_automedicacion":0,"pct_remedios_caseros":13,"pct_viv_desocupada":0,"pct_alquiler":0,"pct_electricidad":100,"pct_sin_electricidad":0,"pct_agua_red":30,"pct_alcantarillado":40,"pct_camara_septica":40,"pct_pozo_ciego":20,"pct_sin_desague":0,"pct_gas_red":0,"pct_gas_garrafa":100,"pct_lena_guano":0,"pct_basura_formal":0,"pct_basura_quema":100,"pct_basura_informal":0,"pct_internet":60,"pct_celular":60,"pct_televisor":40}},{"type":"Feature","geometry":{"type":"Polygon","coordinates":[[[-61.80973,-16.76913],[-61.8098,-16.76843],[-61.8089,-16.76833],[-61.80882,-16.76895],[-61.80887,-16.76902],[-61.80973,-16.76913]]]},"properties":{"n":"SAN ANTONIO DE LOMERIO","p":65,"personas_x_ha":84,"masculinidad":71,"pct_menor20":51,"pct_60mas":9,"pct_migrante":11,"dependencia_econ":150,"pct_empleados":31,"pct_cuentapropia":31,"pct_agricultura":50,"pct_comercio":12,"pct_manufactura":4,"pct_construccion":8,"pct_transporte":0,"pct_alojamiento":4,"pct_sin_educacion":9,"pct_educ_superior":28,"brecha_educ":-31,"pct_sin_seguro":6,"pct_sus":83,"pct_seguro_privado":2,"brecha_seguro":15,"pct_salud_publica":32,"pct_med_tradicional":16,"pct_automedicacion":16,"pct_remedios_caseros":32,"pct_viv_desocupada":0,"pct_alquiler":14,"pct_electricidad":100,"pct_sin_electricidad":0,"pct_agua_red":79,"pct_alcantarillado":7,"pct_camara_septica":7,"pct_pozo_ciego":64,"pct_sin_desague":7,"pct_gas_red":7,"pct_gas_garrafa":43,"pct_lena_guano":50,"pct_basura_formal":0,"pct_basura_quema":100,"pct_basura_informal":0,"pct_internet":71,"pct_celular":86,"pct_televisor":36}},{"type":"Feature","geometry":{"type":"Polygon","coordinates":[[[-61.81034,-16.77132],[-61.81021,-16.77223],[-61.81114,-16.77238],[-61.81128,-16.77144],[-61.81034,-16.77132]]]},"properties":{"n":"SAN ANTONIO DE LOMERIO","p":36,"personas_x_ha":34,"masculinidad":112,"pct_menor20":50,"pct_60mas":6,"pct_migrante":39,"dependencia_econ":133,"pct_empleados":27,"pct_cuentapropia":33,"pct_agricultura":27,"pct_comercio":13,"pct_manufactura":27,"pct_construccion":7,"pct_transporte":20,"pct_alojamiento":0,"pct_sin_educacion":0,"pct_educ_superior":22,"brecha_educ":-1,"pct_sin_seguro":9,"pct_sus":69,"pct_seguro_privado":6,"brecha_seguro":5,"pct_salud_publica":27,"pct_med_tradicional":14,"pct_automedicacion":19,"pct_remedios_caseros":28,"pct_viv_desocupada":0,"pct_alquiler":10,"pct_electricidad":100,"pct_sin_electricidad":0,"pct_agua_red":10,"pct_alcantarillado":0,"pct_camara_septica":30,"pct_pozo_ciego":50,"pct_sin_desague":10,"pct_gas_red":0,"pct_gas_garrafa":30,"pct_lena_guano":60,"pct_basura_formal":0,"pct_basura_quema":90,"pct_basura_informal":0,"pct_internet":90,"pct_celular":90,"pct_televisor":40}},{"type":"Feature","geometry":{"type":"Polygon","coordinates":[[[-61.80777,-16.77214],[-61.80797,-16.77207],[-61.80915,-16.7722],[-61.80897,-16.77307],[-61.80803,-16.77285],[-61.80777,-16.77214]]]},"properties":{"n":"SAN ANTONIO DE LOMERIO","p":15,"personas_x_ha":13,"masculinidad":114,"pct_menor20":40,"pct_60mas":13,"pct_migrante":7,"dependencia_econ":100,"pct_empleados":29,"pct_cuentapropia":43,"pct_agricultura":57,"pct_comercio":0,"pct_manufactura":0,"pct_construccion":0,"pct_transporte":0,"pct_alojamiento":0,"pct_sin_educacion":12,"pct_educ_superior":25,"brecha_educ":7,"pct_sin_seguro":0,"pct_sus":67,"pct_seguro_privado":0,"brecha_seguro":0,"pct_salud_publica":33,"pct_med_tradicional":11,"pct_automedicacion":11,"pct_remedios_caseros":26,"pct_viv_desocupada":29,"pct_alquiler":0,"pct_electricidad":100,"pct_sin_electricidad":0,"pct_agua_red":75,"pct_alcantarillado":0,"pct_camara_septica":25,"pct_pozo_ciego":75,"pct_sin_desague":0,"pct_gas_red":0,"pct_gas_garrafa":50,"pct_lena_guano":50,"pct_basura_formal":0,"pct_basura_quema":100,"pct_basura_informal":0,"pct_internet":25,"pct_celular":25,"pct_televisor":50}},{"type":"Feature","geometry":{"type":"Polygon","coordinates":[[[-61.81247,-16.76848],[-61.81255,-16.76762],[-61.8119,-16.76757],[-61.81181,-16.76843],[-61.81247,-16.76848]]]},"properties":{"n":"SAN ANTONIO DE LOMERIO","p":37,"personas_x_ha":55,"masculinidad":95,"pct_menor20":35,"pct_60mas":5,"pct_migrante":22,"dependencia_econ":200,"pct_empleados":50,"pct_cuentapropia":17,"pct_agricultura":25,"pct_comercio":17,"pct_manufactura":17,"pct_construccion":0,"pct_transporte":8,"pct_alojamiento":0,"pct_sin_educacion":0,"pct_educ_superior":50,"brecha_educ":-3,"pct_sin_seguro":0,"pct_sus":77,"pct_seguro_privado":0,"brecha_seguro":0,"pct_salud_publica":24,"pct_med_tradicional":23,"pct_automedicacion":18,"pct_remedios_caseros":25,"pct_viv_desocupada":11,"pct_alquiler":0,"pct_electricidad":100,"pct_sin_electricidad":0,"pct_agua_red":88,"pct_alcantarillado":0,"pct_camara_septica":12,"pct_pozo_ciego":62,"pct_sin_desague":0,"pct_gas_red":0,"pct_gas_garrafa":62,"pct_lena_guano":38,"pct_basura_formal":0,"pct_basura_quema":100,"pct_basura_informal":0,"pct_internet":88,"pct_celular":88,"pct_televisor":100}},{"type":"Feature","geometry":{"type":"Polygon","coordinates":[[[-61.81575,-16.76789],[-61.8149,-16.76781],[-61.81481,-16.76867],[-61.81569,-16.76874],[-61.81575,-16.76789]]]},"properties":{"n":"SAN ANTONIO DE LOMERIO","p":29,"personas_x_ha":31,"masculinidad":164,"pct_menor20":55,"pct_60mas":7,"pct_migrante":24,"dependencia_econ":314,"pct_empleados":43,"pct_cuentapropia":43,"pct_agricultura":43,"pct_comercio":0,"pct_manufactura":14,"pct_construccion":14,"pct_transporte":14,"pct_alojamiento":0,"pct_sin_educacion":14,"pct_educ_superior":0,"brecha_educ":8,"pct_sin_seguro":3,"pct_sus":97,"pct_seguro_privado":0,"brecha_seguro":-9,"pct_salud_publica":45,"pct_med_tradicional":3,"pct_automedicacion":3,"pct_remedios_caseros":47,"pct_viv_desocupada":0,"pct_alquiler":0,"pct_electricidad":86,"pct_sin_electricidad":0,"pct_agua_red":71,"pct_alcantarillado":0,"pct_camara_septica":14,"pct_pozo_ciego":86,"pct_sin_desague":0,"pct_gas_red":0,"pct_gas_garrafa":29,"pct_lena_guano":71,"pct_basura_formal":0,"pct_basura_quema":86,"pct_basura_informal":0,"pct_internet":71,"pct_celular":86,"pct_televisor":86}},{"type":"Feature","geometry":{"type":"Polygon","coordinates":[[[-61.80957,-16.77377],[-61.80979,-16.77357],[-61.81003,-16.77234],[-61.80934,-16.77222],[-61.80899,-16.77368],[-61.80957,-16.77377]]]},"properties":{"n":"SAN ANTONIO DE LOMERIO","p":46,"personas_x_ha":35,"masculinidad":130,"pct_menor20":22,"pct_60mas":24,"pct_migrante":7,"dependencia_econ":110,"pct_empleados":29,"pct_cuentapropia":19,"pct_agricultura":52,"pct_comercio":24,"pct_manufactura":0,"pct_construccion":10,"pct_transporte":0,"pct_alojamiento":5,"pct_sin_educacion":3,"pct_educ_superior":29,"brecha_educ":-23,"pct_sin_seguro":2,"pct_sus":98,"pct_seguro_privado":0,"brecha_seguro":-5,"pct_salud_publica":34,"pct_med_tradicional":14,"pct_automedicacion":17,"pct_remedios_caseros":29,"pct_viv_desocupada":0,"pct_alquiler":0,"pct_electricidad":100,"pct_sin_electricidad":0,"pct_agua_red":0,"pct_alcantarillado":22,"pct_camara_septica":22,"pct_pozo_ciego":56,"pct_sin_desague":0,"pct_gas_red":0,"pct_gas_garrafa":11,"pct_lena_guano":89,"pct_basura_formal":0,"pct_basura_quema":100,"pct_basura_informal":0,"pct_internet":67,"pct_celular":78,"pct_televisor":78}},{"type":"Feature","geometry":{"type":"Polygon","coordinates":[[[-61.80767,-16.76814],[-61.80672,-16.76804],[-61.80662,-16.76878],[-61.80757,-16.76887],[-61.80767,-16.76814]]]},"properties":{"n":"SAN ANTONIO DE LOMERIO","p":24,"personas_x_ha":29,"masculinidad":100,"pct_menor20":25,"pct_60mas":8,"pct_migrante":33,"dependencia_econ":50,"pct_empleados":44,"pct_cuentapropia":44,"pct_agricultura":38,"pct_comercio":25,"pct_manufactura":6,"pct_construccion":0,"pct_transporte":0,"pct_alojamiento":0,"pct_sin_educacion":0,"pct_educ_superior":44,"brecha_educ":-58,"pct_sin_seguro":0,"pct_sus":100,"pct_seguro_privado":0,"brecha_seguro":0,"pct_salud_publica":25,"pct_med_tradicional":23,"pct_automedicacion":16,"pct_remedios_caseros":23,"pct_viv_desocupada":0,"pct_alquiler":0,"pct_electricidad":80,"pct_sin_electricidad":20,"pct_agua_red":100,"pct_alcantarillado":40,"pct_camara_septica":20,"pct_pozo_ciego":20,"pct_sin_desague":0,"pct_gas_red":0,"pct_gas_garrafa":20,"pct_lena_guano":80,"pct_basura_formal":0,"pct_basura_quema":100,"pct_basura_informal":0,"pct_internet":40,"pct_celular":60,"pct_televisor":40}},{"type":"Feature","geometry":{"type":"Polygon","coordinates":[[[-61.80956,-16.7712],[-61.80936,-16.77209],[-61.81006,-16.7722],[-61.81022,-16.7713],[-61.80956,-16.7712]]]},"properties":{"n":"SAN ANTONIO DE LOMERIO","p":84,"personas_x_ha":112,"masculinidad":105,"pct_menor20":49,"pct_60mas":8,"pct_migrante":5,"dependencia_econ":180,"pct_empleados":30,"pct_cuentapropia":57,"pct_agricultura":17,"pct_comercio":7,"pct_manufactura":40,"pct_construccion":3,"pct_transporte":3,"pct_alojamiento":3,"pct_sin_educacion":5,"pct_educ_superior":40,"brecha_educ":-10,"pct_sin_seguro":2,"pct_sus":88,"pct_seguro_privado":0,"brecha_seguro":5,"pct_salud_publica":30,"pct_med_tradicional":15,"pct_automedicacion":16,"pct_remedios_caseros":29,"pct_viv_desocupada":0,"pct_alquiler":6,"pct_electricidad":100,"pct_sin_electricidad":0,"pct_agua_red":44,"pct_alcantarillado":6,"pct_camara_septica":0,"pct_pozo_ciego":94,"pct_sin_desague":0,"pct_gas_red":0,"pct_gas_garrafa":89,"pct_lena_guano":11,"pct_basura_formal":0,"pct_basura_quema":78,"pct_basura_informal":6,"pct_internet":83,"pct_celular":94,"pct_televisor":72}},{"type":"Feature","geometry":{"type":"Polygon","coordinates":[[[-61.81174,-16.76756],[-61.8108,-16.76747],[-61.81072,-16.76835],[-61.81163,-16.76842],[-61.81174,-16.76756]]]},"properties":{"n":"SAN ANTONIO DE LOMERIO","p":36,"personas_x_ha":38,"masculinidad":71,"pct_menor20":28,"pct_60mas":19,"pct_migrante":17,"dependencia_econ":50,"pct_empleados":46,"pct_cuentapropia":42,"pct_agricultura":25,"pct_comercio":8,"pct_manufactura":17,"pct_construccion":8,"pct_transporte":4,"pct_alojamiento":4,"pct_sin_educacion":12,"pct_educ_superior":31,"brecha_educ":-20,"pct_sin_seguro":6,"pct_sus":83,"pct_seguro_privado":0,"brecha_seguro":-10,"pct_salud_publica":31,"pct_med_tradicional":13,"pct_automedicacion":12,"pct_remedios_caseros":30,"pct_viv_desocupada":0,"pct_alquiler":10,"pct_electricidad":90,"pct_sin_electricidad":10,"pct_agua_red":70,"pct_alcantarillado":0,"pct_camara_septica":10,"pct_pozo_ciego":60,"pct_sin_desague":10,"pct_gas_red":0,"pct_gas_garrafa":40,"pct_lena_guano":60,"pct_basura_formal":0,"pct_basura_quema":100,"pct_basura_informal":0,"pct_internet":50,"pct_celular":70,"pct_televisor":70}},{"type":"Feature","geometry":{"type":"Polygon","coordinates":[[[-61.81444,-16.77064],[-61.81352,-16.77057],[-61.81362,-16.76965],[-61.81455,-16.76972],[-61.81444,-16.77064]]]},"properties":{"n":"SAN ANTONIO DE LOMERIO","p":37,"personas_x_ha":36,"masculinidad":85,"pct_menor20":54,"pct_60mas":5,"pct_migrante":5,"dependencia_econ":208,"pct_empleados":33,"pct_cuentapropia":67,"pct_agricultura":25,"pct_comercio":25,"pct_manufactura":8,"pct_construccion":8,"pct_transporte":0,"pct_alojamiento":0,"pct_sin_educacion":12,"pct_educ_superior":35,"brecha_educ":-15,"pct_sin_seguro":3,"pct_sus":97,"pct_seguro_privado":0,"brecha_seguro":6,"pct_salud_publica":29,"pct_med_tradicional":14,"pct_automedicacion":9,"pct_remedios_caseros":27,"pct_viv_desocupada":0,"pct_alquiler":0,"pct_electricidad":100,"pct_sin_electricidad":0,"pct_agua_red":50,"pct_alcantarillado":12,"pct_camara_septica":50,"pct_pozo_ciego":25,"pct_sin_desague":0,"pct_gas_red":0,"pct_gas_garrafa":50,"pct_lena_guano":50,"pct_basura_formal":0,"pct_basura_quema":88,"pct_basura_informal":12,"pct_internet":50,"pct_celular":88,"pct_televisor":88}},{"type":"Feature","geometry":{"type":"Polygon","coordinates":[[[-61.81002,-16.76541],[-61.80937,-16.76534],[-61.80926,-16.76623],[-61.80997,-16.76633],[-61.81002,-16.76541]]]},"properties":{"n":"SAN ANTONIO DE LOMERIO","p":33,"personas_x_ha":44,"masculinidad":106,"pct_menor20":45,"pct_60mas":0,"pct_migrante":15,"dependencia_econ":106,"pct_empleados":6,"pct_cuentapropia":94,"pct_agricultura":56,"pct_comercio":6,"pct_manufactura":0,"pct_construccion":0,"pct_transporte":6,"pct_alojamiento":12,"pct_sin_educacion":0,"pct_educ_superior":11,"brecha_educ":-22,"pct_sin_seguro":3,"pct_sus":97,"pct_seguro_privado":0,"brecha_seguro":6,"pct_salud_publica":39,"pct_med_tradicional":10,"pct_automedicacion":13,"pct_remedios_caseros":35,"pct_viv_desocupada":0,"pct_alquiler":0,"pct_electricidad":100,"pct_sin_electricidad":0,"pct_agua_red":100,"pct_alcantarillado":14,"pct_camara_septica":29,"pct_pozo_ciego":57,"pct_sin_desague":0,"pct_gas_red":0,"pct_gas_garrafa":43,"pct_lena_guano":57,"pct_basura_formal":0,"pct_basura_quema":100,"pct_basura_informal":0,"pct_internet":43,"pct_celular":57,"pct_televisor":71}},{"type":"Feature","geometry":{"type":"Polygon","coordinates":[[[-61.81098,-16.77253],[-61.81018,-16.7724],[-61.81005,-16.77325],[-61.81086,-16.7734],[-61.81103,-16.77261],[-61.81098,-16.77253]]]},"properties":{"n":"SAN ANTONIO DE LOMERIO","p":26,"personas_x_ha":29,"masculinidad":117,"pct_menor20":35,"pct_60mas":19,"pct_migrante":12,"dependencia_econ":117,"pct_empleados":25,"pct_cuentapropia":50,"pct_agricultura":42,"pct_comercio":8,"pct_manufactura":17,"pct_construccion":8,"pct_transporte":0,"pct_alojamiento":8,"pct_sin_educacion":12,"pct_educ_superior":12,"brecha_educ":-14,"pct_sin_seguro":0,"pct_sus":100,"pct_seguro_privado":0,"brecha_seguro":0,"pct_salud_publica":100,"pct_med_tradicional":0,"pct_automedicacion":0,"pct_remedios_caseros":0,"pct_viv_desocupada":0,"pct_alquiler":29,"pct_electricidad":100,"pct_sin_electricidad":0,"pct_agua_red":100,"pct_alcantarillado":0,"pct_camara_septica":0,"pct_pozo_ciego":14,"pct_sin_desague":0,"pct_gas_red":0,"pct_gas_garrafa":43,"pct_lena_guano":57,"pct_basura_formal":0,"pct_basura_quema":100,"pct_basura_informal":0,"pct_internet":100,"pct_celular":100,"pct_televisor":43}},{"type":"Feature","geometry":{"type":"Polygon","coordinates":[[[-61.80923,-16.77206],[-61.80746,-16.77178],[-61.80741,-16.77103],[-61.80766,-16.76993],[-61.8096,-16.77028],[-61.80923,-16.77206]]]},"properties":{"n":"SAN ANTONIO DE LOMERIO","p":40,"personas_x_ha":9,"masculinidad":100,"pct_menor20":52,"pct_60mas":5,"pct_migrante":10,"dependencia_econ":144,"pct_empleados":19,"pct_cuentapropia":50,"pct_agricultura":50,"pct_comercio":12,"pct_manufactura":0,"pct_construccion":0,"pct_transporte":0,"pct_alojamiento":6,"pct_sin_educacion":11,"pct_educ_superior":37,"brecha_educ":1,"pct_sin_seguro":3,"pct_sus":84,"pct_seguro_privado":0,"brecha_seguro":-5,"pct_salud_publica":27,"pct_med_tradicional":14,"pct_automedicacion":16,"pct_remedios_caseros":25,"pct_viv_desocupada":10,"pct_alquiler":11,"pct_electricidad":100,"pct_sin_electricidad":0,"pct_agua_red":78,"pct_alcantarillado":0,"pct_camara_septica":56,"pct_pozo_ciego":11,"pct_sin_desague":0,"pct_gas_red":0,"pct_gas_garrafa":67,"pct_lena_guano":33,"pct_basura_formal":0,"pct_basura_quema":78,"pct_basura_informal":22,"pct_internet":78,"pct_celular":100,"pct_televisor":56}},{"type":"Feature","geometry":{"type":"Polygon","coordinates":[[[-61.81468,-16.76864],[-61.81475,-16.76778],[-61.81408,-16.76774],[-61.81377,-16.76802],[-61.81374,-16.76862],[-61.81468,-16.76864]]]},"properties":{"n":"SAN ANTONIO DE LOMERIO","p":31,"personas_x_ha":32,"masculinidad":63,"pct_menor20":48,"pct_60mas":6,"pct_migrante":48,"dependencia_econ":150,"pct_empleados":42,"pct_cuentapropia":33,"pct_agricultura":25,"pct_comercio":8,"pct_manufactura":17,"pct_construccion":0,"pct_transporte":0,"pct_alojamiento":8,"pct_sin_educacion":0,"pct_educ_superior":60,"brecha_educ":11,"pct_sin_seguro":7,"pct_sus":67,"pct_seguro_privado":0,"brecha_seguro":17,"pct_salud_publica":38,"pct_med_tradicional":5,"pct_automedicacion":8,"pct_remedios_caseros":32,"pct_viv_desocupada":0,"pct_alquiler":17,"pct_electricidad":100,"pct_sin_electricidad":0,"pct_agua_red":50,"pct_alcantarillado":0,"pct_camara_septica":17,"pct_pozo_ciego":0,"pct_sin_desague":0,"pct_gas_red":0,"pct_gas_garrafa":50,"pct_lena_guano":50,"pct_basura_formal":0,"pct_basura_quema":100,"pct_basura_informal":0,"pct_internet":50,"pct_celular":67,"pct_televisor":67}},{"type":"Feature","geometry":{"type":"Polygon","coordinates":[[[-61.81575,-16.7689],[-61.81477,-16.76881],[-61.8147,-16.76958],[-61.81569,-16.76967],[-61.81575,-16.7689]]]},"properties":{"n":"SAN ANTONIO DE LOMERIO","p":28,"personas_x_ha":31,"masculinidad":180,"pct_menor20":39,"pct_60mas":4,"pct_migrante":7,"dependencia_econ":180,"pct_empleados":50,"pct_cuentapropia":40,"pct_agricultura":0,"pct_comercio":10,"pct_manufactura":0,"pct_construccion":30,"pct_transporte":0,"pct_alojamiento":10,"pct_sin_educacion":6,"pct_educ_superior":24,"brecha_educ":-14,"pct_sin_seguro":7,"pct_sus":64,"pct_seguro_privado":0,"brecha_seguro":11,"pct_salud_publica":38,"pct_med_tradicional":26,"pct_automedicacion":0,"pct_remedios_caseros":29,"pct_viv_desocupada":0,"pct_alquiler":0,"pct_electricidad":100,"pct_sin_electricidad":0,"pct_agua_red":86,"pct_alcantarillado":14,"pct_camara_septica":0,"pct_pozo_ciego":0,"pct_sin_desague":0,"pct_gas_red":0,"pct_gas_garrafa":29,"pct_lena_guano":57,"pct_basura_formal":14,"pct_basura_quema":86,"pct_basura_informal":0,"pct_internet":57,"pct_celular":71,"pct_televisor":29}},{"type":"Feature","geometry":{"type":"Polygon","coordinates":[[[-61.81141,-16.77052],[-61.81053,-16.77037],[-61.81037,-16.7712],[-61.81129,-16.77132],[-61.81141,-16.77052]]]},"properties":{"n":"SAN ANTONIO DE LOMERIO","p":39,"personas_x_ha":44,"masculinidad":86,"pct_menor20":46,"pct_60mas":13,"pct_migrante":38,"dependencia_econ":129,"pct_empleados":41,"pct_cuentapropia":59,"pct_agricultura":18,"pct_comercio":24,"pct_manufactura":18,"pct_construccion":12,"pct_transporte":0,"pct_alojamiento":29,"pct_sin_educacion":5,"pct_educ_superior":9,"brecha_educ":5,"pct_sin_seguro":5,"pct_sus":95,"pct_seguro_privado":0,"brecha_seguro":11,"pct_salud_publica":27,"pct_med_tradicional":21,"pct_automedicacion":19,"pct_remedios_caseros":26,"pct_viv_desocupada":8,"pct_alquiler":0,"pct_electricidad":89,"pct_sin_electricidad":0,"pct_agua_red":89,"pct_alcantarillado":0,"pct_camara_septica":44,"pct_pozo_ciego":11,"pct_sin_desague":11,"pct_gas_red":0,"pct_gas_garrafa":56,"pct_lena_guano":44,"pct_basura_formal":0,"pct_basura_quema":100,"pct_basura_informal":0,"pct_internet":78,"pct_celular":78,"pct_televisor":33}},{"type":"Feature","geometry":{"type":"Polygon","coordinates":[[[-61.81354,-16.76874],[-61.81177,-16.76856],[-61.81167,-16.76929],[-61.81348,-16.76949],[-61.81354,-16.76874]]]},"properties":{"n":"SAN ANTONIO DE LOMERIO","p":59,"personas_x_ha":36,"masculinidad":103,"pct_menor20":41,"pct_60mas":19,"pct_migrante":34,"dependencia_econ":168,"pct_empleados":32,"pct_cuentapropia":45,"pct_agricultura":41,"pct_comercio":9,"pct_manufactura":0,"pct_construccion":14,"pct_transporte":0,"pct_alojamiento":14,"pct_sin_educacion":8,"pct_educ_superior":50,"brecha_educ":-18,"pct_sin_seguro":3,"pct_sus":93,"pct_seguro_privado":0,"brecha_seguro":0,"pct_salud_publica":30,"pct_med_tradicional":14,"pct_automedicacion":18,"pct_remedios_caseros":30,"pct_viv_desocupada":0,"pct_alquiler":6,"pct_electricidad":100,"pct_sin_electricidad":0,"pct_agua_red":71,"pct_alcantarillado":0,"pct_camara_septica":53,"pct_pozo_ciego":29,"pct_sin_desague":0,"pct_gas_red":0,"pct_gas_garrafa":88,"pct_lena_guano":12,"pct_basura_formal":0,"pct_basura_quema":100,"pct_basura_informal":0,"pct_internet":76,"pct_celular":88,"pct_televisor":76}},{"type":"Feature","geometry":{"type":"Polygon","coordinates":[[[-61.87318,-16.8301],[-61.87148,-16.83008],[-61.87124,-16.83065],[-61.87195,-16.83098],[-61.87288,-16.83114],[-61.87356,-16.83071],[-61.87352,-16.83019],[-61.87318,-16.8301]]]},"properties":{"n":"SAN JOSE OBRERO","p":37,"personas_x_ha":16,"masculinidad":95,"pct_menor20":49,"pct_60mas":8,"pct_migrante":11,"dependencia_econ":131,"pct_empleados":38,"pct_cuentapropia":12,"pct_agricultura":56,"pct_comercio":6,"pct_manufactura":19,"pct_construccion":12,"pct_transporte":0,"pct_alojamiento":0,"pct_sin_educacion":32,"pct_educ_superior":5,"brecha_educ":-26,"pct_sin_seguro":51,"pct_sus":49,"pct_seguro_privado":0,"brecha_seguro":-35,"pct_salud_publica":25,"pct_med_tradicional":24,"pct_automedicacion":4,"pct_remedios_caseros":34,"pct_viv_desocupada":0,"pct_alquiler":0,"pct_electricidad":86,"pct_sin_electricidad":14,"pct_agua_red":0,"pct_alcantarillado":0,"pct_camara_septica":0,"pct_pozo_ciego":71,"pct_sin_desague":29,"pct_gas_red":0,"pct_gas_garrafa":29,"pct_lena_guano":71,"pct_basura_formal":0,"pct_basura_quema":100,"pct_basura_informal":0,"pct_internet":14,"pct_celular":43,"pct_televisor":29}},{"type":"Feature","geometry":{"type":"Polygon","coordinates":[[[-61.8728,-16.83178],[-61.87271,-16.83174],[-61.87255,-16.83133],[-61.87104,-16.83097],[-61.87076,-16.83208],[-61.87212,-16.83256],[-61.8729,-16.83211],[-61.8728,-16.83178]]]},"properties":{"n":"SAN JOSE OBRERO","p":42,"personas_x_ha":16,"masculinidad":121,"pct_menor20":50,"pct_60mas":5,"pct_migrante":0,"dependencia_econ":122,"pct_empleados":6,"pct_cuentapropia":44,"pct_agricultura":94,"pct_comercio":0,"pct_manufactura":0,"pct_construccion":0,"pct_transporte":0,"pct_alojamiento":0,"pct_sin_educacion":21,"pct_educ_superior":5,"brecha_educ":-3,"pct_sin_seguro":0,"pct_sus":100,"pct_seguro_privado":0,"brecha_seguro":0,"pct_salud_publica":27,"pct_med_tradicional":23,"pct_automedicacion":25,"pct_remedios_caseros":25,"pct_viv_desocupada":0,"pct_alquiler":0,"pct_electricidad":100,"pct_sin_electricidad":0,"pct_agua_red":0,"pct_alcantarillado":0,"pct_camara_septica":0,"pct_pozo_ciego":78,"pct_sin_desague":22,"pct_gas_red":0,"pct_gas_garrafa":22,"pct_lena_guano":78,"pct_basura_formal":0,"pct_basura_quema":100,"pct_basura_informal":0,"pct_internet":22,"pct_celular":78,"pct_televisor":56}},{"type":"Feature","geometry":{"type":"Polygon","coordinates":[[[-61.9456,-16.63909],[-61.94538,-16.63979],[-61.94611,-16.64],[-61.9463,-16.63931],[-61.9456,-16.63909]]]},"properties":{"n":"SAN SIMON","p":30,"personas_x_ha":45,"masculinidad":100,"pct_menor20":40,"pct_60mas":7,"pct_migrante":37,"dependencia_econ":131,"pct_empleados":8,"pct_cuentapropia":77,"pct_agricultura":85,"pct_comercio":0,"pct_manufactura":0,"pct_construccion":0,"pct_transporte":8,"pct_alojamiento":0,"pct_sin_educacion":0,"pct_educ_superior":6,"brecha_educ":3,"pct_sin_seguro":13,"pct_sus":87,"pct_seguro_privado":0,"brecha_seguro":13,"pct_salud_publica":100,"pct_med_tradicional":0,"pct_automedicacion":0,"pct_remedios_caseros":0,"pct_viv_desocupada":0,"pct_alquiler":14,"pct_electricidad":100,"pct_sin_electricidad":0,"pct_agua_red":100,"pct_alcantarillado":14,"pct_camara_septica":14,"pct_pozo_ciego":29,"pct_sin_desague":29,"pct_gas_red":0,"pct_gas_garrafa":29,"pct_lena_guano":71,"pct_basura_formal":14,"pct_basura_quema":71,"pct_basura_informal":14,"pct_internet":0,"pct_celular":86,"pct_televisor":29}}]}