{"type":"FeatureCollection","features":[{"type":"Feature","geometry":{"type":"Polygon","coordinates":[[[-64.91285,-21.89238],[-64.9124,-21.89145],[-64.91174,-21.89168],[-64.91102,-21.89219],[-64.9118,-21.89304],[-64.91285,-21.89238]]]},"properties":{"n":"CAMACHO","p":26,"personas_x_ha":14,"masculinidad":86,"pct_menor20":38,"pct_60mas":8,"pct_migrante":31,"dependencia_econ":100,"pct_empleados":31,"pct_cuentapropia":62,"pct_agricultura":23,"pct_comercio":31,"pct_manufactura":15,"pct_construccion":0,"pct_transporte":0,"pct_alojamiento":15,"pct_sin_educacion":6,"pct_educ_superior":56,"brecha_educ":-30,"pct_sin_seguro":12,"pct_sus":73,"pct_seguro_privado":4,"brecha_seguro":25,"pct_salud_publica":27,"pct_med_tradicional":19,"pct_automedicacion":16,"pct_remedios_caseros":24,"pct_viv_desocupada":8,"pct_alquiler":38,"pct_electricidad":100,"pct_sin_electricidad":0,"pct_agua_red":62,"pct_alcantarillado":0,"pct_camara_septica":0,"pct_pozo_ciego":75,"pct_sin_desague":25,"pct_gas_red":0,"pct_gas_garrafa":75,"pct_lena_guano":25,"pct_basura_formal":75,"pct_basura_quema":25,"pct_basura_informal":0,"pct_internet":75,"pct_celular":75,"pct_televisor":75}},{"type":"Feature","geometry":{"type":"Polygon","coordinates":[[[-64.911,-21.891],[-64.91007,-21.89114],[-64.91104,-21.89209],[-64.91157,-21.89168],[-64.911,-21.891]]]},"properties":{"n":"CAMACHO","p":49,"personas_x_ha":51,"masculinidad":113,"pct_menor20":39,"pct_60mas":4,"pct_migrante":35,"dependencia_econ":78,"pct_empleados":37,"pct_cuentapropia":52,"pct_agricultura":22,"pct_comercio":22,"pct_manufactura":4,"pct_construccion":15,"pct_transporte":0,"pct_alojamiento":0,"pct_sin_educacion":0,"pct_educ_superior":50,"brecha_educ":-40,"pct_sin_seguro":2,"pct_sus":85,"pct_seguro_privado":0,"brecha_seguro":4,"pct_salud_publica":20,"pct_med_tradicional":18,"pct_automedicacion":11,"pct_remedios_caseros":21,"pct_viv_desocupada":11,"pct_alquiler":14,"pct_electricidad":93,"pct_sin_electricidad":0,"pct_agua_red":100,"pct_alcantarillado":50,"pct_camara_septica":50,"pct_pozo_ciego":0,"pct_sin_desague":0,"pct_gas_red":0,"pct_gas_garrafa":93,"pct_lena_guano":0,"pct_basura_formal":100,"pct_basura_quema":0,"pct_basura_informal":0,"pct_internet":100,"pct_celular":100,"pct_televisor":100}},{"type":"Feature","geometry":{"type":"Polygon","coordinates":[[[-64.91112,-21.89247],[-64.91058,-21.89288],[-64.91062,-21.89292],[-64.91027,-21.8935],[-64.91025,-21.89381],[-64.91079,-21.89429],[-64.91111,-21.89486],[-64.9114,-21.89473],[-64.91174,-21.8947],[-64.91207,-21.89497],[-64.91234,-21.89454],[-64.91259,-21.89474],[-64.91295,-21.89459],[-64.91316,-21.89431],[-64.91214,-21.89352],[-64.91179,-21.89378],[-64.91211,-21.89347],[-64.91112,-21.89247]]]},"properties":{"n":"CAMACHO","p":51,"personas_x_ha":12,"masculinidad":76,"pct_menor20":39,"pct_60mas":10,"pct_migrante":41,"dependencia_econ":96,"pct_empleados":23,"pct_cuentapropia":73,"pct_agricultura":65,"pct_comercio":12,"pct_manufactura":0,"pct_construccion":4,"pct_transporte":0,"pct_alojamiento":0,"pct_sin_educacion":6,"pct_educ_superior":22,"brecha_educ":11,"pct_sin_seguro":6,"pct_sus":71,"pct_seguro_privado":0,"brecha_seguro":6,"pct_salud_publica":22,"pct_med_tradicional":19,"pct_automedicacion":16,"pct_remedios_caseros":20,"pct_viv_desocupada":6,"pct_alquiler":0,"pct_electricidad":92,"pct_sin_electricidad":8,"pct_agua_red":100,"pct_alcantarillado":8,"pct_camara_septica":33,"pct_pozo_ciego":58,"pct_sin_desague":0,"pct_gas_red":0,"pct_gas_garrafa":83,"pct_lena_guano":17,"pct_basura_formal":100,"pct_basura_quema":0,"pct_basura_informal":0,"pct_internet":92,"pct_celular":100,"pct_televisor":75}},{"type":"Feature","geometry":{"type":"Polygon","coordinates":[[[-64.90997,-21.89104],[-64.9122,-21.89065],[-64.9121,-21.89021],[-64.91284,-21.88967],[-64.91216,-21.8885],[-64.91196,-21.88849],[-64.91069,-21.88911],[-64.91015,-21.88912],[-64.90965,-21.88956],[-64.90965,-21.88968],[-64.90955,-21.88976],[-64.90917,-21.88973],[-64.90894,-21.88989],[-64.9094,-21.8904],[-64.9098,-21.89006],[-64.90997,-21.88999],[-64.91025,-21.88999],[-64.91034,-21.88989],[-64.91027,-21.89],[-64.90981,-21.89008],[-64.90942,-21.89042],[-64.90997,-21.89104]]]},"properties":{"n":"CAMACHO","p":38,"personas_x_ha":6,"masculinidad":73,"pct_menor20":26,"pct_60mas":21,"pct_migrante":18,"dependencia_econ":81,"pct_empleados":24,"pct_cuentapropia":71,"pct_agricultura":62,"pct_comercio":0,"pct_manufactura":0,"pct_construccion":0,"pct_transporte":0,"pct_alojamiento":5,"pct_sin_educacion":21,"pct_educ_superior":14,"brecha_educ":5,"pct_sin_seguro":0,"pct_sus":83,"pct_seguro_privado":0,"brecha_seguro":0,"pct_salud_publica":23,"pct_med_tradicional":22,"pct_automedicacion":12,"pct_remedios_caseros":24,"pct_viv_desocupada":17,"pct_alquiler":0,"pct_electricidad":100,"pct_sin_electricidad":0,"pct_agua_red":100,"pct_alcantarillado":0,"pct_camara_septica":8,"pct_pozo_ciego":83,"pct_sin_desague":8,"pct_gas_red":0,"pct_gas_garrafa":50,"pct_lena_guano":50,"pct_basura_formal":92,"pct_basura_quema":8,"pct_basura_informal":0,"pct_internet":42,"pct_celular":75,"pct_televisor":50}},{"type":"Feature","geometry":{"type":"Polygon","coordinates":[[[-64.91227,-21.89328],[-64.91217,-21.8934],[-64.91259,-21.89378],[-64.91352,-21.89446],[-64.91372,-21.89451],[-64.91366,-21.89428],[-64.91268,-21.89263],[-64.91245,-21.89275],[-64.9127,-21.89321],[-64.91252,-21.89324],[-64.91262,-21.89314],[-64.91242,-21.89277],[-64.91189,-21.89311],[-64.91216,-21.89339],[-64.91227,-21.89328]]]},"properties":{"n":"CAMACHO","p":28,"personas_x_ha":20,"masculinidad":115,"pct_menor20":29,"pct_60mas":14,"pct_migrante":25,"dependencia_econ":47,"pct_empleados":21,"pct_cuentapropia":53,"pct_agricultura":68,"pct_comercio":0,"pct_manufactura":0,"pct_construccion":0,"pct_transporte":11,"pct_alojamiento":5,"pct_sin_educacion":15,"pct_educ_superior":25,"brecha_educ":-8,"pct_sin_seguro":14,"pct_sus":61,"pct_seguro_privado":4,"brecha_seguro":-2,"pct_salud_publica":17,"pct_med_tradicional":19,"pct_automedicacion":18,"pct_remedios_caseros":23,"pct_viv_desocupada":0,"pct_alquiler":0,"pct_electricidad":100,"pct_sin_electricidad":0,"pct_agua_red":86,"pct_alcantarillado":0,"pct_camara_septica":29,"pct_pozo_ciego":43,"pct_sin_desague":29,"pct_gas_red":0,"pct_gas_garrafa":43,"pct_lena_guano":57,"pct_basura_formal":100,"pct_basura_quema":0,"pct_basura_informal":0,"pct_internet":57,"pct_celular":86,"pct_televisor":86}},{"type":"Feature","geometry":{"type":"Polygon","coordinates":[[[-64.9123,-21.89059],[-64.91268,-21.89185],[-64.91292,-21.89226],[-64.91302,-21.89221],[-64.91279,-21.89114],[-64.91287,-21.89045],[-64.9123,-21.89059]]]},"properties":{"n":"CAMACHO","p":27,"personas_x_ha":42,"masculinidad":80,"pct_menor20":30,"pct_60mas":11,"pct_migrante":37,"dependencia_econ":53,"pct_empleados":47,"pct_cuentapropia":47,"pct_agricultura":29,"pct_comercio":18,"pct_manufactura":0,"pct_construccion":12,"pct_transporte":6,"pct_alojamiento":0,"pct_sin_educacion":11,"pct_educ_superior":42,"brecha_educ":-8,"pct_sin_seguro":31,"pct_sus":54,"pct_seguro_privado":0,"brecha_seguro":-6,"pct_salud_publica":22,"pct_med_tradicional":21,"pct_automedicacion":21,"pct_remedios_caseros":24,"pct_viv_desocupada":12,"pct_alquiler":12,"pct_electricidad":100,"pct_sin_electricidad":0,"pct_agua_red":100,"pct_alcantarillado":0,"pct_camara_septica":0,"pct_pozo_ciego":88,"pct_sin_desague":12,"pct_gas_red":0,"pct_gas_garrafa":38,"pct_lena_guano":62,"pct_basura_formal":62,"pct_basura_quema":38,"pct_basura_informal":0,"pct_internet":50,"pct_celular":88,"pct_televisor":88}},{"type":"Feature","geometry":{"type":"Polygon","coordinates":[[[-64.91171,-21.89087],[-64.91109,-21.89099],[-64.91168,-21.89166],[-64.91187,-21.89155],[-64.91171,-21.89087]]]},"properties":{"n":"CAMACHO","p":38,"personas_x_ha":96,"masculinidad":81,"pct_menor20":42,"pct_60mas":11,"pct_migrante":24,"dependencia_econ":100,"pct_empleados":11,"pct_cuentapropia":74,"pct_agricultura":74,"pct_comercio":5,"pct_manufactura":0,"pct_construccion":11,"pct_transporte":5,"pct_alojamiento":0,"pct_sin_educacion":4,"pct_educ_superior":17,"brecha_educ":-3,"pct_sin_seguro":5,"pct_sus":92,"pct_seguro_privado":0,"brecha_seguro":1,"pct_salud_publica":29,"pct_med_tradicional":28,"pct_automedicacion":11,"pct_remedios_caseros":27,"pct_viv_desocupada":0,"pct_alquiler":17,"pct_electricidad":92,"pct_sin_electricidad":8,"pct_agua_red":75,"pct_alcantarillado":8,"pct_camara_septica":17,"pct_pozo_ciego":50,"pct_sin_desague":25,"pct_gas_red":0,"pct_gas_garrafa":75,"pct_lena_guano":17,"pct_basura_formal":100,"pct_basura_quema":0,"pct_basura_informal":0,"pct_internet":75,"pct_celular":83,"pct_televisor":83}},{"type":"Feature","geometry":{"type":"Polygon","coordinates":[[[-64.8515,-21.89901],[-64.85093,-21.90026],[-64.85143,-21.90126],[-64.85137,-21.90131],[-64.85157,-21.90159],[-64.85202,-21.90196],[-64.85291,-21.90114],[-64.85266,-21.90007],[-64.85289,-21.89998],[-64.85304,-21.89957],[-64.85192,-21.89905],[-64.8515,-21.89901]]]},"properties":{"n":"CAÑAS","p":59,"personas_x_ha":13,"masculinidad":103,"pct_menor20":20,"pct_60mas":19,"pct_migrante":25,"dependencia_econ":37,"pct_empleados":35,"pct_cuentapropia":53,"pct_agricultura":37,"pct_comercio":19,"pct_manufactura":2,"pct_construccion":7,"pct_transporte":5,"pct_alojamiento":2,"pct_sin_educacion":6,"pct_educ_superior":31,"brecha_educ":-12,"pct_sin_seguro":12,"pct_sus":56,"pct_seguro_privado":0,"brecha_seguro":10,"pct_salud_publica":23,"pct_med_tradicional":11,"pct_automedicacion":23,"pct_remedios_caseros":23,"pct_viv_desocupada":0,"pct_alquiler":5,"pct_electricidad":100,"pct_sin_electricidad":0,"pct_agua_red":95,"pct_alcantarillado":84,"pct_camara_septica":0,"pct_pozo_ciego":16,"pct_sin_desague":0,"pct_gas_red":0,"pct_gas_garrafa":95,"pct_lena_guano":5,"pct_basura_formal":84,"pct_basura_quema":16,"pct_basura_informal":0,"pct_internet":79,"pct_celular":84,"pct_televisor":79}},{"type":"Feature","geometry":{"type":"Polygon","coordinates":[[[-64.85058,-21.8996],[-64.85067,-21.89954],[-64.85098,-21.89887],[-64.85025,-21.89863],[-64.85011,-21.8988],[-64.85058,-21.8996]]]},"properties":{"n":"CAÑAS","p":23,"personas_x_ha":47,"masculinidad":130,"pct_menor20":26,"pct_60mas":13,"pct_migrante":13,"dependencia_econ":77,"pct_empleados":23,"pct_cuentapropia":77,"pct_agricultura":31,"pct_comercio":38,"pct_manufactura":8,"pct_construccion":0,"pct_transporte":23,"pct_alojamiento":0,"pct_sin_educacion":0,"pct_educ_superior":33,"brecha_educ":-16,"pct_sin_seguro":4,"pct_sus":96,"pct_seguro_privado":0,"brecha_seguro":8,"pct_salud_publica":26,"pct_med_tradicional":12,"pct_automedicacion":20,"pct_remedios_caseros":18,"pct_viv_desocupada":0,"pct_alquiler":22,"pct_electricidad":100,"pct_sin_electricidad":0,"pct_agua_red":100,"pct_alcantarillado":100,"pct_camara_septica":0,"pct_pozo_ciego":0,"pct_sin_desague":0,"pct_gas_red":0,"pct_gas_garrafa":100,"pct_lena_guano":0,"pct_basura_formal":89,"pct_basura_quema":11,"pct_basura_informal":0,"pct_internet":100,"pct_celular":100,"pct_televisor":100}},{"type":"Feature","geometry":{"type":"Polygon","coordinates":[[[-64.85087,-21.90013],[-64.85139,-21.89902],[-64.85107,-21.89889],[-64.85075,-21.89955],[-64.85061,-21.89966],[-64.85087,-21.90013]]]},"properties":{"n":"CAÑAS","p":47,"personas_x_ha":98,"masculinidad":96,"pct_menor20":36,"pct_60mas":11,"pct_migrante":26,"dependencia_econ":68,"pct_empleados":21,"pct_cuentapropia":64,"pct_agricultura":32,"pct_comercio":25,"pct_manufactura":4,"pct_construccion":7,"pct_transporte":4,"pct_alojamiento":7,"pct_sin_educacion":3,"pct_educ_superior":45,"brecha_educ":9,"pct_sin_seguro":13,"pct_sus":83,"pct_seguro_privado":0,"brecha_seguro":-16,"pct_salud_publica":21,"pct_med_tradicional":17,"pct_automedicacion":21,"pct_remedios_caseros":21,"pct_viv_desocupada":9,"pct_alquiler":24,"pct_electricidad":94,"pct_sin_electricidad":6,"pct_agua_red":100,"pct_alcantarillado":100,"pct_camara_septica":0,"pct_pozo_ciego":0,"pct_sin_desague":0,"pct_gas_red":0,"pct_gas_garrafa":94,"pct_lena_guano":6,"pct_basura_formal":100,"pct_basura_quema":0,"pct_basura_informal":0,"pct_internet":88,"pct_celular":94,"pct_televisor":82}},{"type":"Feature","geometry":{"type":"Polygon","coordinates":[[[-64.85136,-21.89738],[-64.85071,-21.897],[-64.85046,-21.89722],[-64.84838,-21.89659],[-64.84827,-21.89667],[-64.84782,-21.89649],[-64.84746,-21.8966],[-64.84748,-21.8972],[-64.84759,-21.89742],[-64.85067,-21.8987],[-64.85117,-21.89782],[-64.85093,-21.8977],[-64.85098,-21.89757],[-64.85096,-21.89767],[-64.85119,-21.89777],[-64.85136,-21.89738]]]},"properties":{"n":"CAÑAS","p":41,"personas_x_ha":8,"masculinidad":105,"pct_menor20":32,"pct_60mas":37,"pct_migrante":20,"dependencia_econ":71,"pct_empleados":8,"pct_cuentapropia":71,"pct_agricultura":42,"pct_comercio":8,"pct_manufactura":0,"pct_construccion":4,"pct_transporte":0,"pct_alojamiento":21,"pct_sin_educacion":4,"pct_educ_superior":18,"brecha_educ":1,"pct_sin_seguro":2,"pct_sus":82,"pct_seguro_privado":0,"brecha_seguro":5,"pct_salud_publica":24,"pct_med_tradicional":15,"pct_automedicacion":14,"pct_remedios_caseros":22,"pct_viv_desocupada":0,"pct_alquiler":0,"pct_electricidad":100,"pct_sin_electricidad":0,"pct_agua_red":100,"pct_alcantarillado":81,"pct_camara_septica":0,"pct_pozo_ciego":12,"pct_sin_desague":6,"pct_gas_red":0,"pct_gas_garrafa":100,"pct_lena_guano":0,"pct_basura_formal":94,"pct_basura_quema":6,"pct_basura_informal":0,"pct_internet":75,"pct_celular":94,"pct_televisor":75}},{"type":"Feature","geometry":{"type":"Polygon","coordinates":[[[-64.85126,-21.89783],[-64.85074,-21.89872],[-64.85193,-21.89901],[-64.85203,-21.89878],[-64.85165,-21.89843],[-64.85187,-21.89808],[-64.85177,-21.89795],[-64.85126,-21.89783]]]},"properties":{"n":"CAÑAS","p":34,"personas_x_ha":33,"masculinidad":100,"pct_menor20":38,"pct_60mas":15,"pct_migrante":26,"dependencia_econ":36,"pct_empleados":24,"pct_cuentapropia":56,"pct_agricultura":40,"pct_comercio":24,"pct_manufactura":0,"pct_construccion":12,"pct_transporte":4,"pct_alojamiento":4,"pct_sin_educacion":0,"pct_educ_superior":9,"brecha_educ":31,"pct_sin_seguro":6,"pct_sus":82,"pct_seguro_privado":0,"brecha_seguro":-12,"pct_salud_publica":22,"pct_med_tradicional":18,"pct_automedicacion":20,"pct_remedios_caseros":22,"pct_viv_desocupada":0,"pct_alquiler":14,"pct_electricidad":100,"pct_sin_electricidad":0,"pct_agua_red":93,"pct_alcantarillado":71,"pct_camara_septica":0,"pct_pozo_ciego":21,"pct_sin_desague":7,"pct_gas_red":0,"pct_gas_garrafa":86,"pct_lena_guano":7,"pct_basura_formal":71,"pct_basura_quema":29,"pct_basura_informal":0,"pct_internet":93,"pct_celular":93,"pct_televisor":71}},{"type":"Feature","geometry":{"type":"Polygon","coordinates":[[[-64.85045,-21.89951],[-64.85017,-21.89964],[-64.85042,-21.89946],[-64.8499,-21.89859],[-64.84925,-21.89819],[-64.84852,-21.89793],[-64.84846,-21.89837],[-64.84834,-21.89861],[-64.84869,-21.89978],[-64.84859,-21.9007],[-64.84865,-21.90084],[-64.84924,-21.90138],[-64.84938,-21.90139],[-64.85101,-21.90058],[-64.85045,-21.89951]]]},"properties":{"n":"CAÑAS","p":70,"personas_x_ha":11,"masculinidad":94,"pct_menor20":23,"pct_60mas":27,"pct_migrante":20,"dependencia_econ":59,"pct_empleados":32,"pct_cuentapropia":52,"pct_agricultura":43,"pct_comercio":14,"pct_manufactura":7,"pct_construccion":7,"pct_transporte":2,"pct_alojamiento":0,"pct_sin_educacion":7,"pct_educ_superior":31,"brecha_educ":0,"pct_sin_seguro":6,"pct_sus":81,"pct_seguro_privado":0,"brecha_seguro":1,"pct_salud_publica":28,"pct_med_tradicional":9,"pct_automedicacion":15,"pct_remedios_caseros":19,"pct_viv_desocupada":12,"pct_alquiler":12,"pct_electricidad":96,"pct_sin_electricidad":4,"pct_agua_red":96,"pct_alcantarillado":96,"pct_camara_septica":0,"pct_pozo_ciego":4,"pct_sin_desague":0,"pct_gas_red":0,"pct_gas_garrafa":100,"pct_lena_guano":0,"pct_basura_formal":100,"pct_basura_quema":0,"pct_basura_informal":0,"pct_internet":88,"pct_celular":88,"pct_televisor":80}},{"type":"Feature","geometry":{"type":"Polygon","coordinates":[[[-64.66505,-22.17811],[-64.66411,-22.17807],[-64.66399,-22.17873],[-64.66372,-22.17919],[-64.66349,-22.17908],[-64.6631,-22.17973],[-64.66325,-22.17987],[-64.6638,-22.18009],[-64.66445,-22.17903],[-64.66498,-22.17849],[-64.66505,-22.17811]]]},"properties":{"n":"LA MAMORA CENTRO","p":67,"personas_x_ha":36,"masculinidad":86,"pct_menor20":33,"pct_60mas":24,"pct_migrante":54,"dependencia_econ":76,"pct_empleados":29,"pct_cuentapropia":50,"pct_agricultura":34,"pct_comercio":13,"pct_manufactura":3,"pct_construccion":11,"pct_transporte":0,"pct_alojamiento":11,"pct_sin_educacion":7,"pct_educ_superior":42,"brecha_educ":-15,"pct_sin_seguro":19,"pct_sus":52,"pct_seguro_privado":0,"brecha_seguro":-12,"pct_salud_publica":24,"pct_med_tradicional":15,"pct_automedicacion":15,"pct_remedios_caseros":23,"pct_viv_desocupada":6,"pct_alquiler":14,"pct_electricidad":93,"pct_sin_electricidad":7,"pct_agua_red":29,"pct_alcantarillado":93,"pct_camara_septica":0,"pct_pozo_ciego":7,"pct_sin_desague":0,"pct_gas_red":0,"pct_gas_garrafa":93,"pct_lena_guano":7,"pct_basura_formal":100,"pct_basura_quema":0,"pct_basura_informal":0,"pct_internet":100,"pct_celular":100,"pct_televisor":71}},{"type":"Feature","geometry":{"type":"Polygon","coordinates":[[[-64.66633,-22.17759],[-64.66533,-22.17749],[-64.66526,-22.17756],[-64.66559,-22.17807],[-64.66626,-22.17809],[-64.66633,-22.17803],[-64.66633,-22.17759]]]},"properties":{"n":"LA MAMORA CENTRO","p":48,"personas_x_ha":87,"masculinidad":100,"pct_menor20":38,"pct_60mas":10,"pct_migrante":46,"dependencia_econ":167,"pct_empleados":28,"pct_cuentapropia":56,"pct_agricultura":11,"pct_comercio":39,"pct_manufactura":6,"pct_construccion":28,"pct_transporte":0,"pct_alojamiento":6,"pct_sin_educacion":3,"pct_educ_superior":23,"brecha_educ":-7,"pct_sin_seguro":2,"pct_sus":83,"pct_seguro_privado":0,"brecha_seguro":4,"pct_salud_publica":33,"pct_med_tradicional":16,"pct_automedicacion":5,"pct_remedios_caseros":26,"pct_viv_desocupada":0,"pct_alquiler":0,"pct_electricidad":100,"pct_sin_electricidad":0,"pct_agua_red":33,"pct_alcantarillado":100,"pct_camara_septica":0,"pct_pozo_ciego":0,"pct_sin_desague":0,"pct_gas_red":0,"pct_gas_garrafa":67,"pct_lena_guano":33,"pct_basura_formal":100,"pct_basura_quema":0,"pct_basura_informal":0,"pct_internet":75,"pct_celular":83,"pct_televisor":75}},{"type":"Feature","geometry":{"type":"Polygon","coordinates":[[[-64.66545,-22.17951],[-64.6651,-22.1801],[-64.66541,-22.18078],[-64.66552,-22.18073],[-64.66634,-22.17946],[-64.66608,-22.17931],[-64.66571,-22.17939],[-64.66561,-22.17959],[-64.66545,-22.17951]]]},"properties":{"n":"LA MAMORA CENTRO","p":24,"personas_x_ha":23,"masculinidad":140,"pct_menor20":25,"pct_60mas":12,"pct_migrante":25,"dependencia_econ":156,"pct_empleados":33,"pct_cuentapropia":56,"pct_agricultura":33,"pct_comercio":11,"pct_manufactura":0,"pct_construccion":0,"pct_transporte":11,"pct_alojamiento":11,"pct_sin_educacion":0,"pct_educ_superior":29,"brecha_educ":21,"pct_sin_seguro":0,"pct_sus":91,"pct_seguro_privado":0,"brecha_seguro":0,"pct_salud_publica":31,"pct_med_tradicional":5,"pct_automedicacion":24,"pct_remedios_caseros":24,"pct_viv_desocupada":0,"pct_alquiler":11,"pct_electricidad":100,"pct_sin_electricidad":0,"pct_agua_red":44,"pct_alcantarillado":89,"pct_camara_septica":11,"pct_pozo_ciego":0,"pct_sin_desague":0,"pct_gas_red":0,"pct_gas_garrafa":100,"pct_lena_guano":0,"pct_basura_formal":78,"pct_basura_quema":22,"pct_basura_informal":0,"pct_internet":78,"pct_celular":100,"pct_televisor":100}},{"type":"Feature","geometry":{"type":"Polygon","coordinates":[[[-64.66529,-22.18064],[-64.66508,-22.18024],[-64.66409,-22.18007],[-64.66387,-22.18029],[-64.66381,-22.18051],[-64.66509,-22.18075],[-64.66521,-22.18101],[-64.66534,-22.18096],[-64.66529,-22.18064]]]},"properties":{"n":"LA MAMORA CENTRO","p":29,"personas_x_ha":38,"masculinidad":81,"pct_menor20":34,"pct_60mas":10,"pct_migrante":45,"dependencia_econ":47,"pct_empleados":16,"pct_cuentapropia":53,"pct_agricultura":53,"pct_comercio":37,"pct_manufactura":5,"pct_construccion":0,"pct_transporte":0,"pct_alojamiento":0,"pct_sin_educacion":6,"pct_educ_superior":28,"brecha_educ":-11,"pct_sin_seguro":0,"pct_sus":89,"pct_seguro_privado":0,"brecha_seguro":0,"pct_salud_publica":59,"pct_med_tradicional":11,"pct_automedicacion":7,"pct_remedios_caseros":7,"pct_viv_desocupada":25,"pct_alquiler":11,"pct_electricidad":100,"pct_sin_electricidad":0,"pct_agua_red":100,"pct_alcantarillado":89,"pct_camara_septica":0,"pct_pozo_ciego":11,"pct_sin_desague":0,"pct_gas_red":0,"pct_gas_garrafa":100,"pct_lena_guano":0,"pct_basura_formal":89,"pct_basura_quema":11,"pct_basura_informal":0,"pct_internet":89,"pct_celular":89,"pct_televisor":89}},{"type":"Feature","geometry":{"type":"Polygon","coordinates":[[[-64.7122,-21.8902],[-64.71206,-21.88985],[-64.71141,-21.89012],[-64.71137,-21.8905],[-64.71113,-21.8907],[-64.71149,-21.89093],[-64.7111,-21.89188],[-64.71152,-21.89211],[-64.71223,-21.89049],[-64.71222,-21.89025],[-64.71187,-21.89034],[-64.7122,-21.8902]]]},"properties":{"n":"PADCAYA","p":59,"personas_x_ha":39,"masculinidad":103,"pct_menor20":37,"pct_60mas":7,"pct_migrante":36,"dependencia_econ":111,"pct_empleados":46,"pct_cuentapropia":43,"pct_agricultura":7,"pct_comercio":29,"pct_manufactura":4,"pct_construccion":4,"pct_transporte":21,"pct_alojamiento":0,"pct_sin_educacion":3,"pct_educ_superior":37,"brecha_educ":15,"pct_sin_seguro":10,"pct_sus":78,"pct_seguro_privado":3,"brecha_seguro":-7,"pct_salud_publica":26,"pct_med_tradicional":14,"pct_automedicacion":21,"pct_remedios_caseros":26,"pct_viv_desocupada":0,"pct_alquiler":32,"pct_electricidad":100,"pct_sin_electricidad":0,"pct_agua_red":100,"pct_alcantarillado":100,"pct_camara_septica":0,"pct_pozo_ciego":0,"pct_sin_desague":0,"pct_gas_red":37,"pct_gas_garrafa":63,"pct_lena_guano":0,"pct_basura_formal":100,"pct_basura_quema":0,"pct_basura_informal":0,"pct_internet":89,"pct_celular":95,"pct_televisor":84}},{"type":"Feature","geometry":{"type":"Polygon","coordinates":[[[-64.71325,-21.8894],[-64.7127,-21.88911],[-64.71238,-21.89033],[-64.7128,-21.89121],[-64.7133,-21.89105],[-64.71326,-21.89091],[-64.71347,-21.89063],[-64.71275,-21.89],[-64.71309,-21.88964],[-64.71319,-21.88965],[-64.71285,-21.88998],[-64.71355,-21.89058],[-64.71342,-21.89089],[-64.71344,-21.89102],[-64.71394,-21.89087],[-64.71378,-21.8904],[-64.71325,-21.8894]]]},"properties":{"n":"PADCAYA","p":104,"personas_x_ha":50,"masculinidad":104,"pct_menor20":34,"pct_60mas":17,"pct_migrante":42,"dependencia_econ":86,"pct_empleados":38,"pct_cuentapropia":50,"pct_agricultura":5,"pct_comercio":27,"pct_manufactura":4,"pct_construccion":4,"pct_transporte":2,"pct_alojamiento":16,"pct_sin_educacion":4,"pct_educ_superior":52,"brecha_educ":-9,"pct_sin_seguro":8,"pct_sus":69,"pct_seguro_privado":0,"brecha_seguro":0,"pct_salud_publica":21,"pct_med_tradicional":13,"pct_automedicacion":22,"pct_remedios_caseros":21,"pct_viv_desocupada":0,"pct_alquiler":9,"pct_electricidad":100,"pct_sin_electricidad":0,"pct_agua_red":100,"pct_alcantarillado":94,"pct_camara_septica":3,"pct_pozo_ciego":0,"pct_sin_desague":0,"pct_gas_red":88,"pct_gas_garrafa":12,"pct_lena_guano":0,"pct_basura_formal":100,"pct_basura_quema":0,"pct_basura_informal":0,"pct_internet":100,"pct_celular":100,"pct_televisor":97}},{"type":"Feature","geometry":{"type":"Polygon","coordinates":[[[-64.71403,-21.8895],[-64.71447,-21.88957],[-64.71472,-21.88979],[-64.71478,-21.88976],[-64.71459,-21.88935],[-64.71447,-21.88926],[-64.71415,-21.88926],[-64.71403,-21.8895]]]},"properties":{"n":"PADCAYA","p":18,"personas_x_ha":88,"masculinidad":64,"pct_menor20":33,"pct_60mas":11,"pct_migrante":72,"dependencia_econ":100,"pct_empleados":44,"pct_cuentapropia":44,"pct_agricultura":11,"pct_comercio":11,"pct_manufactura":0,"pct_construccion":22,"pct_transporte":11,"pct_alojamiento":0,"pct_sin_educacion":8,"pct_educ_superior":58,"brecha_educ":0,"pct_sin_seguro":6,"pct_sus":22,"pct_seguro_privado":0,"brecha_seguro":-9,"pct_salud_publica":24,"pct_med_tradicional":8,"pct_automedicacion":8,"pct_remedios_caseros":29,"pct_viv_desocupada":0,"pct_alquiler":0,"pct_electricidad":100,"pct_sin_electricidad":0,"pct_agua_red":100,"pct_alcantarillado":100,"pct_camara_septica":0,"pct_pozo_ciego":0,"pct_sin_desague":0,"pct_gas_red":50,"pct_gas_garrafa":50,"pct_lena_guano":0,"pct_basura_formal":100,"pct_basura_quema":0,"pct_basura_informal":0,"pct_internet":83,"pct_celular":100,"pct_televisor":100}},{"type":"Feature","geometry":{"type":"Polygon","coordinates":[[[-64.71427,-21.89179],[-64.71396,-21.89094],[-64.71347,-21.89108],[-64.71352,-21.89121],[-64.71346,-21.89161],[-64.71382,-21.89259],[-64.71397,-21.8926],[-64.71427,-21.89179]]]},"properties":{"n":"PADCAYA","p":56,"personas_x_ha":57,"masculinidad":81,"pct_menor20":38,"pct_60mas":11,"pct_migrante":54,"dependencia_econ":115,"pct_empleados":58,"pct_cuentapropia":27,"pct_agricultura":12,"pct_comercio":12,"pct_manufactura":0,"pct_construccion":8,"pct_transporte":8,"pct_alojamiento":15,"pct_sin_educacion":3,"pct_educ_superior":49,"brecha_educ":5,"pct_sin_seguro":21,"pct_sus":64,"pct_seguro_privado":0,"brecha_seguro":-17,"pct_salud_publica":19,"pct_med_tradicional":17,"pct_automedicacion":20,"pct_remedios_caseros":24,"pct_viv_desocupada":5,"pct_alquiler":6,"pct_electricidad":94,"pct_sin_electricidad":6,"pct_agua_red":100,"pct_alcantarillado":100,"pct_camara_septica":0,"pct_pozo_ciego":0,"pct_sin_desague":0,"pct_gas_red":62,"pct_gas_garrafa":38,"pct_lena_guano":0,"pct_basura_formal":88,"pct_basura_quema":0,"pct_basura_informal":6,"pct_internet":81,"pct_celular":88,"pct_televisor":88}},{"type":"Feature","geometry":{"type":"Polygon","coordinates":[[[-64.71115,-21.8925],[-64.71144,-21.89223],[-64.71099,-21.89195],[-64.7108,-21.89227],[-64.71115,-21.8925]]]},"properties":{"n":"PADCAYA","p":39,"personas_x_ha":177,"masculinidad":56,"pct_menor20":41,"pct_60mas":8,"pct_migrante":26,"dependencia_econ":77,"pct_empleados":32,"pct_cuentapropia":41,"pct_agricultura":36,"pct_comercio":18,"pct_manufactura":5,"pct_construccion":0,"pct_transporte":14,"pct_alojamiento":9,"pct_sin_educacion":4,"pct_educ_superior":46,"brecha_educ":-1,"pct_sin_seguro":5,"pct_sus":77,"pct_seguro_privado":0,"brecha_seguro":14,"pct_salud_publica":28,"pct_med_tradicional":12,"pct_automedicacion":25,"pct_remedios_caseros":28,"pct_viv_desocupada":0,"pct_alquiler":9,"pct_electricidad":91,"pct_sin_electricidad":9,"pct_agua_red":100,"pct_alcantarillado":100,"pct_camara_septica":0,"pct_pozo_ciego":0,"pct_sin_desague":0,"pct_gas_red":91,"pct_gas_garrafa":9,"pct_lena_guano":0,"pct_basura_formal":100,"pct_basura_quema":0,"pct_basura_informal":0,"pct_internet":100,"pct_celular":100,"pct_televisor":82}},{"type":"Feature","geometry":{"type":"Polygon","coordinates":[[[-64.71202,-21.88675],[-64.71285,-21.88642],[-64.71259,-21.88579],[-64.71176,-21.88614],[-64.71202,-21.88675]]]},"properties":{"n":"PADCAYA","p":29,"personas_x_ha":42,"masculinidad":164,"pct_menor20":34,"pct_60mas":0,"pct_migrante":48,"dependencia_econ":81,"pct_empleados":38,"pct_cuentapropia":12,"pct_agricultura":12,"pct_comercio":6,"pct_manufactura":0,"pct_construccion":6,"pct_transporte":12,"pct_alojamiento":0,"pct_sin_educacion":0,"pct_educ_superior":74,"brecha_educ":-3,"pct_sin_seguro":10,"pct_sus":76,"pct_seguro_privado":0,"brecha_seguro":2,"pct_salud_publica":16,"pct_med_tradicional":16,"pct_automedicacion":25,"pct_remedios_caseros":23,"pct_viv_desocupada":30,"pct_alquiler":0,"pct_electricidad":100,"pct_sin_electricidad":0,"pct_agua_red":100,"pct_alcantarillado":100,"pct_camara_septica":0,"pct_pozo_ciego":0,"pct_sin_desague":0,"pct_gas_red":67,"pct_gas_garrafa":33,"pct_lena_guano":0,"pct_basura_formal":100,"pct_basura_quema":0,"pct_basura_informal":0,"pct_internet":100,"pct_celular":100,"pct_televisor":100}},{"type":"Feature","geometry":{"type":"Polygon","coordinates":[[[-64.71364,-21.88793],[-64.71341,-21.88848],[-64.71365,-21.88859],[-64.71371,-21.88796],[-64.71364,-21.88793]]]},"properties":{"n":"PADCAYA","p":30,"personas_x_ha":246,"masculinidad":76,"pct_menor20":37,"pct_60mas":0,"pct_migrante":30,"dependencia_econ":76,"pct_empleados":24,"pct_cuentapropia":47,"pct_agricultura":6,"pct_comercio":47,"pct_manufactura":0,"pct_construccion":0,"pct_transporte":12,"pct_alojamiento":12,"pct_sin_educacion":0,"pct_educ_superior":26,"brecha_educ":1,"pct_sin_seguro":14,"pct_sus":79,"pct_seguro_privado":0,"brecha_seguro":17,"pct_salud_publica":27,"pct_med_tradicional":12,"pct_automedicacion":28,"pct_remedios_caseros":24,"pct_viv_desocupada":0,"pct_alquiler":0,"pct_electricidad":100,"pct_sin_electricidad":0,"pct_agua_red":100,"pct_alcantarillado":100,"pct_camara_septica":0,"pct_pozo_ciego":0,"pct_sin_desague":0,"pct_gas_red":83,"pct_gas_garrafa":17,"pct_lena_guano":0,"pct_basura_formal":100,"pct_basura_quema":0,"pct_basura_informal":0,"pct_internet":67,"pct_celular":83,"pct_televisor":83}},{"type":"Feature","geometry":{"type":"Polygon","coordinates":[[[-64.71394,-21.8935],[-64.71388,-21.89293],[-64.71347,-21.89284],[-64.71375,-21.89351],[-64.71394,-21.8935]]]},"properties":{"n":"PADCAYA","p":32,"personas_x_ha":151,"masculinidad":33,"pct_menor20":38,"pct_60mas":9,"pct_migrante":38,"dependencia_econ":100,"pct_empleados":19,"pct_cuentapropia":56,"pct_agricultura":25,"pct_comercio":38,"pct_manufactura":6,"pct_construccion":12,"pct_transporte":0,"pct_alojamiento":12,"pct_sin_educacion":10,"pct_educ_superior":35,"brecha_educ":13,"pct_sin_seguro":0,"pct_sus":100,"pct_seguro_privado":0,"brecha_seguro":0,"pct_salud_publica":33,"pct_med_tradicional":10,"pct_automedicacion":27,"pct_remedios_caseros":25,"pct_viv_desocupada":0,"pct_alquiler":0,"pct_electricidad":100,"pct_sin_electricidad":0,"pct_agua_red":100,"pct_alcantarillado":100,"pct_camara_septica":0,"pct_pozo_ciego":0,"pct_sin_desague":0,"pct_gas_red":29,"pct_gas_garrafa":71,"pct_lena_guano":0,"pct_basura_formal":100,"pct_basura_quema":0,"pct_basura_informal":0,"pct_internet":100,"pct_celular":100,"pct_televisor":100}},{"type":"Feature","geometry":{"type":"Polygon","coordinates":[[[-64.71494,-21.89121],[-64.71519,-21.89178],[-64.71508,-21.8921],[-64.71572,-21.89243],[-64.71627,-21.89126],[-64.71622,-21.89109],[-64.7148,-21.89061],[-64.71464,-21.89097],[-64.71494,-21.89121]]]},"properties":{"n":"PADCAYA","p":34,"personas_x_ha":19,"masculinidad":127,"pct_menor20":32,"pct_60mas":6,"pct_migrante":29,"dependencia_econ":89,"pct_empleados":39,"pct_cuentapropia":44,"pct_agricultura":22,"pct_comercio":22,"pct_manufactura":11,"pct_construccion":0,"pct_transporte":6,"pct_alojamiento":0,"pct_sin_educacion":4,"pct_educ_superior":43,"brecha_educ":26,"pct_sin_seguro":9,"pct_sus":71,"pct_seguro_privado":0,"brecha_seguro":-8,"pct_salud_publica":25,"pct_med_tradicional":18,"pct_automedicacion":16,"pct_remedios_caseros":25,"pct_viv_desocupada":0,"pct_alquiler":25,"pct_electricidad":100,"pct_sin_electricidad":0,"pct_agua_red":100,"pct_alcantarillado":100,"pct_camara_septica":0,"pct_pozo_ciego":0,"pct_sin_desague":0,"pct_gas_red":88,"pct_gas_garrafa":12,"pct_lena_guano":0,"pct_basura_formal":100,"pct_basura_quema":0,"pct_basura_informal":0,"pct_internet":100,"pct_celular":100,"pct_televisor":88}},{"type":"Feature","geometry":{"type":"Polygon","coordinates":[[[-64.71302,-21.88845],[-64.71367,-21.88864],[-64.71405,-21.8891],[-64.71382,-21.88977],[-64.7137,-21.88989],[-64.71306,-21.88894],[-64.71302,-21.88845]]]},"properties":{"n":"PADCAYA","p":21,"personas_x_ha":22,"masculinidad":62,"pct_menor20":19,"pct_60mas":14,"pct_migrante":43,"dependencia_econ":91,"pct_empleados":27,"pct_cuentapropia":73,"pct_agricultura":9,"pct_comercio":45,"pct_manufactura":0,"pct_construccion":0,"pct_transporte":0,"pct_alojamiento":36,"pct_sin_educacion":12,"pct_educ_superior":29,"brecha_educ":-31,"pct_sin_seguro":24,"pct_sus":76,"pct_seguro_privado":0,"brecha_seguro":-18,"pct_salud_publica":29,"pct_med_tradicional":18,"pct_automedicacion":22,"pct_remedios_caseros":26,"pct_viv_desocupada":0,"pct_alquiler":0,"pct_electricidad":100,"pct_sin_electricidad":0,"pct_agua_red":100,"pct_alcantarillado":100,"pct_camara_septica":0,"pct_pozo_ciego":0,"pct_sin_desague":0,"pct_gas_red":83,"pct_gas_garrafa":17,"pct_lena_guano":0,"pct_basura_formal":100,"pct_basura_quema":0,"pct_basura_informal":0,"pct_internet":50,"pct_celular":100,"pct_televisor":83}},{"type":"Feature","geometry":{"type":"Polygon","coordinates":[[[-64.71075,-21.88706],[-64.71061,-21.88662],[-64.71023,-21.88631],[-64.70989,-21.88618],[-64.70964,-21.88638],[-64.70964,-21.88647],[-64.70917,-21.88697],[-64.70951,-21.88715],[-64.70991,-21.88755],[-64.71024,-21.88733],[-64.7107,-21.88716],[-64.71075,-21.88706]]]},"properties":{"n":"PADCAYA","p":50,"personas_x_ha":35,"masculinidad":72,"pct_menor20":28,"pct_60mas":18,"pct_migrante":24,"dependencia_econ":113,"pct_empleados":22,"pct_cuentapropia":35,"pct_agricultura":4,"pct_comercio":48,"pct_manufactura":4,"pct_construccion":0,"pct_transporte":17,"pct_alojamiento":4,"pct_sin_educacion":9,"pct_educ_superior":60,"brecha_educ":-10,"pct_sin_seguro":8,"pct_sus":61,"pct_seguro_privado":0,"brecha_seguro":2,"pct_salud_publica":24,"pct_med_tradicional":16,"pct_automedicacion":25,"pct_remedios_caseros":24,"pct_viv_desocupada":0,"pct_alquiler":36,"pct_electricidad":100,"pct_sin_electricidad":0,"pct_agua_red":100,"pct_alcantarillado":91,"pct_camara_septica":0,"pct_pozo_ciego":0,"pct_sin_desague":9,"pct_gas_red":64,"pct_gas_garrafa":36,"pct_lena_guano":0,"pct_basura_formal":100,"pct_basura_quema":0,"pct_basura_informal":0,"pct_internet":91,"pct_celular":91,"pct_televisor":82}},{"type":"Feature","geometry":{"type":"Polygon","coordinates":[[[-64.71268,-21.89264],[-64.71198,-21.89292],[-64.71221,-21.89336],[-64.71239,-21.89336],[-64.71292,-21.89315],[-64.71268,-21.89264]]]},"properties":{"n":"PADCAYA","p":18,"personas_x_ha":37,"masculinidad":100,"pct_menor20":33,"pct_60mas":0,"pct_migrante":11,"dependencia_econ":100,"pct_empleados":0,"pct_cuentapropia":89,"pct_agricultura":44,"pct_comercio":33,"pct_manufactura":0,"pct_construccion":0,"pct_transporte":11,"pct_alojamiento":0,"pct_sin_educacion":8,"pct_educ_superior":25,"brecha_educ":-22,"pct_sin_seguro":0,"pct_sus":89,"pct_seguro_privado":0,"brecha_seguro":0,"pct_salud_publica":95,"pct_med_tradicional":0,"pct_automedicacion":0,"pct_remedios_caseros":0,"pct_viv_desocupada":10,"pct_alquiler":14,"pct_electricidad":100,"pct_sin_electricidad":0,"pct_agua_red":100,"pct_alcantarillado":100,"pct_camara_septica":0,"pct_pozo_ciego":0,"pct_sin_desague":0,"pct_gas_red":43,"pct_gas_garrafa":57,"pct_lena_guano":0,"pct_basura_formal":100,"pct_basura_quema":0,"pct_basura_informal":0,"pct_internet":86,"pct_celular":100,"pct_televisor":71}},{"type":"Feature","geometry":{"type":"Polygon","coordinates":[[[-64.71132,-21.88809],[-64.7109,-21.88712],[-64.71062,-21.88735],[-64.71035,-21.88742],[-64.71013,-21.88758],[-64.70978,-21.88831],[-64.71003,-21.88849],[-64.71132,-21.88809]]]},"properties":{"n":"PADCAYA","p":26,"personas_x_ha":19,"masculinidad":136,"pct_menor20":31,"pct_60mas":12,"pct_migrante":65,"dependencia_econ":136,"pct_empleados":55,"pct_cuentapropia":36,"pct_agricultura":0,"pct_comercio":0,"pct_manufactura":0,"pct_construccion":18,"pct_transporte":18,"pct_alojamiento":9,"pct_sin_educacion":0,"pct_educ_superior":72,"brecha_educ":10,"pct_sin_seguro":8,"pct_sus":69,"pct_seguro_privado":0,"brecha_seguro":13,"pct_salud_publica":29,"pct_med_tradicional":12,"pct_automedicacion":20,"pct_remedios_caseros":18,"pct_viv_desocupada":17,"pct_alquiler":22,"pct_electricidad":100,"pct_sin_electricidad":0,"pct_agua_red":100,"pct_alcantarillado":100,"pct_camara_septica":0,"pct_pozo_ciego":0,"pct_sin_desague":0,"pct_gas_red":67,"pct_gas_garrafa":22,"pct_lena_guano":0,"pct_basura_formal":100,"pct_basura_quema":0,"pct_basura_informal":0,"pct_internet":78,"pct_celular":100,"pct_televisor":89}},{"type":"Feature","geometry":{"type":"Polygon","coordinates":[[[-64.71311,-21.88806],[-64.71347,-21.88819],[-64.71362,-21.88784],[-64.71316,-21.88796],[-64.71311,-21.88806]]]},"properties":{"n":"PADCAYA","p":17,"personas_x_ha":158,"masculinidad":89,"pct_menor20":35,"pct_60mas":6,"pct_migrante":29,"dependencia_econ":70,"pct_empleados":40,"pct_cuentapropia":50,"pct_agricultura":0,"pct_comercio":20,"pct_manufactura":10,"pct_construccion":10,"pct_transporte":0,"pct_alojamiento":20,"pct_sin_educacion":0,"pct_educ_superior":36,"brecha_educ":-3,"pct_sin_seguro":24,"pct_sus":71,"pct_seguro_privado":0,"brecha_seguro":3,"pct_salud_publica":17,"pct_med_tradicional":14,"pct_automedicacion":23,"pct_remedios_caseros":22,"pct_viv_desocupada":0,"pct_alquiler":57,"pct_electricidad":100,"pct_sin_electricidad":0,"pct_agua_red":86,"pct_alcantarillado":100,"pct_camara_septica":0,"pct_pozo_ciego":0,"pct_sin_desague":0,"pct_gas_red":43,"pct_gas_garrafa":43,"pct_lena_guano":0,"pct_basura_formal":100,"pct_basura_quema":0,"pct_basura_informal":0,"pct_internet":100,"pct_celular":100,"pct_televisor":86}},{"type":"Feature","geometry":{"type":"Polygon","coordinates":[[[-64.71465,-21.89001],[-64.71475,-21.89012],[-64.71489,-21.89],[-64.71442,-21.88963],[-64.71397,-21.88956],[-64.71381,-21.88985],[-64.71368,-21.88993],[-64.71388,-21.89044],[-64.71433,-21.89028],[-64.71435,-21.89021],[-64.7146,-21.89019],[-64.71465,-21.89001]]]},"properties":{"n":"PADCAYA","p":27,"personas_x_ha":39,"masculinidad":69,"pct_menor20":26,"pct_60mas":26,"pct_migrante":37,"dependencia_econ":93,"pct_empleados":86,"pct_cuentapropia":7,"pct_agricultura":7,"pct_comercio":7,"pct_manufactura":0,"pct_construccion":21,"pct_transporte":0,"pct_alojamiento":0,"pct_sin_educacion":5,"pct_educ_superior":60,"brecha_educ":21,"pct_sin_seguro":4,"pct_sus":48,"pct_seguro_privado":0,"brecha_seguro":9,"pct_salud_publica":18,"pct_med_tradicional":14,"pct_automedicacion":13,"pct_remedios_caseros":25,"pct_viv_desocupada":0,"pct_alquiler":11,"pct_electricidad":89,"pct_sin_electricidad":11,"pct_agua_red":100,"pct_alcantarillado":100,"pct_camara_septica":0,"pct_pozo_ciego":0,"pct_sin_desague":0,"pct_gas_red":78,"pct_gas_garrafa":22,"pct_lena_guano":0,"pct_basura_formal":100,"pct_basura_quema":0,"pct_basura_informal":0,"pct_internet":89,"pct_celular":89,"pct_televisor":89}},{"type":"Feature","geometry":{"type":"Polygon","coordinates":[[[-64.71461,-21.89176],[-64.71458,-21.89187],[-64.71499,-21.89203],[-64.71506,-21.89189],[-64.71483,-21.89122],[-64.71435,-21.89081],[-64.71411,-21.89045],[-64.71391,-21.89051],[-64.71439,-21.89185],[-64.71446,-21.89189],[-64.71461,-21.89176]]]},"properties":{"n":"PADCAYA","p":25,"personas_x_ha":28,"masculinidad":79,"pct_menor20":32,"pct_60mas":28,"pct_migrante":28,"dependencia_econ":47,"pct_empleados":47,"pct_cuentapropia":35,"pct_agricultura":12,"pct_comercio":35,"pct_manufactura":12,"pct_construccion":12,"pct_transporte":0,"pct_alojamiento":0,"pct_sin_educacion":6,"pct_educ_superior":24,"brecha_educ":17,"pct_sin_seguro":4,"pct_sus":84,"pct_seguro_privado":0,"brecha_seguro":9,"pct_salud_publica":30,"pct_med_tradicional":13,"pct_automedicacion":16,"pct_remedios_caseros":32,"pct_viv_desocupada":9,"pct_alquiler":12,"pct_electricidad":100,"pct_sin_electricidad":0,"pct_agua_red":100,"pct_alcantarillado":88,"pct_camara_septica":0,"pct_pozo_ciego":12,"pct_sin_desague":0,"pct_gas_red":38,"pct_gas_garrafa":62,"pct_lena_guano":0,"pct_basura_formal":88,"pct_basura_quema":12,"pct_basura_informal":0,"pct_internet":88,"pct_celular":100,"pct_televisor":100}},{"type":"Feature","geometry":{"type":"Polygon","coordinates":[[[-64.71244,-21.88768],[-64.71291,-21.88866],[-64.71299,-21.88795],[-64.71275,-21.88753],[-64.71244,-21.88768]]]},"properties":{"n":"PADCAYA","p":27,"personas_x_ha":76,"masculinidad":170,"pct_menor20":26,"pct_60mas":19,"pct_migrante":56,"dependencia_econ":80,"pct_empleados":20,"pct_cuentapropia":53,"pct_agricultura":27,"pct_comercio":33,"pct_manufactura":0,"pct_construccion":0,"pct_transporte":13,"pct_alojamiento":7,"pct_sin_educacion":5,"pct_educ_superior":70,"brecha_educ":-4,"pct_sin_seguro":27,"pct_sus":62,"pct_seguro_privado":0,"brecha_seguro":24,"pct_salud_publica":46,"pct_med_tradicional":4,"pct_automedicacion":13,"pct_remedios_caseros":13,"pct_viv_desocupada":0,"pct_alquiler":12,"pct_electricidad":100,"pct_sin_electricidad":0,"pct_agua_red":100,"pct_alcantarillado":75,"pct_camara_septica":25,"pct_pozo_ciego":0,"pct_sin_desague":0,"pct_gas_red":75,"pct_gas_garrafa":25,"pct_lena_guano":0,"pct_basura_formal":100,"pct_basura_quema":0,"pct_basura_informal":0,"pct_internet":75,"pct_celular":88,"pct_televisor":88}},{"type":"Feature","geometry":{"type":"Polygon","coordinates":[[[-64.71232,-21.89266],[-64.71264,-21.89256],[-64.71247,-21.89217],[-64.71254,-21.89214],[-64.71272,-21.89253],[-64.71314,-21.89234],[-64.71287,-21.89181],[-64.71192,-21.89163],[-64.71168,-21.89218],[-64.71139,-21.89253],[-64.71132,-21.8929],[-64.71149,-21.89315],[-64.71192,-21.89284],[-64.71191,-21.89267],[-64.71172,-21.89275],[-64.71166,-21.89267],[-64.71191,-21.89252],[-64.71205,-21.8928],[-64.71223,-21.89271],[-64.71209,-21.89234],[-64.71217,-21.8923],[-64.71232,-21.89266]]]},"properties":{"n":"PADCAYA","p":92,"personas_x_ha":59,"masculinidad":124,"pct_menor20":33,"pct_60mas":8,"pct_migrante":36,"dependencia_econ":88,"pct_empleados":43,"pct_cuentapropia":41,"pct_agricultura":2,"pct_comercio":31,"pct_manufactura":8,"pct_construccion":12,"pct_transporte":4,"pct_alojamiento":10,"pct_sin_educacion":0,"pct_educ_superior":37,"brecha_educ":-14,"pct_sin_seguro":2,"pct_sus":83,"pct_seguro_privado":0,"brecha_seguro":4,"pct_salud_publica":33,"pct_med_tradicional":9,"pct_automedicacion":19,"pct_remedios_caseros":21,"pct_viv_desocupada":4,"pct_alquiler":14,"pct_electricidad":100,"pct_sin_electricidad":0,"pct_agua_red":89,"pct_alcantarillado":100,"pct_camara_septica":0,"pct_pozo_ciego":0,"pct_sin_desague":0,"pct_gas_red":57,"pct_gas_garrafa":43,"pct_lena_guano":0,"pct_basura_formal":100,"pct_basura_quema":0,"pct_basura_informal":0,"pct_internet":89,"pct_celular":89,"pct_televisor":82}},{"type":"Feature","geometry":{"type":"Polygon","coordinates":[[[-64.71285,-21.89169],[-64.71238,-21.89054],[-64.71235,-21.89054],[-64.71195,-21.89155],[-64.71285,-21.89169]]]},"properties":{"n":"PADCAYA","p":49,"personas_x_ha":83,"masculinidad":113,"pct_menor20":29,"pct_60mas":12,"pct_migrante":18,"dependencia_econ":133,"pct_empleados":24,"pct_cuentapropia":52,"pct_agricultura":24,"pct_comercio":33,"pct_manufactura":10,"pct_construccion":0,"pct_transporte":5,"pct_alojamiento":0,"pct_sin_educacion":0,"pct_educ_superior":43,"brecha_educ":-6,"pct_sin_seguro":53,"pct_sus":27,"pct_seguro_privado":0,"brecha_seguro":2,"pct_salud_publica":25,"pct_med_tradicional":21,"pct_automedicacion":13,"pct_remedios_caseros":25,"pct_viv_desocupada":14,"pct_alquiler":7,"pct_electricidad":100,"pct_sin_electricidad":0,"pct_agua_red":93,"pct_alcantarillado":93,"pct_camara_septica":0,"pct_pozo_ciego":0,"pct_sin_desague":0,"pct_gas_red":86,"pct_gas_garrafa":7,"pct_lena_guano":7,"pct_basura_formal":93,"pct_basura_quema":7,"pct_basura_informal":0,"pct_internet":93,"pct_celular":100,"pct_televisor":93}},{"type":"Feature","geometry":{"type":"Polygon","coordinates":[[[-64.71149,-21.88597],[-64.71032,-21.88328],[-64.71015,-21.88312],[-64.71004,-21.88324],[-64.70989,-21.88433],[-64.71,-21.88477],[-64.71093,-21.88689],[-64.71149,-21.88597]]]},"properties":{"n":"PADCAYA","p":58,"personas_x_ha":18,"masculinidad":87,"pct_menor20":33,"pct_60mas":16,"pct_migrante":41,"dependencia_econ":142,"pct_empleados":42,"pct_cuentapropia":54,"pct_agricultura":21,"pct_comercio":17,"pct_manufactura":8,"pct_construccion":21,"pct_transporte":0,"pct_alojamiento":4,"pct_sin_educacion":10,"pct_educ_superior":38,"brecha_educ":1,"pct_sin_seguro":9,"pct_sus":84,"pct_seguro_privado":0,"brecha_seguro":-2,"pct_salud_publica":24,"pct_med_tradicional":19,"pct_automedicacion":18,"pct_remedios_caseros":23,"pct_viv_desocupada":10,"pct_alquiler":20,"pct_electricidad":100,"pct_sin_electricidad":0,"pct_agua_red":100,"pct_alcantarillado":100,"pct_camara_septica":0,"pct_pozo_ciego":0,"pct_sin_desague":0,"pct_gas_red":60,"pct_gas_garrafa":35,"pct_lena_guano":0,"pct_basura_formal":100,"pct_basura_quema":0,"pct_basura_informal":0,"pct_internet":100,"pct_celular":95,"pct_televisor":70}},{"type":"Feature","geometry":{"type":"Polygon","coordinates":[[[-64.71191,-21.88686],[-64.71102,-21.8871],[-64.71146,-21.88808],[-64.71231,-21.88762],[-64.71191,-21.88686]]]},"properties":{"n":"PADCAYA","p":45,"personas_x_ha":41,"masculinidad":55,"pct_menor20":36,"pct_60mas":20,"pct_migrante":69,"dependencia_econ":150,"pct_empleados":56,"pct_cuentapropia":28,"pct_agricultura":6,"pct_comercio":39,"pct_manufactura":0,"pct_construccion":6,"pct_transporte":6,"pct_alojamiento":11,"pct_sin_educacion":0,"pct_educ_superior":45,"brecha_educ":12,"pct_sin_seguro":18,"pct_sus":49,"pct_seguro_privado":0,"brecha_seguro":11,"pct_salud_publica":25,"pct_med_tradicional":8,"pct_automedicacion":24,"pct_remedios_caseros":23,"pct_viv_desocupada":16,"pct_alquiler":33,"pct_electricidad":100,"pct_sin_electricidad":0,"pct_agua_red":100,"pct_alcantarillado":100,"pct_camara_septica":0,"pct_pozo_ciego":0,"pct_sin_desague":0,"pct_gas_red":53,"pct_gas_garrafa":47,"pct_lena_guano":0,"pct_basura_formal":100,"pct_basura_quema":0,"pct_basura_informal":0,"pct_internet":87,"pct_celular":93,"pct_televisor":93}},{"type":"Feature","geometry":{"type":"Polygon","coordinates":[[[-64.71236,-21.8877],[-64.71206,-21.88784],[-64.71247,-21.88871],[-64.71264,-21.88888],[-64.71273,-21.88856],[-64.71236,-21.8877]]]},"properties":{"n":"PADCAYA","p":16,"personas_x_ha":41,"masculinidad":33,"pct_menor20":50,"pct_60mas":25,"pct_migrante":25,"dependencia_econ":433,"pct_empleados":33,"pct_cuentapropia":67,"pct_agricultura":0,"pct_comercio":33,"pct_manufactura":0,"pct_construccion":0,"pct_transporte":33,"pct_alojamiento":0,"pct_sin_educacion":12,"pct_educ_superior":25,"brecha_educ":-57,"pct_sin_seguro":12,"pct_sus":75,"pct_seguro_privado":0,"brecha_seguro":-17,"pct_salud_publica":25,"pct_med_tradicional":17,"pct_automedicacion":19,"pct_remedios_caseros":21,"pct_viv_desocupada":7,"pct_alquiler":0,"pct_electricidad":100,"pct_sin_electricidad":0,"pct_agua_red":100,"pct_alcantarillado":100,"pct_camara_septica":0,"pct_pozo_ciego":0,"pct_sin_desague":0,"pct_gas_red":80,"pct_gas_garrafa":20,"pct_lena_guano":0,"pct_basura_formal":100,"pct_basura_quema":0,"pct_basura_informal":0,"pct_internet":80,"pct_celular":100,"pct_televisor":100}},{"type":"Feature","geometry":{"type":"Polygon","coordinates":[[[-64.71073,-21.89387],[-64.71055,-21.89385],[-64.71057,-21.89563],[-64.71044,-21.89627],[-64.71061,-21.89635],[-64.7109,-21.89563],[-64.71099,-21.89508],[-64.71067,-21.89427],[-64.71073,-21.89387]]]},"properties":{"n":"PADCAYA","p":25,"personas_x_ha":34,"masculinidad":67,"pct_menor20":44,"pct_60mas":4,"pct_migrante":20,"dependencia_econ":92,"pct_empleados":23,"pct_cuentapropia":62,"pct_agricultura":31,"pct_comercio":54,"pct_manufactura":0,"pct_construccion":0,"pct_transporte":0,"pct_alojamiento":0,"pct_sin_educacion":14,"pct_educ_superior":14,"brecha_educ":29,"pct_sin_seguro":24,"pct_sus":60,"pct_seguro_privado":0,"brecha_seguro":27,"pct_salud_publica":25,"pct_med_tradicional":14,"pct_automedicacion":25,"pct_remedios_caseros":25,"pct_viv_desocupada":0,"pct_alquiler":11,"pct_electricidad":100,"pct_sin_electricidad":0,"pct_agua_red":89,"pct_alcantarillado":89,"pct_camara_septica":0,"pct_pozo_ciego":11,"pct_sin_desague":0,"pct_gas_red":22,"pct_gas_garrafa":78,"pct_lena_guano":0,"pct_basura_formal":100,"pct_basura_quema":0,"pct_basura_informal":0,"pct_internet":67,"pct_celular":78,"pct_televisor":67}},{"type":"Feature","geometry":{"type":"Polygon","coordinates":[[[-64.71282,-21.88749],[-64.71303,-21.88791],[-64.7139,-21.88769],[-64.71457,-21.88732],[-64.71442,-21.88696],[-64.71282,-21.88749]]]},"properties":{"n":"PADCAYA","p":80,"personas_x_ha":88,"masculinidad":158,"pct_menor20":16,"pct_60mas":15,"pct_migrante":70,"dependencia_econ":36,"pct_empleados":76,"pct_cuentapropia":19,"pct_agricultura":5,"pct_comercio":9,"pct_manufactura":3,"pct_construccion":3,"pct_transporte":3,"pct_alojamiento":2,"pct_sin_educacion":1,"pct_educ_superior":72,"brecha_educ":-25,"pct_sin_seguro":20,"pct_sus":30,"pct_seguro_privado":1,"brecha_seguro":-20,"pct_salud_publica":25,"pct_med_tradicional":10,"pct_automedicacion":16,"pct_remedios_caseros":16,"pct_viv_desocupada":31,"pct_alquiler":11,"pct_electricidad":94,"pct_sin_electricidad":6,"pct_agua_red":94,"pct_alcantarillado":78,"pct_camara_septica":0,"pct_pozo_ciego":0,"pct_sin_desague":17,"pct_gas_red":67,"pct_gas_garrafa":28,"pct_lena_guano":6,"pct_basura_formal":100,"pct_basura_quema":0,"pct_basura_informal":0,"pct_internet":100,"pct_celular":100,"pct_televisor":89}},{"type":"Feature","geometry":{"type":"Polygon","coordinates":[[[-64.70923,-21.88495],[-64.70954,-21.88546],[-64.71002,-21.88511],[-64.7098,-21.8846],[-64.70923,-21.88495]]]},"properties":{"n":"PADCAYA","p":31,"personas_x_ha":73,"masculinidad":72,"pct_menor20":45,"pct_60mas":6,"pct_migrante":45,"dependencia_econ":121,"pct_empleados":0,"pct_cuentapropia":57,"pct_agricultura":21,"pct_comercio":14,"pct_manufactura":14,"pct_construccion":21,"pct_transporte":14,"pct_alojamiento":0,"pct_sin_educacion":0,"pct_educ_superior":47,"brecha_educ":32,"pct_sin_seguro":0,"pct_sus":94,"pct_seguro_privado":0,"brecha_seguro":0,"pct_salud_publica":62,"pct_med_tradicional":17,"pct_automedicacion":0,"pct_remedios_caseros":17,"pct_viv_desocupada":0,"pct_alquiler":0,"pct_electricidad":100,"pct_sin_electricidad":0,"pct_agua_red":100,"pct_alcantarillado":100,"pct_camara_septica":0,"pct_pozo_ciego":0,"pct_sin_desague":0,"pct_gas_red":57,"pct_gas_garrafa":43,"pct_lena_guano":0,"pct_basura_formal":100,"pct_basura_quema":0,"pct_basura_informal":0,"pct_internet":86,"pct_celular":100,"pct_televisor":100}},{"type":"Feature","geometry":{"type":"Polygon","coordinates":[[[-64.71187,-21.89296],[-64.71121,-21.89359],[-64.71113,-21.8938],[-64.71192,-21.89408],[-64.71379,-21.89397],[-64.71318,-21.89243],[-64.71277,-21.89259],[-64.71304,-21.89327],[-64.71214,-21.8935],[-64.71187,-21.89296]]]},"properties":{"n":"PADCAYA","p":52,"personas_x_ha":21,"masculinidad":86,"pct_menor20":40,"pct_60mas":2,"pct_migrante":50,"dependencia_econ":93,"pct_empleados":33,"pct_cuentapropia":44,"pct_agricultura":26,"pct_comercio":4,"pct_manufactura":0,"pct_construccion":19,"pct_transporte":11,"pct_alojamiento":11,"pct_sin_educacion":3,"pct_educ_superior":29,"brecha_educ":-5,"pct_sin_seguro":4,"pct_sus":88,"pct_seguro_privado":4,"brecha_seguro":8,"pct_salud_publica":41,"pct_med_tradicional":9,"pct_automedicacion":17,"pct_remedios_caseros":23,"pct_viv_desocupada":6,"pct_alquiler":33,"pct_electricidad":100,"pct_sin_electricidad":0,"pct_agua_red":100,"pct_alcantarillado":93,"pct_camara_septica":0,"pct_pozo_ciego":7,"pct_sin_desague":0,"pct_gas_red":40,"pct_gas_garrafa":60,"pct_lena_guano":0,"pct_basura_formal":100,"pct_basura_quema":0,"pct_basura_informal":0,"pct_internet":87,"pct_celular":93,"pct_televisor":73}},{"type":"Feature","geometry":{"type":"Polygon","coordinates":[[[-64.71462,-21.89271],[-64.71536,-21.8929],[-64.71603,-21.89291],[-64.71633,-21.89282],[-64.71565,-21.89251],[-64.71558,-21.89264],[-64.71496,-21.89224],[-64.71462,-21.89271]]]},"properties":{"n":"PADCAYA","p":38,"personas_x_ha":61,"masculinidad":124,"pct_menor20":32,"pct_60mas":16,"pct_migrante":39,"dependencia_econ":65,"pct_empleados":43,"pct_cuentapropia":39,"pct_agricultura":22,"pct_comercio":17,"pct_manufactura":9,"pct_construccion":17,"pct_transporte":0,"pct_alojamiento":4,"pct_sin_educacion":19,"pct_educ_superior":15,"brecha_educ":-25,"pct_sin_seguro":11,"pct_sus":68,"pct_seguro_privado":0,"brecha_seguro":8,"pct_salud_publica":30,"pct_med_tradicional":9,"pct_automedicacion":20,"pct_remedios_caseros":21,"pct_viv_desocupada":7,"pct_alquiler":8,"pct_electricidad":100,"pct_sin_electricidad":0,"pct_agua_red":100,"pct_alcantarillado":83,"pct_camara_septica":0,"pct_pozo_ciego":0,"pct_sin_desague":17,"pct_gas_red":33,"pct_gas_garrafa":50,"pct_lena_guano":8,"pct_basura_formal":100,"pct_basura_quema":0,"pct_basura_informal":0,"pct_internet":92,"pct_celular":92,"pct_televisor":75}},{"type":"Feature","geometry":{"type":"Polygon","coordinates":[[[-64.71201,-21.88975],[-64.71134,-21.88813],[-64.71063,-21.88837],[-64.71079,-21.88876],[-64.7113,-21.88861],[-64.71146,-21.88908],[-64.7112,-21.88949],[-64.71142,-21.89],[-64.71201,-21.88975]]]},"properties":{"n":"PADCAYA","p":56,"personas_x_ha":52,"masculinidad":107,"pct_menor20":18,"pct_60mas":25,"pct_migrante":46,"dependencia_econ":67,"pct_empleados":36,"pct_cuentapropia":52,"pct_agricultura":12,"pct_comercio":21,"pct_manufactura":3,"pct_construccion":12,"pct_transporte":6,"pct_alojamiento":3,"pct_sin_educacion":0,"pct_educ_superior":64,"brecha_educ":4,"pct_sin_seguro":20,"pct_sus":60,"pct_seguro_privado":2,"brecha_seguro":10,"pct_salud_publica":29,"pct_med_tradicional":6,"pct_automedicacion":17,"pct_remedios_caseros":20,"pct_viv_desocupada":21,"pct_alquiler":6,"pct_electricidad":100,"pct_sin_electricidad":0,"pct_agua_red":100,"pct_alcantarillado":94,"pct_camara_septica":0,"pct_pozo_ciego":0,"pct_sin_desague":6,"pct_gas_red":75,"pct_gas_garrafa":25,"pct_lena_guano":0,"pct_basura_formal":94,"pct_basura_quema":0,"pct_basura_informal":6,"pct_internet":81,"pct_celular":94,"pct_televisor":88}},{"type":"Feature","geometry":{"type":"Polygon","coordinates":[[[-64.71202,-21.88791],[-64.71151,-21.88824],[-64.71229,-21.89009],[-64.71261,-21.889],[-64.71202,-21.88791]]]},"properties":{"n":"PADCAYA","p":80,"personas_x_ha":62,"masculinidad":48,"pct_menor20":28,"pct_60mas":16,"pct_migrante":45,"dependencia_econ":111,"pct_empleados":35,"pct_cuentapropia":51,"pct_agricultura":8,"pct_comercio":43,"pct_manufactura":5,"pct_construccion":5,"pct_transporte":5,"pct_alojamiento":0,"pct_sin_educacion":0,"pct_educ_superior":42,"brecha_educ":-17,"pct_sin_seguro":3,"pct_sus":56,"pct_seguro_privado":1,"brecha_seguro":-4,"pct_salud_publica":24,"pct_med_tradicional":11,"pct_automedicacion":16,"pct_remedios_caseros":23,"pct_viv_desocupada":10,"pct_alquiler":26,"pct_electricidad":100,"pct_sin_electricidad":0,"pct_agua_red":97,"pct_alcantarillado":94,"pct_camara_septica":0,"pct_pozo_ciego":3,"pct_sin_desague":3,"pct_gas_red":74,"pct_gas_garrafa":26,"pct_lena_guano":0,"pct_basura_formal":100,"pct_basura_quema":0,"pct_basura_informal":0,"pct_internet":91,"pct_celular":97,"pct_televisor":88}},{"type":"Feature","geometry":{"type":"Polygon","coordinates":[[[-64.7128,-21.89129],[-64.71343,-21.89274],[-64.7137,-21.89283],[-64.7138,-21.89279],[-64.71337,-21.89157],[-64.71345,-21.89124],[-64.71339,-21.8911],[-64.7128,-21.89129]]]},"properties":{"n":"PADCAYA","p":47,"personas_x_ha":57,"masculinidad":81,"pct_menor20":28,"pct_60mas":13,"pct_migrante":30,"dependencia_econ":62,"pct_empleados":41,"pct_cuentapropia":52,"pct_agricultura":10,"pct_comercio":24,"pct_manufactura":21,"pct_construccion":3,"pct_transporte":10,"pct_alojamiento":0,"pct_sin_educacion":8,"pct_educ_superior":42,"brecha_educ":-8,"pct_sin_seguro":0,"pct_sus":81,"pct_seguro_privado":0,"brecha_seguro":0,"pct_salud_publica":23,"pct_med_tradicional":17,"pct_automedicacion":19,"pct_remedios_caseros":22,"pct_viv_desocupada":0,"pct_alquiler":15,"pct_electricidad":92,"pct_sin_electricidad":8,"pct_agua_red":100,"pct_alcantarillado":100,"pct_camara_septica":0,"pct_pozo_ciego":0,"pct_sin_desague":0,"pct_gas_red":46,"pct_gas_garrafa":54,"pct_lena_guano":0,"pct_basura_formal":100,"pct_basura_quema":0,"pct_basura_informal":0,"pct_internet":92,"pct_celular":100,"pct_televisor":85}},{"type":"Feature","geometry":{"type":"Polygon","coordinates":[[[-64.71218,-21.88717],[-64.71338,-21.88671],[-64.7133,-21.88634],[-64.71205,-21.88683],[-64.71218,-21.88717]]]},"properties":{"n":"PADCAYA","p":17,"personas_x_ha":30,"masculinidad":70,"pct_menor20":29,"pct_60mas":12,"pct_migrante":53,"dependencia_econ":70,"pct_empleados":40,"pct_cuentapropia":50,"pct_agricultura":10,"pct_comercio":0,"pct_manufactura":10,"pct_construccion":0,"pct_transporte":10,"pct_alojamiento":0,"pct_sin_educacion":8,"pct_educ_superior":67,"brecha_educ":0,"pct_sin_seguro":29,"pct_sus":59,"pct_seguro_privado":0,"brecha_seguro":47,"pct_salud_publica":21,"pct_med_tradicional":14,"pct_automedicacion":19,"pct_remedios_caseros":16,"pct_viv_desocupada":0,"pct_alquiler":33,"pct_electricidad":83,"pct_sin_electricidad":0,"pct_agua_red":83,"pct_alcantarillado":83,"pct_camara_septica":0,"pct_pozo_ciego":0,"pct_sin_desague":17,"pct_gas_red":50,"pct_gas_garrafa":50,"pct_lena_guano":0,"pct_basura_formal":100,"pct_basura_quema":0,"pct_basura_informal":0,"pct_internet":67,"pct_celular":83,"pct_televisor":67}},{"type":"Feature","geometry":{"type":"Polygon","coordinates":[[[-64.71004,-21.88524],[-64.70929,-21.88577],[-64.70976,-21.88606],[-64.71049,-21.88634],[-64.71004,-21.88524]]]},"properties":{"n":"PADCAYA","p":39,"personas_x_ha":55,"masculinidad":86,"pct_menor20":38,"pct_60mas":8,"pct_migrante":49,"dependencia_econ":179,"pct_empleados":43,"pct_cuentapropia":50,"pct_agricultura":14,"pct_comercio":36,"pct_manufactura":0,"pct_construccion":7,"pct_transporte":7,"pct_alojamiento":14,"pct_sin_educacion":0,"pct_educ_superior":52,"brecha_educ":-7,"pct_sin_seguro":8,"pct_sus":68,"pct_seguro_privado":0,"brecha_seguro":7,"pct_salud_publica":21,"pct_med_tradicional":19,"pct_automedicacion":21,"pct_remedios_caseros":22,"pct_viv_desocupada":0,"pct_alquiler":7,"pct_electricidad":100,"pct_sin_electricidad":0,"pct_agua_red":100,"pct_alcantarillado":100,"pct_camara_septica":0,"pct_pozo_ciego":0,"pct_sin_desague":0,"pct_gas_red":79,"pct_gas_garrafa":21,"pct_lena_guano":0,"pct_basura_formal":100,"pct_basura_quema":0,"pct_basura_informal":0,"pct_internet":71,"pct_celular":100,"pct_televisor":100}},{"type":"Feature","geometry":{"type":"Polygon","coordinates":[[[-64.11375,-22.33907],[-64.11432,-22.34009],[-64.11472,-22.3399],[-64.11417,-22.33888],[-64.11375,-22.33907]]]},"properties":{"n":"SAN ANTONIO","p":15,"personas_x_ha":23,"masculinidad":36,"pct_menor20":53,"pct_60mas":0,"pct_migrante":47,"dependencia_econ":114,"pct_empleados":57,"pct_cuentapropia":29,"pct_agricultura":29,"pct_comercio":14,"pct_manufactura":0,"pct_construccion":14,"pct_transporte":0,"pct_alojamiento":29,"pct_sin_educacion":0,"pct_educ_superior":14,"brecha_educ":-50,"pct_sin_seguro":7,"pct_sus":93,"pct_seguro_privado":0,"brecha_seguro":25,"pct_salud_publica":24,"pct_med_tradicional":17,"pct_automedicacion":24,"pct_remedios_caseros":24,"pct_viv_desocupada":0,"pct_alquiler":0,"pct_electricidad":100,"pct_sin_electricidad":0,"pct_agua_red":100,"pct_alcantarillado":17,"pct_camara_septica":0,"pct_pozo_ciego":67,"pct_sin_desague":17,"pct_gas_red":0,"pct_gas_garrafa":83,"pct_lena_guano":17,"pct_basura_formal":0,"pct_basura_quema":100,"pct_basura_informal":0,"pct_internet":83,"pct_celular":83,"pct_televisor":50}},{"type":"Feature","geometry":{"type":"Polygon","coordinates":[[[-64.16118,-22.44946],[-64.1615,-22.44927],[-64.16102,-22.4484],[-64.16067,-22.44865],[-64.16118,-22.44946]]]},"properties":{"n":"TREMENTINAL","p":25,"personas_x_ha":52,"masculinidad":92,"pct_menor20":44,"pct_60mas":12,"pct_migrante":56,"dependencia_econ":127,"pct_empleados":55,"pct_cuentapropia":18,"pct_agricultura":55,"pct_comercio":9,"pct_manufactura":0,"pct_construccion":27,"pct_transporte":0,"pct_alojamiento":0,"pct_sin_educacion":20,"pct_educ_superior":7,"brecha_educ":-20,"pct_sin_seguro":0,"pct_sus":100,"pct_seguro_privado":0,"brecha_seguro":0,"pct_salud_publica":28,"pct_med_tradicional":17,"pct_automedicacion":22,"pct_remedios_caseros":23,"pct_viv_desocupada":0,"pct_alquiler":12,"pct_electricidad":100,"pct_sin_electricidad":0,"pct_agua_red":0,"pct_alcantarillado":0,"pct_camara_septica":0,"pct_pozo_ciego":100,"pct_sin_desague":0,"pct_gas_red":0,"pct_gas_garrafa":100,"pct_lena_guano":0,"pct_basura_formal":0,"pct_basura_quema":100,"pct_basura_informal":0,"pct_internet":88,"pct_celular":88,"pct_televisor":62}},{"type":"Feature","geometry":{"type":"Polygon","coordinates":[[[-64.82151,-21.86959],[-64.82199,-21.86879],[-64.8216,-21.86827],[-64.82146,-21.86837],[-64.82159,-21.86858],[-64.82126,-21.86893],[-64.8214,-21.86905],[-64.82118,-21.86936],[-64.82151,-21.86959]]]},"properties":{"n":"ZONA MIRAFLORES DE CAÑAS","p":16,"personas_x_ha":28,"masculinidad":45,"pct_menor20":25,"pct_60mas":12,"pct_migrante":44,"dependencia_econ":45,"pct_empleados":18,"pct_cuentapropia":45,"pct_agricultura":0,"pct_comercio":18,"pct_manufactura":18,"pct_construccion":0,"pct_transporte":9,"pct_alojamiento":36,"pct_sin_educacion":8,"pct_educ_superior":67,"brecha_educ":-33,"pct_sin_seguro":0,"pct_sus":100,"pct_seguro_privado":0,"brecha_seguro":0,"pct_salud_publica":24,"pct_med_tradicional":16,"pct_automedicacion":15,"pct_remedios_caseros":19,"pct_viv_desocupada":0,"pct_alquiler":0,"pct_electricidad":80,"pct_sin_electricidad":20,"pct_agua_red":80,"pct_alcantarillado":40,"pct_camara_septica":0,"pct_pozo_ciego":20,"pct_sin_desague":40,"pct_gas_red":0,"pct_gas_garrafa":100,"pct_lena_guano":0,"pct_basura_formal":80,"pct_basura_quema":20,"pct_basura_informal":0,"pct_internet":60,"pct_celular":80,"pct_televisor":60}},{"type":"Feature","geometry":{"type":"Polygon","coordinates":[[[-64.82298,-21.86808],[-64.82276,-21.86762],[-64.82201,-21.86806],[-64.82247,-21.86852],[-64.82298,-21.86808]]]},"properties":{"n":"ZONA MIRAFLORES DE CAÑAS","p":23,"personas_x_ha":45,"masculinidad":92,"pct_menor20":30,"pct_60mas":13,"pct_migrante":39,"dependencia_econ":77,"pct_empleados":0,"pct_cuentapropia":54,"pct_agricultura":54,"pct_comercio":15,"pct_manufactura":8,"pct_construccion":0,"pct_transporte":0,"pct_alojamiento":23,"pct_sin_educacion":6,"pct_educ_superior":25,"brecha_educ":-2,"pct_sin_seguro":0,"pct_sus":95,"pct_seguro_privado":0,"brecha_seguro":0,"pct_salud_publica":29,"pct_med_tradicional":22,"pct_automedicacion":16,"pct_remedios_caseros":28,"pct_viv_desocupada":0,"pct_alquiler":0,"pct_electricidad":100,"pct_sin_electricidad":0,"pct_agua_red":100,"pct_alcantarillado":100,"pct_camara_septica":0,"pct_pozo_ciego":0,"pct_sin_desague":0,"pct_gas_red":0,"pct_gas_garrafa":86,"pct_lena_guano":14,"pct_basura_formal":100,"pct_basura_quema":0,"pct_basura_informal":0,"pct_internet":86,"pct_celular":86,"pct_televisor":86}},{"type":"Feature","geometry":{"type":"Polygon","coordinates":[[[-64.82238,-21.8686],[-64.82192,-21.86811],[-64.82169,-21.86824],[-64.82212,-21.8688],[-64.82238,-21.8686]]]},"properties":{"n":"ZONA MIRAFLORES DE CAÑAS","p":25,"personas_x_ha":103,"masculinidad":67,"pct_menor20":40,"pct_60mas":8,"pct_migrante":64,"dependencia_econ":79,"pct_empleados":36,"pct_cuentapropia":50,"pct_agricultura":29,"pct_comercio":29,"pct_manufactura":14,"pct_construccion":0,"pct_transporte":0,"pct_alojamiento":14,"pct_sin_educacion":6,"pct_educ_superior":50,"brecha_educ":-40,"pct_sin_seguro":4,"pct_sus":68,"pct_seguro_privado":0,"brecha_seguro":10,"pct_salud_publica":22,"pct_med_tradicional":20,"pct_automedicacion":11,"pct_remedios_caseros":28,"pct_viv_desocupada":0,"pct_alquiler":0,"pct_electricidad":100,"pct_sin_electricidad":0,"pct_agua_red":100,"pct_alcantarillado":100,"pct_camara_septica":0,"pct_pozo_ciego":0,"pct_sin_desague":0,"pct_gas_red":0,"pct_gas_garrafa":89,"pct_lena_guano":0,"pct_basura_formal":78,"pct_basura_quema":22,"pct_basura_informal":0,"pct_internet":67,"pct_celular":78,"pct_televisor":44}}]}