{"type":"FeatureCollection","features":[{"type":"Feature","geometry":{"type":"Polygon","coordinates":[[[-65.23878,-21.43974],[-65.23919,-21.43967],[-65.23902,-21.43912],[-65.23871,-21.43916],[-65.23878,-21.43974]]]},"properties":{"n":"CARRIZAL","p":33,"personas_x_ha":134,"masculinidad":106,"pct_menor20":33,"pct_60mas":21,"pct_migrante":45,"dependencia_econ":200,"pct_empleados":0,"pct_cuentapropia":45,"pct_agricultura":109,"pct_comercio":9,"pct_manufactura":0,"pct_construccion":9,"pct_transporte":0,"pct_alojamiento":0,"pct_educ_superior":14,"brecha_educ":-27,"pct_sin_seguro":0,"pct_seguro_privado":0,"brecha_seguro":0,"pct_med_tradicional":17,"pct_automedicacion":8,"pct_remedios_caseros":23,"pct_viv_desocupada":0,"pct_alquiler":9,"pct_electricidad":100,"pct_agua_red":100,"pct_alcantarillado":0,"pct_gas_red":0,"pct_gas_garrafa":55,"pct_lena_guano":55,"pct_basura_formal":0,"pct_basura_quema":100,"pct_basura_informal":0,"pct_internet":73,"pct_celular":100,"pct_televisor":91}},{"type":"Feature","geometry":{"type":"Polygon","coordinates":[[[-65.2401,-21.4399],[-65.24014,-21.43954],[-65.23999,-21.43907],[-65.23954,-21.43922],[-65.2398,-21.44009],[-65.24001,-21.44005],[-65.2401,-21.4399]]]},"properties":{"n":"CARRIZAL","p":26,"personas_x_ha":56,"masculinidad":136,"pct_menor20":31,"pct_60mas":19,"pct_migrante":35,"dependencia_econ":53,"pct_empleados":29,"pct_cuentapropia":41,"pct_agricultura":65,"pct_comercio":0,"pct_manufactura":0,"pct_construccion":0,"pct_transporte":6,"pct_alojamiento":0,"pct_educ_superior":33,"brecha_educ":-5,"pct_sin_seguro":4,"pct_seguro_privado":0,"brecha_seguro":7,"pct_med_tradicional":4,"pct_automedicacion":9,"pct_remedios_caseros":31,"pct_viv_desocupada":25,"pct_alquiler":44,"pct_electricidad":100,"pct_agua_red":100,"pct_alcantarillado":0,"pct_gas_red":0,"pct_gas_garrafa":100,"pct_lena_guano":100,"pct_basura_formal":0,"pct_basura_quema":100,"pct_basura_informal":0,"pct_internet":89,"pct_celular":100,"pct_televisor":89}},{"type":"Feature","geometry":{"type":"Polygon","coordinates":[[[-65.2257,-21.3718],[-65.22582,-21.37138],[-65.22536,-21.37146],[-65.22582,-21.37135],[-65.22561,-21.37055],[-65.22513,-21.37089],[-65.22559,-21.3705],[-65.22553,-21.37031],[-65.22559,-21.37011],[-65.22544,-21.3699],[-65.22481,-21.37091],[-65.22473,-21.37145],[-65.22479,-21.37194],[-65.22504,-21.37237],[-65.22511,-21.37327],[-65.22548,-21.3735],[-65.22565,-21.37347],[-65.22572,-21.37331],[-65.2257,-21.37305],[-65.22546,-21.37238],[-65.22562,-21.37184],[-65.2257,-21.3718]]]},"properties":{"n":"CHAYAZA","p":25,"personas_x_ha":9,"masculinidad":56,"pct_menor20":40,"pct_60mas":4,"pct_migrante":28,"dependencia_econ":178,"pct_empleados":0,"pct_cuentapropia":78,"pct_agricultura":89,"pct_comercio":0,"pct_manufactura":0,"pct_construccion":0,"pct_transporte":0,"pct_alojamiento":0,"pct_educ_superior":20,"brecha_educ":10,"pct_sin_seguro":0,"pct_seguro_privado":0,"brecha_seguro":0,"pct_med_tradicional":10,"pct_automedicacion":21,"pct_remedios_caseros":23,"pct_viv_desocupada":0,"pct_alquiler":11,"pct_electricidad":100,"pct_agua_red":22,"pct_alcantarillado":0,"pct_gas_red":0,"pct_gas_garrafa":89,"pct_lena_guano":89,"pct_basura_formal":0,"pct_basura_quema":100,"pct_basura_informal":0,"pct_internet":89,"pct_celular":100,"pct_televisor":89}},{"type":"Feature","geometry":{"type":"Polygon","coordinates":[[[-65.20708,-21.23279],[-65.20701,-21.23208],[-65.20685,-21.23205],[-65.20652,-21.23304],[-65.20647,-21.23367],[-65.20679,-21.23367],[-65.20685,-21.23325],[-65.20708,-21.23279]]]},"properties":{"n":"EL PUENTE","p":57,"personas_x_ha":85,"masculinidad":68,"pct_menor20":33,"pct_60mas":14,"pct_migrante":75,"dependencia_econ":97,"pct_empleados":52,"pct_cuentapropia":28,"pct_agricultura":31,"pct_comercio":0,"pct_manufactura":17,"pct_construccion":3,"pct_transporte":7,"pct_alojamiento":0,"pct_educ_superior":47,"brecha_educ":-1,"pct_sin_seguro":0,"pct_seguro_privado":12,"brecha_seguro":0,"pct_med_tradicional":9,"pct_automedicacion":13,"pct_remedios_caseros":22,"pct_viv_desocupada":0,"pct_alquiler":20,"pct_electricidad":100,"pct_agua_red":100,"pct_alcantarillado":93,"pct_gas_red":80,"pct_gas_garrafa":13,"pct_lena_guano":13,"pct_basura_formal":100,"pct_basura_quema":0,"pct_basura_informal":0,"pct_internet":87,"pct_celular":87,"pct_televisor":80}},{"type":"Feature","geometry":{"type":"Polygon","coordinates":[[[-65.20883,-21.23896],[-65.2088,-21.23812],[-65.2073,-21.2383],[-65.2073,-21.23853],[-65.20797,-21.23857],[-65.20873,-21.23903],[-65.20883,-21.23896]]]},"properties":{"n":"EL PUENTE","p":21,"personas_x_ha":26,"masculinidad":110,"pct_menor20":33,"pct_60mas":5,"pct_migrante":71,"dependencia_econ":75,"pct_empleados":17,"pct_cuentapropia":83,"pct_agricultura":42,"pct_comercio":33,"pct_manufactura":8,"pct_construccion":0,"pct_transporte":8,"pct_alojamiento":0,"pct_educ_superior":33,"brecha_educ":0,"pct_sin_seguro":43,"pct_seguro_privado":5,"brecha_seguro":-33,"pct_med_tradicional":10,"pct_automedicacion":24,"pct_remedios_caseros":26,"pct_viv_desocupada":0,"pct_alquiler":25,"pct_electricidad":100,"pct_agua_red":100,"pct_alcantarillado":88,"pct_gas_red":50,"pct_gas_garrafa":50,"pct_lena_guano":50,"pct_basura_formal":100,"pct_basura_quema":0,"pct_basura_informal":0,"pct_internet":75,"pct_celular":88,"pct_televisor":88}},{"type":"Feature","geometry":{"type":"Polygon","coordinates":[[[-65.20657,-21.23812],[-65.20647,-21.23742],[-65.20573,-21.2374],[-65.20525,-21.23728],[-65.20516,-21.23747],[-65.20593,-21.23767],[-65.20611,-21.2379],[-65.20574,-21.23817],[-65.20553,-21.23844],[-65.20511,-21.23853],[-65.20508,-21.2389],[-65.20548,-21.2389],[-65.20624,-21.2386],[-65.20657,-21.23812]]]},"properties":{"n":"EL PUENTE","p":91,"personas_x_ha":66,"masculinidad":86,"pct_menor20":36,"pct_60mas":9,"pct_migrante":58,"dependencia_econ":102,"pct_empleados":40,"pct_cuentapropia":56,"pct_agricultura":16,"pct_comercio":40,"pct_manufactura":9,"pct_construccion":2,"pct_transporte":4,"pct_alojamiento":13,"pct_educ_superior":33,"brecha_educ":-19,"pct_sin_seguro":10,"pct_seguro_privado":9,"brecha_seguro":-1,"pct_med_tradicional":9,"pct_automedicacion":19,"pct_remedios_caseros":20,"pct_viv_desocupada":2,"pct_alquiler":22,"pct_electricidad":100,"pct_agua_red":96,"pct_alcantarillado":93,"pct_gas_red":81,"pct_gas_garrafa":19,"pct_lena_guano":19,"pct_basura_formal":100,"pct_basura_quema":0,"pct_basura_informal":0,"pct_internet":81,"pct_celular":93,"pct_televisor":78}},{"type":"Feature","geometry":{"type":"Polygon","coordinates":[[[-65.20797,-21.23919],[-65.20768,-21.23874],[-65.20608,-21.23888],[-65.20598,-21.23912],[-65.20719,-21.23937],[-65.20797,-21.23919]]]},"properties":{"n":"EL PUENTE","p":33,"personas_x_ha":33,"masculinidad":57,"pct_menor20":36,"pct_60mas":12,"pct_migrante":82,"dependencia_econ":83,"pct_empleados":39,"pct_cuentapropia":50,"pct_agricultura":0,"pct_comercio":44,"pct_manufactura":11,"pct_construccion":6,"pct_transporte":6,"pct_alojamiento":11,"pct_educ_superior":33,"brecha_educ":-3,"pct_sin_seguro":9,"pct_seguro_privado":0,"brecha_seguro":12,"pct_med_tradicional":14,"pct_automedicacion":24,"pct_remedios_caseros":19,"pct_viv_desocupada":9,"pct_alquiler":10,"pct_electricidad":100,"pct_agua_red":100,"pct_alcantarillado":70,"pct_gas_red":90,"pct_gas_garrafa":10,"pct_lena_guano":10,"pct_basura_formal":100,"pct_basura_quema":0,"pct_basura_informal":0,"pct_internet":100,"pct_celular":100,"pct_televisor":90}},{"type":"Feature","geometry":{"type":"Polygon","coordinates":[[[-65.20632,-21.23409],[-65.20593,-21.23409],[-65.20588,-21.23585],[-65.20629,-21.23584],[-65.20632,-21.23409]]]},"properties":{"n":"EL PUENTE","p":45,"personas_x_ha":58,"masculinidad":114,"pct_menor20":44,"pct_60mas":9,"pct_migrante":53,"dependencia_econ":114,"pct_empleados":52,"pct_cuentapropia":33,"pct_agricultura":14,"pct_comercio":10,"pct_manufactura":5,"pct_construccion":14,"pct_transporte":10,"pct_alojamiento":14,"pct_educ_superior":38,"brecha_educ":-12,"pct_sin_seguro":4,"pct_seguro_privado":2,"brecha_seguro":-1,"pct_med_tradicional":12,"pct_automedicacion":17,"pct_remedios_caseros":20,"pct_viv_desocupada":0,"pct_alquiler":9,"pct_electricidad":100,"pct_agua_red":100,"pct_alcantarillado":100,"pct_gas_red":91,"pct_gas_garrafa":9,"pct_lena_guano":9,"pct_basura_formal":64,"pct_basura_quema":36,"pct_basura_informal":0,"pct_internet":100,"pct_celular":100,"pct_televisor":91}},{"type":"Feature","geometry":{"type":"Polygon","coordinates":[[[-65.20501,-21.23847],[-65.20406,-21.23842],[-65.20404,-21.23886],[-65.20498,-21.23888],[-65.20501,-21.23847]]]},"properties":{"n":"EL PUENTE","p":30,"personas_x_ha":63,"masculinidad":100,"pct_menor20":43,"pct_60mas":10,"pct_migrante":63,"dependencia_econ":150,"pct_empleados":50,"pct_cuentapropia":25,"pct_agricultura":17,"pct_comercio":8,"pct_manufactura":33,"pct_construccion":8,"pct_transporte":8,"pct_alojamiento":42,"pct_educ_superior":32,"brecha_educ":-24,"pct_sin_seguro":20,"pct_seguro_privado":33,"brecha_seguro":27,"pct_med_tradicional":11,"pct_automedicacion":15,"pct_remedios_caseros":29,"pct_viv_desocupada":0,"pct_alquiler":0,"pct_electricidad":100,"pct_agua_red":100,"pct_alcantarillado":100,"pct_gas_red":88,"pct_gas_garrafa":12,"pct_lena_guano":12,"pct_basura_formal":100,"pct_basura_quema":0,"pct_basura_informal":0,"pct_internet":88,"pct_celular":100,"pct_televisor":88}},{"type":"Feature","geometry":{"type":"Polygon","coordinates":[[[-65.20471,-21.23365],[-65.20466,-21.23398],[-65.20247,-21.23398],[-65.20248,-21.23354],[-65.20471,-21.23365]]]},"properties":{"n":"EL PUENTE","p":56,"personas_x_ha":56,"masculinidad":81,"pct_menor20":39,"pct_60mas":4,"pct_migrante":64,"dependencia_econ":81,"pct_empleados":39,"pct_cuentapropia":58,"pct_agricultura":16,"pct_comercio":23,"pct_manufactura":3,"pct_construccion":6,"pct_transporte":10,"pct_alojamiento":10,"pct_educ_superior":34,"brecha_educ":5,"pct_sin_seguro":0,"pct_seguro_privado":20,"brecha_seguro":0,"pct_med_tradicional":14,"pct_automedicacion":18,"pct_remedios_caseros":25,"pct_viv_desocupada":0,"pct_alquiler":6,"pct_electricidad":100,"pct_agua_red":100,"pct_alcantarillado":82,"pct_gas_red":82,"pct_gas_garrafa":18,"pct_lena_guano":18,"pct_basura_formal":94,"pct_basura_quema":6,"pct_basura_informal":0,"pct_internet":100,"pct_celular":100,"pct_televisor":94}},{"type":"Feature","geometry":{"type":"Polygon","coordinates":[[[-65.20692,-21.23563],[-65.20684,-21.23584],[-65.20638,-21.23582],[-65.2064,-21.23495],[-65.2068,-21.23488],[-65.20692,-21.23563]]]},"properties":{"n":"EL PUENTE","p":34,"personas_x_ha":67,"masculinidad":112,"pct_menor20":32,"pct_60mas":6,"pct_migrante":59,"dependencia_econ":127,"pct_empleados":87,"pct_cuentapropia":13,"pct_agricultura":0,"pct_comercio":0,"pct_manufactura":53,"pct_construccion":13,"pct_transporte":7,"pct_alojamiento":0,"pct_educ_superior":54,"brecha_educ":-16,"pct_sin_seguro":6,"pct_seguro_privado":29,"brecha_seguro":-1,"pct_med_tradicional":16,"pct_automedicacion":13,"pct_remedios_caseros":23,"pct_viv_desocupada":0,"pct_alquiler":20,"pct_electricidad":100,"pct_agua_red":90,"pct_alcantarillado":100,"pct_gas_red":50,"pct_gas_garrafa":40,"pct_lena_guano":40,"pct_basura_formal":100,"pct_basura_quema":0,"pct_basura_informal":0,"pct_internet":90,"pct_celular":90,"pct_televisor":90}},{"type":"Feature","geometry":{"type":"Polygon","coordinates":[[[-65.20468,-21.2341],[-65.20416,-21.23409],[-65.20417,-21.23515],[-65.20462,-21.23514],[-65.20468,-21.2341]]]},"properties":{"n":"EL PUENTE","p":38,"personas_x_ha":62,"masculinidad":111,"pct_menor20":34,"pct_60mas":13,"pct_migrante":68,"dependencia_econ":192,"pct_empleados":31,"pct_cuentapropia":54,"pct_agricultura":38,"pct_comercio":31,"pct_manufactura":15,"pct_construccion":15,"pct_transporte":8,"pct_alojamiento":0,"pct_educ_superior":38,"brecha_educ":16,"pct_sin_seguro":8,"pct_seguro_privado":26,"brecha_seguro":4,"pct_med_tradicional":11,"pct_automedicacion":24,"pct_remedios_caseros":24,"pct_viv_desocupada":0,"pct_alquiler":8,"pct_electricidad":100,"pct_agua_red":100,"pct_alcantarillado":83,"pct_gas_red":75,"pct_gas_garrafa":17,"pct_lena_guano":17,"pct_basura_formal":100,"pct_basura_quema":0,"pct_basura_informal":0,"pct_internet":92,"pct_celular":100,"pct_televisor":92}},{"type":"Feature","geometry":{"type":"Polygon","coordinates":[[[-65.20575,-21.23324],[-65.20479,-21.23332],[-65.20477,-21.23357],[-65.20638,-21.23345],[-65.20655,-21.23268],[-65.20641,-21.23266],[-65.20609,-21.23309],[-65.20575,-21.23324]]]},"properties":{"n":"EL PUENTE","p":41,"personas_x_ha":59,"masculinidad":71,"pct_menor20":24,"pct_60mas":20,"pct_migrante":68,"dependencia_econ":141,"pct_empleados":76,"pct_cuentapropia":18,"pct_agricultura":12,"pct_comercio":0,"pct_manufactura":12,"pct_construccion":12,"pct_transporte":0,"pct_alojamiento":12,"pct_educ_superior":39,"brecha_educ":-31,"pct_sin_seguro":15,"pct_seguro_privado":7,"brecha_seguro":5,"pct_med_tradicional":13,"pct_automedicacion":13,"pct_remedios_caseros":24,"pct_viv_desocupada":0,"pct_alquiler":35,"pct_electricidad":100,"pct_agua_red":88,"pct_alcantarillado":76,"pct_gas_red":59,"pct_gas_garrafa":24,"pct_lena_guano":24,"pct_basura_formal":100,"pct_basura_quema":0,"pct_basura_informal":0,"pct_internet":88,"pct_celular":94,"pct_televisor":76}},{"type":"Feature","geometry":{"type":"Polygon","coordinates":[[[-65.20687,-21.23678],[-65.20686,-21.23596],[-65.20641,-21.23595],[-65.2065,-21.23681],[-65.20687,-21.23678]]]},"properties":{"n":"EL PUENTE","p":18,"personas_x_ha":42,"masculinidad":100,"pct_menor20":28,"pct_60mas":0,"pct_migrante":89,"dependencia_econ":100,"pct_empleados":89,"pct_cuentapropia":11,"pct_agricultura":0,"pct_comercio":11,"pct_manufactura":22,"pct_construccion":11,"pct_transporte":11,"pct_alojamiento":11,"pct_educ_superior":62,"brecha_educ":17,"pct_sin_seguro":6,"pct_seguro_privado":47,"brecha_seguro":12,"pct_med_tradicional":13,"pct_automedicacion":16,"pct_remedios_caseros":29,"pct_viv_desocupada":0,"pct_alquiler":43,"pct_electricidad":100,"pct_agua_red":100,"pct_alcantarillado":100,"pct_gas_red":29,"pct_gas_garrafa":57,"pct_lena_guano":57,"pct_basura_formal":100,"pct_basura_quema":0,"pct_basura_informal":0,"pct_internet":71,"pct_celular":71,"pct_televisor":29}},{"type":"Feature","geometry":{"type":"Polygon","coordinates":[[[-65.20667,-21.23812],[-65.20645,-21.23858],[-65.20723,-21.23854],[-65.20713,-21.23782],[-65.2068,-21.23687],[-65.20652,-21.23691],[-65.20672,-21.2378],[-65.20667,-21.23812]]]},"properties":{"n":"EL PUENTE","p":72,"personas_x_ha":86,"masculinidad":95,"pct_menor20":40,"pct_60mas":7,"pct_migrante":65,"dependencia_econ":112,"pct_empleados":32,"pct_cuentapropia":56,"pct_agricultura":15,"pct_comercio":38,"pct_manufactura":9,"pct_construccion":3,"pct_transporte":6,"pct_alojamiento":3,"pct_educ_superior":30,"brecha_educ":1,"pct_sin_seguro":7,"pct_seguro_privado":24,"brecha_seguro":-14,"pct_med_tradicional":3,"pct_automedicacion":18,"pct_remedios_caseros":26,"pct_viv_desocupada":16,"pct_alquiler":26,"pct_electricidad":100,"pct_agua_red":81,"pct_alcantarillado":100,"pct_gas_red":63,"pct_gas_garrafa":37,"pct_lena_guano":37,"pct_basura_formal":96,"pct_basura_quema":4,"pct_basura_informal":0,"pct_internet":93,"pct_celular":96,"pct_televisor":85}},{"type":"Feature","geometry":{"type":"Polygon","coordinates":[[[-65.20563,-21.23399],[-65.20586,-21.23398],[-65.20586,-21.23361],[-65.20562,-21.23363],[-65.20563,-21.23399]]]},"properties":{"n":"EL PUENTE","p":23,"personas_x_ha":233,"masculinidad":77,"pct_menor20":39,"pct_60mas":13,"pct_migrante":39,"dependencia_econ":109,"pct_empleados":45,"pct_cuentapropia":55,"pct_agricultura":18,"pct_comercio":9,"pct_manufactura":9,"pct_construccion":9,"pct_transporte":0,"pct_alojamiento":9,"pct_educ_superior":29,"brecha_educ":8,"pct_sin_seguro":4,"pct_seguro_privado":0,"brecha_seguro":10,"pct_med_tradicional":8,"pct_automedicacion":18,"pct_remedios_caseros":35,"pct_viv_desocupada":0,"pct_alquiler":43,"pct_electricidad":100,"pct_agua_red":100,"pct_alcantarillado":100,"pct_gas_red":71,"pct_gas_garrafa":29,"pct_lena_guano":29,"pct_basura_formal":100,"pct_basura_quema":0,"pct_basura_informal":0,"pct_internet":100,"pct_celular":100,"pct_televisor":100}},{"type":"Feature","geometry":{"type":"Polygon","coordinates":[[[-65.20576,-21.23662],[-65.20631,-21.23657],[-65.20628,-21.23595],[-65.20572,-21.23597],[-65.20576,-21.23662]]]},"properties":{"n":"EL PUENTE","p":20,"personas_x_ha":49,"masculinidad":67,"pct_menor20":45,"pct_60mas":5,"pct_migrante":55,"dependencia_econ":67,"pct_empleados":67,"pct_cuentapropia":25,"pct_agricultura":8,"pct_comercio":17,"pct_manufactura":42,"pct_construccion":0,"pct_transporte":17,"pct_alojamiento":0,"pct_educ_superior":64,"brecha_educ":-14,"pct_sin_seguro":5,"pct_seguro_privado":0,"brecha_seguro":-8,"pct_med_tradicional":3,"pct_automedicacion":26,"pct_remedios_caseros":24,"pct_viv_desocupada":22,"pct_alquiler":29,"pct_electricidad":100,"pct_agua_red":100,"pct_alcantarillado":100,"pct_gas_red":86,"pct_gas_garrafa":14,"pct_lena_guano":14,"pct_basura_formal":100,"pct_basura_quema":0,"pct_basura_informal":0,"pct_internet":86,"pct_celular":86,"pct_televisor":86}},{"type":"Feature","geometry":{"type":"Polygon","coordinates":[[[-65.20691,-21.23443],[-65.20676,-21.23441],[-65.20678,-21.23426],[-65.20643,-21.23425],[-65.2064,-21.23489],[-65.20683,-21.23481],[-65.20691,-21.23443]]]},"properties":{"n":"EL PUENTE","p":28,"personas_x_ha":89,"masculinidad":65,"pct_menor20":21,"pct_60mas":14,"pct_migrante":75,"dependencia_econ":115,"pct_empleados":62,"pct_cuentapropia":38,"pct_agricultura":23,"pct_comercio":0,"pct_manufactura":15,"pct_construccion":0,"pct_transporte":8,"pct_alojamiento":8,"pct_educ_superior":64,"brecha_educ":-2,"pct_sin_seguro":7,"pct_seguro_privado":14,"brecha_seguro":3,"pct_med_tradicional":5,"pct_automedicacion":17,"pct_remedios_caseros":24,"pct_viv_desocupada":6,"pct_alquiler":57,"pct_electricidad":100,"pct_agua_red":93,"pct_alcantarillado":100,"pct_gas_red":43,"pct_gas_garrafa":29,"pct_lena_guano":29,"pct_basura_formal":100,"pct_basura_quema":0,"pct_basura_informal":0,"pct_internet":100,"pct_celular":93,"pct_televisor":71}},{"type":"Feature","geometry":{"type":"Polygon","coordinates":[[[-64.97084,-21.48515],[-64.97011,-21.48531],[-64.97092,-21.48612],[-64.97114,-21.48607],[-64.97084,-21.48515]]]},"properties":{"n":"ISCAYACHI","p":15,"personas_x_ha":28,"masculinidad":114,"pct_menor20":33,"pct_60mas":7,"pct_migrante":0,"dependencia_econ":67,"pct_empleados":0,"pct_cuentapropia":89,"pct_agricultura":33,"pct_comercio":11,"pct_manufactura":0,"pct_construccion":11,"pct_transporte":0,"pct_alojamiento":0,"pct_educ_superior":30,"brecha_educ":-20,"pct_sin_seguro":0,"pct_seguro_privado":0,"brecha_seguro":0,"pct_med_tradicional":18,"pct_automedicacion":12,"pct_remedios_caseros":25,"pct_viv_desocupada":12,"pct_alquiler":0,"pct_electricidad":100,"pct_agua_red":100,"pct_alcantarillado":50,"pct_gas_red":33,"pct_gas_garrafa":67,"pct_lena_guano":67,"pct_basura_formal":100,"pct_basura_quema":0,"pct_basura_informal":0,"pct_internet":83,"pct_celular":100,"pct_televisor":50}},{"type":"Feature","geometry":{"type":"Polygon","coordinates":[[[-64.97129,-21.48658],[-64.97043,-21.48682],[-64.97092,-21.48793],[-64.97162,-21.48771],[-64.97129,-21.48658]]]},"properties":{"n":"ISCAYACHI","p":25,"personas_x_ha":23,"masculinidad":79,"pct_menor20":28,"pct_60mas":12,"pct_migrante":20,"dependencia_econ":56,"pct_empleados":31,"pct_cuentapropia":69,"pct_agricultura":44,"pct_comercio":0,"pct_manufactura":0,"pct_construccion":19,"pct_transporte":0,"pct_alojamiento":0,"pct_educ_superior":21,"brecha_educ":-6,"pct_sin_seguro":8,"pct_seguro_privado":0,"brecha_seguro":2,"pct_med_tradicional":20,"pct_automedicacion":19,"pct_remedios_caseros":23,"pct_viv_desocupada":0,"pct_alquiler":12,"pct_electricidad":100,"pct_agua_red":100,"pct_alcantarillado":88,"pct_gas_red":100,"pct_gas_garrafa":0,"pct_lena_guano":0,"pct_basura_formal":88,"pct_basura_quema":12,"pct_basura_informal":0,"pct_internet":100,"pct_celular":100,"pct_televisor":88}},{"type":"Feature","geometry":{"type":"Polygon","coordinates":[[[-64.96879,-21.48846],[-64.96973,-21.48818],[-64.96944,-21.48698],[-64.96951,-21.48697],[-64.96945,-21.48673],[-64.9684,-21.48696],[-64.96879,-21.48846]]]},"properties":{"n":"ISCAYACHI","p":60,"personas_x_ha":35,"masculinidad":62,"pct_menor20":37,"pct_60mas":8,"pct_migrante":48,"dependencia_econ":100,"pct_empleados":33,"pct_cuentapropia":43,"pct_agricultura":67,"pct_comercio":7,"pct_manufactura":0,"pct_construccion":3,"pct_transporte":0,"pct_alojamiento":7,"pct_educ_superior":39,"brecha_educ":-22,"pct_sin_seguro":5,"pct_seguro_privado":0,"brecha_seguro":6,"pct_med_tradicional":13,"pct_automedicacion":17,"pct_remedios_caseros":16,"pct_viv_desocupada":23,"pct_alquiler":6,"pct_electricidad":100,"pct_agua_red":94,"pct_alcantarillado":94,"pct_gas_red":71,"pct_gas_garrafa":29,"pct_lena_guano":29,"pct_basura_formal":100,"pct_basura_quema":0,"pct_basura_informal":0,"pct_internet":59,"pct_celular":71,"pct_televisor":65}},{"type":"Feature","geometry":{"type":"Polygon","coordinates":[[[-64.97063,-21.48803],[-64.97014,-21.48688],[-64.9695,-21.4867],[-64.96953,-21.48686],[-64.96986,-21.48725],[-64.97018,-21.48809],[-64.97028,-21.48814],[-64.97063,-21.48803]]]},"properties":{"n":"ISCAYACHI","p":36,"personas_x_ha":48,"masculinidad":89,"pct_menor20":36,"pct_60mas":17,"pct_migrante":28,"dependencia_econ":44,"pct_empleados":4,"pct_cuentapropia":88,"pct_agricultura":32,"pct_comercio":24,"pct_manufactura":0,"pct_construccion":4,"pct_transporte":0,"pct_alojamiento":0,"pct_educ_superior":22,"brecha_educ":-4,"pct_sin_seguro":8,"pct_seguro_privado":0,"brecha_seguro":-5,"pct_med_tradicional":18,"pct_automedicacion":18,"pct_remedios_caseros":19,"pct_viv_desocupada":0,"pct_alquiler":8,"pct_electricidad":100,"pct_agua_red":100,"pct_alcantarillado":92,"pct_gas_red":50,"pct_gas_garrafa":50,"pct_lena_guano":50,"pct_basura_formal":100,"pct_basura_quema":0,"pct_basura_informal":0,"pct_internet":58,"pct_celular":83,"pct_televisor":92}},{"type":"Feature","geometry":{"type":"Polygon","coordinates":[[[-64.96978,-21.48528],[-64.9696,-21.48435],[-64.96891,-21.48447],[-64.96918,-21.4854],[-64.96978,-21.48528]]]},"properties":{"n":"ISCAYACHI","p":26,"personas_x_ha":37,"masculinidad":100,"pct_menor20":15,"pct_60mas":8,"pct_migrante":69,"dependencia_econ":24,"pct_empleados":67,"pct_cuentapropia":24,"pct_agricultura":10,"pct_comercio":14,"pct_manufactura":0,"pct_construccion":0,"pct_transporte":0,"pct_alojamiento":0,"pct_educ_superior":82,"brecha_educ":-3,"pct_sin_seguro":0,"pct_seguro_privado":0,"brecha_seguro":0,"pct_med_tradicional":19,"pct_automedicacion":18,"pct_remedios_caseros":23,"pct_viv_desocupada":29,"pct_alquiler":0,"pct_electricidad":100,"pct_agua_red":100,"pct_alcantarillado":100,"pct_gas_red":50,"pct_gas_garrafa":50,"pct_lena_guano":50,"pct_basura_formal":100,"pct_basura_quema":0,"pct_basura_informal":0,"pct_internet":50,"pct_celular":50,"pct_televisor":50}},{"type":"Feature","geometry":{"type":"Polygon","coordinates":[[[-64.97191,-21.48884],[-64.97168,-21.48779],[-64.97097,-21.48802],[-64.97137,-21.48898],[-64.97191,-21.48884]]]},"properties":{"n":"ISCAYACHI","p":21,"personas_x_ha":27,"masculinidad":133,"pct_menor20":24,"pct_60mas":24,"pct_migrante":19,"dependencia_econ":50,"pct_empleados":36,"pct_cuentapropia":50,"pct_agricultura":64,"pct_comercio":0,"pct_manufactura":0,"pct_construccion":7,"pct_transporte":0,"pct_alojamiento":7,"pct_educ_superior":25,"brecha_educ":-37,"pct_sin_seguro":19,"pct_seguro_privado":0,"brecha_seguro":14,"pct_med_tradicional":16,"pct_automedicacion":23,"pct_remedios_caseros":24,"pct_viv_desocupada":0,"pct_alquiler":12,"pct_electricidad":100,"pct_agua_red":100,"pct_alcantarillado":88,"pct_gas_red":75,"pct_gas_garrafa":25,"pct_lena_guano":25,"pct_basura_formal":100,"pct_basura_quema":0,"pct_basura_informal":0,"pct_internet":62,"pct_celular":88,"pct_televisor":75}},{"type":"Feature","geometry":{"type":"Polygon","coordinates":[[[-64.96906,-21.48554],[-64.96869,-21.48563],[-64.96867,-21.48555],[-64.96903,-21.48546],[-64.96865,-21.48451],[-64.96829,-21.48458],[-64.96838,-21.48504],[-64.96688,-21.48567],[-64.96722,-21.48699],[-64.96827,-21.48676],[-64.96817,-21.48636],[-64.96824,-21.48634],[-64.96826,-21.4864],[-64.96847,-21.48638],[-64.96827,-21.48643],[-64.96834,-21.48675],[-64.96927,-21.48655],[-64.96906,-21.48554]]]},"properties":{"n":"ISCAYACHI","p":36,"personas_x_ha":9,"masculinidad":64,"pct_menor20":33,"pct_60mas":28,"pct_migrante":25,"dependencia_econ":57,"pct_empleados":17,"pct_cuentapropia":78,"pct_agricultura":57,"pct_comercio":26,"pct_manufactura":0,"pct_construccion":0,"pct_transporte":0,"pct_alojamiento":9,"pct_educ_superior":8,"brecha_educ":0,"pct_sin_seguro":3,"pct_seguro_privado":9,"brecha_seguro":-5,"pct_med_tradicional":15,"pct_automedicacion":19,"pct_remedios_caseros":20,"pct_viv_desocupada":4,"pct_alquiler":12,"pct_electricidad":94,"pct_agua_red":100,"pct_alcantarillado":94,"pct_gas_red":44,"pct_gas_garrafa":56,"pct_lena_guano":56,"pct_basura_formal":100,"pct_basura_quema":0,"pct_basura_informal":0,"pct_internet":50,"pct_celular":81,"pct_televisor":69}},{"type":"Feature","geometry":{"type":"Polygon","coordinates":[[[-64.97056,-21.48418],[-64.96987,-21.4843],[-64.97007,-21.48523],[-64.97082,-21.48507],[-64.97056,-21.48418]]]},"properties":{"n":"ISCAYACHI","p":43,"personas_x_ha":55,"masculinidad":95,"pct_menor20":35,"pct_60mas":9,"pct_migrante":28,"dependencia_econ":153,"pct_empleados":41,"pct_cuentapropia":41,"pct_agricultura":41,"pct_comercio":12,"pct_manufactura":0,"pct_construccion":18,"pct_transporte":6,"pct_alojamiento":6,"pct_educ_superior":33,"brecha_educ":0,"pct_sin_seguro":0,"pct_seguro_privado":0,"brecha_seguro":0,"pct_med_tradicional":16,"pct_automedicacion":18,"pct_remedios_caseros":23,"pct_viv_desocupada":7,"pct_alquiler":0,"pct_electricidad":100,"pct_agua_red":100,"pct_alcantarillado":93,"pct_gas_red":43,"pct_gas_garrafa":50,"pct_lena_guano":50,"pct_basura_formal":100,"pct_basura_quema":0,"pct_basura_informal":0,"pct_internet":71,"pct_celular":100,"pct_televisor":79}},{"type":"Feature","geometry":{"type":"Polygon","coordinates":[[[-64.96968,-21.48719],[-64.9696,-21.48721],[-64.96985,-21.48826],[-64.9701,-21.48818],[-64.96968,-21.48719]]]},"properties":{"n":"ISCAYACHI","p":23,"personas_x_ha":98,"masculinidad":92,"pct_menor20":35,"pct_60mas":4,"pct_migrante":22,"dependencia_econ":64,"pct_empleados":7,"pct_cuentapropia":93,"pct_agricultura":64,"pct_comercio":14,"pct_manufactura":0,"pct_construccion":0,"pct_transporte":0,"pct_alojamiento":0,"pct_educ_superior":13,"brecha_educ":-21,"pct_sin_seguro":4,"pct_seguro_privado":0,"brecha_seguro":9,"pct_med_tradicional":19,"pct_automedicacion":21,"pct_remedios_caseros":21,"pct_viv_desocupada":0,"pct_alquiler":0,"pct_electricidad":100,"pct_agua_red":100,"pct_alcantarillado":83,"pct_gas_red":67,"pct_gas_garrafa":33,"pct_lena_guano":33,"pct_basura_formal":83,"pct_basura_quema":17,"pct_basura_informal":0,"pct_internet":100,"pct_celular":100,"pct_televisor":100}},{"type":"Feature","geometry":{"type":"Polygon","coordinates":[[[-64.96831,-21.48698],[-64.9673,-21.48718],[-64.96737,-21.48756],[-64.96843,-21.48744],[-64.96831,-21.48698]]]},"properties":{"n":"ISCAYACHI","p":24,"personas_x_ha":45,"masculinidad":118,"pct_menor20":21,"pct_60mas":12,"pct_migrante":21,"dependencia_econ":44,"pct_empleados":6,"pct_cuentapropia":75,"pct_agricultura":81,"pct_comercio":0,"pct_manufactura":6,"pct_construccion":6,"pct_transporte":0,"pct_alojamiento":0,"pct_educ_superior":22,"brecha_educ":-33,"pct_sin_seguro":4,"pct_seguro_privado":0,"brecha_seguro":-9,"pct_med_tradicional":4,"pct_automedicacion":24,"pct_remedios_caseros":22,"pct_viv_desocupada":0,"pct_alquiler":11,"pct_electricidad":100,"pct_agua_red":100,"pct_alcantarillado":100,"pct_gas_red":78,"pct_gas_garrafa":22,"pct_lena_guano":22,"pct_basura_formal":100,"pct_basura_quema":0,"pct_basura_informal":0,"pct_internet":89,"pct_celular":89,"pct_televisor":67}},{"type":"Feature","geometry":{"type":"Polygon","coordinates":[[[-64.9703,-21.48328],[-64.96969,-21.48337],[-64.96986,-21.48423],[-64.97053,-21.48411],[-64.9703,-21.48328]]]},"properties":{"n":"ISCAYACHI","p":39,"personas_x_ha":60,"masculinidad":117,"pct_menor20":36,"pct_60mas":3,"pct_migrante":36,"dependencia_econ":77,"pct_empleados":23,"pct_cuentapropia":45,"pct_agricultura":59,"pct_comercio":18,"pct_manufactura":0,"pct_construccion":0,"pct_transporte":5,"pct_alojamiento":14,"pct_educ_superior":36,"brecha_educ":-12,"pct_sin_seguro":3,"pct_seguro_privado":0,"brecha_seguro":5,"pct_med_tradicional":17,"pct_automedicacion":24,"pct_remedios_caseros":25,"pct_viv_desocupada":7,"pct_alquiler":0,"pct_electricidad":100,"pct_agua_red":100,"pct_alcantarillado":90,"pct_gas_red":90,"pct_gas_garrafa":10,"pct_lena_guano":10,"pct_basura_formal":80,"pct_basura_quema":20,"pct_basura_informal":0,"pct_internet":70,"pct_celular":80,"pct_televisor":80}},{"type":"Feature","geometry":{"type":"Polygon","coordinates":[[[-64.97105,-21.48905],[-64.97067,-21.48813],[-64.96987,-21.48839],[-64.97012,-21.48936],[-64.97105,-21.48905]]]},"properties":{"n":"ISCAYACHI","p":18,"personas_x_ha":17,"masculinidad":125,"pct_menor20":22,"pct_60mas":11,"pct_migrante":28,"dependencia_econ":29,"pct_empleados":7,"pct_cuentapropia":93,"pct_agricultura":36,"pct_comercio":21,"pct_manufactura":0,"pct_construccion":21,"pct_transporte":7,"pct_alojamiento":0,"pct_educ_superior":21,"brecha_educ":0,"pct_sin_seguro":0,"pct_seguro_privado":0,"brecha_seguro":0,"pct_med_tradicional":17,"pct_automedicacion":22,"pct_remedios_caseros":22,"pct_viv_desocupada":0,"pct_alquiler":0,"pct_electricidad":100,"pct_agua_red":100,"pct_alcantarillado":67,"pct_gas_red":50,"pct_gas_garrafa":50,"pct_lena_guano":50,"pct_basura_formal":100,"pct_basura_quema":0,"pct_basura_informal":0,"pct_internet":100,"pct_celular":100,"pct_televisor":100}},{"type":"Feature","geometry":{"type":"Polygon","coordinates":[[[-64.97088,-21.48613],[-64.97026,-21.4855],[-64.97009,-21.48532],[-64.97027,-21.48625],[-64.97088,-21.48613]]]},"properties":{"n":"ISCAYACHI","p":23,"personas_x_ha":67,"masculinidad":64,"pct_menor20":26,"pct_60mas":26,"pct_migrante":39,"dependencia_econ":64,"pct_empleados":36,"pct_cuentapropia":50,"pct_agricultura":14,"pct_comercio":36,"pct_manufactura":0,"pct_construccion":0,"pct_transporte":0,"pct_alojamiento":0,"pct_educ_superior":47,"brecha_educ":19,"pct_sin_seguro":0,"pct_seguro_privado":0,"brecha_seguro":0,"pct_med_tradicional":15,"pct_automedicacion":20,"pct_remedios_caseros":24,"pct_viv_desocupada":0,"pct_alquiler":25,"pct_electricidad":100,"pct_agua_red":100,"pct_alcantarillado":92,"pct_gas_red":58,"pct_gas_garrafa":42,"pct_lena_guano":42,"pct_basura_formal":100,"pct_basura_quema":0,"pct_basura_informal":0,"pct_internet":92,"pct_celular":92,"pct_televisor":67}},{"type":"Feature","geometry":{"type":"Polygon","coordinates":[[[-64.98102,-21.53475],[-64.98262,-21.53243],[-64.98245,-21.53227],[-64.98172,-21.53233],[-64.9813,-21.53273],[-64.98133,-21.53295],[-64.98117,-21.53287],[-64.98114,-21.53303],[-64.98097,-21.53321],[-64.98086,-21.5335],[-64.98106,-21.53356],[-64.98101,-21.53381],[-64.98085,-21.53419],[-64.98066,-21.5341],[-64.98055,-21.53446],[-64.98102,-21.53475]]]},"properties":{"n":"PUEBLO NUEVO","p":23,"personas_x_ha":10,"masculinidad":92,"pct_menor20":30,"pct_60mas":30,"pct_migrante":4,"dependencia_econ":77,"pct_empleados":0,"pct_cuentapropia":92,"pct_agricultura":92,"pct_comercio":0,"pct_manufactura":0,"pct_construccion":0,"pct_transporte":0,"pct_alojamiento":0,"pct_educ_superior":6,"brecha_educ":19,"pct_sin_seguro":0,"pct_seguro_privado":0,"brecha_seguro":0,"pct_med_tradicional":15,"pct_automedicacion":0,"pct_remedios_caseros":33,"pct_viv_desocupada":0,"pct_alquiler":0,"pct_electricidad":88,"pct_agua_red":88,"pct_alcantarillado":0,"pct_gas_red":0,"pct_gas_garrafa":100,"pct_lena_guano":100,"pct_basura_formal":0,"pct_basura_quema":88,"pct_basura_informal":0,"pct_internet":25,"pct_celular":75,"pct_televisor":88}},{"type":"Feature","geometry":{"type":"Polygon","coordinates":[[[-64.95451,-21.48082],[-64.95425,-21.48098],[-64.95259,-21.48155],[-64.95256,-21.48164],[-64.95279,-21.48228],[-64.95253,-21.48168],[-64.95229,-21.4824],[-64.95137,-21.48273],[-64.95173,-21.48363],[-64.95364,-21.48299],[-64.95349,-21.48292],[-64.95338,-21.48266],[-64.95463,-21.48237],[-64.95516,-21.48214],[-64.95451,-21.48082]]]},"properties":{"n":"SAMA","p":21,"personas_x_ha":4,"masculinidad":62,"pct_menor20":29,"pct_60mas":10,"pct_migrante":29,"dependencia_econ":75,"pct_empleados":42,"pct_cuentapropia":58,"pct_agricultura":50,"pct_comercio":17,"pct_manufactura":0,"pct_construccion":0,"pct_transporte":0,"pct_alojamiento":0,"pct_educ_superior":40,"brecha_educ":-48,"pct_sin_seguro":0,"pct_seguro_privado":0,"brecha_seguro":0,"pct_med_tradicional":11,"pct_automedicacion":17,"pct_remedios_caseros":25,"pct_viv_desocupada":0,"pct_alquiler":0,"pct_electricidad":100,"pct_agua_red":100,"pct_alcantarillado":0,"pct_gas_red":100,"pct_gas_garrafa":0,"pct_lena_guano":0,"pct_basura_formal":0,"pct_basura_quema":62,"pct_basura_informal":0,"pct_internet":100,"pct_celular":100,"pct_televisor":88}},{"type":"Feature","geometry":{"type":"Polygon","coordinates":[[[-64.96725,-21.46246],[-64.96729,-21.46188],[-64.96722,-21.46157],[-64.96655,-21.46173],[-64.96709,-21.4636],[-64.96775,-21.46352],[-64.96836,-21.46314],[-64.96782,-21.46233],[-64.96725,-21.46246]]]},"properties":{"n":"SAN ROQUE","p":29,"personas_x_ha":14,"masculinidad":61,"pct_menor20":38,"pct_60mas":14,"pct_migrante":21,"dependencia_econ":107,"pct_empleados":7,"pct_cuentapropia":86,"pct_agricultura":71,"pct_comercio":0,"pct_manufactura":0,"pct_construccion":0,"pct_transporte":0,"pct_alojamiento":7,"pct_educ_superior":6,"brecha_educ":20,"pct_sin_seguro":0,"pct_seguro_privado":0,"brecha_seguro":0,"pct_med_tradicional":21,"pct_automedicacion":19,"pct_remedios_caseros":24,"pct_viv_desocupada":0,"pct_alquiler":0,"pct_electricidad":100,"pct_agua_red":100,"pct_alcantarillado":0,"pct_gas_red":40,"pct_gas_garrafa":60,"pct_lena_guano":60,"pct_basura_formal":0,"pct_basura_quema":100,"pct_basura_informal":0,"pct_internet":90,"pct_celular":100,"pct_televisor":90}},{"type":"Feature","geometry":{"type":"Polygon","coordinates":[[[-65.2049,-21.24149],[-65.20509,-21.24091],[-65.20456,-21.2407],[-65.20431,-21.24136],[-65.2049,-21.24149]]]},"properties":{"n":"SEPTAPAS","p":46,"personas_x_ha":102,"masculinidad":119,"pct_menor20":33,"pct_60mas":7,"pct_migrante":70,"dependencia_econ":156,"pct_empleados":44,"pct_cuentapropia":44,"pct_agricultura":39,"pct_comercio":6,"pct_manufactura":17,"pct_construccion":33,"pct_transporte":0,"pct_alojamiento":6,"pct_educ_superior":25,"brecha_educ":9,"pct_sin_seguro":11,"pct_seguro_privado":26,"brecha_seguro":11,"pct_med_tradicional":6,"pct_automedicacion":13,"pct_remedios_caseros":31,"pct_viv_desocupada":0,"pct_alquiler":43,"pct_electricidad":100,"pct_agua_red":100,"pct_alcantarillado":7,"pct_gas_red":64,"pct_gas_garrafa":29,"pct_lena_guano":29,"pct_basura_formal":100,"pct_basura_quema":0,"pct_basura_informal":0,"pct_internet":79,"pct_celular":86,"pct_televisor":57}},{"type":"Feature","geometry":{"type":"Polygon","coordinates":[[[-65.20543,-21.24091],[-65.20548,-21.24055],[-65.20573,-21.23992],[-65.20519,-21.23975],[-65.20461,-21.24065],[-65.20543,-21.24091]]]},"properties":{"n":"SEPTAPAS","p":29,"personas_x_ha":35,"masculinidad":123,"pct_menor20":31,"pct_60mas":14,"pct_migrante":72,"dependencia_econ":107,"pct_empleados":21,"pct_cuentapropia":79,"pct_agricultura":7,"pct_comercio":14,"pct_manufactura":21,"pct_construccion":7,"pct_transporte":36,"pct_alojamiento":0,"pct_educ_superior":15,"brecha_educ":-20,"pct_sin_seguro":21,"pct_seguro_privado":0,"brecha_seguro":10,"pct_med_tradicional":15,"pct_automedicacion":21,"pct_remedios_caseros":24,"pct_viv_desocupada":10,"pct_alquiler":22,"pct_electricidad":100,"pct_agua_red":100,"pct_alcantarillado":0,"pct_gas_red":67,"pct_gas_garrafa":22,"pct_lena_guano":22,"pct_basura_formal":89,"pct_basura_quema":11,"pct_basura_informal":0,"pct_internet":100,"pct_celular":100,"pct_televisor":89}},{"type":"Feature","geometry":{"type":"Polygon","coordinates":[[[-65.20557,-21.24476],[-65.20539,-21.24504],[-65.20525,-21.24485],[-65.20511,-21.24507],[-65.20526,-21.24538],[-65.20546,-21.24551],[-65.20572,-21.24479],[-65.20557,-21.24476]]]},"properties":{"n":"SEPTAPAS","p":21,"personas_x_ha":73,"masculinidad":110,"pct_menor20":19,"pct_60mas":14,"pct_migrante":57,"dependencia_econ":150,"pct_empleados":62,"pct_cuentapropia":25,"pct_agricultura":38,"pct_comercio":38,"pct_manufactura":0,"pct_construccion":12,"pct_transporte":0,"pct_alojamiento":0,"pct_educ_superior":12,"brecha_educ":-27,"pct_sin_seguro":17,"pct_seguro_privado":0,"brecha_seguro":7,"pct_med_tradicional":4,"pct_automedicacion":17,"pct_remedios_caseros":21,"pct_viv_desocupada":0,"pct_alquiler":44,"pct_electricidad":100,"pct_agua_red":100,"pct_alcantarillado":22,"pct_gas_red":33,"pct_gas_garrafa":67,"pct_lena_guano":67,"pct_basura_formal":89,"pct_basura_quema":11,"pct_basura_informal":0,"pct_internet":56,"pct_celular":78,"pct_televisor":44}},{"type":"Feature","geometry":{"type":"Polygon","coordinates":[[[-65.20493,-21.24995],[-65.2048,-21.25062],[-65.20572,-21.25064],[-65.20581,-21.25007],[-65.20493,-21.24995]]]},"properties":{"n":"SEPTAPAS","p":23,"personas_x_ha":33,"masculinidad":77,"pct_menor20":52,"pct_60mas":4,"pct_migrante":70,"dependencia_econ":283,"pct_empleados":50,"pct_cuentapropia":33,"pct_agricultura":0,"pct_comercio":67,"pct_manufactura":17,"pct_construccion":0,"pct_transporte":0,"pct_alojamiento":0,"pct_educ_superior":18,"brecha_educ":7,"pct_sin_seguro":0,"pct_seguro_privado":78,"brecha_seguro":0,"pct_med_tradicional":9,"pct_automedicacion":20,"pct_remedios_caseros":28,"pct_viv_desocupada":14,"pct_alquiler":0,"pct_electricidad":100,"pct_agua_red":100,"pct_alcantarillado":20,"pct_gas_red":80,"pct_gas_garrafa":20,"pct_lena_guano":20,"pct_basura_formal":100,"pct_basura_quema":0,"pct_basura_informal":0,"pct_internet":60,"pct_celular":80,"pct_televisor":80}},{"type":"Feature","geometry":{"type":"Polygon","coordinates":[[[-65.20479,-21.2467],[-65.20454,-21.24671],[-65.20454,-21.24686],[-65.20461,-21.24687],[-65.20458,-21.24726],[-65.20499,-21.24733],[-65.20495,-21.24698],[-65.20479,-21.2467]]]},"properties":{"n":"SEPTAPAS","p":20,"personas_x_ha":84,"masculinidad":82,"pct_menor20":35,"pct_60mas":10,"pct_migrante":45,"dependencia_econ":100,"pct_empleados":80,"pct_cuentapropia":20,"pct_agricultura":20,"pct_comercio":0,"pct_manufactura":50,"pct_construccion":20,"pct_transporte":0,"pct_alojamiento":0,"pct_educ_superior":29,"brecha_educ":-4,"pct_sin_seguro":25,"pct_seguro_privado":20,"brecha_seguro":-25,"pct_med_tradicional":13,"pct_automedicacion":14,"pct_remedios_caseros":28,"pct_viv_desocupada":0,"pct_alquiler":0,"pct_electricidad":100,"pct_agua_red":100,"pct_alcantarillado":0,"pct_gas_red":100,"pct_gas_garrafa":0,"pct_lena_guano":0,"pct_basura_formal":100,"pct_basura_quema":0,"pct_basura_informal":0,"pct_internet":100,"pct_celular":100,"pct_televisor":100}},{"type":"Feature","geometry":{"type":"Polygon","coordinates":[[[-65.20476,-21.24893],[-65.20389,-21.24879],[-65.20375,-21.24966],[-65.20458,-21.24979],[-65.20476,-21.24893]]]},"properties":{"n":"SEPTAPAS","p":34,"personas_x_ha":37,"masculinidad":112,"pct_menor20":32,"pct_60mas":12,"pct_migrante":50,"dependencia_econ":162,"pct_empleados":31,"pct_cuentapropia":69,"pct_agricultura":62,"pct_comercio":15,"pct_manufactura":8,"pct_construccion":0,"pct_transporte":0,"pct_alojamiento":23,"pct_educ_superior":21,"brecha_educ":-2,"pct_sin_seguro":0,"pct_seguro_privado":24,"brecha_seguro":0,"pct_med_tradicional":2,"pct_automedicacion":6,"pct_remedios_caseros":21,"pct_viv_desocupada":0,"pct_alquiler":10,"pct_electricidad":100,"pct_agua_red":90,"pct_alcantarillado":0,"pct_gas_red":70,"pct_gas_garrafa":30,"pct_lena_guano":30,"pct_basura_formal":90,"pct_basura_quema":10,"pct_basura_informal":0,"pct_internet":50,"pct_celular":90,"pct_televisor":70}},{"type":"Feature","geometry":{"type":"Polygon","coordinates":[[[-65.2052,-21.2443],[-65.20518,-21.24419],[-65.20459,-21.2443],[-65.20419,-21.24428],[-65.20387,-21.24392],[-65.20365,-21.24397],[-65.20353,-21.24421],[-65.20356,-21.24451],[-65.20368,-21.24475],[-65.20411,-21.24471],[-65.2052,-21.2443]]]},"properties":{"n":"SEPTAPAS","p":32,"personas_x_ha":43,"masculinidad":60,"pct_menor20":47,"pct_60mas":9,"pct_migrante":59,"dependencia_econ":113,"pct_empleados":20,"pct_cuentapropia":60,"pct_agricultura":60,"pct_comercio":7,"pct_manufactura":7,"pct_construccion":7,"pct_transporte":0,"pct_alojamiento":7,"pct_educ_superior":28,"brecha_educ":-17,"pct_sin_seguro":0,"pct_seguro_privado":25,"brecha_seguro":0,"pct_med_tradicional":17,"pct_automedicacion":13,"pct_remedios_caseros":25,"pct_viv_desocupada":0,"pct_alquiler":0,"pct_electricidad":100,"pct_agua_red":100,"pct_alcantarillado":0,"pct_gas_red":89,"pct_gas_garrafa":11,"pct_lena_guano":11,"pct_basura_formal":100,"pct_basura_quema":0,"pct_basura_informal":0,"pct_internet":89,"pct_celular":89,"pct_televisor":100}},{"type":"Feature","geometry":{"type":"Polygon","coordinates":[[[-65.20431,-21.24074],[-65.20408,-21.2413],[-65.20334,-21.24099],[-65.20349,-21.24076],[-65.20363,-21.24081],[-65.20384,-21.2404],[-65.20422,-21.24017],[-65.20464,-21.23975],[-65.2049,-21.2399],[-65.20431,-21.24074]]]},"properties":{"n":"SEPTAPAS","p":34,"personas_x_ha":34,"masculinidad":89,"pct_menor20":32,"pct_60mas":6,"pct_migrante":44,"dependencia_econ":79,"pct_empleados":53,"pct_cuentapropia":26,"pct_agricultura":21,"pct_comercio":16,"pct_manufactura":11,"pct_construccion":11,"pct_transporte":0,"pct_alojamiento":0,"pct_educ_superior":57,"brecha_educ":-29,"pct_sin_seguro":9,"pct_seguro_privado":29,"brecha_seguro":7,"pct_med_tradicional":18,"pct_automedicacion":15,"pct_remedios_caseros":21,"pct_viv_desocupada":0,"pct_alquiler":45,"pct_electricidad":100,"pct_agua_red":91,"pct_alcantarillado":0,"pct_gas_red":36,"pct_gas_garrafa":55,"pct_lena_guano":55,"pct_basura_formal":100,"pct_basura_quema":0,"pct_basura_informal":0,"pct_internet":100,"pct_celular":100,"pct_televisor":82}},{"type":"Feature","geometry":{"type":"Polygon","coordinates":[[[-65.20412,-21.24141],[-65.20354,-21.24125],[-65.20347,-21.24108],[-65.20331,-21.24114],[-65.20337,-21.24199],[-65.20332,-21.24325],[-65.20384,-21.24325],[-65.20412,-21.24141]]]},"properties":{"n":"SEPTAPAS","p":53,"personas_x_ha":36,"masculinidad":56,"pct_menor20":28,"pct_60mas":13,"pct_migrante":57,"dependencia_econ":89,"pct_empleados":46,"pct_cuentapropia":54,"pct_agricultura":7,"pct_comercio":21,"pct_manufactura":21,"pct_construccion":7,"pct_transporte":0,"pct_alojamiento":4,"pct_educ_superior":29,"brecha_educ":-6,"pct_sin_seguro":23,"pct_seguro_privado":4,"brecha_seguro":-2,"pct_med_tradicional":11,"pct_automedicacion":16,"pct_remedios_caseros":23,"pct_viv_desocupada":0,"pct_alquiler":14,"pct_electricidad":100,"pct_agua_red":91,"pct_alcantarillado":0,"pct_gas_red":59,"pct_gas_garrafa":27,"pct_lena_guano":27,"pct_basura_formal":77,"pct_basura_quema":23,"pct_basura_informal":0,"pct_internet":86,"pct_celular":100,"pct_televisor":86}},{"type":"Feature","geometry":{"type":"Polygon","coordinates":[[[-65.20363,-21.24971],[-65.20327,-21.24967],[-65.20362,-21.24976],[-65.20358,-21.25004],[-65.2033,-21.25],[-65.20313,-21.2495],[-65.20317,-21.24919],[-65.20366,-21.24925],[-65.20363,-21.24971]]]},"properties":{"n":"SEPTAPAS","p":21,"personas_x_ha":53,"masculinidad":110,"pct_menor20":52,"pct_60mas":5,"pct_migrante":38,"dependencia_econ":162,"pct_empleados":50,"pct_cuentapropia":38,"pct_agricultura":12,"pct_comercio":12,"pct_manufactura":12,"pct_construccion":25,"pct_transporte":25,"pct_alojamiento":0,"pct_educ_superior":9,"brecha_educ":-7,"pct_sin_seguro":0,"pct_seguro_privado":0,"brecha_seguro":0,"pct_med_tradicional":14,"pct_automedicacion":18,"pct_remedios_caseros":17,"pct_viv_desocupada":0,"pct_alquiler":0,"pct_electricidad":100,"pct_agua_red":29,"pct_alcantarillado":29,"pct_gas_red":71,"pct_gas_garrafa":29,"pct_lena_guano":29,"pct_basura_formal":57,"pct_basura_quema":43,"pct_basura_informal":0,"pct_internet":57,"pct_celular":57,"pct_televisor":57}}]}