{"type":"FeatureCollection","features":[{"type":"Feature","geometry":{"type":"Polygon","coordinates":[[[-64.23166,-21.18431],[-64.23146,-21.18425],[-64.23129,-21.18476],[-64.23095,-21.18509],[-64.23104,-21.18542],[-64.23179,-21.18521],[-64.23166,-21.18431]]]},"properties":{"n":"COMUNIDAD SAN JOSECITO CENTRO","p":17,"personas_x_ha":27,"masculinidad":143,"pct_menor20":35,"pct_60mas":29,"pct_migrante":29,"dependencia_econ":55,"pct_empleados":0,"pct_cuentapropia":55,"pct_agricultura":82,"pct_comercio":0,"pct_manufactura":0,"pct_construccion":0,"pct_transporte":9,"pct_alojamiento":9,"pct_educ_superior":8,"brecha_educ":10,"pct_sin_seguro":12,"pct_seguro_privado":0,"brecha_seguro":-4,"pct_med_tradicional":2,"pct_automedicacion":19,"pct_remedios_caseros":35,"pct_viv_desocupada":14,"pct_alquiler":0,"pct_electricidad":100,"pct_agua_red":100,"pct_alcantarillado":0,"pct_gas_red":0,"pct_gas_garrafa":60,"pct_lena_guano":60,"pct_basura_formal":0,"pct_basura_quema":80,"pct_basura_informal":0,"pct_internet":60,"pct_celular":60,"pct_televisor":40}},{"type":"Feature","geometry":{"type":"Polygon","coordinates":[[[-64.23235,-21.18625],[-64.23207,-21.18519],[-64.23106,-21.18549],[-64.23167,-21.18711],[-64.23191,-21.18706],[-64.23185,-21.18672],[-64.23191,-21.18643],[-64.23211,-21.18627],[-64.23235,-21.18625]]]},"properties":{"n":"COMUNIDAD SAN JOSECITO CENTRO","p":25,"personas_x_ha":17,"masculinidad":67,"pct_menor20":32,"pct_60mas":20,"pct_migrante":24,"dependencia_econ":150,"pct_empleados":10,"pct_cuentapropia":80,"pct_agricultura":80,"pct_comercio":20,"pct_manufactura":0,"pct_construccion":0,"pct_transporte":0,"pct_alojamiento":0,"pct_educ_superior":12,"brecha_educ":9,"pct_sin_seguro":12,"pct_seguro_privado":0,"brecha_seguro":-3,"pct_med_tradicional":2,"pct_automedicacion":0,"pct_remedios_caseros":41,"pct_viv_desocupada":33,"pct_alquiler":0,"pct_electricidad":100,"pct_agua_red":100,"pct_alcantarillado":0,"pct_gas_red":0,"pct_gas_garrafa":100,"pct_lena_guano":100,"pct_basura_formal":0,"pct_basura_quema":62,"pct_basura_informal":25,"pct_internet":88,"pct_celular":88,"pct_televisor":88}},{"type":"Feature","geometry":{"type":"Polygon","coordinates":[[[-64.2302,-21.18623],[-64.2301,-21.18585],[-64.22967,-21.18583],[-64.22984,-21.18674],[-64.23076,-21.18653],[-64.23118,-21.18775],[-64.23172,-21.1876],[-64.23123,-21.18614],[-64.2302,-21.18623]]]},"properties":{"n":"COMUNIDAD SAN JOSECITO CENTRO","p":30,"personas_x_ha":18,"masculinidad":76,"pct_menor20":30,"pct_60mas":10,"pct_migrante":33,"dependencia_econ":58,"pct_empleados":16,"pct_cuentapropia":63,"pct_agricultura":89,"pct_comercio":0,"pct_manufactura":0,"pct_construccion":5,"pct_transporte":0,"pct_alojamiento":5,"pct_educ_superior":5,"brecha_educ":-5,"pct_sin_seguro":11,"pct_seguro_privado":0,"brecha_seguro":-6,"pct_med_tradicional":4,"pct_automedicacion":11,"pct_remedios_caseros":27,"pct_viv_desocupada":0,"pct_alquiler":33,"pct_electricidad":100,"pct_agua_red":100,"pct_alcantarillado":0,"pct_gas_red":0,"pct_gas_garrafa":89,"pct_lena_guano":89,"pct_basura_formal":0,"pct_basura_quema":78,"pct_basura_informal":22,"pct_internet":56,"pct_celular":89,"pct_televisor":78}},{"type":"Feature","geometry":{"type":"Polygon","coordinates":[[[-64.18053,-21.52531],[-64.18055,-21.52482],[-64.17964,-21.52477],[-64.17964,-21.52526],[-64.18053,-21.52531]]]},"properties":{"n":"ENTRE RIOS","p":31,"personas_x_ha":58,"masculinidad":82,"pct_menor20":29,"pct_60mas":10,"pct_migrante":16,"dependencia_econ":121,"pct_empleados":43,"pct_cuentapropia":57,"pct_agricultura":7,"pct_comercio":14,"pct_manufactura":14,"pct_construccion":7,"pct_transporte":29,"pct_alojamiento":0,"pct_educ_superior":42,"brecha_educ":4,"pct_sin_seguro":0,"pct_seguro_privado":0,"brecha_seguro":0,"pct_med_tradicional":0,"pct_automedicacion":30,"pct_remedios_caseros":29,"pct_viv_desocupada":20,"pct_alquiler":12,"pct_electricidad":100,"pct_agua_red":100,"pct_alcantarillado":100,"pct_gas_red":62,"pct_gas_garrafa":38,"pct_lena_guano":38,"pct_basura_formal":100,"pct_basura_quema":0,"pct_basura_informal":0,"pct_internet":100,"pct_celular":100,"pct_televisor":75}},{"type":"Feature","geometry":{"type":"Polygon","coordinates":[[[-64.17119,-21.52177],[-64.17107,-21.5211],[-64.17011,-21.52126],[-64.17026,-21.52195],[-64.17119,-21.52177]]]},"properties":{"n":"ENTRE RIOS","p":17,"personas_x_ha":21,"masculinidad":89,"pct_menor20":53,"pct_60mas":6,"pct_migrante":59,"dependencia_econ":143,"pct_empleados":0,"pct_cuentapropia":86,"pct_agricultura":14,"pct_comercio":29,"pct_manufactura":14,"pct_construccion":14,"pct_transporte":0,"pct_alojamiento":0,"pct_educ_superior":50,"brecha_educ":0,"pct_sin_seguro":6,"pct_seguro_privado":0,"brecha_seguro":12,"pct_med_tradicional":4,"pct_automedicacion":11,"pct_remedios_caseros":15,"pct_viv_desocupada":14,"pct_alquiler":60,"pct_electricidad":100,"pct_agua_red":100,"pct_alcantarillado":40,"pct_gas_red":40,"pct_gas_garrafa":60,"pct_lena_guano":60,"pct_basura_formal":100,"pct_basura_quema":0,"pct_basura_informal":0,"pct_internet":40,"pct_celular":80,"pct_televisor":80}},{"type":"Feature","geometry":{"type":"Polygon","coordinates":[[[-64.17373,-21.52537],[-64.17302,-21.52543],[-64.17298,-21.52608],[-64.17372,-21.52604],[-64.17373,-21.52537]]]},"properties":{"n":"ENTRE RIOS","p":30,"personas_x_ha":53,"masculinidad":43,"pct_menor20":17,"pct_60mas":27,"pct_migrante":70,"dependencia_econ":36,"pct_empleados":27,"pct_cuentapropia":68,"pct_agricultura":14,"pct_comercio":32,"pct_manufactura":0,"pct_construccion":5,"pct_transporte":0,"pct_alojamiento":14,"pct_educ_superior":64,"brecha_educ":-11,"pct_sin_seguro":13,"pct_seguro_privado":0,"brecha_seguro":13,"pct_med_tradicional":9,"pct_automedicacion":13,"pct_remedios_caseros":15,"pct_viv_desocupada":8,"pct_alquiler":25,"pct_electricidad":100,"pct_agua_red":100,"pct_alcantarillado":100,"pct_gas_red":75,"pct_gas_garrafa":25,"pct_lena_guano":25,"pct_basura_formal":100,"pct_basura_quema":0,"pct_basura_informal":0,"pct_internet":67,"pct_celular":67,"pct_televisor":67}},{"type":"Feature","geometry":{"type":"Polygon","coordinates":[[[-64.17211,-21.53167],[-64.17207,-21.53081],[-64.17166,-21.53081],[-64.17168,-21.53169],[-64.17211,-21.53167]]]},"properties":{"n":"ENTRE RIOS","p":45,"personas_x_ha":104,"masculinidad":96,"pct_menor20":29,"pct_60mas":11,"pct_migrante":29,"dependencia_econ":100,"pct_empleados":65,"pct_cuentapropia":35,"pct_agricultura":20,"pct_comercio":25,"pct_manufactura":10,"pct_construccion":10,"pct_transporte":10,"pct_alojamiento":5,"pct_educ_superior":40,"brecha_educ":3,"pct_sin_seguro":20,"pct_seguro_privado":0,"brecha_seguro":-10,"pct_med_tradicional":9,"pct_automedicacion":21,"pct_remedios_caseros":18,"pct_viv_desocupada":5,"pct_alquiler":41,"pct_electricidad":100,"pct_agua_red":100,"pct_alcantarillado":94,"pct_gas_red":35,"pct_gas_garrafa":65,"pct_lena_guano":65,"pct_basura_formal":100,"pct_basura_quema":0,"pct_basura_informal":0,"pct_internet":88,"pct_celular":88,"pct_televisor":65}},{"type":"Feature","geometry":{"type":"Polygon","coordinates":[[[-64.17266,-21.51569],[-64.17208,-21.51574],[-64.17214,-21.51629],[-64.17273,-21.51622],[-64.17266,-21.51569]]]},"properties":{"n":"ENTRE RIOS","p":28,"personas_x_ha":72,"masculinidad":75,"pct_menor20":43,"pct_60mas":4,"pct_migrante":18,"dependencia_econ":250,"pct_empleados":25,"pct_cuentapropia":38,"pct_agricultura":25,"pct_comercio":25,"pct_manufactura":0,"pct_construccion":12,"pct_transporte":0,"pct_alojamiento":0,"pct_educ_superior":50,"brecha_educ":17,"pct_sin_seguro":4,"pct_seguro_privado":0,"brecha_seguro":-6,"pct_med_tradicional":0,"pct_automedicacion":3,"pct_remedios_caseros":0,"pct_viv_desocupada":25,"pct_alquiler":17,"pct_electricidad":100,"pct_agua_red":83,"pct_alcantarillado":0,"pct_gas_red":50,"pct_gas_garrafa":50,"pct_lena_guano":50,"pct_basura_formal":100,"pct_basura_quema":0,"pct_basura_informal":0,"pct_internet":100,"pct_celular":100,"pct_televisor":83}},{"type":"Feature","geometry":{"type":"Polygon","coordinates":[[[-64.17345,-21.52332],[-64.17265,-21.52335],[-64.17255,-21.52385],[-64.17352,-21.52367],[-64.17345,-21.52332]]]},"properties":{"n":"ENTRE RIOS","p":38,"personas_x_ha":80,"masculinidad":100,"pct_menor20":45,"pct_60mas":8,"pct_migrante":55,"dependencia_econ":81,"pct_empleados":24,"pct_cuentapropia":71,"pct_agricultura":14,"pct_comercio":38,"pct_manufactura":10,"pct_construccion":0,"pct_transporte":5,"pct_alojamiento":24,"pct_educ_superior":19,"brecha_educ":-6,"pct_sin_seguro":5,"pct_seguro_privado":0,"brecha_seguro":0,"pct_med_tradicional":9,"pct_automedicacion":19,"pct_remedios_caseros":19,"pct_viv_desocupada":7,"pct_alquiler":45,"pct_electricidad":100,"pct_agua_red":100,"pct_alcantarillado":100,"pct_gas_red":45,"pct_gas_garrafa":45,"pct_lena_guano":45,"pct_basura_formal":100,"pct_basura_quema":0,"pct_basura_informal":0,"pct_internet":82,"pct_celular":82,"pct_televisor":73}},{"type":"Feature","geometry":{"type":"Polygon","coordinates":[[[-64.17892,-21.52594],[-64.17897,-21.52477],[-64.17821,-21.52488],[-64.17795,-21.52592],[-64.17892,-21.52594]]]},"properties":{"n":"ENTRE RIOS","p":44,"personas_x_ha":39,"masculinidad":91,"pct_menor20":45,"pct_60mas":0,"pct_migrante":30,"dependencia_econ":91,"pct_empleados":17,"pct_cuentapropia":74,"pct_agricultura":39,"pct_comercio":17,"pct_manufactura":4,"pct_construccion":13,"pct_transporte":9,"pct_alojamiento":0,"pct_educ_superior":38,"brecha_educ":8,"pct_sin_seguro":0,"pct_seguro_privado":0,"brecha_seguro":0,"pct_med_tradicional":9,"pct_automedicacion":13,"pct_remedios_caseros":29,"pct_viv_desocupada":13,"pct_alquiler":9,"pct_electricidad":100,"pct_agua_red":100,"pct_alcantarillado":27,"pct_gas_red":0,"pct_gas_garrafa":91,"pct_lena_guano":91,"pct_basura_formal":91,"pct_basura_quema":9,"pct_basura_informal":0,"pct_internet":100,"pct_celular":100,"pct_televisor":91}},{"type":"Feature","geometry":{"type":"Polygon","coordinates":[[[-64.17042,-21.52984],[-64.17106,-21.53072],[-64.17098,-21.52866],[-64.17078,-21.52871],[-64.17061,-21.52926],[-64.17026,-21.52939],[-64.17026,-21.52978],[-64.17042,-21.52984]]]},"properties":{"n":"ENTRE RIOS","p":31,"personas_x_ha":32,"masculinidad":82,"pct_menor20":29,"pct_60mas":13,"pct_migrante":52,"dependencia_econ":94,"pct_empleados":44,"pct_cuentapropia":38,"pct_agricultura":12,"pct_comercio":25,"pct_manufactura":6,"pct_construccion":6,"pct_transporte":6,"pct_alojamiento":0,"pct_educ_superior":42,"brecha_educ":7,"pct_sin_seguro":10,"pct_seguro_privado":0,"brecha_seguro":8,"pct_med_tradicional":17,"pct_automedicacion":15,"pct_remedios_caseros":26,"pct_viv_desocupada":7,"pct_alquiler":17,"pct_electricidad":100,"pct_agua_red":100,"pct_alcantarillado":100,"pct_gas_red":25,"pct_gas_garrafa":75,"pct_lena_guano":75,"pct_basura_formal":100,"pct_basura_quema":0,"pct_basura_informal":0,"pct_internet":100,"pct_celular":92,"pct_televisor":67}},{"type":"Feature","geometry":{"type":"Polygon","coordinates":[[[-64.17334,-21.52325],[-64.1734,-21.52125],[-64.17299,-21.52199],[-64.17269,-21.52326],[-64.17334,-21.52325]]]},"properties":{"n":"ENTRE RIOS","p":44,"personas_x_ha":47,"masculinidad":83,"pct_menor20":30,"pct_60mas":5,"pct_migrante":43,"dependencia_econ":47,"pct_empleados":37,"pct_cuentapropia":57,"pct_agricultura":3,"pct_comercio":37,"pct_manufactura":3,"pct_construccion":3,"pct_transporte":7,"pct_alojamiento":13,"pct_educ_superior":55,"brecha_educ":-14,"pct_sin_seguro":12,"pct_seguro_privado":0,"brecha_seguro":7,"pct_med_tradicional":14,"pct_automedicacion":25,"pct_remedios_caseros":23,"pct_viv_desocupada":0,"pct_alquiler":25,"pct_electricidad":100,"pct_agua_red":83,"pct_alcantarillado":92,"pct_gas_red":33,"pct_gas_garrafa":67,"pct_lena_guano":67,"pct_basura_formal":100,"pct_basura_quema":0,"pct_basura_informal":0,"pct_internet":75,"pct_celular":92,"pct_televisor":75}},{"type":"Feature","geometry":{"type":"Polygon","coordinates":[[[-64.1769,-21.52859],[-64.17474,-21.52861],[-64.17473,-21.52964],[-64.17695,-21.52964],[-64.17694,-21.5291],[-64.17603,-21.52911],[-64.17694,-21.52908],[-64.1769,-21.52859]]]},"properties":{"n":"ENTRE RIOS","p":64,"personas_x_ha":25,"masculinidad":68,"pct_menor20":39,"pct_60mas":3,"pct_migrante":33,"dependencia_econ":68,"pct_empleados":47,"pct_cuentapropia":37,"pct_agricultura":5,"pct_comercio":16,"pct_manufactura":5,"pct_construccion":21,"pct_transporte":11,"pct_alojamiento":11,"pct_educ_superior":38,"brecha_educ":23,"pct_sin_seguro":2,"pct_seguro_privado":0,"brecha_seguro":-3,"pct_med_tradicional":14,"pct_automedicacion":19,"pct_remedios_caseros":21,"pct_viv_desocupada":8,"pct_alquiler":6,"pct_electricidad":100,"pct_agua_red":100,"pct_alcantarillado":100,"pct_gas_red":22,"pct_gas_garrafa":78,"pct_lena_guano":78,"pct_basura_formal":94,"pct_basura_quema":6,"pct_basura_informal":0,"pct_internet":83,"pct_celular":89,"pct_televisor":78}},{"type":"Feature","geometry":{"type":"Polygon","coordinates":[[[-64.1821,-21.52688],[-64.18226,-21.52515],[-64.18176,-21.52509],[-64.18168,-21.52582],[-64.18109,-21.5258],[-64.18099,-21.52679],[-64.1821,-21.52688]]]},"properties":{"n":"ENTRE RIOS","p":50,"personas_x_ha":29,"masculinidad":79,"pct_menor20":34,"pct_60mas":8,"pct_migrante":20,"dependencia_econ":88,"pct_empleados":38,"pct_cuentapropia":58,"pct_agricultura":15,"pct_comercio":38,"pct_manufactura":15,"pct_construccion":12,"pct_transporte":8,"pct_alojamiento":4,"pct_educ_superior":25,"brecha_educ":-1,"pct_sin_seguro":2,"pct_seguro_privado":0,"brecha_seguro":5,"pct_med_tradicional":15,"pct_automedicacion":20,"pct_remedios_caseros":23,"pct_viv_desocupada":0,"pct_alquiler":25,"pct_electricidad":100,"pct_agua_red":100,"pct_alcantarillado":6,"pct_gas_red":38,"pct_gas_garrafa":62,"pct_lena_guano":62,"pct_basura_formal":94,"pct_basura_quema":6,"pct_basura_informal":0,"pct_internet":56,"pct_celular":94,"pct_televisor":94}},{"type":"Feature","geometry":{"type":"Polygon","coordinates":[[[-64.17117,-21.53169],[-64.1716,-21.53167],[-64.17159,-21.53081],[-64.17115,-21.53083],[-64.17117,-21.53169]]]},"properties":{"n":"ENTRE RIOS","p":43,"personas_x_ha":96,"masculinidad":54,"pct_menor20":40,"pct_60mas":12,"pct_migrante":44,"dependencia_econ":169,"pct_empleados":38,"pct_cuentapropia":56,"pct_agricultura":12,"pct_comercio":31,"pct_manufactura":0,"pct_construccion":19,"pct_transporte":6,"pct_alojamiento":19,"pct_educ_superior":23,"brecha_educ":9,"pct_sin_seguro":5,"pct_seguro_privado":0,"brecha_seguro":3,"pct_med_tradicional":13,"pct_automedicacion":24,"pct_remedios_caseros":24,"pct_viv_desocupada":8,"pct_alquiler":27,"pct_electricidad":100,"pct_agua_red":93,"pct_alcantarillado":100,"pct_gas_red":47,"pct_gas_garrafa":53,"pct_lena_guano":53,"pct_basura_formal":100,"pct_basura_quema":0,"pct_basura_informal":0,"pct_internet":87,"pct_celular":87,"pct_televisor":87}},{"type":"Feature","geometry":{"type":"Polygon","coordinates":[[[-64.17631,-21.52448],[-64.17748,-21.52436],[-64.17752,-21.52383],[-64.17639,-21.52374],[-64.17631,-21.52448]]]},"properties":{"n":"ENTRE RIOS","p":32,"personas_x_ha":37,"masculinidad":88,"pct_menor20":34,"pct_60mas":9,"pct_migrante":44,"dependencia_econ":113,"pct_empleados":47,"pct_cuentapropia":47,"pct_agricultura":7,"pct_comercio":7,"pct_manufactura":0,"pct_construccion":0,"pct_transporte":20,"pct_alojamiento":20,"pct_educ_superior":52,"brecha_educ":-26,"pct_sin_seguro":0,"pct_seguro_privado":0,"brecha_seguro":0,"pct_med_tradicional":19,"pct_automedicacion":21,"pct_remedios_caseros":20,"pct_viv_desocupada":0,"pct_alquiler":0,"pct_electricidad":100,"pct_agua_red":100,"pct_alcantarillado":11,"pct_gas_red":33,"pct_gas_garrafa":67,"pct_lena_guano":67,"pct_basura_formal":100,"pct_basura_quema":0,"pct_basura_informal":0,"pct_internet":100,"pct_celular":100,"pct_televisor":89}},{"type":"Feature","geometry":{"type":"Polygon","coordinates":[[[-64.1763,-21.52374],[-64.17532,-21.52387],[-64.17556,-21.52436],[-64.17583,-21.52402],[-64.17558,-21.52439],[-64.17591,-21.52505],[-64.17621,-21.52499],[-64.17616,-21.52459],[-64.1763,-21.52374]]]},"properties":{"n":"ENTRE RIOS","p":43,"personas_x_ha":51,"masculinidad":72,"pct_menor20":35,"pct_60mas":7,"pct_migrante":14,"dependencia_econ":87,"pct_empleados":57,"pct_cuentapropia":39,"pct_agricultura":13,"pct_comercio":22,"pct_manufactura":0,"pct_construccion":17,"pct_transporte":9,"pct_alojamiento":17,"pct_educ_superior":28,"brecha_educ":-4,"pct_sin_seguro":5,"pct_seguro_privado":0,"brecha_seguro":1,"pct_med_tradicional":12,"pct_automedicacion":21,"pct_remedios_caseros":26,"pct_viv_desocupada":0,"pct_alquiler":8,"pct_electricidad":100,"pct_agua_red":100,"pct_alcantarillado":58,"pct_gas_red":33,"pct_gas_garrafa":58,"pct_lena_guano":58,"pct_basura_formal":100,"pct_basura_quema":0,"pct_basura_informal":0,"pct_internet":75,"pct_celular":75,"pct_televisor":92}},{"type":"Feature","geometry":{"type":"Polygon","coordinates":[[[-64.17145,-21.52765],[-64.17208,-21.5276],[-64.17209,-21.52695],[-64.17146,-21.527],[-64.17145,-21.52765]]]},"properties":{"n":"ENTRE RIOS","p":45,"personas_x_ha":88,"masculinidad":61,"pct_menor20":29,"pct_60mas":24,"pct_migrante":53,"dependencia_econ":73,"pct_empleados":54,"pct_cuentapropia":46,"pct_agricultura":4,"pct_comercio":23,"pct_manufactura":4,"pct_construccion":0,"pct_transporte":8,"pct_alojamiento":8,"pct_educ_superior":78,"brecha_educ":-8,"pct_sin_seguro":13,"pct_seguro_privado":0,"brecha_seguro":-3,"pct_med_tradicional":14,"pct_automedicacion":17,"pct_remedios_caseros":23,"pct_viv_desocupada":5,"pct_alquiler":25,"pct_electricidad":100,"pct_agua_red":100,"pct_alcantarillado":100,"pct_gas_red":62,"pct_gas_garrafa":31,"pct_lena_guano":31,"pct_basura_formal":100,"pct_basura_quema":0,"pct_basura_informal":0,"pct_internet":81,"pct_celular":88,"pct_televisor":88}},{"type":"Feature","geometry":{"type":"Polygon","coordinates":[[[-64.17371,-21.52691],[-64.17299,-21.52695],[-64.17299,-21.52755],[-64.17376,-21.52753],[-64.17371,-21.52691]]]},"properties":{"n":"ENTRE RIOS","p":24,"personas_x_ha":43,"masculinidad":85,"pct_menor20":25,"pct_60mas":21,"pct_migrante":42,"dependencia_econ":41,"pct_empleados":24,"pct_cuentapropia":65,"pct_agricultura":0,"pct_comercio":24,"pct_manufactura":18,"pct_construccion":6,"pct_transporte":0,"pct_alojamiento":6,"pct_educ_superior":56,"brecha_educ":-15,"pct_sin_seguro":0,"pct_seguro_privado":0,"brecha_seguro":0,"pct_med_tradicional":13,"pct_automedicacion":18,"pct_remedios_caseros":18,"pct_viv_desocupada":0,"pct_alquiler":50,"pct_electricidad":100,"pct_agua_red":100,"pct_alcantarillado":88,"pct_gas_red":38,"pct_gas_garrafa":38,"pct_lena_guano":38,"pct_basura_formal":100,"pct_basura_quema":0,"pct_basura_informal":0,"pct_internet":88,"pct_celular":100,"pct_televisor":88}},{"type":"Feature","geometry":{"type":"Polygon","coordinates":[[[-64.17463,-21.52964],[-64.17465,-21.52862],[-64.17393,-21.5286],[-64.174,-21.52966],[-64.17463,-21.52964]]]},"properties":{"n":"ENTRE RIOS","p":85,"personas_x_ha":100,"masculinidad":77,"pct_menor20":35,"pct_60mas":11,"pct_migrante":32,"dependencia_econ":130,"pct_empleados":65,"pct_cuentapropia":35,"pct_agricultura":14,"pct_comercio":22,"pct_manufactura":3,"pct_construccion":5,"pct_transporte":5,"pct_alojamiento":3,"pct_educ_superior":41,"brecha_educ":9,"pct_sin_seguro":6,"pct_seguro_privado":1,"brecha_seguro":-5,"pct_med_tradicional":10,"pct_automedicacion":15,"pct_remedios_caseros":25,"pct_viv_desocupada":11,"pct_alquiler":35,"pct_electricidad":100,"pct_agua_red":100,"pct_alcantarillado":97,"pct_gas_red":35,"pct_gas_garrafa":55,"pct_lena_guano":55,"pct_basura_formal":97,"pct_basura_quema":0,"pct_basura_informal":6,"pct_internet":68,"pct_celular":74,"pct_televisor":55}},{"type":"Feature","geometry":{"type":"Polygon","coordinates":[[[-64.17386,-21.52432],[-64.17381,-21.52527],[-64.17481,-21.52515],[-64.17463,-21.52335],[-64.17369,-21.52352],[-64.17386,-21.52432]]]},"properties":{"n":"ENTRE RIOS","p":66,"personas_x_ha":34,"masculinidad":83,"pct_menor20":27,"pct_60mas":21,"pct_migrante":41,"dependencia_econ":91,"pct_empleados":50,"pct_cuentapropia":35,"pct_agricultura":12,"pct_comercio":21,"pct_manufactura":18,"pct_construccion":9,"pct_transporte":6,"pct_alojamiento":6,"pct_educ_superior":45,"brecha_educ":-14,"pct_sin_seguro":10,"pct_seguro_privado":0,"brecha_seguro":15,"pct_med_tradicional":12,"pct_automedicacion":20,"pct_remedios_caseros":24,"pct_viv_desocupada":0,"pct_alquiler":28,"pct_electricidad":100,"pct_agua_red":100,"pct_alcantarillado":96,"pct_gas_red":44,"pct_gas_garrafa":52,"pct_lena_guano":52,"pct_basura_formal":100,"pct_basura_quema":0,"pct_basura_informal":0,"pct_internet":92,"pct_celular":100,"pct_televisor":84}},{"type":"Feature","geometry":{"type":"Polygon","coordinates":[[[-64.17292,-21.52544],[-64.17227,-21.52548],[-64.17225,-21.52613],[-64.17292,-21.52611],[-64.17292,-21.52544]]]},"properties":{"n":"ENTRE RIOS","p":28,"personas_x_ha":55,"masculinidad":75,"pct_menor20":25,"pct_60mas":25,"pct_migrante":32,"dependencia_econ":100,"pct_empleados":21,"pct_cuentapropia":43,"pct_agricultura":0,"pct_comercio":21,"pct_manufactura":0,"pct_construccion":7,"pct_transporte":14,"pct_alojamiento":29,"pct_educ_superior":36,"brecha_educ":-20,"pct_sin_seguro":11,"pct_seguro_privado":4,"brecha_seguro":10,"pct_med_tradicional":8,"pct_automedicacion":22,"pct_remedios_caseros":19,"pct_viv_desocupada":16,"pct_alquiler":33,"pct_electricidad":100,"pct_agua_red":100,"pct_alcantarillado":100,"pct_gas_red":67,"pct_gas_garrafa":33,"pct_lena_guano":33,"pct_basura_formal":100,"pct_basura_quema":0,"pct_basura_informal":0,"pct_internet":100,"pct_celular":100,"pct_televisor":75}},{"type":"Feature","geometry":{"type":"Polygon","coordinates":[[[-64.17363,-21.52379],[-64.1732,-21.52389],[-64.17315,-21.52442],[-64.17229,-21.52451],[-64.17223,-21.52465],[-64.1723,-21.52539],[-64.17369,-21.52526],[-64.17377,-21.52435],[-64.17363,-21.52379]]]},"properties":{"n":"ENTRE RIOS","p":192,"personas_x_ha":105,"masculinidad":191,"pct_menor20":19,"pct_60mas":13,"pct_migrante":57,"dependencia_econ":42,"pct_empleados":49,"pct_cuentapropia":47,"pct_agricultura":5,"pct_comercio":18,"pct_manufactura":20,"pct_construccion":4,"pct_transporte":5,"pct_alojamiento":4,"pct_educ_superior":59,"brecha_educ":5,"pct_sin_seguro":11,"pct_seguro_privado":1,"brecha_seguro":-6,"pct_med_tradicional":9,"pct_automedicacion":17,"pct_remedios_caseros":20,"pct_viv_desocupada":3,"pct_alquiler":22,"pct_electricidad":100,"pct_agua_red":100,"pct_alcantarillado":97,"pct_gas_red":66,"pct_gas_garrafa":31,"pct_lena_guano":31,"pct_basura_formal":100,"pct_basura_quema":0,"pct_basura_informal":0,"pct_internet":97,"pct_celular":97,"pct_televisor":97}},{"type":"Feature","geometry":{"type":"Polygon","coordinates":[[[-64.17212,-21.52481],[-64.17125,-21.52505],[-64.17126,-21.52545],[-64.1722,-21.5254],[-64.17212,-21.52481]]]},"properties":{"n":"ENTRE RIOS","p":42,"personas_x_ha":74,"masculinidad":121,"pct_menor20":19,"pct_60mas":29,"pct_migrante":26,"dependencia_econ":233,"pct_empleados":25,"pct_cuentapropia":58,"pct_agricultura":50,"pct_comercio":25,"pct_manufactura":0,"pct_construccion":0,"pct_transporte":8,"pct_alojamiento":0,"pct_educ_superior":44,"brecha_educ":-16,"pct_sin_seguro":20,"pct_seguro_privado":0,"brecha_seguro":8,"pct_med_tradicional":7,"pct_automedicacion":13,"pct_remedios_caseros":19,"pct_viv_desocupada":19,"pct_alquiler":15,"pct_electricidad":100,"pct_agua_red":100,"pct_alcantarillado":100,"pct_gas_red":69,"pct_gas_garrafa":23,"pct_lena_guano":23,"pct_basura_formal":100,"pct_basura_quema":0,"pct_basura_informal":0,"pct_internet":100,"pct_celular":100,"pct_televisor":85}},{"type":"Feature","geometry":{"type":"Polygon","coordinates":[[[-64.17384,-21.52673],[-64.17471,-21.52671],[-64.17472,-21.52607],[-64.17383,-21.5261],[-64.17384,-21.52673]]]},"properties":{"n":"ENTRE RIOS","p":23,"personas_x_ha":34,"masculinidad":130,"pct_menor20":30,"pct_60mas":26,"pct_migrante":13,"dependencia_econ":77,"pct_empleados":15,"pct_cuentapropia":85,"pct_agricultura":23,"pct_comercio":46,"pct_manufactura":0,"pct_construccion":15,"pct_transporte":0,"pct_alojamiento":8,"pct_educ_superior":19,"brecha_educ":-44,"pct_sin_seguro":4,"pct_seguro_privado":0,"brecha_seguro":-10,"pct_med_tradicional":8,"pct_automedicacion":16,"pct_remedios_caseros":22,"pct_viv_desocupada":0,"pct_alquiler":25,"pct_electricidad":100,"pct_agua_red":75,"pct_alcantarillado":100,"pct_gas_red":50,"pct_gas_garrafa":50,"pct_lena_guano":50,"pct_basura_formal":100,"pct_basura_quema":0,"pct_basura_informal":0,"pct_internet":62,"pct_celular":88,"pct_televisor":100}},{"type":"Feature","geometry":{"type":"Polygon","coordinates":[[[-64.17044,-21.52358],[-64.16929,-21.5237],[-64.16936,-21.52425],[-64.17052,-21.52416],[-64.17044,-21.52358]]]},"properties":{"n":"ENTRE RIOS","p":29,"personas_x_ha":36,"masculinidad":107,"pct_menor20":31,"pct_60mas":10,"pct_migrante":45,"dependencia_econ":93,"pct_empleados":33,"pct_cuentapropia":60,"pct_agricultura":13,"pct_comercio":47,"pct_manufactura":0,"pct_construccion":7,"pct_transporte":7,"pct_alojamiento":0,"pct_educ_superior":45,"brecha_educ":-16,"pct_sin_seguro":7,"pct_seguro_privado":0,"brecha_seguro":0,"pct_med_tradicional":6,"pct_automedicacion":21,"pct_remedios_caseros":9,"pct_viv_desocupada":0,"pct_alquiler":40,"pct_electricidad":100,"pct_agua_red":90,"pct_alcantarillado":50,"pct_gas_red":40,"pct_gas_garrafa":60,"pct_lena_guano":60,"pct_basura_formal":100,"pct_basura_quema":0,"pct_basura_informal":0,"pct_internet":90,"pct_celular":100,"pct_televisor":90}},{"type":"Feature","geometry":{"type":"Polygon","coordinates":[[[-64.16824,-21.5325],[-64.16739,-21.53328],[-64.16691,-21.53443],[-64.16693,-21.53671],[-64.1672,-21.53631],[-64.16802,-21.53657],[-64.16943,-21.53382],[-64.17128,-21.53258],[-64.17131,-21.53245],[-64.17108,-21.53174],[-64.17108,-21.53102],[-64.17033,-21.52987],[-64.17022,-21.52987],[-64.17022,-21.53094],[-64.17014,-21.53113],[-64.16995,-21.53126],[-64.16853,-21.53175],[-64.16824,-21.5325]]]},"properties":{"n":"ENTRE RIOS","p":60,"personas_x_ha":4,"masculinidad":107,"pct_menor20":45,"pct_60mas":8,"pct_migrante":35,"dependencia_econ":142,"pct_empleados":33,"pct_cuentapropia":54,"pct_agricultura":25,"pct_comercio":17,"pct_manufactura":4,"pct_construccion":12,"pct_transporte":12,"pct_alojamiento":8,"pct_educ_superior":16,"brecha_educ":-6,"pct_sin_seguro":5,"pct_seguro_privado":0,"brecha_seguro":3,"pct_med_tradicional":14,"pct_automedicacion":23,"pct_remedios_caseros":24,"pct_viv_desocupada":6,"pct_alquiler":24,"pct_electricidad":100,"pct_agua_red":100,"pct_alcantarillado":47,"pct_gas_red":29,"pct_gas_garrafa":65,"pct_lena_guano":65,"pct_basura_formal":100,"pct_basura_quema":0,"pct_basura_informal":0,"pct_internet":94,"pct_celular":100,"pct_televisor":76}},{"type":"Feature","geometry":{"type":"Polygon","coordinates":[[[-64.17032,-21.52658],[-64.17021,-21.52769],[-64.17072,-21.52765],[-64.17074,-21.52627],[-64.17042,-21.52642],[-64.17032,-21.52658]]]},"properties":{"n":"ENTRE RIOS","p":26,"personas_x_ha":38,"masculinidad":100,"pct_menor20":31,"pct_60mas":23,"pct_migrante":50,"dependencia_econ":92,"pct_empleados":46,"pct_cuentapropia":31,"pct_agricultura":0,"pct_comercio":38,"pct_manufactura":8,"pct_construccion":0,"pct_transporte":8,"pct_alojamiento":0,"pct_educ_superior":53,"brecha_educ":-1,"pct_sin_seguro":0,"pct_seguro_privado":0,"brecha_seguro":0,"pct_med_tradicional":9,"pct_automedicacion":17,"pct_remedios_caseros":24,"pct_viv_desocupada":0,"pct_alquiler":9,"pct_electricidad":100,"pct_agua_red":100,"pct_alcantarillado":73,"pct_gas_red":73,"pct_gas_garrafa":27,"pct_lena_guano":27,"pct_basura_formal":100,"pct_basura_quema":0,"pct_basura_informal":0,"pct_internet":100,"pct_celular":100,"pct_televisor":73}},{"type":"Feature","geometry":{"type":"Polygon","coordinates":[[[-64.17558,-21.53039],[-64.17639,-21.53021],[-64.17686,-21.52997],[-64.17684,-21.52977],[-64.17473,-21.52975],[-64.17474,-21.53037],[-64.17558,-21.53039]]]},"properties":{"n":"ENTRE RIOS","p":116,"personas_x_ha":85,"masculinidad":97,"pct_menor20":29,"pct_60mas":9,"pct_migrante":31,"dependencia_econ":132,"pct_empleados":48,"pct_cuentapropia":38,"pct_agricultura":22,"pct_comercio":10,"pct_manufactura":4,"pct_construccion":18,"pct_transporte":6,"pct_alojamiento":12,"pct_educ_superior":39,"brecha_educ":10,"pct_sin_seguro":4,"pct_seguro_privado":0,"brecha_seguro":5,"pct_med_tradicional":14,"pct_automedicacion":20,"pct_remedios_caseros":21,"pct_viv_desocupada":3,"pct_alquiler":22,"pct_electricidad":100,"pct_agua_red":100,"pct_alcantarillado":100,"pct_gas_red":34,"pct_gas_garrafa":62,"pct_lena_guano":62,"pct_basura_formal":100,"pct_basura_quema":0,"pct_basura_informal":0,"pct_internet":84,"pct_celular":88,"pct_televisor":75}},{"type":"Feature","geometry":{"type":"Polygon","coordinates":[[[-64.18034,-21.52797],[-64.18034,-21.52748],[-64.17895,-21.52752],[-64.17981,-21.52875],[-64.17978,-21.5297],[-64.18026,-21.52976],[-64.18034,-21.52801],[-64.17966,-21.52806],[-64.17966,-21.52801],[-64.18034,-21.52797]]]},"properties":{"n":"ENTRE RIOS","p":60,"personas_x_ha":32,"masculinidad":114,"pct_menor20":43,"pct_60mas":5,"pct_migrante":47,"dependencia_econ":136,"pct_empleados":20,"pct_cuentapropia":52,"pct_agricultura":20,"pct_comercio":16,"pct_manufactura":8,"pct_construccion":12,"pct_transporte":8,"pct_alojamiento":20,"pct_educ_superior":35,"brecha_educ":12,"pct_sin_seguro":3,"pct_seguro_privado":2,"brecha_seguro":6,"pct_med_tradicional":10,"pct_automedicacion":19,"pct_remedios_caseros":21,"pct_viv_desocupada":5,"pct_alquiler":13,"pct_electricidad":93,"pct_agua_red":100,"pct_alcantarillado":80,"pct_gas_red":47,"pct_gas_garrafa":53,"pct_lena_guano":53,"pct_basura_formal":93,"pct_basura_quema":7,"pct_basura_informal":0,"pct_internet":100,"pct_celular":100,"pct_televisor":73}},{"type":"Feature","geometry":{"type":"Polygon","coordinates":[[[-64.18031,-21.52987],[-64.17874,-21.52978],[-64.17868,-21.53026],[-64.18034,-21.53062],[-64.18149,-21.5306],[-64.18204,-21.53043],[-64.18235,-21.5302],[-64.18241,-21.52978],[-64.18221,-21.52913],[-64.1822,-21.52873],[-64.18225,-21.52842],[-64.1826,-21.52788],[-64.18201,-21.52751],[-64.18154,-21.52813],[-64.1814,-21.52965],[-64.18069,-21.5296],[-64.1805,-21.52982],[-64.18031,-21.52987]]]},"properties":{"n":"ENTRE RIOS","p":60,"personas_x_ha":12,"masculinidad":114,"pct_menor20":55,"pct_60mas":5,"pct_migrante":25,"dependencia_econ":168,"pct_empleados":64,"pct_cuentapropia":36,"pct_agricultura":5,"pct_comercio":14,"pct_manufactura":9,"pct_construccion":23,"pct_transporte":9,"pct_alojamiento":14,"pct_educ_superior":18,"brecha_educ":6,"pct_sin_seguro":7,"pct_seguro_privado":0,"brecha_seguro":12,"pct_med_tradicional":13,"pct_automedicacion":18,"pct_remedios_caseros":24,"pct_viv_desocupada":0,"pct_alquiler":0,"pct_electricidad":93,"pct_agua_red":87,"pct_alcantarillado":67,"pct_gas_red":7,"pct_gas_garrafa":87,"pct_lena_guano":87,"pct_basura_formal":93,"pct_basura_quema":7,"pct_basura_informal":0,"pct_internet":67,"pct_celular":80,"pct_televisor":73}},{"type":"Feature","geometry":{"type":"Polygon","coordinates":[[[-64.17892,-21.52465],[-64.18057,-21.52472],[-64.18056,-21.52427],[-64.17903,-21.52415],[-64.17884,-21.52424],[-64.17886,-21.52462],[-64.17892,-21.52465]]]},"properties":{"n":"ENTRE RIOS","p":62,"personas_x_ha":64,"masculinidad":100,"pct_menor20":47,"pct_60mas":10,"pct_migrante":42,"dependencia_econ":170,"pct_empleados":39,"pct_cuentapropia":43,"pct_agricultura":22,"pct_comercio":35,"pct_manufactura":0,"pct_construccion":9,"pct_transporte":4,"pct_alojamiento":0,"pct_educ_superior":41,"brecha_educ":-9,"pct_sin_seguro":3,"pct_seguro_privado":0,"brecha_seguro":6,"pct_med_tradicional":11,"pct_automedicacion":16,"pct_remedios_caseros":21,"pct_viv_desocupada":0,"pct_alquiler":24,"pct_electricidad":94,"pct_agua_red":94,"pct_alcantarillado":47,"pct_gas_red":41,"pct_gas_garrafa":53,"pct_lena_guano":53,"pct_basura_formal":100,"pct_basura_quema":0,"pct_basura_informal":0,"pct_internet":88,"pct_celular":94,"pct_televisor":94}},{"type":"Feature","geometry":{"type":"Polygon","coordinates":[[[-64.17219,-21.52761],[-64.17292,-21.52756],[-64.17291,-21.52691],[-64.17221,-21.52694],[-64.17219,-21.52761]]]},"properties":{"n":"ENTRE RIOS","p":34,"personas_x_ha":60,"masculinidad":62,"pct_menor20":18,"pct_60mas":41,"pct_migrante":24,"dependencia_econ":55,"pct_empleados":41,"pct_cuentapropia":55,"pct_agricultura":32,"pct_comercio":23,"pct_manufactura":0,"pct_construccion":0,"pct_transporte":9,"pct_alojamiento":5,"pct_educ_superior":55,"brecha_educ":21,"pct_sin_seguro":0,"pct_seguro_privado":0,"brecha_seguro":0,"pct_med_tradicional":12,"pct_automedicacion":21,"pct_remedios_caseros":20,"pct_viv_desocupada":13,"pct_alquiler":7,"pct_electricidad":100,"pct_agua_red":100,"pct_alcantarillado":100,"pct_gas_red":50,"pct_gas_garrafa":50,"pct_lena_guano":50,"pct_basura_formal":100,"pct_basura_quema":0,"pct_basura_informal":0,"pct_internet":57,"pct_celular":93,"pct_televisor":93}},{"type":"Feature","geometry":{"type":"Polygon","coordinates":[[[-64.18097,-21.52692],[-64.1811,-21.527],[-64.18097,-21.52695],[-64.18095,-21.5272],[-64.18202,-21.52733],[-64.1821,-21.52724],[-64.18211,-21.52695],[-64.18099,-21.52685],[-64.18097,-21.52692]]]},"properties":{"n":"ENTRE RIOS","p":24,"personas_x_ha":50,"masculinidad":140,"pct_menor20":42,"pct_60mas":4,"pct_migrante":38,"dependencia_econ":118,"pct_empleados":64,"pct_cuentapropia":36,"pct_agricultura":0,"pct_comercio":18,"pct_manufactura":9,"pct_construccion":18,"pct_transporte":0,"pct_alojamiento":0,"pct_educ_superior":50,"brecha_educ":11,"pct_sin_seguro":12,"pct_seguro_privado":0,"brecha_seguro":21,"pct_med_tradicional":14,"pct_automedicacion":24,"pct_remedios_caseros":29,"pct_viv_desocupada":0,"pct_alquiler":14,"pct_electricidad":100,"pct_agua_red":100,"pct_alcantarillado":57,"pct_gas_red":14,"pct_gas_garrafa":86,"pct_lena_guano":86,"pct_basura_formal":100,"pct_basura_quema":0,"pct_basura_informal":0,"pct_internet":86,"pct_celular":100,"pct_televisor":71}},{"type":"Feature","geometry":{"type":"Polygon","coordinates":[[[-64.17086,-21.52808],[-64.17102,-21.52842],[-64.17128,-21.52843],[-64.17132,-21.52774],[-64.17084,-21.52774],[-64.17086,-21.52808]]]},"properties":{"n":"ENTRE RIOS","p":34,"personas_x_ha":103,"masculinidad":112,"pct_menor20":35,"pct_60mas":3,"pct_migrante":38,"dependencia_econ":100,"pct_empleados":59,"pct_cuentapropia":24,"pct_agricultura":12,"pct_comercio":24,"pct_manufactura":0,"pct_construccion":12,"pct_transporte":0,"pct_alojamiento":6,"pct_educ_superior":50,"brecha_educ":15,"pct_sin_seguro":0,"pct_seguro_privado":0,"brecha_seguro":0,"pct_med_tradicional":11,"pct_automedicacion":26,"pct_remedios_caseros":26,"pct_viv_desocupada":0,"pct_alquiler":22,"pct_electricidad":100,"pct_agua_red":100,"pct_alcantarillado":100,"pct_gas_red":33,"pct_gas_garrafa":67,"pct_lena_guano":67,"pct_basura_formal":100,"pct_basura_quema":0,"pct_basura_informal":0,"pct_internet":100,"pct_celular":100,"pct_televisor":89}},{"type":"Feature","geometry":{"type":"Polygon","coordinates":[[[-64.17224,-21.52623],[-64.17221,-21.52686],[-64.17291,-21.52681],[-64.1729,-21.52618],[-64.17224,-21.52623]]]},"properties":{"n":"ENTRE RIOS","p":43,"personas_x_ha":84,"masculinidad":95,"pct_menor20":21,"pct_60mas":33,"pct_migrante":65,"dependencia_econ":65,"pct_empleados":31,"pct_cuentapropia":50,"pct_agricultura":15,"pct_comercio":42,"pct_manufactura":0,"pct_construccion":0,"pct_transporte":8,"pct_alojamiento":0,"pct_educ_superior":56,"brecha_educ":-10,"pct_sin_seguro":7,"pct_seguro_privado":0,"brecha_seguro":5,"pct_med_tradicional":3,"pct_automedicacion":18,"pct_remedios_caseros":11,"pct_viv_desocupada":5,"pct_alquiler":31,"pct_electricidad":100,"pct_agua_red":100,"pct_alcantarillado":100,"pct_gas_red":75,"pct_gas_garrafa":25,"pct_lena_guano":25,"pct_basura_formal":100,"pct_basura_quema":0,"pct_basura_informal":0,"pct_internet":50,"pct_celular":69,"pct_televisor":69}},{"type":"Feature","geometry":{"type":"Polygon","coordinates":[[[-64.17472,-21.52683],[-64.17387,-21.52684],[-64.17386,-21.52749],[-64.1747,-21.52747],[-64.17472,-21.52683]]]},"properties":{"n":"ENTRE RIOS","p":69,"personas_x_ha":104,"masculinidad":68,"pct_menor20":41,"pct_60mas":10,"pct_migrante":28,"dependencia_econ":176,"pct_empleados":52,"pct_cuentapropia":36,"pct_agricultura":24,"pct_comercio":20,"pct_manufactura":8,"pct_construccion":12,"pct_transporte":20,"pct_alojamiento":4,"pct_educ_superior":27,"brecha_educ":4,"pct_sin_seguro":3,"pct_seguro_privado":0,"brecha_seguro":-5,"pct_med_tradicional":7,"pct_automedicacion":19,"pct_remedios_caseros":21,"pct_viv_desocupada":5,"pct_alquiler":29,"pct_electricidad":100,"pct_agua_red":94,"pct_alcantarillado":100,"pct_gas_red":29,"pct_gas_garrafa":71,"pct_lena_guano":71,"pct_basura_formal":100,"pct_basura_quema":0,"pct_basura_informal":0,"pct_internet":88,"pct_celular":88,"pct_televisor":82}},{"type":"Feature","geometry":{"type":"Polygon","coordinates":[[[-64.17373,-21.52613],[-64.17298,-21.52616],[-64.17298,-21.52679],[-64.17374,-21.52677],[-64.17373,-21.52613]]]},"properties":{"n":"ENTRE RIOS","p":43,"personas_x_ha":73,"masculinidad":72,"pct_menor20":30,"pct_60mas":16,"pct_migrante":56,"dependencia_econ":95,"pct_empleados":32,"pct_cuentapropia":68,"pct_agricultura":9,"pct_comercio":23,"pct_manufactura":5,"pct_construccion":5,"pct_transporte":5,"pct_alojamiento":14,"pct_educ_superior":70,"brecha_educ":-7,"pct_sin_seguro":2,"pct_seguro_privado":0,"brecha_seguro":-4,"pct_med_tradicional":6,"pct_automedicacion":20,"pct_remedios_caseros":21,"pct_viv_desocupada":11,"pct_alquiler":27,"pct_electricidad":100,"pct_agua_red":100,"pct_alcantarillado":100,"pct_gas_red":73,"pct_gas_garrafa":27,"pct_lena_guano":27,"pct_basura_formal":100,"pct_basura_quema":0,"pct_basura_informal":0,"pct_internet":67,"pct_celular":67,"pct_televisor":67}},{"type":"Feature","geometry":{"type":"Polygon","coordinates":[[[-64.1792,-21.52313],[-64.1789,-21.52261],[-64.17813,-21.52229],[-64.17778,-21.5225],[-64.17769,-21.52267],[-64.17909,-21.52324],[-64.1792,-21.52313]]]},"properties":{"n":"ENTRE RIOS","p":58,"personas_x_ha":72,"masculinidad":93,"pct_menor20":50,"pct_60mas":2,"pct_migrante":40,"dependencia_econ":115,"pct_empleados":41,"pct_cuentapropia":37,"pct_agricultura":7,"pct_comercio":26,"pct_manufactura":7,"pct_construccion":22,"pct_transporte":4,"pct_alojamiento":15,"pct_educ_superior":9,"brecha_educ":-9,"pct_sin_seguro":3,"pct_seguro_privado":0,"brecha_seguro":0,"pct_med_tradicional":18,"pct_automedicacion":22,"pct_remedios_caseros":25,"pct_viv_desocupada":0,"pct_alquiler":0,"pct_electricidad":100,"pct_agua_red":67,"pct_alcantarillado":0,"pct_gas_red":0,"pct_gas_garrafa":100,"pct_lena_guano":100,"pct_basura_formal":92,"pct_basura_quema":8,"pct_basura_informal":0,"pct_internet":92,"pct_celular":92,"pct_televisor":83}},{"type":"Feature","geometry":{"type":"Polygon","coordinates":[[[-64.1814,-21.52851],[-64.18083,-21.52848],[-64.18074,-21.52953],[-64.18133,-21.52957],[-64.1814,-21.52851]]]},"properties":{"n":"ENTRE RIOS","p":76,"personas_x_ha":104,"masculinidad":81,"pct_menor20":47,"pct_60mas":8,"pct_migrante":29,"dependencia_econ":162,"pct_empleados":66,"pct_cuentapropia":28,"pct_agricultura":7,"pct_comercio":21,"pct_manufactura":0,"pct_construccion":10,"pct_transporte":17,"pct_alojamiento":3,"pct_educ_superior":24,"brecha_educ":-13,"pct_sin_seguro":8,"pct_seguro_privado":0,"brecha_seguro":14,"pct_med_tradicional":9,"pct_automedicacion":19,"pct_remedios_caseros":17,"pct_viv_desocupada":9,"pct_alquiler":45,"pct_electricidad":100,"pct_agua_red":75,"pct_alcantarillado":100,"pct_gas_red":30,"pct_gas_garrafa":70,"pct_lena_guano":70,"pct_basura_formal":100,"pct_basura_quema":0,"pct_basura_informal":0,"pct_internet":95,"pct_celular":90,"pct_televisor":95}},{"type":"Feature","geometry":{"type":"Polygon","coordinates":[[[-64.17246,-21.53209],[-64.17402,-21.5311],[-64.17398,-21.53045],[-64.17219,-21.53056],[-64.17224,-21.53213],[-64.17246,-21.53209]]]},"properties":{"n":"ENTRE RIOS","p":88,"personas_x_ha":35,"masculinidad":83,"pct_menor20":39,"pct_60mas":7,"pct_migrante":38,"dependencia_econ":100,"pct_empleados":43,"pct_cuentapropia":55,"pct_agricultura":7,"pct_comercio":11,"pct_manufactura":11,"pct_construccion":5,"pct_transporte":5,"pct_alojamiento":9,"pct_educ_superior":36,"brecha_educ":2,"pct_sin_seguro":9,"pct_seguro_privado":0,"brecha_seguro":6,"pct_med_tradicional":12,"pct_automedicacion":17,"pct_remedios_caseros":23,"pct_viv_desocupada":13,"pct_alquiler":40,"pct_electricidad":100,"pct_agua_red":92,"pct_alcantarillado":92,"pct_gas_red":24,"pct_gas_garrafa":76,"pct_lena_guano":76,"pct_basura_formal":96,"pct_basura_quema":0,"pct_basura_informal":0,"pct_internet":88,"pct_celular":100,"pct_televisor":92}},{"type":"Feature","geometry":{"type":"Polygon","coordinates":[[[-64.17217,-21.52257],[-64.17149,-21.52268],[-64.17169,-21.52357],[-64.17207,-21.52293],[-64.17217,-21.52257]]]},"properties":{"n":"ENTRE RIOS","p":27,"personas_x_ha":62,"masculinidad":125,"pct_menor20":41,"pct_60mas":0,"pct_migrante":41,"dependencia_econ":93,"pct_empleados":21,"pct_cuentapropia":79,"pct_agricultura":0,"pct_comercio":50,"pct_manufactura":14,"pct_construccion":0,"pct_transporte":7,"pct_alojamiento":14,"pct_educ_superior":31,"brecha_educ":0,"pct_sin_seguro":0,"pct_seguro_privado":0,"brecha_seguro":0,"pct_med_tradicional":12,"pct_automedicacion":21,"pct_remedios_caseros":19,"pct_viv_desocupada":14,"pct_alquiler":50,"pct_electricidad":100,"pct_agua_red":50,"pct_alcantarillado":33,"pct_gas_red":67,"pct_gas_garrafa":33,"pct_lena_guano":33,"pct_basura_formal":100,"pct_basura_quema":0,"pct_basura_informal":0,"pct_internet":83,"pct_celular":83,"pct_televisor":67}},{"type":"Feature","geometry":{"type":"Polygon","coordinates":[[[-64.16897,-21.52373],[-64.16839,-21.52385],[-64.16847,-21.52375],[-64.16897,-21.52368],[-64.16886,-21.52314],[-64.16776,-21.52327],[-64.16689,-21.52324],[-64.16628,-21.52311],[-64.16597,-21.52292],[-64.16559,-21.52282],[-64.1653,-21.52312],[-64.16479,-21.52319],[-64.16452,-21.52341],[-64.1645,-21.52436],[-64.16547,-21.52472],[-64.16625,-21.52375],[-64.16654,-21.52362],[-64.16688,-21.5237],[-64.16811,-21.52432],[-64.16904,-21.52429],[-64.16897,-21.52373]]]},"properties":{"n":"ENTRE RIOS","p":18,"personas_x_ha":3,"masculinidad":64,"pct_menor20":33,"pct_60mas":6,"pct_migrante":44,"dependencia_econ":64,"pct_empleados":45,"pct_cuentapropia":55,"pct_agricultura":27,"pct_comercio":18,"pct_manufactura":0,"pct_construccion":9,"pct_transporte":0,"pct_alojamiento":9,"pct_educ_superior":75,"brecha_educ":-25,"pct_sin_seguro":28,"pct_seguro_privado":0,"brecha_seguro":25,"pct_med_tradicional":17,"pct_automedicacion":20,"pct_remedios_caseros":19,"pct_viv_desocupada":20,"pct_alquiler":14,"pct_electricidad":86,"pct_agua_red":86,"pct_alcantarillado":14,"pct_gas_red":14,"pct_gas_garrafa":57,"pct_lena_guano":57,"pct_basura_formal":71,"pct_basura_quema":14,"pct_basura_informal":0,"pct_internet":86,"pct_celular":100,"pct_televisor":71}},{"type":"Feature","geometry":{"type":"Polygon","coordinates":[[[-64.17476,-21.5285],[-64.17602,-21.5285],[-64.17605,-21.52756],[-64.1748,-21.52755],[-64.17476,-21.5285]]]},"properties":{"n":"ENTRE RIOS","p":71,"personas_x_ha":50,"masculinidad":103,"pct_menor20":38,"pct_60mas":11,"pct_migrante":17,"dependencia_econ":180,"pct_empleados":40,"pct_cuentapropia":52,"pct_agricultura":8,"pct_comercio":16,"pct_manufactura":8,"pct_construccion":16,"pct_transporte":16,"pct_alojamiento":8,"pct_educ_superior":31,"brecha_educ":17,"pct_sin_seguro":1,"pct_seguro_privado":9,"brecha_seguro":3,"pct_med_tradicional":9,"pct_automedicacion":16,"pct_remedios_caseros":20,"pct_viv_desocupada":0,"pct_alquiler":33,"pct_electricidad":100,"pct_agua_red":96,"pct_alcantarillado":100,"pct_gas_red":17,"pct_gas_garrafa":83,"pct_lena_guano":83,"pct_basura_formal":100,"pct_basura_quema":0,"pct_basura_informal":0,"pct_internet":58,"pct_celular":96,"pct_televisor":83}},{"type":"Feature","geometry":{"type":"Polygon","coordinates":[[[-64.17146,-21.52556],[-64.17118,-21.52551],[-64.17119,-21.52505],[-64.17103,-21.52508],[-64.17094,-21.52518],[-64.17089,-21.52618],[-64.17145,-21.5262],[-64.17146,-21.52556]]]},"properties":{"n":"ENTRE RIOS","p":25,"personas_x_ha":45,"masculinidad":47,"pct_menor20":32,"pct_60mas":8,"pct_migrante":56,"dependencia_econ":127,"pct_empleados":27,"pct_cuentapropia":55,"pct_agricultura":9,"pct_comercio":36,"pct_manufactura":0,"pct_construccion":0,"pct_transporte":18,"pct_alojamiento":0,"pct_educ_superior":41,"brecha_educ":-2,"pct_sin_seguro":12,"pct_seguro_privado":4,"brecha_seguro":1,"pct_med_tradicional":15,"pct_automedicacion":20,"pct_remedios_caseros":22,"pct_viv_desocupada":0,"pct_alquiler":11,"pct_electricidad":89,"pct_agua_red":78,"pct_alcantarillado":78,"pct_gas_red":56,"pct_gas_garrafa":44,"pct_lena_guano":44,"pct_basura_formal":100,"pct_basura_quema":0,"pct_basura_informal":0,"pct_internet":89,"pct_celular":67,"pct_televisor":89}},{"type":"Feature","geometry":{"type":"Polygon","coordinates":[[[-64.16665,-21.52791],[-64.16718,-21.52889],[-64.16865,-21.52865],[-64.16864,-21.52627],[-64.16815,-21.52628],[-64.16808,-21.52771],[-64.16665,-21.52791]]]},"properties":{"n":"ENTRE RIOS","p":20,"personas_x_ha":7,"masculinidad":82,"pct_menor20":45,"pct_60mas":0,"pct_migrante":30,"dependencia_econ":100,"pct_empleados":50,"pct_cuentapropia":30,"pct_agricultura":10,"pct_comercio":10,"pct_manufactura":10,"pct_construccion":10,"pct_transporte":10,"pct_alojamiento":10,"pct_educ_superior":18,"brecha_educ":36,"pct_sin_seguro":0,"pct_seguro_privado":0,"brecha_seguro":0,"pct_med_tradicional":19,"pct_automedicacion":19,"pct_remedios_caseros":22,"pct_viv_desocupada":0,"pct_alquiler":0,"pct_electricidad":100,"pct_agua_red":100,"pct_alcantarillado":0,"pct_gas_red":50,"pct_gas_garrafa":50,"pct_lena_guano":50,"pct_basura_formal":100,"pct_basura_quema":0,"pct_basura_informal":0,"pct_internet":100,"pct_celular":100,"pct_televisor":100}},{"type":"Feature","geometry":{"type":"Polygon","coordinates":[[[-64.17585,-21.52505],[-64.1754,-21.52419],[-64.17503,-21.52334],[-64.17472,-21.52335],[-64.17491,-21.52516],[-64.17585,-21.52505]]]},"properties":{"n":"ENTRE RIOS","p":41,"personas_x_ha":32,"masculinidad":58,"pct_menor20":41,"pct_60mas":10,"pct_migrante":56,"dependencia_econ":116,"pct_empleados":47,"pct_cuentapropia":42,"pct_agricultura":26,"pct_comercio":21,"pct_manufactura":5,"pct_construccion":5,"pct_transporte":0,"pct_alojamiento":5,"pct_educ_superior":33,"brecha_educ":-23,"pct_sin_seguro":0,"pct_seguro_privado":0,"brecha_seguro":0,"pct_med_tradicional":11,"pct_automedicacion":22,"pct_remedios_caseros":24,"pct_viv_desocupada":0,"pct_alquiler":30,"pct_electricidad":100,"pct_agua_red":80,"pct_alcantarillado":80,"pct_gas_red":50,"pct_gas_garrafa":50,"pct_lena_guano":50,"pct_basura_formal":100,"pct_basura_quema":0,"pct_basura_informal":0,"pct_internet":90,"pct_celular":90,"pct_televisor":90}},{"type":"Feature","geometry":{"type":"Polygon","coordinates":[[[-64.1726,-21.51947],[-64.17217,-21.51741],[-64.17147,-21.5175],[-64.17189,-21.51964],[-64.1726,-21.51947]]]},"properties":{"n":"ENTRE RIOS","p":20,"personas_x_ha":11,"masculinidad":150,"pct_menor20":20,"pct_60mas":25,"pct_migrante":25,"dependencia_econ":122,"pct_empleados":0,"pct_cuentapropia":44,"pct_agricultura":78,"pct_comercio":22,"pct_manufactura":11,"pct_construccion":11,"pct_transporte":0,"pct_alojamiento":0,"pct_educ_superior":44,"brecha_educ":-17,"pct_sin_seguro":0,"pct_seguro_privado":0,"brecha_seguro":0,"pct_med_tradicional":9,"pct_automedicacion":24,"pct_remedios_caseros":20,"pct_viv_desocupada":12,"pct_alquiler":14,"pct_electricidad":86,"pct_agua_red":43,"pct_alcantarillado":14,"pct_gas_red":29,"pct_gas_garrafa":71,"pct_lena_guano":71,"pct_basura_formal":100,"pct_basura_quema":0,"pct_basura_informal":0,"pct_internet":71,"pct_celular":86,"pct_televisor":86}},{"type":"Feature","geometry":{"type":"Polygon","coordinates":[[[-64.17309,-21.5285],[-64.17382,-21.52849],[-64.17377,-21.5276],[-64.17298,-21.52764],[-64.173,-21.52841],[-64.17309,-21.5285]]]},"properties":{"n":"ENTRE RIOS","p":90,"personas_x_ha":108,"masculinidad":100,"pct_menor20":31,"pct_60mas":18,"pct_migrante":31,"dependencia_econ":91,"pct_empleados":19,"pct_cuentapropia":70,"pct_agricultura":19,"pct_comercio":38,"pct_manufactura":6,"pct_construccion":6,"pct_transporte":6,"pct_alojamiento":2,"pct_educ_superior":37,"brecha_educ":-23,"pct_sin_seguro":7,"pct_seguro_privado":0,"brecha_seguro":5,"pct_med_tradicional":10,"pct_automedicacion":18,"pct_remedios_caseros":20,"pct_viv_desocupada":8,"pct_alquiler":45,"pct_electricidad":100,"pct_agua_red":100,"pct_alcantarillado":100,"pct_gas_red":36,"pct_gas_garrafa":58,"pct_lena_guano":58,"pct_basura_formal":100,"pct_basura_quema":0,"pct_basura_informal":0,"pct_internet":85,"pct_celular":94,"pct_televisor":85}},{"type":"Feature","geometry":{"type":"Polygon","coordinates":[[[-64.17204,-21.52856],[-64.1711,-21.52851],[-64.17108,-21.52901],[-64.17203,-21.52904],[-64.17204,-21.52856]]]},"properties":{"n":"ENTRE RIOS","p":40,"personas_x_ha":72,"masculinidad":90,"pct_menor20":35,"pct_60mas":12,"pct_migrante":35,"dependencia_econ":111,"pct_empleados":63,"pct_cuentapropia":26,"pct_agricultura":5,"pct_comercio":11,"pct_manufactura":0,"pct_construccion":5,"pct_transporte":0,"pct_alojamiento":16,"pct_educ_superior":58,"brecha_educ":2,"pct_sin_seguro":5,"pct_seguro_privado":0,"brecha_seguro":0,"pct_med_tradicional":14,"pct_automedicacion":17,"pct_remedios_caseros":18,"pct_viv_desocupada":22,"pct_alquiler":22,"pct_electricidad":100,"pct_agua_red":100,"pct_alcantarillado":100,"pct_gas_red":78,"pct_gas_garrafa":22,"pct_lena_guano":22,"pct_basura_formal":100,"pct_basura_quema":0,"pct_basura_informal":0,"pct_internet":89,"pct_celular":89,"pct_televisor":89}},{"type":"Feature","geometry":{"type":"Polygon","coordinates":[[[-64.17466,-21.53031],[-64.17464,-21.52974],[-64.17404,-21.52975],[-64.17408,-21.53034],[-64.17466,-21.53031]]]},"properties":{"n":"ENTRE RIOS","p":33,"personas_x_ha":80,"masculinidad":94,"pct_menor20":45,"pct_60mas":3,"pct_migrante":33,"dependencia_econ":154,"pct_empleados":38,"pct_cuentapropia":54,"pct_agricultura":8,"pct_comercio":46,"pct_manufactura":23,"pct_construccion":0,"pct_transporte":0,"pct_alojamiento":8,"pct_educ_superior":32,"brecha_educ":23,"pct_sin_seguro":3,"pct_seguro_privado":0,"brecha_seguro":7,"pct_med_tradicional":14,"pct_automedicacion":12,"pct_remedios_caseros":25,"pct_viv_desocupada":7,"pct_alquiler":62,"pct_electricidad":100,"pct_agua_red":100,"pct_alcantarillado":85,"pct_gas_red":0,"pct_gas_garrafa":92,"pct_lena_guano":92,"pct_basura_formal":100,"pct_basura_quema":0,"pct_basura_informal":0,"pct_internet":77,"pct_celular":77,"pct_televisor":85}},{"type":"Feature","geometry":{"type":"Polygon","coordinates":[[[-64.17202,-21.52972],[-64.17201,-21.52912],[-64.1711,-21.52912],[-64.17113,-21.52973],[-64.17202,-21.52972]]]},"properties":{"n":"ENTRE RIOS","p":62,"personas_x_ha":95,"masculinidad":82,"pct_menor20":32,"pct_60mas":5,"pct_migrante":45,"dependencia_econ":94,"pct_empleados":28,"pct_cuentapropia":66,"pct_agricultura":12,"pct_comercio":28,"pct_manufactura":3,"pct_construccion":3,"pct_transporte":25,"pct_alojamiento":6,"pct_educ_superior":36,"brecha_educ":-11,"pct_sin_seguro":13,"pct_seguro_privado":0,"brecha_seguro":9,"pct_med_tradicional":16,"pct_automedicacion":19,"pct_remedios_caseros":25,"pct_viv_desocupada":5,"pct_alquiler":48,"pct_electricidad":100,"pct_agua_red":92,"pct_alcantarillado":100,"pct_gas_red":40,"pct_gas_garrafa":52,"pct_lena_guano":52,"pct_basura_formal":100,"pct_basura_quema":0,"pct_basura_informal":0,"pct_internet":88,"pct_celular":96,"pct_televisor":88}},{"type":"Feature","geometry":{"type":"Polygon","coordinates":[[[-64.1714,-21.52625],[-64.17085,-21.52628],[-64.17078,-21.52693],[-64.17138,-21.52692],[-64.1714,-21.52625]]]},"properties":{"n":"ENTRE RIOS","p":31,"personas_x_ha":66,"masculinidad":82,"pct_menor20":39,"pct_60mas":16,"pct_migrante":52,"dependencia_econ":82,"pct_empleados":29,"pct_cuentapropia":53,"pct_agricultura":6,"pct_comercio":6,"pct_manufactura":0,"pct_construccion":18,"pct_transporte":0,"pct_alojamiento":24,"pct_educ_superior":53,"brecha_educ":12,"pct_sin_seguro":0,"pct_seguro_privado":3,"brecha_seguro":0,"pct_med_tradicional":9,"pct_automedicacion":14,"pct_remedios_caseros":20,"pct_viv_desocupada":20,"pct_alquiler":30,"pct_electricidad":100,"pct_agua_red":100,"pct_alcantarillado":100,"pct_gas_red":60,"pct_gas_garrafa":30,"pct_lena_guano":30,"pct_basura_formal":100,"pct_basura_quema":0,"pct_basura_informal":0,"pct_internet":90,"pct_celular":90,"pct_televisor":70}},{"type":"Feature","geometry":{"type":"Polygon","coordinates":[[[-64.17005,-21.51743],[-64.17136,-21.51755],[-64.1712,-21.51657],[-64.17003,-21.51665],[-64.17005,-21.51743]]]},"properties":{"n":"ENTRE RIOS","p":20,"personas_x_ha":16,"masculinidad":82,"pct_menor20":45,"pct_60mas":0,"pct_migrante":35,"dependencia_econ":82,"pct_empleados":55,"pct_cuentapropia":36,"pct_agricultura":0,"pct_comercio":27,"pct_manufactura":9,"pct_construccion":18,"pct_transporte":9,"pct_alojamiento":9,"pct_educ_superior":58,"brecha_educ":0,"pct_sin_seguro":0,"pct_seguro_privado":0,"brecha_seguro":0,"pct_med_tradicional":15,"pct_automedicacion":6,"pct_remedios_caseros":23,"pct_viv_desocupada":11,"pct_alquiler":50,"pct_electricidad":100,"pct_agua_red":100,"pct_alcantarillado":0,"pct_gas_red":17,"pct_gas_garrafa":83,"pct_lena_guano":83,"pct_basura_formal":100,"pct_basura_quema":0,"pct_basura_informal":0,"pct_internet":100,"pct_celular":100,"pct_televisor":100}},{"type":"Feature","geometry":{"type":"Polygon","coordinates":[[[-64.1776,-21.52441],[-64.17766,-21.52489],[-64.17879,-21.52468],[-64.17865,-21.52424],[-64.1776,-21.52441]]]},"properties":{"n":"ENTRE RIOS","p":34,"personas_x_ha":53,"masculinidad":100,"pct_menor20":44,"pct_60mas":6,"pct_migrante":50,"dependencia_econ":162,"pct_empleados":38,"pct_cuentapropia":62,"pct_agricultura":8,"pct_comercio":38,"pct_manufactura":8,"pct_construccion":8,"pct_transporte":15,"pct_alojamiento":0,"pct_educ_superior":21,"brecha_educ":8,"pct_sin_seguro":0,"pct_seguro_privado":0,"brecha_seguro":0,"pct_med_tradicional":2,"pct_automedicacion":18,"pct_remedios_caseros":18,"pct_viv_desocupada":9,"pct_alquiler":20,"pct_electricidad":100,"pct_agua_red":100,"pct_alcantarillado":60,"pct_gas_red":10,"pct_gas_garrafa":90,"pct_lena_guano":90,"pct_basura_formal":90,"pct_basura_quema":10,"pct_basura_informal":0,"pct_internet":100,"pct_celular":100,"pct_televisor":90}},{"type":"Feature","geometry":{"type":"Polygon","coordinates":[[[-64.17084,-21.52766],[-64.17134,-21.52764],[-64.17136,-21.52699],[-64.17077,-21.52701],[-64.17084,-21.52766]]]},"properties":{"n":"ENTRE RIOS","p":32,"personas_x_ha":73,"masculinidad":129,"pct_menor20":28,"pct_60mas":22,"pct_migrante":62,"dependencia_econ":78,"pct_empleados":11,"pct_cuentapropia":78,"pct_agricultura":6,"pct_comercio":28,"pct_manufactura":6,"pct_construccion":0,"pct_transporte":17,"pct_alojamiento":17,"pct_educ_superior":43,"brecha_educ":-16,"pct_sin_seguro":12,"pct_seguro_privado":0,"brecha_seguro":10,"pct_med_tradicional":10,"pct_automedicacion":23,"pct_remedios_caseros":29,"pct_viv_desocupada":0,"pct_alquiler":21,"pct_electricidad":100,"pct_agua_red":100,"pct_alcantarillado":100,"pct_gas_red":64,"pct_gas_garrafa":36,"pct_lena_guano":36,"pct_basura_formal":100,"pct_basura_quema":0,"pct_basura_informal":0,"pct_internet":100,"pct_celular":100,"pct_televisor":100}},{"type":"Feature","geometry":{"type":"Polygon","coordinates":[[[-64.17291,-21.52848],[-64.17292,-21.52763],[-64.17217,-21.52767],[-64.17213,-21.52844],[-64.17291,-21.52848]]]},"properties":{"n":"ENTRE RIOS","p":79,"personas_x_ha":110,"masculinidad":80,"pct_menor20":30,"pct_60mas":22,"pct_migrante":54,"dependencia_econ":98,"pct_empleados":28,"pct_cuentapropia":60,"pct_agricultura":22,"pct_comercio":28,"pct_manufactura":0,"pct_construccion":2,"pct_transporte":2,"pct_alojamiento":12,"pct_educ_superior":43,"brecha_educ":-8,"pct_sin_seguro":14,"pct_seguro_privado":0,"brecha_seguro":-6,"pct_med_tradicional":10,"pct_automedicacion":15,"pct_remedios_caseros":15,"pct_viv_desocupada":4,"pct_alquiler":46,"pct_electricidad":100,"pct_agua_red":85,"pct_alcantarillado":100,"pct_gas_red":46,"pct_gas_garrafa":54,"pct_lena_guano":54,"pct_basura_formal":100,"pct_basura_quema":0,"pct_basura_informal":0,"pct_internet":73,"pct_celular":85,"pct_televisor":88}},{"type":"Feature","geometry":{"type":"Polygon","coordinates":[[[-64.17366,-21.52343],[-64.17459,-21.52323],[-64.17451,-21.52191],[-64.1741,-21.52073],[-64.17413,-21.52038],[-64.17436,-21.52002],[-64.17429,-21.52],[-64.17381,-21.5205],[-64.17355,-21.52134],[-64.17349,-21.52303],[-64.17366,-21.52343]]]},"properties":{"n":"ENTRE RIOS","p":103,"personas_x_ha":35,"masculinidad":98,"pct_menor20":37,"pct_60mas":11,"pct_migrante":39,"dependencia_econ":110,"pct_empleados":41,"pct_cuentapropia":51,"pct_agricultura":16,"pct_comercio":27,"pct_manufactura":10,"pct_construccion":10,"pct_transporte":6,"pct_alojamiento":8,"pct_educ_superior":21,"brecha_educ":-12,"pct_sin_seguro":23,"pct_seguro_privado":0,"brecha_seguro":12,"pct_med_tradicional":13,"pct_automedicacion":21,"pct_remedios_caseros":23,"pct_viv_desocupada":7,"pct_alquiler":24,"pct_electricidad":100,"pct_agua_red":94,"pct_alcantarillado":88,"pct_gas_red":33,"pct_gas_garrafa":61,"pct_lena_guano":61,"pct_basura_formal":100,"pct_basura_quema":0,"pct_basura_informal":0,"pct_internet":88,"pct_celular":97,"pct_televisor":79}},{"type":"Feature","geometry":{"type":"Polygon","coordinates":[[[-64.17031,-21.52291],[-64.1692,-21.52306],[-64.16925,-21.52354],[-64.17039,-21.52345],[-64.17031,-21.52291]]]},"properties":{"n":"ENTRE RIOS","p":46,"personas_x_ha":64,"masculinidad":92,"pct_menor20":48,"pct_60mas":4,"pct_migrante":35,"dependencia_econ":130,"pct_empleados":60,"pct_cuentapropia":15,"pct_agricultura":55,"pct_comercio":15,"pct_manufactura":0,"pct_construccion":0,"pct_transporte":5,"pct_alojamiento":0,"pct_educ_superior":36,"brecha_educ":10,"pct_sin_seguro":12,"pct_seguro_privado":0,"brecha_seguro":4,"pct_med_tradicional":3,"pct_automedicacion":3,"pct_remedios_caseros":15,"pct_viv_desocupada":0,"pct_alquiler":55,"pct_electricidad":100,"pct_agua_red":100,"pct_alcantarillado":45,"pct_gas_red":18,"pct_gas_garrafa":82,"pct_lena_guano":82,"pct_basura_formal":100,"pct_basura_quema":0,"pct_basura_informal":0,"pct_internet":36,"pct_celular":100,"pct_televisor":45}},{"type":"Feature","geometry":{"type":"Polygon","coordinates":[[[-64.17781,-21.526],[-64.17619,-21.52511],[-64.17492,-21.52525],[-64.17484,-21.52594],[-64.17559,-21.52593],[-64.17643,-21.5263],[-64.17748,-21.52661],[-64.17799,-21.52688],[-64.17884,-21.52683],[-64.17885,-21.52659],[-64.17793,-21.52621],[-64.17781,-21.526]]]},"properties":{"n":"ENTRE RIOS","p":53,"personas_x_ha":15,"masculinidad":96,"pct_menor20":38,"pct_60mas":6,"pct_migrante":47,"dependencia_econ":112,"pct_empleados":40,"pct_cuentapropia":48,"pct_agricultura":16,"pct_comercio":16,"pct_manufactura":8,"pct_construccion":8,"pct_transporte":16,"pct_alojamiento":4,"pct_educ_superior":48,"brecha_educ":5,"pct_sin_seguro":0,"pct_seguro_privado":0,"brecha_seguro":0,"pct_med_tradicional":16,"pct_automedicacion":18,"pct_remedios_caseros":20,"pct_viv_desocupada":0,"pct_alquiler":31,"pct_electricidad":100,"pct_agua_red":100,"pct_alcantarillado":85,"pct_gas_red":0,"pct_gas_garrafa":85,"pct_lena_guano":85,"pct_basura_formal":100,"pct_basura_quema":0,"pct_basura_informal":0,"pct_internet":100,"pct_celular":100,"pct_televisor":85}},{"type":"Feature","geometry":{"type":"Polygon","coordinates":[[[-64.17397,-21.53031],[-64.17394,-21.52976],[-64.173,-21.52977],[-64.17305,-21.53036],[-64.1739,-21.53037],[-64.17397,-21.53031]]]},"properties":{"n":"ENTRE RIOS","p":47,"personas_x_ha":68,"masculinidad":57,"pct_menor20":49,"pct_60mas":4,"pct_migrante":34,"dependencia_econ":147,"pct_empleados":47,"pct_cuentapropia":26,"pct_agricultura":21,"pct_comercio":21,"pct_manufactura":16,"pct_construccion":5,"pct_transporte":0,"pct_alojamiento":0,"pct_educ_superior":29,"brecha_educ":-4,"pct_sin_seguro":4,"pct_seguro_privado":0,"brecha_seguro":3,"pct_med_tradicional":14,"pct_automedicacion":14,"pct_remedios_caseros":28,"pct_viv_desocupada":41,"pct_alquiler":64,"pct_electricidad":100,"pct_agua_red":100,"pct_alcantarillado":93,"pct_gas_red":57,"pct_gas_garrafa":43,"pct_lena_guano":43,"pct_basura_formal":100,"pct_basura_quema":0,"pct_basura_informal":0,"pct_internet":93,"pct_celular":93,"pct_televisor":71}},{"type":"Feature","geometry":{"type":"Polygon","coordinates":[[[-64.18046,-21.52689],[-64.17803,-21.52698],[-64.17768,-21.52688],[-64.17761,-21.52744],[-64.18045,-21.52739],[-64.18046,-21.52689]]]},"properties":{"n":"ENTRE RIOS","p":33,"personas_x_ha":20,"masculinidad":106,"pct_menor20":30,"pct_60mas":9,"pct_migrante":39,"dependencia_econ":106,"pct_empleados":69,"pct_cuentapropia":31,"pct_agricultura":12,"pct_comercio":12,"pct_manufactura":6,"pct_construccion":6,"pct_transporte":6,"pct_alojamiento":19,"pct_educ_superior":48,"brecha_educ":-10,"pct_sin_seguro":6,"pct_seguro_privado":0,"brecha_seguro":12,"pct_med_tradicional":2,"pct_automedicacion":8,"pct_remedios_caseros":12,"pct_viv_desocupada":14,"pct_alquiler":53,"pct_electricidad":100,"pct_agua_red":100,"pct_alcantarillado":100,"pct_gas_red":7,"pct_gas_garrafa":80,"pct_lena_guano":80,"pct_basura_formal":100,"pct_basura_quema":0,"pct_basura_informal":0,"pct_internet":93,"pct_celular":93,"pct_televisor":80}},{"type":"Feature","geometry":{"type":"Polygon","coordinates":[[[-64.17206,-21.5307],[-64.17203,-21.52979],[-64.17112,-21.52983],[-64.17116,-21.53073],[-64.17206,-21.5307]]]},"properties":{"n":"ENTRE RIOS","p":82,"personas_x_ha":84,"masculinidad":128,"pct_menor20":39,"pct_60mas":12,"pct_migrante":21,"dependencia_econ":84,"pct_empleados":23,"pct_cuentapropia":57,"pct_agricultura":25,"pct_comercio":30,"pct_manufactura":2,"pct_construccion":9,"pct_transporte":0,"pct_alojamiento":16,"pct_educ_superior":31,"brecha_educ":0,"pct_sin_seguro":7,"pct_seguro_privado":0,"brecha_seguro":-2,"pct_med_tradicional":10,"pct_automedicacion":15,"pct_remedios_caseros":14,"pct_viv_desocupada":11,"pct_alquiler":38,"pct_electricidad":100,"pct_agua_red":100,"pct_alcantarillado":100,"pct_gas_red":21,"pct_gas_garrafa":76,"pct_lena_guano":76,"pct_basura_formal":100,"pct_basura_quema":0,"pct_basura_informal":0,"pct_internet":55,"pct_celular":66,"pct_televisor":79}},{"type":"Feature","geometry":{"type":"Polygon","coordinates":[[[-64.173,-21.52967],[-64.17392,-21.52966],[-64.17384,-21.52861],[-64.17298,-21.52861],[-64.173,-21.52967]]]},"properties":{"n":"ENTRE RIOS","p":90,"personas_x_ha":80,"masculinidad":73,"pct_menor20":31,"pct_60mas":12,"pct_migrante":40,"dependencia_econ":91,"pct_empleados":43,"pct_cuentapropia":45,"pct_agricultura":13,"pct_comercio":36,"pct_manufactura":4,"pct_construccion":6,"pct_transporte":2,"pct_alojamiento":6,"pct_educ_superior":47,"brecha_educ":-10,"pct_sin_seguro":12,"pct_seguro_privado":0,"brecha_seguro":6,"pct_med_tradicional":9,"pct_automedicacion":16,"pct_remedios_caseros":23,"pct_viv_desocupada":6,"pct_alquiler":30,"pct_electricidad":100,"pct_agua_red":90,"pct_alcantarillado":100,"pct_gas_red":40,"pct_gas_garrafa":57,"pct_lena_guano":57,"pct_basura_formal":100,"pct_basura_quema":0,"pct_basura_informal":0,"pct_internet":70,"pct_celular":80,"pct_televisor":90}},{"type":"Feature","geometry":{"type":"Polygon","coordinates":[[[-64.17208,-21.52689],[-64.17215,-21.52622],[-64.17153,-21.52621],[-64.17147,-21.52688],[-64.17208,-21.52689]]]},"properties":{"n":"ENTRE RIOS","p":57,"personas_x_ha":113,"masculinidad":84,"pct_menor20":25,"pct_60mas":25,"pct_migrante":61,"dependencia_econ":58,"pct_empleados":33,"pct_cuentapropia":64,"pct_agricultura":3,"pct_comercio":42,"pct_manufactura":0,"pct_construccion":0,"pct_transporte":11,"pct_alojamiento":0,"pct_educ_superior":63,"brecha_educ":8,"pct_sin_seguro":11,"pct_seguro_privado":0,"brecha_seguro":2,"pct_med_tradicional":10,"pct_automedicacion":15,"pct_remedios_caseros":18,"pct_viv_desocupada":4,"pct_alquiler":41,"pct_electricidad":100,"pct_agua_red":100,"pct_alcantarillado":100,"pct_gas_red":68,"pct_gas_garrafa":27,"pct_lena_guano":27,"pct_basura_formal":100,"pct_basura_quema":0,"pct_basura_informal":0,"pct_internet":100,"pct_celular":100,"pct_televisor":91}},{"type":"Feature","geometry":{"type":"Polygon","coordinates":[[[-64.18111,-21.52572],[-64.1816,-21.52574],[-64.18165,-21.52511],[-64.18118,-21.52506],[-64.18111,-21.52572]]]},"properties":{"n":"ENTRE RIOS","p":42,"personas_x_ha":108,"masculinidad":147,"pct_menor20":36,"pct_60mas":14,"pct_migrante":19,"dependencia_econ":180,"pct_empleados":47,"pct_cuentapropia":40,"pct_agricultura":33,"pct_comercio":20,"pct_manufactura":0,"pct_construccion":27,"pct_transporte":13,"pct_alojamiento":7,"pct_educ_superior":11,"brecha_educ":-15,"pct_sin_seguro":0,"pct_seguro_privado":0,"brecha_seguro":0,"pct_med_tradicional":8,"pct_automedicacion":35,"pct_remedios_caseros":13,"pct_viv_desocupada":7,"pct_alquiler":33,"pct_electricidad":100,"pct_agua_red":100,"pct_alcantarillado":50,"pct_gas_red":50,"pct_gas_garrafa":42,"pct_lena_guano":42,"pct_basura_formal":100,"pct_basura_quema":0,"pct_basura_informal":0,"pct_internet":75,"pct_celular":100,"pct_televisor":100}},{"type":"Feature","geometry":{"type":"Polygon","coordinates":[[[-64.1775,-21.52446],[-64.17624,-21.52455],[-64.17627,-21.52502],[-64.17754,-21.5249],[-64.1775,-21.52446]]]},"properties":{"n":"ENTRE RIOS","p":51,"personas_x_ha":72,"masculinidad":122,"pct_menor20":39,"pct_60mas":6,"pct_migrante":39,"dependencia_econ":132,"pct_empleados":41,"pct_cuentapropia":59,"pct_agricultura":23,"pct_comercio":18,"pct_manufactura":18,"pct_construccion":9,"pct_transporte":5,"pct_alojamiento":0,"pct_educ_superior":36,"brecha_educ":15,"pct_sin_seguro":12,"pct_seguro_privado":0,"brecha_seguro":14,"pct_med_tradicional":17,"pct_automedicacion":17,"pct_remedios_caseros":21,"pct_viv_desocupada":6,"pct_alquiler":33,"pct_electricidad":100,"pct_agua_red":100,"pct_alcantarillado":93,"pct_gas_red":60,"pct_gas_garrafa":40,"pct_lena_guano":40,"pct_basura_formal":100,"pct_basura_quema":0,"pct_basura_informal":0,"pct_internet":80,"pct_celular":93,"pct_televisor":100}},{"type":"Feature","geometry":{"type":"Polygon","coordinates":[[[-64.17761,-21.52376],[-64.17885,-21.52363],[-64.1789,-21.52353],[-64.17767,-21.52303],[-64.17761,-21.52376]]]},"properties":{"n":"ENTRE RIOS","p":24,"personas_x_ha":39,"masculinidad":60,"pct_menor20":42,"pct_60mas":8,"pct_migrante":17,"dependencia_econ":167,"pct_empleados":44,"pct_cuentapropia":33,"pct_agricultura":0,"pct_comercio":44,"pct_manufactura":0,"pct_construccion":33,"pct_transporte":11,"pct_alojamiento":11,"pct_educ_superior":21,"brecha_educ":25,"pct_sin_seguro":8,"pct_seguro_privado":0,"brecha_seguro":4,"pct_med_tradicional":1,"pct_automedicacion":22,"pct_remedios_caseros":32,"pct_viv_desocupada":0,"pct_alquiler":12,"pct_electricidad":100,"pct_agua_red":75,"pct_alcantarillado":0,"pct_gas_red":0,"pct_gas_garrafa":100,"pct_lena_guano":100,"pct_basura_formal":100,"pct_basura_quema":0,"pct_basura_informal":0,"pct_internet":88,"pct_celular":100,"pct_televisor":88}},{"type":"Feature","geometry":{"type":"Polygon","coordinates":[[[-64.17481,-21.52528],[-64.1738,-21.52535],[-64.17382,-21.52603],[-64.17471,-21.52597],[-64.17481,-21.52528]]]},"properties":{"n":"ENTRE RIOS","p":37,"personas_x_ha":48,"masculinidad":85,"pct_menor20":35,"pct_60mas":8,"pct_migrante":54,"dependencia_econ":147,"pct_empleados":40,"pct_cuentapropia":40,"pct_agricultura":0,"pct_comercio":33,"pct_manufactura":13,"pct_construccion":7,"pct_transporte":7,"pct_alojamiento":7,"pct_educ_superior":36,"brecha_educ":10,"pct_sin_seguro":5,"pct_seguro_privado":0,"brecha_seguro":1,"pct_med_tradicional":0,"pct_automedicacion":12,"pct_remedios_caseros":14,"pct_viv_desocupada":14,"pct_alquiler":25,"pct_electricidad":100,"pct_agua_red":100,"pct_alcantarillado":100,"pct_gas_red":58,"pct_gas_garrafa":33,"pct_lena_guano":33,"pct_basura_formal":100,"pct_basura_quema":0,"pct_basura_informal":0,"pct_internet":92,"pct_celular":100,"pct_televisor":67}},{"type":"Feature","geometry":{"type":"Polygon","coordinates":[[[-64.17203,-21.52843],[-64.17207,-21.52771],[-64.17139,-21.52772],[-64.17137,-21.52843],[-64.17203,-21.52843]]]},"properties":{"n":"ENTRE RIOS","p":62,"personas_x_ha":109,"masculinidad":72,"pct_menor20":24,"pct_60mas":19,"pct_migrante":21,"dependencia_econ":74,"pct_empleados":51,"pct_cuentapropia":46,"pct_agricultura":14,"pct_comercio":11,"pct_manufactura":3,"pct_construccion":3,"pct_transporte":6,"pct_alojamiento":6,"pct_educ_superior":66,"brecha_educ":-2,"pct_sin_seguro":3,"pct_seguro_privado":0,"brecha_seguro":1,"pct_med_tradicional":12,"pct_automedicacion":17,"pct_remedios_caseros":16,"pct_viv_desocupada":0,"pct_alquiler":30,"pct_electricidad":100,"pct_agua_red":100,"pct_alcantarillado":100,"pct_gas_red":61,"pct_gas_garrafa":35,"pct_lena_guano":35,"pct_basura_formal":100,"pct_basura_quema":0,"pct_basura_informal":0,"pct_internet":83,"pct_celular":87,"pct_televisor":78}},{"type":"Feature","geometry":{"type":"Polygon","coordinates":[[[-64.17605,-21.52663],[-64.17608,-21.52627],[-64.17564,-21.52603],[-64.17483,-21.52608],[-64.17484,-21.52669],[-64.17605,-21.52663]]]},"properties":{"n":"ENTRE RIOS","p":53,"personas_x_ha":63,"masculinidad":121,"pct_menor20":28,"pct_60mas":13,"pct_migrante":42,"dependencia_econ":83,"pct_empleados":38,"pct_cuentapropia":55,"pct_agricultura":14,"pct_comercio":28,"pct_manufactura":10,"pct_construccion":17,"pct_transporte":3,"pct_alojamiento":3,"pct_educ_superior":31,"brecha_educ":11,"pct_sin_seguro":8,"pct_seguro_privado":0,"brecha_seguro":-1,"pct_med_tradicional":17,"pct_automedicacion":19,"pct_remedios_caseros":25,"pct_viv_desocupada":4,"pct_alquiler":16,"pct_electricidad":100,"pct_agua_red":100,"pct_alcantarillado":100,"pct_gas_red":37,"pct_gas_garrafa":58,"pct_lena_guano":58,"pct_basura_formal":100,"pct_basura_quema":0,"pct_basura_informal":0,"pct_internet":89,"pct_celular":95,"pct_televisor":89}},{"type":"Feature","geometry":{"type":"Polygon","coordinates":[[[-64.17131,-21.52176],[-64.17251,-21.52157],[-64.17282,-21.52008],[-64.17268,-21.51964],[-64.17251,-21.51962],[-64.17098,-21.52002],[-64.17131,-21.52176]]]},"properties":{"n":"ENTRE RIOS","p":32,"personas_x_ha":9,"masculinidad":113,"pct_menor20":38,"pct_60mas":19,"pct_migrante":66,"dependencia_econ":146,"pct_empleados":15,"pct_cuentapropia":69,"pct_agricultura":0,"pct_comercio":54,"pct_manufactura":15,"pct_construccion":0,"pct_transporte":8,"pct_alojamiento":0,"pct_educ_superior":45,"brecha_educ":17,"pct_sin_seguro":9,"pct_seguro_privado":0,"brecha_seguro":5,"pct_med_tradicional":12,"pct_automedicacion":12,"pct_remedios_caseros":17,"pct_viv_desocupada":12,"pct_alquiler":9,"pct_electricidad":100,"pct_agua_red":64,"pct_alcantarillado":0,"pct_gas_red":55,"pct_gas_garrafa":45,"pct_lena_guano":45,"pct_basura_formal":100,"pct_basura_quema":0,"pct_basura_informal":0,"pct_internet":82,"pct_celular":82,"pct_televisor":82}},{"type":"Feature","geometry":{"type":"Polygon","coordinates":[[[-64.1739,-21.5285],[-64.17467,-21.52849],[-64.1747,-21.52756],[-64.17387,-21.5276],[-64.1739,-21.5285]]]},"properties":{"n":"ENTRE RIOS","p":62,"personas_x_ha":72,"masculinidad":88,"pct_menor20":32,"pct_60mas":18,"pct_migrante":26,"dependencia_econ":107,"pct_empleados":50,"pct_cuentapropia":33,"pct_agricultura":17,"pct_comercio":30,"pct_manufactura":7,"pct_construccion":13,"pct_transporte":13,"pct_alojamiento":3,"pct_educ_superior":29,"brecha_educ":3,"pct_sin_seguro":2,"pct_seguro_privado":0,"brecha_seguro":3,"pct_med_tradicional":11,"pct_automedicacion":16,"pct_remedios_caseros":18,"pct_viv_desocupada":10,"pct_alquiler":22,"pct_electricidad":100,"pct_agua_red":100,"pct_alcantarillado":100,"pct_gas_red":33,"pct_gas_garrafa":67,"pct_lena_guano":67,"pct_basura_formal":100,"pct_basura_quema":0,"pct_basura_informal":0,"pct_internet":61,"pct_celular":89,"pct_televisor":94}},{"type":"Feature","geometry":{"type":"Polygon","coordinates":[[[-64.17681,-21.52284],[-64.17649,-21.52295],[-64.17642,-21.52364],[-64.17694,-21.52368],[-64.17703,-21.5228],[-64.17686,-21.52274],[-64.17681,-21.52284]]]},"properties":{"n":"ENTRE RIOS","p":35,"personas_x_ha":70,"masculinidad":106,"pct_menor20":40,"pct_60mas":9,"pct_migrante":23,"dependencia_econ":106,"pct_empleados":47,"pct_cuentapropia":47,"pct_agricultura":12,"pct_comercio":35,"pct_manufactura":6,"pct_construccion":18,"pct_transporte":6,"pct_alojamiento":0,"pct_educ_superior":10,"brecha_educ":-14,"pct_sin_seguro":15,"pct_seguro_privado":0,"brecha_seguro":4,"pct_med_tradicional":17,"pct_automedicacion":19,"pct_remedios_caseros":20,"pct_viv_desocupada":0,"pct_alquiler":11,"pct_electricidad":100,"pct_agua_red":100,"pct_alcantarillado":11,"pct_gas_red":0,"pct_gas_garrafa":100,"pct_lena_guano":100,"pct_basura_formal":100,"pct_basura_quema":0,"pct_basura_informal":0,"pct_internet":89,"pct_celular":100,"pct_televisor":78}},{"type":"Feature","geometry":{"type":"Polygon","coordinates":[[[-64.18144,-21.52842],[-64.18153,-21.52736],[-64.18092,-21.5273],[-64.18081,-21.52836],[-64.18144,-21.52842]]]},"properties":{"n":"ENTRE RIOS","p":47,"personas_x_ha":61,"masculinidad":147,"pct_menor20":32,"pct_60mas":11,"pct_migrante":26,"dependencia_econ":236,"pct_empleados":50,"pct_cuentapropia":43,"pct_agricultura":21,"pct_comercio":21,"pct_manufactura":0,"pct_construccion":36,"pct_transporte":7,"pct_alojamiento":21,"pct_educ_superior":25,"brecha_educ":26,"pct_sin_seguro":17,"pct_seguro_privado":0,"brecha_seguro":12,"pct_med_tradicional":2,"pct_automedicacion":7,"pct_remedios_caseros":5,"pct_viv_desocupada":0,"pct_alquiler":14,"pct_electricidad":100,"pct_agua_red":64,"pct_alcantarillado":93,"pct_gas_red":50,"pct_gas_garrafa":50,"pct_lena_guano":50,"pct_basura_formal":100,"pct_basura_quema":0,"pct_basura_informal":0,"pct_internet":79,"pct_celular":79,"pct_televisor":71}},{"type":"Feature","geometry":{"type":"Polygon","coordinates":[[[-64.18191,-21.5235],[-64.18181,-21.52441],[-64.18175,-21.52441],[-64.18182,-21.52351],[-64.18088,-21.52366],[-64.18069,-21.52473],[-64.1808,-21.52485],[-64.18118,-21.52497],[-64.18234,-21.52504],[-64.18239,-21.52379],[-64.18266,-21.52343],[-64.18191,-21.5235]]]},"properties":{"n":"ENTRE RIOS","p":54,"personas_x_ha":21,"masculinidad":116,"pct_menor20":41,"pct_60mas":4,"pct_migrante":28,"dependencia_econ":286,"pct_empleados":36,"pct_cuentapropia":50,"pct_agricultura":14,"pct_comercio":14,"pct_manufactura":0,"pct_construccion":43,"pct_transporte":29,"pct_alojamiento":0,"pct_educ_superior":21,"brecha_educ":4,"pct_sin_seguro":7,"pct_seguro_privado":2,"brecha_seguro":6,"pct_med_tradicional":5,"pct_automedicacion":14,"pct_remedios_caseros":30,"pct_viv_desocupada":0,"pct_alquiler":21,"pct_electricidad":100,"pct_agua_red":86,"pct_alcantarillado":21,"pct_gas_red":21,"pct_gas_garrafa":79,"pct_lena_guano":79,"pct_basura_formal":93,"pct_basura_quema":7,"pct_basura_informal":0,"pct_internet":93,"pct_celular":93,"pct_televisor":71}},{"type":"Feature","geometry":{"type":"Polygon","coordinates":[[[-64.1694,-21.52615],[-64.16937,-21.52507],[-64.16873,-21.5253],[-64.16874,-21.52619],[-64.1694,-21.52615]]]},"properties":{"n":"ENTRE RIOS","p":36,"personas_x_ha":48,"masculinidad":80,"pct_menor20":44,"pct_60mas":0,"pct_migrante":22,"dependencia_econ":120,"pct_empleados":33,"pct_cuentapropia":40,"pct_agricultura":20,"pct_comercio":13,"pct_manufactura":0,"pct_construccion":20,"pct_transporte":7,"pct_alojamiento":20,"pct_educ_superior":26,"brecha_educ":30,"pct_sin_seguro":0,"pct_seguro_privado":0,"brecha_seguro":0,"pct_med_tradicional":15,"pct_automedicacion":21,"pct_remedios_caseros":24,"pct_viv_desocupada":0,"pct_alquiler":0,"pct_electricidad":100,"pct_agua_red":100,"pct_alcantarillado":0,"pct_gas_red":50,"pct_gas_garrafa":50,"pct_lena_guano":50,"pct_basura_formal":100,"pct_basura_quema":0,"pct_basura_informal":0,"pct_internet":88,"pct_celular":100,"pct_televisor":88}},{"type":"Feature","geometry":{"type":"Polygon","coordinates":[[[-63.78492,-21.41287],[-63.78467,-21.41375],[-63.7858,-21.41401],[-63.78598,-21.4131],[-63.78492,-21.41287]]]},"properties":{"n":"PALOS BLANCOS","p":28,"personas_x_ha":23,"masculinidad":211,"pct_menor20":43,"pct_60mas":11,"pct_migrante":54,"dependencia_econ":180,"pct_empleados":40,"pct_cuentapropia":60,"pct_agricultura":20,"pct_comercio":10,"pct_manufactura":10,"pct_construccion":10,"pct_transporte":0,"pct_alojamiento":0,"pct_educ_superior":19,"brecha_educ":0,"pct_sin_seguro":14,"pct_seguro_privado":0,"brecha_seguro":21,"pct_med_tradicional":0,"pct_automedicacion":6,"pct_remedios_caseros":6,"pct_viv_desocupada":0,"pct_alquiler":0,"pct_electricidad":71,"pct_agua_red":100,"pct_alcantarillado":0,"pct_gas_red":100,"pct_gas_garrafa":0,"pct_lena_guano":0,"pct_basura_formal":29,"pct_basura_quema":71,"pct_basura_informal":0,"pct_internet":86,"pct_celular":100,"pct_televisor":43}},{"type":"Feature","geometry":{"type":"Polygon","coordinates":[[[-63.78231,-21.41284],[-63.78185,-21.41393],[-63.78171,-21.41387],[-63.78155,-21.41417],[-63.78287,-21.41444],[-63.78315,-21.41346],[-63.78231,-21.41284]]]},"properties":{"n":"PALOS BLANCOS","p":19,"personas_x_ha":11,"masculinidad":46,"pct_menor20":32,"pct_60mas":37,"pct_migrante":11,"dependencia_econ":280,"pct_empleados":40,"pct_cuentapropia":20,"pct_agricultura":60,"pct_comercio":0,"pct_manufactura":0,"pct_construccion":0,"pct_transporte":0,"pct_alojamiento":0,"pct_educ_superior":38,"brecha_educ":-3,"pct_sin_seguro":0,"pct_seguro_privado":0,"brecha_seguro":0,"pct_med_tradicional":12,"pct_automedicacion":17,"pct_remedios_caseros":7,"pct_viv_desocupada":10,"pct_alquiler":0,"pct_electricidad":100,"pct_agua_red":86,"pct_alcantarillado":43,"pct_gas_red":100,"pct_gas_garrafa":0,"pct_lena_guano":0,"pct_basura_formal":71,"pct_basura_quema":29,"pct_basura_informal":0,"pct_internet":71,"pct_celular":86,"pct_televisor":57}},{"type":"Feature","geometry":{"type":"Polygon","coordinates":[[[-63.78421,-21.41498],[-63.78305,-21.41469],[-63.78288,-21.41507],[-63.78387,-21.41562],[-63.78421,-21.41498]]]},"properties":{"n":"PALOS BLANCOS","p":18,"personas_x_ha":24,"masculinidad":80,"pct_menor20":28,"pct_60mas":11,"pct_migrante":50,"dependencia_econ":70,"pct_empleados":30,"pct_cuentapropia":60,"pct_agricultura":30,"pct_comercio":50,"pct_manufactura":10,"pct_construccion":0,"pct_transporte":10,"pct_alojamiento":0,"pct_educ_superior":50,"brecha_educ":0,"pct_sin_seguro":6,"pct_seguro_privado":0,"brecha_seguro":12,"pct_med_tradicional":9,"pct_automedicacion":9,"pct_remedios_caseros":0,"pct_viv_desocupada":11,"pct_alquiler":12,"pct_electricidad":100,"pct_agua_red":62,"pct_alcantarillado":100,"pct_gas_red":75,"pct_gas_garrafa":25,"pct_lena_guano":25,"pct_basura_formal":12,"pct_basura_quema":88,"pct_basura_informal":0,"pct_internet":50,"pct_celular":75,"pct_televisor":50}},{"type":"Feature","geometry":{"type":"Polygon","coordinates":[[[-63.79044,-21.41548],[-63.79022,-21.41497],[-63.78909,-21.41535],[-63.78851,-21.41542],[-63.78711,-21.4173],[-63.78782,-21.41772],[-63.78948,-21.41614],[-63.79044,-21.41548]]]},"properties":{"n":"PALOS BLANCOS","p":32,"personas_x_ha":8,"masculinidad":100,"pct_menor20":56,"pct_60mas":6,"pct_migrante":41,"dependencia_econ":146,"pct_empleados":46,"pct_cuentapropia":38,"pct_agricultura":8,"pct_comercio":31,"pct_manufactura":23,"pct_construccion":15,"pct_transporte":0,"pct_alojamiento":8,"pct_educ_superior":6,"brecha_educ":-33,"pct_sin_seguro":6,"pct_seguro_privado":0,"brecha_seguro":12,"pct_med_tradicional":20,"pct_automedicacion":6,"pct_remedios_caseros":20,"pct_viv_desocupada":0,"pct_alquiler":0,"pct_electricidad":100,"pct_agua_red":100,"pct_alcantarillado":0,"pct_gas_red":17,"pct_gas_garrafa":67,"pct_lena_guano":67,"pct_basura_formal":0,"pct_basura_quema":83,"pct_basura_informal":0,"pct_internet":100,"pct_celular":100,"pct_televisor":100}},{"type":"Feature","geometry":{"type":"Polygon","coordinates":[[[-63.78553,-21.4153],[-63.7843,-21.41502],[-63.78395,-21.41564],[-63.78459,-21.41599],[-63.78519,-21.41605],[-63.78535,-21.4159],[-63.78553,-21.4153]]]},"properties":{"n":"PALOS BLANCOS","p":34,"personas_x_ha":27,"masculinidad":127,"pct_menor20":47,"pct_60mas":15,"pct_migrante":38,"dependencia_econ":209,"pct_empleados":27,"pct_cuentapropia":55,"pct_agricultura":36,"pct_comercio":18,"pct_manufactura":0,"pct_construccion":9,"pct_transporte":18,"pct_alojamiento":27,"pct_educ_superior":32,"brecha_educ":14,"pct_sin_seguro":0,"pct_seguro_privado":0,"brecha_seguro":0,"pct_med_tradicional":20,"pct_automedicacion":17,"pct_remedios_caseros":25,"pct_viv_desocupada":0,"pct_alquiler":0,"pct_electricidad":100,"pct_agua_red":100,"pct_alcantarillado":67,"pct_gas_red":100,"pct_gas_garrafa":0,"pct_lena_guano":0,"pct_basura_formal":56,"pct_basura_quema":44,"pct_basura_informal":0,"pct_internet":78,"pct_celular":100,"pct_televisor":100}},{"type":"Feature","geometry":{"type":"Polygon","coordinates":[[[-63.79236,-21.41381],[-63.79237,-21.41323],[-63.79167,-21.41332],[-63.78815,-21.41331],[-63.78817,-21.41421],[-63.78901,-21.41424],[-63.79236,-21.41381]]]},"properties":{"n":"PALOS BLANCOS","p":32,"personas_x_ha":9,"masculinidad":100,"pct_menor20":66,"pct_60mas":0,"pct_migrante":50,"dependencia_econ":433,"pct_empleados":67,"pct_cuentapropia":33,"pct_agricultura":33,"pct_comercio":17,"pct_manufactura":0,"pct_construccion":0,"pct_transporte":0,"pct_alojamiento":17,"pct_educ_superior":9,"brecha_educ":3,"pct_sin_seguro":0,"pct_seguro_privado":0,"brecha_seguro":0,"pct_med_tradicional":4,"pct_automedicacion":6,"pct_remedios_caseros":21,"pct_viv_desocupada":47,"pct_alquiler":33,"pct_electricidad":83,"pct_agua_red":100,"pct_alcantarillado":0,"pct_gas_red":83,"pct_gas_garrafa":17,"pct_lena_guano":17,"pct_basura_formal":33,"pct_basura_quema":67,"pct_basura_informal":0,"pct_internet":67,"pct_celular":100,"pct_televisor":100}},{"type":"Feature","geometry":{"type":"Polygon","coordinates":[[[-63.78617,-21.41247],[-63.78508,-21.41232],[-63.78495,-21.41275],[-63.78602,-21.41297],[-63.78617,-21.41247]]]},"properties":{"n":"PALOS BLANCOS","p":24,"personas_x_ha":39,"masculinidad":100,"pct_menor20":33,"pct_60mas":0,"pct_migrante":71,"dependencia_econ":85,"pct_empleados":23,"pct_cuentapropia":77,"pct_agricultura":31,"pct_comercio":8,"pct_manufactura":0,"pct_construccion":0,"pct_transporte":15,"pct_alojamiento":38,"pct_educ_superior":19,"brecha_educ":-10,"pct_sin_seguro":0,"pct_seguro_privado":0,"brecha_seguro":0,"pct_med_tradicional":10,"pct_automedicacion":13,"pct_remedios_caseros":28,"pct_viv_desocupada":14,"pct_alquiler":0,"pct_electricidad":100,"pct_agua_red":100,"pct_alcantarillado":60,"pct_gas_red":80,"pct_gas_garrafa":20,"pct_lena_guano":20,"pct_basura_formal":60,"pct_basura_quema":40,"pct_basura_informal":0,"pct_internet":80,"pct_celular":80,"pct_televisor":80}},{"type":"Feature","geometry":{"type":"Polygon","coordinates":[[[-63.78483,-21.41758],[-63.78561,-21.41681],[-63.78505,-21.41646],[-63.78487,-21.41659],[-63.78469,-21.41653],[-63.78415,-21.41696],[-63.78483,-21.41758]]]},"properties":{"n":"PALOS BLANCOS","p":20,"personas_x_ha":20,"masculinidad":150,"pct_menor20":45,"pct_60mas":5,"pct_migrante":30,"dependencia_econ":300,"pct_empleados":80,"pct_cuentapropia":20,"pct_agricultura":0,"pct_comercio":0,"pct_manufactura":0,"pct_construccion":20,"pct_transporte":0,"pct_alojamiento":0,"pct_educ_superior":36,"brecha_educ":-7,"pct_sin_seguro":0,"pct_seguro_privado":0,"brecha_seguro":0,"pct_med_tradicional":18,"pct_automedicacion":16,"pct_remedios_caseros":21,"pct_viv_desocupada":0,"pct_alquiler":0,"pct_electricidad":100,"pct_agua_red":100,"pct_alcantarillado":33,"pct_gas_red":83,"pct_gas_garrafa":17,"pct_lena_guano":17,"pct_basura_formal":33,"pct_basura_quema":33,"pct_basura_informal":0,"pct_internet":83,"pct_celular":83,"pct_televisor":83}},{"type":"Feature","geometry":{"type":"Polygon","coordinates":[[[-63.78558,-21.41506],[-63.78577,-21.41413],[-63.78464,-21.4139],[-63.7844,-21.4148],[-63.78558,-21.41506]]]},"properties":{"n":"PALOS BLANCOS","p":24,"personas_x_ha":19,"masculinidad":71,"pct_menor20":38,"pct_60mas":4,"pct_migrante":62,"dependencia_econ":167,"pct_empleados":22,"pct_cuentapropia":33,"pct_agricultura":33,"pct_comercio":22,"pct_manufactura":11,"pct_construccion":0,"pct_transporte":11,"pct_alojamiento":0,"pct_educ_superior":33,"brecha_educ":-23,"pct_sin_seguro":17,"pct_seguro_privado":0,"brecha_seguro":-29,"pct_med_tradicional":19,"pct_automedicacion":7,"pct_remedios_caseros":23,"pct_viv_desocupada":0,"pct_alquiler":12,"pct_electricidad":100,"pct_agua_red":88,"pct_alcantarillado":88,"pct_gas_red":88,"pct_gas_garrafa":12,"pct_lena_guano":12,"pct_basura_formal":75,"pct_basura_quema":12,"pct_basura_informal":0,"pct_internet":100,"pct_celular":100,"pct_televisor":88}},{"type":"Feature","geometry":{"type":"Polygon","coordinates":[[[-63.78676,-21.41733],[-63.78777,-21.41611],[-63.78785,-21.41565],[-63.7878,-21.41557],[-63.78669,-21.41552],[-63.78583,-21.41677],[-63.78676,-21.41733]]]},"properties":{"n":"PALOS BLANCOS","p":20,"personas_x_ha":8,"masculinidad":186,"pct_menor20":25,"pct_60mas":20,"pct_migrante":80,"dependencia_econ":67,"pct_empleados":33,"pct_cuentapropia":58,"pct_agricultura":33,"pct_comercio":0,"pct_manufactura":0,"pct_construccion":8,"pct_transporte":8,"pct_alojamiento":0,"pct_educ_superior":40,"brecha_educ":10,"pct_sin_seguro":5,"pct_seguro_privado":0,"brecha_seguro":8,"pct_med_tradicional":13,"pct_automedicacion":18,"pct_remedios_caseros":20,"pct_viv_desocupada":0,"pct_alquiler":0,"pct_electricidad":100,"pct_agua_red":86,"pct_alcantarillado":0,"pct_gas_red":57,"pct_gas_garrafa":29,"pct_lena_guano":29,"pct_basura_formal":14,"pct_basura_quema":57,"pct_basura_informal":29,"pct_internet":71,"pct_celular":86,"pct_televisor":86}},{"type":"Feature","geometry":{"type":"Polygon","coordinates":[[[-63.78323,-21.4135],[-63.78294,-21.41448],[-63.78427,-21.41481],[-63.7845,-21.41385],[-63.78323,-21.4135]]]},"properties":{"n":"PALOS BLANCOS","p":34,"personas_x_ha":22,"masculinidad":127,"pct_menor20":38,"pct_60mas":18,"pct_migrante":47,"dependencia_econ":162,"pct_empleados":46,"pct_cuentapropia":38,"pct_agricultura":23,"pct_comercio":23,"pct_manufactura":0,"pct_construccion":8,"pct_transporte":0,"pct_alojamiento":15,"pct_educ_superior":36,"brecha_educ":-13,"pct_sin_seguro":0,"pct_seguro_privado":0,"brecha_seguro":0,"pct_med_tradicional":13,"pct_automedicacion":13,"pct_remedios_caseros":29,"pct_viv_desocupada":19,"pct_alquiler":0,"pct_electricidad":100,"pct_agua_red":100,"pct_alcantarillado":30,"pct_gas_red":80,"pct_gas_garrafa":10,"pct_lena_guano":10,"pct_basura_formal":10,"pct_basura_quema":90,"pct_basura_informal":0,"pct_internet":90,"pct_celular":100,"pct_televisor":60}},{"type":"Feature","geometry":{"type":"Polygon","coordinates":[[[-63.78789,-21.41429],[-63.78681,-21.41425],[-63.78676,-21.41528],[-63.78789,-21.41527],[-63.78789,-21.41429]]]},"properties":{"n":"PALOS BLANCOS","p":22,"personas_x_ha":16,"masculinidad":175,"pct_menor20":36,"pct_60mas":0,"pct_migrante":64,"dependencia_econ":100,"pct_empleados":27,"pct_cuentapropia":45,"pct_agricultura":9,"pct_comercio":45,"pct_manufactura":9,"pct_construccion":9,"pct_transporte":0,"pct_alojamiento":0,"pct_educ_superior":21,"brecha_educ":4,"pct_sin_seguro":32,"pct_seguro_privado":0,"brecha_seguro":-9,"pct_med_tradicional":6,"pct_automedicacion":13,"pct_remedios_caseros":24,"pct_viv_desocupada":0,"pct_alquiler":0,"pct_electricidad":100,"pct_agua_red":75,"pct_alcantarillado":0,"pct_gas_red":88,"pct_gas_garrafa":12,"pct_lena_guano":12,"pct_basura_formal":38,"pct_basura_quema":38,"pct_basura_informal":25,"pct_internet":100,"pct_celular":100,"pct_televisor":88}},{"type":"Feature","geometry":{"type":"Polygon","coordinates":[[[-63.78335,-21.41191],[-63.78248,-21.41147],[-63.78121,-21.41045],[-63.78068,-21.41238],[-63.78214,-21.41227],[-63.78339,-21.41201],[-63.78335,-21.41191]]]},"properties":{"n":"PALOS BLANCOS","p":30,"personas_x_ha":10,"masculinidad":100,"pct_menor20":43,"pct_60mas":20,"pct_migrante":27,"dependencia_econ":233,"pct_empleados":11,"pct_cuentapropia":33,"pct_agricultura":100,"pct_comercio":0,"pct_manufactura":0,"pct_construccion":0,"pct_transporte":0,"pct_alojamiento":0,"pct_educ_superior":6,"brecha_educ":21,"pct_sin_seguro":0,"pct_seguro_privado":0,"brecha_seguro":0,"pct_med_tradicional":10,"pct_automedicacion":14,"pct_remedios_caseros":30,"pct_viv_desocupada":8,"pct_alquiler":0,"pct_electricidad":55,"pct_agua_red":82,"pct_alcantarillado":9,"pct_gas_red":36,"pct_gas_garrafa":9,"pct_lena_guano":9,"pct_basura_formal":0,"pct_basura_quema":91,"pct_basura_informal":0,"pct_internet":45,"pct_celular":55,"pct_televisor":55}},{"type":"Feature","geometry":{"type":"Polygon","coordinates":[[[-63.78585,-21.4185],[-63.78671,-21.41742],[-63.78571,-21.41686],[-63.78496,-21.41764],[-63.78585,-21.4185]]]},"properties":{"n":"PALOS BLANCOS","p":37,"personas_x_ha":22,"masculinidad":164,"pct_menor20":41,"pct_60mas":8,"pct_migrante":35,"dependencia_econ":208,"pct_empleados":50,"pct_cuentapropia":42,"pct_agricultura":25,"pct_comercio":33,"pct_manufactura":0,"pct_construccion":8,"pct_transporte":0,"pct_alojamiento":17,"pct_educ_superior":0,"brecha_educ":7,"pct_sin_seguro":8,"pct_seguro_privado":0,"brecha_seguro":1,"pct_med_tradicional":20,"pct_automedicacion":1,"pct_remedios_caseros":27,"pct_viv_desocupada":9,"pct_alquiler":10,"pct_electricidad":90,"pct_agua_red":80,"pct_alcantarillado":10,"pct_gas_red":60,"pct_gas_garrafa":30,"pct_lena_guano":30,"pct_basura_formal":10,"pct_basura_quema":30,"pct_basura_informal":0,"pct_internet":70,"pct_celular":90,"pct_televisor":70}},{"type":"Feature","geometry":{"type":"Polygon","coordinates":[[[-64.12348,-21.32182],[-64.12378,-21.32149],[-64.12185,-21.3196],[-64.12155,-21.32003],[-64.12225,-21.3208],[-64.12348,-21.32182]]]},"properties":{"n":"SALADITO CENTRO","p":32,"personas_x_ha":20,"masculinidad":100,"pct_menor20":47,"pct_60mas":3,"pct_migrante":3,"dependencia_econ":113,"pct_empleados":0,"pct_cuentapropia":93,"pct_agricultura":73,"pct_comercio":0,"pct_manufactura":0,"pct_construccion":0,"pct_transporte":0,"pct_alojamiento":7,"pct_educ_superior":12,"brecha_educ":-29,"pct_sin_seguro":0,"pct_seguro_privado":0,"brecha_seguro":0,"pct_med_tradicional":33,"pct_automedicacion":0,"pct_remedios_caseros":33,"pct_viv_desocupada":0,"pct_alquiler":0,"pct_electricidad":100,"pct_agua_red":88,"pct_alcantarillado":0,"pct_gas_red":0,"pct_gas_garrafa":50,"pct_lena_guano":50,"pct_basura_formal":0,"pct_basura_quema":100,"pct_basura_informal":0,"pct_internet":100,"pct_celular":100,"pct_televisor":75}},{"type":"Feature","geometry":{"type":"Polygon","coordinates":[[[-64.12051,-21.31747],[-64.12009,-21.31781],[-64.121,-21.31835],[-64.1213,-21.31798],[-64.12051,-21.31747]]]},"properties":{"n":"SALADITO CENTRO","p":21,"personas_x_ha":37,"masculinidad":91,"pct_menor20":48,"pct_60mas":5,"pct_migrante":24,"dependencia_econ":200,"pct_empleados":71,"pct_cuentapropia":29,"pct_agricultura":100,"pct_comercio":0,"pct_manufactura":0,"pct_construccion":0,"pct_transporte":0,"pct_alojamiento":0,"pct_educ_superior":18,"brecha_educ":-43,"pct_sin_seguro":10,"pct_seguro_privado":0,"brecha_seguro":20,"pct_med_tradicional":15,"pct_automedicacion":11,"pct_remedios_caseros":27,"pct_viv_desocupada":14,"pct_alquiler":17,"pct_electricidad":83,"pct_agua_red":100,"pct_alcantarillado":17,"pct_gas_red":0,"pct_gas_garrafa":67,"pct_lena_guano":67,"pct_basura_formal":0,"pct_basura_quema":100,"pct_basura_informal":0,"pct_internet":67,"pct_celular":67,"pct_televisor":33}},{"type":"Feature","geometry":{"type":"Polygon","coordinates":[[[-64.12364,-21.31938],[-64.1232,-21.31895],[-64.12276,-21.31934],[-64.12318,-21.31976],[-64.12364,-21.31938]]]},"properties":{"n":"SALADITO CENTRO","p":24,"personas_x_ha":57,"masculinidad":100,"pct_menor20":42,"pct_60mas":4,"pct_migrante":38,"dependencia_econ":200,"pct_empleados":50,"pct_cuentapropia":38,"pct_agricultura":50,"pct_comercio":12,"pct_manufactura":0,"pct_construccion":38,"pct_transporte":0,"pct_alojamiento":0,"pct_educ_superior":21,"brecha_educ":-29,"pct_sin_seguro":13,"pct_seguro_privado":0,"brecha_seguro":10,"pct_med_tradicional":16,"pct_automedicacion":12,"pct_remedios_caseros":31,"pct_viv_desocupada":0,"pct_alquiler":14,"pct_electricidad":100,"pct_agua_red":43,"pct_alcantarillado":0,"pct_gas_red":0,"pct_gas_garrafa":57,"pct_lena_guano":57,"pct_basura_formal":0,"pct_basura_quema":86,"pct_basura_informal":0,"pct_internet":86,"pct_celular":86,"pct_televisor":43}}]}